{"name":"St Anne","other_names":{"name:ar":"سينت آن","name:en":"St Anne","name:fr":"Sainte-Anne","name:mk":"Сент Ен","name:ur":"سینٹ این"},"display_name":"St Anne, Saint Anne, Alderney, GY9 3TD, Guernsey","address":{"town":"St Anne","state":"Alderney","postcode":"GY9 3TD","country":"Guernsey","country_code":"gg"},"osm_type":"node","osm_id":25282227,"type":"town","location":[-2.2036184,49.7147885],"bbox":[-2.2436184,49.6747885,-2.1636184,49.7547885],"border":{"name":"Saint Anne","other_names":{"name:af":"Saint Anne","name:br":"Saint Anne","name:de":"Saint Anne","name:en":"Saint Anne","name:fr":"Sainte Anne","name:he":"סנט אן","name:ie":"Saint Anne","name:ja":"セント・アン","name:lt":"Sent Ana","name:nl":"Saint Anne","name:pl":"Saint Anne","name:sr":"Света Ана","name:sv":"St Anne","name:ur":"سینٹ این، الدیرنے","name:zh":"圣安妮","name:ceb":"St Anne","name:ar":"سينت آن","name:mk":"Сент Ен","alt":"St Anne","alt:en":"St Anne","alt:fr":"Sainte-Anne","alt:ur":"سینٹ این"},"display_name":"Saint Anne, Alderney, Guernsey","address":{"town":"Saint Anne","state":"Alderney","country":"Guernsey","country_code":"gg"},"population":2000,"osm_type":"relation","osm_id":14058630,"type":"town","location":[-2.2036184,49.7147885],"bbox":[-2.2130051,49.7097891,-2.1916385,49.7217653]}}
{"name":"St Peter Port","other_names":{"name:ar":"سان بيتر بورت","name:be":"Сент-Пітэр-Порт","name:ca":"Saint Peter Port","name:en":"Saint Peter Port","name:fr":"Saint-Pierre-Port","name:hu":"Saint Peter Port","name:it":"Saint Peter Port","name:lt":"Sent Piter Portas","name:mk":"Сент Питер Порт","name:pl":"Saint Peter Port","name:ro":"St Peter Port","name:tr":"Saint Peter Port","name:uk":"Сент-Пітер-Порт","name:zh":"聖彼得港","name:zh-Hans":"圣彼得港","name:zh-Hant":"聖彼得港","name:be-tarask":"Сэнт-Пітэр-Порт"},"display_name":"St Peter Port, Guernsey, GY1, Guernsey","address":{"town":"St Peter Port","state":"Guernsey","postcode":"GY1","country":"Guernsey","country_code":"gg"},"population":18207,"osm_type":"node","osm_id":116359720,"type":"town","location":[-2.5389979,49.4568142],"bbox":[-2.5789979,49.4168142,-2.4989979,49.4968142],"border":{"name":"St Peter Port","other_names":{"name:en":"St Peter Port","name:fr":"Saint-Pierre-Port","name:nrf":"Saint Pierre Port","name:ar":"سان بيتر بورت","name:be":"Сент-Пітэр-Порт","name:ca":"Saint Peter Port","name:hu":"Saint Peter Port","name:it":"Saint Peter Port","name:lt":"Sent Piter Portas","name:mk":"Сент Питер Порт","name:pl":"Saint Peter Port","name:ro":"St Peter Port","name:tr":"Saint Peter Port","name:uk":"Сент-Пітер-Порт","name:zh":"聖彼得港","name:zh-Hans":"圣彼得港","name:zh-Hant":"聖彼得港","name:be-tarask":"Сэнт-Пітэр-Порт","alt:en":"Saint Peter Port"},"display_name":"St Peter Port, Guernsey","address":{"town":"St Peter Port","state":"Guernsey","country":"Guernsey","country_code":"gg"},"population":18207,"osm_type":"relation","osm_id":12346049,"type":"administrative","location":[-2.5389979,49.4568142],"bbox":[-2.565905,49.4356223,-2.440916,49.4828877]}}
