{"name":"Cobo","display_name":"Cobo, Castel, Guernsey, GY5 7HB, Guernsey","address":{"village":"Cobo","city":"Castel","state":"Guernsey","postcode":"GY5 7HB","country":"Guernsey","country_code":"gg"},"osm_type":"node","osm_id":8445750402,"type":"village","location":[-2.5892697,49.4784132],"bbox":[-2.6092697,49.4584132,-2.5692697,49.4984132]}
{"name":"Forest","other_names":{"name:fr":"La Forêt","name:nrf":"La Fouarêt"},"display_name":"Forest, Guernsey","address":{"village":"Forest","state":"Guernsey","country":"Guernsey","country_code":"gg"},"osm_type":"node","osm_id":8445750405,"type":"village","location":[-2.5927968,49.4312917],"bbox":[-2.6127968,49.4112917,-2.5727968,49.4512917],"border":{"name":"Forest","other_names":{"name:en":"Forest","name:fr":"La Forêt","name:nrf":"La Fouarêt"},"display_name":"Forest, Guernsey","address":{"village":"Forest","state":"Guernsey","country":"Guernsey","country_code":"gg"},"osm_type":"relation","osm_id":12348029,"type":"administrative","location":[-2.5927968,49.4312917],"bbox":[-2.6154483,49.4164212,-2.5763466,49.4371208]}}
{"name":"L'Aumone","display_name":"L'Aumone, Guernsey, GY1 1FF, Guernsey","address":{"village":"L'Aumone","state":"Guernsey","postcode":"GY1 1FF","country":"Guernsey","country_code":"gg"},"osm_type":"node","osm_id":8445750403,"type":"village","location":[-2.5628456,49.4604522],"bbox":[-2.5828456,49.4404522,-2.5428456,49.4804522]}
{"name":"L'Islet","display_name":"L'Islet, St Sampson, Guernsey, GY2 4RE, Guernsey","address":{"village":"L'Islet","city":"St Sampson","state":"Guernsey","postcode":"GY2 4RE","country":"Guernsey","country_code":"gg"},"osm_type":"node","osm_id":8445750404,"type":"village","location":[-2.5476244,49.4882778],"bbox":[-2.5676244,49.4682778,-2.5276244,49.5082778]}
{"name":"Saint-Sampson","other_names":{"name:en":"Saint-Sampson","name:nrf":"Saint Samsaon"},"display_name":"Saint-Sampson, St Sampson, Guernsey, GY2 4PB, Guernsey","address":{"village":"Saint-Sampson","city":"St Sampson","state":"Guernsey","postcode":"GY2 4PB","country":"Guernsey","country_code":"gg"},"osm_type":"node","osm_id":12625687689,"type":"village","location":[-2.5197048,49.4833607],"bbox":[-2.5397048,49.4633607,-2.4997048,49.5033607]}
{"name":"Sark","other_names":{"name:af":"Sark","name:ar":"سارك","name:ba":"Сарк","name:be":"Сарк","name:bn":"সার্ক","name:br":"Sark","name:ca":"Sark","name:cs":"Sark","name:cy":"Sark","name:da":"Sark","name:de":"Sark","name:el":"Σαρκ","name:en":"Sark","name:eo":"Sark","name:es":"Sark","name:et":"Sark","name:fa":"سرک","name:fi":"Sark","name:fr":"Sercq","name:ga":"An tSairc","name:gd":"Sark","name:gl":"Sark","name:he":"סֶרְק","name:hr":"Sark","name:hu":"Sark","name:id":"Sark","name:ie":"Sark","name:it":"Sark","name:ja":"サーク島","name:jv":"Sark","name:ko":"사크 섬","name:lt":"Sarkas","name:nl":"Sark","name:nn":"Sark","name:no":"Sark","name:oc":"Sarc","name:pl":"Sark","name:pt":"Sark","name:ro":"Sark","name:ru":"Сарк","name:sh":"Sark","name:sk":"Sark","name:sl":"Sark","name:sr":"Сарк","name:sv":"Sark","name:ta":"சார்க்","name:tr":"Sark","name:uk":"Сарк","name:vi":"Sark","name:zh":"薩克島","name:nov":"Sark","name:nrf":"Sèr","name:nrm":"Ser","name:sco":"Sark","name:stq":"Sark","name:vls":"Sark","alt_name:gd":"Sarc","alt_name:vi":"Sercq","alt_name:nrf":"Cerq"},"display_name":"Sark, Guernsey","address":{"village":"Sark","state":"Sark","country":"Guernsey","country_code":"gg"},"population":492,"osm_type":"node","osm_id":27748769,"type":"village","location":[-2.3595986,49.4351648],"bbox":[-2.3795986,49.4151648,-2.3395986,49.4551648],"border":{"name":"Sark","other_names":{"name:af":"Sark","name:ar":"سارك","name:ba":"Сарк","name:be":"Сарк","name:bn":"সার্ক","name:br":"Sark","name:ca":"Sark","name:cs":"Sark","name:cy":"Sark","name:da":"Sark","name:de":"Sark","name:el":"Σαρκ","name:en":"Sark","name:eo":"Sark","name:es":"Sark","name:et":"Sark","name:fa":"سرک","name:fi":"Sark","name:fr":"Sercq","name:ga":"An tSairc","name:gd":"Sark","name:gl":"Sark","name:he":"סֶרְק","name:hr":"Sark","name:hu":"Sark","name:id":"Sark","name:ie":"Sark","name:it":"Sark","name:ja":"サーク島","name:jv":"Sark","name:ko":"사크 섬","name:lt":"Sarkas","name:mk":"Сарк","name:nl":"Sark","name:nn":"Sark","name:no":"Sark","name:oc":"Sarc","name:pl":"Sark","name:pt":"Sark","name:ro":"Sark","name:ru":"Сарк","name:sh":"Sark","name:sk":"Sark","name:sl":"Sark","name:sr":"Сарк","name:sv":"Sark","name:ta":"சார்க்","name:tr":"Sark","name:uk":"Сарк","name:vi":"Sark","name:zh":"薩克島","name:nov":"Sark","name:nrf":"Sèr","name:nrm":"Ser","name:sco":"Sark","name:stq":"Sark","name:vls":"Sark","alt_name:gd":"Sarc","alt_name:vi":"Sercq","alt_name:nrf":"Cerq"},"display_name":"Sark, Guernsey","address":{"state":"Sark","country":"Guernsey","country_code":"gg"},"population":492,"osm_type":"relation","osm_id":1973199,"type":"administrative","location":[-2.3595986,49.4351648],"bbox":[-2.3953883,49.4000521,-2.3378459,49.4522855]}}
{"name":"St Martin","other_names":{"name:fr":"Saint-Martin"},"display_name":"St Martin, Guernsey","address":{"village":"St Martin","state":"Guernsey","country":"Guernsey","country_code":"gg"},"osm_type":"node","osm_id":8366933049,"type":"village","location":[-2.555524,49.4373488],"bbox":[-2.575524,49.4173488,-2.535524,49.4573488],"border":{"name":"St Martin","other_names":{"name:en":"St Martin","name:fr":"Saint-Martin","name:nrf":"Saint Martin"},"display_name":"St Martin, Guernsey","address":{"village":"St Martin","state":"Guernsey","country":"Guernsey","country_code":"gg"},"osm_type":"relation","osm_id":12347540,"type":"administrative","location":[-2.555524,49.4373488],"bbox":[-2.5852294,49.4155331,-2.5280063,49.4504021]}}
{"name":"St Pierre du Bois","display_name":"St Pierre du Bois, St. Pierre du Bois, Guernsey, GY7 9RZ, Guernsey","address":{"village":"St Pierre du Bois","city":"St. Pierre du Bois","state":"Guernsey","postcode":"GY7 9RZ","country":"Guernsey","country_code":"gg"},"osm_type":"node","osm_id":8445750406,"type":"village","location":[-2.6227221,49.4357133],"bbox":[-2.6427221,49.4157133,-2.6027221,49.4557133]}
