{"name":"Bafatá","display_name":"Bafatá, Sector de Bafatá, Região de Bafatá, Província Leste, Guiné-Bissau","address":{"city":"Bafatá","county":"Sector de Bafatá","state":"Região de Bafatá","ISO3166-2-lvl4":"GW-BA","region":"Província Leste","ISO3166-2-lvl3":"GW-L","country":"Guiné-Bissau","country_code":"gw"},"population":34760,"osm_type":"node","osm_id":1440998494,"type":"city","location":[-14.6555027,12.1723403],"bbox":[-14.8155027,12.0123403,-14.4955027,12.3323403]}
{"name":"Bissau","other_names":{"name:am":"ቢሳው","name:ar":"بيساو","name:az":"Bisau","name:be":"Бісау","name:bg":"Бисау","name:bn":"বিসাউ","name:bo":"བི་སའོ།","name:br":"Bissau","name:ca":"Bissau","name:de":"Bissau","name:el":"Μπισσάου","name:en":"Bissau","name:eo":"Bisaŭo","name:es":"Bisáu","name:fa":"بیسائو","name:fr":"Bissau","name:he":"ביסאו","name:ht":"Biso","name:hu":"Bissau","name:hy":"Բիսաու","name:is":"Bissá","name:ja":"ビサウ","name:ka":"ბისაუ","name:ko":"비사우","name:ky":"Бисау","name:lt":"Bisau","name:lv":"Bisava","name:mk":"Бисау","name:mr":"बिसाउ","name:nl":"Bissau","name:no":"Bissau","name:oc":"Bissau","name:pl":"Bissau","name:pt":"Bissau","name:ru":"Бисау","name:rw":"Biso","name:sr":"Бисао","name:sv":"Bissau","name:sw":"Bisau","name:ta":"பிசாவு","name:tg":"Бисау","name:th":"บิสเซา","name:tr":"Bissau","name:uk":"Бісау","name:ur":"بساؤ","name:zh":"比紹","name:bpy":"বিস্সাউ","name:ckb":"بیساو","name:mrj":"Бисау","name:new":"बिसाउ","name:nov":"Bisau","name:pnb":"بساؤ","name:udm":"Бисау","name:be-tarask":"Бісаў"},"display_name":"Bissau, Sector autónomo de Bissau, 1021, Guiné-Bissau","address":{"city":"Bissau","region":"Sector autónomo de Bissau","ISO3166-2-lvl3":"GW-BS","postcode":"1021","country":"Guiné-Bissau","country_code":"gw"},"population":395954,"osm_type":"node","osm_id":254525765,"type":"city","location":[-15.583055,11.861324],"bbox":[-15.743055,11.701324,-15.423055,12.021324]}
{"name":"Gabu","display_name":"Gabu, Sector de Gabu, Região de Gabu, Província Leste, Guiné-Bissau","address":{"city":"Gabu","county":"Sector de Gabu","state":"Região de Gabu","ISO3166-2-lvl4":"GW-GA","region":"Província Leste","ISO3166-2-lvl3":"GW-L","country":"Guiné-Bissau","country_code":"gw"},"osm_type":"node","osm_id":1944642790,"type":"city","location":[-14.2260818,12.2819517],"bbox":[-14.3860818,12.1219517,-14.0660818,12.4419517]}
