{"name":"Ağdərə","other_names":{"name:en":"Aghdere","name:ml":"അഗ്ദറ","name:uk":"Агдере"},"display_name":"Ağdərə, Ağdərə rayonu, Azərbaycan","address":{"city":"Ağdərə","state_district":"Ağdərə rayonu","country":"Azərbaycan","country_code":"az"},"population":5000,"osm_type":"node","osm_id":234061921,"type":"city","location":[46.8225075,40.2096703],"bbox":[46.6625075,40.0496703,46.9825075,40.3696703],"border":{"name":"Ağdərə","other_names":{"name:az":"Ağdərə","name:en":"Aghdara","name:ru":"Агдере","name:uk":"Агдере","name:ml":"അഗ്ദറ","alt:en":"Aghdere"},"display_name":"Ağdərə, Ağdərə rayonu, Azərbaycan","address":{"city":"Ağdərə","state_district":"Ağdərə rayonu","country":"Azərbaycan","country_code":"az"},"population":5000,"osm_type":"way","osm_id":1210954343,"type":"city","location":[46.8225075,40.2096703],"bbox":[46.7969229,40.1947159,46.8362797,40.2222671]}}
{"name":"Bakı","other_names":{"name:ab":"Бақәа","name:af":"Bakoe","name:am":"ባኩ","name:an":"Bacú","name:ar":"باكو","name:av":"Баку","name:az":"Bakı","name:ba":"Баҡы","name:be":"Баку","name:bg":"Баку","name:bn":"বাকু","name:bo":"བཱ་ཀུ།","name:br":"Bakou","name:bs":"Baku","name:ca":"Bakú","name:ce":"Бакох","name:cs":"Baku","name:cu":"Бакоу","name:cv":"Баку","name:cy":"Baku","name:da":"Baku","name:de":"Baku","name:dv":"ބާކޫ","name:el":"Μπακού","name:en":"Baku","name:eo":"Bakuo","name:es":"Bakú","name:et":"Bakuu","name:eu":"Baku","name:fa":"باکو","name:ff":"Baku","name:fi":"Baku","name:fo":"Baku","name:fr":"Bakou","name:fy":"Bakû","name:ga":"Bakı","name:gd":"Baku","name:gl":"Bakú","name:ha":"Baku","name:he":"באקו","name:hi":"बाकू","name:hr":"Baku","name:ht":"Bakou","name:hu":"Baku","name:hy":"Բաքու","name:ia":"Baku","name:id":"Baku","name:ie":"Baku","name:io":"Baku","name:is":"Bakú","name:it":"Baku","name:ja":"バクー","name:jv":"Baku","name:ka":"ბაქო","name:kg":"Baku","name:kk":"Баку","name:kn":"ಬಾಕು","name:ko":"바쿠","name:ku":"Bakû","name:kv":"Баку","name:kw":"Baku","name:ky":"Баку","name:la":"Bacua","name:lb":"Baku","name:li":"Bakoe","name:ln":"Baku","name:lo":"ບາກູ","name:lt":"Baku","name:lv":"Baku","name:mg":"Baku","name:mi":"Baku","name:mk":"Баку","name:ml":"ബാക്കു","name:mn":"Баку","name:mr":"बाकू","name:ms":"Baku","name:mt":"Baku","name:my":"ဘာကူးမြို့","name:na":"Baku","name:nb":"Baku","name:ne":"बाकु","name:nl":"Bakoe","name:nn":"Baku","name:no":"Baku","name:nv":"Kinłánítah Naayolí","name:ny":"Baku","name:oc":"Baki","name:os":"Баку","name:pa":"ਬਾਕੂ","name:pl":"Baku","name:ps":"باکو","name:pt":"Baku","name:qu":"Baku","name:rm":"Baku","name:ro":"Baku","name:ru":"Баку","name:rw":"Baku","name:sc":"Baku","name:sd":"باڪو","name:se":"Baku","name:sh":"Baku","name:si":"බාකු","name:sk":"Baku","name:sl":"Baku","name:sn":"Baku","name:so":"Baku","name:sq":"Baku","name:sr":"Баку","name:st":"Baku","name:su":"Baku","name:sv":"Baku","name:sw":"Baku","name:ta":"பாகு","name:te":"బాకు","name:tg":"Боку","name:th":"บากู","name:tk":"Baku","name:tl":"Baku","name:tr":"Bakü","name:tt":"Бакы","name:tw":"Baku","name:ty":"Baku","name:ug":"باکو","name:uk":"Баку","name:ur":"باکو","name:uz":"Boku","name:vi":"Baku","name:vo":"Bakı","name:wo":"Baku","name:yi":"באקו","name:yo":"Baku","name:zh":"巴库 / 巴庫","name:zu":"Baku","name:ace":"Baku","name:ady":"Баку","name:ang":"Baku","name:arz":"باكو","name:ast":"Bakú","name:awa":"बाकु","name:azb":"باکی","name:bcl":"Baku","name:bxr":"Баку","name:cdo":"Baku","name:ceb":"Baku","name:ckb":"باکوو","name:crh":"Baqu","name:diq":"Bakı","name:dsb":"Baku","name:frp":"Bakou","name:frr":"Baku","name:gag":"Baku","name:grc":"Βακυΐα","name:hak":"Baku","name:hif":"Baku","name:hsb":"Baku","name:hyw":"Պաքու","name:ilo":"Baku","name:inh":"Баку","name:kaa":"Baku","name:kab":"Baku","name:kbd":"Баку","name:lad":"Baku","name:lez":"Баку","name:lfn":"Bacu","name:lij":"Baku","name:lmo":"Baku","name:mai":"बाकु","name:mdf":"Баку","name:mhr":"Баку","name:mni":"ꯕꯥꯀꯨ","name:mrj":"Баку","name:myv":"Баку ош","name:mzn":"باکو","name:nan":"Baku","name:new":"बाकु","name:nov":"Baku","name:pap":"Baku","name:pih":"Baku","name:pms":"Baku","name:pnb":"باکو","name:sah":"Баку","name:sat":"ᱵᱟᱠᱩ","name:scn":"Baku","name:sco":"Baku","name:smn":"Baku","name:srn":"Baku","name:szl":"Baku","name:tet":"Baku","name:tyv":"Бакы","name:udm":"Баку","name:vec":"Bakù","name:vep":"Baku","name:vls":"Baku","name:vro":"Bakuu","name:war":"Baku","name:wuu":"巴库","name:xmf":"ბაქო","name:yue":"巴庫","name:zea":"Bakoe","name:az-cyr":"Бакы","name:simple":"Baku","name:bat-smg":"Baku","name:zh-Hans":"巴库","name:zh-Hant":"巴庫","name:roa-tara":"Baku","name:be-tarask":"Баку"},"display_name":"Bakı, Bakı İnzibati Ərazisi, Azərbaycan","address":{"city":"Bakı","ISO3166-2-lvl5":"AZ-BA","country":"Azərbaycan","country_code":"az"},"population":2300500,"osm_type":"node","osm_id":2117350415,"type":"city","location":[49.8328009,40.3755885],"bbox":[49.6728009,40.2155885,49.9928009,40.5355885],"border":[{"name":"Bakı İnzibati Ərazisi","other_names":{"name:ar":"باكو","name:az":"Bakı İnzibati Ərazisi","name:de":"Baku","name:en":"Baku City","name:es":"Bakú","name:fa":"باکو","name:fr":"Bakou","name:ja":"バクー","name:ru":"Бакинская Администрация","name:tr":"Bakü","name:uk":"Баку адміністрація","name:ur":"باکو","name:zh":"巴库","ISO3166-2":"AZ-BA","name:ab":"Бақәа","name:af":"Bakoe","name:am":"ባኩ","name:an":"Bacú","name:av":"Баку","name:ba":"Баҡы","name:be":"Баку","name:bg":"Баку","name:bn":"বাকু","name:bo":"བཱ་ཀུ།","name:br":"Bakou","name:bs":"Baku","name:ca":"Bakú","name:ce":"Бакох","name:cs":"Baku","name:cu":"Бакоу","name:cv":"Баку","name:cy":"Baku","name:da":"Baku","name:dv":"ބާކޫ","name:el":"Μπακού","name:eo":"Bakuo","name:et":"Bakuu","name:eu":"Baku","name:ff":"Baku","name:fi":"Baku","name:fo":"Baku","name:fy":"Bakû","name:ga":"Bakı","name:gd":"Baku","name:gl":"Bakú","name:ha":"Baku","name:he":"באקו","name:hi":"बाकू","name:hr":"Baku","name:ht":"Bakou","name:hu":"Baku","name:hy":"Բաքու","name:ia":"Baku","name:id":"Baku","name:ie":"Baku","name:io":"Baku","name:is":"Bakú","name:it":"Baku","name:jv":"Baku","name:ka":"ბაქო","name:kg":"Baku","name:kk":"Баку","name:kn":"ಬಾಕು","name:ko":"바쿠","name:ku":"Bakû","name:kv":"Баку","name:kw":"Baku","name:ky":"Баку","name:la":"Bacua","name:lb":"Baku","name:li":"Bakoe","name:ln":"Baku","name:lo":"ບາກູ","name:lt":"Baku","name:lv":"Baku","name:mg":"Baku","name:mi":"Baku","name:mk":"Баку","name:ml":"ബാക്കു","name:mn":"Баку","name:mr":"बाकू","name:ms":"Baku","name:mt":"Baku","name:my":"ဘာကူးမြို့","name:na":"Baku","name:nb":"Baku","name:ne":"बाकु","name:nl":"Bakoe","name:nn":"Baku","name:no":"Baku","name:nv":"Kinłánítah Naayolí","name:ny":"Baku","name:oc":"Baki","name:os":"Баку","name:pa":"ਬਾਕੂ","name:pl":"Baku","name:ps":"باکو","name:pt":"Baku","name:qu":"Baku","name:rm":"Baku","name:ro":"Baku","name:rw":"Baku","name:sc":"Baku","name:sd":"باڪو","name:se":"Baku","name:sh":"Baku","name:si":"බාකු","name:sk":"Baku","name:sl":"Baku","name:sn":"Baku","name:so":"Baku","name:sq":"Baku","name:sr":"Баку","name:st":"Baku","name:su":"Baku","name:sv":"Baku","name:sw":"Baku","name:ta":"பாகு","name:te":"బాకు","name:tg":"Боку","name:th":"บากู","name:tk":"Baku","name:tl":"Baku","name:tt":"Бакы","name:tw":"Baku","name:ty":"Baku","name:ug":"باکو","name:uz":"Boku","name:vi":"Baku","name:vo":"Bakı","name:wo":"Baku","name:yi":"באקו","name:yo":"Baku","name:zu":"Baku","name:ace":"Baku","name:ady":"Баку","name:ang":"Baku","name:arz":"باكو","name:ast":"Bakú","name:awa":"बाकु","name:azb":"باکی","name:bcl":"Baku","name:bxr":"Баку","name:cdo":"Baku","name:ceb":"Baku","name:ckb":"باکوو","name:crh":"Baqu","name:diq":"Bakı","name:dsb":"Baku","name:frp":"Bakou","name:frr":"Baku","name:gag":"Baku","name:grc":"Βακυΐα","name:hak":"Baku","name:hif":"Baku","name:hsb":"Baku","name:hyw":"Պաքու","name:ilo":"Baku","name:inh":"Баку","name:kaa":"Baku","name:kab":"Baku","name:kbd":"Баку","name:lad":"Baku","name:lez":"Баку","name:lfn":"Bacu","name:lij":"Baku","name:lmo":"Baku","name:mai":"बाकु","name:mdf":"Баку","name:mhr":"Баку","name:mni":"ꯕꯥꯀꯨ","name:mrj":"Баку","name:myv":"Баку ош","name:mzn":"باکو","name:nan":"Baku","name:new":"बाकु","name:nov":"Baku","name:pap":"Baku","name:pih":"Baku","name:pms":"Baku","name:pnb":"باکو","name:sah":"Баку","name:sat":"ᱵᱟᱠᱩ","name:scn":"Baku","name:sco":"Baku","name:smn":"Baku","name:srn":"Baku","name:szl":"Baku","name:tet":"Baku","name:tyv":"Бакы","name:udm":"Баку","name:vec":"Bakù","name:vep":"Baku","name:vls":"Baku","name:vro":"Bakuu","name:war":"Baku","name:wuu":"巴库","name:xmf":"ბაქო","name:yue":"巴庫","name:zea":"Bakoe","name:az-cyr":"Бакы","name:simple":"Baku","name:bat-smg":"Baku","name:zh-Hans":"巴库","name:zh-Hant":"巴庫","name:roa-tara":"Baku","name:be-tarask":"Баку","alt":"Bakı","alt:az":"Bakı","alt:en":"Baku","alt:ru":"Баку","alt:uk":"Баку","alt:zh":"巴库 / 巴庫"},"display_name":"Bakı İnzibati Ərazisi, Azərbaycan","address":{"city":"Bakı İnzibati Ərazisi","ISO3166-2-lvl5":"AZ-BA","country":"Azərbaycan","country_code":"az"},"population":2300500,"osm_type":"relation","osm_id":3764541,"type":"administrative","location":[49.8328009,40.3755885],"bbox":[49.2187514,39.5311636,51.1765554,40.79689]},{"name":"Bakı","other_names":{"name:ar":"باكو","name:av":"Баку","name:az":"Bakı","name:be":"Баку","name:de":"Baku","name:el":"Μπακού","name:en":"Baku","name:es":"Bakú","name:fa":"باکو","name:fr":"Bakou","name:hu":"Baku","name:hy":"Բաքու","name:ja":"バクー","name:ka":"ბაქო","name:ku":"Bakû","name:lt":"Baku","name:lv":"Baku","name:nl":"Bakoe","name:pl":"Baku","name:ru":"Баку","name:sk":"Baku","name:sr":"Баку","name:ta":"பாகு","name:tg":"Боку","name:tr":"Bakü","name:ug":"باکو","name:uk":"Баку","name:ur":"باکو","name:zh":"巴库 / 巴庫","name:azb":"باکی","name:grc":"Βακυΐα","name:lez":"Баку","name:yue":"巴庫","name:az-cyr":"Бакы","name:zh-Hans":"巴库","name:zh-Hant":"巴庫","name:be-tarask":"Баку"},"display_name":"Bakı, Azərbaycan","address":{"city":"Bakı","country":"Azərbaycan","country_code":"az"},"osm_type":"relation","osm_id":2415335,"type":"administrative","location":[49.953885176184734,40.3698536],"bbox":[49.7597276,40.2983937,50.0013381,40.4413231]}]}
{"name":"Bərdə","other_names":{"name:ar":"بردعة","name:az":"Bərdə","name:de":"Bərdə","name:en":"Barda","name:es":"Bərdə","name:fa":"بردع","name:fr":"Barda","name:ja":"バルダ","name:ml":"ബർദ","name:ru":"Барда","name:uk":"Барда","name:ur":"بردع","name:zh":"巴尔达/巴爾達","int_name":"Barda","name:azb":"برده","alt_name:ml":"പർട്ടാവ്","name:zh-Hans":"巴尔达","name:zh-Hant":"巴爾達"},"display_name":"Bərdə, Bərdə rayonu, 0900, Azərbaycan","address":{"city":"Bərdə","state_district":"Bərdə rayonu","ISO3166-2-lvl5":"AZ-BAR","postcode":"0900","country":"Azərbaycan","country_code":"az"},"population":40300,"osm_type":"node","osm_id":229639771,"type":"city","location":[47.1246287,40.3812457],"bbox":[46.9646287,40.2212457,47.2846287,40.5412457],"border":{"name":"Bərdə","other_names":{"name:ar":"بردعة","name:az":"Bərdə","name:en":"Barda","name:fa":"بردع","name:ru":"Барда","name:uk":"Барда","name:ur":"بردع","name:azb":"برده","name:de":"Bərdə","name:es":"Bərdə","name:fr":"Barda","name:ja":"バルダ","name:ml":"ബർദ","name:zh":"巴尔达/巴爾達","int_name":"Barda","alt_name:ml":"പർട്ടാവ്","name:zh-Hans":"巴尔达","name:zh-Hant":"巴爾達"},"display_name":"Bərdə, Bərdə rayonu, 0900, Azərbaycan","address":{"city":"Bərdə","state_district":"Bərdə rayonu","ISO3166-2-lvl5":"AZ-BAR","postcode":"0900","country":"Azərbaycan","country_code":"az"},"population":40300,"osm_type":"way","osm_id":281586688,"type":"city","location":[47.1246287,40.3812457],"bbox":[47.1107932,40.3445047,47.147833,40.3976682]}}
{"name":"Biləsuvar","other_names":{"name:ar":"بيلاسوار","name:az":"Biləsuvar","name:de":"Biləsuvar","name:en":"Biləsuvar","name:es":"Biləsuvar","name:fr":"Biləsuvar","name:ja":"ビラスヴァル","name:ml":"ബിലസുവാർ","name:ru":"Билясувар","name:uk":"Білясувар"},"display_name":"Biləsuvar, Biləsuvar rayonu, Azərbaycan","address":{"city":"Biləsuvar","state_district":"Biləsuvar rayonu","ISO3166-2-lvl5":"AZ-BIL","country":"Azərbaycan","country_code":"az"},"population":23500,"osm_type":"node","osm_id":231379524,"type":"city","location":[48.5465607,39.4561281],"bbox":[48.3865607,39.2961281,48.7065607,39.6161281],"border":{"name":"Biləsuvar","other_names":{"name:ar":"بيلاسوار","name:az":"Biləsuvar","name:en":"Bilasuvar","name:fa":"بیله سوار","name:ru":"Билясувар","name:uk":"Білясувар","name:de":"Biləsuvar","name:es":"Biləsuvar","name:fr":"Biləsuvar","name:ja":"ビラスヴァル","name:ml":"ബിലസുവാർ","alt:en":"Biləsuvar"},"display_name":"Biləsuvar, Biləsuvar rayonu, Azərbaycan","address":{"city":"Biləsuvar","state_district":"Biləsuvar rayonu","ISO3166-2-lvl5":"AZ-BIL","country":"Azərbaycan","country_code":"az"},"population":23500,"osm_type":"way","osm_id":292189625,"type":"city","location":[48.5465607,39.4561281],"bbox":[48.5242251,39.4353326,48.5661784,39.4785364]}}
{"name":"Cəlilabad","other_names":{"name:ar":"جليل‌ آباد","name:az":"Cəlilabad","name:be":"Джалілабад","name:de":"Cəlilabad","name:en":"Jalilabad","name:es":"Yalilabad","name:fa":"جلیل‌آباد","name:fr":"Cəlilabad","name:hy":"Ջալիլաբադ","name:ja":"ジャリラバド","name:ks":"جلیل آباد","name:ml":"ജലീലാബാദ്","name:ru":"Джалилабад","name:tg":"Ҷалилобод","name:tt":"Җәлилабад","name:uk":"Джалілабад","name:ur":"جلیل آباد","name:arz":"جليل آباد","name:azb":"جلیل آباد","name:pnb":"جلیل آباد","name:xmf":"ჯალილაბადი"},"display_name":"Cəlilabad, Cəlilabad rayonu, 0112, Azərbaycan","address":{"city":"Cəlilabad","state_district":"Cəlilabad rayonu","ISO3166-2-lvl5":"AZ-CAL","postcode":"0112","country":"Azərbaycan","country_code":"az"},"population":47400,"osm_type":"node","osm_id":231405163,"type":"city","location":[48.5050593,39.2103933],"bbox":[48.3450593,39.0503933,48.6650593,39.3703933],"border":{"name":"Cəlilabad","other_names":{"name:ar":"جليل‌ آباد","name:az":"Cəlilabad","name:en":"Jalilabad","name:fa":"جلیل آباد","name:ru":"Джалилабад","name:uk":"Джалілабад","name:be":"Джалілабад","name:de":"Cəlilabad","name:es":"Yalilabad","name:fr":"Cəlilabad","name:hy":"Ջալիլաբադ","name:ja":"ジャリラバド","name:ks":"جلیل آباد","name:ml":"ജലീലാബാദ്","name:tg":"Ҷалилобод","name:tt":"Җәлилабад","name:ur":"جلیل آباد","name:arz":"جليل آباد","name:azb":"جلیل آباد","name:pnb":"جلیل آباد","name:xmf":"ჯალილაბადი","alt:fa":"جلیل‌آباد"},"display_name":"Cəlilabad, Cəlilabad rayonu, 0112, Azərbaycan","address":{"city":"Cəlilabad","state_district":"Cəlilabad rayonu","ISO3166-2-lvl5":"AZ-CAL","postcode":"0112","country":"Azərbaycan","country_code":"az"},"population":47400,"osm_type":"way","osm_id":282964158,"type":"city","location":[48.5050593,39.2103933],"bbox":[48.4620875,39.182231,48.5613439,39.233504]}}
{"name":"Gəncə","other_names":{"name:ar":"كنجه","name:az":"Gəncə","name:ba":"Гәнжә","name:be":"Гянджа","name:bg":"Ганджа","name:ca":"Gandja","name:ce":"Гаьнджаь","name:cs":"Gjandža","name:da":"Gandja","name:de":"Gandscha","name:el":"Γκαντζά","name:en":"Ganja","name:eo":"Ganĝo","name:es":"Ganyá","name:fa":"گنجه","name:fr":"Gəncə","name:he":"גנג'ה","name:hi":"गांजा","name:hr":"Gandža","name:hy":"Գանձակ","name:id":"Ganja","name:io":"Gäncä","name:ja":"ギャンジャ","name:ka":"განჯა","name:kk":"Гәнжә","name:ko":"간자","name:la":"Gangia","name:lt":"Gendžė","name:lv":"Gendže","name:ml":"ഗഞ്ജ","name:mn":"Гянжа","name:ms":"Ganja","name:nb":"Ganja","name:nn":"Gandsja","name:os":"Гандза","name:pl":"Gandża","name:pt":"Ganja","name:qu":"Ganja","name:ro":"Gandja","name:ru":"Гянджа","name:sl":"Gandža","name:sq":"Ganxha","name:sr":"Ганџа","name:su":"Ganja","name:sv":"Ganja","name:ta":"கஞ்சா நகரம்","name:tg":"Ганҷа","name:th":"แกนแจ","name:tk":"Ganja","name:tr":"Gence","name:tt":"Гәнҗә","name:uk":"Ґанджа","name:ur":"گنجہ","name:uz":"Ganja","name:vi":"Ganja","name:zh":"占贾/占贾","int_name":"Ganja","old_name:de":"Kirowabad","name:zh-Hans":"占贾","name:zh-Hant":"占贾"},"display_name":"Gəncə, Gəncə İnzibati Ərazisi, Azərbaycan","address":{"city":"Gəncə","ISO3166-2-lvl5":"AZ-GA","country":"Azərbaycan","country_code":"az"},"population":335800,"osm_type":"node","osm_id":183345861,"type":"city","location":[46.3597178,40.6798083],"bbox":[46.1997178,40.5198083,46.5197178,40.8398083],"border":[{"name":"Gəncə","other_names":{"name:ar":"كنجه","name:az":"Gəncə","name:de":"Gandscha","name:en":"Ganja","name:es":"Ganyá","name:fa":"گنجه","name:hi":"गांजा","name:ru":"Гянджа","name:tr":"Gence","name:uk":"Ґанджа","int_name":"Ganja","old_name:de":"Kirowabad"},"display_name":"Gəncə, Azərbaycan","address":{"city":"Gəncə","country":"Azərbaycan","country_code":"az"},"population":335800,"osm_type":"way","osm_id":280690654,"type":"city","location":[46.35603632106619,40.677229499999996],"bbox":[46.2532222,40.6026803,46.4419424,40.7514678]},{"name":"Gəncə İnzibati Ərazisi","other_names":{"name:ar":"رقعة المدينة كنجه","name:az":"Gəncə İnzibati Ərazisi","name:de":"Verwaltungsgebiet Gandscha","name:en":"Ganja City","name:es":"Ganja","name:fr":"Ganja","name:ja":"ギャンジャ","name:ru":"Гянджинская Администрация","name:tr":"Gence","name:uk":"Адміністраитивна територія Ґанджа","ISO3166-2":"AZ-GA","name:ba":"Гәнжә","name:be":"Гянджа","name:bg":"Ганджа","name:ca":"Gandja","name:ce":"Гаьнджаь","name:cs":"Gjandža","name:da":"Gandja","name:el":"Γκαντζά","name:eo":"Ganĝo","name:fa":"گنجه","name:he":"גנג'ה","name:hi":"गांजा","name:hr":"Gandža","name:hy":"Գանձակ","name:id":"Ganja","name:io":"Gäncä","name:ka":"განჯა","name:kk":"Гәнжә","name:ko":"간자","name:la":"Gangia","name:lt":"Gendžė","name:lv":"Gendže","name:ml":"ഗഞ്ജ","name:mn":"Гянжа","name:ms":"Ganja","name:nb":"Ganja","name:nn":"Gandsja","name:os":"Гандза","name:pl":"Gandża","name:pt":"Ganja","name:qu":"Ganja","name:ro":"Gandja","name:sl":"Gandža","name:sq":"Ganxha","name:sr":"Ганџа","name:su":"Ganja","name:sv":"Ganja","name:ta":"கஞ்சா நகரம்","name:tg":"Ганҷа","name:th":"แกนแจ","name:tk":"Ganja","name:tt":"Гәнҗә","name:ur":"گنجہ","name:uz":"Ganja","name:vi":"Ganja","name:zh":"占贾/占贾","int_name":"Ganja","old_name:de":"Kirowabad","name:zh-Hans":"占贾","name:zh-Hant":"占贾","alt":"Gəncə","alt:ar":"كنجه","alt:az":"Gəncə","alt:de":"Gandscha","alt:en":"Ganja","alt:es":"Ganyá","alt:fr":"Gəncə","alt:ru":"Гянджа","alt:uk":"Ґанджа"},"display_name":"Gəncə İnzibati Ərazisi, Azərbaycan","address":{"city":"Gəncə İnzibati Ərazisi","ISO3166-2-lvl5":"AZ-GA","country":"Azərbaycan","country_code":"az"},"population":335800,"osm_type":"relation","osm_id":3764556,"type":"administrative","location":[46.3597178,40.6798083],"bbox":[46.2514487,40.6023029,46.5089005,40.7556134]}]}
{"name":"İmişli","other_names":{"name:ar":"إيميشلي","name:az":"İmişli","name:de":"İmişli","name:en":"Imishli","name:es":"İmişli","name:fa":"ایمیشلی","name:fr":"İmişli","name:ja":"イミシュリ","name:ml":"ഈമിഷ്ലി","name:ru":"Имишли","name:uk":"Імішлі","name:ur":"ایمیشلی","name:azb":"ایمیش‌لی"},"display_name":"İmişli, İmişli rayonu, Azərbaycan","address":{"city":"İmişli","state_district":"İmişli rayonu","ISO3166-2-lvl5":"AZ-IMI","country":"Azərbaycan","country_code":"az"},"population":36200,"osm_type":"node","osm_id":231795671,"type":"city","location":[48.0594743,39.8716243],"bbox":[47.8994743,39.7116243,48.2194743,40.0316243],"border":{"name":"İmişli","other_names":{"name:ar":"إيميشلي","name:az":"İmişli","name:en":"Imishli","name:fa":"ایمیشلی","name:ru":"Имишли","name:uk":"Імішлі","name:ur":"ایمیشلی","name:azb":"ایمیش‌لی","name:de":"İmişli","name:es":"İmişli","name:fr":"İmişli","name:ja":"イミシュリ","name:ml":"ഈമിഷ്ലി"},"display_name":"İmişli, İmişli rayonu, Azərbaycan","address":{"city":"İmişli","state_district":"İmişli rayonu","ISO3166-2-lvl5":"AZ-IMI","country":"Azərbaycan","country_code":"az"},"population":36200,"osm_type":"way","osm_id":201790241,"type":"city","location":[48.0594743,39.8716243],"bbox":[48.0255075,39.8422117,48.1130694,39.8993424]}}
{"name":"Laçın","other_names":{"name:az":"Laçın","name:en":"Lachin","name:hy":"Բերձոր","name:ru":"Лачин","name:tr":"Laçın","name:uk":"Лачин","name:ckb":"لاچین","name:fr":"Latchine","name:ku":"Laçîn","name:ml":"ലച്ചിൻ","name:sk":"Lačin","alt_name:en":"Berdzor"},"display_name":"Laçın, Laçın rayonu, Azərbaycan","address":{"town":"Laçın","state_district":"Laçın rayonu","ISO3166-2-lvl5":"AZ-LAC","country":"Azərbaycan","country_code":"az"},"population":2090,"osm_type":"way","osm_id":371909474,"type":"city","location":[46.5488378,39.6401825],"bbox":[46.5348368,39.6297843,46.5612277,39.6559439]}
{"name":"Lənkəran","other_names":{"name:ar":"لنكران","name:az":"Lənkəran","name:de":"Lənkəran","name:en":"Lankaran","name:es":"Lankaran","name:fr":"Lankaran","name:hi":"लंकाराण","name:ja":"レンキャラン","name:ml":"ലങ്കറാൻ","name:pl":"Lenkoran","name:ru":"Ленкорань","name:uk":"Ленкорань","name:tly":"Ланкон"},"display_name":"Lənkəran, Lənkəran İnzibati Ərazisi, Azərbaycan","address":{"city":"Lənkəran","ISO3166-2-lvl5":"AZ-LA","country":"Azərbaycan","country_code":"az"},"population":51600,"osm_type":"node","osm_id":231540379,"type":"city","location":[48.8539286,38.7537311],"bbox":[48.6939286,38.5937311,49.0139286,38.9137311],"border":[{"name":"Lənkəran","other_names":{"name:ar":"لنكران","name:az":"Lənkəran","name:en":"Lankaran","name:hi":"लंकाराण","name:ja":"レンキャラン","name:ru":"Ленкорань","name:uk":"Ленкорань"},"display_name":"Lənkəran, Azərbaycan","address":{"city":"Lənkəran","country":"Azərbaycan","country_code":"az"},"population":51600,"osm_type":"way","osm_id":298058303,"type":"city","location":[48.84377839683471,38.7618973],"bbox":[48.8048989,38.7328062,48.8634115,38.7909083]},{"name":"Lənkəran İnzibati Ərazisi","other_names":{"name:ar":"لنكران","name:az":"Lənkəran İnzibati Ərazisi","name:de":"Lankaran","name:en":"Lankaran","name:es":"Lankaran","name:fa":"لنکران","name:fr":"Lankaran","name:ja":"レンキャラン","name:ru":"Ленкоранская Администрация","ISO3166-2":"AZ-LA","name:hi":"लंकाराण","name:ml":"ലങ്കറാൻ","name:pl":"Lenkoran","name:uk":"Ленкорань","name:tly":"Ланкон","alt":"Lənkəran","alt:az":"Lənkəran","alt:de":"Lənkəran","alt:ru":"Ленкорань"},"display_name":"Lənkəran İnzibati Ərazisi, Azərbaycan","address":{"city":"Lənkəran İnzibati Ərazisi","ISO3166-2-lvl5":"AZ-LA","country":"Azərbaycan","country_code":"az"},"population":51600,"osm_type":"relation","osm_id":3812604,"type":"administrative","location":[48.8539286,38.7537311],"bbox":[48.7934223,38.7317703,48.8692161,38.7980029]}]}
{"name":"Mingəçevir","other_names":{"name:ar":"مينغاشوير","name:az":"Mingəçevir","name:de":"Mingəçevir","name:en":"Mingachevir","name:es":"Mingachevir","name:fa":"مینگه‌چویر","name:fr":"Mingachevir","name:ja":"ミンギャチェヴィル","name:lt":"Mingečevyras","name:ml":"മീംഗച്ചെവീർ","name:pl":"Mingeczaur","name:ru":"Мингечевир","name:uk":"Мінгечаур","name:ur":"منگچویر","name:azb":"مینگه‌چئویر","name:pnb":"منگیچیویر"},"display_name":"Mingəçevir, Mingəçevir İnzibati Ərazisi, Azərbaycan","address":{"city":"Mingəçevir","ISO3166-2-lvl5":"AZ-MI","country":"Azərbaycan","country_code":"az"},"population":102400,"osm_type":"node","osm_id":227052744,"type":"city","location":[47.052389,40.7646918],"bbox":[46.892389,40.6046918,47.212389,40.9246918],"border":[{"name":"Mingəçevir","other_names":{"name:az":"Mingəçevir","name:de":"Mingätschewir","name:en":"Mingachevir","name:ru":"Мингечевир","name:uk":"Мінгечаур","int_name":"Mingachevir"},"display_name":"Mingəçevir, Azərbaycan","address":{"city":"Mingəçevir","country":"Azərbaycan","country_code":"az"},"population":106400,"osm_type":"way","osm_id":180800728,"type":"city","location":[47.02856046900841,40.772594600000005],"bbox":[46.9594325,40.7440229,47.1138625,40.7987878]},{"name":"Mingəçevir İnzibati Ərazisi","other_names":{"name:az":"Mingəçevir İnzibati Ərazisi","name:de":"Mingəçevir","name:en":"Mingachevir","name:es":"Mingachevir","name:fa":"مینگه‌چویر","name:fr":"Mingachevir","name:ja":"ミンギャチェヴィル","name:ru":"Мингечаурская Администрация","name:uk":"Мінгечаурська адміністрація","ISO3166-2":"AZ-MI","name:ar":"مينغاشوير","name:lt":"Mingečevyras","name:ml":"മീംഗച്ചെവീർ","name:pl":"Mingeczaur","name:ur":"منگچویر","name:azb":"مینگه‌چئویر","name:pnb":"منگیچیویر","alt":"Mingəçevir","alt:az":"Mingəçevir","alt:ru":"Мингечевир","alt:uk":"Мінгечаур"},"display_name":"Mingəçevir İnzibati Ərazisi, Azərbaycan","address":{"city":"Mingəçevir İnzibati Ərazisi","ISO3166-2-lvl5":"AZ-MI","country":"Azərbaycan","country_code":"az"},"population":102400,"osm_type":"relation","osm_id":3812581,"type":"administrative","location":[47.052389,40.7646918],"bbox":[46.868259,40.7438437,47.1146146,40.8751214]}]}
{"name":"Naxçıvan","other_names":{"name:ar":"نخجوان","name:az":"Naxçıvan","name:be":"Нахічэвань","name:bg":"Нахичеван","name:ca":"Nakhitxevan","name:ce":"Нахичеван","name:cs":"Nachičevan","name:de":"Nachitschewan","name:en":"Nakhchivan","name:es":"Najicheván","name:fa":"نخجوان","name:fr":"Nakhitchevan","name:he":"נחצ'יבאן","name:hi":"नखचिवान","name:hr":"Nahičevan","name:hy":"Նախիջևան","name:ja":"ナヒチェヴァン","name:ka":"ნახიჩევანი","name:kk":"Нахшыван","name:ko":"나흐츠반","name:ku":"Naxçivan","name:ky":"Нахичеван","name:mg":"Nakhchivan","name:ml":"നഖ്ചിവാൻ","name:nl":"Nachitsjevan","name:pl":"Nachiczewan","name:ro":"Naxcivan","name:ru":"Нахичевань","name:sk":"Nachičevan","name:sr":"Нахчиван","name:tg":"Нахҷувон","name:tr":"Nahçıvan","name:tt":"Нахчыван","name:uk":"Нахічевань","name:ur":"ناخچیوان","name:uz":"Naxichevan","name:zh":"纳希切万","name:azb":"ناخجیوان","name:ckb":"نەخچیڤان","name:grc":"Ναξουὰνα","name:hyw":"Նախիջեւան","name:xmf":"ნახიჩევანი","alt_name:ml":"നഖിജെവാൻ","alt_name:grc":"Ναξουάνα","name:zh-Hans":"纳希切万","name:zh-Hant":"納希切萬","name:be-tarask":"Нахічэвань"},"display_name":"Naxçıvan, Naxçıvan Muxtar Respublikası, Azərbaycan","address":{"city":"Naxçıvan","ISO3166-2-lvl5":"AZ-NV","region":"Naxçıvan Muxtar Respublikası","ISO3166-2-lvl3":"AZ-NX","country":"Azərbaycan","country_code":"az"},"population":81400,"osm_type":"node","osm_id":171513871,"type":"city","location":[45.4069671,39.217497],"bbox":[45.2469671,39.057497,45.5669671,39.377497],"border":[{"name":"Naxçıvan","other_names":{"name:az":"Naxçıvan","name:ru":"Нахичевань"},"display_name":"Naxçıvan, Naxçıvan Muxtar Respublikası, 7000, Azərbaycan","address":{"city":"Naxçıvan","region":"Naxçıvan Muxtar Respublikası","ISO3166-2-lvl3":"AZ-NX","postcode":"7000","country":"Azərbaycan","country_code":"az"},"osm_type":"way","osm_id":726874325,"type":"city","location":[45.41169458880367,39.207888350000005],"bbox":[45.387474,39.1800734,45.4347547,39.235715]},{"name":"Naxçıvan","other_names":{"name:ar":"نخجوان","name:az":"Naxçıvan","name:be":"Нахічэвань","name:bg":"Нахичеван","name:ce":"Нахичеван","name:cs":"Nachičevan","name:de":"Nachitschewan","name:en":"Nakhchivan","name:es":"Najicheván","name:fa":"نخجوان","name:fr":"Nakhitchevan","name:hy":"Նախիջևան","name:ja":"ナヒチェヴァン","name:ka":"ნახიჩევანი","name:kk":"Нахшыван","name:ku":"Naxciwan","name:ky":"Нахичеван","name:ru":"Нахичевань","name:sk":"Nachičevan","name:sr":"Нахчиван","name:tg":"Нахҷувон","name:tt":"Нахчыван","name:uk":"Нахічевань","name:ur":"ناخچیوان","name:azb":"ناخجیوان","name:grc":"Ναξουὰνα","name:hyw":"Նախիջեւան","name:xmf":"ნახიჩევანი","ISO3166-2":"AZ-NV","alt_name:grc":"Ναξουάνα","name:ca":"Nakhitxevan","name:he":"נחצ'יבאן","name:hi":"नखचिवान","name:hr":"Nahičevan","name:ko":"나흐츠반","name:mg":"Nakhchivan","name:ml":"നഖ്ചിവാൻ","name:nl":"Nachitsjevan","name:pl":"Nachiczewan","name:ro":"Naxcivan","name:tr":"Nahçıvan","name:uz":"Naxichevan","name:zh":"纳希切万","name:be-tarask":"Нахічэвань","name:ckb":"نەخچیڤان","alt_name:ml":"നഖിജെവാൻ","name:zh-Hans":"纳希切万","name:zh-Hant":"納希切萬","alt:ku":"Naxçivan"},"display_name":"Naxçıvan, Naxçıvan Muxtar Respublikası, Azərbaycan","address":{"city":"Naxçıvan","ISO3166-2-lvl5":"AZ-NV","region":"Naxçıvan Muxtar Respublikası","ISO3166-2-lvl3":"AZ-NX","country":"Azərbaycan","country_code":"az"},"population":81400,"osm_type":"relation","osm_id":2379566,"type":"administrative","location":[45.4069671,39.217497],"bbox":[45.271912,39.1212901,45.4377124,39.3140743]}]}
{"name":"Neftçala","other_names":{"name:ar":"نفطجاله","name:az":"Neftçala","name:de":"Neftçala","name:en":"Neftchala","name:es":"Neftçala","name:fa":"نفت چاله","name:fr":"Neftçala","name:hi":"नेफ्तचाला","name:ja":"ネフトチャラ","name:ml":"നെഫ്ത്ചാല","name:ru":"Нефтечала","name:uk":"Нефтчала","alt_name:ar":"نيفتشالا"},"display_name":"Neftçala, Neftçala rayonu, Azərbaycan","address":{"city":"Neftçala","state_district":"Neftçala rayonu","ISO3166-2-lvl5":"AZ-NEF","country":"Azərbaycan","country_code":"az"},"population":22100,"osm_type":"node","osm_id":231332430,"type":"city","location":[49.248607,39.3790532],"bbox":[49.088607,39.2190532,49.408607,39.5390532],"border":{"name":"Neftçala","other_names":{"name:ar":"نفطجاله","name:az":"Neftçala","name:en":"Neftchala","name:fa":"نفت چاله","name:hi":"नेफ्चला","name:ru":"Нефтечала","name:uk":"Нефтчала","alt_name:ar":"نيفتشالا","name:de":"Neftçala","name:es":"Neftçala","name:fr":"Neftçala","name:ja":"ネフトチャラ","name:ml":"നെഫ്ത്ചാല","alt:hi":"नेफ्तचाला"},"display_name":"Neftçala, Neftçala rayonu, Azərbaycan","address":{"city":"Neftçala","state_district":"Neftçala rayonu","ISO3166-2-lvl5":"AZ-NEF","country":"Azərbaycan","country_code":"az"},"population":22100,"osm_type":"way","osm_id":291089500,"type":"city","location":[49.248607,39.3790532],"bbox":[49.2271838,39.3441374,49.2566467,39.4126999]}}
{"name":"Qubadlı","other_names":{"name:az":"Qubadlı","name:en":"Gubadli","name:ru":"Кубадлы","name:tr":"Kubatlı","name:uk":"Кубадли","name:hy":"Քաշունիք","name:ml":"ഖുബാദ്ലി","name:pl":"Gubadły","alt_name:pl":"Gubadly","old_name:en":"Qubadlı","alt:en":"Gubadly"},"display_name":"Qubadlı, Qubadlı Rayonu, Azərbaycan","address":{"town":"Qubadlı","state_district":"Qubadlı Rayonu","ISO3166-2-lvl5":"AZ-QBI","country":"Azərbaycan","country_code":"az"},"population":73,"osm_type":"way","osm_id":860412907,"type":"city","location":[46.5809277,39.3436425],"bbox":[46.5745209,39.3339552,46.5922702,39.3537087]}
{"name":"Sabirabad","other_names":{"name:ar":"صابر آباد","name:az":"Sabirabad","name:be":"Сабірабад","name:bg":"Сабирабад","name:de":"Sabirabad","name:en":"Sabirabad","name:es":"Sabirabad","name:fa":"صابرآباد","name:fr":"Sabirabad","name:hy":"Սաբիրաբադ","name:ja":"サビラバド","name:mk":"Сабирабад","name:ml":"സാബിറാബാദ്","name:os":"Сабирабад","name:ru":"Сабирабад","name:sr":"Сабирабад","name:tg":"Собиробод","name:tt":"Сабирабад","name:uk":"Сабірабад","name:ur":"صابر آباد","name:arz":"صابر آباد","name:azb":"صابیراباد","name:hsb":"Sabirabad"},"display_name":"Sabirabad, Sabirabad rayonu, 5400, Azərbaycan","address":{"city":"Sabirabad","state_district":"Sabirabad rayonu","ISO3166-2-lvl5":"AZ-SAB","postcode":"5400","country":"Azərbaycan","country_code":"az"},"population":30800,"osm_type":"node","osm_id":229697540,"type":"city","location":[48.475032,40.008006],"bbox":[48.315032,39.848006,48.635032,40.168006],"border":{"name":"Sabirabad","other_names":{"name:ar":"صابر آباد","name:az":"Sabirabad","name:be":"Сабірабад","name:bg":"Сабирабад","name:de":"Sabirabad","name:es":"Sabirabad","name:fa":"صابرآباد","name:hy":"Սաբիրաբադ","name:mk":"Сабирабад","name:os":"Сабирабад","name:ru":"Сабирабад","name:sr":"Сабирабад","name:tg":"Собиробод","name:tt":"Сабирабад","name:uk":"Сабірабад","name:ur":"صابر آباد","name:arz":"صابر آباد","name:azb":"صابیراباد","name:hsb":"Sabirabad","old_name:ru":"Петропавловка","name:en":"Sabirabad","name:fr":"Sabirabad","name:ja":"サビラバド","name:ml":"സാബിറാബാദ്"},"display_name":"Sabirabad, Sabirabad rayonu, 5400, Azərbaycan","address":{"city":"Sabirabad","state_district":"Sabirabad rayonu","ISO3166-2-lvl5":"AZ-SAB","postcode":"5400","country":"Azərbaycan","country_code":"az"},"population":30800,"osm_type":"way","osm_id":278148101,"type":"city","location":[48.475032,40.008006],"bbox":[48.4497443,39.9739965,48.5052949,40.0237744]}}
{"name":"Şabran","other_names":{"name:ar":"شابران","name:az":"Şabran","name:de":"Şabran","name:en":"Shabran","name:es":"Şabran","name:fr":"Şabran","name:hi":"शब्रन","name:ja":"シャブラン","name:ml":"ഷാബ്രാൻ","name:ru":"Шабран","name:uk":"Шабран","name:zh":"迪维奇/迪維奇","name:zh-Hans":"迪维奇","name:zh-Hant":"迪維奇"},"display_name":"Şabran, Şabran rayonu, Azərbaycan","address":{"city":"Şabran","state_district":"Şabran rayonu","ISO3166-2-lvl5":"AZ-SBN","country":"Azərbaycan","country_code":"az"},"population":25600,"osm_type":"node","osm_id":1849683437,"type":"city","location":[48.9947028,41.208437],"bbox":[48.8347028,41.048437,49.1547028,41.368437],"border":{"name":"Şabran","other_names":{"name:ar":"شابران","name:az":"Şabran","name:en":"Shabran","name:ru":"Шабран","name:uk":"Шабран","name:de":"Şabran","name:es":"Şabran","name:fr":"Şabran","name:hi":"शब्रन","name:ja":"シャブラン","name:ml":"ഷാബ്രാൻ","name:zh":"迪维奇/迪維奇","name:zh-Hans":"迪维奇","name:zh-Hant":"迪維奇"},"display_name":"Şabran, Şabran rayonu, Azərbaycan","address":{"city":"Şabran","state_district":"Şabran rayonu","ISO3166-2-lvl5":"AZ-SBN","country":"Azərbaycan","country_code":"az"},"population":25600,"osm_type":"way","osm_id":273706114,"type":"city","location":[48.9947028,41.208437],"bbox":[48.9659916,41.1878363,49.0284839,41.2327716]}}
{"name":"Şəki","other_names":{"name:ar":"شكي","name:az":"Şəki","name:de":"Şəki","name:en":"Sheki","name:es":"Şəki","name:fr":"Şəki","name:hi":"शेकी","name:ja":"シャキ","name:ka":"შაქი","name:ks":"شکی","name:ml":"ഷാക്കി","name:ru":"Шеки","name:uk":"Шекі","name:ur":"شکی","int_name":"Shaki","name:azb":"شکی","name:pnb":"شکی","old_name":"Nukha"},"display_name":"Şəki, Şəki İnzibati Ərazisi, Azərbaycan","address":{"city":"Şəki","ISO3166-2-lvl5":"AZ-SA","country":"Azərbaycan","country_code":"az"},"population":65800,"osm_type":"node","osm_id":227109482,"type":"city","location":[47.1802623,41.2033609],"bbox":[47.0202623,41.0433609,47.3402623,41.3633609],"border":[{"name":"Şəki","other_names":{"name:ar":"شكي","name:az":"Şəki","name:fa":"شکی","name:ks":"شکی","name:ru":"Шеки","name:uk":"Шекі","name:ur":"شکی","name:azb":"شکی","name:pnb":"شکی"},"display_name":"Şəki, Azərbaycan","address":{"city":"Şəki","country":"Azərbaycan","country_code":"az"},"population":65800,"osm_type":"way","osm_id":280006099,"type":"city","location":[47.16743057892138,41.189620500000004],"bbox":[47.1463755,41.1440185,47.2153973,41.2351012]},{"name":"Şəki İnzibati Ərazisi","other_names":{"name:ar":"إدارة شكي","name:az":"Şəki İnzibati Ərazisi","name:de":"Şəki","name:en":"Shaki","name:es":"Şəki","name:fr":"Shaki","name:ru":"Шекинская Администрация","name:uk":"Шекі адміністративна територія","ISO3166-2":"AZ-SA","name:hi":"शेकी","name:ja":"シャキ","name:ka":"შაქი","name:ks":"شکی","name:ml":"ഷാക്കി","name:ur":"شکی","int_name":"Shaki","name:azb":"شکی","name:pnb":"شکی","old_name":"Nukha","alt":"Şəki","alt:ar":"شكي","alt:az":"Şəki","alt:en":"Sheki","alt:fr":"Şəki","alt:ru":"Шеки","alt:uk":"Шекі"},"display_name":"Şəki İnzibati Ərazisi, Azərbaycan","address":{"city":"Şəki İnzibati Ərazisi","ISO3166-2-lvl5":"AZ-SA","country":"Azərbaycan","country_code":"az"},"population":65800,"osm_type":"relation","osm_id":3912204,"type":"administrative","location":[47.1802623,41.2033609],"bbox":[47.1342067,41.1223715,47.2162014,41.2425135]}]}
{"name":"Şəmkir","other_names":{"name:ar":"شمكير","name:az":"Şəmkir","name:de":"Şəmkir","name:en":"Shamkir","name:es":"Shamkir","name:fa":"شمکور","name:fr":"Şəmkir","name:ja":"シャムキル","name:ka":"შამქორი","name:ml":"ഷംകിർ","name:ru":"Шамкир","name:uk":"Шамкір","name:ur":"شمخور","int_name":"Shamkir","name:azb":"شمخور"},"display_name":"Şəmkir, Şəmkir rayonu, Azərbaycan","address":{"city":"Şəmkir","state_district":"Şəmkir rayonu","ISO3166-2-lvl5":"AZ-SKR","country":"Azərbaycan","country_code":"az"},"population":44100,"osm_type":"node","osm_id":183122494,"type":"city","location":[46.0246224,40.8357964],"bbox":[45.8646224,40.6757964,46.1846224,40.9957964],"border":{"name":"Şəmkir","other_names":{"name:az":"Şəmkir","name:en":"Shamkir","name:ru":"Шамкир","name:uk":"Шамкір","name:ar":"شمكير","name:de":"Şəmkir","name:es":"Shamkir","name:fa":"شمکور","name:fr":"Şəmkir","name:ja":"シャムキル","name:ka":"შამქორი","name:ml":"ഷംകിർ","name:ur":"شمخور","int_name":"Shamkir","name:azb":"شمخور"},"display_name":"Şəmkir, Şəmkir rayonu, Azərbaycan","address":{"city":"Şəmkir","state_district":"Şəmkir rayonu","ISO3166-2-lvl5":"AZ-SKR","country":"Azərbaycan","country_code":"az"},"population":44100,"osm_type":"way","osm_id":532742690,"type":"city","location":[46.0246224,40.8357964],"bbox":[45.9831047,40.7718725,46.0556745,40.8562125]}}
{"name":"Sumqayıt","other_names":{"name:ar":"سومقاييت","name:az":"Sumqayıt","name:de":"Sumqayit","name:en":"Sumgayit","name:es":"Sumqayit","name:fr":"Sumqayit","name:hi":"सुमगायित","name:ja":"スムガイト","name:ml":"സൂംഗായിത്ത്","name:pl":"Sumgait","name:ru":"Сумгаит","name:tr":"Sumgayıt","name:uk":"Сумгаїт","alt_name":"Sumgait","int_name":"Sumqayıt"},"display_name":"Sumqayıt, Sumqayıt İnzibati Ərazisi, Azərbaycan","address":{"city":"Sumqayıt","ISO3166-2-lvl5":"AZ-SM","country":"Azərbaycan","country_code":"az"},"population":377900,"osm_type":"node","osm_id":1104258889,"type":"city","location":[49.6696668,40.5961585],"bbox":[49.5096668,40.4361585,49.8296668,40.7561585],"border":[{"name":"Sumqayıt İnzibati Ərazisi","other_names":{"name:az":"Sumqayıt İnzibati Ərazisi","name:de":"Sumqayit","name:en":"Sumqayit","name:es":"Sumqayit","name:fr":"Sumqayit","name:ja":"スムガイト","name:ru":"Сумгаитская Администрация","ISO3166-2":"AZ-SM","name:ar":"سومقاييت","name:hi":"सुमगायित","name:ml":"സൂംഗായിത്ത്","name:pl":"Sumgait","name:tr":"Sumgayıt","name:uk":"Сумгаїт","alt_name":"Sumgait","int_name":"Sumqayıt","alt":"Sumqayıt","alt:az":"Sumqayıt","alt:en":"Sumgayit","alt:ru":"Сумгаит"},"display_name":"Sumqayıt İnzibati Ərazisi, Azərbaycan","address":{"city":"Sumqayıt İnzibati Ərazisi","ISO3166-2-lvl5":"AZ-SM","country":"Azərbaycan","country_code":"az"},"population":377900,"osm_type":"relation","osm_id":3764579,"type":"administrative","location":[49.6696668,40.5961585],"bbox":[49.4823609,40.5348568,49.8635628,40.866692]},{"name":"Sumqayıt","other_names":{"name:ar":"سومقاييت","name:az":"Sumqayıt","name:en":"Sumgayit","name:fa":"سومقاییت","name:ru":"Сумгаит"},"display_name":"Sumqayıt, Azərbaycan","address":{"city":"Sumqayıt","country":"Azərbaycan","country_code":"az"},"osm_type":"way","osm_id":241076769,"type":"administrative","location":[49.63776810217985,40.5833364],"bbox":[49.5642841,40.5441044,49.7223957,40.6221399]},{"name":"Sumqayıt","other_names":{"name:ar":"سومقاييت","name:az":"Sumqayıt","name:en":"Sumgayit","name:fa":"سومقاییت","name:ru":"Сумгаит","name:uk":"Сумгаїт","name:de":"Sumqayit","name:es":"Sumqayit","name:fr":"Sumqayit","name:hi":"सुमगायित","name:ja":"スムガイト","name:ml":"സൂംഗായിത്ത്","name:pl":"Sumgait","name:tr":"Sumgayıt","alt_name":"Sumgait","int_name":"Sumqayıt"},"display_name":"Sumqayıt, Sumqayıt İnzibati Ərazisi, Azərbaycan","address":{"city":"Sumqayıt","ISO3166-2-lvl5":"AZ-SM","country":"Azərbaycan","country_code":"az"},"population":331000,"osm_type":"relation","osm_id":3912206,"type":"administrative","location":[49.6696668,40.5961585],"bbox":[49.5642841,40.5441044,49.7223957,40.6221399]}]}
{"name":"Şuşa","other_names":{"name:az":"Şuşa","name:de":"Schuscha","name:en":"Shusha","name:fr":"Choucha","name:hy":"Շուշի","name:ka":"შუშა","name:ru":"Шуша","name:tr":"Şuşa","name:uk":"Шуша","old_name:en":"Shushi","old_name:fr":"Chouchi","old_name:ru":"Шуши","name:cs":"Šuša","name:ia":"Shusha","name:ja":"シュシャ","name:ml":"ഷൂഷി","name:pl":"Szusza","int_name":"Shusha","name:ru:word_stress":"Шуша́"},"display_name":"Şuşa, Şuşa rayonu, 5800, Azərbaycan","address":{"town":"Şuşa","state_district":"Şuşa rayonu","ISO3166-2-lvl5":"AZ-SUS","postcode":"5800","country":"Azərbaycan","country_code":"az"},"population":1180,"osm_type":"way","osm_id":879244340,"type":"city","location":[46.7511501,39.7632567],"bbox":[46.7343379,39.7513372,46.7613206,39.7698201]}
{"name":"Tovuz","other_names":{"name:ar":"تووز","name:az":"Tovuz","name:de":"Tovuz","name:en":"Tovuz","name:es":"Tovuz","name:fa":"تووز","name:fr":"Tovuz","name:ja":"トヴズ","name:ka":"თოვუზი","name:ml":"തോവൂസ്","name:ru":"Товуз","name:uk":"Товуз","name:ur":"تووز","name:azb":"تووز"},"display_name":"Tovuz, Tovuz rayonu, Azərbaycan","address":{"city":"Tovuz","state_district":"Tovuz rayonu","ISO3166-2-lvl5":"AZ-TOV","country":"Azərbaycan","country_code":"az"},"population":14200,"osm_type":"node","osm_id":184600213,"type":"city","location":[45.6159428,40.992505],"bbox":[45.4559428,40.832505,45.7759428,41.152505],"border":{"name":"Tovuz","other_names":{"name:ar":"تووز","name:az":"Tovuz","name:de":"Tovuz","name:en":"Tovuz","name:es":"Tovuz","name:fa":"تووز","name:ja":"トヴズ","name:ka":"თოვუზი","name:ru":"Товуз","name:uk":"Товуз","name:ur":"تووز","name:azb":"تووز","name:fr":"Tovuz","name:ml":"തോവൂസ്"},"display_name":"Tovuz, Tovuz rayonu, 6000, Azərbaycan","address":{"city":"Tovuz","state_district":"Tovuz rayonu","ISO3166-2-lvl5":"AZ-TOV","postcode":"6000","country":"Azərbaycan","country_code":"az"},"population":22000,"osm_type":"way","osm_id":1272576122,"type":"city","location":[45.6159428,40.992505],"bbox":[45.5933744,40.9739689,45.635874,41.0077974]}}
{"name":"Xaçmaz","other_names":{"name:ar":"خاشماز","name:az":"Xaçmaz","name:de":"Xaçmaz","name:en":"Khachmaz","name:es":"Xaçmaz","name:fa":"خاچماز","name:fr":"Khachmaz","name:hi":"खाचमज़","name:ja":"ハチマズ","name:ml":"ഖച്മാസ്","name:ru":"Хачмаз","name:uk":"Хачмаз","name:ur":"خاشماز","name:azb":"خاچماز","name:ckb":"خاچماز"},"display_name":"Xaçmaz, Xaçmaz rayonu, Azərbaycan","address":{"city":"Xaçmaz","state_district":"Xaçmaz rayonu","ISO3166-2-lvl5":"AZ-XAC","country":"Azərbaycan","country_code":"az"},"population":43000,"osm_type":"node","osm_id":3129805281,"type":"city","location":[48.8011599,41.4655339],"bbox":[48.6411599,41.3055339,48.9611599,41.6255339],"border":{"name":"Xaçmaz","other_names":{"name:ar":"خاشماز","name:az":"Xaçmaz","name:en":"Khachmaz","name:fa":"خاچماز","name:hi":"खाचमज़","name:ru":"Хачмаз","name:uk":"Хачмаз","name:ur":"خاشماز","name:azb":"خاچماز","name:de":"Xaçmaz","name:es":"Xaçmaz","name:fr":"Khachmaz","name:ja":"ハチマズ","name:ml":"ഖച്മാസ്","name:ckb":"خاچماز"},"display_name":"Xaçmaz, Xaçmaz rayonu, 2700, Azərbaycan","address":{"city":"Xaçmaz","state_district":"Xaçmaz rayonu","ISO3166-2-lvl5":"AZ-XAC","postcode":"2700","country":"Azərbaycan","country_code":"az"},"population":43000,"osm_type":"way","osm_id":129713740,"type":"city","location":[48.8011599,41.4655339],"bbox":[48.773278,41.4399425,48.8350279,41.4767727]}}
{"name":"Xankəndi","other_names":{"name:ar":"خانكندي","name:az":"Xankəndi","name:be":"Ханкэнды","name:bg":"Ханкенди","name:bn":"খানকেন্দি","name:bs":"Hankendi","name:ce":"Ханкенди","name:cs":"Chankendi","name:cv":"Ханкенди","name:de":"Chankendi","name:el":"Χανκέντι","name:en":"Khankendi","name:es":"Jankendi","name:fa":"استپاناکرت","name:fi":"Stepanakert","name:fr":"Khankendy","name:he":"סטפנקרט","name:hi":"खानकेंडी","name:hr":"Hankendi","name:hy":"Ստեփանակերտ","name:ja":"カンケンディ","name:ka":"ხანკენდი","name:kk":"Ханкенди","name:ko":"칸켄디","name:ku":"Xankendi","name:kv":"Ханкенди","name:lv":"Hankendi","name:mg":"Xankandi","name:mk":"Ханкенди","name:ml":"സ്റ്റെപാനകെർട്ട്","name:os":"Ханкенди","name:pl":"Chankendi","name:ps":"خان کندي","name:ru":"Ханкенди","name:sk":"Chankendi","name:sq":"Hankendi","name:sr":"Ханкенди","name:ta":"எசுடெபானெகெத்","name:tg":"Хонканди","name:th":"สเตพานาแกร์ต","name:tk":"Hankendi","name:tr":"Hankendi","name:tt":"Ханкәнде","name:uk":"Ханкенді","name:ur":"خان کندی","name:uz":"Xonkandi","name:zh":"漢肯迪","alt_name:hy":"Խանքենդի","old_name:ab":"Степанакерт","old_name:af":"Stepanakert","old_name:an":"Stepanakert","old_name:az":"Stepanakert","old_name:br":"Stepanakert","old_name:ca":"Stepanakert","old_name:da":"Stepanakert","old_name:en":"Stepanakert","old_name:eo":"Stepanakerto","old_name:eu":"Stepanakert","old_name:fy":"Stepanakert","old_name:gl":"Stepanakert","old_name:ia":"Stepanakert","old_name:id":"Stepanakert","old_name:ie":"Stepanakert","old_name:io":"Stepanakert","old_name:is":"Stepanakert","old_name:it":"Stepanakert","old_name:lb":"Stepanakert","old_name:lt":"Stepanakertas","old_name:ms":"Stepanakert","old_name:nb":"Stepanakert","old_name:nl":"Stepanakert","old_name:nn":"Stepanakert","old_name:oc":"Stepanakert","old_name:pt":"Estepanaquerte","old_name:ro":"Stepanakert","old_name:ru":"Степанакерт","old_name:sc":"Step'anakert","old_name:su":"Stepanakert","old_name:sv":"Stepanakert","old_name:tl":"Stepanakert","old_name:vi":"Stepanakert","name:zh-Hans":"汉肯迪","old_name:hy:-1923":"Ханкенди"},"display_name":"Xankəndi, Azərbaycan","address":{"city":"Xankəndi","town":"Xankəndi","ISO3166-2-lvl5":"AZ-XA","country":"Azərbaycan","country_code":"az"},"population":53400,"osm_type":"node","osm_id":4027452036,"type":"city","location":[46.7517171,39.8182044],"bbox":[46.5917171,39.6582044,46.9117171,39.9782044],"border":[{"name":"Xankəndi","other_names":{"name:az":"Xankəndi","name:en":"Khankendi","name:hy":"Ստեփանակերտ","name:pl":"Chankendi","name:ru":"Ханкенди","name:tr":"Hankendi","name:uk":"Ханкенді","ISO3166-2":"AZ-XA","old_name:az":"Stepanakert","old_name:en":"Stepanakert","old_name:pl":"Stepanakert","old_name:ru":"Степанакерт","name:ar":"خانكندي","name:be":"Ханкэнды","name:bg":"Ханкенди","name:bn":"খানকেন্দি","name:bs":"Hankendi","name:ce":"Ханкенди","name:cs":"Chankendi","name:cv":"Ханкенди","name:de":"Chankendi","name:el":"Χανκέντι","name:es":"Jankendi","name:fa":"استپاناکرت","name:fi":"Stepanakert","name:fr":"Khankendy","name:he":"סטפנקרט","name:hi":"खानकेंडी","name:hr":"Hankendi","name:ja":"カンケンディ","name:ka":"ხანკენდი","name:kk":"Ханкенди","name:ko":"칸켄디","name:ku":"Xankendi","name:kv":"Ханкенди","name:lv":"Hankendi","name:mg":"Xankandi","name:mk":"Ханкенди","name:ml":"സ്റ്റെപാനകെർട്ട്","name:os":"Ханкенди","name:ps":"خان کندي","name:sk":"Chankendi","name:sq":"Hankendi","name:sr":"Ханкенди","name:ta":"எசுடெபானெகெத்","name:tg":"Хонканди","name:th":"สเตพานาแกร์ต","name:tk":"Hankendi","name:tt":"Ханкәнде","name:ur":"خان کندی","name:uz":"Xonkandi","name:zh":"漢肯迪","alt_name:hy":"Խանքենդի","old_name:ab":"Степанакерт","old_name:af":"Stepanakert","old_name:an":"Stepanakert","old_name:br":"Stepanakert","old_name:ca":"Stepanakert","old_name:da":"Stepanakert","old_name:eo":"Stepanakerto","old_name:eu":"Stepanakert","old_name:fy":"Stepanakert","old_name:gl":"Stepanakert","old_name:ia":"Stepanakert","old_name:id":"Stepanakert","old_name:ie":"Stepanakert","old_name:io":"Stepanakert","old_name:is":"Stepanakert","old_name:it":"Stepanakert","old_name:lb":"Stepanakert","old_name:lt":"Stepanakertas","old_name:ms":"Stepanakert","old_name:nb":"Stepanakert","old_name:nl":"Stepanakert","old_name:nn":"Stepanakert","old_name:oc":"Stepanakert","old_name:pt":"Estepanaquerte","old_name:ro":"Stepanakert","old_name:sc":"Step'anakert","old_name:su":"Stepanakert","old_name:sv":"Stepanakert","old_name:tl":"Stepanakert","old_name:vi":"Stepanakert","name:zh-Hans":"汉肯迪","old_name:hy:-1923":"Ханкенди"},"display_name":"Xankəndi, Azərbaycan","address":{"town":"Xankəndi","ISO3166-2-lvl5":"AZ-XA","country":"Azərbaycan","country_code":"az"},"population":53400,"osm_type":"relation","osm_id":12894949,"type":"administrative","location":[46.7517171,39.8182044],"bbox":[46.7220379,39.789641,46.7813797,39.862526]},{"name":"Xankəndi","other_names":{"name:az":"Xankəndi","name:en":"Khankendi","name:hu":"Khakendi","name:hy":"Ստեփանակերտ","name:ru":"Ханкенди","old_name:az":"Stepanakert","old_name:en":"Stepanakert","old_name:ru":"Степанакерт","name:ar":"خانكندي","name:be":"Ханкэнды","name:bg":"Ханкенди","name:bn":"খানকেন্দি","name:bs":"Hankendi","name:ce":"Ханкенди","name:cs":"Chankendi","name:cv":"Ханкенди","name:de":"Chankendi","name:el":"Χανκέντι","name:es":"Jankendi","name:fa":"استپاناکرت","name:fi":"Stepanakert","name:fr":"Khankendy","name:he":"סטפנקרט","name:hi":"खानकेंडी","name:hr":"Hankendi","name:ja":"カンケンディ","name:ka":"ხანკენდი","name:kk":"Ханкенди","name:ko":"칸켄디","name:ku":"Xankendi","name:kv":"Ханкенди","name:lv":"Hankendi","name:mg":"Xankandi","name:mk":"Ханкенди","name:ml":"സ്റ്റെപാനകെർട്ട്","name:os":"Ханкенди","name:pl":"Chankendi","name:ps":"خان کندي","name:sk":"Chankendi","name:sq":"Hankendi","name:sr":"Ханкенди","name:ta":"எசுடெபானெகெத்","name:tg":"Хонканди","name:th":"สเตพานาแกร์ต","name:tk":"Hankendi","name:tr":"Hankendi","name:tt":"Ханкәнде","name:uk":"Ханкенді","name:ur":"خان کندی","name:uz":"Xonkandi","name:zh":"漢肯迪","alt_name:hy":"Խանքենդի","old_name:ab":"Степанакерт","old_name:af":"Stepanakert","old_name:an":"Stepanakert","old_name:br":"Stepanakert","old_name:ca":"Stepanakert","old_name:da":"Stepanakert","old_name:eo":"Stepanakerto","old_name:eu":"Stepanakert","old_name:fy":"Stepanakert","old_name:gl":"Stepanakert","old_name:ia":"Stepanakert","old_name:id":"Stepanakert","old_name:ie":"Stepanakert","old_name:io":"Stepanakert","old_name:is":"Stepanakert","old_name:it":"Stepanakert","old_name:lb":"Stepanakert","old_name:lt":"Stepanakertas","old_name:ms":"Stepanakert","old_name:nb":"Stepanakert","old_name:nl":"Stepanakert","old_name:nn":"Stepanakert","old_name:oc":"Stepanakert","old_name:pt":"Estepanaquerte","old_name:ro":"Stepanakert","old_name:sc":"Step'anakert","old_name:su":"Stepanakert","old_name:sv":"Stepanakert","old_name:tl":"Stepanakert","old_name:vi":"Stepanakert","name:zh-Hans":"汉肯迪","old_name:hy:-1923":"Ханкенди"},"display_name":"Xankəndi, Azərbaycan","address":{"city":"Xankəndi","country":"Azərbaycan","country_code":"az"},"population":53400,"osm_type":"way","osm_id":942308975,"type":"administrative","location":[46.7517171,39.8182044],"bbox":[46.7220379,39.789641,46.7813797,39.862526]}]}
{"name":"Xırdalan","other_names":{"name:ar":"خردلان","name:az":"Xırdalan","name:de":"Xırdalan","name:en":"Khyrdalan","name:es":"Xırdalan","name:fa":"خردلان","name:fr":"Xırdalan","name:ja":"フルダラン","name:ml":"ഖിർദലൻ","name:ru":"Хырдалан","name:uk":"Хирдалан","name:ur":"خردالان","name:azb":"خیردالان","name:pnb":"خردالان"},"display_name":"Xırdalan, Abşeron rayonu, Azərbaycan","address":{"city":"Xırdalan","state_district":"Abşeron rayonu","ISO3166-2-lvl5":"AZ-ABS","country":"Azərbaycan","country_code":"az"},"population":195200,"osm_type":"node","osm_id":1886282981,"type":"city","location":[49.7454579,40.4531707],"bbox":[49.5854579,40.2931707,49.9054579,40.6131707],"border":{"name":"Xırdalan","other_names":{"name:az":"Xırdalan","name:en":"Khyrdalan","name:ja":"フルダラン","name:ru":"Хырдалан","name:uk":"Хирдалан","name:ar":"خردلان","name:de":"Xırdalan","name:es":"Xırdalan","name:fa":"خردلان","name:fr":"Xırdalan","name:ml":"ഖിർദലൻ","name:ur":"خردالان","name:azb":"خیردالان","name:pnb":"خردالان"},"display_name":"Xırdalan, Abşeron rayonu, Azərbaycan","address":{"city":"Xırdalan","state_district":"Abşeron rayonu","ISO3166-2-lvl5":"AZ-ABS","country":"Azərbaycan","country_code":"az"},"population":195200,"osm_type":"way","osm_id":186275017,"type":"city","location":[49.7454579,40.4531707],"bbox":[49.6965653,40.4355073,49.7768386,40.4795164]}}
{"name":"Xocavənd","other_names":{"name:az":"Xocavənd","name:en":"Khojavend","name:fr":"Khojavend","name:hi":"खोजावेंद","name:ja":"マルトゥニ","name:lt":"Khojavend","name:ml":"ഖോജാവന്ദ്","name:pl":"Khojavend","name:ru":"Ходжавенд","name:tr":"Hocavend","name:uk":"Ходжавенд"},"display_name":"Xocavənd, Xocavənd rayonu, Azərbaycan","address":{"city":"Xocavənd","state_district":"Xocavənd rayonu","ISO3166-2-lvl5":"AZ-XVD","country":"Azərbaycan","country_code":"az"},"population":5800,"osm_type":"node","osm_id":232215256,"type":"city","location":[47.1109875,39.795152],"bbox":[46.9509875,39.635152,47.2709875,39.955152]}
{"name":"Yardımlı","other_names":{"name:ar":"يارديملي","name:az":"Yardımlı","name:de":"Yardimli","name:en":"Yardimli","name:es":"Yardımlı","name:fa":"یاردیملی","name:fr":"Yardımlı","name:ja":"ヤルディムリ","name:ml":"യാർദിമ്ലി","name:ru":"Ярдымлы","name:uk":"Ярдимли","name:ur":"یاردیملی","name:azb":"یاردیملی"},"display_name":"Yardımlı, Yardımlı rayonu, Azərbaycan","address":{"city":"Yardımlı","state_district":"Yardımlı rayonu","ISO3166-2-lvl5":"AZ-YAR","country":"Azərbaycan","country_code":"az"},"population":7700,"osm_type":"node","osm_id":231498735,"type":"city","location":[48.2422554,38.9071104],"bbox":[48.0822554,38.7471104,48.4022554,39.0671104],"border":{"name":"Yardımlı","other_names":{"name:ar":"يارديملي","name:az":"Yardımlı","name:en":"Yardimli","name:fa":"یاردیملی","name:ru":"Ярдымлы","name:uk":"Ярдимли","name:ur":"یاردیملی","name:azb":"یاردیملی","name:de":"Yardimli","name:es":"Yardımlı","name:fr":"Yardımlı","name:ja":"ヤルディムリ","name:ml":"യാർദിമ്ലി"},"display_name":"Yardımlı, Yardımlı rayonu, Azərbaycan","address":{"city":"Yardımlı","state_district":"Yardımlı rayonu","ISO3166-2-lvl5":"AZ-YAR","country":"Azərbaycan","country_code":"az"},"population":7700,"osm_type":"way","osm_id":322209384,"type":"city","location":[48.2422554,38.9071104],"bbox":[48.2272603,38.8953672,48.2825339,38.9192431]}}
{"name":"Yevlax","other_names":{"name:en":"Yevlakh","name:ja":"イェヴラフ","name:lt":"Jevlachas","name:ml":"യെവ്ലഖ്","name:ru":"Евлах","name:uk":"Євлах","int_name":"Yevlakh"},"display_name":"Yevlax, Yevlax İnzibati Ərazisi, Azərbaycan","address":{"city":"Yevlax","ISO3166-2-lvl5":"AZ-YE","country":"Azərbaycan","country_code":"az"},"population":63100,"osm_type":"node","osm_id":227127401,"type":"city","location":[47.1466579,40.6115625],"bbox":[46.9866579,40.4515625,47.3066579,40.7715625],"border":[{"name":"Yevlax","other_names":{"name:az":"Yevlax","name:en":"Yevlakh","name:ja":"イェヴラフ","name:ru":"Евлах","name:uk":"Євлах","int_name":"Yevlakh"},"display_name":"Yevlax, Azərbaycan","address":{"city":"Yevlax","country":"Azərbaycan","country_code":"az"},"population":63100,"osm_type":"way","osm_id":180860551,"type":"city","location":[47.140445585450465,40.6069311],"bbox":[47.1085514,40.5869239,47.1827238,40.6277598]},{"name":"Yevlax İnzibati Ərazisi","other_names":{"name:az":"Yevlax İnzibati Ərazisi","name:de":"Yevlax","name:en":"Yevlakh","name:es":"Yevlax","name:fa":"یولاخ","name:fr":"Ievlakh","name:ru":"Евлахская Администрация","name:uk":"Євлахська адміністрація","ISO3166-2":"AZ-YE","name:ja":"イェヴラフ","name:lt":"Jevlachas","name:ml":"യെവ്ലഖ്","int_name":"Yevlakh","alt":"Yevlax","alt:ru":"Евлах","alt:uk":"Євлах"},"display_name":"Yevlax İnzibati Ərazisi, Azərbaycan","address":{"city":"Yevlax İnzibati Ərazisi","ISO3166-2-lvl5":"AZ-YE","country":"Azərbaycan","country_code":"az"},"population":63100,"osm_type":"relation","osm_id":3912202,"type":"administrative","location":[47.1466579,40.6115625],"bbox":[47.1074643,40.5853025,47.1840691,40.6440474]}]}
{"name":"Zəngilan","other_names":{"name:az":"Zəngilan","name:en":"Zangilan","name:ru":"Зангилан","name:tr":"Zengilan","name:uk":"Зангелан","name:de":"Zangеlan","name:ml":"സംഗിലാൻ","name:pl":"Zangilan","int_name":"Zangеlan","alt:ru":"Зангелан"},"display_name":"Zəngilan, Zəngilan Rayonu, Azərbaycan","address":{"town":"Zəngilan","state_district":"Zəngilan Rayonu","ISO3166-2-lvl5":"AZ-ZAN","country":"Azərbaycan","country_code":"az"},"osm_type":"way","osm_id":780198531,"type":"city","location":[46.6564485,39.0863717],"bbox":[46.6303394,39.0770503,46.6701723,39.1009128]}
