{"name":"Ağcabədi","other_names":{"name:az":"Ağcabədi","name:en":"Aghjabadi","name:hy":"Բեղամէջ","name:ja":"アグジャバディ","name:ml":"അഗ്ജബദി","name:ru":"Агджабеди","name:tr":"Ağcabadi","alt_name:ml":"ബെഗമേജ്"},"display_name":"Ağcabədi, Ağcabədi rayonu, Azərbaycan","address":{"town":"Ağcabədi","state_district":"Ağcabədi rayonu","ISO3166-2-lvl5":"AZ-AGC","country":"Azərbaycan","country_code":"az"},"population":41400,"osm_type":"node","osm_id":229673181,"type":"town","location":[47.4607462,40.050544],"bbox":[47.4207462,40.010544,47.5007462,40.090544],"border":{"name":"Ağcabədi","other_names":{"name:az":"Ağcabədi","name:en":"Aghjabadi","name:ja":"アグジャバディ","name:ru":"Агджабеди","name:hy":"Բեղամէջ","name:ml":"അഗ്ജബദി","name:tr":"Ağcabadi","alt_name:ml":"ബെഗമേജ്"},"display_name":"Ağcabədi, Ağcabədi rayonu, Azərbaycan","address":{"town":"Ağcabədi","state_district":"Ağcabədi rayonu","ISO3166-2-lvl5":"AZ-AGC","country":"Azərbaycan","country_code":"az"},"population":41400,"osm_type":"way","osm_id":276561221,"type":"town","location":[47.4607462,40.050544],"bbox":[47.4144843,40.0215524,47.490042,40.0754854]}}
{"name":"Ağdam","other_names":{"name:az":"Ağdam","name:en":"Aghdam","name:hy":"Ակնա","name:ml":"അഗ്ദം","name:pl":"Agdam","name:ru":"Агдам","name:uk":"Агдам","int_name":"Agdam","alt_name:ml":"അക്ന"},"display_name":"Ağdam, Ağdam rayonu, Azərbaycan","address":{"town":"Ağdam","state_district":"Ağdam rayonu","ISO3166-2-lvl5":"AZ-AGM","country":"Azərbaycan","country_code":"az"},"osm_type":"node","osm_id":1434761991,"type":"town","location":[46.9300331,39.9935455],"bbox":[46.8900331,39.9535455,46.9700331,40.0335455],"border":{"name":"Ağdam","other_names":{"name:az":"Ağdam","name:en":"Aghdam","name:fr":"Agdam","name:hy":"Ակնա","name:ru":"Агдам","name:uk":"Агдам","name:ml":"അഗ്ദം","name:pl":"Agdam","int_name":"Agdam","alt_name:ml":"അക്ന"},"display_name":"Ağdam, Ağdam rayonu, Azərbaycan","address":{"town":"Ağdam","state_district":"Ağdam rayonu","ISO3166-2-lvl5":"AZ-AGM","country":"Azərbaycan","country_code":"az"},"osm_type":"way","osm_id":137600951,"type":"town","location":[46.9300331,39.9935455],"bbox":[46.8950126,39.9740125,46.9661233,40.0089655]}}
{"name":"Ağdaş","other_names":{"name:az":"Ağdaş","name:en":"Aghdash","name:ja":"アグダシュ","name:ml":"അഗ്ദാഷ്","name:ru":"Агдаш","int_name":"Aghdash"},"display_name":"Ağdaş, Ağdaş rayonu, Azərbaycan","address":{"town":"Ağdaş","state_district":"Ağdaş rayonu","ISO3166-2-lvl5":"AZ-AGS","country":"Azərbaycan","country_code":"az"},"population":32700,"osm_type":"node","osm_id":232351722,"type":"town","location":[47.4727422,40.6440169],"bbox":[47.4327422,40.6040169,47.5127422,40.6840169],"border":{"name":"Ağdaş","other_names":{"name:az":"Ağdaş","name:en":"Aghdash","name:ja":"アグダシュ","name:ru":"Агдаш","int_name":"Aghdash","name:ml":"അഗ്ദാഷ്"},"display_name":"Ağdaş, Ağdaş rayonu, Azərbaycan","address":{"town":"Ağdaş","state_district":"Ağdaş rayonu","ISO3166-2-lvl5":"AZ-AGS","country":"Azərbaycan","country_code":"az"},"population":32700,"osm_type":"way","osm_id":284266159,"type":"town","location":[47.4727422,40.6440169],"bbox":[47.4414486,40.6250745,47.507109,40.6640113]}}
{"name":"Ağstafa","other_names":{"name:az":"Ağstafa","name:en":"Aghstafa","name:ml":"അഗ്സ്തഫ","name:ru":"Акстафа","name:uk":"Аґстафа"},"display_name":"Ağstafa, Ağstafa rayonu, 0500, Azərbaycan","address":{"town":"Ağstafa","state_district":"Ağstafa rayonu","ISO3166-2-lvl5":"AZ-AGA","postcode":"0500","country":"Azərbaycan","country_code":"az"},"population":16000,"osm_type":"node","osm_id":3253585793,"type":"town","location":[45.4462052,41.1138262],"bbox":[45.4062052,41.0738262,45.4862052,41.1538262],"border":{"name":"Ağstafa","other_names":{"name:az":"Ağstafa","name:en":"Aghstafa","name:ru":"Акстафа","name:ml":"അഗ്സ്തഫ","name:uk":"Аґстафа"},"display_name":"Ağstafa, Ağstafa rayonu, 0500, Azərbaycan","address":{"town":"Ağstafa","state_district":"Ağstafa rayonu","ISO3166-2-lvl5":"AZ-AGA","postcode":"0500","country":"Azərbaycan","country_code":"az"},"population":12900,"osm_type":"way","osm_id":1302940256,"type":"town","location":[45.4462052,41.1138262],"bbox":[45.4258275,41.1063535,45.4643923,41.1236228]}}
{"name":"Ağsu","other_names":{"name:az":"Ağsu","name:ja":"アグス","name:ml":"അഗ്സു","name:ru":"Ахсу","int_name":"Aghsu"},"display_name":"Ağsu, Ağsu rayonu, Azərbaycan","address":{"town":"Ağsu","state_district":"Ağsu rayonu","ISO3166-2-lvl5":"AZ-AGU","country":"Azərbaycan","country_code":"az"},"population":22300,"osm_type":"node","osm_id":228290010,"type":"town","location":[48.3944412,40.5680452],"bbox":[48.3544412,40.5280452,48.4344412,40.6080452],"border":{"name":"Ağsu","other_names":{"name:az":"Ağsu","name:en":"Aghsu","name:ja":"アグス","name:ru":"Ахсу","name:ml":"അഗ്സു","int_name":"Aghsu"},"display_name":"Ağsu, Ağsu rayonu, Azərbaycan","address":{"town":"Ağsu","state_district":"Ağsu rayonu","ISO3166-2-lvl5":"AZ-AGU","country":"Azərbaycan","country_code":"az"},"population":22300,"osm_type":"way","osm_id":196094723,"type":"town","location":[48.3944412,40.5680452],"bbox":[48.3720715,40.5533149,48.4171289,40.5874046]}}
{"name":"Astara","other_names":{"name:ar":"آستارا","name:az":"Astara","name:de":"Astara","name:fa":"آستارا آذربایجان","name:hy":"Աստարա","name:ja":"アスタラ","name:ka":"ასტარა","name:ko":"아스타라","name:ku":"Astara","name:ml":"ആസ്താറ","name:ru":"Астара","name:tly":"Осторо","name:tly-Latn":"Ostoro"},"display_name":"Astara, Astara rayonu, 7773, Azərbaycan","address":{"town":"Astara","state_district":"Astara rayonu","ISO3166-2-lvl5":"AZ-AST","postcode":"7773","country":"Azərbaycan","country_code":"az"},"population":17600,"osm_type":"node","osm_id":3710920196,"type":"town","location":[48.8746961,38.4530541],"bbox":[48.8346961,38.4130541,48.9146961,38.4930541],"border":{"name":"Astara","other_names":{"name:az":"Astara","name:en":"Astara","name:ru":"Астара","name:ar":"آستارا","name:de":"Astara","name:fa":"آستارا آذربایجان","name:hy":"Աստարա","name:ja":"アスタラ","name:ka":"ასტარა","name:ko":"아스타라","name:ku":"Astara","name:ml":"ആസ്താറ","name:tly":"Осторо","name:tly-Latn":"Ostoro"},"display_name":"Astara, Astara rayonu, 7773, Azərbaycan","address":{"town":"Astara","state_district":"Astara rayonu","ISO3166-2-lvl5":"AZ-AST","postcode":"7773","country":"Azərbaycan","country_code":"az"},"population":17600,"osm_type":"way","osm_id":177763092,"type":"town","location":[48.8746961,38.4530541],"bbox":[48.8534881,38.442465,48.8794206,38.5308976]}}
{"name":"Babək","other_names":{"name:az":"Babək","name:cs":"Babek","name:ja":"バベク","name:ru":"Бабек","name:sk":"Babek"},"display_name":"Babək, Babək rayonu, Naxçıvan Muxtar Respublikası, Azərbaycan","address":{"town":"Babək","state_district":"Babək rayonu","ISO3166-2-lvl5":"AZ-BAB","region":"Naxçıvan Muxtar Respublikası","ISO3166-2-lvl3":"AZ-NX","country":"Azərbaycan","country_code":"az"},"population":5800,"osm_type":"node","osm_id":2813687139,"type":"town","location":[45.4427763,39.1580814],"bbox":[45.4027763,39.1180814,45.4827763,39.1980814],"border":{"name":"Babək","other_names":{"name:az":"Babək","name:ru":"Бабек","name:cs":"Babek","name:ja":"バベク","name:sk":"Babek"},"display_name":"Babək, Babək rayonu, Naxçıvan Muxtar Respublikası, Azərbaycan","address":{"town":"Babək","state_district":"Babək rayonu","ISO3166-2-lvl5":"AZ-BAB","region":"Naxçıvan Muxtar Respublikası","ISO3166-2-lvl3":"AZ-NX","country":"Azərbaycan","country_code":"az"},"population":5800,"osm_type":"way","osm_id":323004086,"type":"town","location":[45.4427763,39.1580814],"bbox":[45.4361318,39.1459957,45.4576424,39.1659932]}}
{"name":"Balakən","other_names":{"name:az":"Balakən","name:en":"Balakan","name:ka":"ბელაქანი","name:ml":"ബാലാക്കൻ","name:ru":"Балакен","int_name":"Balaken","old_name:ru":"Белоканы"},"display_name":"Balakən, Balakən rayonu, Azərbaycan","address":{"town":"Balakən","state_district":"Balakən rayonu","ISO3166-2-lvl5":"AZ-BAL","country":"Azərbaycan","country_code":"az"},"population":14100,"osm_type":"node","osm_id":5856364066,"type":"town","location":[46.4089371,41.7246212],"bbox":[46.3689371,41.6846212,46.4489371,41.7646212],"border":{"name":"Balakən","other_names":{"name:az":"Balakən","name:en":"Balakan","name:ka":"ბელაქანი","name:ru":"Балакен","int_name":"Balaken","old_name:ru":"Белоканы","name:ml":"ബാലാക്കൻ"},"display_name":"Balakən, Balakən rayonu, Azərbaycan","address":{"town":"Balakən","state_district":"Balakən rayonu","ISO3166-2-lvl5":"AZ-BAL","country":"Azərbaycan","country_code":"az"},"population":14100,"osm_type":"way","osm_id":281902424,"type":"town","location":[46.4089371,41.7246212],"bbox":[46.391015,41.6926223,46.4358294,41.7402377]}}
{"name":"Bankə","other_names":{"name:az":"Bankə"},"display_name":"Bankə, Neftçala rayonu, Azərbaycan","address":{"town":"Bankə","state_district":"Neftçala rayonu","ISO3166-2-lvl5":"AZ-NEF","country":"Azərbaycan","country_code":"az"},"osm_type":"node","osm_id":2940191372,"type":"town","location":[49.2489189,39.4111628],"bbox":[49.2089189,39.3711628,49.2889189,39.4511628],"border":{"name":"Bankə","other_names":{"name:az":"Bankə","name:ru":"Банка"},"display_name":"Bankə, Neftçala rayonu, Azərbaycan","address":{"town":"Bankə","state_district":"Neftçala rayonu","ISO3166-2-lvl5":"AZ-NEF","country":"Azərbaycan","country_code":"az"},"osm_type":"way","osm_id":290581656,"type":"town","location":[49.2489189,39.4111628],"bbox":[49.2381952,39.4011048,49.2610857,39.4281389]}}
{"name":"Beyləqan","other_names":{"name:az":"Beyləqan","name:ja":"ベイラガン","name:ml":"ബെയ്ലഗാൻ","name:ru":"Бейлаган","name:tr":"Beylagan","name:uk":"Бейлаган","int_name":"Beylagan","old_name:ru":"Ждановск"},"display_name":"Beyləqan, Beyləqan rayonu, 1200, Azərbaycan","address":{"town":"Beyləqan","state_district":"Beyləqan rayonu","ISO3166-2-lvl5":"AZ-BEY","postcode":"1200","country":"Azərbaycan","country_code":"az"},"population":18000,"osm_type":"node","osm_id":232331884,"type":"town","location":[47.6153495,39.7671115],"bbox":[47.5753495,39.7271115,47.6553495,39.8071115],"border":{"name":"Beyləqan","other_names":{"name:az":"Beyləqan","name:ru":"Бейлаган","name:uk":"Бейлаган","int_name":"Beylagan","old_name:ru":"Ждановск","name:ja":"ベイラガン","name:ml":"ബെയ്ലഗാൻ","name:tr":"Beylagan"},"display_name":"Beyləqan, Beyləqan rayonu, 1200, Azərbaycan","address":{"town":"Beyləqan","state_district":"Beyləqan rayonu","ISO3166-2-lvl5":"AZ-BEY","postcode":"1200","country":"Azərbaycan","country_code":"az"},"population":18000,"osm_type":"way","osm_id":357794157,"type":"town","location":[47.6153495,39.7671115],"bbox":[47.5829708,39.7520547,47.6409384,39.7854341]}}
{"name":"Biləcəri","other_names":{"name:az":"Biləcəri","name:en":"Bilajari","name:ru":"Баладжары"},"display_name":"Biləcəri, Azərbaycan","address":{"town":"Biləcəri","country":"Azərbaycan","country_code":"az"},"population":76700,"osm_type":"way","osm_id":299256848,"type":"town","location":[49.80435305888603,40.4368713],"bbox":[49.7728005,40.4157189,49.8480484,40.4579756]}
{"name":"Binəqədi","other_names":{"name:az":"Binəqədi","name:en":"Binagadi","name:ml":"ബീനഗദി","name:ru":"Бинагади"},"display_name":"Binəqədi, Azərbaycan","address":{"town":"Binəqədi","country":"Azərbaycan","country_code":"az"},"population":44800,"osm_type":"node","osm_id":339102495,"type":"town","location":[49.828023,40.4679226],"bbox":[49.788023,40.4279226,49.868023,40.5079226],"border":{"name":"Binəqədi","other_names":{"name:az":"Binəqədi","name:en":"Binaghadi","name:ru":"Бинагади","name:ml":"ബീനഗദി","alt:en":"Binagadi"},"display_name":"Binəqədi, Azərbaycan","address":{"town":"Binəqədi","country":"Azərbaycan","country_code":"az"},"population":44800,"osm_type":"way","osm_id":299253132,"type":"town","location":[49.828023,40.4679226],"bbox":[49.80021,40.4539225,49.8513892,40.4838129]}}
{"name":"Cəbrayıl","other_names":{"name:az":"Cəbrayıl","name:bs":"Džebrail","name:de":"Dschäbrajil","name:en":"Jabrayil","name:hr":"Cəbrayıl","name:ml":"ജബ്രയിൽ","name:pl":"Dżebraił","name:ru":"Джебраил","name:sr":"Џебраил","name:tr":"Cebrayıl","name:uk":"Джебраїл","name:sr-Latn":"Džebrail"},"display_name":"Cəbrayıl, Cəbrayıl rayonu, Azərbaycan","address":{"town":"Cəbrayıl","state_district":"Cəbrayıl rayonu","ISO3166-2-lvl5":"AZ-CAB","country":"Azərbaycan","country_code":"az"},"population":912,"osm_type":"node","osm_id":232195052,"type":"town","location":[47.0286002,39.3958878],"bbox":[46.9886002,39.3558878,47.0686002,39.4358878],"border":{"name":"Cəbrayıl","other_names":{"name:az":"Cəbrayıl","name:en":"Jabrayil","name:ru":"Джебраил","name:tr":"Cebrayıl","name:bs":"Džebrail","name:de":"Dschäbrajil","name:hr":"Cəbrayıl","name:ml":"ജബ്രയിൽ","name:pl":"Dżebraił","name:sr":"Џебраил","name:uk":"Джебраїл","name:sr-Latn":"Džebrail"},"display_name":"Cəbrayıl, Cəbrayıl rayonu, Azərbaycan","address":{"town":"Cəbrayıl","state_district":"Cəbrayıl rayonu","ISO3166-2-lvl5":"AZ-CAB","country":"Azərbaycan","country_code":"az"},"population":912,"osm_type":"way","osm_id":787951329,"type":"town","location":[47.0286002,39.3958878],"bbox":[47.0105892,39.3818761,47.0395732,39.4169746]}}
{"name":"Culfa","other_names":{"name:az":"Culfa","name:cs":"Džulfa","name:en":"Julfa","name:fa":"جلفا","name:hy":"Ջուղա","name:ja":"ジュルファ","name:ml":"ജുൽഫ","name:pl":"Dżulfa","name:ru":"Джульфа","int_name":"Julfa","name:azb":"جولفا","name:az-cyr":"Ҹулфа"},"display_name":"Culfa, Culfa rayonu, Naxçıvan Muxtar Respublikası, Azərbaycan","address":{"town":"Culfa","state_district":"Culfa rayonu","ISO3166-2-lvl5":"AZ-CUL","region":"Naxçıvan Muxtar Respublikası","ISO3166-2-lvl3":"AZ-NX","country":"Azərbaycan","country_code":"az"},"population":13500,"osm_type":"node","osm_id":172794981,"type":"town","location":[45.6270343,38.9540587],"bbox":[45.5870343,38.9140587,45.6670343,38.9940587],"border":{"name":"Culfa","other_names":{"name:az":"Culfa","name:ru":"Джульфа","name:cs":"Džulfa","name:en":"Julfa","name:fa":"جلفا","name:hy":"Ջուղա","name:ja":"ジュルファ","name:ml":"ജുൽഫ","name:pl":"Dżulfa","int_name":"Julfa","name:azb":"جولفا","name:az-cyr":"Ҹулфа"},"display_name":"Culfa, Culfa rayonu, Naxçıvan Muxtar Respublikası, Azərbaycan","address":{"town":"Culfa","state_district":"Culfa rayonu","ISO3166-2-lvl5":"AZ-CUL","region":"Naxçıvan Muxtar Respublikası","ISO3166-2-lvl3":"AZ-NX","country":"Azərbaycan","country_code":"az"},"population":13500,"osm_type":"way","osm_id":782121689,"type":"town","location":[45.6270343,38.9540587],"bbox":[45.615143,38.9460792,45.6475856,38.9656248]}}
{"name":"Daşkəsən","other_names":{"name:az":"Daşkəsən","name:hy":"Քարհատ","name:ja":"ダシュキャサン","name:ml":"ദാഷ്കസൻ","name:ru":"Дашкесан"},"display_name":"Daşkəsən, Daşkəsən rayonu, Azərbaycan","address":{"town":"Daşkəsən","state_district":"Daşkəsən rayonu","ISO3166-2-lvl5":"AZ-DAS","country":"Azərbaycan","country_code":"az"},"population":11200,"osm_type":"node","osm_id":3475112893,"type":"town","location":[46.0814694,40.5237213],"bbox":[46.0414694,40.4837213,46.1214694,40.5637213],"border":{"name":"Daşkəsən","other_names":{"name:az":"Daşkəsən","name:ru":"Дашкесан","name:hy":"Քարհատ","name:ja":"ダシュキャサン","name:ml":"ദാഷ്കസൻ"},"display_name":"Daşkəsən, Daşkəsən rayonu, Azərbaycan","address":{"town":"Daşkəsən","state_district":"Daşkəsən rayonu","ISO3166-2-lvl5":"AZ-DAS","country":"Azərbaycan","country_code":"az"},"population":11200,"osm_type":"way","osm_id":1343076433,"type":"town","location":[46.0814694,40.5237213],"bbox":[46.0738975,40.5178651,46.0880434,40.5275783]}}
{"name":"Ələt","other_names":{"name:az":"Ələt","name:en":"Alat","name:hu":"Aljat","name:ja":"アリャート","name:ml":"അൽയാത്ത്","name:ru":"Алят"},"display_name":"Ələt, Azərbaycan","address":{"town":"Ələt","country":"Azərbaycan","country_code":"az"},"population":12500,"osm_type":"node","osm_id":244370824,"type":"town","location":[49.4066384,39.9477043],"bbox":[49.3666384,39.9077043,49.4466384,39.9877043],"border":{"name":"Ələt","other_names":{"name:az":"Ələt","name:en":"Alat","name:ru":"Алят","name:hu":"Aljat","name:ja":"アリャート","name:ml":"അൽയാത്ത്"},"display_name":"Ələt, Azərbaycan","address":{"town":"Ələt","country":"Azərbaycan","country_code":"az"},"population":12500,"osm_type":"way","osm_id":289785832,"type":"town","location":[49.4066384,39.9477043],"bbox":[49.3909361,39.9333362,49.414632,39.9587095]}}
{"name":"Əsgəran","other_names":{"name:az":"Əsgəran","name:de":"Askeran","name:en":"Askeran","name:ja":"アスケラン","name:ml":"അസ്കറാൻ","name:ru":"Аскеран","name:sk":"Askeran","name:tr":"Askeran","name:uk":"Аскеран"},"display_name":"Əsgəran, Xocalı rayonu, Azərbaycan","address":{"town":"Əsgəran","state_district":"Xocalı rayonu","ISO3166-2-lvl5":"AZ-XCI","country":"Azərbaycan","country_code":"az"},"osm_type":"node","osm_id":234280798,"type":"town","location":[46.8353633,39.9379213],"bbox":[46.7953633,39.8979213,46.8753633,39.9779213]}
{"name":"Füzuli","other_names":{"name:az":"Füzuli","name:en":"Fuzuli","name:ml":"ഫുസുലി","name:pl":"Fizuli","name:uk":"Фюзулі","old_name":"Fizuli","alt_name:ml":"വരണ്ട"},"display_name":"Füzuli, Füzuli rayonu, Azərbaycan","address":{"town":"Füzuli","state_district":"Füzuli rayonu","ISO3166-2-lvl5":"AZ-FUZ","country":"Azərbaycan","country_code":"az"},"population":3132,"osm_type":"node","osm_id":232207244,"type":"town","location":[47.1485708,39.6007384],"bbox":[47.1085708,39.5607384,47.1885708,39.6407384],"border":{"name":"Füzuli","other_names":{"name:az":"Füzuli","name:ru":"Физули","name:en":"Fuzuli","name:ml":"ഫുസുലി","name:pl":"Fizuli","name:uk":"Фюзулі","old_name":"Fizuli","alt_name:ml":"വരണ്ട"},"display_name":"Füzuli, Füzuli rayonu, Azərbaycan","address":{"town":"Füzuli","state_district":"Füzuli rayonu","ISO3166-2-lvl5":"AZ-FUZ","country":"Azərbaycan","country_code":"az"},"population":3132,"osm_type":"way","osm_id":185938022,"type":"town","location":[47.1485708,39.6007384],"bbox":[47.1241974,39.5796133,47.1806186,39.6131975]}}
{"name":"Gədəbəy","other_names":{"name:az":"Gədəbəy","name:en":"Gadabay","name:ja":"ガダバイ","name:ml":"ഗദബയ്","name:ru":"Кедабек","name:uk":"Ґедебей","int_name":"Gadabay"},"display_name":"Gədəbəy, Gədəbəy rayonu, Azərbaycan","address":{"town":"Gədəbəy","state_district":"Gədəbəy rayonu","ISO3166-2-lvl5":"AZ-GAD","country":"Azərbaycan","country_code":"az"},"population":11700,"osm_type":"node","osm_id":229499571,"type":"town","location":[45.8103471,40.5747098],"bbox":[45.7703471,40.5347098,45.8503471,40.6147098],"border":{"name":"Gədəbəy","other_names":{"name:az":"Gədəbəy","name:en":"Gadabay","name:ja":"ガダバイ","name:ru":"Кедабек","name:uk":"Кедабек","name:ml":"ഗദബയ്","int_name":"Gadabay","alt:uk":"Ґедебей"},"display_name":"Gədəbəy, Gədəbəy rayonu, 2100, Azərbaycan","address":{"town":"Gədəbəy","state_district":"Gədəbəy rayonu","ISO3166-2-lvl5":"AZ-GAD","postcode":"2100","country":"Azərbaycan","country_code":"az"},"population":11700,"osm_type":"way","osm_id":1332479558,"type":"town","location":[45.8103471,40.5747098],"bbox":[45.7923996,40.5598762,45.8336252,40.5862843]}}
{"name":"Goranboy","other_names":{"name:az":"Goranboy","name:ja":"ゴランボイ","name:ml":"ഗോറാൻബോയ്","name:ru":"Геранбой","int_name":"Goranboy"},"display_name":"Goranboy, Goranboy rayonu, Azərbaycan","address":{"town":"Goranboy","state_district":"Goranboy rayonu","ISO3166-2-lvl5":"AZ-GOR","country":"Azərbaycan","country_code":"az"},"population":6800,"osm_type":"node","osm_id":3713798233,"type":"town","location":[46.7877641,40.6083463],"bbox":[46.7477641,40.5683463,46.8277641,40.6483463],"border":{"name":"Goranboy","other_names":{"name:az":"Goranboy","name:en":"Goranboy","name:ru":"Геранбой","name:ja":"ゴランボイ","name:ml":"ഗോറാൻബോയ്","int_name":"Goranboy"},"display_name":"Goranboy, Goranboy rayonu, Azərbaycan","address":{"town":"Goranboy","state_district":"Goranboy rayonu","ISO3166-2-lvl5":"AZ-GOR","country":"Azərbaycan","country_code":"az"},"population":6800,"osm_type":"way","osm_id":280497150,"type":"town","location":[46.7877641,40.6083463],"bbox":[46.774298,40.5927879,46.8089896,40.6271247]}}
{"name":"Göyçay","other_names":{"name:az":"Göyçay","name:en":"Goychay","name:ja":"ギョイチャイ","name:ml":"ഗോയ്ചയ്","name:ru":"Гёйчай","name:uk":"Ґейчай","int_name":"Goychay"},"display_name":"Göyçay, Göyçay rayonu, 2303, Azərbaycan","address":{"town":"Göyçay","state_district":"Göyçay rayonu","ISO3166-2-lvl5":"AZ-GOY","postcode":"2303","country":"Azərbaycan","country_code":"az"},"population":37300,"osm_type":"node","osm_id":229488461,"type":"town","location":[47.7412208,40.6494415],"bbox":[47.7012208,40.6094415,47.7812208,40.6894415],"border":{"name":"Göyçay","other_names":{"name:az":"Göyçay","name:ja":"ギョイチャイ","name:ru":"Гёйчай","int_name":"Goychay","alt_name:ru":"Геокчай","name:en":"Goychay","name:ml":"ഗോയ്ചയ്","name:uk":"Ґейчай"},"display_name":"Göyçay, Göyçay rayonu, Azərbaycan","address":{"town":"Göyçay","state_district":"Göyçay rayonu","ISO3166-2-lvl5":"AZ-GOY","country":"Azərbaycan","country_code":"az"},"population":37300,"osm_type":"way","osm_id":164689818,"type":"town","location":[47.7412208,40.6494415],"bbox":[47.7171854,40.6329995,47.7603471,40.6695076]}}
{"name":"Göygöl","other_names":{"name:az":"Göygöl","name:de":"Goygol","name:ja":"ゴイゴル","name:ru":"Гёйгёль","name:uk":"Гейгель","old_name:az":"Khanlar","old_name:de":"Helenendorf","old_name:ru":"Еленендорф"},"display_name":"Göygöl, Göygöl rayonu, 2500, Azərbaycan","address":{"town":"Göygöl","state_district":"Göygöl rayonu","ISO3166-2-lvl5":"AZ-GYG","postcode":"2500","country":"Azərbaycan","country_code":"az"},"population":18200,"osm_type":"node","osm_id":229503490,"type":"town","location":[46.321095,40.588004],"bbox":[46.281095,40.548004,46.361095,40.628004],"border":{"name":"Göygöl","other_names":{"name:az":"Göygöl","name:ru":"Гёйгёль","alt_name":"Xanlar","old_name":"Helenendorf","old_name:ru":"Ханлар","name:de":"Goygol","name:ja":"ゴイゴル","name:uk":"Гейгель","old_name:az":"Khanlar","old_name:de":"Helenendorf","_place_old_name:ru":"Еленендорф"},"display_name":"Göygöl, Göygöl rayonu, 2500, Azərbaycan","address":{"town":"Göygöl","state_district":"Göygöl rayonu","ISO3166-2-lvl5":"AZ-GYG","postcode":"2500","country":"Azərbaycan","country_code":"az"},"population":18200,"osm_type":"way","osm_id":1365591121,"type":"town","location":[46.321095,40.588004],"bbox":[46.3094276,40.5670569,46.3453853,40.6000159]}}
{"name":"Göytəpə","other_names":{"name:az":"Göytəpə","name:be":"Гёйтэпэ","name:en":"Goytepe","name:ja":"ギョイテペ","name:ml":"ഗോയ്തപ്പ","name:ru":"Гёйтепе","name:sv":"Göjtäpä","name:uk":"Ґьойтепе","alt_name":"Göytäpä","old_name":"Prishibinskoye;Пришиб;Prishibinskoe;Prishibinsk","old_name:az":"Prişib","old_name:uk":"Гейтепе"},"display_name":"Göytəpə, Cəlilabad rayonu, 1514, Azərbaycan","address":{"town":"Göytəpə","state_district":"Cəlilabad rayonu","ISO3166-2-lvl5":"AZ-CAL","postcode":"1514","country":"Azərbaycan","country_code":"az"},"population":15500,"osm_type":"node","osm_id":3007084420,"type":"town","location":[48.5951352,39.1197314],"bbox":[48.5551352,39.0797314,48.6351352,39.1597314],"border":{"name":"Göytəpə","other_names":{"name:az":"Göytəpə","name:be":"Гёйтэпэ","name:en":"Geytepe","name:ru":"Гёйтепе","name:sv":"Göjtäpä","name:uk":"Ґьойтепе","alt_name":"Göytäpä","old_name":"Prishibinskoye;Пришиб;Prishibinskoe;Prishibinsk","old_name:az":"Prişib","old_name:uk":"Гейтепе","name:ja":"ギョイテペ","name:ml":"ഗോയ്തപ്പ","alt:en":"Goytepe"},"display_name":"Göytəpə, Cəlilabad rayonu, 1514, Azərbaycan","address":{"town":"Göytəpə","state_district":"Cəlilabad rayonu","ISO3166-2-lvl5":"AZ-CAL","postcode":"1514","country":"Azərbaycan","country_code":"az"},"population":15500,"osm_type":"way","osm_id":180970084,"type":"town","location":[48.5951352,39.1197314],"bbox":[48.5586806,39.1054686,48.6139781,39.1348197]}}
{"name":"Hacıqabul","other_names":{"name:az":"Hacıqabul","name:en":"Hajibagul","name:ja":"ハジュガブル","name:ml":"ഹാജിഗബൂൽ","name:ru":"Аджыгабул"},"display_name":"Hacıqabul, Hacıqabul rayonu, Azərbaycan","address":{"town":"Hacıqabul","state_district":"Hacıqabul rayonu","ISO3166-2-lvl5":"AZ-HAC","country":"Azərbaycan","country_code":"az"},"population":27400,"osm_type":"node","osm_id":229492717,"type":"town","location":[48.9350797,40.0286557],"bbox":[48.8950797,39.9886557,48.9750797,40.0686557],"border":{"name":"Hacıqabul","other_names":{"name:az":"Hacıqabul","name:en":"Hajigabul","name:ru":"Аджигабул","name:ja":"ハジュガブル","name:ml":"ഹാജിഗബൂൽ","alt:en":"Hajibagul","alt:ru":"Аджыгабул"},"display_name":"Hacıqabul, Hacıqabul rayonu, Azərbaycan","address":{"town":"Hacıqabul","state_district":"Hacıqabul rayonu","ISO3166-2-lvl5":"AZ-HAC","country":"Azərbaycan","country_code":"az"},"population":27400,"osm_type":"way","osm_id":289844635,"type":"town","location":[48.9350797,40.0286557],"bbox":[48.9073455,40.016776,48.9550696,40.0559732]}}
{"name":"Hadrut","other_names":{"name:az":"Hadrut","name:en":"Hadrut","name:fr":"Hadrout","name:ja":"ハドルト","name:ka":"ჰადრუთი","name:ml":"ഹാദ്റൂത്ത്","name:ru":"Гадрут","name:tr":"Hadrut","name:uk":"Гадрут","int_name":"Hadrut"},"display_name":"Hadrut, Xocavənd rayonu, Azərbaycan","address":{"town":"Hadrut","state_district":"Xocavənd rayonu","ISO3166-2-lvl5":"AZ-XVD","country":"Azərbaycan","country_code":"az"},"population":4100,"osm_type":"node","osm_id":925959119,"type":"town","location":[47.0313751,39.5190107],"bbox":[46.9913751,39.4790107,47.0713751,39.5590107]}
{"name":"Heydərabad","other_names":{"name:az":"Heydərabad","name:cs":"Hejdarabad","name:en":"Heydarabad","name:hy":"Հեյդարաբադ","name:ml":"ഹൈദരാബാദ്","name:ru":"Гейдарабад","name:tr":"Haydarabad"},"display_name":"Heydərabad, Sədərək rayonu, Naxçıvan Muxtar Respublikası, Azərbaycan","address":{"town":"Heydərabad","state_district":"Sədərək rayonu","ISO3166-2-lvl5":"AZ-SAD","region":"Naxçıvan Muxtar Respublikası","ISO3166-2-lvl3":"AZ-NX","country":"Azərbaycan","country_code":"az"},"population":1771,"osm_type":"node","osm_id":4125845973,"type":"town","location":[44.8482956,39.7236058],"bbox":[44.8082956,39.6836058,44.8882956,39.7636058],"border":{"name":"Heydərabad","other_names":{"name:az":"Heydərabad","name:en":"Heydarabad","name:hy":"Հեյդարաբադ","name:ru":"Гейдарабад","name:uk":"Гейдарабад","name:cs":"Hejdarabad","name:ml":"ഹൈദരാബാദ്","name:tr":"Haydarabad"},"display_name":"Heydərabad, Sədərək rayonu, Naxçıvan Muxtar Respublikası, Azərbaycan","address":{"town":"Heydərabad","state_district":"Sədərək rayonu","ISO3166-2-lvl5":"AZ-SAD","region":"Naxçıvan Muxtar Respublikası","ISO3166-2-lvl3":"AZ-NX","country":"Azərbaycan","country_code":"az"},"population":2300,"osm_type":"way","osm_id":410821355,"type":"town","location":[44.8482956,39.7236058],"bbox":[44.8414909,39.7161973,44.8521553,39.7258854]}}
{"name":"Horadiz","other_names":{"name:az":"Horadiz","name:ml":"ഹൊറാഡിസ്","name:ru":"Горадиз"},"display_name":"Horadiz, Füzuli rayonu, Azərbaycan","address":{"town":"Horadiz","state_district":"Füzuli rayonu","ISO3166-2-lvl5":"AZ-FUZ","country":"Azərbaycan","country_code":"az"},"population":7700,"osm_type":"node","osm_id":2858434205,"type":"town","location":[47.3314504,39.4510591],"bbox":[47.2914504,39.4110591,47.3714504,39.4910591],"border":{"name":"Horadiz","other_names":{"name:az":"Horadiz","name:ru":"Горадиз","name:ml":"ഹൊറാഡിസ്"},"display_name":"Horadiz, Füzuli rayonu, Azərbaycan","address":{"town":"Horadiz","state_district":"Füzuli rayonu","ISO3166-2-lvl5":"AZ-FUZ","country":"Azərbaycan","country_code":"az"},"population":7700,"osm_type":"way","osm_id":356273523,"type":"town","location":[47.3314504,39.4510591],"bbox":[47.3167341,39.4248294,47.3576258,39.4684361]}}
{"name":"Hövsan","other_names":{"name:az":"Hövsan","name:en":"Hovsan","name:ru":"Говсан"},"display_name":"Hövsan, Azərbaycan","address":{"town":"Hövsan","country":"Azərbaycan","country_code":"az"},"population":85300,"osm_type":"way","osm_id":164465671,"type":"town","location":[50.095851243010884,40.3734647],"bbox":[50.050842,40.353035,50.1348638,40.3942677]}
{"display_name":"İmişli rayonu, Azərbaycan","address":{"state_district":"İmişli rayonu","ISO3166-2-lvl5":"AZ-IMI","country":"Azərbaycan","country_code":"az"},"osm_type":"way","osm_id":355266282,"type":"town","location":[47.92373694869608,39.81876845],"bbox":[47.9132343,39.7959761,47.9359521,39.8420902]}
{"name":"İmişli","other_names":{"name:az":"İmişli","name:en":"Imishli","name:ru":"Имишли","name:uk":"Імішлі","name:ar":"إيميشلي","name:de":"İmişli","name:es":"İmişli","name:fa":"ایمیشلی","name:fr":"İmişli","name:ja":"イミシュリ","name:ml":"ഈമിഷ്ലി","name:ur":"ایمیشلی","name:azb":"ایمیش‌لی"},"display_name":"İmişli, İmişli rayonu, Azərbaycan","address":{"city":"İmişli","state_district":"İmişli rayonu","ISO3166-2-lvl5":"AZ-IMI","country":"Azərbaycan","country_code":"az"},"population":36200,"osm_type":"way","osm_id":354893895,"type":"town","location":[48.0594743,39.8716243],"bbox":[48.0233217,39.8407839,48.1067935,39.8943495]}
{"name":"İsmayıllı","other_names":{"name:az":"İsmayıllı","name:en":"Ismailli","name:ja":"イスマイル","name:ml":"ഇസ്മായില്ലി","name:ru":"Исмаиллы","int_name":"Ismailli"},"display_name":"İsmayıllı, İsmayıllı rayonu, Azərbaycan","address":{"town":"İsmayıllı","ISO3166-2-lvl5":"AZ-ISM","country":"Azərbaycan","country_code":"az"},"population":26100,"osm_type":"node","osm_id":275612382,"type":"town","location":[48.1485653,40.788056],"bbox":[48.1085653,40.748056,48.1885653,40.828056],"border":[{"name":"İsmayıllı","other_names":{"name:az":"İsmayıllı","name:en":"Ismailly","name:ru":"Исмаиллы","int_name":"Ismailli"},"display_name":"İsmayıllı, Azərbaycan","address":{"town":"İsmayıllı","country":"Azərbaycan","country_code":"az"},"population":26100,"osm_type":"way","osm_id":199834091,"type":"town","location":[48.14740530844996,40.7856797],"bbox":[48.1126177,40.7633486,48.1894183,40.8086528]},{"name":"İsmayıllı rayonu","other_names":{"name:az":"İsmayıllı rayonu","name:de":"İsmayıllı","name:en":"Ismailli District","name:es":"İsmayıllı","name:fr":"Ismailli","name:ja":"イスマイル県","name:ru":"Исмаиллинский район","name:uk":"Ісмаїллинський район","ISO3166-2":"AZ-ISM","name:ml":"ഇസ്മായില്ലി","int_name":"Ismailli","alt":"İsmayıllı","alt:az":"İsmayıllı","alt:en":"Ismailli","alt:ja":"イスマイル","alt:ru":"Исмаиллы"},"display_name":"İsmayıllı rayonu, Azərbaycan","address":{"town":"İsmayıllı rayonu","ISO3166-2-lvl5":"AZ-ISM","country":"Azərbaycan","country_code":"az"},"population":72144,"osm_type":"relation","osm_id":3764591,"type":"administrative","location":[48.1485653,40.788056],"bbox":[47.7627079,40.5228901,48.5385885,41.0777172]}]}
{"name":"Kəlbəcər","other_names":{"name:az":"Kəlbəcər","name:be":"Кельбаджар","name:en":"Kalbajar","name:ja":"カルバジャ","name:ku":"Kelbajar","name:ml":"കൽബജർ","name:pl":"Kelbadżar","name:ru":"Кельбаджар","name:tr":"Kelbecer","name:uk":"Кельбаджар","int_name":"Kalbajar"},"display_name":"Kəlbəcər, Kəlbəcər rayonu, 3200, Azərbaycan","address":{"town":"Kəlbəcər","county":"Kəlbəcər","state_district":"Kəlbəcər rayonu","ISO3166-2-lvl5":"AZ-KAL","postcode":"3200","country":"Azərbaycan","country_code":"az"},"population":600,"osm_type":"node","osm_id":3192608052,"type":"town","location":[46.0383543,40.106639],"bbox":[45.9983543,40.066639,46.0783543,40.146639],"border":{"name":"Kəlbəcər","other_names":{"name:az":"Kəlbəcər","name:en":"Kalbajar","name:hy":"Քարվաճառ","name:ru":"Кельбаджар","name:tr":"Kelbecer"},"display_name":"Kəlbəcər, Kəlbəcər rayonu, 3200, Azərbaycan","address":{"county":"Kəlbəcər","state_district":"Kəlbəcər rayonu","ISO3166-2-lvl5":"AZ-KAL","postcode":"3200","country":"Azərbaycan","country_code":"az"},"osm_type":"relation","osm_id":1639616,"type":"administrative","location":[46.03717277176976,40.1067099],"bbox":[46.0157805,40.0930744,46.0594554,40.1200088]}}
{"name":"Kərkicahan","other_names":{"name:az":"Kərkicahan","name:en":"Karkijahan","name:ru":"Кяркиджахан"},"display_name":"Kərkicahan, Xankəndi, 5800, Azərbaycan","address":{"town":"Kərkicahan","city":"Xankəndi","ISO3166-2-lvl5":"AZ-XA","postcode":"5800","country":"Azərbaycan","country_code":"az"},"population":2000,"osm_type":"node","osm_id":11209947182,"type":"town","location":[46.7386433,39.8020382],"bbox":[46.6986433,39.7620382,46.7786433,39.8420382]}
{"name":"Kürdəmir","other_names":{"name:az":"Kürdəmir","name:en":"Kurdamir","name:ja":"キュルダミル","name:ml":"കുർദാമിർ","name:ru":"Кюрдамир","int_name":"Kurdamir"},"display_name":"Kürdəmir, Kürdəmir rayonu, 3300, Azərbaycan","address":{"town":"Kürdəmir","state_district":"Kürdəmir rayonu","ISO3166-2-lvl5":"AZ-KUR","postcode":"3300","country":"Azərbaycan","country_code":"az"},"population":19300,"osm_type":"node","osm_id":229485648,"type":"town","location":[48.1488951,40.3455247],"bbox":[48.1088951,40.3055247,48.1888951,40.3855247],"border":{"name":"Kürdəmir","other_names":{"name:az":"Kürdəmir","name:ja":"キュルダミル","name:ru":"Кюрдамир","int_name":"Kurdamir","name:en":"Kurdamir","name:ml":"കുർദാമിർ"},"display_name":"Kürdəmir, Kürdəmir rayonu, 3300, Azərbaycan","address":{"town":"Kürdəmir","state_district":"Kürdəmir rayonu","ISO3166-2-lvl5":"AZ-KUR","postcode":"3300","country":"Azərbaycan","country_code":"az"},"population":19300,"osm_type":"way","osm_id":276326013,"type":"town","location":[48.1488951,40.3455247],"bbox":[48.1219172,40.3210439,48.178069,40.361443]}}
{"name":"Laçın","other_names":{"name:az":"Laçın","name:en":"Lachin","name:fr":"Latchine","name:hy":"Բերձոր","name:ku":"Laçîn","name:ml":"ലച്ചിൻ","name:ru":"Лачин","name:sk":"Lačin","name:uk":"Лачин","name:ckb":"لاچین","alt_name:en":"Berdzor"},"display_name":"Laçın, Laçın rayonu, Azərbaycan","address":{"town":"Laçın","state_district":"Laçın rayonu","ISO3166-2-lvl5":"AZ-LAC","country":"Azərbaycan","country_code":"az"},"population":2090,"osm_type":"node","osm_id":234298960,"type":"town","location":[46.5488378,39.6401825],"bbox":[46.5088378,39.6001825,46.5888378,39.6801825]}
{"name":"Lerik","other_names":{"name:ar":"لريك","name:az":"Lerik","name:fa":"لریک","name:ja":"レリク","name:ks":"لریک","name:ml":"ലെറിക്ക്","name:ru":"Лерик","name:uk":"Лерік","name:ur":"لریک","name:azb":"لریک"},"display_name":"Lerik, Lerik rayonu, 7384, Azərbaycan","address":{"town":"Lerik","state_district":"Lerik rayonu","ISO3166-2-lvl5":"AZ-LER","postcode":"7384","country":"Azərbaycan","country_code":"az"},"population":8700,"osm_type":"node","osm_id":231529396,"type":"town","location":[48.418155,38.7752945],"bbox":[48.378155,38.7352945,48.458155,38.8152945],"border":{"name":"Lerik","other_names":{"name:ar":"لريك","name:az":"Lerik","name:fa":"لریک","name:ks":"لریک","name:ru":"Лерик","name:uk":"Лерік","name:ur":"لریک","name:azb":"لریک","name:ja":"レリク","name:ml":"ലെറിക്ക്"},"display_name":"Lerik, Lerik rayonu, 7384, Azərbaycan","address":{"town":"Lerik","state_district":"Lerik rayonu","ISO3166-2-lvl5":"AZ-LER","postcode":"7384","country":"Azərbaycan","country_code":"az"},"population":8700,"osm_type":"way","osm_id":357589420,"type":"town","location":[48.418155,38.7752945],"bbox":[48.3985163,38.7650492,48.4289664,38.787364]}}
{"name":"Liman","other_names":{"name:az":"Liman","name:ml":"ലിമാൻ","name:uk":"Ліман"},"display_name":"Liman, Lənkəran rayonu, Azərbaycan","address":{"town":"Liman","state_district":"Lənkəran rayonu","ISO3166-2-lvl5":"AZ-LAN","country":"Azərbaycan","country_code":"az"},"population":11100,"osm_type":"node","osm_id":3140466882,"type":"town","location":[48.8071452,38.8783968],"bbox":[48.7671452,38.8383968,48.8471452,38.9183968],"border":{"name":"Liman","other_names":{"name:az":"Liman","name:ru":"Лиман","name:uk":"Ліман","name:ml":"ലിമാൻ"},"display_name":"Liman, Lənkəran rayonu, Azərbaycan","address":{"town":"Liman","state_district":"Lənkəran rayonu","ISO3166-2-lvl5":"AZ-LAN","country":"Azərbaycan","country_code":"az"},"population":11100,"osm_type":"way","osm_id":308776606,"type":"town","location":[48.8071452,38.8783968],"bbox":[48.7969451,38.8438923,48.8159814,38.8924934]}}
{"name":"Lökbatan","other_names":{"name:az":"Lökbatan","name:ru":"Локбатан"},"display_name":"Lökbatan, Azərbaycan","address":{"town":"Lökbatan","country":"Azərbaycan","country_code":"az"},"population":34400,"osm_type":"node","osm_id":244340354,"type":"town","location":[49.7308283,40.3252712],"bbox":[49.6908283,40.2852712,49.7708283,40.3652712],"border":{"name":"Lökbatan","other_names":{"name:az":"Lökbatan","name:en":"Lokbatan","name:ru":"Локбатан"},"display_name":"Lökbatan, Azərbaycan","address":{"town":"Lökbatan","country":"Azərbaycan","country_code":"az"},"population":34400,"osm_type":"way","osm_id":177623518,"type":"town","location":[49.7308283,40.3252712],"bbox":[49.6958485,40.3174266,49.7523808,40.3419199]}}
{"name":"Masallı","other_names":{"name:en":"Masally","name:ja":"マサッル","name:ml":"മാസാല്ലി","name:ru":"Масаллы"},"display_name":"Masallı, Masallı rayonu, Azərbaycan","address":{"town":"Masallı","state_district":"Masallı rayonu","ISO3166-2-lvl5":"AZ-MAS","country":"Azərbaycan","country_code":"az"},"population":26700,"osm_type":"node","osm_id":231418623,"type":"town","location":[48.6721093,39.0322111],"bbox":[48.6321093,38.9922111,48.7121093,39.0722111],"border":{"name":"Masallı","other_names":{"name:az":"Masallı","name:en":"Masally","name:ru":"Масаллы","name:ja":"マサッル","name:ml":"മാസാല്ലി"},"display_name":"Masallı, Masallı rayonu, Azərbaycan","address":{"town":"Masallı","state_district":"Masallı rayonu","ISO3166-2-lvl5":"AZ-MAS","country":"Azərbaycan","country_code":"az"},"population":26700,"osm_type":"way","osm_id":136080244,"type":"town","location":[48.6721093,39.0322111],"bbox":[48.649802,39.0166096,48.6995664,39.0515544]}}
{"name":"Mərdəkan","other_names":{"name:az":"Mərdəkan","name:en":"Mardakan","name:ko":"마르다칸","name:ml":"മർദക്കാൻ","name:ru":"Мардакан"},"display_name":"Mərdəkan, Azərbaycan","address":{"town":"Mərdəkan","country":"Azərbaycan","country_code":"az"},"population":32084,"osm_type":"node","osm_id":1641136759,"type":"town","location":[50.1495477,40.4935881],"bbox":[50.1095477,40.4535881,50.1895477,40.5335881],"border":{"name":"Mərdəkan","other_names":{"name:ar":"مردكان","name:az":"Mərdəkan","name:en":"Mardakan","name:he":"מרדקאן","name:ko":"마르다칸","name:ml":"മർദക്കാൻ","name:ru":"Мардакян","name:zh-Hans":"马尔达坎","alt:ru":"Мардакан"},"display_name":"Mərdəkan, Azərbaycan","address":{"town":"Mərdəkan","country":"Azərbaycan","country_code":"az"},"population":32084,"osm_type":"way","osm_id":1149944916,"type":"town","location":[50.1495477,40.4935881],"bbox":[50.1223804,40.4595676,50.1729215,40.5235335]}}
{"name":"Mincivan","other_names":{"name:az":"Mincivan","name:en":"Minjivan","name:fa":"منجوان","name:ja":"ミンクアイバン","name:ru":"Миндживан","name:tr":"Mincivan"},"display_name":"Mincivan, Zəngilan Rayonu, Azərbaycan","address":{"town":"Mincivan","state_district":"Zəngilan Rayonu","ISO3166-2-lvl5":"AZ-ZAN","country":"Azərbaycan","country_code":"az"},"population":324,"osm_type":"node","osm_id":234330550,"type":"town","location":[46.7157787,39.0285998],"bbox":[46.6757787,38.9885998,46.7557787,39.0685998]}
{"name":"Naftalan","other_names":{"name:az":"Naftalan","name:ja":"ナフタラン","name:ml":"നഫ്താലാൻ","name:ru":"Нафталан"},"display_name":"Naftalan, Naftalan İnzibati Ərazisi, Azərbaycan","address":{"town":"Naftalan","ISO3166-2-lvl5":"AZ-NA","country":"Azərbaycan","country_code":"az"},"population":9300,"osm_type":"node","osm_id":1885045493,"type":"town","location":[46.821245,40.5064362],"bbox":[46.781245,40.4664362,46.861245,40.5464362],"border":[{"name":"Naftalan","other_names":{"name:az":"Naftalan"},"display_name":"Naftalan, Azərbaycan","address":{"town":"Naftalan","country":"Azərbaycan","country_code":"az"},"osm_type":"way","osm_id":1385391643,"type":"town","location":[46.81732354014852,40.512055700000005],"bbox":[46.8101156,40.5027032,46.8321459,40.5215801]},{"name":"Naftalan İnzibati Ərazisi","other_names":{"name:az":"Naftalan İnzibati Ərazisi","name:de":"Naftalan","name:en":"Naftalan City","name:es":"Naftalan","name:fr":"Naftalan","name:ja":"ナフタラン","name:ru":"Нафталанская Администрация","ISO3166-2":"AZ-NA","name:ml":"നഫ്താലാൻ","alt":"Naftalan","alt:az":"Naftalan","alt:ru":"Нафталан"},"display_name":"Naftalan İnzibati Ərazisi, Azərbaycan","address":{"town":"Naftalan İnzibati Ərazisi","ISO3166-2-lvl5":"AZ-NA","country":"Azərbaycan","country_code":"az"},"population":9300,"osm_type":"relation","osm_id":3812595,"type":"administrative","location":[46.821245,40.5064362],"bbox":[46.7726309,40.4723162,46.8532561,40.526251]}]}
{"name":"Nehrəm","other_names":{"name:az":"Nehrəm","name:ml":"നെഹ്റം"},"display_name":"Nehrəm, Babək rayonu, Naxçıvan Muxtar Respublikası, Azərbaycan","address":{"town":"Nehrəm","state_district":"Babək rayonu","ISO3166-2-lvl5":"AZ-BAB","region":"Naxçıvan Muxtar Respublikası","ISO3166-2-lvl3":"AZ-NX","country":"Azərbaycan","country_code":"az"},"population":16600,"osm_type":"node","osm_id":2983469452,"type":"town","location":[45.4633433,39.1147709],"bbox":[45.4233433,39.0747709,45.5033433,39.1547709],"border":{"name":"Nehrəm","other_names":{"name:az":"Nehrəm","name:ru":"Нехрам","name:ml":"നെഹ്റം"},"display_name":"Nehrəm, Babək rayonu, Naxçıvan Muxtar Respublikası, Azərbaycan","address":{"town":"Nehrəm","state_district":"Babək rayonu","ISO3166-2-lvl5":"AZ-BAB","region":"Naxçıvan Muxtar Respublikası","ISO3166-2-lvl3":"AZ-NX","country":"Azərbaycan","country_code":"az"},"population":16600,"osm_type":"way","osm_id":829635120,"type":"town","location":[45.4633433,39.1147709],"bbox":[45.4385741,39.1032464,45.492402,39.1339771]}}
{"name":"Oğuz","other_names":{"name:az":"Oğuz","name:en":"Oghuz","name:ja":"オグズ","name:ml":"ഓഗൂസ്","name:ru":"Огуз","name:uk":"Оґуз","int_name":"Oghuz"},"display_name":"Oğuz, Oğuz rayonu, Azərbaycan","address":{"town":"Oğuz","state_district":"Oğuz rayonu","ISO3166-2-lvl5":"AZ-OGU","country":"Azərbaycan","country_code":"az"},"population":7500,"osm_type":"node","osm_id":1849664334,"type":"town","location":[47.4646904,41.0677148],"bbox":[47.4246904,41.0277148,47.5046904,41.1077148],"border":{"name":"Oğuz","other_names":{"name:az":"Oğuz","name:en":"Oghuz","name:ru":"Огуз","name:uk":"Огуз","int_name":"Oghuz","name:ja":"オグズ","name:ml":"ഓഗൂസ്","alt:uk":"Оґуз"},"display_name":"Oğuz, Oğuz rayonu, 4800, Azərbaycan","address":{"town":"Oğuz","state_district":"Oğuz rayonu","ISO3166-2-lvl5":"AZ-OGU","postcode":"4800","country":"Azərbaycan","country_code":"az"},"population":7500,"osm_type":"way","osm_id":273655705,"type":"town","location":[47.4646904,41.0677148],"bbox":[47.435714,41.0548579,47.478801,41.0930576]}}
{"name":"Ordubad","other_names":{"name:az":"Ordubad","name:cs":"Ordubad","name:en":"Ordubad","name:fa":"اردوباد","name:ml":"ഒർദുബാദ്","name:ru":"Ордубад"},"display_name":"Ordubad, Ordubad rayonu, Naxçıvan Muxtar Respublikası, Azərbaycan","address":{"town":"Ordubad","state_district":"Ordubad rayonu","ISO3166-2-lvl5":"AZ-ORD","region":"Naxçıvan Muxtar Respublikası","ISO3166-2-lvl3":"AZ-NX","country":"Azərbaycan","country_code":"az"},"population":10800,"osm_type":"node","osm_id":4763558427,"type":"town","location":[46.0222267,38.9062025],"bbox":[45.9822267,38.8662025,46.0622267,38.9462025],"border":{"name":"Ordubad","other_names":{"name:az":"Ordubad","name:fa":"اردوباد","name:ru":"Ордубад","name:cs":"Ordubad","name:en":"Ordubad","name:ml":"ഒർദുബാദ്"},"display_name":"Ordubad, Ordubad rayonu, Naxçıvan Muxtar Respublikası, Azərbaycan","address":{"town":"Ordubad","state_district":"Ordubad rayonu","ISO3166-2-lvl5":"AZ-ORD","region":"Naxçıvan Muxtar Respublikası","ISO3166-2-lvl3":"AZ-NX","country":"Azərbaycan","country_code":"az"},"population":10800,"osm_type":"relation","osm_id":9367064,"type":"town","location":[46.0222267,38.9062025],"bbox":[46.004277,38.8821067,46.035796,38.9205581]}}
{"name":"Pirallahı","other_names":{"name:az":"Pirallahı","name:ru":"Пираллахы","name:uk":"Піраллаги","alt_name":"Artyom"},"display_name":"Pirallahı, Azərbaycan","address":{"town":"Pirallahı","country":"Azərbaycan","country_code":"az"},"population":16200,"osm_type":"node","osm_id":1880415465,"type":"town","location":[50.3339854,40.4591806],"bbox":[50.2939854,40.4191806,50.3739854,40.4991806],"border":{"name":"Pirallahı","other_names":{"name:az":"Pirallahı","name:en":"Pirallahy","name:ru":"Пираллахы","alt_name":"Artyom Ada","name:uk":"Піраллаги","_place_alt_name":"Artyom"},"display_name":"Pirallahı, Azərbaycan","address":{"town":"Pirallahı","country":"Azərbaycan","country_code":"az"},"population":16200,"osm_type":"way","osm_id":272642774,"type":"town","location":[50.3339854,40.4591806],"bbox":[50.3155214,40.4415892,50.3444665,40.4751625]}}
{"name":"Qaraçuxur","other_names":{"name:az":"Qaraçuxur","name:en":"Karachukhur","name:ru":"Карачухур","old_name":"Serebrovski"},"display_name":"Qaraçuxur, Bakı İnzibati Ərazisi, Azərbaycan","address":{"town":"Qaraçuxur","city":"Bakı İnzibati Ərazisi","ISO3166-2-lvl5":"AZ-BA","country":"Azərbaycan","country_code":"az"},"population":76400,"osm_type":"way","osm_id":350795504,"type":"town","location":[49.981531113553444,40.39684415],"bbox":[49.966764,40.385043,49.997183,40.4091624]}
{"name":"Qarayeri","other_names":{"name:az":"Qarayeri"},"display_name":"Qarayeri, Samux rayonu, Azərbaycan","address":{"village":"Qarayeri","state_district":"Samux rayonu","ISO3166-2-lvl5":"AZ-SMX","country":"Azərbaycan","country_code":"az"},"osm_type":"way","osm_id":1041209809,"type":"town","location":[46.3165091,40.7889341],"bbox":[46.2946486,40.7731603,46.3339671,40.8075281]}
{"name":"Qax","other_names":{"name:az":"Qax","name:en":"Qakh","name:ka":"კახი","name:ml":"കാഖ്","name:ru":"Гах","name:uk":"Ґах","int_name":"Qakh"},"display_name":"Qax, Qax rayonu, Azərbaycan","address":{"town":"Qax","state_district":"Qax rayonu","ISO3166-2-lvl5":"AZ-QAX","country":"Azərbaycan","country_code":"az"},"population":14500,"osm_type":"node","osm_id":6815160319,"type":"town","location":[46.9192097,41.4185515],"bbox":[46.8792097,41.3785515,46.9592097,41.4585515],"border":{"name":"Qax","other_names":{"name:az":"Qax","name:en":"Qakh","name:ka":"კახი","name:ru":"Гах","name:uk":"Ґах","name:ml":"കാഖ്","int_name":"Qakh"},"display_name":"Qax, Qax rayonu, 3400, Azərbaycan","address":{"town":"Qax","state_district":"Qax rayonu","ISO3166-2-lvl5":"AZ-QAX","postcode":"3400","country":"Azərbaycan","country_code":"az"},"population":14500,"osm_type":"way","osm_id":280463930,"type":"town","location":[46.9192097,41.4185515],"bbox":[46.892074,41.4089551,46.9397133,41.4358657]}}
{"name":"Qazax","other_names":{"name:az":"Qazax","name:en":"Gazakh","name:ka":"ყაზახი","name:ml":"ഗസാഖ്","name:ru":"Газах","int_name":"Gazakh"},"display_name":"Qazax, Qazax rayonu, Azərbaycan","address":{"town":"Qazax","state_district":"Qazax rayonu","ISO3166-2-lvl5":"AZ-QAZ","country":"Azərbaycan","country_code":"az"},"population":22000,"osm_type":"node","osm_id":184640403,"type":"town","location":[45.361029,41.0911532],"bbox":[45.321029,41.0511532,45.401029,41.1311532],"border":{"name":"Qazax","other_names":{"name:az":"Qazax","name:ka":"ყაზახი","name:ru":"Газах","int_name":"Gazakh","name:en":"Gazakh","name:ml":"ഗസാഖ്"},"display_name":"Qazax, Qazax rayonu, Azərbaycan","address":{"town":"Qazax","state_district":"Qazax rayonu","ISO3166-2-lvl5":"AZ-QAZ","country":"Azərbaycan","country_code":"az"},"population":27000,"osm_type":"way","osm_id":1308893884,"type":"town","location":[45.361029,41.0911532],"bbox":[45.3354405,41.0813156,45.3897694,41.1131322]}}
{"name":"Qəbələ","other_names":{"name:az":"Qəbələ","name:en":"Gabala","name:ja":"カバラ","name:ml":"ഖബല","name:ru":"Габала","name:tr":"Gabala"},"display_name":"Qəbələ, Qəbələ rayonu, Azərbaycan","address":{"town":"Qəbələ","state_district":"Qəbələ rayonu","ISO3166-2-lvl5":"AZ-QAB","country":"Azərbaycan","country_code":"az"},"population":14100,"osm_type":"node","osm_id":244311735,"type":"town","location":[47.8489094,40.9785932],"bbox":[47.8089094,40.9385932,47.8889094,41.0185932],"border":{"name":"Qəbələ","other_names":{"name:az":"Qəbələ","name:en":"Gabala","name:ru":"Габала","name:ja":"カバラ","name:ml":"ഖബല","name:tr":"Gabala"},"display_name":"Qəbələ, Qəbələ rayonu, 3600, Azərbaycan","address":{"town":"Qəbələ","state_district":"Qəbələ rayonu","ISO3166-2-lvl5":"AZ-QAB","postcode":"3600","country":"Azərbaycan","country_code":"az"},"population":14100,"osm_type":"way","osm_id":276815824,"type":"town","location":[47.8489094,40.9785932],"bbox":[47.8186503,40.9468595,47.8772097,41.0028347]}}
{"name":"Qırmızı Bazar","other_names":{"name:az":"Qırmızı Bazar","name:en":"Girmizi Bazar","name:hy":"Կարմիր Շուկա","name:ru":"Кармир Шука","name:tr":"Kırmızı Pazar","alt_name:en":"Karmir Shuka","alt_name:ru":"Красный Базар"},"display_name":"Qırmızı Bazar, Xocavənd rayonu, Azərbaycan","address":{"town":"Qırmızı Bazar","state_district":"Xocavənd rayonu","ISO3166-2-lvl5":"AZ-XVD","country":"Azərbaycan","country_code":"az"},"osm_type":"node","osm_id":925959157,"type":"town","location":[46.9473348,39.6770641],"bbox":[46.9073348,39.6370641,46.9873348,39.7170641]}
{"name":"Qıvraq","other_names":{"name:az":"Qıvraq","name:cs":"Givrag","name:en":"Givrag","name:ml":"ഗിവ്രാഗ്","name:ru":"Кивраг"},"display_name":"Qıvraq, Kəngərli rayonu, Naxçıvan Muxtar Respublikası, Azərbaycan","address":{"town":"Qıvraq","state_district":"Kəngərli rayonu","ISO3166-2-lvl5":"AZ-KAN","region":"Naxçıvan Muxtar Respublikası","ISO3166-2-lvl3":"AZ-NX","country":"Azərbaycan","country_code":"az"},"population":6200,"osm_type":"node","osm_id":1886317018,"type":"town","location":[45.1217788,39.4003899],"bbox":[45.0817788,39.3603899,45.1617788,39.4403899],"border":{"name":"Qıvraq","other_names":{"name:az":"Qıvraq","name:ru":"Кивраг","name:cs":"Givrag","name:en":"Givrag","name:ml":"ഗിവ്രാഗ്"},"display_name":"Qıvraq, Kəngərli rayonu, Naxçıvan Muxtar Respublikası, Azərbaycan","address":{"town":"Qıvraq","state_district":"Kəngərli rayonu","ISO3166-2-lvl5":"AZ-KAN","region":"Naxçıvan Muxtar Respublikası","ISO3166-2-lvl3":"AZ-NX","country":"Azərbaycan","country_code":"az"},"population":6200,"osm_type":"way","osm_id":829632436,"type":"town","location":[45.1217788,39.4003899],"bbox":[45.1003302,39.3851309,45.1357305,39.4148575]}}
{"name":"Qobustan Mərəzə","other_names":{"name:az":"Qobustan Mərəzə","name:en":"Gobustan Maraza","name:ja":"ゴブスタン・マラザ","name:ml":"ഗൊബൂസ്ഥാൻ മറസ","name:ru":"Мараза Гобустан","old_name":"Mərəzə"},"display_name":"Qobustan Mərəzə, Qobustan rayonu, 1231, Azərbaycan","address":{"town":"Qobustan Mərəzə","state_district":"Qobustan rayonu","ISO3166-2-lvl5":"AZ-QOB","postcode":"1231","country":"Azərbaycan","country_code":"az"},"population":9400,"osm_type":"node","osm_id":228307541,"type":"town","location":[48.9275958,40.5324087],"bbox":[48.8875958,40.4924087,48.9675958,40.5724087],"border":{"name":"Qobustan Mərəzə","other_names":{"name:az":"Qobustan Mərəzə","name:ru":"Гобустан Мараза","name:en":"Gobustan Maraza","name:ja":"ゴブスタン・マラザ","name:ml":"ഗൊബൂസ്ഥാൻ മറസ","old_name":"Mərəzə","alt:ru":"Мараза Гобустан"},"display_name":"Qobustan Mərəzə, Qobustan rayonu, Azərbaycan","address":{"town":"Qobustan Mərəzə","state_district":"Qobustan rayonu","ISO3166-2-lvl5":"AZ-QOB","country":"Azərbaycan","country_code":"az"},"population":9400,"osm_type":"way","osm_id":65411463,"type":"town","location":[48.9275958,40.5324087],"bbox":[48.9079463,40.5186277,48.9473344,40.5401194]}}
{"name":"Qobustan","other_names":{"name:az":"Qobustan","name:en":"Gobustan","name:ja":"コブスタン","name:ml":"ഗൊബൂസ്ഥാൻ","name:ru":"Гобустан"},"display_name":"Qobustan, Azərbaycan","address":{"town":"Qobustan","country":"Azərbaycan","country_code":"az"},"population":16000,"osm_type":"node","osm_id":228300327,"type":"town","location":[49.4120821,40.0826777],"bbox":[49.3720821,40.0426777,49.4520821,40.1226777],"border":{"name":"Qobustan","other_names":{"name:az":"Qobustan","name:en":"Ghobustan","name:ja":"コブスタン","name:ru":"Гобустан","name:ml":"ഗൊബൂസ്ഥാൻ","alt:en":"Gobustan"},"display_name":"Qobustan, Azərbaycan","address":{"town":"Qobustan","country":"Azərbaycan","country_code":"az"},"population":16000,"osm_type":"way","osm_id":180946025,"type":"town","location":[49.4120821,40.0826777],"bbox":[49.3900895,40.0306951,49.4327045,40.1062716]}}
{"name":"Qovlar","other_names":{"name:az":"Qovlar"},"display_name":"Qovlar, Tovuz rayonu, Azərbaycan","address":{"town":"Qovlar","state_district":"Tovuz rayonu","ISO3166-2-lvl5":"AZ-TOV","country":"Azərbaycan","country_code":"az"},"population":15500,"osm_type":"node","osm_id":886038351,"type":"town","location":[45.7353477,40.9465714],"bbox":[45.6953477,40.9065714,45.7753477,40.9865714],"border":{"name":"Qovlar","other_names":{"name:az":"Qovlar","name:ru":"Говлар"},"display_name":"Qovlar, Tovuz rayonu, Azərbaycan","address":{"town":"Qovlar","state_district":"Tovuz rayonu","ISO3166-2-lvl5":"AZ-TOV","country":"Azərbaycan","country_code":"az"},"population":15500,"osm_type":"way","osm_id":1339118247,"type":"town","location":[45.7353477,40.9465714],"bbox":[45.7100934,40.9123613,45.7602292,40.9607883]}}
{"name":"Quba","other_names":{"name:ar":"قوبا","name:az":"Quba","name:en":"Guba","name:hi":"क़ुबा","name:ja":"グバ","name:ml":"ഗൂബ","name:ru":"Губа","name:tr":"Kuba"},"display_name":"Quba, Quba rayonu, 4000, Azərbaycan","address":{"town":"Quba","state_district":"Quba rayonu","ISO3166-2-lvl5":"AZ-QBA","postcode":"4000","country":"Azərbaycan","country_code":"az"},"population":25400,"osm_type":"node","osm_id":244311432,"type":"town","location":[48.5142385,41.3615456],"bbox":[48.4742385,41.3215456,48.5542385,41.4015456],"border":{"name":"Quba","other_names":{"name:az":"Quba","name:en":"Guba","name:ru":"Куба","name:ar":"قوبا","name:hi":"क़ुबा","name:ja":"グバ","name:ml":"ഗൂബ","name:tr":"Kuba","alt:ru":"Губа"},"display_name":"Quba, Quba rayonu, 4011, Azərbaycan","address":{"town":"Quba","state_district":"Quba rayonu","ISO3166-2-lvl5":"AZ-QBA","postcode":"4011","country":"Azərbaycan","country_code":"az"},"population":25400,"osm_type":"way","osm_id":181054323,"type":"town","location":[48.5142385,41.3615456],"bbox":[48.4563468,41.3406227,48.5572368,41.3755164]}}
{"name":"Qubadlı","other_names":{"name:az":"Qubadlı","name:en":"Gubadly","name:hy":"Քաշունիք","name:ml":"ഖുബാദ്ലി","name:pl":"Gubadły","name:ru":"Кубадлы","name:tr":"Kubatlı","name:uk":"Кубадли","alt_name:pl":"Gubadly","old_name:en":"Qubadlı"},"display_name":"Qubadlı, Qubadlı Rayonu, Azərbaycan","address":{"town":"Qubadlı","state_district":"Qubadlı Rayonu","ISO3166-2-lvl5":"AZ-QBI","country":"Azərbaycan","country_code":"az"},"population":73,"osm_type":"node","osm_id":1838421422,"type":"town","location":[46.5809277,39.3436425],"bbox":[46.5409277,39.3036425,46.6209277,39.3836425]}
{"name":"Qusar","other_names":{"name:az":"Qusar","name:en":"Gusar","name:ja":"グサル","name:lt":"Kusaras","name:ru":"Гусар","name:uk":"Ґусар","int_name":"Gusar","name:lez":"КцӀар"},"display_name":"Qusar, Qusar rayonu, 3800, Azərbaycan","address":{"town":"Qusar","state_district":"Qusar rayonu","ISO3166-2-lvl5":"AZ-QUS","postcode":"3800","country":"Azərbaycan","country_code":"az"},"population":18600,"osm_type":"node","osm_id":244315387,"type":"town","location":[48.4327339,41.4303387],"bbox":[48.3927339,41.3903387,48.4727339,41.4703387],"border":{"name":"Qusar","other_names":{"name:az":"Qusar","name:en":"Gusar","name:ru":"Кусары","name:ja":"グサル","name:lt":"Kusaras","name:uk":"Ґусар","int_name":"Gusar","name:lez":"КцӀар","alt:ru":"Гусар"},"display_name":"Qusar, Qusar rayonu, Azərbaycan","address":{"town":"Qusar","state_district":"Qusar rayonu","ISO3166-2-lvl5":"AZ-QUS","country":"Azərbaycan","country_code":"az"},"population":18600,"osm_type":"way","osm_id":181056967,"type":"town","location":[48.4327339,41.4303387],"bbox":[48.3801198,41.4023122,48.4808929,41.4484303]}}
{"name":"Quzanlı","other_names":{"name:az":"Quzanlı","name:ml":"ഗുസാൻലി"},"display_name":"Quzanlı, Ağdam rayonu, Azərbaycan","address":{"town":"Quzanlı","state_district":"Ağdam rayonu","ISO3166-2-lvl5":"AZ-AGM","country":"Azərbaycan","country_code":"az"},"osm_type":"node","osm_id":11258472062,"type":"town","location":[47.1602266,40.1604029],"bbox":[47.1202266,40.1204029,47.2002266,40.2004029]}
{"name":"Ramana","other_names":{"name:az":"Ramana","name:en":"Romana","name:ru":"Рамана"},"display_name":"Ramana, Azərbaycan","address":{"town":"Ramana","country":"Azərbaycan","country_code":"az"},"population":13000,"osm_type":"way","osm_id":163833165,"type":"town","location":[49.98330134496982,40.4575977],"bbox":[49.9759796,40.4528844,49.9901133,40.4616317]}
{"name":"Rəsulzadə qəsəbəsi","display_name":"Rəsulzadə qəsəbəsi, Azərbaycan","address":{"town":"Rəsulzadə qəsəbəsi","country":"Azərbaycan","country_code":"az"},"population":52300,"osm_type":"way","osm_id":1323724017,"type":"town","location":[49.83207414207913,40.43090305],"bbox":[49.8219006,40.4216664,49.8446176,40.4400169]}
{"name":"Saatlı","other_names":{"name:en":"Saatly","name:ja":"サアトル","name:ru":"Саатлы","int_name":"Saatly"},"display_name":"Saatlı, Saatlı rayonu, Azərbaycan","address":{"town":"Saatlı","state_district":"Saatlı rayonu","ISO3166-2-lvl5":"AZ-SAT","country":"Azərbaycan","country_code":"az"},"population":20300,"osm_type":"node","osm_id":229699967,"type":"town","location":[48.3689097,39.9376009],"bbox":[48.3289097,39.8976009,48.4089097,39.9776009],"border":{"name":"Saatlı","other_names":{"name:az":"Saatlı","name:en":"Saatly","name:ru":"Саатлы","int_name":"Saatly","name:ja":"サアトル"},"display_name":"Saatlı, Saatlı rayonu, 4900, Azərbaycan","address":{"town":"Saatlı","state_district":"Saatlı rayonu","ISO3166-2-lvl5":"AZ-SAT","postcode":"4900","country":"Azərbaycan","country_code":"az"},"population":20300,"osm_type":"way","osm_id":277878146,"type":"town","location":[48.3689097,39.9376009],"bbox":[48.3374735,39.9170919,48.4090665,39.9533088]}}
{"name":"Sabunçu","other_names":{"name:az":"Sabunçu","name:en":"Sabunchu","name:ru":"Сабунчи","old_name":"Lenin","old_name:ru":"Ленин"},"display_name":"Sabunçu, Azərbaycan","address":{"village":"Sabunçu","country":"Azərbaycan","country_code":"az"},"population":25800,"osm_type":"way","osm_id":164670299,"type":"town","location":[49.93389,40.4481434],"bbox":[49.9161619,40.435342,49.9674676,40.464222]}
{"name":"Şahbuz","other_names":{"name:az":"Şahbuz","name:cs":"Šahbuz","name:en":"Shakhbuz","name:ja":"シャフブズ","name:ml":"ഷാഹ്ബൂസ്","name:ru":"Шахбуз","name:uk":"Шагбуз"},"display_name":"Şahbuz, Şahbuz rayonu, Naxçıvan Muxtar Respublikası, Azərbaycan","address":{"town":"Şahbuz","state_district":"Şahbuz rayonu","ISO3166-2-lvl5":"AZ-SAH","region":"Naxçıvan Muxtar Respublikası","ISO3166-2-lvl3":"AZ-NX","country":"Azərbaycan","country_code":"az"},"population":4600,"osm_type":"node","osm_id":1886317088,"type":"town","location":[45.5675777,39.4040835],"bbox":[45.5275777,39.3640835,45.6075777,39.4440835],"border":{"name":"Şahbuz","other_names":{"name:az":"Şahbuz","name:ru":"Шахбуз","name:cs":"Šahbuz","name:en":"Shakhbuz","name:ja":"シャフブズ","name:ml":"ഷാഹ്ബൂസ്","name:uk":"Шагбуз"},"display_name":"Şahbuz, Şahbuz rayonu, Naxçıvan Muxtar Respublikası, Azərbaycan","address":{"town":"Şahbuz","state_district":"Şahbuz rayonu","ISO3166-2-lvl5":"AZ-SAH","region":"Naxçıvan Muxtar Respublikası","ISO3166-2-lvl3":"AZ-NX","country":"Azərbaycan","country_code":"az"},"population":4600,"osm_type":"way","osm_id":829627241,"type":"town","location":[45.5675777,39.4040835],"bbox":[45.5507105,39.3964075,45.5919779,39.4175628]}}
{"name":"Sahil","other_names":{"name:az":"Sahil","name:ml":"സാഹിൽ","name:ru":"Сахиль","alt_name":"Primorski"},"display_name":"Sahil, Azərbaycan","address":{"town":"Sahil","country":"Azərbaycan","country_code":"az"},"population":22200,"osm_type":"node","osm_id":1886282980,"type":"town","location":[49.5805255,40.227045],"bbox":[49.5405255,40.187045,49.6205255,40.267045],"border":{"name":"Sahil","other_names":{"name:az":"Sahil","name:ru":"Сахиль","alt_name":"Primorski","name:ml":"സാഹിൽ"},"display_name":"Sahil, Azərbaycan","address":{"town":"Sahil","country":"Azərbaycan","country_code":"az"},"population":22200,"osm_type":"way","osm_id":283465284,"type":"town","location":[49.5805255,40.227045],"bbox":[49.5587462,40.2122627,49.590932,40.2346721]}}
{"name":"Şamaxı","other_names":{"name:az":"Şamaxı","name:en":"Shamakhi","name:hi":"शामाखी","name:ja":"シャマフ","name:ml":"ഷമാഖി","name:ru":"Шемаха","name:uk":"Шамахи","int_name":"Shamakhi"},"display_name":"Şamaxı, Şamaxı rayonu, Azərbaycan","address":{"town":"Şamaxı","state_district":"Şamaxı rayonu","ISO3166-2-lvl5":"AZ-SMI","country":"Azərbaycan","country_code":"az"},"population":41000,"osm_type":"node","osm_id":226791840,"type":"town","location":[48.6382239,40.6338603],"bbox":[48.5982239,40.5938603,48.6782239,40.6738603],"border":{"name":"Şamaxı","other_names":{"name:ar":"شماخي","name:az":"Şamaxı","name:en":"Shamakhi","name:ml":"ഷമാഖി","name:ru":"Шемаха","int_name":"Shamakhi","name:hi":"शामाखी","name:ja":"シャマフ","name:uk":"Шамахи"},"display_name":"Şamaxı, Şamaxı rayonu, Azərbaycan","address":{"town":"Şamaxı","state_district":"Şamaxı rayonu","ISO3166-2-lvl5":"AZ-SMI","country":"Azərbaycan","country_code":"az"},"population":41000,"osm_type":"way","osm_id":201790148,"type":"town","location":[48.6382239,40.6338603],"bbox":[48.6138193,40.6168372,48.6590903,40.6601966]}}
{"name":"Samux","other_names":{"name:az":"Samux","name:de":"Samuch","name:en":"Samukh","name:ru":"Самух","old_name:ru":"Сафаралиев"},"display_name":"Samux, Samux rayonu, Azərbaycan","address":{"town":"Samux","state_district":"Samux rayonu","ISO3166-2-lvl5":"AZ-SMX","country":"Azərbaycan","country_code":"az"},"osm_type":"node","osm_id":2847515224,"type":"town","location":[46.4049063,40.7634543],"bbox":[46.3649063,40.7234543,46.4449063,40.8034543],"border":{"name":"Samux","other_names":{"name:az":"Samux","name:ru":"Самух","old_name:ru":"Сафаралиев","name:de":"Samuch","name:en":"Samukh"},"display_name":"Samux, Samux rayonu, 5101, Azərbaycan","address":{"town":"Samux","state_district":"Samux rayonu","ISO3166-2-lvl5":"AZ-SMX","postcode":"5101","country":"Azərbaycan","country_code":"az"},"osm_type":"way","osm_id":1038868526,"type":"town","location":[46.4049063,40.7634543],"bbox":[46.3924527,40.7488257,46.4219195,40.7800661]}}
{"name":"Səlyan","other_names":{"name:az":"Səlyan","name:en":"Salyan","name:ja":"サリヤン","name:ml":"സല്യാൻ","name:ru":"Салян"},"display_name":"Səlyan, Səlyan rayonu, Azərbaycan","address":{"town":"Səlyan","state_district":"Səlyan rayonu","ISO3166-2-lvl5":"AZ-SAL","country":"Azərbaycan","country_code":"az"},"population":38900,"osm_type":"node","osm_id":230964856,"type":"town","location":[48.9831723,39.5990891],"bbox":[48.9431723,39.5590891,49.0231723,39.6390891],"border":{"name":"Səlyan","other_names":{"name:az":"Səlyan","name:en":"Salyan","name:ru":"Сальян","name:ja":"サリヤン","name:ml":"സല്യാൻ","alt:ru":"Салян"},"display_name":"Səlyan, Səlyan rayonu, Azərbaycan","address":{"town":"Səlyan","state_district":"Səlyan rayonu","ISO3166-2-lvl5":"AZ-SAL","country":"Azərbaycan","country_code":"az"},"population":38900,"osm_type":"way","osm_id":290417827,"type":"town","location":[48.9831723,39.5990891],"bbox":[48.9466061,39.5347865,48.9993533,39.6136603]}}
{"name":"Şərur","other_names":{"name:az":"Şərur","name:cs":"Šarur","name:en":"Sharur","name:hy":"Շարուր","name:ja":"シャルル","name:ml":"ഷറൂർ","name:ru":"Шарур"},"display_name":"Şərur, Şərur rayonu, Naxçıvan Muxtar Respublikası, Azərbaycan","address":{"town":"Şərur","state_district":"Şərur rayonu","ISO3166-2-lvl5":"AZ-SAR","region":"Naxçıvan Muxtar Respublikası","ISO3166-2-lvl3":"AZ-NX","country":"Azərbaycan","country_code":"az"},"population":7400,"osm_type":"node","osm_id":1886317089,"type":"town","location":[44.9850947,39.5559048],"bbox":[44.9450947,39.5159048,45.0250947,39.5959048],"border":{"name":"Şərur","other_names":{"name:az":"Şərur","name:ru":"Шарур","name:cs":"Šarur","name:en":"Sharur","name:hy":"Շարուր","name:ja":"シャルル","name:ml":"ഷറൂർ"},"display_name":"Şərur, Şərur rayonu, Naxçıvan Muxtar Respublikası, Azərbaycan","address":{"town":"Şərur","state_district":"Şərur rayonu","ISO3166-2-lvl5":"AZ-SAR","region":"Naxçıvan Muxtar Respublikası","ISO3166-2-lvl3":"AZ-NX","country":"Azərbaycan","country_code":"az"},"population":7400,"osm_type":"way","osm_id":781522460,"type":"town","location":[44.9850947,39.5559048],"bbox":[44.9661851,39.5404443,44.9973744,39.5673142]}}
{"name":"Şirvan","other_names":{"name:az":"Şirvan","name:en":"Shirvan","name:fa":"شیروان","name:ja":"シルヴァーン","name:ml":"ഷിർവാൻ","name:pl":"Szyrwan","name:ru":"Ширван","name:azb":"شیروان"},"display_name":"Şirvan, Şirvan İnzibati Ərazisi, Azərbaycan","address":{"town":"Şirvan","state_district":"Şirvan İnzibati Ərazisi","ISO3166-2-lvl5":"AZ-SR","country":"Azərbaycan","country_code":"az"},"population":85000,"osm_type":"node","osm_id":226938372,"type":"town","location":[48.9464339,39.9546055],"bbox":[48.9064339,39.9146055,48.9864339,39.9946055],"border":{"name":"Şirvan","other_names":{"name:az":"Şirvan","name:en":"Shirvan","name:ru":"Ширван","name:fa":"شیروان","name:ja":"シルヴァーン","name:ml":"ഷിർവാൻ","name:pl":"Szyrwan","name:azb":"شیروان"},"display_name":"Şirvan, Şirvan İnzibati Ərazisi, 1800, Azərbaycan","address":{"town":"Şirvan","state_district":"Şirvan İnzibati Ərazisi","ISO3166-2-lvl5":"AZ-SR","postcode":"1800","country":"Azərbaycan","country_code":"az"},"population":85000,"osm_type":"way","osm_id":1413945994,"type":"town","location":[48.9464339,39.9546055],"bbox":[48.8851395,39.909514,48.9835417,39.9953448]}}
{"name":"Siyəzən","other_names":{"name:az":"Siyəzən","name:en":"Siazan","name:ml":"സിയസൻ","name:ru":"Сиазань"},"display_name":"Siyəzən, Siyəzən rayonu, Azərbaycan","address":{"town":"Siyəzən","state_district":"Siyəzən rayonu","ISO3166-2-lvl5":"AZ-SIY","country":"Azərbaycan","country_code":"az"},"population":26300,"osm_type":"node","osm_id":1849683441,"type":"town","location":[49.1129023,41.075412],"bbox":[49.0729023,41.035412,49.1529023,41.115412],"border":{"name":"Siyəzən","other_names":{"name:az":"Siyəzən","name:en":"Siazan","name:ru":"Сиазань","name:ml":"സിയസൻ"},"display_name":"Siyəzən, Siyəzən rayonu, Azərbaycan","address":{"town":"Siyəzən","state_district":"Siyəzən rayonu","ISO3166-2-lvl5":"AZ-SIY","country":"Azərbaycan","country_code":"az"},"population":26300,"osm_type":"way","osm_id":273677046,"type":"town","location":[49.1129023,41.075412],"bbox":[49.0914577,41.0607677,49.1373436,41.102089]}}
{"name":"Şuşa","other_names":{"name:az":"Şuşa","name:cs":"Šuša","name:de":"Schuscha","name:en":"Shusha","name:fr":"Choucha","name:hy":"Շուշի","name:ia":"Shusha","name:ja":"シュシャ","name:ka":"შუშა","name:ml":"ഷൂഷി","name:pl":"Szusza","name:ru":"Шуша","name:tr":"Şuşa","name:uk":"Шуша","int_name":"Shusha","name:ru:word_stress":"Шуша́"},"display_name":"Şuşa, Şuşa rayonu, Azərbaycan","address":{"town":"Şuşa","state_district":"Şuşa rayonu","ISO3166-2-lvl5":"AZ-SUS","country":"Azərbaycan","country_code":"az"},"population":1180,"osm_type":"node","osm_id":210333762,"type":"town","location":[46.7511501,39.7632567],"bbox":[46.7111501,39.7232567,46.7911501,39.8032567]}
{"name":"Tərtər","other_names":{"name:az":"Tərtər","name:en":"Tartar","name:hy":"Թարթառ","name:ja":"タルタル","name:ml":"തര്‍ത്തര്‍","name:ru":"Тертер","name:tr":"Terter","int_name":"Terter"},"display_name":"Tərtər, Tərtər rayonu, 5900, Azərbaycan","address":{"town":"Tərtər","state_district":"Tərtər rayonu","ISO3166-2-lvl5":"AZ-TAR","postcode":"5900","country":"Azərbaycan","country_code":"az"},"population":19900,"osm_type":"node","osm_id":234040855,"type":"town","location":[46.9321023,40.3429739],"bbox":[46.8921023,40.3029739,46.9721023,40.3829739],"border":{"name":"Tərtər","other_names":{"name:az":"Tərtər","name:ru":"Тертер","int_name":"Terter","name:en":"Tartar","name:hy":"Թարթառ","name:ja":"タルタル","name:ml":"തര്‍ത്തര്‍","name:tr":"Terter"},"display_name":"Tərtər, Tərtər rayonu, Azərbaycan","address":{"town":"Tərtər","state_district":"Tərtər rayonu","ISO3166-2-lvl5":"AZ-TAR","country":"Azərbaycan","country_code":"az"},"population":19900,"osm_type":"way","osm_id":344800548,"type":"town","location":[46.9321023,40.3429739],"bbox":[46.9076226,40.326281,46.9606392,40.3604834]}}
{"name":"Turşsu","other_names":{"name:az":"Turşsu","name:en":"Turshsu"},"display_name":"Turşsu, Şuşa rayonu, Azərbaycan","address":{"town":"Turşsu","state_district":"Şuşa rayonu","ISO3166-2-lvl5":"AZ-SUS","country":"Azərbaycan","country_code":"az"},"population":130,"osm_type":"node","osm_id":1346973633,"type":"town","location":[46.6534122,39.6855752],"bbox":[46.6134122,39.6455752,46.6934122,39.7255752]}
{"name":"Ucar","other_names":{"name:az":"Ucar","name:ja":"ウジャル","name:ml":"ഉജാർ","name:ru":"Уджар","int_name":"Ujar"},"display_name":"Ucar, Ucar rayonu, Azərbaycan","address":{"town":"Ucar","state_district":"Ucar rayonu","ISO3166-2-lvl5":"AZ-UCA","country":"Azərbaycan","country_code":"az"},"population":18300,"osm_type":"node","osm_id":229481406,"type":"town","location":[47.6487809,40.5185386],"bbox":[47.6087809,40.4785386,47.6887809,40.5585386],"border":{"name":"Ucar","other_names":{"name:az":"Ucar","name:ru":"Уджар","int_name":"Ujar","name:ja":"ウジャル","name:ml":"ഉജാർ"},"display_name":"Ucar, Ucar rayonu, Azərbaycan","address":{"town":"Ucar","state_district":"Ucar rayonu","ISO3166-2-lvl5":"AZ-UCA","country":"Azərbaycan","country_code":"az"},"population":18300,"osm_type":"way","osm_id":279424923,"type":"town","location":[47.6487809,40.5185386],"bbox":[47.6098645,40.4888557,47.6743158,40.5310689]}}
{"name":"Xızı","other_names":{"name:az":"Xızı","name:en":"Khizi","name:ja":"フズィ","name:ml":"ഖിസി","name:ru":"Хызы"},"display_name":"Xızı, Xızı rayonu, Azərbaycan","address":{"town":"Xızı","state_district":"Xızı rayonu","ISO3166-2-lvl5":"AZ-XIZ","country":"Azərbaycan","country_code":"az"},"population":1600,"osm_type":"node","osm_id":1797982447,"type":"town","location":[49.0719585,40.9106624],"bbox":[49.0319585,40.8706624,49.1119585,40.9506624],"border":{"name":"Xızı","other_names":{"name:az":"Xızı","name:en":"Khizi","name:ru":"Хызы","name:ja":"フズィ","name:ml":"ഖിസി"},"display_name":"Xızı, Xızı rayonu, Azərbaycan","address":{"town":"Xızı","state_district":"Xızı rayonu","ISO3166-2-lvl5":"AZ-XIZ","country":"Azərbaycan","country_code":"az"},"population":1600,"osm_type":"way","osm_id":180940878,"type":"town","location":[49.0719585,40.9106624],"bbox":[49.0547887,40.9057136,49.0802025,40.9186152]}}
{"name":"Xocalı","other_names":{"name:az":"Xocalı","name:en":"Khojaly","name:ml":"ഖോജാലി","name:ru":"Ходжалы","name:uk":"Ходжали","old_name":"Khojaly"},"display_name":"Xocalı, Xocalı rayonu, Azərbaycan","address":{"town":"Xocalı","state_district":"Xocalı rayonu","ISO3166-2-lvl5":"AZ-XCI","country":"Azərbaycan","country_code":"az"},"population":169,"osm_type":"node","osm_id":1966237356,"type":"town","location":[46.7943875,39.9097028],"bbox":[46.7543875,39.8697028,46.8343875,39.9497028]}
{"name":"Xocəsən","other_names":{"name:az":"Xocəsən","name:en":"Khojasan","name:ru":"Ходжасан"},"display_name":"Xocəsən, Azərbaycan","address":{"town":"Xocəsən","country":"Azərbaycan","country_code":"az"},"population":5000,"osm_type":"way","osm_id":358728135,"type":"town","location":[49.76458553145327,40.41088915],"bbox":[49.750673,40.4028635,49.7752842,40.418683]}
{"name":"Xudat","other_names":{"name:az":"Xudat","name:en":"Khudat","name:ml":"ഖുദാത്ത്","name:ru":"Худат","int_name":"Khudat"},"display_name":"Xudat, Xaçmaz rayonu, Azərbaycan","address":{"town":"Xudat","state_district":"Xaçmaz rayonu","ISO3166-2-lvl5":"AZ-XAC","country":"Azərbaycan","country_code":"az"},"population":17000,"osm_type":"node","osm_id":1887565774,"type":"town","location":[48.6803534,41.6328952],"bbox":[48.6403534,41.5928952,48.7203534,41.6728952],"border":{"name":"Xudat","other_names":{"name:az":"Xudat","name:en":"Khudat","name:ru":"Худат","name:ml":"ഖുദാത്ത്","int_name":"Khudat"},"display_name":"Xudat, Xaçmaz rayonu, Azərbaycan","address":{"town":"Xudat","state_district":"Xaçmaz rayonu","ISO3166-2-lvl5":"AZ-XAC","country":"Azərbaycan","country_code":"az"},"population":17000,"osm_type":"way","osm_id":129713743,"type":"town","location":[48.6803534,41.6328952],"bbox":[48.6588782,41.6130279,48.7320042,41.6442075]}}
{"name":"Yaycı","other_names":{"name:az":"Yaycı","name:ml":"യായ്ജി"},"display_name":"Yaycı, Culfa rayonu, Naxçıvan Muxtar Respublikası, Azərbaycan","address":{"town":"Yaycı","state_district":"Culfa rayonu","ISO3166-2-lvl5":"AZ-CUL","region":"Naxçıvan Muxtar Respublikası","ISO3166-2-lvl3":"AZ-NX","country":"Azərbaycan","country_code":"az"},"population":5857,"osm_type":"node","osm_id":235453287,"type":"town","location":[45.7323486,38.9455814],"bbox":[45.6923486,38.9055814,45.7723486,38.9855814]}
{"name":"Zaqatala","other_names":{"name:az":"Zaqatala","name:ja":"ザガタラ","name:ka":"ზაქათალა","name:ml":"സഖത്തല","name:ru":"Загатала","name:uk":"Заґатала","int_name":"Zagatala","old_name":"Zaqatala","alt_name:ru":"Закаталы"},"display_name":"Zaqatala, Zaqatala rayonu, Azərbaycan","address":{"town":"Zaqatala","state_district":"Zaqatala rayonu","ISO3166-2-lvl5":"AZ-ZAQ","country":"Azərbaycan","country_code":"az"},"population":21800,"osm_type":"node","osm_id":244311324,"type":"town","location":[46.6435449,41.6307469],"bbox":[46.6035449,41.5907469,46.6835449,41.6707469],"border":{"name":"Zaqatala","other_names":{"name:az":"Zaqatala","name:en":"Zagatala","name:ka":"ზაქათალა","name:ru":"Загатала","name:ja":"ザガタラ","name:ml":"സഖത്തല","name:uk":"Заґатала","int_name":"Zagatala","old_name":"Zaqatala","alt_name:ru":"Закаталы"},"display_name":"Zaqatala, Zaqatala rayonu, Azərbaycan","address":{"town":"Zaqatala","state_district":"Zaqatala rayonu","ISO3166-2-lvl5":"AZ-ZAQ","country":"Azərbaycan","country_code":"az"},"population":21800,"osm_type":"way","osm_id":281611343,"type":"town","location":[46.6435449,41.6307469],"bbox":[46.6061778,41.6088066,46.6735522,41.6443981]}}
{"name":"Zəngilan","other_names":{"name:az":"Zəngilan","name:de":"Zangеlan","name:en":"Zangilan","name:ml":"സംഗിലാൻ","name:pl":"Zangilan","name:ru":"Зангелан","name:tr":"Zengilan","name:uk":"Зангелан","int_name":"Zangеlan"},"display_name":"Zəngilan, Zəngilan Rayonu, Azərbaycan","address":{"town":"Zəngilan","state_district":"Zəngilan Rayonu","ISO3166-2-lvl5":"AZ-ZAN","country":"Azərbaycan","country_code":"az"},"osm_type":"node","osm_id":232172609,"type":"town","location":[46.6564485,39.0863717],"bbox":[46.6164485,39.0463717,46.6964485,39.1263717]}
{"name":"Zərdab","other_names":{"name:az":"Zərdab","name:en":"Zardab","name:ja":"ザルダブ","name:ml":"സർദാബ്","name:ru":"Зардоб","name:tr":"Zerdab","int_name":"Zardab"},"display_name":"Zərdab, Zərdab rayonu, Azərbaycan","address":{"town":"Zərdab","state_district":"Zərdab rayonu","ISO3166-2-lvl5":"AZ-ZAR","country":"Azərbaycan","country_code":"az"},"population":11320,"osm_type":"node","osm_id":229679563,"type":"town","location":[47.7086766,40.2196441],"bbox":[47.6686766,40.1796441,47.7486766,40.2596441],"border":{"name":"Zərdab","other_names":{"name:az":"Zərdab","name:en":"Zardab","name:ml":"സർദാബ്","name:ru":"Зардоб","int_name":"Zardab","name:ja":"ザルダブ","name:tr":"Zerdab"},"display_name":"Zərdab, Zərdab rayonu, Azərbaycan","address":{"town":"Zərdab","state_district":"Zərdab rayonu","ISO3166-2-lvl5":"AZ-ZAR","country":"Azərbaycan","country_code":"az"},"population":11000,"osm_type":"way","osm_id":279427891,"type":"town","location":[47.7086766,40.2196441],"bbox":[47.6965983,40.201254,47.731302,40.2399817]}}
