{"name":"Ambato","other_names":{"official_name":"San Juan de Ambato"},"display_name":"Ambato, Tungurahua, Ecuador","address":{"city":"Ambato","municipality":"Ambato","county":"Ambato","state":"Tungurahua","ISO3166-2-lvl4":"EC-T","country":"Ecuador","country_code":"ec"},"population":165185,"osm_type":"node","osm_id":249420749,"type":"city","location":[-78.6287594,-1.2422413],"bbox":[-78.7887594,-1.4022413,-78.4687594,-1.0822413],"border":[{"name":"Ambato","display_name":"Ambato, Tungurahua, Ecuador","address":{"county":"Ambato","state":"Tungurahua","ISO3166-2-lvl4":"EC-T","country":"Ecuador","country_code":"ec"},"osm_type":"relation","osm_id":113433,"type":"administrative","location":[-78.73532311133637,-1.29038825],"bbox":[-78.9379816,-1.4709161,-78.5367997,-1.1097995]},{"name":"Ambato","other_names":{"name:es":"Ambato","official_name":"San Juan de Ambato"},"display_name":"Ambato, Tungurahua, Ecuador","address":{"municipality":"Ambato","county":"Ambato","state":"Tungurahua","ISO3166-2-lvl4":"EC-T","country":"Ecuador","country_code":"ec"},"population":165185,"osm_type":"relation","osm_id":3736483,"type":"administrative","location":[-78.6287594,-1.2422413],"bbox":[-78.6513648,-1.3016279,-78.5683237,-1.2160243]}]}
{"name":"Babahoyo","other_names":{"name:en":"Babahoyo","name:ru":"Бабаойо"},"display_name":"Babahoyo, Los Ríos, Ecuador","address":{"city":"Babahoyo","municipality":"Babahoyo","county":"Babahoyo","state":"Los Ríos","ISO3166-2-lvl4":"EC-R","country":"Ecuador","country_code":"ec"},"population":84164,"osm_type":"node","osm_id":249420949,"type":"city","location":[-79.5338214,-1.8009022],"bbox":[-79.6938214,-1.9609022,-79.3738214,-1.6409022],"border":[{"name":"Babahoyo","display_name":"Babahoyo, Los Ríos, Ecuador","address":{"county":"Babahoyo","state":"Los Ríos","ISO3166-2-lvl4":"EC-R","country":"Ecuador","country_code":"ec"},"osm_type":"relation","osm_id":109250,"type":"administrative","location":[-79.50689168949548,-1.8762599],"bbox":[-79.6714707,-2.1330474,-79.1885752,-1.6196829]},{"name":"Babahoyo","other_names":{"name:es":"Babahoyo","name:en":"Babahoyo","name:ru":"Бабаойо"},"display_name":"Babahoyo, Los Ríos, Ecuador","address":{"municipality":"Babahoyo","county":"Babahoyo","state":"Los Ríos","ISO3166-2-lvl4":"EC-R","country":"Ecuador","country_code":"ec"},"population":84164,"osm_type":"relation","osm_id":2651069,"type":"administrative","location":[-79.5338214,-1.8009022],"bbox":[-79.671066,-1.9251185,-79.4175281,-1.765249]}]}
{"name":"Cuenca","other_names":{"name:ar":"كوينكا","name:be":"Куэнка","name:es":"Cuenca","name:he":"קואנקה","name:ja":"クエンカ","name:ka":"კუენკა","name:ko":"쿠엥카","name:lt":"Kuenka","name:os":"Куэнкæ","name:qu":"Tumipampa","name:ru":"Куэнка","name:th":"เกวงกา","name:uk":"Куенка","name:zh":"昆卡","official_name":"Santa Ana de los cuatro ríos de Cuenca"},"display_name":"Cuenca, Luis Cordero, Alcaldia, El Sagrario, Cuenca, Azuay, 010101, Ecuador","address":{"historic":"Cuenca","road":"Luis Cordero","neighbourhood":"Alcaldia","city_district":"El Sagrario","city":"Cuenca","county":"Cuenca","state":"Azuay","ISO3166-2-lvl4":"EC-A","postcode":"010101","country":"Ecuador","country_code":"ec"},"population":495776,"osm_type":"node","osm_id":9911249241,"type":"unesco_world_heritage","location":[-79.0041726,-2.8974072],"bbox":[-79.0042226,-2.8974572,-79.0041226,-2.8973572],"border":[{"name":"Cuenca","display_name":"Cuenca, Azuay, Ecuador","address":{"county":"Cuenca","state":"Azuay","ISO3166-2-lvl4":"EC-A","country":"Ecuador","country_code":"ec"},"osm_type":"relation","osm_id":107724,"type":"administrative","location":[-79.18551370603357,-2.86616535],"bbox":[-79.6254312,-3.1761445,-78.8471228,-2.5566903]},{"name":"Cuenca","other_names":{"name:es":"Cuenca","name:ar":"كوينكا","name:be":"Куэнка","name:he":"קואנקה","name:ja":"クエンカ","name:ka":"კუენკა","name:ko":"쿠엥카","name:lt":"Kuenka","name:os":"Куэнкæ","name:qu":"Tumipampa","name:ru":"Куэнка","name:th":"เกวงกา","name:uk":"Куенка","name:zh":"昆卡","official_name":"Santa Ana de los cuatro ríos de Cuenca"},"display_name":"Cuenca, Azuay, Ecuador","address":{"municipality":"Cuenca","county":"Cuenca","state":"Azuay","ISO3166-2-lvl4":"EC-A","country":"Ecuador","country_code":"ec"},"population":495776,"osm_type":"relation","osm_id":3693133,"type":"administrative","location":[-79.0041726,-2.8974072],"bbox":[-79.071209,-2.9361624,-78.8875598,-2.8246576]}]}
{"name":"Daule","display_name":"Daule, Guayas, Ecuador","address":{"city":"Daule","municipality":"Daule","county":"Daule","state":"Guayas","ISO3166-2-lvl4":"EC-G","country":"Ecuador","country_code":"ec"},"osm_type":"node","osm_id":5397219762,"type":"city","location":[-79.9804093,-1.8641689],"bbox":[-80.1404093,-2.0241689,-79.8204093,-1.7041689],"border":[{"name":"Daule","display_name":"Daule, Guayas, Ecuador","address":{"county":"Daule","state":"Guayas","ISO3166-2-lvl4":"EC-G","country":"Ecuador","country_code":"ec"},"osm_type":"relation","osm_id":109447,"type":"administrative","location":[-79.91293069792368,-1.92000685],"bbox":[-80.0682655,-2.0650269,-79.7938666,-1.7753357]},{"name":"Daule","display_name":"Daule, Guayas, Ecuador","address":{"municipality":"Daule","county":"Daule","state":"Guayas","ISO3166-2-lvl4":"EC-G","country":"Ecuador","country_code":"ec"},"osm_type":"relation","osm_id":282428,"type":"administrative","location":[-79.9804093,-1.8641689],"bbox":[-80.0644559,-1.9783773,-79.881587,-1.8073897]}]}
{"name":"Durán","other_names":{"name:es":"Durán","official_name":"Eloy Alfaro"},"display_name":"Durán, Duran, Durán, Guayas, 092401, Ecuador","address":{"city":"Durán","county":"Durán","state":"Guayas","ISO3166-2-lvl4":"EC-G","postcode":"092401","country":"Ecuador","country_code":"ec"},"population":178714,"osm_type":"node","osm_id":249423310,"type":"city","location":[-79.8340647,-2.1688548],"bbox":[-79.9940647,-2.3288548,-79.6740647,-2.0088548],"border":[{"name":"Durán","display_name":"Durán, Guayas, Ecuador","address":{"county":"Durán","state":"Guayas","ISO3166-2-lvl4":"EC-G","country":"Ecuador","country_code":"ec"},"osm_type":"relation","osm_id":109455,"type":"administrative","location":[-79.78958872015713,-2.2127014],"bbox":[-79.8823588,-2.340684,-79.6794283,-2.0846202]},{"name":"Duran","other_names":{"name:es":"Duran","alt_name":"Eloy Alfaro"},"display_name":"Duran, Durán, Guayas, Ecuador","address":{"city":"Duran","county":"Durán","state":"Guayas","ISO3166-2-lvl4":"EC-G","country":"Ecuador","country_code":"ec"},"osm_type":"relation","osm_id":3810489,"type":"administrative","location":[-79.76342904433793,-2.2165876],"bbox":[-79.8780016,-2.3396984,-79.6794283,-2.0943789]}]}
{"name":"Esmeraldas","display_name":"Esmeraldas, Ecuador","address":{"city":"Esmeraldas","county":"Esmeraldas","state":"Esmeraldas","ISO3166-2-lvl4":"EC-E","country":"Ecuador","country_code":"ec"},"population":95216,"osm_type":"node","osm_id":249423578,"type":"city","location":[-79.6523847,0.9668153],"bbox":[-79.8123847,0.8068153,-79.4923847,1.1268153],"border":[{"name":"Esmeraldas","display_name":"Esmeraldas, Ecuador","address":{"county":"Esmeraldas","state":"Esmeraldas","ISO3166-2-lvl4":"EC-E","country":"Ecuador","country_code":"ec"},"osm_type":"relation","osm_id":113239,"type":"administrative","location":[-79.63597111054958,0.8066385],"bbox":[-79.8353489,0.5667154,-79.4045729,1.0483918]},{"name":"Esmeraldas","display_name":"Esmeraldas, Ecuador","address":{"city":"Esmeraldas","county":"Esmeraldas","state":"Esmeraldas","ISO3166-2-lvl4":"EC-E","country":"Ecuador","country_code":"ec"},"population":95216,"osm_type":"relation","osm_id":2403900,"type":"administrative","location":[-79.6523847,0.9668153],"bbox":[-79.7443772,0.8890515,-79.632465,0.9976251]}]}
{"name":"Guayaquil","other_names":{"name:ar":"غواياكيل","name:be":"Гуаякіль","name:de":"Guayaquil","name:el":"Γουαγιακίλ","name:es":"Guayaquil","name:fa":"گوایاکیل","name:he":"גואיאקיל","name:hr":"Guayaquil","name:mk":"Гвајакил","name:oc":"Guayaquil","name:ru":"Гуаякиль","name:sr":"Гвајакил","name:uk":"Гуаякіль","name:ur":"گوایاکل","name:pnb":"گوآیاکوئل","old_name":"Muy Noble y Muy Leal Ciudad de Santiago de Guayaquil","alt_name:ar":"جواياكيول;سانتياغو دي غواياكيول;غواياكيول","alt_name:fa":"گوایاکیول","official_name":"Santiago de Guayaquil"},"display_name":"Guayaquil, Guayas, Ecuador","address":{"city":"Guayaquil","county":"Guayaquil","state":"Guayas","ISO3166-2-lvl4":"EC-G","country":"Ecuador","country_code":"ec"},"population":3500000,"osm_type":"node","osm_id":249424015,"type":"city","location":[-79.8868669,-2.1900572],"bbox":[-80.0468669,-2.3500572,-79.7268669,-2.0300572],"border":[{"name":"Guayaquil","other_names":{"name:ar":"غواياكيل","name:es":"Guayaquil","name:fa":"گوایاکیل","name:ur":"گوایاکل","name:pnb":"گوآیاکوئل","alt_name:ar":"جواياكيول;سانتياغو دي غواياكيول;غواياكيول","alt_name:fa":"گوایاکیول"},"display_name":"Guayaquil, Guayas, Ecuador","address":{"county":"Guayaquil","state":"Guayas","ISO3166-2-lvl4":"EC-G","country":"Ecuador","country_code":"ec"},"osm_type":"relation","osm_id":109443,"type":"administrative","location":[-80.0696569180605,-2.5136441],"bbox":[-80.4660412,-3.064261,-79.7123873,-1.9622343]},{"name":"Guayaquil","other_names":{"name:ar":"غواياكيل","name:es":"Guayaquil","name:fa":"گوایاکیل","name:ur":"گوایاکل","name:pnb":"گوآیاکوئل","alt_name:ar":"جواياكيول;سانتياغو دي غواياكيول;غواياكيول","alt_name:fa":"گوایاکیول","name:be":"Гуаякіль","name:de":"Guayaquil","name:el":"Γουαγιακίλ","name:he":"גואיאקיל","name:hr":"Guayaquil","name:mk":"Гвајакил","name:oc":"Guayaquil","name:ru":"Гуаякиль","name:sr":"Гвајакил","name:uk":"Гуаякіль","old_name":"Muy Noble y Muy Leal Ciudad de Santiago de Guayaquil","official_name":"Santiago de Guayaquil"},"display_name":"Guayaquil, Guayas, Ecuador","address":{"city":"Guayaquil","county":"Guayaquil","state":"Guayas","ISO3166-2-lvl4":"EC-G","country":"Ecuador","country_code":"ec"},"population":3500000,"osm_type":"relation","osm_id":3652281,"type":"administrative","location":[-79.8868669,-2.1900572],"bbox":[-80.3123629,-2.6170287,-79.8563511,-1.9622343]},{"name":"Guayaquil","other_names":{"name:ar":"غواياكيل","name:es":"Guayaquil","name:fa":"گوایاکیل","name:ru":"Гуаякиль","name:ur":"گوایاکل","name:pnb":"گوآیاکوئل","old_name":"Muy Noble y Muy Leal Ciudad de Santiago de Guayaquil","alt_name:ar":"جواياكيول;سانتياغو دي غواياكيول;غواياكيول","official_name":"Santiago de Guayaquil","name:be":"Гуаякіль","name:de":"Guayaquil","name:el":"Γουαγιακίλ","name:he":"גואיאקיל","name:hr":"Guayaquil","name:mk":"Гвајакил","name:oc":"Guayaquil","name:sr":"Гвајакил","name:uk":"Гуаякіль","alt_name:fa":"گوایاکیول"},"display_name":"Guayaquil, Guayas, Ecuador","address":{"city":"Guayaquil","county":"Guayaquil","state":"Guayas","ISO3166-2-lvl4":"EC-G","country":"Ecuador","country_code":"ec"},"population":2985379,"osm_type":"relation","osm_id":2403848,"type":"administrative","location":[-79.8868669,-2.1900572],"bbox":[-79.9591199,-2.2875728,-79.8563511,-2.0533615]}]}
{"name":"Ibarra","other_names":{"official_name":"San Miguel de Ibarra"},"display_name":"Ibarra, Imbabura, Ecuador","address":{"city":"Ibarra","municipality":"Ibarra","county":"Ibarra","state":"Imbabura","ISO3166-2-lvl4":"EC-I","country":"Ecuador","country_code":"ec"},"population":108666,"osm_type":"node","osm_id":662694079,"type":"city","location":[-78.1199716,0.3520459],"bbox":[-78.2799716,0.1920459,-77.9599716,0.5120459],"border":[{"name":"Ibarra","display_name":"Ibarra, Imbabura, Ecuador","address":{"county":"Ibarra","state":"Imbabura","ISO3166-2-lvl4":"EC-I","country":"Ecuador","country_code":"ec"},"osm_type":"relation","osm_id":113983,"type":"administrative","location":[-78.13294481410077,0.51593695],"bbox":[-78.4595168,0.1550803,-77.9624313,0.8766144]},{"name":"Ibarra","other_names":{"name:es":"Ibarra","official_name":"San Miguel de Ibarra"},"display_name":"Ibarra, Imbabura, Ecuador","address":{"municipality":"Ibarra","county":"Ibarra","state":"Imbabura","ISO3166-2-lvl4":"EC-I","country":"Ecuador","country_code":"ec"},"population":108666,"osm_type":"relation","osm_id":3742357,"type":"administrative","location":[-78.1199716,0.3520459],"bbox":[-78.1758599,0.2601626,-78.0250159,0.4998944]}]}
{"name":"La Libertad","display_name":"La Libertad, Santa Elena, Ecuador","address":{"city":"La Libertad","county":"La Libertad","state":"Santa Elena","ISO3166-2-lvl4":"EC-SE","country":"Ecuador","country_code":"ec"},"osm_type":"node","osm_id":7649567236,"type":"city","location":[-80.9077647,-2.2208117],"bbox":[-81.0677647,-2.3808117,-80.7477647,-2.0608117],"border":{"name":"La Libertad","display_name":"La Libertad, Santa Elena, Ecuador","address":{"county":"La Libertad","state":"Santa Elena","ISO3166-2-lvl4":"EC-SE","country":"Ecuador","country_code":"ec"},"osm_type":"relation","osm_id":109439,"type":"administrative","location":[-80.9077647,-2.2208117],"bbox":[-80.9237585,-2.2752555,-80.8689264,-2.2084696]}}
{"name":"La Maná","display_name":"La Maná, Cotopaxi, Ecuador","address":{"city":"La Maná","county":"La Maná","state":"Cotopaxi","ISO3166-2-lvl4":"EC-X","country":"Ecuador","country_code":"ec"},"osm_type":"node","osm_id":249429782,"type":"city","location":[-79.2243604,-0.940857],"bbox":[-79.3843604,-1.100857,-79.0643604,-0.780857],"border":[{"name":"La Maná","display_name":"La Maná, Cotopaxi, 050202, Ecuador","address":{"county":"La Maná","state":"Cotopaxi","ISO3166-2-lvl4":"EC-X","postcode":"050202","country":"Ecuador","country_code":"ec"},"osm_type":"relation","osm_id":113403,"type":"administrative","location":[-79.1010573360607,-0.78419085],"bbox":[-79.3200302,-1.0042254,-78.986918,-0.5647376]},{"name":"La Maná","display_name":"La Maná, Cotopaxi, 050202, Ecuador","address":{"city":"La Maná","county":"La Maná","state":"Cotopaxi","ISO3166-2-lvl4":"EC-X","postcode":"050202","country":"Ecuador","country_code":"ec"},"osm_type":"relation","osm_id":3774336,"type":"administrative","location":[-79.2243604,-0.940857],"bbox":[-79.3200302,-1.0042254,-79.1230582,-0.7993176]}]}
{"name":"Latacunga","display_name":"Latacunga, Cotopaxi, Ecuador","address":{"city":"Latacunga","county":"Latacunga","state":"Cotopaxi","ISO3166-2-lvl4":"EC-X","country":"Ecuador","country_code":"ec"},"population":57127,"osm_type":"node","osm_id":249429504,"type":"city","location":[-78.6145758,-0.9340311],"bbox":[-78.7745758,-1.0940311,-78.4545758,-0.7740311],"border":[{"name":"Latacunga","display_name":"Latacunga, Cotopaxi, Ecuador","address":{"county":"Latacunga","state":"Cotopaxi","ISO3166-2-lvl4":"EC-X","country":"Ecuador","country_code":"ec"},"osm_type":"relation","osm_id":113400,"type":"administrative","location":[-78.53241830220517,-0.8025974],"bbox":[-78.8362154,-1.0127561,-78.3809261,-0.5928357]},{"name":"Latacunga","display_name":"Latacunga, Cotopaxi, Ecuador","address":{"city":"Latacunga","county":"Latacunga","state":"Cotopaxi","ISO3166-2-lvl4":"EC-X","country":"Ecuador","country_code":"ec"},"population":57127,"osm_type":"relation","osm_id":3774376,"type":"administrative","location":[-78.6145758,-0.9340311],"bbox":[-78.6671817,-1.0086747,-78.4015199,-0.8674417]}]}
{"name":"Loja","other_names":{"name:es":"Loja","int_name":"City of Loja"},"display_name":"Loja, Ecuador","address":{"city":"Loja","municipality":"Loja","county":"Loja","state":"Loja","ISO3166-2-lvl4":"EC-L","country":"Ecuador","country_code":"ec"},"population":180617,"osm_type":"node","osm_id":4729574707,"type":"city","location":[-79.2016661,-3.996845],"bbox":[-79.3616661,-4.156845,-79.0416661,-3.836845],"border":[{"name":"Loja","display_name":"Loja, Ecuador","address":{"county":"Loja","state":"Loja","ISO3166-2-lvl4":"EC-L","country":"Ecuador","country_code":"ec"},"osm_type":"relation","osm_id":108289,"type":"administrative","location":[-79.19406183448217,-4.09222135],"bbox":[-79.5457957,-4.5114788,-79.1006936,-3.6728594]},{"name":"Loja","other_names":{"name:es":"Loja","int_name":"City of Loja"},"display_name":"Loja, Ecuador","address":{"municipality":"Loja","county":"Loja","state":"Loja","ISO3166-2-lvl4":"EC-L","country":"Ecuador","country_code":"ec"},"population":180617,"osm_type":"relation","osm_id":3651090,"type":"administrative","location":[-79.2016661,-3.996845],"bbox":[-79.2699455,-4.1328625,-79.1373786,-3.8501062]}]}
{"name":"Machala","other_names":{"name:en":"Machala","name:ru":"Мачала","name:uk":"Мачала"},"display_name":"Machala, El Oro, Ecuador","address":{"city":"Machala","municipality":"Machala","county":"Machala","state":"El Oro","ISO3166-2-lvl4":"EC-O","country":"Ecuador","country_code":"ec"},"osm_type":"node","osm_id":760725882,"type":"city","location":[-79.9588518,-3.2588565],"bbox":[-80.1188518,-3.4188565,-79.7988518,-3.0988565],"border":[{"name":"Machala","display_name":"Machala, El Oro, Ecuador","address":{"county":"Machala","state":"El Oro","ISO3166-2-lvl4":"EC-O","country":"Ecuador","country_code":"ec"},"osm_type":"relation","osm_id":107889,"type":"administrative","location":[-79.95128044552303,-3.31489375],"bbox":[-80.0357079,-3.435637,-79.8423504,-3.1909346]},{"name":"Machala","other_names":{"name:es":"Machala","name:en":"Machala","name:ru":"Мачала","name:uk":"Мачала"},"display_name":"Machala, El Oro, Ecuador","address":{"municipality":"Machala","county":"Machala","state":"El Oro","ISO3166-2-lvl4":"EC-O","country":"Ecuador","country_code":"ec"},"population":231260,"osm_type":"relation","osm_id":2670341,"type":"administrative","location":[-79.9588518,-3.2588565],"bbox":[-80.0286899,-3.3547457,-79.8423504,-3.1909346]}]}
{"name":"Manta","other_names":{"name:en":"Manta","name:ru":"Манта","name:uk":"Манта","official_name":"San Pablo de Manta"},"display_name":"Manta, Manabí, Ecuador","address":{"city":"Manta","county":"Manta","state":"Manabí","ISO3166-2-lvl4":"EC-M","country":"Ecuador","country_code":"ec"},"population":217553,"osm_type":"node","osm_id":2163462352,"type":"city","location":[-80.7191006,-0.9485853],"bbox":[-80.8791006,-1.1085853,-80.5591006,-0.7885853],"border":[{"name":"Manta","display_name":"Manta, Manabí, Ecuador","address":{"county":"Manta","state":"Manabí","ISO3166-2-lvl4":"EC-M","country":"Ecuador","country_code":"ec"},"osm_type":"relation","osm_id":112895,"type":"administrative","location":[-80.8169310821207,-1.03200635],"bbox":[-80.9127732,-1.1342479,-80.658159,-0.9295941]},{"name":"Manta","other_names":{"name:es":"Manta","name:en":"Manta","name:ru":"Манта","name:uk":"Манта","official_name":"San Pablo de Manta"},"display_name":"Manta, Manabí, Ecuador","address":{"city":"Manta","county":"Manta","state":"Manabí","ISO3166-2-lvl4":"EC-M","country":"Ecuador","country_code":"ec"},"population":217553,"osm_type":"relation","osm_id":18357350,"type":"administrative","location":[-80.7191006,-0.9485853],"bbox":[-80.8367908,-1.0206246,-80.658159,-0.9295941]},{"name":"Manta","display_name":"Manta, Manabí, Ecuador","address":{"municipality":"Manta","city":"Manta","county":"Manta","state":"Manabí","ISO3166-2-lvl4":"EC-M","country":"Ecuador","country_code":"ec"},"population":192322,"osm_type":"relation","osm_id":282076,"type":"administrative","location":[-80.7584992795741,-0.9700642500000001],"bbox":[-80.7777501,-1.0100032,-80.7164436,-0.9295941]}]}
{"name":"Milagro","display_name":"Milagro, Guayas, Ecuador","address":{"city":"Milagro","municipality":"Milagro","county":"Milagro","state":"Guayas","ISO3166-2-lvl4":"EC-G","country":"Ecuador","country_code":"ec"},"population":140103,"osm_type":"node","osm_id":249596683,"type":"city","location":[-79.5935005,-2.1289136],"bbox":[-79.7535005,-2.2889136,-79.4335005,-1.9689136],"border":[{"name":"Milagro","display_name":"Milagro, Guayas, Ecuador","address":{"county":"Milagro","state":"Guayas","ISO3166-2-lvl4":"EC-G","country":"Ecuador","country_code":"ec"},"osm_type":"relation","osm_id":109450,"type":"administrative","location":[-79.5552041926201,-2.11796355],"bbox":[-79.6871048,-2.2457147,-79.4481849,-1.9878067]},{"name":"Milagro","display_name":"Milagro, Guayas, Ecuador","address":{"municipality":"Milagro","county":"Milagro","state":"Guayas","ISO3166-2-lvl4":"EC-G","country":"Ecuador","country_code":"ec"},"population":140103,"osm_type":"relation","osm_id":2667869,"type":"administrative","location":[-79.5935005,-2.1289136],"bbox":[-79.6450313,-2.2344226,-79.5120517,-1.9878067]}]}
{"name":"Portoviejo","other_names":{"name:en":"Portoviejo","name:ru":"Портовьехо","old_name":"Villa Nueva de San Gregorio de Portoviejo"},"display_name":"Portoviejo, Manabí, Ecuador","address":{"city":"Portoviejo","municipality":"Portoviejo","county":"Portoviejo","state":"Manabí","ISO3166-2-lvl4":"EC-M","country":"Ecuador","country_code":"ec"},"population":180641,"osm_type":"node","osm_id":249597621,"type":"city","location":[-80.4534134,-1.05282],"bbox":[-80.6134134,-1.21282,-80.2934134,-0.89282],"border":[{"name":"Portoviejo","display_name":"Portoviejo, Manabí, Ecuador","address":{"county":"Portoviejo","state":"Manabí","ISO3166-2-lvl4":"EC-M","country":"Ecuador","country_code":"ec"},"osm_type":"relation","osm_id":112897,"type":"administrative","location":[-80.39794041785468,-0.9994684],"bbox":[-80.5850017,-1.2029866,-80.0108837,-0.7961417]},{"name":"Portoviejo","other_names":{"name:es":"Portoviejo","name:en":"Portoviejo","name:ru":"Портовьехо","old_name":"Villa Nueva de San Gregorio de Portoviejo"},"display_name":"Portoviejo, Manabí, Ecuador","address":{"municipality":"Portoviejo","county":"Portoviejo","state":"Manabí","ISO3166-2-lvl4":"EC-M","country":"Ecuador","country_code":"ec"},"population":180641,"osm_type":"relation","osm_id":282078,"type":"administrative","location":[-80.4534134,-1.05282],"bbox":[-80.5575477,-1.2029866,-80.316762,-0.9205146]}]}
{"name":"Quevedo","display_name":"Quevedo, Los Ríos, Ecuador","address":{"city":"Quevedo","municipality":"Quevedo","county":"Quevedo","state":"Los Ríos","ISO3166-2-lvl4":"EC-R","country":"Ecuador","country_code":"ec"},"population":300000,"osm_type":"node","osm_id":249597057,"type":"city","location":[-79.4663323,-1.0243508],"bbox":[-79.6263323,-1.1843508,-79.3063323,-0.8643508],"border":[{"name":"Quevedo","display_name":"Quevedo, Los Ríos, Ecuador","address":{"county":"Quevedo","state":"Los Ríos","ISO3166-2-lvl4":"EC-R","country":"Ecuador","country_code":"ec"},"osm_type":"relation","osm_id":109257,"type":"administrative","location":[-79.477681157267,-1.0669700500000001],"bbox":[-79.6166485,-1.1946244,-79.3689535,-0.9393135]},{"name":"Quevedo","display_name":"Quevedo, Los Ríos, Ecuador","address":{"municipality":"Quevedo","county":"Quevedo","state":"Los Ríos","ISO3166-2-lvl4":"EC-R","country":"Ecuador","country_code":"ec"},"population":300000,"osm_type":"relation","osm_id":2671306,"type":"administrative","location":[-79.4663323,-1.0243508],"bbox":[-79.6166485,-1.099724,-79.3853875,-0.9434988]}]}
{"name":"Quito","other_names":{"name:am":"ኪቶ","name:ar":"كيتو","name:ay":"Kitu","name:az":"Kito","name:be":"Кіта","name:bg":"Кито","name:bo":"ཁེ་ཐོ།","name:ca":"Quito","name:de":"Quito","name:el":"Κίτο","name:en":"Quito","name:eo":"Kito","name:es":"Quito","name:fa":"کیتو","name:fr":"Quito","name:fy":"Kito","name:he":"קיטו","name:hi":"क्वीटो","name:ht":"Kito","name:hu":"Quito","name:hy":"Կիտո","name:is":"Quito","name:ja":"キト","name:ka":"კიტო","name:kk":"Кито","name:ko":"키토","name:la":"Quitum","name:lt":"Kitas","name:lv":"Kito","name:mk":"Кито","name:mr":"क्वितो","name:oc":"Quito","name:os":"Кито","name:pa":"ਕੀਤੋ","name:pl":"Quito","name:qu":"Kitu","name:ru":"Кито","name:sq":"Kuito","name:sr":"Кито","name:sv":"Quito","name:th":"กีโต","name:ug":"كىتو","name:uk":"Кіто","name:ur":"کیٹو","name:yi":"קיטא","name:zh":"基多","name:ext":"Quitu","name:nov":"Kito","name:pnb":"کوئتو","official_name":"San Francisco de Quito","name:be-tarask":"Кіта"},"display_name":"Quito, Pichincha, 170130, Ecuador","address":{"city":"Quito","county":"Quito","plot":"Pichincha","ISO3166-2-lvl4":"EC-P","postcode":"170130","country":"Ecuador","country_code":"ec"},"population":2671191,"osm_type":"node","osm_id":58950371,"type":"city","location":[-78.5123274,-0.2201641],"bbox":[-78.6723274,-0.3801641,-78.3523274,-0.0601641],"border":{"name":"Quito","other_names":{"name:ar":"كانتون مترو كيتو","name:de":"Kanton Quito","name:en":"Quito Canton","name:es":"Distrito Metropolitano de Quito","name:it":"Cantone di Quito","name:ka":"კიტოს კანტონი","name:pl":"Quito Kanton","name:pt":"Distrito Metropolitano de Quito","name:qu":"Kitu kiti","name:sv":"Cantón Quito","name:zh":"基托縣","alt_name":"Distrito Metropolitano de Quito","name:ceb":"Cantón Quito"},"display_name":"Quito, Pichincha, Ecuador","address":{"county":"Quito","plot":"Pichincha","ISO3166-2-lvl4":"EC-P","country":"Ecuador","country_code":"ec"},"osm_type":"relation","osm_id":113714,"type":"administrative","location":[-78.50431437255514,-0.1692388],"bbox":[-78.9476819,-0.5956779,-78.1649035,0.2562735]}}
{"name":"Remigo Crespo Toral","other_names":{"name:es":"Remigo Crespo Toral","alt_name":"Gulag"},"display_name":"Remigo Crespo Toral, Gualaceo, Azuay, Ecuador","address":{"city":"Remigo Crespo Toral","county":"Gualaceo","state":"Azuay","ISO3166-2-lvl4":"EC-A","country":"Ecuador","country_code":"ec"},"osm_type":"relation","osm_id":3810320,"type":"administrative","location":[-78.72796037158326,-2.9385447],"bbox":[-78.7755004,-2.9787283,-78.6942851,-2.8984166],"inferred_type":"city"}
{"name":"Riobamba","other_names":{"name:en":"Riobamba","name:ru":"Риобамба","name:uk":"Ріобамба","official_name":"San Pedro de Riobamba"},"display_name":"Riobamba, Chimborazo, Ecuador","address":{"city":"Riobamba","municipality":"Riobamba","county":"Riobamba","state":"Chimborazo","ISO3166-2-lvl4":"EC-H","country":"Ecuador","country_code":"ec"},"population":170000,"osm_type":"node","osm_id":249597119,"type":"city","location":[-78.6482479,-1.6732765],"bbox":[-78.8082479,-1.8332765,-78.4882479,-1.5132765],"border":[{"name":"Riobamba","display_name":"Riobamba, Chimborazo, Ecuador","address":{"county":"Riobamba","state":"Chimborazo","ISO3166-2-lvl4":"EC-H","country":"Ecuador","country_code":"ec"},"osm_type":"relation","osm_id":108867,"type":"administrative","location":[-78.66967278427126,-1.7075268000000001],"bbox":[-78.8971487,-1.9521577,-78.3975713,-1.4625377]},{"name":"Riobamba","other_names":{"name:es":"Riobamba","name:en":"Riobamba","name:ru":"Риобамба","name:uk":"Ріобамба","official_name":"San Pedro de Riobamba"},"display_name":"Riobamba, Chimborazo, Ecuador","address":{"municipality":"Riobamba","county":"Riobamba","state":"Chimborazo","ISO3166-2-lvl4":"EC-H","country":"Ecuador","country_code":"ec"},"population":170000,"osm_type":"relation","osm_id":3728588,"type":"administrative","location":[-78.6482479,-1.6732765],"bbox":[-78.7235915,-1.7105575,-78.5954866,-1.6328761]}]}
{"name":"Salinas","display_name":"Salinas, Santa Elena, Ecuador","address":{"city":"Salinas","municipality":"Salinas","county":"Salinas","state":"Santa Elena","ISO3166-2-lvl4":"EC-SE","country":"Ecuador","country_code":"ec"},"population":29294,"osm_type":"node","osm_id":249598984,"type":"city","location":[-80.967163,-2.2079292],"bbox":[-81.127163,-2.3679292,-80.807163,-2.0479292],"border":[{"name":"Salinas","other_names":{"name:es":"Salinas","name:lt":"Salinasas","name:zh":"薩利納斯"},"display_name":"Salinas, Santa Elena, 241550, Ecuador","address":{"county":"Salinas","state":"Santa Elena","ISO3166-2-lvl4":"EC-SE","postcode":"241550","country":"Ecuador","country_code":"ec"},"osm_type":"relation","osm_id":109438,"type":"administrative","location":[-80.92379734420838,-2.2612497],"bbox":[-81.0113696,-2.338647,-80.8559556,-2.1838723]},{"name":"Salinas","display_name":"Salinas, Santa Elena, 241550, Ecuador","address":{"municipality":"Salinas","county":"Salinas","state":"Santa Elena","ISO3166-2-lvl4":"EC-SE","postcode":"241550","country":"Ecuador","country_code":"ec"},"population":29294,"osm_type":"relation","osm_id":279102,"type":"administrative","location":[-80.967163,-2.2079292],"bbox":[-81.0113696,-2.2905219,-80.9107428,-2.1838723]}]}
{"name":"Sangolqui","display_name":"Sangolqui, Sangolquí, Sangolqui, Pichincha, Ecuador","address":{"city":"Sangolqui","municipality":"Sangolquí","county":"Sangolqui","plot":"Pichincha","ISO3166-2-lvl4":"EC-P","country":"Ecuador","country_code":"ec"},"osm_type":"node","osm_id":306232992,"type":"city","location":[-78.4483476,-0.3288822],"bbox":[-78.6083476,-0.4888822,-78.2883476,-0.1688822],"border":[{"name":"Sangolqui","display_name":"Sangolqui, Pichincha, Ecuador","address":{"county":"Sangolqui","plot":"Pichincha","ISO3166-2-lvl4":"EC-P","country":"Ecuador","country_code":"ec"},"osm_type":"relation","osm_id":113713,"type":"administrative","location":[-78.43681065983627,-0.39888],"bbox":[-78.4846362,-0.5070027,-78.3937645,-0.2907607]},{"name":"Sangolquí","other_names":{"name:es":"Sangolquí","alt":"Sangolqui"},"display_name":"Sangolquí, Sangolqui, Pichincha, Ecuador","address":{"municipality":"Sangolquí","county":"Sangolqui","plot":"Pichincha","ISO3166-2-lvl4":"EC-P","country":"Ecuador","country_code":"ec"},"osm_type":"relation","osm_id":3747781,"type":"administrative","location":[-78.4483476,-0.3288822],"bbox":[-78.479594,-0.4125893,-78.3937645,-0.2907607]}]}
{"name":"Santo Domingo de los Tsáchilas","other_names":{"name:en":"Santo Domingo de los Tsachilas","alt_name":"Santo Domingo"},"display_name":"Santo Domingo de los Tsáchilas, Santo Domingo de los Tsachilas, Santo Domingo, Santo Domingo de los Tsáchilas, Ecuador","address":{"city":"Santo Domingo de los Tsáchilas","municipality":"Santo Domingo de los Tsachilas","county":"Santo Domingo","state":"Santo Domingo de los Tsáchilas","ISO3166-2-lvl4":"EC-SD","country":"Ecuador","country_code":"ec"},"population":270875,"osm_type":"node","osm_id":249599781,"type":"city","location":[-79.1686724,-0.2546212],"bbox":[-79.3286724,-0.4146212,-79.0086724,-0.0946212],"border":[{"name":"Santo Domingo","display_name":"Santo Domingo, Santo Domingo de los Tsáchilas, Ecuador","address":{"county":"Santo Domingo","state":"Santo Domingo de los Tsáchilas","ISO3166-2-lvl4":"EC-SD","country":"Ecuador","country_code":"ec"},"osm_type":"relation","osm_id":8009485,"type":"administrative","location":[-79.17315197147042,-0.3401645],"bbox":[-79.5483732,-0.6986919,-78.7460946,0.0183249]},{"name":"Santo Domingo de los Tsachilas","other_names":{"name:es":"Santo Domingo de los Tsachilas","name:en":"Santo Domingo de los Tsachilas","alt_name":"Santo Domingo","alt":"Santo Domingo de los Tsáchilas"},"display_name":"Santo Domingo de los Tsachilas, Santo Domingo, Santo Domingo de los Tsáchilas, Ecuador","address":{"municipality":"Santo Domingo de los Tsachilas","county":"Santo Domingo","state":"Santo Domingo de los Tsáchilas","ISO3166-2-lvl4":"EC-SD","country":"Ecuador","country_code":"ec"},"population":270875,"osm_type":"relation","osm_id":287808,"type":"administrative","location":[-79.1686724,-0.2546212],"bbox":[-79.4293606,-0.4289208,-78.8332079,-0.0828068]},{"name":"Santo Domingo","display_name":"Santo Domingo, Santo Domingo de los Tsachilas, Santo Domingo, Santo Domingo de los Tsáchilas, 230102, Ecuador","address":{"suburb":"Santo Domingo","city":"Santo Domingo de los Tsachilas","county":"Santo Domingo","state":"Santo Domingo de los Tsáchilas","ISO3166-2-lvl4":"EC-SD","postcode":"230102","country":"Ecuador","country_code":"ec"},"osm_type":"relation","osm_id":11950523,"type":"administrative","location":[-79.17131708347992,-0.24750275],"bbox":[-79.1766263,-0.2560221,-79.1682461,-0.2390163]}]}
