{"name":"Atlántico","display_name":"Atlántico, Caleta Olivia, Deseado, Santa Cruz, Argentina","address":{"city":"Atlántico","municipality":"Caleta Olivia","state_district":"Deseado","state":"Santa Cruz","ISO3166-2-lvl4":"AR-Z","country":"Argentina","country_code":"ar"},"population":17765,"osm_type":"relation","osm_id":3431104,"type":"administrative","location":[-67.51691782442397,-46.468541099999996],"bbox":[-67.5481668,-46.4867955,-67.4845742,-46.4501604],"inferred_type":"city"}
{"name":"Avellaneda","display_name":"Avellaneda, Partido de Avellaneda, Buenos Aires, Argentina","address":{"city":"Avellaneda","state_district":"Partido de Avellaneda","state":"Buenos Aires","ISO3166-2-lvl4":"AR-B","country":"Argentina","country_code":"ar"},"population":342677,"osm_type":"node","osm_id":198439739,"type":"city","location":[-58.3628061,-34.6648394],"bbox":[-58.5228061,-34.8248394,-58.2028061,-34.5048394],"border":{"name":"Avellaneda","display_name":"Avellaneda, Partido de Avellaneda, Buenos Aires, 1870, Argentina","address":{"city":"Avellaneda","state_district":"Partido de Avellaneda","state":"Buenos Aires","ISO3166-2-lvl4":"AR-B","postcode":"1870","country":"Argentina","country_code":"ar"},"population":342677,"osm_type":"relation","osm_id":2149189,"type":"administrative","location":[-58.3628061,-34.6648394],"bbox":[-58.3783203,-34.6786786,-58.3441146,-34.6482654]}}
{"name":"Bahía Blanca","other_names":{"name:ar":"باهيا بلانكا","name:el":"Μπαΐα Μπλάνκα","name:en":"Bahía Blanca","name:fr":"Bahia Blanca","name:kn":"ಬಾಯ ಬ್ಲಾಂಕ","name:ru":"Баия-Бланка","name:sk":"Bahia Blanca","name:uk":"Баїя-Бланка","name:zh-Hant":"布蘭卡港"},"display_name":"Bahía Blanca, Cuartel I, Partido de Bahía Blanca, Buenos Aires, Argentina","address":{"city":"Bahía Blanca","county":"Cuartel I","state_district":"Partido de Bahía Blanca","state":"Buenos Aires","ISO3166-2-lvl4":"AR-B","country":"Argentina","country_code":"ar"},"population":301572,"osm_type":"node","osm_id":198439791,"type":"city","location":[-62.2654871,-38.7176522],"bbox":[-62.4254871,-38.8776522,-62.1054871,-38.5576522],"border":{"name":"Bahía Blanca","other_names":{"name:ar":"باهيا بلانكا","name:es":"Bahía Blanca","name:sk":"Bahia Blanca","name:el":"Μπαΐα Μπλάνκα","name:en":"Bahía Blanca","name:fr":"Bahia Blanca","name:kn":"ಬಾಯ ಬ್ಲಾಂಕ","name:ru":"Баия-Бланка","name:uk":"Баїя-Бланка","name:zh-Hant":"布蘭卡港"},"display_name":"Bahía Blanca, Cuartel I, Partido de Bahía Blanca, Buenos Aires, Argentina","address":{"city":"Bahía Blanca","county":"Cuartel I","state_district":"Partido de Bahía Blanca","state":"Buenos Aires","ISO3166-2-lvl4":"AR-B","country":"Argentina","country_code":"ar"},"population":301572,"osm_type":"relation","osm_id":3302861,"type":"administrative","location":[-62.2654871,-38.7176522],"bbox":[-62.3528141,-38.76468,-62.1600409,-38.6332067]}}
{"name":"Banfield","display_name":"Banfield, Partido de Lomas de Zamora, Buenos Aires, Argentina","address":{"city":"Banfield","state_district":"Partido de Lomas de Zamora","state":"Buenos Aires","ISO3166-2-lvl4":"AR-B","country":"Argentina","country_code":"ar"},"population":224000,"osm_type":"node","osm_id":198440228,"type":"city","location":[-58.3960811,-34.7437455],"bbox":[-58.5560811,-34.9037455,-58.2360811,-34.5837455],"border":{"name":"Banfield","display_name":"Banfield, Partido de Lomas de Zamora, Buenos Aires, 1828, Argentina","address":{"city":"Banfield","state_district":"Partido de Lomas de Zamora","state":"Buenos Aires","ISO3166-2-lvl4":"AR-B","postcode":"1828","country":"Argentina","country_code":"ar"},"population":223898,"osm_type":"relation","osm_id":2537834,"type":"administrative","location":[-58.3960811,-34.7437455],"bbox":[-58.4261672,-34.7560032,-58.3458741,-34.7326069]}}
{"name":"Berazategui","display_name":"Berazategui, Partido de Berazategui, Buenos Aires, Argentina","address":{"city":"Berazategui","state_district":"Partido de Berazategui","state":"Buenos Aires","ISO3166-2-lvl4":"AR-B","country":"Argentina","country_code":"ar"},"population":167498,"osm_type":"node","osm_id":198440788,"type":"city","location":[-58.2116604,-34.7632677],"bbox":[-58.3716604,-34.9232677,-58.0516604,-34.6032677],"border":{"name":"Berazategui","display_name":"Berazategui, Partido de Berazategui, Buenos Aires, Argentina","address":{"city":"Berazategui","state_district":"Partido de Berazategui","state":"Buenos Aires","ISO3166-2-lvl4":"AR-B","country":"Argentina","country_code":"ar"},"population":167498,"osm_type":"relation","osm_id":2198461,"type":"administrative","location":[-58.2116604,-34.7632677],"bbox":[-58.2674063,-34.8005097,-58.1552902,-34.7344894]}}
{"name":"Berisso","display_name":"Berisso, Partido de Berisso, Buenos Aires, 1923, Argentina","address":{"city":"Berisso","state_district":"Partido de Berisso","state":"Buenos Aires","ISO3166-2-lvl4":"AR-B","postcode":"1923","country":"Argentina","country_code":"ar"},"population":101123,"osm_type":"node","osm_id":198449765,"type":"city","location":[-57.8828667,-34.8688565],"bbox":[-58.0428667,-35.0288565,-57.7228667,-34.7088565]}
{"name":"Bernal","display_name":"Bernal, Partido de Quilmes, Buenos Aires, Argentina","address":{"city":"Bernal","state_district":"Partido de Quilmes","state":"Buenos Aires","ISO3166-2-lvl4":"AR-B","country":"Argentina","country_code":"ar"},"population":109914,"osm_type":"node","osm_id":198440830,"type":"city","location":[-58.2977925,-34.716571],"bbox":[-58.4577925,-34.876571,-58.1377925,-34.556571],"border":{"name":"Bernal","display_name":"Bernal, Partido de Quilmes, Buenos Aires, Argentina","address":{"city":"Bernal","state_district":"Partido de Quilmes","state":"Buenos Aires","ISO3166-2-lvl4":"AR-B","country":"Argentina","country_code":"ar"},"population":75882,"osm_type":"relation","osm_id":2067596,"type":"administrative","location":[-58.2977925,-34.716571],"bbox":[-58.3469422,-34.7504357,-58.2444532,-34.6849097]}}
{"name":"Buenos Aires","other_names":{"name:ab":"Буенос-Аирес","name:am":"ብዌኖስ አይሬስ","name:ar":"بوينس آيرس","name:az":"Buenos Ayres","name:ba":"Буэнос-Айрес","name:be":"Буэнас-Айрэс","name:bg":"Буенос Айрес","name:bn":"বুয়েনোস আইরেস","name:bo":"པུ་ཨེ་ནོ་སི་ཨས་རི་སི།","name:ca":"Buenos Aires","name:ce":"Буэнос-Айрес","name:cv":"Буэнос-Айрес","name:de":"Buenos Aires","name:el":"Μπουένος Άιρες","name:en":"Buenos Aires","name:eo":"Bonaero","name:es":"Buenos Aires","name:et":"Buenos Aires","name:fa":"بوئنوس آیرس","name:fr":"Buenos Aires","name:gl":"Bos Aires","name:gn":"Vuenosáire","name:he":"בואנוס איירס","name:hi":"ब्यूनस आयर्स","name:hr":"Buenos Aires","name:ht":"Bwènozè","name:hu":"Buenos Aires","name:hy":"Բուենոս Այրես","name:is":"Búenos Aíres","name:ja":"ブエノスアイレス","name:ka":"ბუენოს-აირესი","name:kk":"Буэнос-Айрес","name:kn":"ಬ್ವೇನೊಸ್ ಐರೇಸ್","name:ko":"부에노스아이레스","name:ks":"بیٛونس آیرس","name:ku":"Buenos Aires","name:ky":"Буэнос-Айрес","name:la":"Bonaëropolis","name:lt":"Buenos Airės","name:lv":"Buenosairesa","name:mk":"Буенос Аирес","name:ml":"ബ്യൂണസ് അയേഴ്സ്","name:mn":"Буэнос-Айрес","name:mr":"बुएनोस आइरेस","name:my":"ဗျူနိုအေးရိစ်မြို့","name:nb":"Buenos Aires","name:ne":"बुएनोस आइरेस","name:nl":"Buenos Aires","name:nv":"Níłchʼi Yáʼádaatʼéehii","name:oc":"Buenos Aires","name:or":"ବୁଏନ୍ସ ଏଆରସ","name:os":"Буэнос-Айрес","name:pa":"ਬਿਊਨਸ ਆਇਰਸ","name:pl":"Buenos Aires","name:ps":"بوینس آیرس","name:ru":"Буэнос-Айрес","name:sd":"بيونس آئرس","name:si":"බුවනෝස් අයර්ස්","name:so":"Buweynos ayres","name:sr":"Буенос Ајрес","name:sv":"Buenos Aires","name:ta":"புவெனஸ் ஐரிஸ்","name:te":"బ్వేనౌస్ ఐరిస్","name:tg":"Буэнос Айрес","name:th":"บัวโนสไอเรส","name:tk":"Buenos-Aýres","name:tl":"Lungsod ng Buenos Aires","name:tr":"Buenos Aires","name:tt":"Буэнос-Айрес","name:tw":"Buenɔs Aires","name:ug":"Buénos Ayrés","name:uk":"Буенос-Айрес","name:ur":"بیونس آئرس","name:uz":"Buenos Ayres","name:yi":"בוענאס איירעס","name:za":"Buyijnozsw Aihliswh","name:zh":"布宜诺斯艾利斯","alt_name":"Capital Federal","name:arz":"بوينوس ايريس","name:azb":"بوئنوس آیرس","name:bpy":"বুৱেনোস আইরেস","name:bxr":"Буэнос-Айрес","name:ckb":"بۆینۆس ئایرێس","name:crh":"Buenos Ayres","name:grc":"Εὐαερόπολις","name:jbo":"buenosaires","name:kaa":"Buenos-Ayres","name:lad":"Buenos Ayres","name:lij":"Bonesaire","name:lzh":"布宜諾斯艾利斯","name:myv":"Буэнос-Айрес ош","name:nrm":"Bouonézâr","name:pnb":"بیونس آئرس","name:rue":"Буенос Аірес","name:sah":"Буэнос Айрес","name:wuu":"布宜诺斯艾利斯","name:yue":"布宜諾斯艾利斯","short_name":"CABA","alt_name:gl":"Bos Ares","name:bat-smg":"Buenas Airēs","name:cbk-zam":"Ciudad de Buenos Aires","name:zh-Hans":"布宜诺斯艾利斯","name:zh-Hant":"布宜諾斯艾利斯","official_name":"Ciudad Autónoma de Buenos Aires","name:be-tarask":"Буэнас-Айрэс"},"display_name":"Buenos Aires, Comuna 6, Ciudad Autónoma de Buenos Aires, Argentina","address":{"city":"Buenos Aires","city_district":"Comuna 6","ISO3166-2-lvl4":"AR-C","country":"Argentina","country_code":"ar"},"population":3121707,"osm_type":"node","osm_id":81590481,"type":"city","location":[-58.4440583,-34.6083696],"bbox":[-58.6040583,-34.7683696,-58.2840583,-34.4483696],"border":[{"name":"Ciudad Autónoma de Buenos Aires","other_names":{"ref":"CABA","name:el":"Αυτόνομη Πόλη του Μπουένος Άιρες","name:en":"Autonomous City of Buenos Aires","name:es":"Ciudad Autónoma de Buenos Aires","name:gl":"Cidade Autónoma de Bos Aires","name:he":"בואנוס אירס","name:ru":"Буэнос-Айрес","name:uk":"Буенос-Айрес","name:ur":"بیونس آئرس","name:zh":"布宜诺斯艾利斯自治市","alt_name":"Capital Federal","name:azb":"بوئنوس آیرس","name:grc":"Εὐαερόπολις","ISO3166-2":"AR-C","short_name":"CABA","alt_name:es":"Capital Federal","alt_name:gl":"Cidade Autónoma de Bos Ares","name:zh-Hans":"布宜诺斯艾利斯自治市","name:zh-Hant":"布宜諾斯艾利斯自治市","official_name":"Ciudad Autónoma de Buenos Aires","name:ab":"Буенос-Аирес","name:am":"ብዌኖስ አይሬስ","name:ar":"بوينس آيرس","name:az":"Buenos Ayres","name:ba":"Буэнос-Айрес","name:be":"Буэнас-Айрэс","name:bg":"Буенос Айрес","name:bn":"বুয়েনোস আইরেস","name:bo":"པུ་ཨེ་ནོ་སི་ཨས་རི་སི།","name:ca":"Buenos Aires","name:ce":"Буэнос-Айрес","name:cv":"Буэнос-Айрес","name:de":"Buenos Aires","name:eo":"Bonaero","name:et":"Buenos Aires","name:fa":"بوئنوس آیرس","name:fr":"Buenos Aires","name:gn":"Vuenosáire","name:hi":"ब्यूनस आयर्स","name:hr":"Buenos Aires","name:ht":"Bwènozè","name:hu":"Buenos Aires","name:hy":"Բուենոս Այրես","name:is":"Búenos Aíres","name:ja":"ブエノスアイレス","name:ka":"ბუენოს-აირესი","name:kk":"Буэнос-Айрес","name:kn":"ಬ್ವೇನೊಸ್ ಐರೇಸ್","name:ko":"부에노스아이레스","name:ks":"بیٛونس آیرس","name:ku":"Buenos Aires","name:ky":"Буэнос-Айрес","name:la":"Bonaëropolis","name:lt":"Buenos Airės","name:lv":"Buenosairesa","name:mk":"Буенос Аирес","name:ml":"ബ്യൂണസ് അയേഴ്സ്","name:mn":"Буэнос-Айрес","name:mr":"बुएनोस आइरेस","name:my":"ဗျူနိုအေးရိစ်မြို့","name:nb":"Buenos Aires","name:ne":"बुएनोस आइरेस","name:nl":"Buenos Aires","name:nv":"Níłchʼi Yáʼádaatʼéehii","name:oc":"Buenos Aires","name:or":"ବୁଏନ୍ସ ଏଆରସ","name:os":"Буэнос-Айрес","name:pa":"ਬਿਊਨਸ ਆਇਰਸ","name:pl":"Buenos Aires","name:ps":"بوینس آیرس","name:sd":"بيونس آئرس","name:si":"බුවනෝස් අයර්ස්","name:so":"Buweynos ayres","name:sr":"Буенос Ајрес","name:sv":"Buenos Aires","name:ta":"புவெனஸ் ஐரிஸ்","name:te":"బ్వేనౌస్ ఐరిస్","name:tg":"Буэнос Айрес","name:th":"บัวโนสไอเรส","name:tk":"Buenos-Aýres","name:tl":"Lungsod ng Buenos Aires","name:tr":"Buenos Aires","name:tt":"Буэнос-Айрес","name:tw":"Buenɔs Aires","name:ug":"Buénos Ayrés","name:uz":"Buenos Ayres","name:yi":"בוענאס איירעס","name:za":"Buyijnozsw Aihliswh","name:arz":"بوينوس ايريس","name:bpy":"বুৱেনোস আইরেস","name:bxr":"Буэнос-Айрес","name:ckb":"بۆینۆس ئایرێس","name:crh":"Buenos Ayres","name:jbo":"buenosaires","name:kaa":"Buenos-Ayres","name:lad":"Buenos Ayres","name:lij":"Bonesaire","name:lzh":"布宜諾斯艾利斯","name:myv":"Буэнос-Айрес ош","name:nrm":"Bouonézâr","name:pnb":"بیونس آئرس","name:rue":"Буенос Аірес","name:sah":"Буэнос Айрес","name:wuu":"布宜诺斯艾利斯","name:yue":"布宜諾斯艾利斯","official_name:es":"Ciudad Autónoma de Buenos Aires","official_name:ru":"Федеральная столица Буэнос-Айрес","_place_alt_name:gl":"Bos Ares","name:bat-smg":"Buenas Airēs","name:cbk-zam":"Ciudad de Buenos Aires","name:be-tarask":"Буэнас-Айрэс","alt":"Buenos Aires","alt:el":"Μπουένος Άιρες","alt:en":"Buenos Aires","alt:es":"Buenos Aires","alt:gl":"Bos Aires","alt:he":"בואנוס איירס","alt:zh":"布宜诺斯艾利斯","alt:zh-Hans":"布宜诺斯艾利斯","alt:zh-Hant":"布宜諾斯艾利斯"},"display_name":"Ciudad Autónoma de Buenos Aires, Argentina","address":{"city":"Ciudad Autónoma de Buenos Aires","ISO3166-2-lvl4":"AR-C","country":"Argentina","country_code":"ar"},"population":3121707,"osm_type":"relation","osm_id":3082668,"type":"administrative","location":[-58.4440583,-34.6083696],"bbox":[-58.5314504,-34.7058155,-58.3351423,-34.5265535]},{"name":"Buenos Aires","other_names":{"name:ar":"بوينس آيرس","name:de":"Buenos Aires","name:el":"Μπουένος Άιρες","name:en":"Buenos Aires","name:eo":"Bonaero","name:es":"Buenos Aires","name:gl":"Bos Aires","name:hr":"Buenos Aires","name:ja":"ブエノスアイレス","name:ko":"부에노스아이레스","name:ml":"ബ്യൂണസ് ഐറീസ്","name:mr":"बुएनोस आइरेस","name:my":"ဗျူနိုအေးရိစ်မြို့","name:ru":"Буэнос-Айрес","name:ta":"புவெனஸ் ஐரிஸ்","name:th":"บัวโนสไอเรส","name:zh":"布宜诺斯艾利斯","alt_name":"Capital Federal","name:azb":"بوئنوس آیرس","name:grc":"Εὐαερόπολις","short_name":"CABA","alt_name:es":"Capital Federal","alt_name:gl":"Bos Ares","name:zh-Hans":"布宜诺斯艾利斯","name:zh-Hant":"布宜諾斯艾利斯","official_name":"Ciudad Autónoma de Buenos Aires","name:ab":"Буенос-Аирес","name:am":"ብዌኖስ አይሬስ","name:az":"Buenos Ayres","name:ba":"Буэнос-Айрес","name:be":"Буэнас-Айрэс","name:bg":"Буенос Айрес","name:bn":"বুয়েনোস আইরেস","name:bo":"པུ་ཨེ་ནོ་སི་ཨས་རི་སི།","name:ca":"Buenos Aires","name:ce":"Буэнос-Айрес","name:cv":"Буэнос-Айрес","name:et":"Buenos Aires","name:fa":"بوئنوس آیرس","name:fr":"Buenos Aires","name:gn":"Vuenosáire","name:he":"בואנוס איירס","name:hi":"ब्यूनस आयर्स","name:ht":"Bwènozè","name:hu":"Buenos Aires","name:hy":"Բուենոս Այրես","name:is":"Búenos Aíres","name:ka":"ბუენოს-აირესი","name:kk":"Буэнос-Айрес","name:kn":"ಬ್ವೇನೊಸ್ ಐರೇಸ್","name:ks":"بیٛونس آیرس","name:ku":"Buenos Aires","name:ky":"Буэнос-Айрес","name:la":"Bonaëropolis","name:lt":"Buenos Airės","name:lv":"Buenosairesa","name:mk":"Буенос Аирес","name:mn":"Буэнос-Айрес","name:nb":"Buenos Aires","name:ne":"बुएनोस आइरेस","name:nl":"Buenos Aires","name:nv":"Níłchʼi Yáʼádaatʼéehii","name:oc":"Buenos Aires","name:or":"ବୁଏନ୍ସ ଏଆରସ","name:os":"Буэнос-Айрес","name:pa":"ਬਿਊਨਸ ਆਇਰਸ","name:pl":"Buenos Aires","name:ps":"بوینس آیرس","name:sd":"بيونس آئرس","name:si":"බුවනෝස් අයර්ස්","name:so":"Buweynos ayres","name:sr":"Буенос Ајрес","name:sv":"Buenos Aires","name:te":"బ్వేనౌస్ ఐరిస్","name:tg":"Буэнос Айрес","name:tk":"Buenos-Aýres","name:tl":"Lungsod ng Buenos Aires","name:tr":"Buenos Aires","name:tt":"Буэнос-Айрес","name:tw":"Buenɔs Aires","name:ug":"Buénos Ayrés","name:uk":"Буенос-Айрес","name:ur":"بیونس آئرس","name:uz":"Buenos Ayres","name:yi":"בוענאס איירעס","name:za":"Buyijnozsw Aihliswh","name:arz":"بوينوس ايريس","name:bpy":"বুৱেনোস আইরেস","name:bxr":"Буэнос-Айрес","name:ckb":"بۆینۆس ئایرێس","name:crh":"Buenos Ayres","name:jbo":"buenosaires","name:kaa":"Buenos-Ayres","name:lad":"Buenos Ayres","name:lij":"Bonesaire","name:lzh":"布宜諾斯艾利斯","name:myv":"Буэнос-Айрес ош","name:nrm":"Bouonézâr","name:pnb":"بیونس آئرس","name:rue":"Буенос Аірес","name:sah":"Буэнос Айрес","name:wuu":"布宜诺斯艾利斯","name:yue":"布宜諾斯艾利斯","official_name:en":"Autonomous City of Buenos Aires","official_name:es":"Ciudad Autónoma de Buenos Aires","name:bat-smg":"Buenas Airēs","name:cbk-zam":"Ciudad de Buenos Aires","name:be-tarask":"Буэнас-Айрэс","alt:ml":"ബ്യൂണസ് അയേഴ്സ്"},"display_name":"Buenos Aires, Comuna 6, Ciudad Autónoma de Buenos Aires, Argentina","address":{"city":"Buenos Aires","city_district":"Comuna 6","ISO3166-2-lvl4":"AR-C","country":"Argentina","country_code":"ar"},"population":2891082,"osm_type":"relation","osm_id":1224652,"type":"administrative","location":[-58.4440583,-34.6083696],"bbox":[-58.5314504,-34.7058155,-58.3351423,-34.5265535]}]}
{"name":"Caseros","display_name":"Caseros, Partido de Tres de Febrero, Buenos Aires, 1678, Argentina","address":{"city":"Caseros","state_district":"Partido de Tres de Febrero","state":"Buenos Aires","ISO3166-2-lvl4":"AR-B","postcode":"1678","country":"Argentina","country_code":"ar"},"population":95785,"osm_type":"node","osm_id":2086711883,"type":"city","location":[-58.5661311,-34.607366],"bbox":[-58.7261311,-34.767366,-58.4061311,-34.447366],"border":{"name":"Caseros","display_name":"Caseros, Partido de Tres de Febrero, Buenos Aires, Argentina","address":{"city":"Caseros","state_district":"Partido de Tres de Febrero","state":"Buenos Aires","ISO3166-2-lvl4":"AR-B","country":"Argentina","country_code":"ar"},"population":95785,"osm_type":"relation","osm_id":2442878,"type":"administrative","location":[-58.5661311,-34.607366],"bbox":[-58.5884248,-34.6287926,-58.5389726,-34.5910857]}}
{"name":"Castelar","display_name":"Castelar, Partido de Morón, Buenos Aires, Argentina","address":{"city":"Castelar","state_district":"Partido de Morón","state":"Buenos Aires","ISO3166-2-lvl4":"AR-B","country":"Argentina","country_code":"ar"},"population":107786,"osm_type":"node","osm_id":198442754,"type":"city","location":[-58.6425128,-34.6555638],"bbox":[-58.8025128,-34.8155638,-58.4825128,-34.4955638],"border":{"name":"Castelar","display_name":"Castelar, Partido de Morón, Buenos Aires, Argentina","address":{"city":"Castelar","state_district":"Partido de Morón","state":"Buenos Aires","ISO3166-2-lvl4":"AR-B","country":"Argentina","country_code":"ar"},"population":107786,"osm_type":"relation","osm_id":2014610,"type":"administrative","location":[-58.6425128,-34.6555638],"bbox":[-58.6674033,-34.7044843,-58.6205666,-34.630018]}}
{"name":"Cipolletti","display_name":"Cipolletti, Municipio de Cipolletti, Departamento General Roca, Río Negro, R8324, Argentina","address":{"city":"Cipolletti","municipality":"Municipio de Cipolletti","state_district":"Departamento General Roca","state":"Río Negro","ISO3166-2-lvl4":"AR-R","postcode":"R8324","country":"Argentina","country_code":"ar"},"population":105482,"osm_type":"node","osm_id":198444250,"type":"city","location":[-67.9905921,-38.931342],"bbox":[-68.1505921,-39.091342,-67.8305921,-38.771342],"border":[{"name":"Municipio de Cipolletti","other_names":{"name:es":"Municipio de Cipolletti","alt":"Cipolletti"},"display_name":"Municipio de Cipolletti, Departamento General Roca, Río Negro, R8324, Argentina","address":{"municipality":"Municipio de Cipolletti","state_district":"Departamento General Roca","state":"Río Negro","ISO3166-2-lvl4":"AR-R","postcode":"R8324","country":"Argentina","country_code":"ar"},"population":105482,"osm_type":"relation","osm_id":4767497,"type":"administrative","location":[-67.9905921,-38.931342],"bbox":[-69.5071882,-39.9297475,-67.9404905,-38.8627893]},{"name":"Cipolletti","display_name":"Cipolletti, Municipio de Cipolletti, Departamento General Roca, Río Negro, R8324, Argentina","address":{"city":"Cipolletti","state_district":"Departamento General Roca","state":"Río Negro","ISO3166-2-lvl4":"AR-R","postcode":"R8324","country":"Argentina","country_code":"ar"},"osm_type":"relation","osm_id":4446237,"type":"administrative","location":[-67.98958160625,-38.93554325],"bbox":[-68.0175003,-38.9597887,-67.9565226,-38.9113158]}]}
{"name":"Comodoro Rivadavia","other_names":{"name:el":"Κομοντόρο Ριβαντάβια","name:en":"Comodoro Rivadavia","name:ru":"Комодоро-Ривадавия","name:tr":"Comodoro Rivadavia","name:uk":"Комодоро-Рівадавія"},"display_name":"Comodoro Rivadavia, Municipio de Comodoro Rivadavia, Departamento Escalante, Chubut, 9000, Argentina","address":{"city":"Comodoro Rivadavia","state_district":"Departamento Escalante","state":"Chubut","ISO3166-2-lvl4":"AR-U","postcode":"9000","country":"Argentina","country_code":"ar"},"population":201228,"osm_type":"node","osm_id":224430003,"type":"city","location":[-67.4752615,-45.8632024],"bbox":[-67.6352615,-46.0232024,-67.3152615,-45.7032024],"border":{"name":"Municipio de Comodoro Rivadavia","other_names":{"name:es":"Municipio de Comodoro Rivadavia","name:el":"Κομοντόρο Ριβαντάβια","name:en":"Comodoro Rivadavia","name:ru":"Комодоро-Ривадавия","name:tr":"Comodoro Rivadavia","name:uk":"Комодоро-Рівадавія","alt":"Comodoro Rivadavia"},"display_name":"Municipio de Comodoro Rivadavia, Departamento Escalante, Chubut, U9000, Argentina","address":{"city":"Municipio de Comodoro Rivadavia","state_district":"Departamento Escalante","state":"Chubut","ISO3166-2-lvl4":"AR-U","postcode":"U9000","country":"Argentina","country_code":"ar"},"population":177038,"osm_type":"relation","osm_id":3732554,"type":"administrative","location":[-67.4752615,-45.8632024],"bbox":[-67.7824527,-46.0000174,-67.3422539,-45.7173043]}}
{"name":"Concordia","other_names":{"official_name":"San Antonio de Padua de la Concordia"},"display_name":"Concordia, Distrito Suburbios, Departamento Concordia, Entre Ríos, 3200, Argentina","address":{"city":"Concordia","county":"Distrito Suburbios","state_district":"Departamento Concordia","state":"Entre Ríos","ISO3166-2-lvl4":"AR-E","postcode":"3200","country":"Argentina","country_code":"ar"},"population":149450,"osm_type":"node","osm_id":198445828,"type":"city","location":[-58.0173305,-31.3972539],"bbox":[-58.1773305,-31.5572539,-57.8573305,-31.2372539],"border":[{"name":"Concordia","other_names":{"name:es":"Concordia","official_name":"San Antonio de Padua de la Concordia"},"display_name":"Concordia, Distrito Suburbios, Departamento Concordia, Entre Ríos, Argentina","address":{"city":"Concordia","county":"Distrito Suburbios","state_district":"Departamento Concordia","state":"Entre Ríos","ISO3166-2-lvl4":"AR-E","country":"Argentina","country_code":"ar"},"population":149450,"osm_type":"relation","osm_id":2826131,"type":"administrative","location":[-58.0173305,-31.3972539],"bbox":[-58.1510605,-31.4564703,-57.9382715,-31.2255642]},{"name":"Concordia","other_names":{"name:es":"Concordia","official_name":"San Antonio de Padua de la Concordia"},"display_name":"Concordia, Distrito Suburbios, Departamento Concordia, Entre Ríos, Argentina","address":{"city":"Concordia","county":"Distrito Suburbios","state_district":"Departamento Concordia","state":"Entre Ríos","ISO3166-2-lvl4":"AR-E","country":"Argentina","country_code":"ar"},"population":149450,"osm_type":"relation","osm_id":9494036,"type":"administrative","location":[-58.0173305,-31.3972539],"bbox":[-58.0568691,-31.4188807,-57.9832783,-31.3356591]}]}
{"name":"Córdoba","other_names":{"name:ar":"كوردوبا","name:be":"Кордава","name:bg":"Кордоба","name:ce":"Кордова","name:el":"Κόρδοβα","name:en":"Cordoba","name:eo":"Kordobo","name:es":"Córdoba","name:fa":"کوردوبا، آرژانتین","name:he":"קורדובה","name:hy":"Կորդովա","name:it":"Córdoba","name:ja":"コルドバ","name:ka":"კორდოვა","name:ko":"코르도바","name:la":"Corduba","name:lt":"Kordoba","name:lv":"Kordova","name:mn":"Кордова","name:mr":"कोर्दोबा","name:oc":"Vila de Córdoba","name:os":"Кордовæ","name:pt":"Córdova","name:ru":"Кордова","name:sr":"Кордоба","name:th":"กอร์โดบา","name:uk":"Кордова","name:ur":"قرطبہ","name:yi":"קארדאבע","name:zh":"科尔多瓦","name:lmo":"Córdoba","name:pnb":"کاردوبا","name:bat-smg":"Kuorduoba"},"display_name":"Córdoba, Municipio de Córdoba, Pedanía Capital, Departamento Capital, Provincia de Córdoba, Argentina","address":{"city":"Córdoba","municipality":"Municipio de Córdoba","county":"Pedanía Capital","state_district":"Departamento Capital","state":"Provincia de Córdoba","ISO3166-2-lvl4":"AR-X","country":"Argentina","country_code":"ar"},"population":1655481,"osm_type":"node","osm_id":2466067279,"type":"city","location":[-64.1834193,-31.4166867],"bbox":[-64.3434193,-31.5766867,-64.0234193,-31.2566867],"border":{"name":"Córdoba","other_names":{"name:en":"Cordoba","name:es":"Córdoba","name:ar":"كوردوبا","name:be":"Кордава","name:bg":"Кордоба","name:ce":"Кордова","name:el":"Κόρδοβα","name:eo":"Kordobo","name:fa":"کوردوبا، آرژانتین","name:he":"קורדובה","name:hy":"Կորդովա","name:it":"Córdoba","name:ja":"コルドバ","name:ka":"კორდოვა","name:ko":"코르도바","name:la":"Corduba","name:lt":"Kordoba","name:lv":"Kordova","name:mn":"Кордова","name:mr":"कोर्दोबा","name:oc":"Vila de Córdoba","name:os":"Кордовæ","name:pt":"Córdova","name:ru":"Кордова","name:sr":"Кордоба","name:th":"กอร์โดบา","name:uk":"Кордова","name:ur":"قرطبہ","name:yi":"קארדאבע","name:zh":"科尔多瓦","name:lmo":"Córdoba","name:pnb":"کاردوبا","name:bat-smg":"Kuorduoba"},"display_name":"Córdoba, Municipio de Córdoba, Pedanía Capital, Departamento Capital, Provincia de Córdoba, X5000, Argentina","address":{"city":"Córdoba","municipality":"Municipio de Córdoba","county":"Pedanía Capital","state_district":"Departamento Capital","state":"Provincia de Córdoba","ISO3166-2-lvl4":"AR-X","postcode":"X5000","country":"Argentina","country_code":"ar"},"population":1655481,"osm_type":"relation","osm_id":5167559,"type":"administrative","location":[-64.1834193,-31.4166867],"bbox":[-64.3100961,-31.5251273,-64.05725,-31.3083295]}}
{"name":"Corrientes","other_names":{"name:el":"Κορριέντες","name:ru":"Корриентес"},"display_name":"Corrientes, Departamento Capital, Corrientes, Argentina","address":{"city":"Corrientes","state_district":"Departamento Capital","state":"Corrientes","ISO3166-2-lvl4":"AR-W","country":"Argentina","country_code":"ar"},"population":430170,"osm_type":"node","osm_id":4705256502,"type":"city","location":[-58.8311982,-27.4687004],"bbox":[-58.9911982,-27.6287004,-58.6711982,-27.3087004],"border":[{"name":"Corrientes","other_names":{"name:es":"Corrientes","name:el":"Κορριέντες","name:ru":"Корриентес"},"display_name":"Corrientes, Departamento Capital, Corrientes, Argentina","address":{"city":"Corrientes","state_district":"Departamento Capital","state":"Corrientes","ISO3166-2-lvl4":"AR-W","country":"Argentina","country_code":"ar"},"population":430170,"osm_type":"relation","osm_id":3127758,"type":"administrative","location":[-58.8311982,-27.4687004],"bbox":[-58.8852972,-27.681955,-58.6259872,-27.3673156]},{"name":"Corrientes","display_name":"Corrientes, Departamento Capital, Corrientes, Argentina","address":{"city":"Corrientes","state_district":"Departamento Capital","state":"Corrientes","ISO3166-2-lvl4":"AR-W","country":"Argentina","country_code":"ar"},"osm_type":"way","osm_id":638264491,"type":"administrative","location":[-58.79558717524547,-27.4818684],"bbox":[-58.8591114,-27.5379562,-58.7119105,-27.4235851]},{"name":"Corrientes","display_name":"Corrientes, Departamento Capital, Corrientes, Argentina","address":{"city_district":"Corrientes","city":"Corrientes","state_district":"Departamento Capital","state":"Corrientes","ISO3166-2-lvl4":"AR-W","country":"Argentina","country_code":"ar"},"osm_type":"relation","osm_id":8878216,"type":"administrative","location":[-58.79558717524547,-27.4818684],"bbox":[-58.8591114,-27.5379562,-58.7119105,-27.4235851]}]}
{"name":"Florencio Varela","other_names":{"short_name":"Fcio. Varela","official_name":"San Juan Bautista"},"display_name":"Florencio Varela, Partido de Florencio Varela, Buenos Aires, Argentina","address":{"city":"Florencio Varela","state_district":"Partido de Florencio Varela","state":"Buenos Aires","ISO3166-2-lvl4":"AR-B","country":"Argentina","country_code":"ar"},"population":120678,"osm_type":"node","osm_id":1232489086,"type":"city","location":[-58.2783224,-34.8044384],"bbox":[-58.4383224,-34.9644384,-58.1183224,-34.6444384],"border":{"name":"Florencio Varela","other_names":{"name:es":"Florencio Varela","official_name":"Ciudad de San Juan Bautista","short_name":"Fcio. Varela","_place_official_name":"San Juan Bautista"},"display_name":"Florencio Varela, Partido de Florencio Varela, Buenos Aires, Argentina","address":{"city":"Florencio Varela","state_district":"Partido de Florencio Varela","state":"Buenos Aires","ISO3166-2-lvl4":"AR-B","country":"Argentina","country_code":"ar"},"population":120678,"osm_type":"relation","osm_id":2404291,"type":"administrative","location":[-58.2783224,-34.8044384],"bbox":[-58.3025334,-34.8223489,-58.238823,-34.7688248]}}
{"name":"Formosa","other_names":{"name:el":"Φορμόσα","name:en":"Formosa","name:he":"פורמוסה","name:ru":"Формоса","name:uk":"Формоса"},"display_name":"Formosa, Municipio de Formosa, Departamento Formosa, Formosa, Argentina","address":{"city":"Formosa","state_district":"Departamento Formosa","state":"Formosa","ISO3166-2-lvl4":"AR-P","country":"Argentina","country_code":"ar"},"population":234354,"osm_type":"node","osm_id":198450537,"type":"city","location":[-58.1744976,-26.1852983],"bbox":[-58.3344976,-26.3452983,-58.0144976,-26.0252983],"border":[{"name":"Municipio de Formosa","other_names":{"name:es":"Municipio de Formosa","name:el":"Φορμόσα","name:en":"Formosa","name:he":"פורמוסה","name:ru":"Формоса","name:uk":"Формоса","alt":"Formosa"},"display_name":"Municipio de Formosa, Departamento Formosa, Formosa, Argentina","address":{"city":"Municipio de Formosa","state_district":"Departamento Formosa","state":"Formosa","ISO3166-2-lvl4":"AR-P","country":"Argentina","country_code":"ar"},"population":234354,"osm_type":"relation","osm_id":9612673,"type":"administrative","location":[-58.1744976,-26.1852983],"bbox":[-58.5055654,-26.38507,-57.8359687,-25.7576383]},{"name":"Formosa","display_name":"Formosa, Municipio de Formosa, Departamento Formosa, Formosa, Argentina","address":{"city_district":"Formosa","city":"Municipio de Formosa","state_district":"Departamento Formosa","state":"Formosa","ISO3166-2-lvl4":"AR-P","country":"Argentina","country_code":"ar"},"osm_type":"relation","osm_id":2294368,"type":"administrative","location":[-58.2169204411358,-26.206681500000002],"bbox":[-58.3342335,-26.3116251,-58.1038659,-26.0959633]}]}
{"name":"General Roca","other_names":{"name:ru":"Хенераль-Рока","alt_name":"Fiske Menuco","name:arn":"Fiske Menuco","old_name":"Fuerte General Roca"},"display_name":"General Roca, Municipio de General Roca, Departamento General Roca, Río Negro, Argentina","address":{"city":"General Roca","state_district":"Departamento General Roca","state":"Río Negro","ISO3166-2-lvl4":"AR-R","country":"Argentina","country_code":"ar"},"population":108680,"osm_type":"node","osm_id":198451606,"type":"city","location":[-67.5754674,-39.0268342],"bbox":[-67.7354674,-39.1868342,-67.4154674,-38.8668342],"border":[{"name":"Municipio de General Roca","other_names":{"name:es":"Municipio de General Roca","name:ru":"Хенераль-Рока","alt_name":"Fiske Menuco","name:arn":"Fiske Menuco","old_name":"Fuerte General Roca","alt":"General Roca"},"display_name":"Municipio de General Roca, Departamento General Roca, Río Negro, Argentina","address":{"city":"Municipio de General Roca","state_district":"Departamento General Roca","state":"Río Negro","ISO3166-2-lvl4":"AR-R","country":"Argentina","country_code":"ar"},"population":108680,"osm_type":"relation","osm_id":4446213,"type":"administrative","location":[-67.5754674,-39.0268342],"bbox":[-67.7309165,-39.1759472,-67.5001202,-38.8617745]},{"name":"General Roca","other_names":{"name:es":"General Roca","name:ru":"Хенераль-Рока","alt_name":"Fiske Menuco","name:arn":"Fiske Menuco","old_name":"Fuerte General Roca"},"display_name":"General Roca, Municipio de General Roca, Departamento General Roca, Río Negro, Argentina","address":{"city":"General Roca","state_district":"Departamento General Roca","state":"Río Negro","ISO3166-2-lvl4":"AR-R","country":"Argentina","country_code":"ar"},"population":108680,"osm_type":"relation","osm_id":9345982,"type":"administrative","location":[-67.5754674,-39.0268342],"bbox":[-67.6127225,-39.0479063,-67.5230391,-38.9938471]}]}
{"name":"Godoy Cruz","other_names":{"name:ru":"Годой-Крус"},"display_name":"Godoy Cruz, Distrito Ciudad de Godoy Cruz, Departamento Godoy Cruz, Mendoza, Argentina","address":{"city":"Godoy Cruz","county":"Departamento Godoy Cruz","state":"Mendoza","ISO3166-2-lvl4":"AR-M","country":"Argentina","country_code":"ar"},"population":191299,"osm_type":"node","osm_id":198451805,"type":"city","location":[-68.8443678,-32.925302],"bbox":[-69.0043678,-33.085302,-68.6843678,-32.765302],"border":{"name":"Distrito Ciudad de Godoy Cruz","other_names":{"name:es":"Distrito Ciudad de Godoy Cruz","name:ru":"Годой-Крус","alt":"Godoy Cruz"},"display_name":"Distrito Ciudad de Godoy Cruz, Departamento Godoy Cruz, Mendoza, Argentina","address":{"city":"Distrito Ciudad de Godoy Cruz","county":"Departamento Godoy Cruz","state":"Mendoza","ISO3166-2-lvl4":"AR-M","country":"Argentina","country_code":"ar"},"population":191299,"osm_type":"relation","osm_id":2966988,"type":"administrative","location":[-68.8443678,-32.925302],"bbox":[-68.8530918,-32.9383087,-68.837612,-32.9024537]}}
{"name":"González Catán","display_name":"González Catán, Partido de La Matanza, Buenos Aires, Argentina","address":{"city":"González Catán","state_district":"Partido de La Matanza","state":"Buenos Aires","ISO3166-2-lvl4":"AR-B","country":"Argentina","country_code":"ar"},"population":190097,"osm_type":"node","osm_id":198451864,"type":"city","location":[-58.6480318,-34.769249],"bbox":[-58.8080318,-34.929249,-58.4880318,-34.609249],"border":{"name":"González Catán","display_name":"González Catán, Partido de La Matanza, Buenos Aires, 1759, Argentina","address":{"city":"González Catán","state_district":"Partido de La Matanza","state":"Buenos Aires","ISO3166-2-lvl4":"AR-B","postcode":"1759","country":"Argentina","country_code":"ar"},"population":190097,"osm_type":"relation","osm_id":1751004,"type":"administrative","location":[-58.6480318,-34.769249],"bbox":[-58.7038899,-34.8091773,-58.584212,-34.7223149]}}
{"name":"Gregorio de Laferrere","display_name":"Gregorio de Laferrere, Partido de La Matanza, Buenos Aires, Argentina","address":{"city":"Gregorio de Laferrere","state_district":"Partido de La Matanza","state":"Buenos Aires","ISO3166-2-lvl4":"AR-B","country":"Argentina","country_code":"ar"},"population":248522,"osm_type":"node","osm_id":198455541,"type":"city","location":[-58.5846362,-34.7504785],"bbox":[-58.7446362,-34.9104785,-58.4246362,-34.5904785],"border":{"name":"Gregorio de Laferrere","display_name":"Gregorio de Laferrere, Partido de La Matanza, Buenos Aires, 1757, Argentina","address":{"city":"Gregorio de Laferrere","state_district":"Partido de La Matanza","state":"Buenos Aires","ISO3166-2-lvl4":"AR-B","postcode":"1757","country":"Argentina","country_code":"ar"},"population":248522,"osm_type":"relation","osm_id":1747721,"type":"administrative","location":[-58.5846362,-34.7504785],"bbox":[-58.6291763,-34.7782883,-58.5531486,-34.7166816]}}
{"name":"Gualeguaychú","other_names":{"name:en":"Gualeguaychu"},"display_name":"Gualeguaychú, Distrito Costa Uruguay Sur, Departamento Gualeguaychú, Entre Ríos, Argentina","address":{"city":"Gualeguaychú","county":"Distrito Costa Uruguay Sur","state_district":"Departamento Gualeguaychú","state":"Entre Ríos","ISO3166-2-lvl4":"AR-E","country":"Argentina","country_code":"ar"},"population":209461,"osm_type":"node","osm_id":198451982,"type":"city","location":[-58.5109859,-33.0078908],"bbox":[-58.6709859,-33.1678908,-58.3509859,-32.8478908],"border":[{"name":"Gualeguaychú","other_names":{"name:es":"Gualeguaychú","name:en":"Gualeguaychu"},"display_name":"Gualeguaychú, Distrito Costa Uruguay Sur, Departamento Gualeguaychú, Entre Ríos, Argentina","address":{"city":"Gualeguaychú","county":"Distrito Costa Uruguay Sur","state_district":"Departamento Gualeguaychú","state":"Entre Ríos","ISO3166-2-lvl4":"AR-E","country":"Argentina","country_code":"ar"},"population":209461,"osm_type":"relation","osm_id":10752043,"type":"administrative","location":[-58.5109859,-33.0078908],"bbox":[-58.6249531,-33.074417,-58.4316043,-32.9738618]},{"name":"Límite de Ejido de Municipio de Gualeguaychú","other_names":{"name:es":"Límite de Ejido de Municipio de Gualeguaychú","name:en":"Gualeguaychu","alt":"Gualeguaychú"},"display_name":"Límite de Ejido de Municipio de Gualeguaychú, Distrito Costa Uruguay Sur, Departamento Gualeguaychú, Entre Ríos, Argentina","address":{"city":"Límite de Ejido de Municipio de Gualeguaychú","county":"Distrito Costa Uruguay Sur","state_district":"Departamento Gualeguaychú","state":"Entre Ríos","ISO3166-2-lvl4":"AR-E","country":"Argentina","country_code":"ar"},"population":209461,"osm_type":"relation","osm_id":2922122,"type":"administrative","location":[-58.5109859,-33.0078908],"bbox":[-58.6577534,-33.1072309,-58.1486338,-32.9532694]}]}
{"name":"Humedal","display_name":"Humedal, Caleta Olivia, Deseado, Santa Cruz, Z9011, Argentina","address":{"city":"Humedal","municipality":"Caleta Olivia","state_district":"Deseado","state":"Santa Cruz","ISO3166-2-lvl4":"AR-Z","postcode":"Z9011","country":"Argentina","country_code":"ar"},"population":23644,"osm_type":"relation","osm_id":3431103,"type":"administrative","location":[-67.55499510258028,-46.46000325],"bbox":[-67.5779494,-46.4827636,-67.5281849,-46.437552],"inferred_type":"city"}
{"name":"Isidro Casanova","display_name":"Isidro Casanova, Partido de La Matanza, Buenos Aires, Argentina","address":{"city":"Isidro Casanova","state_district":"Partido de La Matanza","state":"Buenos Aires","ISO3166-2-lvl4":"AR-B","country":"Argentina","country_code":"ar"},"population":186000,"osm_type":"node","osm_id":198453095,"type":"city","location":[-58.586236,-34.7036939],"bbox":[-58.746236,-34.8636939,-58.426236,-34.5436939],"border":{"name":"Isidro Casanova","display_name":"Isidro Casanova, Partido de La Matanza, Buenos Aires, 1675, Argentina","address":{"city":"Isidro Casanova","state_district":"Partido de La Matanza","state":"Buenos Aires","ISO3166-2-lvl4":"AR-B","postcode":"1675","country":"Argentina","country_code":"ar"},"population":186000,"osm_type":"relation","osm_id":1747769,"type":"administrative","location":[-58.586236,-34.7036939],"bbox":[-58.6161488,-34.7593019,-58.5356834,-34.6825483]}}
{"name":"Ituzaingó","display_name":"Ituzaingó, Partido de Ituzaingó, Buenos Aires, 1714, Argentina","address":{"city":"Ituzaingó","state_district":"Partido de Ituzaingó","state":"Buenos Aires","ISO3166-2-lvl4":"AR-B","postcode":"1714","country":"Argentina","country_code":"ar"},"population":104000,"osm_type":"node","osm_id":259299116,"type":"city","location":[-58.6671441,-34.6583293],"bbox":[-58.8271441,-34.8183293,-58.5071441,-34.4983293],"border":{"name":"Ituzaingó","display_name":"Ituzaingó, Partido de Ituzaingó, Buenos Aires, Argentina","address":{"city":"Ituzaingó","state_district":"Partido de Ituzaingó","state":"Buenos Aires","ISO3166-2-lvl4":"AR-B","country":"Argentina","country_code":"ar"},"population":104712,"osm_type":"relation","osm_id":2547591,"type":"administrative","location":[-58.6671441,-34.6583293],"bbox":[-58.717722,-34.6858622,-58.6535612,-34.6281676]}}
{"name":"José C. Paz","display_name":"José C. Paz, Partido de José C. Paz, Buenos Aires, Argentina","address":{"city":"José C. Paz","state_district":"Partido de José C. Paz","state":"Buenos Aires","ISO3166-2-lvl4":"AR-B","country":"Argentina","country_code":"ar"},"population":232030,"osm_type":"node","osm_id":198453659,"type":"city","location":[-58.7776777,-34.511906],"bbox":[-58.9376777,-34.671906,-58.6176777,-34.351906],"border":{"name":"José C. Paz","other_names":{"name:es":"José C. Paz","alt_name":"Ciudad de José C. Paz"},"display_name":"José C. Paz, Partido de José C. Paz, Buenos Aires, Argentina","address":{"city":"José C. Paz","state_district":"Partido de José C. Paz","state":"Buenos Aires","ISO3166-2-lvl4":"AR-B","country":"Argentina","country_code":"ar"},"population":232030,"osm_type":"relation","osm_id":16122547,"type":"administrative","location":[-58.7776777,-34.511906],"bbox":[-58.8238256,-34.5571588,-58.7210306,-34.451898]}}
{"name":"Junín","other_names":{"name:lt":"Chuninas"},"display_name":"Junín, Partido de Junín, Buenos Aires, B6000, Argentina","address":{"city":"Junín","state_district":"Partido de Junín","state":"Buenos Aires","ISO3166-2-lvl4":"AR-B","postcode":"B6000","country":"Argentina","country_code":"ar"},"population":101500,"osm_type":"node","osm_id":198453938,"type":"city","location":[-60.9461678,-34.5934412],"bbox":[-61.1061678,-34.7534412,-60.7861678,-34.4334412],"border":{"name":"Junín","other_names":{"name:es":"Junín","name:lt":"Chuninas"},"display_name":"Junín, Partido de Junín, Buenos Aires, Argentina","address":{"city":"Junín","state_district":"Partido de Junín","state":"Buenos Aires","ISO3166-2-lvl4":"AR-B","country":"Argentina","country_code":"ar"},"population":101500,"osm_type":"relation","osm_id":3443259,"type":"administrative","location":[-60.9461678,-34.5934412],"bbox":[-61.0114952,-34.6486936,-60.9056081,-34.5547583]}}
{"name":"La Banda","display_name":"La Banda, Municipio de La Banda, Departamento Banda, Santiago del Estero, G4300, Argentina","address":{"city":"La Banda","municipality":"Municipio de La Banda","state_district":"Departamento Banda","state":"Santiago del Estero","ISO3166-2-lvl4":"AR-G","postcode":"G4300","country":"Argentina","country_code":"ar"},"population":106441,"osm_type":"node","osm_id":198454502,"type":"city","location":[-64.2434402,-27.7357077],"bbox":[-64.4034402,-27.8957077,-64.0834402,-27.5757077],"border":{"name":"La Banda","display_name":"La Banda, Municipio de La Banda, Departamento Banda, Santiago del Estero, G4300, Argentina","address":{"city":"La Banda","municipality":"Municipio de La Banda","state_district":"Departamento Banda","state":"Santiago del Estero","ISO3166-2-lvl4":"AR-G","postcode":"G4300","country":"Argentina","country_code":"ar"},"population":106441,"osm_type":"relation","osm_id":3450256,"type":"administrative","location":[-64.2434402,-27.7357077],"bbox":[-64.277192,-27.7641889,-64.21148,-27.706811]}}
{"name":"La Lucila del Mar","other_names":{"name:es":"La Lucila del Mar","alt_name":"La Lucila"},"display_name":"La Lucila del Mar, Partido de La Costa, Buenos Aires, Argentina","address":{"city":"La Lucila del Mar","state_district":"Partido de La Costa","state":"Buenos Aires","ISO3166-2-lvl4":"AR-B","country":"Argentina","country_code":"ar"},"osm_type":"relation","osm_id":3443506,"type":"administrative","location":[-56.69280171139002,-36.65844425],"bbox":[-56.7065465,-36.6682425,-56.6783991,-36.6485675],"inferred_type":"city"}
{"name":"La Plata","other_names":{"name:ar":"لابلاتا","name:de":"La Plata"},"display_name":"La Plata, Partido de La Plata, Buenos Aires, Argentina","address":{"city":"La Plata","state_district":"Partido de La Plata","state":"Buenos Aires","ISO3166-2-lvl4":"AR-B","country":"Argentina","country_code":"ar"},"population":799523,"osm_type":"node","osm_id":247782633,"type":"city","location":[-57.9537638,-34.9206797],"bbox":[-58.1137638,-35.0806797,-57.7937638,-34.7606797],"border":{"name":"La Plata","other_names":{"name:ar":"لابلاتا","name:es":"La Plata","name:de":"La Plata"},"display_name":"La Plata, Partido de La Plata, Buenos Aires, Argentina","address":{"city":"La Plata","state_district":"Partido de La Plata","state":"Buenos Aires","ISO3166-2-lvl4":"AR-B","country":"Argentina","country_code":"ar"},"population":193144,"osm_type":"relation","osm_id":3266014,"type":"administrative","location":[-57.9537638,-34.9206797],"bbox":[-57.9940849,-34.9539303,-57.9131216,-34.8875541]}}
{"name":"La Rioja","other_names":{"name:el":"Λα Ριόχα","name:en":"La Rioja","name:he":"לה ריוחה","name:ru":"Ла-Риоха","name:uk":"Ла-Ріоха"},"display_name":"La Rioja, Departamento Capital, La Rioja, Argentina","address":{"city":"La Rioja","state_district":"Departamento Capital","state":"La Rioja","ISO3166-2-lvl4":"AR-F","country":"Argentina","country_code":"ar"},"population":180219,"osm_type":"node","osm_id":198457801,"type":"city","location":[-66.8558795,-29.4127411],"bbox":[-67.0158795,-29.5727411,-66.6958795,-29.2527411],"border":{"name":"La Rioja","other_names":{"name:el":"Λα Ριόχα","name:es":"La Rioja","name:en":"La Rioja","name:he":"לה ריוחה","name:ru":"Ла-Риоха","name:uk":"Ла-Ріоха"},"display_name":"La Rioja, Departamento Capital, La Rioja, F5300, Argentina","address":{"city":"La Rioja","state_district":"Departamento Capital","state":"La Rioja","ISO3166-2-lvl4":"AR-F","postcode":"F5300","country":"Argentina","country_code":"ar"},"population":180219,"osm_type":"relation","osm_id":3302082,"type":"administrative","location":[-66.8558795,-29.4127411],"bbox":[-66.9320473,-29.4803328,-66.7766151,-29.3795581]}}
{"name":"Lanús Este","display_name":"Lanús Este, Partido de Lanús, Buenos Aires, Argentina","address":{"city":"Lanús Este","state":"Buenos Aires","ISO3166-2-lvl4":"AR-B","country":"Argentina","country_code":"ar"},"population":212152,"osm_type":"node","osm_id":2982738233,"type":"city","location":[-58.3742103,-34.7109137],"bbox":[-58.5342103,-34.8709137,-58.2142103,-34.5509137],"border":[{"name":"Partido de Lanús","other_names":{"name:es":"Partido de Lanús","alt":"Lanús Este"},"display_name":"Partido de Lanús, Buenos Aires, Argentina","address":{"city":"Partido de Lanús","state":"Buenos Aires","ISO3166-2-lvl4":"AR-B","country":"Argentina","country_code":"ar"},"population":453500,"osm_type":"relation","osm_id":1421519,"type":"administrative","location":[-58.3742103,-34.7109137],"bbox":[-58.4468469,-34.7455196,-58.3334806,-34.6587871]},{"name":"Lanús Este","display_name":"Lanús Este, Partido de Lanús, Buenos Aires, Argentina","address":{"city":"Lanús Este","state":"Buenos Aires","ISO3166-2-lvl4":"AR-B","country":"Argentina","country_code":"ar"},"population":212152,"osm_type":"relation","osm_id":2546216,"type":"administrative","location":[-58.3742103,-34.7109137],"bbox":[-58.3923644,-34.7259955,-58.3507629,-34.6945173]}]}
{"name":"Lanús Oeste","display_name":"Lanús Oeste, Partido de Lanús, Buenos Aires, Argentina","address":{"city":"Lanús Oeste","state":"Buenos Aires","ISO3166-2-lvl4":"AR-B","country":"Argentina","country_code":"ar"},"population":212152,"osm_type":"node","osm_id":316535403,"type":"city","location":[-58.400512,-34.7035417],"bbox":[-58.560512,-34.8635417,-58.240512,-34.5435417],"border":{"name":"Lanús Oeste","display_name":"Lanús Oeste, Partido de Lanús, Buenos Aires, 1824, Argentina","address":{"city":"Lanús Oeste","state":"Buenos Aires","ISO3166-2-lvl4":"AR-B","postcode":"1824","country":"Argentina","country_code":"ar"},"population":212152,"osm_type":"relation","osm_id":2546263,"type":"administrative","location":[-58.400512,-34.7035417],"bbox":[-58.4468469,-34.7202351,-58.3859603,-34.6703152]}}
{"name":"Lanús","other_names":{"alt_name":"Lanús Centro"},"display_name":"Lanús, Lanús Centro Oeste, Lanús Oeste, Partido de Lanús, Buenos Aires, Argentina","address":{"city":"Lanús","state":"Buenos Aires","ISO3166-2-lvl4":"AR-B","country":"Argentina","country_code":"ar"},"population":459263,"osm_type":"node","osm_id":2800223485,"type":"city","location":[-58.3953235,-34.7033363],"bbox":[-58.5553235,-34.8633363,-58.2353235,-34.5433363],"border":{"name":"Lanús Centro Oeste","other_names":{"name:es":"Lanús Centro Oeste","alt_name":"Lanús Centro","alt":"Lanús"},"display_name":"Lanús Centro Oeste, Lanús Oeste, Partido de Lanús, Buenos Aires, 1824, Argentina","address":{"city":"Lanús Centro Oeste","state":"Buenos Aires","ISO3166-2-lvl4":"AR-B","postcode":"1824","country":"Argentina","country_code":"ar"},"population":459263,"osm_type":"relation","osm_id":3664189,"type":"administrative","location":[-58.3953235,-34.7033363],"bbox":[-58.4047605,-34.7083029,-58.3884705,-34.6959359]}}
{"name":"Libertad","display_name":"Libertad, Partido de Merlo, Buenos Aires, Argentina","address":{"city":"Libertad","state_district":"Partido de Merlo","state":"Buenos Aires","ISO3166-2-lvl4":"AR-B","country":"Argentina","country_code":"ar"},"population":100324,"osm_type":"node","osm_id":198397213,"type":"city","location":[-58.6834869,-34.7003704],"bbox":[-58.8434869,-34.8603704,-58.5234869,-34.5403704],"border":{"name":"Libertad","display_name":"Libertad, Partido de Merlo, Buenos Aires, 1716, Argentina","address":{"city":"Libertad","state_district":"Partido de Merlo","state":"Buenos Aires","ISO3166-2-lvl4":"AR-B","postcode":"1716","country":"Argentina","country_code":"ar"},"population":100324,"osm_type":"relation","osm_id":2544821,"type":"administrative","location":[-58.6834869,-34.7003704],"bbox":[-58.7217882,-34.7471069,-58.6362089,-34.6781751]}}
{"name":"Lomas de Zamora","display_name":"Lomas de Zamora, Partido de Lomas de Zamora, Buenos Aires, Argentina","address":{"city":"Lomas de Zamora","state_district":"Partido de Lomas de Zamora","state":"Buenos Aires","ISO3166-2-lvl4":"AR-B","country":"Argentina","country_code":"ar"},"population":112580,"osm_type":"node","osm_id":198397903,"type":"city","location":[-58.4026638,-34.7572582],"bbox":[-58.5626638,-34.9172582,-58.2426638,-34.5972582],"border":{"name":"Lomas de Zamora","display_name":"Lomas de Zamora, Partido de Lomas de Zamora, Buenos Aires, Argentina","address":{"city":"Lomas de Zamora","state_district":"Partido de Lomas de Zamora","state":"Buenos Aires","ISO3166-2-lvl4":"AR-B","country":"Argentina","country_code":"ar"},"population":616279,"osm_type":"relation","osm_id":2537822,"type":"administrative","location":[-58.4026638,-34.7572582],"bbox":[-58.4693397,-34.7809608,-58.3700836,-34.7445034]}}
{"name":"Madroñal","display_name":"Madroñal, Caleta Olivia, Deseado, Santa Cruz, Argentina","address":{"city":"Madroñal","municipality":"Caleta Olivia","state_district":"Deseado","state":"Santa Cruz","ISO3166-2-lvl4":"AR-Z","country":"Argentina","country_code":"ar"},"population":6,"osm_type":"relation","osm_id":5576217,"type":"administrative","location":[-67.60544837839943,-46.40335075],"bbox":[-67.676118,-46.4381431,-67.5219867,-46.3686488],"inferred_type":"city"}
{"name":"Maipú","display_name":"Maipú, Distrito Ciudad de Maipú, Departamento Maipú, Mendoza, Argentina","address":{"city":"Maipú","county":"Departamento Maipú","state":"Mendoza","ISO3166-2-lvl4":"AR-M","country":"Argentina","country_code":"ar"},"population":106662,"osm_type":"node","osm_id":5923277020,"type":"city","location":[-68.7879502,-32.9836929],"bbox":[-68.9479502,-33.1436929,-68.6279502,-32.8236929],"border":[{"name":"Distrito Ciudad de Maipú","other_names":{"name:es":"Distrito Ciudad de Maipú","alt":"Maipú"},"display_name":"Distrito Ciudad de Maipú, Departamento Maipú, Mendoza, Argentina","address":{"city":"Distrito Ciudad de Maipú","county":"Departamento Maipú","state":"Mendoza","ISO3166-2-lvl4":"AR-M","country":"Argentina","country_code":"ar"},"population":106662,"osm_type":"relation","osm_id":2961243,"type":"administrative","location":[-68.7879502,-32.9836929],"bbox":[-68.8334193,-33.0026115,-68.7697776,-32.960316]},{"name":"Maipú","display_name":"Maipú, Departamento Maipú, Mendoza, Argentina","address":{"city":"Maipú","county":"Departamento Maipú","state":"Mendoza","ISO3166-2-lvl4":"AR-M","country":"Argentina","country_code":"ar"},"osm_type":"way","osm_id":637217963,"type":"administrative","location":[-68.79350240289443,-32.96609465],"bbox":[-68.8338706,-33.0051962,-68.7362679,-32.9273796]}]}
{"name":"Mar del Plata","other_names":{"name:ar":"مار ديل بلاتا","name:en":"Mar del Plata","name:ru":"Мар-дель-Плата","name:uk":"Мар-дель-Плата","alt_name:ar":"مار دل بلاتا;ماريه ديل بلاتا","name:zh-Hans":"马德普拉塔","name:zh-Hant":"馬德普拉塔"},"display_name":"Mar del Plata, Partido de General Pueyrredón, Buenos Aires, Argentina","address":{"city":"Mar del Plata","state_district":"Partido de General Pueyrredón","state":"Buenos Aires","ISO3166-2-lvl4":"AR-B","country":"Argentina","country_code":"ar"},"population":664892,"osm_type":"node","osm_id":198402188,"type":"city","location":[-57.5482079,-37.9976168],"bbox":[-57.7082079,-38.1576168,-57.3882079,-37.8376168],"border":{"name":"Mar del Plata","other_names":{"name:ar":"مار ديل بلاتا","name:es":"Mar del Plata","alt_name:ar":"مار دل بلاتا;ماريه ديل بلاتا","name:en":"Mar del Plata","name:ru":"Мар-дель-Плата","name:uk":"Мар-дель-Плата","name:zh-Hans":"马德普拉塔","name:zh-Hant":"馬德普拉塔"},"display_name":"Mar del Plata, Partido de General Pueyrredón, Buenos Aires, Argentina","address":{"city":"Mar del Plata","state_district":"Partido de General Pueyrredón","state":"Buenos Aires","ISO3166-2-lvl4":"AR-B","country":"Argentina","country_code":"ar"},"population":593337,"osm_type":"relation","osm_id":3402727,"type":"administrative","location":[-57.5482079,-37.9976168],"bbox":[-57.6591066,-38.1337395,-57.5177864,-37.9039649]}}
{"name":"Mendoza","other_names":{"name:ar":"مندوزا","name:ay":"Mendoza","name:be":"Мендоса","name:bg":"Мендоса","name:br":"Mendoza","name:cs":"Mendoza","name:de":"Mendoza","name:el":"Μεντόζα","name:en":"Mendoza","name:eo":"Mendozo","name:eu":"Mendoza","name:fa":"مندوسا","name:fr":"Mendoza","name:gl":"Mendoza","name:he":"מנדוסה","name:hi":"मेन्दोज़ा","name:hy":"Մենդոսա","name:id":"Mendoza","name:ie":"Mendoza","name:io":"Mendoza","name:it":"Mendoza","name:ja":"メンドーサ","name:ka":"მენდოსა","name:ko":"멘도사","name:la":"Mendoza","name:lt":"Mendosa","name:lv":"Mendosa","name:mi":"Mendoza","name:mn":"Мендоза","name:nl":"Mendoza","name:oc":"Mendoza","name:os":"Мендосæ","name:pl":"Mendoza","name:ru":"Мендоса","name:sk":"Mendoza","name:sr":"Мендоза","name:ta":"மெண்டோசா","name:th":"เมนโดซา","name:tl":"Mendoza","name:tr":"Mendoza","name:tt":"Мендоса","name:uk":"Мендоса","name:ur":"مندوسا","name:vi":"Mendoza","name:vo":"Mendoza","name:zh":"门多萨","name:zh-Hans":"门多萨","name:zh-Hant":"門多薩"},"display_name":"Mendoza, Ciudad de Mendoza, Sección 2ª Barrio Cívico, Departamento Capital, Mendoza, Argentina","address":{"city":"Mendoza","county":"Sección 2ª Barrio Cívico","state_district":"Departamento Capital","state":"Mendoza","ISO3166-2-lvl4":"AR-M","country":"Argentina","country_code":"ar"},"population":937154,"osm_type":"node","osm_id":198403560,"type":"city","location":[-68.8446177,-32.8894155],"bbox":[-69.0046177,-33.0494155,-68.6846177,-32.7294155],"border":{"name":"Ciudad de Mendoza","other_names":{"name:es":"Ciudad de Mendoza","name:ar":"مندوزا","name:ay":"Mendoza","name:be":"Мендоса","name:bg":"Мендоса","name:br":"Mendoza","name:cs":"Mendoza","name:de":"Mendoza","name:el":"Μεντόζα","name:en":"Mendoza","name:eo":"Mendozo","name:eu":"Mendoza","name:fa":"مندوسا","name:fr":"Mendoza","name:gl":"Mendoza","name:he":"מנדוסה","name:hi":"मेन्दोज़ा","name:hy":"Մենդոսա","name:id":"Mendoza","name:ie":"Mendoza","name:io":"Mendoza","name:it":"Mendoza","name:ja":"メンドーサ","name:ka":"მენდოსა","name:ko":"멘도사","name:la":"Mendoza","name:lt":"Mendosa","name:lv":"Mendosa","name:mi":"Mendoza","name:mn":"Мендоза","name:nl":"Mendoza","name:oc":"Mendoza","name:os":"Мендосæ","name:pl":"Mendoza","name:ru":"Мендоса","name:sk":"Mendoza","name:sr":"Мендоза","name:ta":"மெண்டோசா","name:th":"เมนโดซา","name:tl":"Mendoza","name:tr":"Mendoza","name:tt":"Мендоса","name:uk":"Мендоса","name:ur":"مندوسا","name:vi":"Mendoza","name:vo":"Mendoza","name:zh":"门多萨","name:zh-Hans":"门多萨","name:zh-Hant":"門多薩","alt":"Mendoza"},"display_name":"Ciudad de Mendoza, Sección 2ª Barrio Cívico, Departamento Capital, Mendoza, Argentina","address":{"city":"Ciudad de Mendoza","county":"Sección 2ª Barrio Cívico","state_district":"Departamento Capital","state":"Mendoza","ISO3166-2-lvl4":"AR-M","country":"Argentina","country_code":"ar"},"population":937154,"osm_type":"relation","osm_id":4206710,"type":"administrative","location":[-68.8446177,-32.8894155],"bbox":[-69.0902178,-32.9046319,-68.8172396,-32.8620161]}}
{"name":"Mercado de la Ciudad","display_name":"Mercado de la Ciudad, Caleta Olivia, Deseado, Santa Cruz, 9011, Argentina","address":{"city":"Mercado de la Ciudad","municipality":"Caleta Olivia","state_district":"Deseado","state":"Santa Cruz","ISO3166-2-lvl4":"AR-Z","postcode":"9011","country":"Argentina","country_code":"ar"},"population":9450,"osm_type":"relation","osm_id":3431101,"type":"administrative","location":[-67.52021671692896,-46.444165999999996],"bbox":[-67.5372139,-46.4560386,-67.5026648,-46.4323136],"inferred_type":"city"}
{"name":"Merlo","other_names":{"name:uk":"Мерло"},"display_name":"Merlo, Partido de Merlo, Buenos Aires, B1722, Argentina","address":{"city":"Merlo","state_district":"Partido de Merlo","state":"Buenos Aires","ISO3166-2-lvl4":"AR-B","postcode":"B1722","country":"Argentina","country_code":"ar"},"population":134581,"osm_type":"node","osm_id":198403651,"type":"city","location":[-58.7321695,-34.6604988],"bbox":[-58.8921695,-34.8204988,-58.5721695,-34.5004988],"border":{"name":"Merlo","other_names":{"name:es":"Merlo","name:uk":"Мерло"},"display_name":"Merlo, Partido de Merlo, Buenos Aires, Argentina","address":{"city":"Merlo","state_district":"Partido de Merlo","state":"Buenos Aires","ISO3166-2-lvl4":"AR-B","country":"Argentina","country_code":"ar"},"population":134581,"osm_type":"relation","osm_id":2539434,"type":"administrative","location":[-58.7321695,-34.6604988],"bbox":[-58.8051799,-34.6981639,-58.70136,-34.634711]}}
{"name":"Mirador","display_name":"Mirador, Caleta Olivia, Deseado, Santa Cruz, Argentina","address":{"city":"Mirador","municipality":"Caleta Olivia","state_district":"Deseado","state":"Santa Cruz","ISO3166-2-lvl4":"AR-Z","country":"Argentina","country_code":"ar"},"population":6911,"osm_type":"relation","osm_id":3431102,"type":"administrative","location":[-67.53021152693628,-46.4336827],"bbox":[-67.5422214,-46.445319,-67.51426,-46.4222346],"inferred_type":"city","border":{"name":"Mirador","display_name":"Mirador, Caleta Olivia, Deseado, Santa Cruz, Argentina","address":{"city_district":"Mirador","city":"Mirador","municipality":"Caleta Olivia","state_district":"Deseado","state":"Santa Cruz","ISO3166-2-lvl4":"AR-Z","country":"Argentina","country_code":"ar"},"population":444,"osm_type":"relation","osm_id":3769352,"type":"administrative","location":[-67.53156995493273,-46.43705885],"bbox":[-67.5399509,-46.4431208,-67.5246257,-46.431016]}}
{"name":"Monte Grande","display_name":"Monte Grande, Partido de Esteban Echeverría, Buenos Aires, Argentina","address":{"city":"Monte Grande","state_district":"Partido de Esteban Echeverría","state":"Buenos Aires","ISO3166-2-lvl4":"AR-B","country":"Argentina","country_code":"ar"},"population":140420,"osm_type":"node","osm_id":198404846,"type":"city","location":[-58.4664257,-34.8192731],"bbox":[-58.6264257,-34.9792731,-58.3064257,-34.6592731],"border":{"name":"Monte Grande","display_name":"Monte Grande, Partido de Esteban Echeverría, Buenos Aires, Argentina","address":{"city":"Monte Grande","state_district":"Partido de Esteban Echeverría","state":"Buenos Aires","ISO3166-2-lvl4":"AR-B","country":"Argentina","country_code":"ar"},"population":109644,"osm_type":"relation","osm_id":2546842,"type":"administrative","location":[-58.4664257,-34.8192731],"bbox":[-58.5143035,-34.9010855,-58.4130215,-34.779566]}}
{"name":"Moreno","other_names":{"name:ru":"Морено","alt_name":"Mariano Moreno"},"display_name":"Moreno, Partido de Moreno, Buenos Aires, Argentina","address":{"city":"Moreno","state_district":"Partido de Moreno","state":"Buenos Aires","ISO3166-2-lvl4":"AR-B","country":"Argentina","country_code":"ar"},"population":169506,"osm_type":"node","osm_id":1215663604,"type":"city","location":[-58.7898326,-34.6396556],"bbox":[-58.9498326,-34.7996556,-58.6298326,-34.4796556],"border":{"name":"Moreno","other_names":{"name:eo":"Moreno","name:es":"Moreno","alt_name":"Ciudad de Moreno","name:ru":"Морено","_place_alt_name":"Mariano Moreno"},"display_name":"Moreno, Partido de Moreno, Buenos Aires, Argentina","address":{"city":"Moreno","state_district":"Partido de Moreno","state":"Buenos Aires","ISO3166-2-lvl4":"AR-B","country":"Argentina","country_code":"ar"},"population":149317,"osm_type":"relation","osm_id":2461625,"type":"administrative","location":[-58.7898326,-34.6396556],"bbox":[-58.8311825,-34.6850999,-58.7567541,-34.5881424]}}
{"name":"Morón","display_name":"Morón, Partido de Morón, Buenos Aires, Argentina","address":{"city":"Morón","state_district":"Partido de Morón","state":"Buenos Aires","ISO3166-2-lvl4":"AR-B","country":"Argentina","country_code":"ar"},"population":122642,"osm_type":"node","osm_id":198405191,"type":"city","location":[-58.6217416,-34.6510527],"bbox":[-58.7817416,-34.8110527,-58.4617416,-34.4910527],"border":{"name":"Morón","display_name":"Morón, Partido de Morón, Buenos Aires, Argentina","address":{"city":"Morón","state_district":"Partido de Morón","state":"Buenos Aires","ISO3166-2-lvl4":"AR-B","country":"Argentina","country_code":"ar"},"population":122642,"osm_type":"relation","osm_id":2014607,"type":"administrative","location":[-58.6217416,-34.6510527],"bbox":[-58.6395399,-34.7007725,-58.5934831,-34.6367673]}}
{"name":"Neuquén","other_names":{"name:el":"Νεουκέν","name:en":"Neuquén","name:he":"נאוקן","name:ru":"Неукен","name:uk":"Неукен","name:zh":"内乌肯"},"display_name":"Neuquén, Municipio de Neuquén, Departamento Confluencia, Neuquén, Argentina","address":{"city":"Neuquén","state_district":"Departamento Confluencia","state":"Neuquén","ISO3166-2-lvl4":"AR-Q","country":"Argentina","country_code":"ar"},"population":288896,"osm_type":"node","osm_id":198406387,"type":"city","location":[-68.0591741,-38.9519679],"bbox":[-68.2191741,-39.1119679,-67.8991741,-38.7919679],"border":[{"name":"Municipio de Neuquén","other_names":{"name:es":"Municipio de Neuquén","name:el":"Νεουκέν","name:en":"Neuquén","name:he":"נאוקן","name:ru":"Неукен","name:uk":"Неукен","name:zh":"内乌肯","alt":"Neuquén"},"display_name":"Municipio de Neuquén, Departamento Confluencia, Neuquén, Argentina","address":{"city":"Municipio de Neuquén","state_district":"Departamento Confluencia","state":"Neuquén","ISO3166-2-lvl4":"AR-Q","country":"Argentina","country_code":"ar"},"population":288896,"osm_type":"relation","osm_id":3201700,"type":"administrative","location":[-68.0591741,-38.9519679],"bbox":[-68.3861854,-38.996078,-67.9962632,-38.7035235]},{"name":"Neuquén","other_names":{"name:es":"Neuquén","name:el":"Νεουκέν","name:en":"Neuquén","name:he":"נאוקן","name:ru":"Неукен","name:uk":"Неукен","name:zh":"内乌肯"},"display_name":"Neuquén, Municipio de Neuquén, Departamento Confluencia, Neuquén, Argentina","address":{"city":"Neuquén","state_district":"Departamento Confluencia","state":"Neuquén","ISO3166-2-lvl4":"AR-Q","country":"Argentina","country_code":"ar"},"population":288896,"osm_type":"relation","osm_id":2684608,"type":"administrative","location":[-68.0591741,-38.9519679],"bbox":[-68.2019229,-38.9956359,-67.9986695,-38.8814838]}]}
{"name":"Olavarría","other_names":{"name:el":"Ολαβαρρία","name:es":"Olavarría"},"display_name":"Olavarría, Partido de Olavarría, Buenos Aires, B7400, Argentina","address":{"city":"Olavarría","state_district":"Partido de Olavarría","state":"Buenos Aires","ISO3166-2-lvl4":"AR-B","postcode":"B7400","country":"Argentina","country_code":"ar"},"population":102907,"osm_type":"node","osm_id":198407463,"type":"city","location":[-60.3231676,-36.8938752],"bbox":[-60.4831676,-37.0538752,-60.1631676,-36.7338752]}
{"name":"Paraná","other_names":{"name:el":"Παρανά","name:es":"Paraná","name:he":"פרנה"},"display_name":"Paraná, Municipio de Paraná, Distrito Sauce, Departamento Paraná, Entre Ríos, Argentina","address":{"city":"Paraná","municipality":"Municipio de Paraná","county":"Distrito Sauce","state_district":"Departamento Paraná","state":"Entre Ríos","ISO3166-2-lvl4":"AR-E","country":"Argentina","country_code":"ar"},"population":247863,"osm_type":"node","osm_id":198409278,"type":"city","location":[-60.5298511,-31.7330145],"bbox":[-60.6898511,-31.8930145,-60.3698511,-31.5730145],"border":{"name":"Paraná","other_names":{"name:es":"Paraná","name:el":"Παρανά","name:he":"פרנה"},"display_name":"Paraná, Municipio de Paraná, Distrito Sauce, Departamento Paraná, Entre Ríos, Argentina","address":{"city":"Paraná","municipality":"Municipio de Paraná","county":"Distrito Sauce","state_district":"Departamento Paraná","state":"Entre Ríos","ISO3166-2-lvl4":"AR-E","country":"Argentina","country_code":"ar"},"population":247863,"osm_type":"relation","osm_id":2879942,"type":"administrative","location":[-60.5298511,-31.7330145],"bbox":[-60.5934841,-31.8041253,-60.3911504,-31.6874361]}}
{"name":"Parque San Martín","display_name":"Parque San Martín, Partido de Merlo, Buenos Aires, Argentina","address":{"city":"Parque San Martín","state_district":"Partido de Merlo","state":"Buenos Aires","ISO3166-2-lvl4":"AR-B","country":"Argentina","country_code":"ar"},"population":115183,"osm_type":"node","osm_id":1998944870,"type":"city","location":[-58.7426599,-34.6940266],"bbox":[-58.9026599,-34.8540266,-58.5826599,-34.5340266],"border":{"name":"Parque San Martín","display_name":"Parque San Martín, Partido de Merlo, Buenos Aires, Argentina","address":{"city":"Parque San Martín","state_district":"Partido de Merlo","state":"Buenos Aires","ISO3166-2-lvl4":"AR-B","country":"Argentina","country_code":"ar"},"population":115183,"osm_type":"relation","osm_id":2539565,"type":"administrative","location":[-58.7426599,-34.6940266],"bbox":[-58.7733123,-34.7161325,-58.7030834,-34.66888]}}
{"name":"Pergamino","display_name":"Pergamino, Partido de Pergamino, Buenos Aires, Argentina","address":{"city":"Pergamino","state_district":"Partido de Pergamino","state":"Buenos Aires","ISO3166-2-lvl4":"AR-B","country":"Argentina","country_code":"ar"},"population":104086,"osm_type":"node","osm_id":198410145,"type":"city","location":[-60.575046,-33.897495],"bbox":[-60.735046,-34.057495,-60.415046,-33.737495],"border":{"name":"Pergamino","display_name":"Pergamino, Partido de Pergamino, Buenos Aires, Argentina","address":{"city":"Pergamino","state_district":"Partido de Pergamino","state":"Buenos Aires","ISO3166-2-lvl4":"AR-B","country":"Argentina","country_code":"ar"},"population":104086,"osm_type":"relation","osm_id":12320149,"type":"administrative","location":[-60.575046,-33.897495],"bbox":[-60.6385438,-33.9312902,-60.5057342,-33.8528896]}}
{"name":"Posadas","other_names":{"name:ar":"بوساداس","name:bg":"Посадас","name:el":"Ποσάδας","name:en":"Posadas","name:eo":"Posadas","name:fa":"پوساداس","name:fr":"Posadas","name:he":"פוסאדאס","name:hy":"Պոսադաս","name:id":"Posadas","name:it":"Posadas","name:ja":"ポサーダス","name:ka":"პოსადასი","name:ko":"포사다스","name:lt":"Posadasas","name:lv":"Posadasa","name:nl":"Posadas","name:pt":"Posadas","name:ru":"Посадас","name:sr":"Посадас","name:uk":"Посадас","name:ur":"پاساداس","name:vi":"Posadas","name:zh":"波萨达斯","old_name":"Trincheras de San José"},"display_name":"Posadas, Municipio de Posadas, Departamento Capital, Misiones, Argentina","address":{"city":"Posadas","state_district":"Departamento Capital","state":"Misiones","ISO3166-2-lvl4":"AR-N","country":"Argentina","country_code":"ar"},"population":277564,"osm_type":"node","osm_id":198411639,"type":"city","location":[-55.894295,-27.3664824],"bbox":[-56.054295,-27.5264824,-55.734295,-27.2064824],"border":[{"name":"Municipio de Posadas","other_names":{"name:es":"Municipio de Posadas","name:ar":"بوساداس","name:bg":"Посадас","name:el":"Ποσάδας","name:en":"Posadas","name:eo":"Posadas","name:fa":"پوساداس","name:fr":"Posadas","name:he":"פוסאדאס","name:hy":"Պոսադաս","name:id":"Posadas","name:it":"Posadas","name:ja":"ポサーダス","name:ka":"პოსადასი","name:ko":"포사다스","name:lt":"Posadasas","name:lv":"Posadasa","name:nl":"Posadas","name:pt":"Posadas","name:ru":"Посадас","name:sr":"Посадас","name:uk":"Посадас","name:ur":"پاساداس","name:vi":"Posadas","name:zh":"波萨达斯","old_name":"Trincheras de San José","alt":"Posadas"},"display_name":"Municipio de Posadas, Departamento Capital, Misiones, Argentina","address":{"city":"Municipio de Posadas","state_district":"Departamento Capital","state":"Misiones","ISO3166-2-lvl4":"AR-N","country":"Argentina","country_code":"ar"},"population":277564,"osm_type":"relation","osm_id":3195717,"type":"administrative","location":[-55.894295,-27.3664824],"bbox":[-56.0585754,-27.5824123,-55.8395485,-27.3242585]},{"name":"Posadas","display_name":"Posadas, Municipio de Posadas, Departamento Capital, Misiones, Argentina","address":{"city_district":"Posadas","city":"Municipio de Posadas","state_district":"Departamento Capital","state":"Misiones","ISO3166-2-lvl4":"AR-N","country":"Argentina","country_code":"ar"},"osm_type":"relation","osm_id":2294383,"type":"administrative","location":[-55.949711812781445,-27.4035083],"bbox":[-56.0206121,-27.46391,-55.8617408,-27.3423491]}]}
{"name":"Puerto Madryn","other_names":{"name:cy":"Porth Madryn","name:ru":"Пуэрто-Мадрин"},"display_name":"Puerto Madryn, Municipio de Puerto Madryn, Departamento Biedma, Chubut, U9120, Argentina","address":{"city":"Puerto Madryn","state_district":"Departamento Biedma","state":"Chubut","ISO3166-2-lvl4":"AR-U","postcode":"U9120","country":"Argentina","country_code":"ar"},"population":102143,"osm_type":"node","osm_id":198413971,"type":"city","location":[-65.0365942,-42.7673414],"bbox":[-65.1965942,-42.9273414,-64.8765942,-42.6073414],"border":{"name":"Municipio de Puerto Madryn","other_names":{"name:es":"Municipio de Puerto Madryn","name:cy":"Porth Madryn","name:ru":"Пуэрто-Мадрин","alt":"Puerto Madryn"},"display_name":"Municipio de Puerto Madryn, Departamento Biedma, Chubut, U9120, Argentina","address":{"city":"Municipio de Puerto Madryn","state_district":"Departamento Biedma","state":"Chubut","ISO3166-2-lvl4":"AR-U","postcode":"U9120","country":"Argentina","country_code":"ar"},"population":102143,"osm_type":"relation","osm_id":3410340,"type":"administrative","location":[-65.0365942,-42.7673414],"bbox":[-65.208718,-42.8768922,-64.786157,-42.5730253]}}
{"name":"Quilmes","other_names":{"name:en":"Quilmes"},"display_name":"Quilmes, Partido de Quilmes, Buenos Aires, Argentina","address":{"city":"Quilmes","state_district":"Partido de Quilmes","state":"Buenos Aires","ISO3166-2-lvl4":"AR-B","country":"Argentina","country_code":"ar"},"population":230810,"osm_type":"node","osm_id":198415358,"type":"city","location":[-58.268868,-34.7303025],"bbox":[-58.428868,-34.8903025,-58.108868,-34.5703025],"border":{"name":"Quilmes","other_names":{"name:es":"Quilmes","name:en":"Quilmes"},"display_name":"Quilmes, Partido de Quilmes, Buenos Aires, Argentina","address":{"city":"Quilmes","state_district":"Partido de Quilmes","state":"Buenos Aires","ISO3166-2-lvl4":"AR-B","country":"Argentina","country_code":"ar"},"population":230810,"osm_type":"relation","osm_id":2067960,"type":"administrative","location":[-58.268868,-34.7303025],"bbox":[-58.3392803,-34.772409,-58.2056183,-34.6969114]}}
{"name":"Rafael Castillo","display_name":"Rafael Castillo, Partido de La Matanza, Buenos Aires, Argentina","address":{"city":"Rafael Castillo","state_district":"Partido de La Matanza","state":"Buenos Aires","ISO3166-2-lvl4":"AR-B","country":"Argentina","country_code":"ar"},"population":147965,"osm_type":"node","osm_id":198415538,"type":"city","location":[-58.6308765,-34.6996518],"bbox":[-58.7908765,-34.8596518,-58.4708765,-34.5396518],"border":{"name":"Rafael Castillo","display_name":"Rafael Castillo, Partido de La Matanza, Buenos Aires, Argentina","address":{"city":"Rafael Castillo","state_district":"Partido de La Matanza","state":"Buenos Aires","ISO3166-2-lvl4":"AR-B","country":"Argentina","country_code":"ar"},"population":147965,"osm_type":"relation","osm_id":1747751,"type":"administrative","location":[-58.6308765,-34.6996518],"bbox":[-58.6495898,-34.7426444,-58.6004584,-34.6833655]}}
{"name":"Rafaela","other_names":{"name:el":"Ραφαέλα"},"display_name":"Rafaela, Municipio de Rafaela, Departamento Castellanos, Santa Fe, Argentina","address":{"city":"Rafaela","municipality":"Municipio de Rafaela","state_district":"Departamento Castellanos","state":"Santa Fe","ISO3166-2-lvl4":"AR-S","country":"Argentina","country_code":"ar"},"population":101471,"osm_type":"node","osm_id":1598916455,"type":"city","location":[-61.4916758,-31.2526923],"bbox":[-61.6516758,-31.4126923,-61.3316758,-31.0926923],"border":{"name":"Rafaela","other_names":{"name:es":"Rafaela","name:el":"Ραφαέλα"},"display_name":"Rafaela, Municipio de Rafaela, Departamento Castellanos, Santa Fe, S2300, Argentina","address":{"city":"Rafaela","municipality":"Municipio de Rafaela","state_district":"Departamento Castellanos","state":"Santa Fe","ISO3166-2-lvl4":"AR-S","postcode":"S2300","country":"Argentina","country_code":"ar"},"population":101471,"osm_type":"relation","osm_id":2277385,"type":"administrative","location":[-61.4916758,-31.2526923],"bbox":[-61.5359903,-31.2895989,-61.4484584,-31.2229844]}}
{"name":"Ramos Mejía","display_name":"Ramos Mejía, Partido de La Matanza, Buenos Aires, Argentina","address":{"city":"Ramos Mejía","state_district":"Partido de La Matanza","state":"Buenos Aires","ISO3166-2-lvl4":"AR-B","country":"Argentina","country_code":"ar"},"population":120346,"osm_type":"node","osm_id":198415783,"type":"city","location":[-58.5622869,-34.6481661],"bbox":[-58.7222869,-34.8081661,-58.4022869,-34.4881661],"border":{"name":"Ramos Mejía","display_name":"Ramos Mejía, Partido de La Matanza, Buenos Aires, Argentina","address":{"city":"Ramos Mejía","state_district":"Partido de La Matanza","state":"Buenos Aires","ISO3166-2-lvl4":"AR-B","country":"Argentina","country_code":"ar"},"population":120346,"osm_type":"relation","osm_id":1748197,"type":"administrative","location":[-58.5622869,-34.6481661],"bbox":[-58.5830787,-34.671351,-58.5329939,-34.6346232]}}
{"name":"Resistencia","other_names":{"name:el":"Ρεσιστένσια","name:en":"Resistencia","name:he":"רסיסטנסיה","name:ru":"Ресистенсия","name:uk":"Ресістенсія"},"display_name":"Resistencia, Municipio de Resistencia, Departamento San Fernando, Chaco, 3500, Argentina","address":{"city":"Resistencia","state_district":"Departamento San Fernando","state":"Chaco","ISO3166-2-lvl4":"AR-H","postcode":"3500","country":"Argentina","country_code":"ar"},"population":385726,"osm_type":"node","osm_id":1617730500,"type":"city","location":[-58.9865196,-27.4511077],"bbox":[-59.1465196,-27.6111077,-58.8265196,-27.2911077],"border":[{"name":"Municipio de Resistencia","other_names":{"name:da":"Resistencia","name:es":"Municipio de Resistencia","name:lt":"Resistensija","name:ru":"Ресистенсия","name:uk":"Ресістенсія","name:el":"Ρεσιστένσια","name:en":"Resistencia","name:he":"רסיסטנסיה","alt":"Resistencia"},"display_name":"Municipio de Resistencia, Departamento San Fernando, Chaco, Argentina","address":{"city":"Municipio de Resistencia","state_district":"Departamento San Fernando","state":"Chaco","ISO3166-2-lvl4":"AR-H","country":"Argentina","country_code":"ar"},"population":385726,"osm_type":"relation","osm_id":1522683,"type":"administrative","location":[-58.9865196,-27.4511077],"bbox":[-59.4054824,-27.8733586,-58.8787618,-27.335963]},{"name":"Resistencia","other_names":{"name:es":"Resistencia","name:el":"Ρεσιστένσια","name:en":"Resistencia","name:he":"רסיסטנסיה","name:ru":"Ресистенсия","name:uk":"Ресістенсія"},"display_name":"Resistencia, Municipio de Resistencia, Departamento San Fernando, Chaco, Argentina","address":{"city":"Resistencia","state_district":"Departamento San Fernando","state":"Chaco","ISO3166-2-lvl4":"AR-H","country":"Argentina","country_code":"ar"},"population":385726,"osm_type":"relation","osm_id":1572779,"type":"administrative","location":[-58.9865196,-27.4511077],"bbox":[-59.0743175,-27.5137093,-58.8989588,-27.380097]}]}
{"name":"Río Cuarto","other_names":{"name:ru":"Рио-Куарто","name:uk":"Ріо-Кварто","alt_name":"Río IV"},"display_name":"Río Cuarto, Municipio de Río Cuarto, Pedanía Río Cuarto, Departamento Río Cuarto, Provincia de Córdoba, 5800, Argentina","address":{"city":"Río Cuarto","municipality":"Municipio de Río Cuarto","county":"Pedanía Río Cuarto","state_district":"Departamento Río Cuarto","state":"Provincia de Córdoba","ISO3166-2-lvl4":"AR-X","postcode":"5800","country":"Argentina","country_code":"ar"},"population":158298,"osm_type":"node","osm_id":198416817,"type":"city","location":[-64.3489782,-33.1237585],"bbox":[-64.5089782,-33.2837585,-64.1889782,-32.9637585],"border":{"name":"Río Cuarto","other_names":{"name:es":"Río Cuarto","name:ru":"Рио-Куарто","name:uk":"Ріо-Кварто","alt_name":"Río IV"},"display_name":"Río Cuarto, Municipio de Río Cuarto, Pedanía Río Cuarto, Departamento Río Cuarto, Provincia de Córdoba, X5800, Argentina","address":{"city":"Río Cuarto","municipality":"Municipio de Río Cuarto","county":"Pedanía Río Cuarto","state_district":"Departamento Río Cuarto","state":"Provincia de Córdoba","ISO3166-2-lvl4":"AR-X","postcode":"X5800","country":"Argentina","country_code":"ar"},"population":158298,"osm_type":"relation","osm_id":3921415,"type":"administrative","location":[-64.3489782,-33.1237585],"bbox":[-64.4169203,-33.1667311,-64.3110187,-33.0776007]}}
{"name":"Río Gallegos","other_names":{"name:el":"Ρίο Γκαγιέγκος","name:en":"Río Gallegos","name:he":"ריו גז'גוס","name:pt":"Río Gallegos","name:ru":"Рио-Гальегос","name:uk":"Ріо-Гальєгос","name:zh":"里奥加耶戈斯"},"display_name":"Río Gallegos, Municipio de Río Gallegos, Güer Aike, Santa Cruz, 9400, Argentina","address":{"city":"Río Gallegos","state_district":"Güer Aike","state":"Santa Cruz","ISO3166-2-lvl4":"AR-Z","postcode":"9400","country":"Argentina","country_code":"ar"},"population":115585,"osm_type":"node","osm_id":198416899,"type":"city","location":[-69.2150374,-51.6215268],"bbox":[-69.3750374,-51.7815268,-69.0550374,-51.4615268],"border":[{"name":"Municipio de Río Gallegos","other_names":{"name:es":"Municipio de Río Gallegos","name:el":"Ρίο Γκαγιέγκος","name:en":"Río Gallegos","name:he":"ריו גז'גוס","name:pt":"Río Gallegos","name:ru":"Рио-Гальегос","name:uk":"Ріо-Гальєгос","name:zh":"里奥加耶戈斯","alt":"Río Gallegos"},"display_name":"Municipio de Río Gallegos, Güer Aike, Santa Cruz, Argentina","address":{"city":"Municipio de Río Gallegos","state_district":"Güer Aike","state":"Santa Cruz","ISO3166-2-lvl4":"AR-Z","country":"Argentina","country_code":"ar"},"population":115585,"osm_type":"relation","osm_id":3439487,"type":"administrative","location":[-69.2150374,-51.6215268],"bbox":[-69.3921934,-51.7434314,-69.0686158,-51.5664722]},{"name":"Río Gallegos","display_name":"Río Gallegos, Municipio de Río Gallegos, Güer Aike, Santa Cruz, Argentina","address":{"city_district":"Río Gallegos","city":"Municipio de Río Gallegos","state_district":"Güer Aike","state":"Santa Cruz","ISO3166-2-lvl4":"AR-Z","country":"Argentina","country_code":"ar"},"osm_type":"relation","osm_id":10916819,"type":"administrative","location":[-69.26324254192167,-51.64607595],"bbox":[-69.3636838,-51.6924637,-69.1615795,-51.6000745]}]}
{"name":"Río Grande","other_names":{"name:el":"Ρίο Γκράντε","name:en":"Rio Grande","name:lt":"Rio Grandė","name:ru":"Рио-Гранде","name:zh":"里奥格兰德"},"display_name":"Río Grande, Municipio de Río Grande, Departamento Río Grande, Tierra del Fuego, Argentina","address":{"city":"Río Grande","state_district":"Departamento Río Grande","state":"Tierra del Fuego","ISO3166-2-lvl4":"AR-V","country":"Argentina","country_code":"ar"},"population":98443,"osm_type":"node","osm_id":198416920,"type":"city","location":[-67.7018562,-53.7858275],"bbox":[-67.8618562,-53.9458275,-67.5418562,-53.6258275],"border":[{"name":"Municipio de Río Grande","other_names":{"name:es":"Municipio de Río Grande","name:el":"Ρίο Γκράντε","name:en":"Rio Grande","name:lt":"Rio Grandė","name:ru":"Рио-Гранде","name:zh":"里奥格兰德","alt":"Río Grande"},"display_name":"Municipio de Río Grande, Departamento Río Grande, Tierra del Fuego, 9420, Argentina","address":{"city":"Municipio de Río Grande","state_district":"Departamento Río Grande","state":"Tierra del Fuego","ISO3166-2-lvl4":"AR-V","postcode":"9420","country":"Argentina","country_code":"ar"},"population":98443,"osm_type":"relation","osm_id":11347665,"type":"administrative","location":[-67.7018562,-53.7858275],"bbox":[-67.9966249,-54.0122231,-67.3494503,-53.5807705]},{"name":"Río Grande","other_names":{"name:es":"Río Grande","name:el":"Ρίο Γκράντε","name:en":"Rio Grande","name:lt":"Rio Grandė","name:ru":"Рио-Гранде","name:zh":"里奥格兰德"},"display_name":"Río Grande, Municipio de Río Grande, Departamento Río Grande, Tierra del Fuego, Argentina","address":{"city":"Río Grande","state_district":"Departamento Río Grande","state":"Tierra del Fuego","ISO3166-2-lvl4":"AR-V","country":"Argentina","country_code":"ar"},"population":98443,"osm_type":"relation","osm_id":3410467,"type":"administrative","location":[-67.7018562,-53.7858275],"bbox":[-67.7921196,-53.8249298,-67.6372254,-53.7341525]}]}
{"name":"Rivadavia","display_name":"Rivadavia, Comuna Centro, Rivadavia, San Juan, 5406, Argentina","address":{"city":"Rivadavia","county":"Comuna Centro","state_district":"Rivadavia","state":"San Juan","ISO3166-2-lvl4":"AR-J","postcode":"5406","country":"Argentina","country_code":"ar"},"population":101666,"osm_type":"node","osm_id":198417249,"type":"city","location":[-68.5945111,-31.5304707],"bbox":[-68.7545111,-31.6904707,-68.4345111,-31.3704707]}
{"name":"Rosario","other_names":{"name:ar":"روزاريو","name:el":"Ροζάριο","name:en":"Rosario","name:es":"Rosario","name:he":"רוסאריו","name:ja":"ロサリオ","name:kn":"ರೊಸಾರ್ಯೋ","name:oc":"Rosario","name:ru":"Росарио","name:zh":"罗萨里奥"},"display_name":"Rosario, Municipio de Rosario, Gran Rosario, Departamento Rosario, Santa Fe, Argentina","address":{"city":"Rosario","region":"Gran Rosario","state_district":"Departamento Rosario","state":"Santa Fe","ISO3166-2-lvl4":"AR-S","country":"Argentina","country_code":"ar"},"population":1030069,"osm_type":"node","osm_id":198417773,"type":"city","location":[-60.6617024,-32.9593609],"bbox":[-60.8217024,-33.1193609,-60.5017024,-32.7993609],"border":[{"name":"Municipio de Rosario","other_names":{"name:es":"Municipio de Rosario","name:ar":"روزاريو","name:el":"Ροζάριο","name:en":"Rosario","name:he":"רוסאריו","name:ja":"ロサリオ","name:kn":"ರೊಸಾರ್ಯೋ","name:oc":"Rosario","name:ru":"Росарио","name:zh":"罗萨里奥","alt":"Rosario","alt:es":"Rosario"},"display_name":"Municipio de Rosario, Gran Rosario, Departamento Rosario, Santa Fe, S2000, Argentina","address":{"city":"Municipio de Rosario","region":"Gran Rosario","state_district":"Departamento Rosario","state":"Santa Fe","ISO3166-2-lvl4":"AR-S","postcode":"S2000","country":"Argentina","country_code":"ar"},"population":1037710,"osm_type":"relation","osm_id":3368048,"type":"administrative","location":[-60.6617024,-32.9593609],"bbox":[-60.7969586,-33.0389608,-60.6051322,-32.8688946]},{"name":"Rosario","other_names":{"name:ar":"روساريو","name:be":"Расарыа","name:bg":"Росарио","name:bn":"রোসারিও","name:ce":"Росарио","name:el":"Ροσάριο","name:es":"Rosario","name:fa":"تسبیح","name:he":"רוסאריו","name:hy":"Ռոսարիո","name:ja":"ロサリオ","name:ka":"როსარიო","name:kk":"Росарио","name:kn":"ರೊಸಾರ್ಯೋ","name:ko":"로사리오","name:ky":"Росарио","name:mn":"Росарио","name:mr":"रोझारियो","name:os":"Росарио","name:pt":"Rosário","name:ru":"Росарио","name:sr":"Росарио","name:th":"โรซาริโอ","name:uk":"Росаріо","name:ur":"روساریو، سانتا فے","name:zh":"罗萨里奥","name:en":"Rosario","name:oc":"Rosario","alt:ar":"روزاريو","alt:el":"Ροζάριο"},"display_name":"Rosario, Municipio de Rosario, Gran Rosario, Departamento Rosario, Santa Fe, S2000, Argentina","address":{"city":"Rosario","region":"Gran Rosario","state_district":"Departamento Rosario","state":"Santa Fe","ISO3166-2-lvl4":"AR-S","postcode":"S2000","country":"Argentina","country_code":"ar"},"population":1029619,"osm_type":"relation","osm_id":3594027,"type":"administrative","location":[-60.6617024,-32.9593609],"bbox":[-60.7832623,-33.0348662,-60.6116695,-32.8696461]}]}
{"name":"Salta","other_names":{"name:el":"Σάλτα","name:en":"Salta","name:he":"סלטה","name:ru":"Сальта","name:uk":"Сальта"},"display_name":"Salta, Capital, Salta, Argentina","address":{"city":"Salta","state_district":"Capital","state":"Salta","ISO3166-2-lvl4":"AR-A","country":"Argentina","country_code":"ar"},"population":535303,"osm_type":"node","osm_id":198418541,"type":"city","location":[-65.4103194,-24.7892946],"bbox":[-65.5703194,-24.9492946,-65.2503194,-24.6292946],"border":{"name":"Salta","other_names":{"name:es":"Salta","name:el":"Σάλτα","name:en":"Salta","name:he":"סלטה","name:ru":"Сальта","name:uk":"Сальта"},"display_name":"Salta, Capital, Salta, Argentina","address":{"city":"Salta","state_district":"Capital","state":"Salta","ISO3166-2-lvl4":"AR-A","country":"Argentina","country_code":"ar"},"population":535303,"osm_type":"relation","osm_id":2722832,"type":"administrative","location":[-65.4103194,-24.7892946],"bbox":[-65.4823584,-24.8734901,-65.3406306,-24.7108058]}}
{"name":"San Carlos de Bariloche","other_names":{"name:af":"Bariloche","name:ar":"باريلوتشي","name:bg":"Сан Карлос де Барилоче","name:de":"Bariloche","name:en":"San Carlos de Bariloche","name:eo":"Bariloĉe","name:fa":"باریلوچه","name:gn":"Bariloche","name:he":"בארילוצ'ה","name:hy":"Սան Կառլոս դե Բարիլոչե","name:is":"Bariloche","name:ja":"サン・カルロス・デ・バリローチェ","name:ka":"სან-კარლოს-დე-ბარილოჩე","name:ko":"산카를로스데바릴로체","name:lt":"San Karlos de Bariločė","name:nl":"Bariloche (Río Negro)","name:pl":"Bariloche","name:pt":"Bariloche","name:ru":"Сан-Карлос-де-Барилоче","name:uk":"Сан-Карлос-де-Барілоче","name:zh":"圣卡洛斯-德巴里洛切","alt_name":"Bariloche","name:arn":"Vuriloche","short_name":"Bariloche"},"display_name":"San Carlos de Bariloche, Municipio de San Carlos de Bariloche, Departamento Bariloche, Río Negro, 8400, Argentina","address":{"city":"San Carlos de Bariloche","municipality":"Municipio de San Carlos de Bariloche","state_district":"Departamento Bariloche","state":"Río Negro","ISO3166-2-lvl4":"AR-R","postcode":"8400","country":"Argentina","country_code":"ar"},"population":135755,"osm_type":"node","osm_id":198419670,"type":"city","location":[-71.3101474,-41.1334781],"bbox":[-71.4701474,-41.2934781,-71.1501474,-40.9734781],"border":{"name":"San Carlos de Bariloche","other_names":{"name:es":"San Carlos de Bariloche","name:ru":"Сан-Карлос-де-Барилоче","alt_name":"Bariloche","name:af":"Bariloche","name:ar":"باريلوتشي","name:bg":"Сан Карлос де Барилоче","name:de":"Bariloche","name:en":"San Carlos de Bariloche","name:eo":"Bariloĉe","name:fa":"باریلوچه","name:gn":"Bariloche","name:he":"בארילוצ'ה","name:hy":"Սան Կառլոս դե Բարիլոչե","name:is":"Bariloche","name:ja":"サン・カルロス・デ・バリローチェ","name:ka":"სან-კარლოს-დე-ბარილოჩე","name:ko":"산카를로스데바릴로체","name:lt":"San Karlos de Bariločė","name:nl":"Bariloche (Río Negro)","name:pl":"Bariloche","name:pt":"Bariloche","name:uk":"Сан-Карлос-де-Барілоче","name:zh":"圣卡洛斯-德巴里洛切","name:arn":"Vuriloche","short_name":"Bariloche"},"display_name":"San Carlos de Bariloche, Municipio de San Carlos de Bariloche, Departamento Bariloche, Río Negro, 8400, Argentina","address":{"city":"San Carlos de Bariloche","municipality":"Municipio de San Carlos de Bariloche","state_district":"Departamento Bariloche","state":"Río Negro","ISO3166-2-lvl4":"AR-R","postcode":"8400","country":"Argentina","country_code":"ar"},"population":135755,"osm_type":"relation","osm_id":3405247,"type":"administrative","location":[-71.3101474,-41.1334781],"bbox":[-71.5881237,-41.206243,-71.1373764,-41.0370632]}}
{"name":"San Fernando del Valle de Catamarca","other_names":{"name:el":"Σαν Φερνάντο ντελ Βάλε ντε Καταμάρκα","name:he":"קטמרקה","name:ru":"Сан-Фернандо-дель-Валье-де-Катамарка","alt_name":"Catamarca Capital","short_name":"Catamarca"},"display_name":"San Fernando del Valle de Catamarca, Municipio de San Fernando del Valle de Catamarca, Departamento Capital, Catamarca, 4700, Argentina","address":{"city":"San Fernando del Valle de Catamarca","state_district":"Departamento Capital","state":"Catamarca","ISO3166-2-lvl4":"AR-K","postcode":"4700","country":"Argentina","country_code":"ar"},"population":160058,"osm_type":"node","osm_id":198420062,"type":"city","location":[-65.7790642,-28.4688806],"bbox":[-65.9390642,-28.6288806,-65.6190642,-28.3088806],"border":[{"name":"Municipio de San Fernando del Valle de Catamarca","other_names":{"name:es":"Municipio de San Fernando del Valle de Catamarca","name:el":"Σαν Φερνάντο ντελ Βάλε ντε Καταμάρκα","name:he":"קטמרקה","name:ru":"Сан-Фернандо-дель-Валье-де-Катамарка","alt_name":"Catamarca Capital","short_name":"Catamarca","alt":"San Fernando del Valle de Catamarca"},"display_name":"Municipio de San Fernando del Valle de Catamarca, Departamento Capital, Catamarca, K4700, Argentina","address":{"city":"Municipio de San Fernando del Valle de Catamarca","state_district":"Departamento Capital","state":"Catamarca","ISO3166-2-lvl4":"AR-K","postcode":"K4700","country":"Argentina","country_code":"ar"},"population":160058,"osm_type":"relation","osm_id":7327976,"type":"administrative","location":[-65.7790642,-28.4688806],"bbox":[-65.9521763,-28.5563041,-65.7248392,-28.2622876]},{"name":"San Fernando del Valle de Catamarca","other_names":{"name:es":"San Fernando del Valle de Catamarca","name:el":"Σαν Φερνάντο ντελ Βάλε ντε Καταμάρκα","name:he":"קטמרקה","name:ru":"Сан-Фернандо-дель-Валье-де-Катамарка","alt_name":"Catamarca Capital","short_name":"Catamarca"},"display_name":"San Fernando del Valle de Catamarca, Municipio de San Fernando del Valle de Catamarca, Departamento Capital, Catamarca, K4700, Argentina","address":{"city":"San Fernando del Valle de Catamarca","state_district":"Departamento Capital","state":"Catamarca","ISO3166-2-lvl4":"AR-K","postcode":"K4700","country":"Argentina","country_code":"ar"},"population":160058,"osm_type":"relation","osm_id":1846690,"type":"administrative","location":[-65.7790642,-28.4688806],"bbox":[-65.8292729,-28.522644,-65.729445,-28.4161355]}]}
{"name":"San Juan","other_names":{"name:ar":"سان خوان","name:el":"Σαν Χουάν","name:en":"San Juan","name:es":"San Juan","name:he":"סן חואן","name:pt":"São João","name:ru":"Сан-Хуан"},"display_name":"San Juan, Capital, San Juan, J5402DEA, Argentina","address":{"city":"San Juan","state_district":"Capital","state":"San Juan","ISO3166-2-lvl4":"AR-J","postcode":"J5402DEA","country":"Argentina","country_code":"ar"},"population":522029,"osm_type":"node","osm_id":198421467,"type":"city","location":[-68.5251802,-31.5370909],"bbox":[-68.6851802,-31.6970909,-68.3651802,-31.3770909]}
{"name":"San Justo","display_name":"San Justo, Partido de La Matanza, Buenos Aires, Argentina","address":{"city":"San Justo","state_district":"Partido de La Matanza","state":"Buenos Aires","ISO3166-2-lvl4":"AR-B","country":"Argentina","country_code":"ar"},"population":105274,"osm_type":"node","osm_id":198421620,"type":"city","location":[-58.5607837,-34.6774186],"bbox":[-58.7207837,-34.8374186,-58.4007837,-34.5174186],"border":{"name":"San Justo","display_name":"San Justo, Partido de La Matanza, Buenos Aires, Argentina","address":{"city":"San Justo","state_district":"Partido de La Matanza","state":"Buenos Aires","ISO3166-2-lvl4":"AR-B","country":"Argentina","country_code":"ar"},"population":105274,"osm_type":"relation","osm_id":1748245,"type":"administrative","location":[-58.5607837,-34.6774186],"bbox":[-58.5888626,-34.7141419,-58.5380308,-34.6615964]}}
{"name":"San Luis","other_names":{"name:el":"Σαν Λουίς","name:en":"San Luis","name:he":"סן לואיס","name:ru":"Сан-Луис","name:uk":"Сан-Луїс","official_name":"San Luis"},"display_name":"San Luis, Municipio de San Luis, Juan Martín de Pueyrredón, San Luis, Argentina","address":{"city":"San Luis","state_district":"Juan Martín de Pueyrredón","state":"San Luis","ISO3166-2-lvl4":"AR-D","country":"Argentina","country_code":"ar"},"population":204019,"osm_type":"node","osm_id":1961985643,"type":"city","location":[-66.3369577,-33.3020736],"bbox":[-66.4969577,-33.4620736,-66.1769577,-33.1420736],"border":[{"name":"Municipio de San Luis","other_names":{"name:es":"Municipio de San Luis","name:el":"Σαν Λουίς","name:en":"San Luis","name:he":"סן לואיס","name:ru":"Сан-Луис","name:uk":"Сан-Луїс","official_name":"San Luis","alt":"San Luis"},"display_name":"Municipio de San Luis, Juan Martín de Pueyrredón, San Luis, Argentina","address":{"city":"Municipio de San Luis","state_district":"Juan Martín de Pueyrredón","state":"San Luis","ISO3166-2-lvl4":"AR-D","country":"Argentina","country_code":"ar"},"population":204019,"osm_type":"relation","osm_id":9806959,"type":"administrative","location":[-66.3369577,-33.3020736],"bbox":[-66.4184476,-33.3714845,-66.2570647,-33.235789]},{"name":"San Luis","display_name":"San Luis, Municipio de San Luis, Juan Martín de Pueyrredón, San Luis, Argentina","address":{"city_district":"San Luis","city":"Municipio de San Luis","state_district":"Juan Martín de Pueyrredón","state":"San Luis","ISO3166-2-lvl4":"AR-D","country":"Argentina","country_code":"ar"},"osm_type":"relation","osm_id":3450259,"type":"administrative","location":[-66.3411053513259,-33.30081495],"bbox":[-66.396195,-33.3529695,-66.2809147,-33.246942]}]}
{"name":"San Miguel de Tucumán","other_names":{"name:el":"Σαν Μιγκέλ ντε Τουκουμάν","name:en":"San Miguel de Tucumán","name:he":"טוקומאן","name:pt":"São Miguel de Tucumã","name:ru":"Сан-Мигель-де-Тукуман","name:uk":"Сан-Мігель-де-Тукуман","int_name":"San Miguel de Tucuman","old_name":"San Miguel de Tucumán y Nueva Tierra de Promisión","short_name":"Tucumán"},"display_name":"San Miguel de Tucumán, Departamento Capital, Tucumán, 4000, Argentina","address":{"city":"San Miguel de Tucumán","state_district":"Departamento Capital","state":"Tucumán","ISO3166-2-lvl4":"AR-T","postcode":"4000","country":"Argentina","country_code":"ar"},"population":527607,"osm_type":"node","osm_id":198422334,"type":"city","location":[-65.2038133,-26.8303703],"bbox":[-65.3638133,-26.9903703,-65.0438133,-26.6703703],"border":{"name":"San Miguel de Tucumán","other_names":{"name:es":"San Miguel de Tucumán","name:el":"Σαν Μιγκέλ ντε Τουκουμάν","name:en":"San Miguel de Tucumán","name:he":"טוקומאן","name:pt":"São Miguel de Tucumã","name:ru":"Сан-Мигель-де-Тукуман","name:uk":"Сан-Мігель-де-Тукуман","int_name":"San Miguel de Tucuman","old_name":"San Miguel de Tucumán y Nueva Tierra de Promisión","short_name":"Tucumán"},"display_name":"San Miguel de Tucumán, Departamento Capital, Tucumán, T4000, Argentina","address":{"city":"San Miguel de Tucumán","state_district":"Departamento Capital","state":"Tucumán","ISO3166-2-lvl4":"AR-T","postcode":"T4000","country":"Argentina","country_code":"ar"},"population":527607,"osm_type":"relation","osm_id":3486117,"type":"administrative","location":[-65.2038133,-26.8303703],"bbox":[-65.2749039,-26.9103413,-65.1591609,-26.7838099]}}
{"name":"San Miguel","display_name":"San Miguel, Partido de San Miguel, Buenos Aires, B1663, Argentina","address":{"city":"San Miguel","state_district":"Partido de San Miguel","state":"Buenos Aires","ISO3166-2-lvl4":"AR-B","postcode":"B1663","country":"Argentina","country_code":"ar"},"population":157532,"osm_type":"node","osm_id":298931650,"type":"city","location":[-58.7157491,-34.540349],"bbox":[-58.8757491,-34.700349,-58.5557491,-34.380349],"border":{"name":"San Miguel","display_name":"San Miguel, Partido de San Miguel, Buenos Aires, B1663, Argentina","address":{"city":"San Miguel","state_district":"Partido de San Miguel","state":"Buenos Aires","ISO3166-2-lvl4":"AR-B","postcode":"B1663","country":"Argentina","country_code":"ar"},"population":55477,"osm_type":"relation","osm_id":2029703,"type":"administrative","location":[-58.7157491,-34.540349],"bbox":[-58.7409088,-34.5552974,-58.6965367,-34.518282]}}
{"name":"San Nicolás de los Arroyos","other_names":{"name:el":"Σαν Νικολάς ντε λος Αρόγιος","name:ru":"Сан-Николас-де-лос-Арройос","short_name":"San Nicolás"},"display_name":"San Nicolás de los Arroyos, Partido de San Nicolás, Buenos Aires, 2900, Argentina","address":{"city":"San Nicolás de los Arroyos","state_district":"Partido de San Nicolás","state":"Buenos Aires","ISO3166-2-lvl4":"AR-B","postcode":"2900","country":"Argentina","country_code":"ar"},"population":133602,"osm_type":"node","osm_id":198422475,"type":"city","location":[-60.2165909,-33.3277089],"bbox":[-60.3765909,-33.4877089,-60.0565909,-33.1677089],"border":{"name":"San Nicolás de los Arroyos","other_names":{"name:es":"San Nicolás de los Arroyos","name:el":"Σαν Νικολάς ντε λος Αρόγιος","name:ru":"Сан-Николас-де-лос-Арройос","short_name":"San Nicolás"},"display_name":"San Nicolás de los Arroyos, Partido de San Nicolás, Buenos Aires, Argentina","address":{"city":"San Nicolás de los Arroyos","state_district":"Partido de San Nicolás","state":"Buenos Aires","ISO3166-2-lvl4":"AR-B","country":"Argentina","country_code":"ar"},"population":133602,"osm_type":"relation","osm_id":8186133,"type":"administrative","location":[-60.2165909,-33.3277089],"bbox":[-60.2776695,-33.4100768,-60.1659877,-33.2858771]}}
{"name":"San Rafael","other_names":{"name:es":"San Rafael"},"display_name":"San Rafael, Distrito Ciudad de San Rafael, Departamento San Rafael, Mendoza, Argentina","address":{"city":"San Rafael","state_district":"Departamento San Rafael","state":"Mendoza","ISO3166-2-lvl4":"AR-M","country":"Argentina","country_code":"ar"},"population":118850,"osm_type":"node","osm_id":198422869,"type":"city","location":[-68.330514,-34.6126025],"bbox":[-68.490514,-34.7726025,-68.170514,-34.4526025],"border":[{"name":"Distrito Ciudad de San Rafael","other_names":{"name:es":"Distrito Ciudad de San Rafael","alt":"San Rafael","alt:es":"San Rafael"},"display_name":"Distrito Ciudad de San Rafael, Departamento San Rafael, Mendoza, Argentina","address":{"city":"Distrito Ciudad de San Rafael","state_district":"Departamento San Rafael","state":"Mendoza","ISO3166-2-lvl4":"AR-M","country":"Argentina","country_code":"ar"},"population":118850,"osm_type":"relation","osm_id":3013409,"type":"administrative","location":[-68.330514,-34.6126025],"bbox":[-68.3970319,-34.6728808,-68.2796831,-34.5897974]},{"name":"San Rafael","display_name":"San Rafael, Departamento San Rafael, Mendoza, Argentina","address":{"city":"San Rafael","state_district":"Departamento San Rafael","state":"Mendoza","ISO3166-2-lvl4":"AR-M","country":"Argentina","country_code":"ar"},"osm_type":"way","osm_id":776855224,"type":"administrative","location":[-68.32206640928605,-34.6250967],"bbox":[-68.3939545,-34.6645632,-68.2607266,-34.5858995]},{"name":"San Rafael","display_name":"San Rafael, Distrito Ciudad de San Rafael, Departamento San Rafael, Mendoza, Argentina","address":{"neighbourhood":"San Rafael","city":"Distrito Ciudad de San Rafael","state_district":"Departamento San Rafael","state":"Mendoza","ISO3166-2-lvl4":"AR-M","country":"Argentina","country_code":"ar"},"osm_type":"relation","osm_id":3921452,"type":"administrative","location":[-68.3384719359375,-34.6313751],"bbox":[-68.3970319,-34.6728808,-68.2796831,-34.5897974]}]}
{"name":"San Salvador de Jujuy","other_names":{"name:el":"Σαν Σαλβαδορ δε Χουχούι","name:he":"חוחוי","name:ru":"Сан-Сальвадор-де-Жужуй"},"display_name":"San Salvador de Jujuy, Municipio de San Salvador de Jujuy, Departamento Doctor Manuel Belgrano, Jujuy, Argentina","address":{"city":"San Salvador de Jujuy","state_district":"Departamento Doctor Manuel Belgrano","state":"Jujuy","ISO3166-2-lvl4":"AR-Y","country":"Argentina","country_code":"ar"},"population":231229,"osm_type":"node","osm_id":198423279,"type":"city","location":[-65.2994789,-24.1852569],"bbox":[-65.4594789,-24.3452569,-65.1394789,-24.0252569],"border":{"name":"Municipio de San Salvador de Jujuy","other_names":{"name:es":"Municipio de San Salvador de Jujuy","name:el":"Σαν Σαλβαδορ δε Χουχούι","name:he":"חוחוי","name:ru":"Сан-Сальвадор-де-Жужуй","alt":"San Salvador de Jujuy"},"display_name":"Municipio de San Salvador de Jujuy, Departamento Doctor Manuel Belgrano, Jujuy, Argentina","address":{"city":"Municipio de San Salvador de Jujuy","state_district":"Departamento Doctor Manuel Belgrano","state":"Jujuy","ISO3166-2-lvl4":"AR-Y","country":"Argentina","country_code":"ar"},"population":231229,"osm_type":"relation","osm_id":4465720,"type":"administrative","location":[-65.2994789,-24.1852569],"bbox":[-65.7250173,-24.2962422,-65.109099,-23.881012]}}
{"name":"Santa Fe","other_names":{"name:ar":"سانتا في","name:el":"Σάντα Φε","name:en":"Santa Fe","name:fa":"سانتافه","name:he":"סנטה פה","name:ru":"Санта-Фе","name:uk":"Санта-Фе","name:ur":"سانتا فے","name:azb":"سانتا فه","name:pnb":"سانتا فے","official_name":"Santa Fe de la Vera Cruz","official_name:ar":"سانتا في دي لا فيرا كروز"},"display_name":"Santa Fe, Santa Fe Capital, Departamento La Capital, Santa Fe, Argentina","address":{"city":"Santa Fe","state_district":"Departamento La Capital","state":"Santa Fe","ISO3166-2-lvl4":"AR-S","country":"Argentina","country_code":"ar"},"population":404910,"osm_type":"node","osm_id":198423933,"type":"city","location":[-60.7019561,-31.6186951],"bbox":[-60.8619561,-31.7786951,-60.5419561,-31.4586951],"border":[{"name":"Santa Fe Capital","other_names":{"name:ar":"سانتا في العاصمة","name:es":"Santa Fe Capital","alt_name":"Santa Fe","alt_name:ar":"سانتا في","official_name":"Santa Fe de la Vera Cruz","name:el":"Σάντα Φε","name:en":"Santa Fe","name:fa":"سانتافه","name:he":"סנטה פה","name:ru":"Санта-Фе","name:uk":"Санта-Фе","name:ur":"سانتا فے","name:azb":"سانتا فه","name:pnb":"سانتا فے","official_name:ar":"سانتا في دي لا فيرا كروز","alt":"Santa Fe","alt:ar":"سانتا في"},"display_name":"Santa Fe Capital, Departamento La Capital, Santa Fe, S3000, Argentina","address":{"city":"Santa Fe Capital","state_district":"Departamento La Capital","state":"Santa Fe","ISO3166-2-lvl4":"AR-S","postcode":"S3000","country":"Argentina","country_code":"ar"},"population":408572,"osm_type":"relation","osm_id":3498629,"type":"administrative","location":[-60.7019561,-31.6186951],"bbox":[-60.7781318,-31.7421237,-60.4231876,-31.5529096]},{"name":"Santa Fe","other_names":{"name:ar":"سانتا في","name:es":"Santa Fe","name:fa":"سانتافه","name:pt":"Santa Fé","name:ur":"سانتا فے","name:azb":"سانتا فه","name:pnb":"سانتا فے","official_name":"Santa Fe de la Vera Cruz","name:el":"Σάντα Φε","name:en":"Santa Fe","name:he":"סנטה פה","name:ru":"Санта-Фе","name:uk":"Санта-Фе","official_name:ar":"سانتا في دي لا فيرا كروز"},"display_name":"Santa Fe, Santa Fe Capital, Departamento La Capital, Santa Fe, S3000, Argentina","address":{"city":"Santa Fe","state_district":"Departamento La Capital","state":"Santa Fe","ISO3166-2-lvl4":"AR-S","postcode":"S3000","country":"Argentina","country_code":"ar"},"population":404910,"osm_type":"relation","osm_id":7517633,"type":"administrative","location":[-60.7019561,-31.6186951],"bbox":[-60.7572755,-31.6737051,-60.6624271,-31.5568352]}]}
{"name":"Santa María","display_name":"Santa María, Partido de San Miguel, Buenos Aires, Argentina","address":{"city":"Santa María","state_district":"Partido de San Miguel","state":"Buenos Aires","ISO3166-2-lvl4":"AR-B","country":"Argentina","country_code":"ar"},"population":123651,"osm_type":"node","osm_id":1999027898,"type":"city","location":[-58.7432807,-34.5658895],"bbox":[-58.9032807,-34.7258895,-58.5832807,-34.4058895],"border":{"name":"Santa María","display_name":"Santa María, Partido de San Miguel, Buenos Aires, 1663, Argentina","address":{"city":"Santa María","state_district":"Partido de San Miguel","state":"Buenos Aires","ISO3166-2-lvl4":"AR-B","postcode":"1663","country":"Argentina","country_code":"ar"},"population":113302,"osm_type":"relation","osm_id":2430404,"type":"administrative","location":[-58.7432807,-34.5658895],"bbox":[-58.776821,-34.589492,-58.7155124,-34.5373769]}}
{"name":"Santa Rosa","other_names":{"name:el":"Σάντα Ρόσα","name:en":"Santa Rosa","name:es":"Santa Rosa","name:he":"סנטה רוסה","name:ru":"Санта-Роса","name:uk":"Санта-Роса"},"display_name":"Santa Rosa, Municipio de Santa Rosa, Departamento Capital, La Pampa, L6300, Argentina","address":{"city":"Santa Rosa","state_district":"Departamento Capital","state":"La Pampa","ISO3166-2-lvl4":"AR-L","postcode":"L6300","country":"Argentina","country_code":"ar"},"population":116083,"osm_type":"node","osm_id":198424676,"type":"city","location":[-64.2905765,-36.6203503],"bbox":[-64.4505765,-36.7803503,-64.1305765,-36.4603503],"border":[{"name":"Municipio de Santa Rosa","other_names":{"name:es":"Municipio de Santa Rosa","name:el":"Σάντα Ρόσα","name:en":"Santa Rosa","name:he":"סנטה רוסה","name:ru":"Санта-Роса","name:uk":"Санта-Роса","alt":"Santa Rosa","alt:es":"Santa Rosa"},"display_name":"Municipio de Santa Rosa, Departamento Capital, La Pampa, Argentina","address":{"city":"Municipio de Santa Rosa","state_district":"Departamento Capital","state":"La Pampa","ISO3166-2-lvl4":"AR-L","country":"Argentina","country_code":"ar"},"population":116083,"osm_type":"relation","osm_id":3419054,"type":"administrative","location":[-64.2905765,-36.6203503],"bbox":[-64.8403087,-36.8067191,-64.0577389,-36.3937379]},{"name":"Santa Rosa","other_names":{"name:es":"Santa Rosa","name:el":"Σάντα Ρόσα","name:en":"Santa Rosa","name:he":"סנטה רוסה","name:ru":"Санта-Роса","name:uk":"Санта-Роса"},"display_name":"Santa Rosa, Municipio de Santa Rosa, Departamento Capital, La Pampa, Argentina","address":{"city":"Santa Rosa","state_district":"Departamento Capital","state":"La Pampa","ISO3166-2-lvl4":"AR-L","country":"Argentina","country_code":"ar"},"population":116083,"osm_type":"relation","osm_id":3399834,"type":"administrative","location":[-64.2905765,-36.6203503],"bbox":[-64.347001,-36.666833,-64.2478537,-36.5741992]}]}
{"name":"Santiago del Estero","other_names":{"name:el":"Σαντιάγκο ντελ Εστέρο","name:en":"Santiago del Estero","name:he":"סנטיאגו דל אסטרו","name:pt":"Santiago do Estero","name:ru":"Сантьяго-дель-Эстеро","name:uk":"Сантьяго-дель-Естеро"},"display_name":"Santiago del Estero, Municipio de Santiago del Estero, Departamento Juan Francisco Borges, Santiago del Estero, Argentina","address":{"city":"Santiago del Estero","municipality":"Municipio de Santiago del Estero","state_district":"Departamento Juan Francisco Borges","state":"Santiago del Estero","ISO3166-2-lvl4":"AR-G","country":"Argentina","country_code":"ar"},"population":252192,"osm_type":"node","osm_id":198425012,"type":"city","location":[-64.2595062,-27.7877148],"bbox":[-64.4195062,-27.9477148,-64.0995062,-27.6277148],"border":{"name":"Santiago del Estero","other_names":{"name:es":"Santiago del Estero","name:el":"Σαντιάγκο ντελ Εστέρο","name:en":"Santiago del Estero","name:he":"סנטיאגו דל אסטרו","name:pt":"Santiago do Estero","name:ru":"Сантьяго-дель-Эстеро","name:uk":"Сантьяго-дель-Естеро"},"display_name":"Santiago del Estero, Municipio de Santiago del Estero, Departamento Juan Francisco Borges, Santiago del Estero, G4200, Argentina","address":{"city":"Santiago del Estero","municipality":"Municipio de Santiago del Estero","state_district":"Departamento Juan Francisco Borges","state":"Santiago del Estero","ISO3166-2-lvl4":"AR-G","postcode":"G4200","country":"Argentina","country_code":"ar"},"population":252192,"osm_type":"relation","osm_id":3759837,"type":"administrative","location":[-64.2595062,-27.7877148],"bbox":[-64.3450937,-27.8600021,-64.1937987,-27.7313239]}}
{"name":"Tandil","other_names":{"name:el":"Ταντίλ","name:ru":"Тандиль","name:uk":"Танділ"},"display_name":"Tandil, Partido de Tandil, Buenos Aires, Argentina","address":{"city":"Tandil","state_district":"Partido de Tandil","state":"Buenos Aires","ISO3166-2-lvl4":"AR-B","country":"Argentina","country_code":"ar"},"population":116917,"osm_type":"node","osm_id":198428780,"type":"city","location":[-59.1356957,-37.3282887],"bbox":[-59.2956957,-37.4882887,-58.9756957,-37.1682887],"border":{"name":"Tandil","other_names":{"name:es":"Tandil","name:el":"Ταντίλ","name:ru":"Тандиль","name:uk":"Танділ"},"display_name":"Tandil, Partido de Tandil, Buenos Aires, Argentina","address":{"city":"Tandil","state_district":"Partido de Tandil","state":"Buenos Aires","ISO3166-2-lvl4":"AR-B","country":"Argentina","country_code":"ar"},"population":110627,"osm_type":"relation","osm_id":3399642,"type":"administrative","location":[-59.1356957,-37.3282887],"bbox":[-59.2221009,-37.3978505,-59.0483205,-37.2593905]}}
{"name":"Temperley","display_name":"Temperley, Partido de Lomas de Zamora, Buenos Aires, Argentina","address":{"city":"Temperley","state_district":"Partido de Lomas de Zamora","state":"Buenos Aires","ISO3166-2-lvl4":"AR-B","country":"Argentina","country_code":"ar"},"population":111179,"osm_type":"node","osm_id":198429197,"type":"city","location":[-58.3971199,-34.7758816],"bbox":[-58.5571199,-34.9358816,-58.2371199,-34.6158816],"border":{"name":"Temperley","display_name":"Temperley, Partido de Lomas de Zamora, Buenos Aires, Argentina","address":{"city":"Temperley","state_district":"Partido de Lomas de Zamora","state":"Buenos Aires","ISO3166-2-lvl4":"AR-B","country":"Argentina","country_code":"ar"},"population":111660,"osm_type":"relation","osm_id":2537337,"type":"administrative","location":[-58.3971199,-34.7758816],"bbox":[-58.4237344,-34.7906286,-58.3586916,-34.7527742]}}
{"name":"Tortuguitas","display_name":"Tortuguitas, Partido de Malvinas Argentinas, Buenos Aires, Argentina","address":{"city":"Tortuguitas","state_district":"Partido de Malvinas Argentinas","state":"Buenos Aires","ISO3166-2-lvl4":"AR-B","country":"Argentina","country_code":"ar"},"population":41390,"osm_type":"node","osm_id":9326757097,"type":"city","location":[-58.7587082,-34.4705116],"bbox":[-58.9187082,-34.6305116,-58.5987082,-34.3105116],"border":{"name":"Tortuguitas","display_name":"Tortuguitas, Partido de Malvinas Argentinas, Buenos Aires, 1667, Argentina","address":{"city":"Tortuguitas","state_district":"Partido de Malvinas Argentinas","state":"Buenos Aires","ISO3166-2-lvl4":"AR-B","postcode":"1667","country":"Argentina","country_code":"ar"},"population":41390,"osm_type":"relation","osm_id":1784694,"type":"administrative","location":[-58.7587082,-34.4705116],"bbox":[-58.7847145,-34.4983596,-58.7070796,-34.4540428]}}
{"name":"Trelew","other_names":{"name:cy":"Trelew","name:en":"Trelew","name:es":"Trelew","name:ru":"Трелью","alt_name:cy":"Trelew"},"display_name":"Trelew, Municipio de Trelew, Departamento Rawson, Chubut, U9100, Argentina","address":{"city":"Trelew","municipality":"Municipio de Trelew","state_district":"Departamento Rawson","state":"Chubut","ISO3166-2-lvl4":"AR-U","postcode":"U9100","country":"Argentina","country_code":"ar"},"population":106214,"osm_type":"node","osm_id":297981881,"type":"city","location":[-65.3094407,-43.2531242],"bbox":[-65.4694407,-43.4131242,-65.1494407,-43.0931242],"border":{"name":"Municipio de Trelew","other_names":{"name:es":"Municipio de Trelew","name:ru":"Трелью"},"display_name":"Municipio de Trelew, Departamento Rawson, Chubut, U9100, Argentina","address":{"municipality":"Municipio de Trelew","state_district":"Departamento Rawson","state":"Chubut","ISO3166-2-lvl4":"AR-U","postcode":"U9100","country":"Argentina","country_code":"ar"},"osm_type":"relation","osm_id":3410353,"type":"administrative","location":[-65.33007285712203,-43.25691945],"bbox":[-65.4560297,-43.3387902,-65.1692206,-43.1689395]}}
{"name":"Trujui","display_name":"Trujui, Partido de Moreno, Buenos Aires, Argentina","address":{"city":"Trujui","state_district":"Partido de Moreno","state":"Buenos Aires","ISO3166-2-lvl4":"AR-B","country":"Argentina","country_code":"ar"},"population":108019,"osm_type":"node","osm_id":1216961535,"type":"city","location":[-58.7516079,-34.5985965],"bbox":[-58.9116079,-34.7585965,-58.5916079,-34.4385965],"border":{"name":"Trujui","display_name":"Trujui, Partido de Moreno, Buenos Aires, Argentina","address":{"city":"Trujui","state_district":"Partido de Moreno","state":"Buenos Aires","ISO3166-2-lvl4":"AR-B","country":"Argentina","country_code":"ar"},"population":108019,"osm_type":"relation","osm_id":3594925,"type":"administrative","location":[-58.7516079,-34.5985965],"bbox":[-58.7935814,-34.6272726,-58.7137911,-34.5579201]}}
{"name":"Vicente López","display_name":"Vicente López, Partido de Vicente López, Buenos Aires, Argentina","address":{"city":"Vicente López","state_district":"Partido de Vicente López","state":"Buenos Aires","ISO3166-2-lvl4":"AR-B","country":"Argentina","country_code":"ar"},"population":274082,"osm_type":"node","osm_id":198432861,"type":"city","location":[-58.5036282,-34.5244484],"bbox":[-58.6636282,-34.6844484,-58.3436282,-34.3644484],"border":{"name":"Vicente López","display_name":"Vicente López, Partido de Vicente López, Buenos Aires, Argentina","address":{"city":"Vicente López","state_district":"Partido de Vicente López","state":"Buenos Aires","ISO3166-2-lvl4":"AR-B","country":"Argentina","country_code":"ar"},"population":274082,"osm_type":"relation","osm_id":1224657,"type":"administrative","location":[-58.5036282,-34.5244484],"bbox":[-58.5537214,-34.5692534,-58.459509,-34.4897551]}}
{"name":"Villa Huechulafquen","other_names":{"name:es":"Villa Huechulafquen","int_name":"Villa Huechulafquen"},"display_name":"Villa Huechulafquen, Departamento Huiliches, Neuquén, Argentina","address":{"city":"Villa Huechulafquen","state_district":"Departamento Huiliches","state":"Neuquén","ISO3166-2-lvl4":"AR-Q","country":"Argentina","country_code":"ar"},"osm_type":"way","osm_id":285340935,"type":"administrative","location":[-71.18973370845687,-39.81361355],"bbox":[-71.2374428,-39.8460586,-71.1688144,-39.7809978],"inferred_type":"city"}
{"name":"Villa La Rancherita y Las Cascadas","other_names":{"name:es":"Villa La Rancherita y Las Cascadas","short_name":"La Rancherita"},"display_name":"Villa La Rancherita y Las Cascadas, Comuna de La Rancherita, Pedanía San Isidro, Departamento Santa María, Provincia de Córdoba, X5186, Argentina","address":{"city":"Villa La Rancherita y Las Cascadas","municipality":"Comuna de La Rancherita","county":"Pedanía San Isidro","state_district":"Departamento Santa María","state":"Provincia de Córdoba","ISO3166-2-lvl4":"AR-X","postcode":"X5186","country":"Argentina","country_code":"ar"},"osm_type":"relation","osm_id":5317147,"type":"administrative","location":[-64.46218121027647,-31.7559069],"bbox":[-64.4746878,-31.7695566,-64.4442642,-31.7411903],"inferred_type":"city"}
{"name":"Villa Madero","other_names":{"alt_name":"Ciudad Madero","official_name":"Villa Eduardo Madero"},"display_name":"Villa Madero, Partido de La Matanza, Buenos Aires, Argentina","address":{"city":"Villa Madero","state_district":"Partido de La Matanza","state":"Buenos Aires","ISO3166-2-lvl4":"AR-B","country":"Argentina","country_code":"ar"},"population":132905,"osm_type":"node","osm_id":198435019,"type":"city","location":[-58.4999411,-34.6884434],"bbox":[-58.6599411,-34.8484434,-58.3399411,-34.5284434],"border":{"name":"Villa Madero","other_names":{"name:es":"Villa Madero","alt_name":"Ciudad Madero","official_name":"Villa Eduardo Madero"},"display_name":"Villa Madero, Partido de La Matanza, Buenos Aires, 1768, Argentina","address":{"city":"Villa Madero","state_district":"Partido de La Matanza","state":"Buenos Aires","ISO3166-2-lvl4":"AR-B","postcode":"1768","country":"Argentina","country_code":"ar"},"population":132905,"osm_type":"relation","osm_id":1750991,"type":"administrative","location":[-58.4999411,-34.6884434],"bbox":[-58.5136987,-34.7033248,-58.4864642,-34.6774204]}}
{"name":"Villa Mercedes","display_name":"Villa Mercedes, Municipio de Villa Mercedes, General Pedernera, San Luis, Argentina","address":{"city":"Villa Mercedes","municipality":"Municipio de Villa Mercedes","state_district":"General Pedernera","state":"San Luis","ISO3166-2-lvl4":"AR-D","country":"Argentina","country_code":"ar"},"population":111391,"osm_type":"node","osm_id":3823036227,"type":"city","location":[-65.4617562,-33.6745795],"bbox":[-65.6217562,-33.8345795,-65.3017562,-33.5145795]}
{"name":"Villa Mercedes","display_name":"Villa Mercedes, Municipio de Villa Mercedes, General Pedernera, San Luis, D5730, Argentina","address":{"city":"Villa Mercedes","municipality":"Municipio de Villa Mercedes","state_district":"General Pedernera","state":"San Luis","ISO3166-2-lvl4":"AR-D","postcode":"D5730","country":"Argentina","country_code":"ar"},"population":111391,"osm_type":"relation","osm_id":3399819,"type":"administrative","location":[-65.49542655754931,-33.6866361],"bbox":[-65.5006909,-33.6940301,-65.4910334,-33.6792599],"inferred_type":"city"}
{"name":"Virrey del Pino","display_name":"Virrey del Pino, Virrey Del Pino, Partido de La Matanza, Buenos Aires, Argentina","address":{"city":"Virrey del Pino","state_district":"Partido de La Matanza","state":"Buenos Aires","ISO3166-2-lvl4":"AR-B","country":"Argentina","country_code":"ar"},"population":180526,"osm_type":"node","osm_id":2005851353,"type":"city","location":[-58.6643444,-34.8588622],"bbox":[-58.8243444,-35.0188622,-58.5043444,-34.6988622],"border":{"name":"Virrey Del Pino","other_names":{"name:es":"Virrey Del Pino","alt":"Virrey del Pino"},"display_name":"Virrey Del Pino, Partido de La Matanza, Buenos Aires, Argentina","address":{"city":"Virrey Del Pino","state_district":"Partido de La Matanza","state":"Buenos Aires","ISO3166-2-lvl4":"AR-B","country":"Argentina","country_code":"ar"},"population":180526,"osm_type":"relation","osm_id":1751001,"type":"administrative","location":[-58.6643444,-34.8588622],"bbox":[-58.7761957,-34.9123214,-58.5925439,-34.7884292]}}
{"name":"Zárate","display_name":"Zárate, Partido de Zárate, Buenos Aires, 2800, Argentina","address":{"city":"Zárate","state_district":"Partido de Zárate","state":"Buenos Aires","ISO3166-2-lvl4":"AR-B","postcode":"2800","country":"Argentina","country_code":"ar"},"population":98522,"osm_type":"node","osm_id":198437342,"type":"city","location":[-59.0245097,-34.0954713],"bbox":[-59.1845097,-34.2554713,-58.8645097,-33.9354713]}
