{"name":"Anse La Raye","display_name":"Anse La Raye, LC00 123, Saint Lucia","address":{"town":"Anse La Raye","state":"Anse La Raye","ISO3166-2-lvl4":"LC-01","postcode":"LC00 123","country":"Saint Lucia","country_code":"lc"},"osm_type":"node","osm_id":3994178338,"type":"town","location":[-61.0426925,13.9406175],"bbox":[-61.0826925,13.9006175,-61.0026925,13.9806175]}
{"name":"Canaries","display_name":"Canaries, LC00 124, Saint Lucia","address":{"town":"Canaries","state":"Canaries","ISO3166-2-lvl4":"LC-12","postcode":"LC00 124","country":"Saint Lucia","country_code":"lc"},"osm_type":"node","osm_id":2619513923,"type":"town","location":[-61.0667837,13.9040756],"bbox":[-61.1067837,13.8640756,-61.0267837,13.9440756]}
{"name":"Castries","other_names":{"name:am":"ካስትሪስ","name:ar":"كاستريس","name:az":"Kastris","name:be":"Кастры","name:bg":"Кастрийс","name:bo":"ཁ་སི་ཐྲིས།","name:br":"Castries","name:ca":"Castries","name:el":"Κάστρις","name:en":"Castries","name:es":"Castries","name:fa":"کاستریس","name:fr":"Castries","name:fy":"Kastrys","name:he":"קסטריז","name:ht":"Kastri","name:hu":"Castries","name:ja":"カストリーズ","name:ka":"კასტრი","name:ko":"캐스트리스","name:lt":"Kastris","name:lv":"Kastri","name:mk":"Кастри","name:mr":"कॅस्ट्रीझ","name:pl":"Castries","name:ru":"Кастри","name:sr":"Кастри","name:sv":"Castries","name:ta":"காஸ்ட்ரீஸ்","name:th":"แคสตรีส์","name:uk":"Кастрі","name:ur":"کاستریس","name:zh":"卡斯特里","name:acf":"Kastwi","name:gcf":"Kastri","name:sah":"Кастрис","name:zh-Hant":"卡斯翠","name:be-tarask":"Кастрыз"},"display_name":"Castries, LC04 101, Saint Lucia","address":{"town":"Castries","state":"Castries","ISO3166-2-lvl4":"LC-02","postcode":"LC04 101","country":"Saint Lucia","country_code":"lc"},"population":22000,"osm_type":"node","osm_id":4428259435,"type":"town","location":[-60.9902359,14.0095966],"bbox":[-61.0302359,13.9695966,-60.9502359,14.0495966]}
{"name":"Choiseul","display_name":"Choiseul, LC10 101, Saint Lucia","address":{"town":"Choiseul","state":"Choiseul","ISO3166-2-lvl4":"LC-03","postcode":"LC10 101","country":"Saint Lucia","country_code":"lc"},"osm_type":"node","osm_id":3994574757,"type":"town","location":[-61.0498285,13.7741396],"bbox":[-61.0898285,13.7341396,-61.0098285,13.8141396]}
{"name":"Dennery","display_name":"Dennery, LC16 101, Saint Lucia","address":{"town":"Dennery","state":"Dennery","ISO3166-2-lvl4":"LC-05","postcode":"LC16 101","country":"Saint Lucia","country_code":"lc"},"osm_type":"node","osm_id":2632216875,"type":"town","location":[-60.8896591,13.9110113],"bbox":[-60.9296591,13.8710113,-60.8496591,13.9510113]}
{"name":"Gros Islet","other_names":{"name:fr":"Gros Îlet","name:acf":"Gwo lilèt","name:gcf":"Gwo lilèt"},"display_name":"Gros Islet, Saint Lucia","address":{"town":"Gros Islet","state":"Gros Islet","ISO3166-2-lvl4":"LC-06","country":"Saint Lucia","country_code":"lc"},"population":21660,"osm_type":"node","osm_id":3994579959,"type":"town","location":[-60.9524988,14.0801333],"bbox":[-60.9924988,14.0401333,-60.9124988,14.1201333]}
{"name":"Laborie","display_name":"Laborie, LC11 101, Saint Lucia","address":{"town":"Laborie","state":"Laborie","ISO3166-2-lvl4":"LC-07","postcode":"LC11 101","country":"Saint Lucia","country_code":"lc"},"osm_type":"node","osm_id":3581613608,"type":"town","location":[-60.9954081,13.7509119],"bbox":[-61.0354081,13.7109119,-60.9554081,13.7909119]}
{"name":"Micoud","display_name":"Micoud, LC15 101, Saint Lucia","address":{"town":"Micoud","state":"Micoud","ISO3166-2-lvl4":"LC-08","postcode":"LC15 101","country":"Saint Lucia","country_code":"lc"},"osm_type":"node","osm_id":2632204711,"type":"town","location":[-60.8975622,13.8200373],"bbox":[-60.9375622,13.7800373,-60.8575622,13.8600373]}
{"name":"Soufrière","display_name":"Soufrière, LC00 124, Saint Lucia","address":{"town":"Soufrière","state":"Soufrière","ISO3166-2-lvl4":"LC-10","postcode":"LC00 124","country":"Saint Lucia","country_code":"lc"},"osm_type":"node","osm_id":6325423933,"type":"town","location":[-61.0585879,13.8541053],"bbox":[-61.0985879,13.8141053,-61.0185879,13.8941053]}
{"name":"Vieux Fort","other_names":{"name:en":"Vieux Fort","name:ru":"Вьё-Фор","name:acf":"Vyéfò","name:gcf":"Vyéfò"},"display_name":"Vieux Fort, LC12 201, Saint Lucia","address":{"town":"Vieux Fort","state":"Vieux Fort","ISO3166-2-lvl4":"LC-11","postcode":"LC12 201","country":"Saint Lucia","country_code":"lc"},"osm_type":"node","osm_id":280131002,"type":"town","location":[-60.9527504,13.7277133],"bbox":[-60.9927504,13.6877133,-60.9127504,13.7677133],"border":{"name":"Vieux Fort","other_names":{"name:en":"Vieux Fort","name:ru":"Вьё-Фор","name:acf":"Vyéfò","name:gcf":"Vyéfò"},"display_name":"Vieux Fort, Saint Lucia","address":{"town":"Vieux Fort","state":"Vieux Fort","ISO3166-2-lvl4":"LC-11","country":"Saint Lucia","country_code":"lc"},"population":16000,"osm_type":"way","osm_id":148894062,"type":"town","location":[-60.9527504,13.7277133],"bbox":[-60.9578358,13.7244238,-60.9462847,13.7318185]}}
