{"name":"أم السرب","other_names":{"name:ar":"أم السرب","name:de":"Um al Surab","name:en":"Um al Surab","name:fr":"Um al Surab","name:ml":"ഉമ്മുൽ സുറാബ്","int_name":"Umm as Surab;Um al Surab;Um al Sarab"},"display_name":"أم السرب, قضاء البادية الشمالية الغربية, لواء البادية الشمالية الغربية, المفرق, الأردن","address":{"town":"أم السرب","county":"قضاء البادية الشمالية الغربية","state_district":"لواء البادية الشمالية الغربية","state":"المفرق","ISO3166-2-lvl4":"JO-MA","country":"الأردن","country_code":"jo"},"osm_type":"node","osm_id":798848878,"type":"town","location":[36.3118687,32.4290722],"bbox":[36.2718687,32.3890722,36.3518687,32.4690722]}
{"name":"الجبيهة","other_names":{"name:ar":"الجبيهة","name:en":"Al-Jubaiha"},"display_name":"الجبيهة, قضاء الجامعة, لواء الجامعة, عمان, 23324, الأردن","address":{"town":"الجبيهة","county":"قضاء الجامعة","state_district":"لواء الجامعة","state":"عمان","ISO3166-2-lvl4":"JO-AM","postcode":"23324","country":"الأردن","country_code":"jo"},"osm_type":"node","osm_id":7537653776,"type":"town","location":[35.8819325,32.0189025],"bbox":[35.8419325,31.9789025,35.9219325,32.0589025]}
{"name":"الجيزة","other_names":{"name:ar":"الجيزة","name:de":"Al Jizah","name:en":"Al Jizah","name:fr":"Al Jizah","name:ml":"അൽ-ജീസ","int_name":"Al Jīzah;Al Jizah"},"display_name":"الجيزة, قضاء الجيزة, لواء الجيزة, عمان, 11104, الأردن","address":{"town":"الجيزة","county":"قضاء الجيزة","state_district":"لواء الجيزة","state":"عمان","ISO3166-2-lvl4":"JO-AM","postcode":"11104","country":"الأردن","country_code":"jo"},"osm_type":"node","osm_id":802876374,"type":"town","location":[35.95,31.7],"bbox":[35.91,31.66,35.99,31.74]}
{"name":"الحصن","other_names":{"name:ar":"الحصن","name:de":"Husn","name:en":"Husn","name:fr":"Husn","name:ml":"ഹുസൻ","name:ru":"Эль-Хаусон","alt_name":"حصن","int_name":"Al Husun; Al Husn; Husn; Hisn"},"display_name":"الحصن, قضاء بني عبيد, لواء بني عبيد, إربد, 21141, الأردن","address":{"town":"الحصن","county":"قضاء بني عبيد","state_district":"لواء بني عبيد","state":"إربد","ISO3166-2-lvl4":"JO-IR","postcode":"21141","country":"الأردن","country_code":"jo"},"osm_type":"node","osm_id":802833345,"type":"town","location":[35.88,32.487778],"bbox":[35.84,32.447778,35.92,32.527778]}
{"name":"الحمراء","other_names":{"name:ar":"الحمراء","name:en":"Hamra","name:ml":"ഹംറ"},"display_name":"الحمراء, قضاء حوشا, لواء البادية الشمالية الغربية, المفرق, الأردن","address":{"town":"الحمراء","county":"قضاء حوشا","state_district":"لواء البادية الشمالية الغربية","state":"المفرق","ISO3166-2-lvl4":"JO-MA","country":"الأردن","country_code":"jo"},"population":12267,"osm_type":"node","osm_id":10110212310,"type":"town","location":[36.1487039,32.4416783],"bbox":[36.1087039,32.4016783,36.1887039,32.4816783]}
{"name":"الربة","other_names":{"name:ar":"الربة‎","name:bn":"রাব্বা","name:de":"Rabbat-Moab","name:en":"Rabba","name:fr":"Rabba","name:ml":"റബ്ബ","int_name":"Rabba","old_name":"Areopolis"},"display_name":"الربة, قضاء القصر, لواء القصر, الكرك, 61210, الأردن","address":{"town":"الربة","county":"قضاء القصر","state_district":"لواء القصر","state":"الكرك","ISO3166-2-lvl4":"JO-KA","postcode":"61210","country":"الأردن","country_code":"jo"},"osm_type":"node","osm_id":5434934089,"type":"town","location":[35.737769,31.2692159],"bbox":[35.697769,31.2292159,35.777769,31.3092159]}
{"name":"الرمثا","other_names":{"name:ar":"الرمثا","name:de":"Al Ramtha","name:en":"Al Ramtha","name:fr":"Al Ramtha","name:ru":"Эр-Рамта","int_name":"Ar Ramthā; Al Ramtha; Al Remtha","name:ml":"അർ-റംസ","name:uk":"Ер-Рамса","_place_int_name":"Ar Ramthā;Al Ramtha;Al Remtha","alt:en":"Ar Ramtha","alt:fr":"Ar Ramtha"},"display_name":"الرمثا, قضاء الرمثا, لواء الرمثا, إربد, 21410, الأردن","address":{"city":"الرمثا","county":"قضاء الرمثا","state_district":"لواء الرمثا","state":"إربد","ISO3166-2-lvl4":"JO-IR","postcode":"21410","country":"الأردن","country_code":"jo"},"osm_type":"way","osm_id":379035377,"type":"town","location":[36.006944,32.559167],"bbox":[35.9759318,32.5086069,36.0440242,32.5887496]}
{"name":"الزرقاء الجديدة","other_names":{"name:ar":"الزرقاء الجديدة","name:en":"New Zarqa","name:fr":"New Zarqa","name:ml":"പുതിയ സർഖ"},"display_name":"الزرقاء الجديدة, قضاء الزرقاء, لواء قصبة الزرقاء, الزرقاء, 13110, الأردن","address":{"town":"الزرقاء الجديدة","county":"قضاء الزرقاء","state_district":"لواء قصبة الزرقاء","state":"الزرقاء","ISO3166-2-lvl4":"JO-AZ","postcode":"13110","country":"الأردن","country_code":"jo"},"osm_type":"node","osm_id":4011090994,"type":"town","location":[36.0964475,32.0880545],"bbox":[36.0564475,32.0480545,36.1364475,32.1280545]}
{"name":"الزعتري","other_names":{"name:ar":"الزعتري","name:en":"Za'tary","name:ml":"സാത്തറി"},"display_name":"الزعتري, قضاء البادية الشمالية الغربية, لواء البادية الشمالية الغربية, المفرق, الأردن","address":{"town":"الزعتري","county":"قضاء البادية الشمالية الغربية","state_district":"لواء البادية الشمالية الغربية","state":"المفرق","ISO3166-2-lvl4":"JO-MA","country":"الأردن","country_code":"jo"},"population":13354,"osm_type":"node","osm_id":10110212309,"type":"town","location":[36.3012716,32.3107262],"bbox":[36.2612716,32.2707262,36.3412716,32.3507262]}
{"name":"السلط","other_names":{"name:ar":"السلط","name:bg":"Салт","name:de":"Salt","name:en":"Al Salt","name:fa":"سلط","name:fr":"Salt","name:he":"סלט","name:ml":"സൽറ്റ്","name:ru":"Ас-Сальт","name:uk":"Ес-Салт","name:ur":"سلط","int_name":"As Salţ;Al Salt;Ramoth Gilad","name:azb":"سلط","name:grc":"Σάλτος","name:mzn":"السلط","name:pnb":"السلط","alt:ml":"സൽത്ത്"},"display_name":"السلط, Al-Salt Sub-District, لواء قصبة السلط, البلقاء, الأردن","address":{"city":"السلط","county":"Al-Salt Sub-District","state_district":"لواء قصبة السلط","state":"البلقاء","ISO3166-2-lvl4":"JO-BA","country":"الأردن","country_code":"jo"},"osm_type":"way","osm_id":379038048,"type":"town","location":[35.7269843,32.0390779],"bbox":[35.6829929,31.9979487,35.7641317,32.0726019]}
{"name":"الشوبك","other_names":{"name:ar":"الشوبك","name:de":"Shaubak","name:en":"Shaubak","name:fr":"Shaubak","name:ml":"ഷൗബക്ക്","alt_name":"Ash Shubak","int_name":"Shaubak"},"display_name":"الشوبك, قضاء الشوبك, لواء الشوبك, معان, الأردن","address":{"town":"الشوبك","county":"قضاء الشوبك","state_district":"لواء الشوبك","state":"معان","ISO3166-2-lvl4":"JO-MN","country":"الأردن","country_code":"jo"},"osm_type":"node","osm_id":802594289,"type":"town","location":[35.538415,30.520021],"bbox":[35.498415,30.480021,35.578415,30.560021]}
{"name":"الصريح","other_names":{"name:ar":"الصريح","name:en":"Sarieh","name:fr":"Sarieh","alt_name":"As-Sarih"},"display_name":"الصريح, قضاء بني عبيد, لواء بني عبيد, إربد, 21141, الأردن","address":{"town":"الصريح","county":"قضاء بني عبيد","state_district":"لواء بني عبيد","state":"إربد","ISO3166-2-lvl4":"JO-IR","postcode":"21141","country":"الأردن","country_code":"jo"},"osm_type":"node","osm_id":7549551008,"type":"town","location":[35.8959286,32.5043316],"bbox":[35.8559286,32.4643316,35.9359286,32.5443316]}
{"name":"الصفاوي","other_names":{"name:ar":"الصفاوي","name:de":"Safawi","name:en":"Safawi","name:fr":"Safawi","name:he":"א-ספאווי","name:ml":"സഫാവി"},"display_name":"الصفاوي, قضاء الصالحية, لواء البادية الشمالية, المفرق, الأردن","address":{"town":"الصفاوي","county":"قضاء الصالحية","state_district":"لواء البادية الشمالية","state":"المفرق","ISO3166-2-lvl4":"JO-MA","country":"الأردن","country_code":"jo"},"osm_type":"node","osm_id":270886947,"type":"town","location":[37.1252266,32.1938273],"bbox":[37.0852266,32.1538273,37.1652266,32.2338273]}
{"name":"الضليل","other_names":{"name:ar":"منطقة الضليل","name:en":"Dhlail","name:fr":"Dhlail","name:ml":"ദ്‌ലൈൽ","alt_name":"Ad-Dhlail"},"display_name":"الضليل, قضاء الضليل, لواء قصبة الزرقاء, الزرقاء, الأردن","address":{"town":"الضليل","county":"قضاء الضليل","state_district":"لواء قصبة الزرقاء","state":"الزرقاء","ISO3166-2-lvl4":"JO-AZ","country":"الأردن","country_code":"jo"},"osm_type":"node","osm_id":7549551005,"type":"town","location":[36.2715615,32.1308076],"bbox":[36.2315615,32.0908076,36.3115615,32.1708076]}
{"name":"الطره","other_names":{"name:ar":"الطره","name:en":"Al-Turah","name:es":"At-Turrah","name:fr":"At Turrah","name:ml":"അത്തുറ","name:sv":"Aţ Ţurrah","name:ceb":"Aţ Ţurrah"},"display_name":"الطره, قضاء الرمثا, لواء الرمثا, إربد, الأردن","address":{"town":"الطره","county":"قضاء الرمثا","state_district":"لواء الرمثا","state":"إربد","ISO3166-2-lvl4":"JO-IR","country":"الأردن","country_code":"jo"},"osm_type":"node","osm_id":6848887836,"type":"town","location":[35.9895072,32.6394347],"bbox":[35.9495072,32.5994347,36.0295072,32.6794347]}
{"name":"الطفيلة","other_names":{"name:ar":"الطفيلة","name:de":"Tafila","name:en":"At Tafila","name:fr":"At Tafila","name:he":"טפילה","name:hi":"टफिला","name:ml":"തഫീല","name:ru":"Эт-Тафила","name:uk":"Ет-Тафіла","name:ur":"طفیلہ","int_name":"Tafilah;At Tafilah;At Tafila;Al Tafilah;Tufailah"},"display_name":"الطفيلة, At Tafila Sub-District, لواء قصبة الطفيلة, الطفيلة, الأردن","address":{"town":"الطفيلة","county":"At Tafila Sub-District","state_district":"لواء قصبة الطفيلة","state":"الطفيلة","ISO3166-2-lvl4":"JO-AT","country":"الأردن","country_code":"jo"},"osm_type":"node","osm_id":798885889,"type":"town","location":[35.5999999,30.833333],"bbox":[35.5599999,30.793333,35.6399999,30.873333],"border":{"name":"الطفيلة","other_names":{"name:ar":"الطفيلة","name:de":"At Tafila","name:en":"At Tafila","name:fr":"At Tafila","name:ru":"Эт-Тафила","name:uk":"Ет-Тафіла","name:ur":"طفیلہ","int_name":"El Tafile;Al Tafile;Al Tafilah;Tafile, Tofel;Tufailah"},"display_name":"الطفيلة, At Tafila Sub-District, لواء قصبة الطفيلة, الطفيلة, الأردن","address":{"town":"الطفيلة","county":"At Tafila Sub-District","state_district":"لواء قصبة الطفيلة","state":"الطفيلة","ISO3166-2-lvl4":"JO-AT","country":"الأردن","country_code":"jo"},"osm_type":"way","osm_id":360693653,"type":"town","location":[35.61320763131317,30.836252350000002],"bbox":[35.563279,30.8143932,35.6273528,30.8580896]}}
{"name":"القويرة","other_names":{"name:ar":"القويرة","name:de":"Al Quweira","name:en":"Al Quweira","name:fr":"Al Quweira","name:ml":"അൽ-ഖുവൈറ"},"display_name":"القويرة, قضاء القويرة, لواء القويرة, العقبة, 76910, الأردن","address":{"town":"القويرة","county":"قضاء القويرة","state_district":"لواء القويرة","state":"العقبة","ISO3166-2-lvl4":"JO-AQ","postcode":"76910","country":"الأردن","country_code":"jo"},"osm_type":"node","osm_id":8370027941,"type":"town","location":[35.311861,29.8052271],"bbox":[35.271861,29.7652271,35.351861,29.8452271]}
{"name":"الكرك","other_names":{"name:ar":"الكرك","name:de":"Al Karak","name:en":"Al Karak","name:fr":"Al Karak","name:he":"כרכ","name:hi":"करक","name:ml":"കറക്ക്","name:ru":"Эль-Карак","name:tr":"Kerek","name:ur":"الکرک"},"display_name":"الكرك, Karak Sub-District, لواء قصبة الكرك, الكرك, 61110, الأردن","address":{"town":"الكرك","county":"Karak Sub-District","state_district":"لواء قصبة الكرك","state":"الكرك","ISO3166-2-lvl4":"JO-KA","postcode":"61110","country":"الأردن","country_code":"jo"},"population":23000,"osm_type":"node","osm_id":798877241,"type":"town","location":[35.7047218,31.1847222],"bbox":[35.6647218,31.1447222,35.7447218,31.2247222],"border":{"name":"الكرك","other_names":{"name:ar":"الكرك","name:cs":"Al Karak","name:de":"Al Karak","name:en":"Al Karak","name:fa":"کرک","name:fr":"Al Karak","name:he":"כרכ","name:ru":"Эль-Карак","name:ur":"الکرک","name:pnb":"کرک","name:hi":"करक","name:ml":"കറക്ക്","name:tr":"Kerek"},"display_name":"الكرك, Karak Sub-District, لواء قصبة الكرك, الكرك, 61110, الأردن","address":{"town":"الكرك","county":"Karak Sub-District","state_district":"لواء قصبة الكرك","state":"الكرك","ISO3166-2-lvl4":"JO-KA","postcode":"61110","country":"الأردن","country_code":"jo"},"population":23000,"osm_type":"way","osm_id":350877998,"type":"town","location":[35.7047218,31.1847222],"bbox":[35.7005639,31.1803688,35.709448,31.1883534]}}
{"name":"المطلة","other_names":{"name:ar":"المطلة","name:fr":"Al Mattalah"},"display_name":"المطلة, قضاء سما السرحان, لواء البادية الشمالية الغربية, المفرق, الأردن","address":{"town":"المطلة","county":"قضاء سما السرحان","state_district":"لواء البادية الشمالية الغربية","state":"المفرق","ISO3166-2-lvl4":"JO-MA","country":"الأردن","country_code":"jo"},"osm_type":"way","osm_id":620376139,"type":"town","location":[36.19107522811658,32.434042],"bbox":[36.1813903,32.4262768,36.2012279,32.4417703]}
{"name":"المفرق","other_names":{"name:ar":"المفرق","name:de":"Mafrak","name:en":"Al Mafraq","name:fr":"Marfaq","name:he":"מפרק","name:ru":"Эль-Мафрак","int_name":"Al Mafraq","name:eu":"Mafraq","name:ml":"മഫ്രഖ്","name:uk":"Ель-Мафрак","alt:fr":"Mafraq"},"display_name":"المفرق, قضاء المفرق, لواء قصبة المفرق, المفرق, 25113, الأردن","address":{"city":"المفرق","county":"قضاء المفرق","state_district":"لواء قصبة المفرق","state":"المفرق","ISO3166-2-lvl4":"JO-MA","postcode":"25113","country":"الأردن","country_code":"jo"},"population":60000,"osm_type":"way","osm_id":379035018,"type":"town","location":[36.2075282,32.3423619],"bbox":[36.1657881,32.3015755,36.2545749,32.3805749]}
{"name":"المنشية","other_names":{"name:ar":"المنشية","name:de":"Al Manshiya","name:en":"Al Manshiya","name:fr":"Al Manshiya","name:ml":"അൽ-മൻഷിയ","int_name":"El Manshīya;Al Manshiya"},"display_name":"المنشية, قضاء المنشية, لواء قصبة المفرق, المفرق, الأردن","address":{"town":"المنشية","county":"قضاء المنشية","state_district":"لواء قصبة المفرق","state":"المفرق","ISO3166-2-lvl4":"JO-MA","country":"الأردن","country_code":"jo"},"population":11237,"osm_type":"node","osm_id":798849022,"type":"town","location":[36.0810338,32.370817],"bbox":[36.0410338,32.330817,36.1210338,32.410817]}
{"name":"النعيمة","other_names":{"name:ar":"النعيمة","name:de":"Al Nueiyima","name:en":"Al Nueiyima","name:fr":"Al Nueiyima","name:ml":"അൽ നുയിമ","int_name":"En Nu‘eiyīma;An Nu'ayyimah;Al Nueiyima"},"display_name":"النعيمة, قضاء بني عبيد, لواء بني عبيد, إربد, 21553, الأردن","address":{"town":"النعيمة","county":"قضاء بني عبيد","state_district":"لواء بني عبيد","state":"إربد","ISO3166-2-lvl4":"JO-IR","postcode":"21553","country":"الأردن","country_code":"jo"},"osm_type":"node","osm_id":799012790,"type":"town","location":[35.9130653,32.4202425],"bbox":[35.8730653,32.3802425,35.9530653,32.4602425]}
{"name":"النهضة","other_names":{"name:ar":"النهضة","name:en":"Nahdhah","name:ml":"നഹ്ദ"},"display_name":"النهضة, قضاء البادية الشمالية الغربية, لواء البادية الشمالية الغربية, المفرق, الأردن","address":{"town":"النهضة","county":"قضاء البادية الشمالية الغربية","state_district":"لواء البادية الشمالية الغربية","state":"المفرق","ISO3166-2-lvl4":"JO-MA","country":"الأردن","country_code":"jo"},"osm_type":"node","osm_id":10049987926,"type":"town","location":[36.3256525,32.3987857],"bbox":[36.2856525,32.3587857,36.3656525,32.4387857]}
{"name":"الهاشمية الزرقاء","other_names":{"name:ar":"الهاشمية الزرقاء","name:en":"Al Hashemiya","name:fr":"Al Hashemiya","name:ml":"അൽ-ഹാഷിമിയ"},"display_name":"الهاشمية الزرقاء, قضاء الهاشمية, لواء الهاشمية, الزرقاء, الأردن","address":{"town":"الهاشمية الزرقاء","county":"قضاء الهاشمية","state_district":"لواء الهاشمية","state":"الزرقاء","ISO3166-2-lvl4":"JO-AZ","country":"الأردن","country_code":"jo"},"osm_type":"node","osm_id":7549550970,"type":"town","location":[36.1199412,32.137201],"bbox":[36.0799412,32.097201,36.1599412,32.177201]}
{"name":"ايدون","other_names":{"name:ar":"ايدون","name:en":"Aydoun","name:fr":"Aydoun","alt_name":"Aidoon"},"display_name":"ايدون, قضاء بني عبيد, لواء بني عبيد, إربد, 21166, الأردن","address":{"town":"ايدون","county":"قضاء بني عبيد","state_district":"لواء بني عبيد","state":"إربد","ISO3166-2-lvl4":"JO-IR","postcode":"21166","country":"الأردن","country_code":"jo"},"osm_type":"node","osm_id":7549550949,"type":"town","location":[35.8558559,32.5107028],"bbox":[35.8158559,32.4707028,35.8958559,32.5507028]}
{"name":"بيت رأس","other_names":{"name:ar":"بيت رأس","name:de":"Bayt Ras","name:en":"Bayt Ras","name:fr":"Bayt Ras","name:ml":"ബെയ്ത്ത് റാസ്","int_name":"Bayt Ra’s;Bayt Ras"},"display_name":"بيت رأس, حوارة, لواء قصبة إربد, إربد, 21124, الأردن","address":{"town":"بيت رأس","county":"حوارة","state_district":"لواء قصبة إربد","state":"إربد","ISO3166-2-lvl4":"JO-IR","postcode":"21124","country":"الأردن","country_code":"jo"},"osm_type":"node","osm_id":798858313,"type":"town","location":[35.8532938,32.5984815],"bbox":[35.8132938,32.5584815,35.8932938,32.6384815]}
{"name":"جابر السرحان","other_names":{"name:ar":"جابر السرحان","name:en":"Jaber as-Sirhan","name:fr":"Jaber as-Sirhan","name:ml":"ജാബർ അസ്-സിർഹാൻ","name:nl":"Jaber as-Sirhan","int_name":"Jaber"},"display_name":"جابر السرحان, قضاء سما السرحان, لواء البادية الشمالية الغربية, المفرق, الأردن","address":{"town":"جابر السرحان","county":"قضاء سما السرحان","state_district":"لواء البادية الشمالية الغربية","state":"المفرق","ISO3166-2-lvl4":"JO-MA","country":"الأردن","country_code":"jo"},"osm_type":"node","osm_id":2358802644,"type":"town","location":[36.1960556,32.5110588],"bbox":[36.1560556,32.4710588,36.2360556,32.5510588],"border":[{"name":"جابر السرحان","other_names":{"name:ar":"جابر السرحان","name:en":"Jaber as-Sirhan","name:fr":"Jaber as-Sirhan","name:nl":"Jaber as-Sirhan","name:ml":"ജാബർ അസ്-സിർഹാൻ","int_name":"Jaber"},"display_name":"جابر السرحان, قضاء سما السرحان, لواء البادية الشمالية الغربية, المفرق, الأردن","address":{"town":"جابر السرحان","county":"قضاء سما السرحان","state_district":"لواء البادية الشمالية الغربية","state":"المفرق","ISO3166-2-lvl4":"JO-MA","country":"الأردن","country_code":"jo"},"osm_type":"way","osm_id":143615493,"type":"town","location":[36.1960556,32.5110588],"bbox":[36.188815,32.5057815,36.202784,32.51595]},{"name":"جابر السرحان","other_names":{"name:ar":"جابر السرحان","name:en":"Jaber as-Sirhan","name:fr":"Jaber as-Sirhan","name:nl":"Jaber as-Sirhan","name:ml":"ജാബർ അസ്-സിർഹാൻ","int_name":"Jaber"},"display_name":"جابر السرحان, قضاء سما السرحان, لواء البادية الشمالية الغربية, المفرق, الأردن","address":{"town":"جابر السرحان","county":"قضاء سما السرحان","state_district":"لواء البادية الشمالية الغربية","state":"المفرق","ISO3166-2-lvl4":"JO-MA","country":"الأردن","country_code":"jo"},"osm_type":"way","osm_id":755223453,"type":"town","location":[36.1960556,32.5110588],"bbox":[36.1713454,32.500761,36.2090008,32.5298545]}]}
{"name":"جديتا","other_names":{"name:ar":"جديتا","name:en":"Judaita"},"display_name":"جديتا, قضاء الكورة, لواء الكورة, إربد, الأردن","address":{"town":"جديتا","county":"قضاء الكورة","state_district":"لواء الكورة","state":"إربد","ISO3166-2-lvl4":"JO-IR","country":"الأردن","country_code":"jo"},"population":30,"osm_type":"node","osm_id":12334379665,"type":"town","location":[35.7069568,32.4087377],"bbox":[35.6669568,32.3687377,35.7469568,32.4487377]}
{"name":"جرش","other_names":{"name:ar":"جرش","name:de":"Gerasa","name:el":"Γέρασα","name:en":"Jerash","name:es":"Gerasa","name:fr":"Gérasa","name:he":"ג'רש","name:hi":"जेराश","name:hy":"Ջարաշ","name:it":"Jerash","name:ks":"جرش","name:la":"Gerasa","name:ml":"ജെറാഷ്","name:pt":"Gérasa","name:ru":"Джараш","name:sr":"Џераш","name:uk":"Джераш","name:ur":"جرش","name:azb":"جرش","name:grc":"Γέρασα","name:hyw":"Ժարաշ","name:az-Arab":"جرش"},"display_name":"جرش, مقاطعة جرش, لواء قصبة جرش, جرش, 26173, الأردن","address":{"town":"جرش","county":"مقاطعة جرش","state_district":"لواء قصبة جرش","state":"جرش","ISO3166-2-lvl4":"JO-JA","postcode":"26173","country":"الأردن","country_code":"jo"},"osm_type":"node","osm_id":271009425,"type":"town","location":[35.9010013,32.281235],"bbox":[35.8610013,32.241235,35.9410013,32.321235],"border":{"name":"جرش","other_names":{"name:ar":"جرش","name:de":"Gerasa","name:el":"Γέρασα","name:en":"Jerash","name:es":"Gerasa","name:fr":"Gérasa","name:he":"ג'רש","name:hy":"Ջարաշ","name:la":"Gerasa","name:pt":"Gérasa","name:ru":"Джараш","name:sr":"Џераш","name:ur":"جرش","name:grc":"Γέρασα","name:hyw":"Ժարաշ","old_name":"Gerasa","name:hi":"जेराश","name:it":"Jerash","name:ks":"جرش","name:ml":"ജെറാഷ്","name:uk":"Джераш","name:azb":"جرش","name:az-Arab":"جرش"},"display_name":"جرش, مقاطعة جرش, لواء قصبة جرش, جرش, الأردن","address":{"town":"جرش","county":"مقاطعة جرش","state_district":"لواء قصبة جرش","state":"جرش","ISO3166-2-lvl4":"JO-JA","country":"الأردن","country_code":"jo"},"osm_type":"relation","osm_id":8475054,"type":"town","location":[35.9010013,32.281235],"bbox":[35.8768844,32.2683147,35.9125601,32.2981792]}}
{"name":"دابوق","other_names":{"name:ar":"دابوق","name:en":"Dabouq","name:fr":"Dabouq","name:ml":"ദാബൂഖ്"},"display_name":"دابوق, قضاء الجامعة, لواء الجامعة, عمان, 11831, الأردن","address":{"town":"دابوق","county":"قضاء الجامعة","state_district":"لواء الجامعة","state":"عمان","ISO3166-2-lvl4":"JO-AM","postcode":"11831","country":"الأردن","country_code":"jo"},"osm_type":"node","osm_id":2859219638,"type":"town","location":[35.8113021,31.9880592],"bbox":[35.7713021,31.9480592,35.8513021,32.0280592]}
{"name":"دير أبي سعيد","other_names":{"name:ar":"دير أبي سعيد","name:de":"Dayr Abī Sa‘īd","name:en":"Der Abi Saeed","name:fr":"Deïr Αbi Saïd","name:ml":"ദെയ്ർ അബി സയീദ്"},"display_name":"دير أبي سعيد, قضاء الكورة, لواء الكورة, إربد, الأردن","address":{"town":"دير أبي سعيد","county":"قضاء الكورة","state_district":"لواء الكورة","state":"إربد","ISO3166-2-lvl4":"JO-IR","country":"الأردن","country_code":"jo"},"population":29590,"osm_type":"node","osm_id":5866184111,"type":"town","location":[35.6838815,32.5009109],"bbox":[35.6438815,32.4609109,35.7238815,32.5409109]}
{"name":"ذيبان","other_names":{"name:ar":"ذيبان","name:de":"Dhiban","name:en":"Dhiban","name:fr":"Dhiban","name:he":"דיבון","name:id":"Dhiban","name:ml":"ധിബാൻ","name:nl":"Dhiban","name:nn":"Dhiban","name:pl":"Ziban","name:ru":"Дивон","name:sq":"Dhiban","name:ur":"ذیبان","int_name":"Dhiban"},"display_name":"ذيبان, Dieban Sub-District, لواء ذيبان, مادبا, الأردن","address":{"town":"ذيبان","county":"Dieban Sub-District","state_district":"لواء ذيبان","state":"مادبا","ISO3166-2-lvl4":"JO-MD","country":"الأردن","country_code":"jo"},"osm_type":"node","osm_id":5434897939,"type":"town","location":[35.7800943,31.4985112],"bbox":[35.7400943,31.4585112,35.8200943,31.5385112]}
{"name":"رباع السرحان","other_names":{"name:ar":"رباع السرحان","name:en":"Rabaa Serhan","name:fr":"Rabaa Serhan"},"display_name":"رباع السرحان, قضاء سما السرحان, لواء البادية الشمالية الغربية, المفرق, الأردن","address":{"village":"رباع السرحان","county":"قضاء سما السرحان","state_district":"لواء البادية الشمالية الغربية","state":"المفرق","ISO3166-2-lvl4":"JO-MA","country":"الأردن","country_code":"jo"},"osm_type":"way","osm_id":614565727,"type":"town","location":[36.2408637,32.4224551],"bbox":[36.2337899,32.4182619,36.2448191,32.4300531]}
{"name":"زملة الطرقي","other_names":{"name:ar":"زملة الطرقي","name:fr":"Zamla Turqi","name:de":"Al Zumla","name:en":"Al Zumla","int_name":"Ez Zumla;Al Zumla","alt:ar":"الزملة","alt:fr":"Al Zumla"},"display_name":"زملة الطرقي, قضاء سما السرحان, لواء البادية الشمالية الغربية, المفرق, الأردن","address":{"village":"زملة الطرقي","county":"قضاء سما السرحان","state_district":"لواء البادية الشمالية الغربية","state":"المفرق","ISO3166-2-lvl4":"JO-MA","country":"الأردن","country_code":"jo"},"osm_type":"way","osm_id":620376140,"type":"town","location":[36.2153448,32.4651133],"bbox":[36.2132656,32.4626927,36.2213981,32.4667934]}
{"name":"سوف","other_names":{"name:ar":"سوف","name:en":"Souf","name:fr":"Souf","name:ml":"സൂഫ്","name:nn":"Souf","name:pl":"Suf","name:sq":"Souf"},"display_name":"سوف, مقاطعة جرش, لواء قصبة جرش, جرش, 26194, الأردن","address":{"town":"سوف","county":"مقاطعة جرش","state_district":"لواء قصبة جرش","state":"جرش","ISO3166-2-lvl4":"JO-JA","postcode":"26194","country":"الأردن","country_code":"jo"},"osm_type":"node","osm_id":540031772,"type":"town","location":[35.8386891,32.3133303],"bbox":[35.7986891,32.2733303,35.8786891,32.3533303]}
{"name":"صبحا","other_names":{"name:ar":"صبحا","name:de":"Sabha","name:en":"Sabha","name:fr":"Sabha","name:ml":"സബ്ഹ","int_name":"Şabḩa;Sabha"},"display_name":"صبحا, قضاء صبحا, لواء البادية الشمالية, المفرق, الأردن","address":{"town":"صبحا","county":"قضاء صبحا","state_district":"لواء البادية الشمالية","state":"المفرق","ISO3166-2-lvl4":"JO-MA","country":"الأردن","country_code":"jo"},"population":10819,"osm_type":"node","osm_id":802701305,"type":"town","location":[36.501545,32.3295617],"bbox":[36.461545,32.2895617,36.541545,32.3695617]}
{"name":"صويلح","other_names":{"name:ar":"منطقة صويلح","name:de":"Sweileh","name:en":"Sweileh","name:fr":"Sweileh","int_name":"Sweileh; Suweilih"},"display_name":"صويلح, Sweileh, قضاء الجامعة, لواء الجامعة, عمان, 11282, الأردن","address":{"town":"صويلح","district":"Sweileh","county":"قضاء الجامعة","state_district":"لواء الجامعة","state":"عمان","ISO3166-2-lvl4":"JO-AM","postcode":"11282","country":"الأردن","country_code":"jo"},"osm_type":"node","osm_id":799014302,"type":"town","location":[35.838056,32.025],"bbox":[35.798056,31.985,35.878056,32.065],"border":{"name":"Sweileh","other_names":{"name:ar":"Sweileh","name:en":"Sweileh"},"display_name":"Sweileh, قضاء الجامعة, لواء الجامعة, عمان, 11282, الأردن","address":{"district":"Sweileh","county":"قضاء الجامعة","state_district":"لواء الجامعة","state":"عمان","ISO3166-2-lvl4":"JO-AM","postcode":"11282","country":"الأردن","country_code":"jo"},"osm_type":"relation","osm_id":9094108,"type":"administrative","location":[35.83050587530016,32.016069349999995],"bbox":[35.7991241,31.992608,35.8679651,32.0399009]}}
{"name":"ضاحية البستان","other_names":{"name:ar":"ضاحية البستان","name:fr":"Al Bustan","name:ml":"ദാഹിയ അൽ-ബുസ്താൻ"},"display_name":"ضاحية البستان, قضاء الزرقاء, لواء قصبة الزرقاء, الزرقاء, 13112, الأردن","address":{"town":"ضاحية البستان","county":"قضاء الزرقاء","state_district":"لواء قصبة الزرقاء","state":"الزرقاء","ISO3166-2-lvl4":"JO-AZ","postcode":"13112","country":"الأردن","country_code":"jo"},"osm_type":"node","osm_id":4279164543,"type":"town","location":[36.0549147,32.1070106],"bbox":[36.0149147,32.0670106,36.0949147,32.1470106]}
{"name":"عجلون","other_names":{"name:ar":"عجلون","name:de":"Ajloun","name:en":"Ajloun","name:fr":"Ajloun","name:ru":"Аджлун","name:tr":"Aclûn","int_name":"‘Ayn Jannā;Ayn Janna;Ain Janna"},"display_name":"عجلون, Ajloun Sub-District, لواء قصبة عجلون, عجلون, الأردن","address":{"town":"عجلون","county":"Ajloun Sub-District","state_district":"لواء قصبة عجلون","state":"عجلون","ISO3166-2-lvl4":"JO-AJ","country":"الأردن","country_code":"jo"},"population":9020,"osm_type":"node","osm_id":540033030,"type":"town","location":[35.7520522,32.3323294],"bbox":[35.7120522,32.2923294,35.7920522,32.3723294],"border":{"name":"عجلون","other_names":{"name:ar":"عجلون","name:de":"Ajloun","name:en":"Ajloun","name:fr":"Ajloun","name:ru":"Аджлун","int_name":"‘Ayn Jannā;Ayn Janna;Ain Janna","name:tr":"Aclûn"},"display_name":"عجلون, Ajloun Sub-District, لواء قصبة عجلون, عجلون, الأردن","address":{"town":"عجلون","county":"Ajloun Sub-District","state_district":"لواء قصبة عجلون","state":"عجلون","ISO3166-2-lvl4":"JO-AJ","country":"الأردن","country_code":"jo"},"population":9020,"osm_type":"way","osm_id":293224203,"type":"town","location":[35.7520522,32.3323294],"bbox":[35.7340819,32.3175339,35.7712679,32.3422341]}}
{"name":"عراق الأمير","other_names":{"name:ar":"عراق الأمير","name:ca":"Iraq al Amir","name:de":"Iraq el-Amir","name:en":"Iraq Al-Amir","name:fr":"Iraq al-Amir","name:he":"עיראק אל-אמיר","name:it":"Iraq al-Amir","name:ml":"ഇറാഖ് അൽ-അമീർ","name:nn":"`Iraq al Amir","name:sq":"`Iraq al Amir"},"display_name":"عراق الأمير, ناحية وادي السير, لواء وادي السير, عمان, الأردن","address":{"town":"عراق الأمير","county":"ناحية وادي السير","state_district":"لواء وادي السير","state":"عمان","ISO3166-2-lvl4":"JO-AM","country":"الأردن","country_code":"jo"},"osm_type":"node","osm_id":3678868875,"type":"town","location":[35.7538951,31.9150722],"bbox":[35.7138951,31.8750722,35.7938951,31.9550722]}
{"name":"عنجرة","other_names":{"name:ar":"عنجرة","name:de":"Anjara","name:en":"Anjara","name:es":"Anjara","name:fr":"Anjara","name:hi":"अंजारा","name:ks":"عنجرہ","name:ml":"അഞ്ജറ","name:ru":"Анджара","name:ur":"عنجرہ","int_name":"‘Anjara;Anjara;Anjarah"},"display_name":"عنجرة, Ajloun Sub-District, لواء قصبة عجلون, عجلون, الأردن","address":{"town":"عنجرة","county":"Ajloun Sub-District","state_district":"لواء قصبة عجلون","state":"عجلون","ISO3166-2-lvl4":"JO-AJ","country":"الأردن","country_code":"jo"},"osm_type":"node","osm_id":540032379,"type":"town","location":[35.7556912,32.3065803],"bbox":[35.7156912,32.2665803,35.7956912,32.3465803],"border":{"name":"عنجرة","other_names":{"name:ar":"عنجرة","name:de":"Anjara","name:en":"Anjara","name:fr":"Anjara","name:ru":"Анджара","int_name":"‘Anjara; Anjara; Anjarah","name:es":"Anjara","name:hi":"अंजारा","name:ks":"عنجرہ","name:ml":"അഞ്ജറ","name:ur":"عنجرہ","_place_int_name":"‘Anjara;Anjara;Anjarah"},"display_name":"عنجرة, Ajloun Sub-District, لواء قصبة عجلون, عجلون, الأردن","address":{"town":"عنجرة","county":"Ajloun Sub-District","state_district":"لواء قصبة عجلون","state":"عجلون","ISO3166-2-lvl4":"JO-AJ","country":"الأردن","country_code":"jo"},"osm_type":"way","osm_id":295185968,"type":"town","location":[35.7556912,32.3065803],"bbox":[35.7186688,32.2936644,35.7755884,32.3186967]}}
{"name":"عين الباشا","other_names":{"name:ar":"عين الباشا","name:de":"Ayn al Basha","name:en":"Ayn al Basha","name:fr":"Ayn al Basha","name:ml":"ഐൻ അൽ-ബാഷ","int_name":"‘Ayn al Bāshā;Ayn al Basha"},"display_name":"عين الباشا, قضاء عين الباشا, لواء عين الباشا, البلقاء, 11282, الأردن","address":{"town":"عين الباشا","county":"قضاء عين الباشا","state_district":"لواء عين الباشا","state":"البلقاء","ISO3166-2-lvl4":"JO-BA","postcode":"11282","country":"الأردن","country_code":"jo"},"osm_type":"node","osm_id":799014327,"type":"town","location":[35.830833,32.06],"bbox":[35.790833,32.02,35.870833,32.1]}
{"name":"قضاء صخرة","other_names":{"name:ar":"قضاء صخرة","name:en":"Sakhra","name:fr":"Sakhrah","name:ml":"സഖ്റ","name:ru":"Сахра","alt_name":"صخرة","int_name":"Sakhra"},"display_name":"قضاء صخرة, لواء قصبة عجلون, عجلون, الأردن","address":{"town":"قضاء صخرة","county":"قضاء صخرة","state_district":"لواء قصبة عجلون","state":"عجلون","ISO3166-2-lvl4":"JO-AJ","country":"الأردن","country_code":"jo"},"osm_type":"node","osm_id":3335695796,"type":"town","location":[35.8411387,32.3722718],"bbox":[35.8011387,32.3322718,35.8811387,32.4122718],"border":{"name":"قضاء صخرة","other_names":{"name:ar":"قضاء صخرة","name:en":"Sakhrah Sub-District"},"display_name":"قضاء صخرة, لواء قصبة عجلون, عجلون, الأردن","address":{"county":"قضاء صخرة","state_district":"لواء قصبة عجلون","state":"عجلون","ISO3166-2-lvl4":"JO-AJ","country":"الأردن","country_code":"jo"},"osm_type":"relation","osm_id":13376098,"type":"administrative","location":[35.829373856733156,32.390321150000005],"bbox":[35.7759474,32.3432107,35.8921151,32.4373599]}}
{"name":"كفرنجة","other_names":{"name:ar":"كفرنجة","name:de":"Kufranjah","name:en":"Kufranjah","name:fr":"Kufranjah","name:ml":"കുഫ്രഞ്ജ","name:ru":"Куфранджа","int_name":"Kufranjah;Kufrinjih"},"display_name":"كفرنجة, قضاء كفرنجة, لواء كفرنجة, عجلون, الأردن","address":{"town":"كفرنجة","county":"قضاء كفرنجة","state_district":"لواء كفرنجة","state":"عجلون","ISO3166-2-lvl4":"JO-AJ","country":"الأردن","country_code":"jo"},"osm_type":"node","osm_id":540032030,"type":"town","location":[35.7048916,32.2971156],"bbox":[35.6648916,32.2571156,35.7448916,32.3371156],"border":{"name":"كفرنجة","other_names":{"name:ar":"كفرنجة","name:de":"Kufranjah","name:en":"Kufranjah","name:fr":"Kufranjah","name:ru":"Куфранджа","int_name":"Kufranjah; Kufrinjih","name:ml":"കുഫ്രഞ്ജ","_place_int_name":"Kufranjah;Kufrinjih"},"display_name":"كفرنجة, قضاء كفرنجة, لواء كفرنجة, عجلون, الأردن","address":{"town":"كفرنجة","county":"قضاء كفرنجة","state_district":"لواء كفرنجة","state":"عجلون","ISO3166-2-lvl4":"JO-AJ","country":"الأردن","country_code":"jo"},"osm_type":"way","osm_id":295185981,"type":"town","location":[35.7048916,32.2971156],"bbox":[35.6909603,32.2918456,35.7124481,32.30365]}}
{"name":"مادبا","other_names":{"name:ar":"مادبا","name:de":"Madaba","name:el":"Μάνταμπα","name:en":"Madaba","name:es":"Madaba","name:eu":"Madaba","name:fr":"Madaba","name:he":"מידבא","name:hi":"मदाबा","name:ks":"مادبا","name:ml":"മഡബ","name:pt":"Madaba","name:ru":"Мадаба","name:ur":"مادبا","alt_name":"مأدبا","name:azb":"مادبا","name:grc":"Μαιδαβά","alt_name:ar":"مأدبا","alt_name:grc":"Μήδαβα","name:ar-Latn":"Mādabā","name:az-Arab":"مادبا","name:fa":"مادبا","name:uk":"Мадаба","alt:ml":"മാദബ"},"display_name":"مادبا, Madaba Sub-District, لواء قصبة مادبا, مادبا, 17110, الأردن","address":{"city":"مادبا","county":"Madaba Sub-District","state_district":"لواء قصبة مادبا","state":"مادبا","ISO3166-2-lvl4":"JO-MD","postcode":"17110","country":"الأردن","country_code":"jo"},"population":65000,"osm_type":"way","osm_id":379035955,"type":"town","location":[35.7943856,31.7165941],"bbox":[35.7678499,31.6951454,35.8293799,31.7527866]}
{"name":"مخيم الحصن","other_names":{"name:ar":"مخيم الحصن","name:de":"Husan UNRWA camp","name:en":"Husn Camp","name:fr":"Camp de Husn","alt_name":"مخيم الشهيد عزمي المفتي","int_name":"Husn camp","alt_name:ar":"مخيم الشهيد عزمي المفتي","alt_name:en":"Martyr Azmi el-Mufti camp","alt_name:fr":"Camp martyr Azmi el-Mufti"},"display_name":"مخيم الحصن, الملك عبدالله الثاني بن الحسين, الحصن, قضاء بني عبيد, لواء بني عبيد, إربد, 21141, الأردن","address":{"amenity":"مخيم الحصن","road":"الملك عبدالله الثاني بن الحسين","town":"الحصن","county":"قضاء بني عبيد","state_district":"لواء بني عبيد","state":"إربد","ISO3166-2-lvl4":"JO-IR","postcode":"21141","country":"الأردن","country_code":"jo"},"osm_type":"node","osm_id":802833211,"type":"refugee_site","location":[35.9072956,32.4760861],"bbox":[35.9072456,32.4760361,35.9073456,32.4761361]}
{"name":"مخيم الطالبية‎‎","other_names":{"name:ar":"مخيم الطالبية","name:en":"Talbieh camp","name:fr":"Camp de Talbieh"},"display_name":"مخيم الطالبية‎‎, شارع مطار الملكة علياء, الجيزة, قضاء الجيزة, لواء الجيزة, عمان, 11104, الأردن","address":{"amenity":"مخيم الطالبية‎‎","road":"شارع مطار الملكة علياء","town":"الجيزة","county":"قضاء الجيزة","state_district":"لواء الجيزة","state":"عمان","ISO3166-2-lvl4":"JO-AM","postcode":"11104","country":"الأردن","country_code":"jo"},"osm_type":"node","osm_id":9092799868,"type":"refugee_site","location":[35.9491667,31.7052778],"bbox":[35.9491167,31.7052278,35.9492167,31.7053278]}
{"name":"مخيم جرش","other_names":{"name:ar":"مخيم جرش","name:en":"Jerash camp","name:fr":"Camp de Jerash"},"display_name":"مخيم جرش, جرش, مقاطعة جرش, لواء قصبة جرش, جرش, 26111, الأردن","address":{"amenity":"مخيم جرش","town":"جرش","county":"مقاطعة جرش","state_district":"لواء قصبة جرش","state":"جرش","ISO3166-2-lvl4":"JO-JA","postcode":"26111","country":"الأردن","country_code":"jo"},"osm_type":"node","osm_id":9092799874,"type":"refugee_site","location":[35.8634587,32.2639583],"bbox":[35.8634087,32.2639083,35.8635087,32.2640083]}
{"name":"مخيم سوف","other_names":{"name:ar":"مخيم سوف","name:en":"Souf camp","name:fr":"camp de Souf"},"display_name":"مخيم سوف, شارع حسن الكايد, جرش, مقاطعة جرش, لواء قصبة جرش, جرش, 26111, الأردن","address":{"amenity":"مخيم سوف","road":"شارع حسن الكايد","town":"جرش","county":"مقاطعة جرش","state_district":"لواء قصبة جرش","state":"جرش","ISO3166-2-lvl4":"JO-JA","postcode":"26111","country":"الأردن","country_code":"jo"},"osm_type":"node","osm_id":4746119280,"type":"refugee_site","location":[35.8851494,32.310107],"bbox":[35.8850994,32.310057,35.8851994,32.310157]}
{"name":"مدورة","other_names":{"name:ar":"مدورة","name:de":"Mudawwara","name:en":"Mudawwara","name:fr":"Mudawwara","name:ml":"മുദവ്വറ","int_name":"Mudawwara"},"display_name":"مدورة, قضاء الجفر, لواء قصبة معان, معان, الأردن","address":{"town":"مدورة","county":"قضاء الجفر","state_district":"لواء قصبة معان","state":"معان","ISO3166-2-lvl4":"JO-MN","country":"الأردن","country_code":"jo"},"osm_type":"node","osm_id":802670833,"type":"town","location":[36.0232178,29.3342245],"bbox":[35.9832178,29.2942245,36.0632178,29.3742245]}
{"name":"مدينة الشرق","other_names":{"name:ar":"مدينة الشرق","name:en":"Orient City","name:fr":"Madinat Al-Sharq","name:ml":"മദീനത്ത് അൽ-ഷർഖ്"},"display_name":"مدينة الشرق, قضاء الزرقاء, لواء قصبة الزرقاء, الزرقاء, 13111, الأردن","address":{"town":"مدينة الشرق","county":"قضاء الزرقاء","state_district":"لواء قصبة الزرقاء","state":"الزرقاء","ISO3166-2-lvl4":"JO-AZ","postcode":"13111","country":"الأردن","country_code":"jo"},"osm_type":"node","osm_id":4013661913,"type":"town","location":[36.1209984,32.0566025],"bbox":[36.0809984,32.0166025,36.1609984,32.0966025]}
{"name":"ملكا","other_names":{"name:ar":"ملكا","name:de":"Malka","name:en":"Malka","name:fr":"Malka","name:ml":"മൽക്ക","name:pl":"Malka","name:sv":"Malkā"},"display_name":"ملكا, قضاء بني كنانة, لواء بني كنانة, إربد, 20100, الأردن","address":{"town":"ملكا","county":"قضاء بني كنانة","state_district":"لواء بني كنانة","state":"إربد","ISO3166-2-lvl4":"JO-IR","postcode":"20100","country":"الأردن","country_code":"jo"},"osm_type":"node","osm_id":1705984802,"type":"town","location":[35.7507793,32.6716674],"bbox":[35.7107793,32.6316674,35.7907793,32.7116674]}
{"name":"وادي موسى","other_names":{"name:ar":"وادي موسى","name:de":"Wadi Musa","name:en":"Wadi Musa","name:es":"Wadi Musa","name:fr":"Wadi Musa","name:he":"ואדי מוסא","name:hi":"वादी मूसा","name:hy":"Վադի Մուսա","name:it":"Petra","name:ks":"وادی موسی","name:la":"Petra","name:ml":"വാദി മൂസ","name:pl":"Wadi Musa","name:ur":"وادی موسی"},"display_name":"وادي موسى, Petra Sub-District, لواء البتراء, معان, 71810, الأردن","address":{"town":"وادي موسى","county":"Petra Sub-District","state_district":"لواء البتراء","state":"معان","ISO3166-2-lvl4":"JO-MN","postcode":"71810","country":"الأردن","country_code":"jo"},"osm_type":"node","osm_id":411050499,"type":"town","location":[35.4800889,30.3216568],"bbox":[35.4400889,30.2816568,35.5200889,30.3616568]}
