{"name":"District 1","other_names":{"name:ar":"District 1","loc_name":"01","old_name":"Ex- Sector 1 West","short_name":"01"},"display_name":"District 1, قضاء البادية الشمالية الغربية, لواء البادية الشمالية الغربية, المفرق, JORZATD001, الأردن","address":{"city":"District 1","county":"قضاء البادية الشمالية الغربية","state_district":"لواء البادية الشمالية الغربية","state":"المفرق","ISO3166-2-lvl4":"JO-MA","postcode":"JORZATD001","country":"الأردن","country_code":"jo"},"osm_type":"way","osm_id":227275277,"type":"administrative","location":[36.318586509255155,32.30191275],"bbox":[36.3150613,32.29968,36.3222808,32.3041401],"inferred_type":"city"}
{"name":"District 10","other_names":{"name:ar":"District 10","loc_name":"10","old_name":"Ex- Module 3","short_name":"10"},"display_name":"District 10, قضاء البادية الشمالية الغربية, لواء البادية الشمالية الغربية, المفرق, JORZATD010, الأردن","address":{"city":"District 10","county":"قضاء البادية الشمالية الغربية","state_district":"لواء البادية الشمالية الغربية","state":"المفرق","ISO3166-2-lvl4":"JO-MA","postcode":"JORZATD010","country":"الأردن","country_code":"jo"},"osm_type":"way","osm_id":227275280,"type":"administrative","location":[36.326421746114676,32.289378049999996],"bbox":[36.3220644,32.2847635,36.3305019,32.293248],"inferred_type":"city"}
{"name":"District 11","other_names":{"name:ar":"District 11","loc_name":"11","old_name":"Ex- Module 2","short_name":"11"},"display_name":"District 11, قضاء البادية الشمالية الغربية, لواء البادية الشمالية الغربية, المفرق, JORZATD011, الأردن","address":{"city":"District 11","county":"قضاء البادية الشمالية الغربية","state_district":"لواء البادية الشمالية الغربية","state":"المفرق","ISO3166-2-lvl4":"JO-MA","postcode":"JORZATD011","country":"الأردن","country_code":"jo"},"osm_type":"way","osm_id":227275283,"type":"administrative","location":[36.32037486843987,32.291137750000004],"bbox":[36.3159628,32.2864693,36.3250507,32.2953568],"inferred_type":"city"}
{"name":"District 12","other_names":{"name:ar":"District 12","loc_name":"12","old_name":"Ex- Sector 5","short_name":"12"},"display_name":"District 12, قضاء البادية الشمالية الغربية, لواء البادية الشمالية الغربية, المفرق, JORZATD012, الأردن","address":{"city":"District 12","county":"قضاء البادية الشمالية الغربية","state_district":"لواء البادية الشمالية الغربية","state":"المفرق","ISO3166-2-lvl4":"JO-MA","postcode":"JORZATD012","country":"الأردن","country_code":"jo"},"osm_type":"way","osm_id":227275287,"type":"administrative","location":[36.31509729356275,32.293047],"bbox":[36.3118522,32.2896349,36.3188595,32.2965012],"inferred_type":"city"}
{"name":"District 2","other_names":{"name:ar":"District 2","loc_name":"02","old_name":"West - Ex- Sector 2","short_name":"02"},"display_name":"District 2, قضاء البادية الشمالية الغربية, لواء البادية الشمالية الغربية, المفرق, JORZATD002, الأردن","address":{"city":"District 2","county":"قضاء البادية الشمالية الغربية","state_district":"لواء البادية الشمالية الغربية","state":"المفرق","ISO3166-2-lvl4":"JO-MA","postcode":"JORZATD002","country":"الأردن","country_code":"jo"},"osm_type":"way","osm_id":227275290,"type":"administrative","location":[36.316693001676555,32.29848615],"bbox":[36.3121944,32.2960207,36.3205096,32.3009919],"inferred_type":"city"}
{"name":"District 3","other_names":{"name:ar":"District 3","loc_name":"03","old_name":"Old P5 West - Ex- Sector 3","short_name":"03"},"display_name":"District 3, قضاء البادية الشمالية الغربية, لواء البادية الشمالية الغربية, المفرق, JORZATD003, الأردن","address":{"city":"District 3","county":"قضاء البادية الشمالية الغربية","state_district":"لواء البادية الشمالية الغربية","state":"المفرق","ISO3166-2-lvl4":"JO-MA","postcode":"JORZATD003","country":"الأردن","country_code":"jo"},"osm_type":"way","osm_id":227275294,"type":"administrative","location":[36.324541312991784,32.3003478],"bbox":[36.3203996,32.2973052,36.3290114,32.303998],"inferred_type":"city"}
{"name":"District 4","other_names":{"name:ar":"District 4","loc_name":"04","old_name":"Old P5 West - Ex- Sector 4","short_name":"04"},"display_name":"District 4, قضاء البادية الشمالية الغربية, لواء البادية الشمالية الغربية, المفرق, JORZATD004, الأردن","address":{"city":"District 4","county":"قضاء البادية الشمالية الغربية","state_district":"لواء البادية الشمالية الغربية","state":"المفرق","ISO3166-2-lvl4":"JO-MA","postcode":"JORZATD004","country":"الأردن","country_code":"jo"},"osm_type":"way","osm_id":227275297,"type":"administrative","location":[36.32283034485858,32.2965526],"bbox":[36.3185599,32.293248,36.3268942,32.2994321],"inferred_type":"city"}
{"name":"District 5","other_names":{"name:ar":"District 5","loc_name":"05","old_name":"Old P5 Centre - Ex- Module 8","short_name":"05"},"display_name":"District 5, قضاء البادية الشمالية الغربية, لواء البادية الشمالية الغربية, المفرق, JORZATD005, الأردن","address":{"city":"District 5","county":"قضاء البادية الشمالية الغربية","state_district":"لواء البادية الشمالية الغربية","state":"المفرق","ISO3166-2-lvl4":"JO-MA","postcode":"JORZATD005","country":"الأردن","country_code":"jo"},"osm_type":"way","osm_id":227275301,"type":"administrative","location":[36.32994722142243,32.29690025],"bbox":[36.3250507,32.2914765,36.3344307,32.3019643],"inferred_type":"city"}
{"name":"District 6","other_names":{"name:ar":"District 6","loc_name":"06","old_name":"Ex- Module 4","short_name":"06"},"display_name":"District 6, قضاء البادية الشمالية الغربية, لواء البادية الشمالية الغربية, المفرق, JORZATD006, الأردن","address":{"city":"District 6","county":"قضاء البادية الشمالية الغربية","state_district":"لواء البادية الشمالية الغربية","state":"المفرق","ISO3166-2-lvl4":"JO-MA","postcode":"JORZATD006","country":"الأردن","country_code":"jo"},"osm_type":"way","osm_id":227275308,"type":"administrative","location":[36.33529746592191,32.295219200000005],"bbox":[36.3305019,32.2896979,36.3396136,32.3001975],"inferred_type":"city"}
{"name":"District 7","other_names":{"name:ar":"District 7","loc_name":"07","old_name":"Ex- Module 6","short_name":"07"},"display_name":"District 7, قضاء البادية الشمالية الغربية, لواء البادية الشمالية الغربية, المفرق, JORZATD007, الأردن","address":{"city":"District 7","county":"قضاء البادية الشمالية الغربية","state_district":"لواء البادية الشمالية الغربية","state":"المفرق","ISO3166-2-lvl4":"JO-MA","postcode":"JORZATD007","country":"الأردن","country_code":"jo"},"osm_type":"way","osm_id":227275311,"type":"administrative","location":[36.34073916292033,32.293165450000004],"bbox":[36.3359743,32.2875926,36.3442162,32.2979373],"inferred_type":"city"}
{"name":"District 8","other_names":{"name:ar":"District 8","loc_name":"08","old_name":"Ex- Module 7","short_name":"08"},"display_name":"District 8, قضاء البادية الشمالية الغربية, لواء البادية الشمالية الغربية, المفرق, JORZATD008, الأردن","address":{"city":"District 8","county":"قضاء البادية الشمالية الغربية","state_district":"لواء البادية الشمالية الغربية","state":"المفرق","ISO3166-2-lvl4":"JO-MA","postcode":"JORZATD008","country":"الأردن","country_code":"jo"},"osm_type":"way","osm_id":227275315,"type":"administrative","location":[36.337696426697775,32.28461135],"bbox":[36.332956,32.2806485,36.3423365,32.2896979],"inferred_type":"city"}
{"name":"District 9","other_names":{"name:ar":"District 9","loc_name":"09","old_name":"Ex- Module 5","short_name":"09"},"display_name":"District 9, قضاء البادية الشمالية الغربية, لواء البادية الشمالية الغربية, المفرق, JORZATD009, الأردن","address":{"city":"District 9","county":"قضاء البادية الشمالية الغربية","state_district":"لواء البادية الشمالية الغربية","state":"المفرق","ISO3166-2-lvl4":"JO-MA","postcode":"JORZATD009","country":"الأردن","country_code":"jo"},"osm_type":"way","osm_id":227275318,"type":"administrative","location":[36.331498662608965,32.286846749999995],"bbox":[36.327352,32.2828885,36.3359743,32.2914765],"inferred_type":"city"}
{"name":"إربد","other_names":{"name:ar":"إربد","name:be":"Ірбід","name:bg":"Ирбид","name:ca":"Irbid","name:cs":"Irbid","name:cy":"Irbid","name:da":"Irbid","name:de":"Irbid","name:el":"Ιρμπίντ","name:en":"Irbid","name:eo":"Irbid","name:es":"Irbid","name:et":"Irbid","name:eu":"Irbid","name:fa":"اربد","name:fi":"Irbid","name:fr":"Irbid","name:ga":"Irbid","name:gn":"Irbid","name:he":"אירביד","name:hi":"इर्बिद","name:hy":"Իրբիդ","name:id":"Irbid","name:it":"Irbid","name:ja":"イルビド","name:kk":"Ирбид","name:ko":"이르비드","name:ks":"اربد","name:la":"Arabella","name:lt":"Irbidas","name:ml":"ഇർബിദ്","name:ms":"Irbid","name:nb":"Irbid","name:nl":"Irbid","name:nn":"Irbid","name:os":"Ирбид","name:pl":"Irbid","name:pt":"Irbid","name:ro":"Irbid","name:ru":"Ирбид","name:sl":"Irbid","name:sq":"Irbid","name:sv":"Irbid","name:th":"อิรบิด","name:tr":"İrbid","name:uk":"Ірбід","name:ur":"اربد","name:uz":"Irbid","name:vi":"Irbid","name:zh":"伊爾比德"},"display_name":"إربد, حوارة, لواء قصبة إربد, إربد, 21110, الأردن","address":{"city":"إربد","county":"حوارة","state_district":"لواء قصبة إربد","state":"إربد","ISO3166-2-lvl4":"JO-IR","postcode":"21110","country":"الأردن","country_code":"jo"},"population":292000,"osm_type":"node","osm_id":270873161,"type":"city","location":[35.8493023,32.5556091],"bbox":[35.6893023,32.3956091,36.0093023,32.7156091]}
{"name":"الراشدية","other_names":{"name:ar":"الراشدية","name:en":"Ar Rāshidīyah","name:fr":"Rashidiyah","name:ml":"അൽ-റാഷിദിയ"},"display_name":"الراشدية, قضاء القويرة, لواء القويرة, العقبة, الأردن","address":{"city":"الراشدية","county":"قضاء القويرة","state_district":"لواء القويرة","state":"العقبة","ISO3166-2-lvl4":"JO-AQ","country":"الأردن","country_code":"jo"},"osm_type":"node","osm_id":3801090649,"type":"city","location":[35.282671,29.731215],"bbox":[35.122671,29.571215,35.442671,29.891215]}
{"name":"الرصيفة","other_names":{"name:ar":"الرصيفة","name:de":"Russeifa","name:en":"Al-Ruseifa","name:es":"Russeifa","name:fa":"رصیفه","name:fr":"Russeifa","name:he":"רוסייפה","name:ml":"റുസൈഫ","name:uk":"Ер-Руссайфа","int_name":"Er Refeia;Al Refeia;Al Rusayfah;Ruseifa"},"display_name":"الرصيفة, قضاء الرصيفة, لواء الرصيفة, الزرقاء, 17312, الأردن","address":{"city":"الرصيفة","county":"قضاء الرصيفة","state_district":"لواء الرصيفة","state":"الزرقاء","ISO3166-2-lvl4":"JO-AZ","postcode":"17312","country":"الأردن","country_code":"jo"},"osm_type":"node","osm_id":802870056,"type":"city","location":[36.0434611,32.0174989],"bbox":[35.8834611,31.8574989,36.2034611,32.1774989],"border":{"name":"الرصيفة","other_names":{"name:ar":"الرصيفة","name:en":"Al Ruseifa","name:fr":"Russeifa","name:uk":"Ер-Руссайфа","name:de":"Russeifa","name:es":"Russeifa","name:fa":"رصیفه","name:he":"רוסייפה","name:ml":"റുസൈഫ","int_name":"Er Refeia;Al Refeia;Al Rusayfah;Ruseifa","alt:en":"Al-Ruseifa"},"display_name":"الرصيفة, قضاء الرصيفة, لواء الرصيفة, الزرقاء, الأردن","address":{"city":"الرصيفة","county":"قضاء الرصيفة","state_district":"لواء الرصيفة","state":"الزرقاء","ISO3166-2-lvl4":"JO-AZ","country":"الأردن","country_code":"jo"},"osm_type":"way","osm_id":428999316,"type":"city","location":[36.0434611,32.0174989],"bbox":[35.9974957,31.9968172,36.0774707,32.0431973]}}
{"name":"الرمثا","other_names":{"name:ar":"الرمثا","name:de":"Al Ramtha","name:en":"Ar Ramtha","name:fr":"Ar Ramtha","name:ml":"അർ-റംസ","name:ru":"Эр-Рамта","name:uk":"Ер-Рамса","int_name":"Ar Ramthā;Al Ramtha;Al Remtha"},"display_name":"الرمثا, قضاء الرمثا, لواء الرمثا, إربد, الأردن","address":{"city":"الرمثا","county":"قضاء الرمثا","state_district":"لواء الرمثا","state":"إربد","ISO3166-2-lvl4":"JO-IR","country":"الأردن","country_code":"jo"},"osm_type":"node","osm_id":802822908,"type":"city","location":[36.006944,32.559167],"bbox":[35.846944,32.399167,36.166944,32.719167]}
{"name":"الزرقاء","other_names":{"name:ar":"الزرقاء","name:be":"Эз-Зарка","name:bg":"Зарка","name:de":"Zarka","name:en":"Zarqa","name:es":"Zarqa","name:et":"Az-Zarqā’","name:eu":"Zarqa","name:fa":"زرقا","name:fr":"Zarka","name:he":"זרקא","name:hi":"ज़ार्का","name:ks":"زرقاء","name:ml":"സർഖ","name:ru":"Эз-Зарка","name:uk":"Ез-Зарка","name:ur":"زرقاء","int_name":"az-Zarqa;Al Zarqa;ez-Zerga;Zarqa;Zarka;Al Zarka"},"display_name":"الزرقاء, قضاء الزرقاء, لواء قصبة الزرقاء, الزرقاء, 13111, الأردن","address":{"city":"الزرقاء","county":"قضاء الزرقاء","state_district":"لواء قصبة الزرقاء","state":"الزرقاء","ISO3166-2-lvl4":"JO-AZ","postcode":"13111","country":"الأردن","country_code":"jo"},"population":395227,"osm_type":"node","osm_id":1506264134,"type":"city","location":[36.0885771,32.0668425],"bbox":[35.9285771,31.9068425,36.2485771,32.2268425],"border":{"name":"الزرقاء","other_names":{"name:ar":"الزرقاء","name:be":"Эз-Зарка","name:bg":"Зарка","name:de":"Zarka","name:en":"Zarqa","name:es":"Zarqa","name:fr":"Zarka","name:hi":"ज़ार्का","name:ks":"زرقاء","name:pt":"Zarqa","name:ru":"Эз-Зарка","name:uk":"Ез-Зарка","name:ur":"زرقاء","int_name":"az-Zarqa;Al Zarqa;ez-Zerga;Zarqa;Zarka;Al Zarka","name:et":"Az-Zarqā’","name:eu":"Zarqa","name:fa":"زرقا","name:he":"זרקא","name:ml":"സർഖ"},"display_name":"الزرقاء, قضاء الزرقاء, لواء قصبة الزرقاء, الزرقاء, الأردن","address":{"city":"الزرقاء","county":"قضاء الزرقاء","state_district":"لواء قصبة الزرقاء","state":"الزرقاء","ISO3166-2-lvl4":"JO-AZ","country":"الأردن","country_code":"jo"},"population":395227,"osm_type":"way","osm_id":379036545,"type":"city","location":[36.0885771,32.0668425],"bbox":[36.0174699,32.0197184,36.1338946,32.1185633]}}
{"name":"السلط","other_names":{"name:ar":"السلط","name:bg":"Салт","name:de":"Salt","name:en":"Al Salt","name:fa":"سلط","name:fr":"Salt","name:he":"סלט","name:ml":"സൽത്ത്","name:ru":"Ас-Сальт","name:uk":"Ес-Салт","name:ur":"سلط","int_name":"As Salţ;Al Salt;Ramoth Gilad","name:azb":"سلط","name:grc":"Σάλτος","name:mzn":"السلط","name:pnb":"السلط"},"display_name":"السلط, Al-Salt Sub-District, لواء قصبة السلط, البلقاء, الأردن","address":{"city":"السلط","county":"Al-Salt Sub-District","state_district":"لواء قصبة السلط","state":"البلقاء","ISO3166-2-lvl4":"JO-BA","country":"الأردن","country_code":"jo"},"osm_type":"node","osm_id":802856870,"type":"city","location":[35.7269843,32.0390779],"bbox":[35.5669843,31.8790779,35.8869843,32.1990779]}
{"name":"العقبة","other_names":{"name:ar":"العقبة","name:cs":"Akaba","name:da":"Akaba","name:de":"Akaba","name:el":"Άκαμπα","name:en":"Aqaba","name:et":"Al-‘Aqabah","name:eu":"Aqaba","name:fa":"عقبه","name:fr":"Aqaba","name:he":"עקבה","name:hi":"अक़बा","name:hr":"Akaba","name:kn":"ಅಕಬ","name:ko":"아카바","name:ks":"عقبہ","name:ml":"അഖബ","name:ru":"Акаба","name:sk":"Akaba","name:tr":"Akabe","name:uk":"Акаба","name:ur":"عقبہ","name:zh":"亚喀巴","name:azb":"عقبه","name:grc":"Αἰλάθ","name:mzn":"عقبه","name:ota":"عقبه","name:pnb":"عقبہ","alt_name:grc":"Ελά;Ἀηλά;Αἴλανα;Αἰλανίτης;Αἰλανή;Ἐλάνα;Αἴλανον;Αἰλάς;Αἰλών;Ἡλάθ;Αϊλά;Άιλα","name:az-Arab":"عقبه","name:kk-Arab":"اكابا","name:zh-Hans":"亚喀巴","name:zh-Hant":"亞喀巴","old_name:grc":"Βερενίκη"},"display_name":"العقبة, قضاء العقبة, لواء قصبة العقبة, العقبة, 77100, الأردن","address":{"city":"العقبة","county":"قضاء العقبة","state_district":"لواء قصبة العقبة","state":"العقبة","ISO3166-2-lvl4":"JO-AQ","postcode":"77100","country":"الأردن","country_code":"jo"},"population":103100,"osm_type":"node","osm_id":798842911,"type":"city","location":[35.0075433,29.5266483],"bbox":[34.8475433,29.3666483,35.1675433,29.6866483],"border":{"name":"العقبة","other_names":{"name:ar":"العقبة","name:cs":"Akaba","name:de":"Akaba","name:el":"Άκαμπα","name:en":"Aqaba","name:fa":"عقبه","name:fr":"Aqaba","name:he":"עקבה","name:hi":"अक़ाबा","name:ks":"عقبہ","name:pl":"Akaba","name:ru":"Акаба","name:uk":"Акаба","name:ur":"عقبہ","name:azb":"عقبه","name:mzn":"عقبه","name:ota":"عقبه","name:pnb":"عقبہ","name:az-Arab":"عقبه","name:kk-Arab":"اكابا","name:da":"Akaba","name:et":"Al-‘Aqabah","name:eu":"Aqaba","name:hr":"Akaba","name:kn":"ಅಕಬ","name:ko":"아카바","name:ml":"അഖബ","name:sk":"Akaba","name:tr":"Akabe","name:zh":"亚喀巴","name:grc":"Αἰλάθ","alt_name:grc":"Ελά;Ἀηλά;Αἴλανα;Αἰλανίτης;Αἰλανή;Ἐλάνα;Αἴλανον;Αἰλάς;Αἰλών;Ἡλάθ;Αϊλά;Άιλα","name:zh-Hans":"亚喀巴","name:zh-Hant":"亞喀巴","old_name:grc":"Βερενίκη","alt:hi":"अक़बा"},"display_name":"العقبة, قضاء العقبة, لواء قصبة العقبة, العقبة, 77100, الأردن","address":{"city":"العقبة","county":"قضاء العقبة","state_district":"لواء قصبة العقبة","state":"العقبة","ISO3166-2-lvl4":"JO-AQ","postcode":"77100","country":"الأردن","country_code":"jo"},"population":140000,"osm_type":"way","osm_id":193469321,"type":"city","location":[35.0075433,29.5266483],"bbox":[34.9787395,29.5142099,35.0442834,29.5747185]}}
{"name":"المفرق","other_names":{"name:ar":"المفرق","name:de":"Mafrak","name:en":"Al Mafraq","name:eu":"Mafraq","name:fr":"Mafraq","name:he":"מפרק","name:ml":"മഫ്രഖ്","name:ru":"Эль-Мафрак","name:uk":"Ель-Мафрак","int_name":"Al Mafraq"},"display_name":"المفرق, قضاء المفرق, لواء قصبة المفرق, المفرق, 25113, الأردن","address":{"city":"المفرق","county":"قضاء المفرق","state_district":"لواء قصبة المفرق","state":"المفرق","ISO3166-2-lvl4":"JO-MA","postcode":"25113","country":"الأردن","country_code":"jo"},"population":60000,"osm_type":"node","osm_id":270873411,"type":"city","location":[36.2075282,32.3423619],"bbox":[36.0475282,32.1823619,36.3675282,32.5023619]}
{"name":"ساكب","other_names":{"name:ar":"ساكب","name:de":"Sakib","name:en":"Sakib","name:es":"Sakib","name:eu":"Sakib","name:fa":"ساکب","name:fr":"Sakib","name:he":"סאקיב","name:ml":"സാക്കിബ്","name:ru":"Сакиб","name:uk":"Сакіб","name:ur":"ساکب"},"display_name":"ساكب, مقاطعة جرش, لواء قصبة جرش, جرش, 26710, الأردن","address":{"city":"ساكب","county":"مقاطعة جرش","state_district":"لواء قصبة جرش","state":"جرش","ISO3166-2-lvl4":"JO-JA","postcode":"26710","country":"الأردن","country_code":"jo"},"population":11586,"osm_type":"node","osm_id":4712484430,"type":"city","location":[35.8085641,32.2844022],"bbox":[35.6485641,32.1244022,35.9685641,32.4444022]}
{"name":"سحاب","other_names":{"name:ar":"سحاب","name:de":"Sahab","name:en":"Sahab","name:fa":"سحاب","name:fr":"Sahab","name:ml":"സഹാബ്","name:uk":"Сахаб","int_name":"Sahab"},"display_name":"سحاب, Sahab Sub-District, لواء سحاب, عمان, 11511, الأردن","address":{"city":"سحاب","county":"Sahab Sub-District","state_district":"لواء سحاب","state":"عمان","ISO3166-2-lvl4":"JO-AM","postcode":"11511","country":"الأردن","country_code":"jo"},"osm_type":"node","osm_id":802869352,"type":"city","location":[36.0043148,31.8786659],"bbox":[35.8443148,31.7186659,36.1643148,32.0386659],"border":{"name":"Sahab Sub-District","other_names":{"name:ar":"Sahab Sub-District","name:en":"Sahab Sub-District","name:fr":"Sahab"},"display_name":"Sahab Sub-District, لواء سحاب, عمان, 11511, الأردن","address":{"county":"Sahab Sub-District","state_district":"لواء سحاب","state":"عمان","ISO3166-2-lvl4":"JO-AM","postcode":"11511","country":"الأردن","country_code":"jo"},"osm_type":"relation","osm_id":13376022,"type":"administrative","location":[36.35751299168071,31.9450252],"bbox":[35.9850308,31.8416912,36.5099437,32.047336]}}
{"name":"سما السرحان","other_names":{"name:ar":"سما السرحان","name:en":"Sama as-Sirhan","name:fr":"Sama as-Sirhan","name:ml":"സമാ അസ്-സിർഹാൻ","name:nl":"Sama as-Sirhan","name:uk":"Сама ас-Сірхан"},"display_name":"سما السرحان, قضاء سما السرحان, لواء البادية الشمالية الغربية, المفرق, الأردن","address":{"city":"سما السرحان","county":"قضاء سما السرحان","state_district":"لواء البادية الشمالية الغربية","state":"المفرق","ISO3166-2-lvl4":"JO-MA","country":"الأردن","country_code":"jo"},"osm_type":"node","osm_id":7054842268,"type":"city","location":[36.2427479,32.4695306],"bbox":[36.0827479,32.3095306,36.4027479,32.6295306],"border":{"name":"سما السرحان","other_names":{"name:ar":"سما السرحان","name:en":"Sama as-Sirhan","name:fr":"Sama as-Sirhan","name:uk":"Сама ас-Сірхан","name:ml":"സമാ അസ്-സിർഹാൻ","name:nl":"Sama as-Sirhan"},"display_name":"سما السرحان, قضاء سما السرحان, لواء البادية الشمالية الغربية, المفرق, الأردن","address":{"city":"سما السرحان","county":"قضاء سما السرحان","state_district":"لواء البادية الشمالية الغربية","state":"المفرق","ISO3166-2-lvl4":"JO-MA","country":"الأردن","country_code":"jo"},"osm_type":"way","osm_id":755192936,"type":"city","location":[36.2427479,32.4695306],"bbox":[36.2189416,32.4444263,36.2798454,32.4953591]}}
{"name":"عمان","other_names":{"name:af":"Amman","name:am":"አማን","name:an":"Ammán","name:ar":"عمان","name:az":"Amman","name:ba":"Амман","name:be":"Аман","name:bg":"Аман","name:bn":"আম্মান","name:bo":"ཨམ་མན།","name:br":"Amman","name:bs":"Aman","name:ca":"Amman","name:ce":"Ӏамман","name:cs":"Ammán","name:cv":"Амман","name:cy":"Amman","name:da":"Amman","name:de":"Amman","name:el":"Αμμάν","name:en":"Amman","name:eo":"Amano","name:es":"Amán","name:et":"Amman","name:eu":"Amman","name:fa":"امان","name:fi":"Amman","name:fr":"Amman","name:fy":"Amman","name:ga":"Amman","name:gd":"Amman","name:gl":"Amán - عمان","name:gn":"Amã","name:ha":"Amman","name:he":"רבת עמון","name:hi":"अम्मान","name:hr":"Amman","name:ht":"Amàn","name:hu":"Ammán","name:hy":"Ամման","name:ia":"Amman","name:id":"Amman","name:ie":"Amman","name:io":"Amman","name:is":"Amman","name:it":"Amman","name:ja":"アンマン","name:jv":"Amman","name:ka":"ამანი","name:kg":"Amman","name:kk":"Амман","name:kn":"ಅಮ್ಮಾನ್","name:ko":"암만","name:ks":"عمان","name:ku":"Amman","name:ky":"Амман","name:la":"Philadelphia","name:lb":"Amman","name:lt":"Amanas","name:lv":"Ammāna","name:mg":"Amman","name:mk":"Аман","name:ml":"അമ്മാൻ","name:mn":"Амман","name:mr":"अम्मान","name:ms":"Amman","name:nb":"Amman","name:ne":"अम्मान","name:nl":"Amman","name:nn":"Amman","name:no":"Amman","name:oc":"Amman","name:os":"Амман","name:pa":"ਅਮਾਨ","name:pl":"Amman","name:ps":"آمان","name:pt":"Amã","name:qu":"Amman","name:ro":"Amman","name:ru":"Амман","name:sc":"Amman","name:sd":"عمان، اردن","name:sk":"Ammán","name:sl":"Aman","name:sn":"Amman","name:sq":"Amani","name:sr":"Аман","name:sv":"Amman","name:sw":"Amman","name:ta":"அம்மான்","name:te":"అమ్మాన్","name:tg":"Аммон","name:th":"อัมมาน","name:tl":"Aman","name:tr":"Amman","name:tt":"Амман","name:ug":"ئاممان","name:uk":"Амман","name:ur":"عمان","name:uz":"Amman","name:vi":"Amman","name:vo":"Amman","name:wo":"Amman","name:yi":"אמאן","name:yo":"Amman","name:zh":"安曼","int_name":"Amman","name:arc":"ܥܡܐܢ","name:ckb":"عەممان","name:kab":"Ɛemman","name:mzn":"امان","name:nah":"Ammān","name:nov":"Aman","name:pnb":"عمان شہر","name:wuu":"安曼","alt_name:ar":"عمّان","name:bat-smg":"Amans","name:zh-Hans":"安曼","name:zh-Hant":"安曼"},"display_name":"عمان, ناحية عمان, لواء قصبة عمان, عمان, 11118, الأردن","address":{"city":"عمان","county":"ناحية عمان","state_district":"لواء قصبة عمان","state":"عمان","ISO3166-2-lvl4":"JO-AM","postcode":"11118","country":"الأردن","country_code":"jo"},"population":4000000,"osm_type":"node","osm_id":1643504896,"type":"city","location":[35.9239625,31.9515694],"bbox":[35.7639625,31.7915694,36.0839625,32.1115694]}
{"name":"مادبا","other_names":{"name:ar":"مادبا","name:de":"Madaba","name:el":"Μάνταμπα","name:en":"Madaba","name:es":"Madaba","name:eu":"Madaba","name:fa":"مادبا","name:fr":"Madaba","name:he":"מידבא","name:hi":"मदाबा","name:ks":"مادبا","name:ml":"മാദബ","name:pt":"Madaba","name:ru":"Мадаба","name:uk":"Мадаба","name:ur":"مادبا","alt_name":"مأدبا","name:azb":"مادبا","name:grc":"Μαιδαβά","alt_name:ar":"مأدبا","alt_name:grc":"Μήδαβα","name:ar-Latn":"Mādabā","name:az-Arab":"مادبا"},"display_name":"مادبا, Madaba Sub-District, لواء قصبة مادبا, مادبا, 17110, الأردن","address":{"city":"مادبا","county":"Madaba Sub-District","state_district":"لواء قصبة مادبا","state":"مادبا","ISO3166-2-lvl4":"JO-MD","postcode":"17110","country":"الأردن","country_code":"jo"},"population":65000,"osm_type":"node","osm_id":799097498,"type":"city","location":[35.7943856,31.7165941],"bbox":[35.6343856,31.5565941,35.9543856,31.8765941]}
{"name":"مخيم الزعتري","other_names":{"name:ar":"مخيم الزعتري","name:en":"Al Zaatari Refugee Camp","name:fa":"مخيم الزعتري","name:fr":"Camp de réfugiés de Zaatari","int_name":"Zaatri Refugee Camp","loc_name":"مخيم الزعتري"},"display_name":"مخيم الزعتري, Al Wajd Street, B-05-21, District 5, قضاء البادية الشمالية الغربية, لواء البادية الشمالية الغربية, المفرق, الأردن","address":{"amenity":"مخيم الزعتري","road":"Al Wajd Street","city_district":"B-05-21","city":"District 5","county":"قضاء البادية الشمالية الغربية","state_district":"لواء البادية الشمالية الغربية","state":"المفرق","ISO3166-2-lvl4":"JO-MA","country":"الأردن","country_code":"jo"},"population":79943,"osm_type":"node","osm_id":2331717281,"type":"refugee_site","location":[36.3267426,32.2942395],"bbox":[36.3266926,32.2941895,36.3267926,32.2942895]}
{"name":"معان","other_names":{"name:ar":"معان","name:de":"Ma'an","name:en":"Maan","name:fr":"Ma'an","name:he":"מעאן","name:hi":"मान","name:hy":"Մաան","name:ks":"معان","name:ml":"മാൻ","name:ru":"Маан","name:uk":"Маан","name:ur":"معان","name:azb":"معان","name:pnb":"معان","name:az-Arab":"معان"},"display_name":"معان, Ma'an Sub-District, لواء قصبة معان, معان, الأردن","address":{"city":"معان","county":"Ma'an Sub-District","state_district":"لواء قصبة معان","state":"معان","ISO3166-2-lvl4":"JO-MN","country":"الأردن","country_code":"jo"},"osm_type":"node","osm_id":802584976,"type":"city","location":[35.7333329,30.2],"bbox":[35.5733329,30.04,35.8933329,30.36]}
{"name":"مغير السرحان","other_names":{"name:ar":"مغير السرحان","name:en":"Mughayyir Assrhan","name:fr":"Mugayyir as-Sirhan","name:ml":"മുഗയ്യിർ അസ്-സിർഹാൻ","name:uk":"Мгейр ас-Сірхан"},"display_name":"مغير السرحان, قضاء سما السرحان, لواء البادية الشمالية الغربية, المفرق, الأردن","address":{"city":"مغير السرحان","county":"قضاء سما السرحان","state_district":"لواء البادية الشمالية الغربية","state":"المفرق","ISO3166-2-lvl4":"JO-MA","country":"الأردن","country_code":"jo"},"osm_type":"node","osm_id":7057365812,"type":"city","location":[36.1943785,32.4588564],"bbox":[36.0343785,32.2988564,36.3543785,32.6188564],"border":{"name":"مغير السرحان","other_names":{"name:ar":"مغير السرحان","name:en":"Mgayer assrhan","name:fr":"Mugayyir as-Sirhan","name:uk":"Мгейр ас-Сірхан","name:ml":"മുഗയ്യിർ അസ്-സിർഹാൻ","alt:en":"Mughayyir Assrhan"},"display_name":"مغير السرحان, قضاء سما السرحان, لواء البادية الشمالية الغربية, المفرق, الأردن","address":{"city":"مغير السرحان","county":"قضاء سما السرحان","state_district":"لواء البادية الشمالية الغربية","state":"المفرق","ISO3166-2-lvl4":"JO-MA","country":"الأردن","country_code":"jo"},"osm_type":"way","osm_id":620376143,"type":"city","location":[36.1943785,32.4588564],"bbox":[36.1707791,32.442893,36.2149608,32.491728]}}
{"name":"منيشير","other_names":{"name:ar":"منيشير","name:en":"Munayshīr","name:fr":"Mneeshir","name:ml":"മുനൈഷിർ"},"display_name":"منيشير, قضاء الديسة, لواء القويرة, العقبة, الأردن","address":{"city":"منيشير","county":"قضاء الديسة","state_district":"لواء القويرة","state":"العقبة","ISO3166-2-lvl4":"JO-AQ","country":"الأردن","country_code":"jo"},"osm_type":"node","osm_id":802530969,"type":"city","location":[35.565163,29.588574],"bbox":[35.405163,29.428574,35.725163,29.748574]}
