{"name":"Khairenitar","display_name":"Khairenitar, Shuklagandaki, तनहुँ, गण्डकी प्रदेश, नेपाल","address":{"city":"Khairenitar","municipality":"Shuklagandaki","county":"तनहुँ","state":"गण्डकी प्रदेश","ISO3166-2-lvl4":"NP-P4","country":"नेपाल","country_code":"np"},"osm_type":"node","osm_id":11357643278,"type":"city","location":[84.0903075,28.0258265],"bbox":[83.9303075,27.8658265,84.2503075,28.1858265]}
{"name":"Shivnagar Chowk","display_name":"Shivnagar Chowk, Chakraghatta, सर्लाही, मधेश प्रदेश, 45801, नेपाल","address":{"city":"Shivnagar Chowk","municipality":"Chakraghatta","county":"सर्लाही","state":"मधेश प्रदेश","ISO3166-2-lvl4":"NP-P2","postcode":"45801","country":"नेपाल","country_code":"np"},"osm_type":"node","osm_id":12832756801,"type":"city","location":[85.5015357,26.9296129],"bbox":[85.3415357,26.7696129,85.6615357,27.0896129]}
{"name":"Urlabari City","other_names":{"name:bn":"উর্লাবাড়ী","name:en":"Urlabari City","name:ne":"उर्लाबारी बजार","name:pl":"Urlabari"},"display_name":"Urlabari City, Uralabari, मोरङ, कोशी प्रदेश, 55217, नेपाल","address":{"city":"Urlabari City","municipality":"Uralabari","county":"मोरङ","state":"कोशी प्रदेश","ISO3166-2-lvl4":"NP-P1","postcode":"55217","country":"नेपाल","country_code":"np"},"population":70908,"osm_type":"node","osm_id":3481538971,"type":"city","location":[87.6380633,26.6637932],"bbox":[87.4780633,26.5037932,87.7980633,26.8237932]}
{"name":"इटहरी","other_names":{"name:bn":"ইটাহারি","name:en":"Itahari","name:ne":"इटहरी","name:pl":"Itahari"},"display_name":"इटहरी, सुनसरी, कोशी प्रदेश, नेपाल","address":{"city":"इटहरी","county":"सुनसरी","state":"कोशी प्रदेश","ISO3166-2-lvl4":"NP-P1","country":"नेपाल","country_code":"np"},"osm_type":"node","osm_id":5417397405,"type":"city","location":[87.2748964,26.6622505],"bbox":[87.1148964,26.5022505,87.4348964,26.8222505],"border":{"name":"इटहरी","other_names":{"name:en":"Itahari","name:ne":"इटहरी","name:bn":"ইটাহারি","name:pl":"Itahari"},"display_name":"इटहरी, सुनसरी, कोशी प्रदेश, नेपाल","address":{"city":"इटहरी","county":"सुनसरी","state":"कोशी प्रदेश","ISO3166-2-lvl4":"NP-P1","country":"नेपाल","country_code":"np"},"osm_type":"relation","osm_id":12379916,"type":"administrative","location":[87.2748964,26.6622505],"bbox":[87.2025753,26.6104288,87.3278659,26.7374854]}}
{"name":"काठमाडौं","other_names":{"name:af":"Katmandoe","name:am":"ካትማንዱ","name:an":"Katmandú","name:ar":"كاثماندو","name:az":"Katmandu","name:be":"Катманду","name:bg":"Катманду","name:bh":"काठमाडौं","name:bn":"কাঠমান্ডু","name:bo":"ཀ་ཏ་མན་ཏུ།","name:br":"Kathmandu","name:bs":"Katmandu","name:ca":"Katmandú","name:cs":"Káthmándú","name:da":"Katmandu","name:de":"Kathmandu","name:el":"Κατμαντού","name:en":"Kathmandu","name:eo":"Katmanduo","name:es":"Katmandú","name:et":"Katmandu","name:eu":"Katmandu","name:fa":"کاتماندو","name:fr":"Katmandou","name:fy":"Katmandû","name:gl":"Katmandu - काठमांडौ","name:gu":"કાઠમંડુ","name:he":"קטמנדו","name:hi":"काठमांडू","name:hr":"Katmandu","name:ht":"Katmandou","name:hu":"Katmandu","name:hy":"Կատմանդու","name:io":"Katmandu","name:is":"Katmandú","name:it":"Katmandu","name:ja":"カトマンズ","name:ka":"კატმანდუ","name:kk":"Катманду","name:kn":"ಕಾಠ್ಮಂಡು","name:ko":"카트만두","name:lb":"Katmandu","name:lt":"Katmandu","name:lv":"Katmandu","name:mk":"Катманду","name:ml":"കാഠ്മണ്ഡു","name:mn":"Катманду","name:mr":"काठमांडू","name:ne":"काठमाडौं","name:nl":"Kathmandu","name:nn":"Katmandu","name:no":"Katmandu","name:oc":"Katmandó","name:os":"Катманду","name:pl":"Katmandu","name:pt":"Catmandu","name:ru":"Катманду","name:sa":"काट्मण्डू","name:sh":"Katmandu","name:si":"කත්මන්ඩු","name:sk":"Káthmandu","name:sl":"Katmandu","name:sr":"Катманду","name:sv":"Katmandu","name:ta":"காட்மாண்டூ","name:te":"ఖాట్మండు","name:tg":"Катманду","name:th":"กาฐมาณฑุ","name:tr":"Katmandu","name:ug":"كاتماندۇ","name:uk":"Катманду","name:ur":"کھٹمنڈو","name:vi":"Kathmandu","name:vo":"Kathmandau","name:zh":"加德满都","alt_name":"य","int_name":"Kathmandu","name:ckb":"کاتماندوو","name:hsb":"Katmandu","name:kab":"Katmandu","name:lij":"Katmandu","name:new":"येँ","name:nov":"Katmandu","name:pnb":"کھٹمنڈو","name:yue":"加德滿都","nat_name":"काठमांडौ","name:bat-smg":"Katmandū","name:zh-Hans":"加德满都","name:be-tarask":"Катманду"},"display_name":"काठमाडौं, काठमाडौँ महानगरपालिका, काठमाडौं, बागमती प्रदेश, नेपाल","address":{"city":"काठमाडौं","county":"काठमाडौं","state":"बागमती प्रदेश","ISO3166-2-lvl4":"NP-P3","country":"नेपाल","country_code":"np"},"population":975000,"osm_type":"node","osm_id":67157058,"type":"city","location":[85.3205817,27.708317],"bbox":[85.1605817,27.548317,85.4805817,27.868317],"border":[{"name":"काठमाडौं","other_names":{"name:en":"Kathmandu","name:ja":"カトマンズ","name:ne":"काठमाडौं","name:pl":"Katmandu","name:ru":"Катманду","name:sk":"Káthmandu","name:zh":"加德满都","int_name":"Kathmandu"},"display_name":"काठमाडौं, बागमती प्रदेश, नेपाल","address":{"county":"काठमाडौं","state":"बागमती प्रदेश","ISO3166-2-lvl4":"NP-P3","country":"नेपाल","country_code":"np"},"osm_type":"relation","osm_id":4583247,"type":"administrative","location":[85.28831834642071,27.69411375],"bbox":[85.1882351,27.5700993,85.5659596,27.8180558]},{"name":"काठमाडौँ महानगरपालिका","other_names":{"name:en":"Kathmandu Metropolitan City","name:ne":"काठमाडौँ महानगरपालिका","name:sk":"metropolitné mesto Káthmandu","name:af":"Katmandoe","name:am":"ካትማንዱ","name:an":"Katmandú","name:ar":"كاثماندو","name:az":"Katmandu","name:be":"Катманду","name:bg":"Катманду","name:bh":"काठमाडौं","name:bn":"কাঠমান্ডু","name:bo":"ཀ་ཏ་མན་ཏུ།","name:br":"Kathmandu","name:bs":"Katmandu","name:ca":"Katmandú","name:cs":"Káthmándú","name:da":"Katmandu","name:de":"Kathmandu","name:el":"Κατμαντού","name:eo":"Katmanduo","name:es":"Katmandú","name:et":"Katmandu","name:eu":"Katmandu","name:fa":"کاتماندو","name:fr":"Katmandou","name:fy":"Katmandû","name:gl":"Katmandu - काठमांडौ","name:gu":"કાઠમંડુ","name:he":"קטמנדו","name:hi":"काठमांडू","name:hr":"Katmandu","name:ht":"Katmandou","name:hu":"Katmandu","name:hy":"Կատմանդու","name:io":"Katmandu","name:is":"Katmandú","name:it":"Katmandu","name:ja":"カトマンズ","name:ka":"კატმანდუ","name:kk":"Катманду","name:kn":"ಕಾಠ್ಮಂಡು","name:ko":"카트만두","name:lb":"Katmandu","name:lt":"Katmandu","name:lv":"Katmandu","name:mk":"Катманду","name:ml":"കാഠ്മണ്ഡു","name:mn":"Катманду","name:mr":"काठमांडू","name:nl":"Kathmandu","name:nn":"Katmandu","name:no":"Katmandu","name:oc":"Katmandó","name:os":"Катманду","name:pl":"Katmandu","name:pt":"Catmandu","name:ru":"Катманду","name:sa":"काट्मण्डू","name:sh":"Katmandu","name:si":"කත්මන්ඩු","name:sl":"Katmandu","name:sr":"Катманду","name:sv":"Katmandu","name:ta":"காட்மாண்டூ","name:te":"ఖాట్మండు","name:tg":"Катманду","name:th":"กาฐมาณฑุ","name:tr":"Katmandu","name:ug":"كاتماندۇ","name:uk":"Катманду","name:ur":"کھٹمنڈو","name:vi":"Kathmandu","name:vo":"Kathmandau","name:zh":"加德满都","alt_name":"य","int_name":"Kathmandu","name:ckb":"کاتماندوو","name:hsb":"Katmandu","name:kab":"Katmandu","name:lij":"Katmandu","name:new":"येँ","name:nov":"Katmandu","name:pnb":"کھٹمنڈو","name:yue":"加德滿都","nat_name":"काठमांडौ","name:bat-smg":"Katmandū","name:zh-Hans":"加德满都","name:be-tarask":"Катманду","alt":"काठमाडौं","alt:en":"Kathmandu","alt:ne":"काठमाडौं","alt:sk":"Káthmandu"},"display_name":"काठमाडौँ महानगरपालिका, काठमाडौं, बागमती प्रदेश, नेपाल","address":{"city":"काठमाडौँ महानगरपालिका","county":"काठमाडौं","state":"बागमती प्रदेश","ISO3166-2-lvl4":"NP-P3","country":"नेपाल","country_code":"np"},"population":975000,"osm_type":"relation","osm_id":12394677,"type":"administrative","location":[85.3205817,27.708317],"bbox":[85.2771438,27.6679494,85.3731257,27.7500026]}]}
{"name":"केर्खा बजार","other_names":{"name:bn":"কেরখা বাজার","name:en":"Kerkha Bazar","name:ne":"केर्खा बजार"},"display_name":"केर्खा बजार, Kamal, झापा जिल्ला, कोशी प्रदेश, 56007, नेपाल","address":{"city":"केर्खा बजार","municipality":"Kamal","county":"झापा जिल्ला","state":"कोशी प्रदेश","ISO3166-2-lvl4":"NP-P1","postcode":"56007","country":"नेपाल","country_code":"np"},"osm_type":"node","osm_id":4995432288,"type":"city","location":[87.758237,26.6493976],"bbox":[87.598237,26.4893976,87.918237,26.8093976]}
{"name":"कोहलपुर","other_names":{"name:en":"Kohalpur","name:ne":"कोहलपुर","int_name":"Kohalpur"},"display_name":"कोहलपुर, Kohalpur, नेपालगंज, लुम्बिनी प्रदेश, 21900, नेपाल","address":{"city":"कोहलपुर","municipality":"Kohalpur","county":"नेपालगंज","state":"लुम्बिनी प्रदेश","ISO3166-2-lvl4":"NP-P5","postcode":"21900","country":"नेपाल","country_code":"np"},"population":100289,"osm_type":"node","osm_id":296305204,"type":"city","location":[81.6909134,28.1987467],"bbox":[81.5309134,28.0387467,81.8509134,28.3587467],"border":{"name":"Kohalpur","display_name":"Kohalpur, नेपालगंज, लुम्बिनी प्रदेश, 21904, नेपाल","address":{"municipality":"Kohalpur","county":"नेपालगंज","state":"लुम्बिनी प्रदेश","ISO3166-2-lvl4":"NP-P5","postcode":"21904","country":"नेपाल","country_code":"np"},"osm_type":"relation","osm_id":10483950,"type":"administrative","location":[81.72892362336378,28.21795455],"bbox":[81.6234804,28.1202053,81.8277963,28.3154039]}}
{"name":"गोरखा","other_names":{"name:bn":"গুর্খা","name:en":"Gorkha","name:ne":"गोरखा"},"display_name":"गोरखा, गण्डकी प्रदेश, नेपाल","address":{"city":"गोरखा","municipality":"गोरखा","county":"गोरखा","state":"गण्डकी प्रदेश","ISO3166-2-lvl4":"NP-P4","country":"नेपाल","country_code":"np"},"osm_type":"node","osm_id":4896508190,"type":"city","location":[84.6259428,27.9969584],"bbox":[84.4659428,27.8369584,84.7859428,28.1569584],"border":[{"name":"गोरखा","other_names":{"name:de":"Gorkha","name:en":"Gorkha","name:ja":"ゴルカ","name:ne":"गोरखा","name:pl":"Gorkha","int_name":"Gorkha"},"display_name":"गोरखा, गण्डकी प्रदेश, नेपाल","address":{"county":"गोरखा","state":"गण्डकी प्रदेश","ISO3166-2-lvl4":"NP-P4","country":"नेपाल","country_code":"np"},"osm_type":"relation","osm_id":4588150,"type":"administrative","location":[84.84075830956277,28.2708368],"bbox":[84.4186891,27.7955552,85.197831,28.75157]},{"name":"गोरखा","other_names":{"name:en":"Gorkha","name:ne":"गोरखा"},"display_name":"गोरखा, गण्डकी प्रदेश, नेपाल","address":{"municipality":"गोरखा","county":"गोरखा","state":"गण्डकी प्रदेश","ISO3166-2-lvl4":"NP-P4","country":"नेपाल","country_code":"np"},"osm_type":"relation","osm_id":10524445,"type":"administrative","location":[84.60481872992312,27.97746715],"bbox":[84.4745239,27.9052265,84.7028629,28.0497165]}]}
{"name":"घोराही","other_names":{"name:bn":"ঘোরাহী","name:en":"Ghorahi","name:fr":"Ghorahi","name:ne":"घोराही","old_name:fr":"Tribhuwannagar"},"display_name":"घोराही, दाङ, लुम्बिनी प्रदेश, 22415, नेपाल","address":{"city":"घोराही","municipality":"घोराही","county":"दाङ","state":"लुम्बिनी प्रदेश","ISO3166-2-lvl4":"NP-P5","postcode":"22415","country":"नेपाल","country_code":"np"},"osm_type":"node","osm_id":5809166582,"type":"city","location":[82.4866861,28.0393605],"bbox":[82.3266861,27.8793605,82.6466861,28.1993605],"border":{"name":"घोराही","other_names":{"name:en":"Ghorahi","name:ne":"घोराही"},"display_name":"घोराही, दाङ, लुम्बिनी प्रदेश, 22415, नेपाल","address":{"municipality":"घोराही","county":"दाङ","state":"लुम्बिनी प्रदेश","ISO3166-2-lvl4":"NP-P5","postcode":"22415","country":"नेपाल","country_code":"np"},"osm_type":"relation","osm_id":10507335,"type":"administrative","location":[82.46430244344927,28.02543695],"bbox":[82.3333824,27.8968847,82.6220958,28.1537231]}}
{"name":"जनकपुर","other_names":{"name:be":"Джанакпур","name:bn":"জনকপুর","name:en":"Janakpur","name:fr":"Janakpur","name:hi":"जनकपुर","name:ja":"ジャナクプル","name:kn":"ಜನಕಪುರ","name:ne":"जनकपुर","name:pl":"Janakpur","name:ru":"Джанакпур","name:ta":"ஜனக்பூர்","name:zh":"贾纳克布尔"},"display_name":"जनकपुर, धनुषा, मधेश प्रदेश, नेपाल","address":{"city":"जनकपुर","municipality":"जनकपुर","county":"धनुषा","state":"मधेश प्रदेश","ISO3166-2-lvl4":"NP-P2","country":"नेपाल","country_code":"np"},"population":95000,"osm_type":"node","osm_id":806482934,"type":"city","location":[85.9249005,26.7284541],"bbox":[85.7649005,26.5684541,86.0849005,26.8884541],"border":{"name":"जनकपुर","other_names":{"name:en":"Janakpur","name:ne":"जनकपुर"},"display_name":"जनकपुर, धनुषा, मधेश प्रदेश, नेपाल","address":{"municipality":"जनकपुर","county":"धनुषा","state":"मधेश प्रदेश","ISO3166-2-lvl4":"NP-P2","country":"नेपाल","country_code":"np"},"osm_type":"relation","osm_id":10426065,"type":"administrative","location":[85.93643035322714,26.7281124],"bbox":[85.8791593,26.670564,85.9942079,26.7848546]}}
{"name":"तुलसीपुर","other_names":{"name:bn":"তুলসীপুর","name:en":"Tulsipur","name:fr":"Tulsipur","name:hi":"तुलसीपुर","name:ne":"तुलसीपुर"},"display_name":"तुलसीपुर, दाङ, लुम्बिनी प्रदेश, 22412, नेपाल","address":{"city":"तुलसीपुर","municipality":"तुलसीपुर","county":"दाङ","state":"लुम्बिनी प्रदेश","ISO3166-2-lvl4":"NP-P5","postcode":"22412","country":"नेपाल","country_code":"np"},"osm_type":"node","osm_id":5874653695,"type":"city","location":[82.2983065,28.1312133],"bbox":[82.1383065,27.9712133,82.4583065,28.2912133],"border":{"name":"तुलसीपुर","other_names":{"name:en":"Tulsipur","name:ne":"तुलसीपुर"},"display_name":"तुलसीपुर, दाङ, लुम्बिनी प्रदेश, 22412, नेपाल","address":{"municipality":"तुलसीपुर","county":"दाङ","state":"लुम्बिनी प्रदेश","ISO3166-2-lvl4":"NP-P5","postcode":"22412","country":"नेपाल","country_code":"np"},"osm_type":"relation","osm_id":10507336,"type":"administrative","location":[82.31895613569378,28.10627885],"bbox":[82.2019274,27.9645125,82.4309971,28.2487494]}}
{"name":"दमक","other_names":{"name:ar":"دمك","name:bn":"দমক","name:en":"Damak","name:fa":"دمک","name:ja":"ダマク","name:ne":"दमक","name:ur":"دمک","int_name":"Damak"},"display_name":"दमक, झापा जिल्ला, कोशी प्रदेश, 57217, नेपाल","address":{"city":"दमक","municipality":"दमक","county":"झापा जिल्ला","state":"कोशी प्रदेश","ISO3166-2-lvl4":"NP-P1","postcode":"57217","country":"नेपाल","country_code":"np"},"population":107500,"osm_type":"node","osm_id":575591611,"type":"city","location":[87.7011507,26.6650146],"bbox":[87.5411507,26.5050146,87.8611507,26.8250146],"border":{"name":"दमक","other_names":{"name:en":"Damak","name:ne":"दमक"},"display_name":"दमक, झापा जिल्ला, कोशी प्रदेश, नेपाल","address":{"municipality":"दमक","county":"झापा जिल्ला","state":"कोशी प्रदेश","ISO3166-2-lvl4":"NP-P1","country":"नेपाल","country_code":"np"},"osm_type":"relation","osm_id":7405325,"type":"administrative","location":[87.68010106777895,26.670146449999997],"bbox":[87.6381594,26.5895505,87.7169251,26.7501791]}}
{"name":"दिक्तेल","other_names":{"name:en":"Diktel","name:ja":"ディクテル","name:ne":"दिक्तेल"},"display_name":"दिक्तेल, Rupakot Majhuwagadhi, खोटाङ, कोशी प्रदेश, नेपाल","address":{"city":"दिक्तेल","municipality":"Rupakot Majhuwagadhi","county":"खोटाङ","state":"कोशी प्रदेश","ISO3166-2-lvl4":"NP-P1","country":"नेपाल","country_code":"np"},"osm_type":"node","osm_id":3381834048,"type":"city","location":[86.793175,27.213278],"bbox":[86.633175,27.053278,86.953175,27.373278]}
{"name":"धनगढी","other_names":{"name:bn":"ধনগাড়ী","name:de":"Dhangadhi","name:en":"Dhangadhi","name:es":"Dhangadhi","name:fr":"Dhangadhi","name:hi":"धनगढी","name:ja":"ダンガディ","name:kn":"ಧಂಗಧಿ","name:ne":"धनगढी","name:ru":"Дхангадхи","name:ur":"دھن گڑھی","name:zh":"丹加地"},"display_name":"धनगढी, Dhangadhi, कैलाली, सुदूरपश्चिम प्रदेश, नेपाल","address":{"city":"धनगढी","municipality":"Dhangadhi","county":"कैलाली","state":"सुदूरपश्चिम प्रदेश","ISO3166-2-lvl4":"NP-P7","country":"नेपाल","country_code":"np"},"population":102000,"osm_type":"node","osm_id":1492980542,"type":"city","location":[80.567017,28.703304],"bbox":[80.407017,28.543304,80.727017,28.863304],"border":{"name":"Dhangadhi","display_name":"Dhangadhi, कैलाली, सुदूरपश्चिम प्रदेश, 10900, नेपाल","address":{"municipality":"Dhangadhi","county":"कैलाली","state":"सुदूरपश्चिम प्रदेश","ISO3166-2-lvl4":"NP-P7","postcode":"10900","country":"नेपाल","country_code":"np"},"osm_type":"relation","osm_id":10466222,"type":"administrative","location":[80.65232601796646,28.67531335],"bbox":[80.5373908,28.5662026,80.7567941,28.7846205]}}
{"name":"धरान","other_names":{"name:bn":"ধারান","name:en":"Dharan","name:ja":"ダーラン","name:ne":"धरान","name:pl":"Dharan","int_name":"Dharan"},"display_name":"धरान, सुनसरी, कोशी प्रदेश, नेपाल","address":{"city":"धरान","county":"सुनसरी","state":"कोशी प्रदेश","ISO3166-2-lvl4":"NP-P1","country":"नेपाल","country_code":"np"},"osm_type":"node","osm_id":817072708,"type":"city","location":[87.2839978,26.8128974],"bbox":[87.1239978,26.6528974,87.4439978,26.9728974],"border":{"name":"धरान","other_names":{"name:en":"Dharan","name:ne":"धरान","name:bn":"ধারান","name:ja":"ダーラン","name:pl":"Dharan","int_name":"Dharan"},"display_name":"धरान, सुनसरी, कोशी प्रदेश, 56700, नेपाल","address":{"city":"धरान","county":"सुनसरी","state":"कोशी प्रदेश","ISO3166-2-lvl4":"NP-P1","postcode":"56700","country":"नेपाल","country_code":"np"},"osm_type":"relation","osm_id":12379917,"type":"administrative","location":[87.2839978,26.8128974],"bbox":[87.1981146,26.7120528,87.3538064,26.8788928]}}
{"name":"नेपालगन्ज","other_names":{"name:en":"Nepalgunj","name:fr":"Nepalganj","name:hi":"नेपालगंज","name:ja":"ネパールガンジ","name:kn":"ನೇಪಾಳಗಂಜ್","name:ne":"नेपालगन्ज"},"display_name":"नेपालगन्ज, NSMC-24 | Khas Karkando, नेपालगंज, लुम्बिनी प्रदेश, 22010, नेपाल","address":{"city":"नेपालगन्ज","municipality":"NSMC-24 | Khas Karkando","county":"नेपालगंज","state":"लुम्बिनी प्रदेश","ISO3166-2-lvl4":"NP-P5","postcode":"22010","country":"नेपाल","country_code":"np"},"population":72503,"osm_type":"node","osm_id":282864466,"type":"city","location":[81.625847,28.058903],"bbox":[81.465847,27.898903,81.785847,28.218903],"border":{"name":"नेपालगंज","other_names":{"name:en":"Nepalgunj","name:ja":"バンケ","name:ne":"नेपालगंज","int_name":"Nepalgunj"},"display_name":"नेपालगंज, लुम्बिनी प्रदेश, नेपाल","address":{"county":"नेपालगंज","state":"लुम्बिनी प्रदेश","ISO3166-2-lvl4":"NP-P5","country":"नेपाल","country_code":"np"},"osm_type":"relation","osm_id":4586364,"type":"administrative","location":[81.7714408432148,28.0960951],"bbox":[81.4988191,27.8536315,82.1940544,28.3381548]}}
{"name":"पोखरा","other_names":{"name:bn":"পোখারা","name:cs":"Pókhara","name:de":"Pokhara","name:en":"Pokhara","name:es":"Pokhara","name:fr":"Pokhara","name:hi":"पोखरा","name:ja":"ポカラ","name:ne":"पोखरा","name:no":"Pokhara","name:ru":"Покхара","name:ta":"போக்காரா","name:uk":"Покгара","name:zh":"博卡拉","int_name":"Pokhara"},"display_name":"पोखरा, Pokhara, कास्की, गण्डकी प्रदेश, नेपाल","address":{"city":"पोखरा","county":"कास्की","state":"गण्डकी प्रदेश","ISO3166-2-lvl4":"NP-P4","country":"नेपाल","country_code":"np"},"population":500000,"osm_type":"node","osm_id":29922899,"type":"city","location":[83.991402,28.209538],"bbox":[83.831402,28.049538,84.151402,28.369538],"border":{"name":"Pokhara","other_names":{"name:ne":"पोखरा महानगरपालिका","name:pl":"Pokhara","name:uk":"Покгара","name:bn":"পোখারা","name:cs":"Pókhara","name:de":"Pokhara","name:en":"Pokhara","name:es":"Pokhara","name:fr":"Pokhara","name:hi":"पोखरा","name:ja":"ポカラ","name:no":"Pokhara","name:ru":"Покхара","name:ta":"போக்காரா","name:zh":"博卡拉","int_name":"Pokhara","alt":"पोखरा","alt:ne":"पोखरा"},"display_name":"Pokhara, कास्की, गण्डकी प्रदेश, नेपाल","address":{"city":"Pokhara","county":"कास्की","state":"गण्डकी प्रदेश","ISO3166-2-lvl4":"NP-P4","country":"नेपाल","country_code":"np"},"population":500000,"osm_type":"relation","osm_id":6104486,"type":"administrative","location":[83.991402,28.209538],"bbox":[83.7987185,28.0777267,84.1474462,28.3412243]}}
{"name":"बिरगंज","other_names":{"name:ar":"برغنج","name:bn":"বীরগঞ্জ","name:de":"Birganj","name:en":"Birgunj","name:fa":"برگنج","name:hi":"बिरगंज","name:ja":"ビールガンジ","name:ne":"बिरगंज","name:pl":"Birgunj","name:ru":"Биргандж","name:ur":"برگنج","name:zh":"比尔甘杰","int_name":"Birganj"},"display_name":"बिरगंज, Birgunj, पर्सा, मधेश प्रदेश, 44300, नेपाल","address":{"city":"बिरगंज","municipality":"Birgunj","county":"पर्सा","state":"मधेश प्रदेश","ISO3166-2-lvl4":"NP-P2","postcode":"44300","country":"नेपाल","country_code":"np"},"population":135904,"osm_type":"node","osm_id":575866576,"type":"city","location":[84.8763804,27.0135196],"bbox":[84.7163804,26.8535196,85.0363804,27.1735196],"border":{"name":"Birgunj","display_name":"Birgunj, पर्सा, मधेश प्रदेश, 44300, नेपाल","address":{"municipality":"Birgunj","county":"पर्सा","state":"मधेश प्रदेश","ISO3166-2-lvl4":"NP-P2","postcode":"44300","country":"नेपाल","country_code":"np"},"osm_type":"relation","osm_id":12389468,"type":"administrative","location":[84.91209743103644,27.10840675],"bbox":[84.8096763,26.9839416,84.9644039,27.2327468]}}
{"name":"बिराटनगर","other_names":{"name:ar":"بيراتنغر","name:bn":"বিরাটনগর","name:en":"Biratnagar","name:fa":"بیراتنگر","name:hi":"बिराटनगर","name:ja":"ビラートナガル","name:kn":"ಬಿರಾತನಗರ","name:ne":"बिराटनगर","name:pl":"Biratnagar","name:ru":"Биратнагар","name:ur":"بیرات نگر"},"display_name":"बिराटनगर, Biratnagar, मोरङ, कोशी प्रदेश, नेपाल","address":{"city":"बिराटनगर","county":"मोरङ","state":"कोशी प्रदेश","ISO3166-2-lvl4":"NP-P1","country":"नेपाल","country_code":"np"},"population":166674,"osm_type":"node","osm_id":329222054,"type":"city","location":[87.281617,26.4623007],"bbox":[87.121617,26.3023007,87.441617,26.6223007],"border":{"name":"Biratnagar","other_names":{"name:ne":"Biratnagar","name:ar":"بيراتنغر","name:bn":"বিরাটনগর","name:en":"Biratnagar","name:fa":"بیراتنگر","name:hi":"बिराटनगर","name:ja":"ビラートナガル","name:kn":"ಬಿರಾತನಗರ","name:pl":"Biratnagar","name:ru":"Биратнагар","name:ur":"بیرات نگر","alt":"बिराटनगर","alt:ne":"बिराटनगर"},"display_name":"Biratnagar, मोरङ, कोशी प्रदेश, नेपाल","address":{"city":"Biratnagar","county":"मोरङ","state":"कोशी प्रदेश","ISO3166-2-lvl4":"NP-P1","country":"नेपाल","country_code":"np"},"population":166674,"osm_type":"relation","osm_id":10433476,"type":"administrative","location":[87.281617,26.4623007],"bbox":[87.2384681,26.372697,87.3243141,26.5124075]}}
{"name":"बिर्तामोड","other_names":{"name:bn":"বিরতামোড","name:en":"Birtamod","name:ne":"बिर्तामोड","alt_name":"Birtamod"},"display_name":"बिर्तामोड, Birtamod, झापा जिल्ला, कोशी प्रदेश, 57204, नेपाल","address":{"city":"बिर्तामोड","municipality":"Birtamod","county":"झापा जिल्ला","state":"कोशी प्रदेश","ISO3166-2-lvl4":"NP-P1","postcode":"57204","country":"नेपाल","country_code":"np"},"population":139500,"osm_type":"node","osm_id":575580459,"type":"city","location":[87.9914702,26.643393],"bbox":[87.8314702,26.483393,88.1514702,26.803393]}
{"name":"बुटवल","other_names":{"name:bn":"বুটওয়াল","name:de":"Butwal","name:en":"Butwal","name:es":"Butwal","name:ja":"ブトワル","name:ne":"बुटवल नगरपालिका","name:ur":"بٹوال","alt_name":"Butwaī;Butaul","loc_name":"Batauli","nat_name":"Butwal","old_name":"Khasauli","reg_name":"Butwal"},"display_name":"बुटवल, रुपन्देही, लुम्बिनी प्रदेश, 32907, नेपाल","address":{"city":"बुटवल","municipality":"बुटवल","county":"रुपन्देही","state":"लुम्बिनी प्रदेश","ISO3166-2-lvl4":"NP-P5","postcode":"32907","country":"नेपाल","country_code":"np"},"osm_type":"node","osm_id":3172617940,"type":"city","location":[83.4657667,27.7003986],"bbox":[83.3057667,27.5403986,83.6257667,27.8603986],"border":{"name":"बुटवल","other_names":{"name:de":"Butwal","name:en":"Butwal","name:es":"Butwal","name:ne":"बुटवल","name:ur":"بٹوال"},"display_name":"बुटवल, रुपन्देही, लुम्बिनी प्रदेश, 32907, नेपाल","address":{"municipality":"बुटवल","county":"रुपन्देही","state":"लुम्बिनी प्रदेश","ISO3166-2-lvl4":"NP-P5","postcode":"32907","country":"नेपाल","country_code":"np"},"osm_type":"relation","osm_id":12409358,"type":"administrative","location":[83.44386204928969,27.6827731],"bbox":[83.3611138,27.6154894,83.5041214,27.7490946]}}
{"name":"भक्तपुर","other_names":{"name:ar":"بهاكتابور","name:bn":"ভক্তপুর","name:en":"Bhaktapur","name:fr":"Bhatgaon","name:hi":"भक्तपुर","name:ja":"バクタプル","name:ml":"ഭക്തപൂർ","name:ne":"भक्तपुर","name:ru":"Бхактапур","name:te":"భక్తపూర్","alt_name":"Khwopa","name:new":"ख्वप","alt_name_1":"Bhādgaon","alt_name_2":"Bhatgoan","alt_name_3":"Bhatgaon","alt_name_4":"Badagaon"},"display_name":"भक्तपुर, भक्तपुर नगरपालिका, भक्तपुर, बागमती प्रदेश, 44800, नेपाल","address":{"city":"भक्तपुर","municipality":"भक्तपुर नगरपालिका","county":"भक्तपुर","state":"बागमती प्रदेश","ISO3166-2-lvl4":"NP-P3","postcode":"44800","country":"नेपाल","country_code":"np"},"osm_type":"node","osm_id":2035862217,"type":"city","location":[85.4261675,27.6711133],"bbox":[85.2661675,27.5111133,85.5861675,27.8311133]}
{"name":"भरतपुर","other_names":{"name:bn":"ভরতপুর","name:en":"Bharatpur","name:fr":"Bhâratpur","name:hi":"भरतपुर","name:ja":"バラトプル","name:ml":"ഭരത്പൂർ","name:ne":"भरतपुर","name:pl":"Bharatpur","name:ru":"Бхаратпур","name:ta":"பரத்பூர்","name:te":"భరత్పూర్","int_name":"Bharatpur"},"display_name":"भरतपुर, चितवन, बागमती प्रदेश, 44207, नेपाल","address":{"city":"भरतपुर","municipality":"भरतपुर","county":"चितवन","state":"बागमती प्रदेश","ISO3166-2-lvl4":"NP-P3","postcode":"44207","country":"नेपाल","country_code":"np"},"population":369268,"osm_type":"node","osm_id":567090203,"type":"city","location":[84.4301652,27.6811896],"bbox":[84.2701652,27.5211896,84.5901652,27.8411896],"border":{"name":"भरतपुर","other_names":{"name:en":"Bharatpur","name:ne":"भरतपुर"},"display_name":"भरतपुर, चितवन, बागमती प्रदेश, नेपाल","address":{"municipality":"भरतपुर","county":"चितवन","state":"बागमती प्रदेश","ISO3166-2-lvl4":"NP-P3","country":"नेपाल","country_code":"np"},"osm_type":"relation","osm_id":12393267,"type":"administrative","location":[84.43367652680118,27.6879749],"bbox":[84.1572862,27.5517535,84.5260113,27.8247361]}}
{"name":"भिमदत्त","other_names":{"name:bn":"ভিমদত্ত","name:de":"Bhimdatta","name:en":"Bhimdatta","name:es":"Bhimdatta","name:fr":"Bhimdatta","name:hi":"भिम् डत्ता","name:ja":"マヘンドラナガル","name:kn":"ಭೀಮದತ್ತ","name:ne":"भिमदत्त","name:pl":"Bhimdatta","name:ur":"مہیندرنگر","name:zh":"马亨德拉讷格尔","old_name":"Mahendranagar"},"display_name":"भिमदत्त, कञ्चनपुर जिल्ला, सुदूरपश्चिम प्रदेश, 10400, नेपाल","address":{"city":"भिमदत्त","municipality":"भिमदत्त","county":"कञ्चनपुर जिल्ला","state":"सुदूरपश्चिम प्रदेश","ISO3166-2-lvl4":"NP-P7","postcode":"10400","country":"नेपाल","country_code":"np"},"population":104444,"osm_type":"node","osm_id":2924267068,"type":"city","location":[80.1785465,28.9665746],"bbox":[80.0185465,28.8065746,80.3385465,29.1265746],"border":{"name":"भिमदत्त","other_names":{"name:de":"Bhimdatta","name:en":"Bhimdatta","name:es":"Bhimdatta","name:ne":"भिमदत्त","name:ur":"مہیندرنگر"},"display_name":"भिमदत्त, कञ्चनपुर जिल्ला, सुदूरपश्चिम प्रदेश, 10400, नेपाल","address":{"municipality":"भिमदत्त","county":"कञ्चनपुर जिल्ला","state":"सुदूरपश्चिम प्रदेश","ISO3166-2-lvl4":"NP-P7","postcode":"10400","country":"नेपाल","country_code":"np"},"osm_type":"relation","osm_id":10451010,"type":"administrative","location":[80.17041281293453,29.0164159],"bbox":[80.1037804,28.895226,80.2424518,29.1373657]}}
{"name":"मेलम्ची","other_names":{"name:bn":"মেলামচী","name:en":"Melamchi","name:ne":"मेलम्ची"},"display_name":"मेलम्ची, Melamchi, सिन्धुपाल्चोक, बागमती प्रदेश, नेपाल","address":{"city":"मेलम्ची","municipality":"Melamchi","county":"सिन्धुपाल्चोक","state":"बागमती प्रदेश","ISO3166-2-lvl4":"NP-P3","country":"नेपाल","country_code":"np"},"osm_type":"node","osm_id":10266637632,"type":"city","location":[85.5761316,27.8293022],"bbox":[85.4161316,27.6693022,85.7361316,27.9893022]}
{"name":"ललितपुर","other_names":{"name:bn":"ললিতপুর","name:cs":"Lalitpur","name:en":"Lalitpur","name:es":"Lalitpur","name:fr":"Lalitpur","name:hi":"ललितपुर","name:ja":"ラリトプル","name:kn":"ಪಾಟನ್","name:ne":"ललितपुर","name:zh":"拉利特普尔","alt_name":"Patan","name:new":"यल","official_name":"Lalitpur Sub-Metropolitan City"},"display_name":"ललितपुर, ललितपुर महानगरपालिका, ललितपुर, बागमती प्रदेश, 44707, नेपाल","address":{"city":"ललितपुर","municipality":"ललितपुर महानगरपालिका","county":"ललितपुर","state":"बागमती प्रदेश","ISO3166-2-lvl4":"NP-P3","postcode":"44707","country":"नेपाल","country_code":"np"},"population":254000,"osm_type":"node","osm_id":723880699,"type":"city","location":[85.3166069,27.6765635],"bbox":[85.1566069,27.5165635,85.4766069,27.8365635],"border":{"name":"ललितपुर","other_names":{"name:de":"Lalitpur","name:en":"Lalitpur","name:hi":"पाटन","name:ja":"ラリトプル","name:ne":"ललितपुर","name:pl":"Lalitpur","int_name":"Lalitpur"},"display_name":"ललितपुर, बागमती प्रदेश, नेपाल","address":{"county":"ललितपुर","state":"बागमती प्रदेश","ISO3166-2-lvl4":"NP-P3","country":"नेपाल","country_code":"np"},"osm_type":"relation","osm_id":4583253,"type":"administrative","location":[85.32293844156553,27.5482923],"bbox":[85.2316185,27.4029808,85.4433384,27.6933161]}}
{"name":"वीरेन्द्रनगर","other_names":{"name:bn":"বীরেন্দ্রনগর","name:de":"Birendranagar","name:en":"Birendranagar","name:es":"Birendranagar","name:fr":"Birendranagar","name:ja":"ビレンドラナガル","name:kn":"ಬೀರೇಂದ್ರನಗರ","name:ne":"वीरेन्द्रनगर","name:ta":"பிறேன்றநகர்","name:zh":"比兰德拉纳加尔"},"display_name":"वीरेन्द्रनगर, Birendranagar, सुर्खेत, कर्णाली प्रदेश, 21700, नेपाल","address":{"city":"वीरेन्द्रनगर","municipality":"Birendranagar","county":"सुर्खेत","state":"कर्णाली प्रदेश","ISO3166-2-lvl4":"NP-P6","postcode":"21700","country":"नेपाल","country_code":"np"},"population":47914,"osm_type":"node","osm_id":3345770103,"type":"city","location":[81.628494,28.595387],"bbox":[81.468494,28.435387,81.788494,28.755387],"border":{"name":"Birendranagar","display_name":"Birendranagar, सुर्खेत, कर्णाली प्रदेश, 21700, नेपाल","address":{"municipality":"Birendranagar","county":"सुर्खेत","state":"कर्णाली प्रदेश","ISO3166-2-lvl4":"NP-P6","postcode":"21700","country":"नेपाल","country_code":"np"},"osm_type":"relation","osm_id":10488781,"type":"administrative","location":[81.60585694604744,28.59887315],"bbox":[81.5326979,28.5055752,81.7767503,28.6920704]}}
{"name":"हेटौडा","other_names":{"name:ar":"هيتودا","name:bn":"হেতৌদা","name:en":"Hetauda","name:fa":"هتودا","name:hi":"हेटौडा","name:ja":"ヘトウラ","name:ks":"ہیٹوڈا","name:ne":"हेटौडा","name:pl":"Hetauda","name:ru":"Хетауде","name:ta":"கடுடா","name:ur":"ہیٹوڈا","name:zh":"黑道达","name:azb":"هیتودا","name:az-Arab":"هیتودا","name:zh-Hant":"黑道达"},"display_name":"हेटौडा, मकवानपुर, बागमती प्रदेश, 44107, नेपाल","address":{"city":"हेटौडा","municipality":"हेटौडा","county":"मकवानपुर","state":"बागमती प्रदेश","ISO3166-2-lvl4":"NP-P3","postcode":"44107","country":"नेपाल","country_code":"np"},"osm_type":"node","osm_id":296306218,"type":"city","location":[85.0326586,27.4295853],"bbox":[84.8726586,27.2695853,85.1926586,27.5895853],"border":{"name":"हेटौडा","other_names":{"name:ar":"هيتودا","name:en":"Hetauda","name:fa":"هتودا","name:ks":"ہیٹوڈا","name:ne":"हेटौडा","name:ur":"ہیٹوڈا","name:azb":"هیتودا","name:az-Arab":"هیتودا"},"display_name":"हेटौडा, मकवानपुर, बागमती प्रदेश, नेपाल","address":{"municipality":"हेटौडा","county":"मकवानपुर","state":"बागमती प्रदेश","ISO3166-2-lvl4":"NP-P3","country":"नेपाल","country_code":"np"},"osm_type":"relation","osm_id":5862115,"type":"administrative","location":[85.00987572152766,27.419222650000002],"bbox":[84.8884753,27.3124132,85.1874277,27.5261498]}}
