{"name":"Francistown","other_names":{"name:en":"Francistown","name:ko":"프랜시스타운","name:ru":"Франсистаун","name:uk":"Франсістаун"},"display_name":"Francistown, Botswana","address":{"city":"Francistown","ISO3166-2-lvl4":"BW-FR","country":"Botswana","country_code":"bw"},"population":100079,"osm_type":"node","osm_id":240504014,"type":"city","location":[27.502515,-21.16636],"bbox":[27.342515,-21.32636,27.662515,-21.00636],"border":{"name":"Francistown","other_names":{"ISO3166-2":"BW-FR","name:en":"Francistown","name:ko":"프랜시스타운","name:ru":"Франсистаун","name:uk":"Франсістаун"},"display_name":"Francistown, Botswana","address":{"city":"Francistown","ISO3166-2-lvl4":"BW-FR","country":"Botswana","country_code":"bw"},"population":100079,"osm_type":"relation","osm_id":17349212,"type":"administrative","location":[27.502515,-21.16636],"bbox":[27.4860084,-21.2226918,27.5652598,-21.0759775]}}
{"name":"Gaborone","other_names":{"name:am":"ጋበሮኔ","name:ar":"جابورون","name:az":"Qaborone","name:ba":"Габороне","name:be":"Габаронэ","name:bg":"Габороне","name:bn":"গাবোরোন","name:bo":"ག་བོ་རོ་ནི།","name:br":"Gaborone","name:ca":"Gaborone","name:ce":"Габороне","name:de":"Gaborone","name:el":"Γκαμπορόνε","name:en":"Gaborone","name:eo":"Gaberono","name:es":"Gaborone","name:fa":"گابورون","name:fr":"Gaborone","name:he":"גאבורון","name:hi":"गोबोर्नी","name:ht":"Gaboròn","name:hu":"Gaborone","name:hy":"Գաբորոնե","name:is":"Gaboróne","name:it":"Gaborone","name:ja":"ハボローネ","name:ka":"გაბორონე","name:kk":"Габороне","name:kn":"ಗ್ಯಾಬೆರೋಹ್ನಿ","name:ko":"가보로네","name:ku":"Gaboron","name:ky":"Габороне","name:lt":"Gaboronas","name:mk":"Габороне","name:ml":"ഗാബറോൺ","name:mr":"गॅबारोनी","name:my":"ဂါဘိုရိုနေမြို့","name:nl":"Gaborone","name:no":"Gaborone","name:oc":"Gaborone","name:os":"Габороне","name:pa":"ਗਾਬੋਰੋਨੀ","name:pl":"Gaborone","name:ps":"ګابورون","name:pt":"Gaborone","name:ru":"Габороне","name:sd":"گئبروني","name:sr":"Габороне","name:sv":"Gaborone","name:ta":"காபரோனி","name:tg":"Габороне","name:th":"กาโบโรเน","name:tr":"Gaboron","name:uk":"Габороне","name:ur":"گبرون","name:yi":"גאבאראנע","name:zh":"哈博羅內","name:zu":"IGaborone","name:arz":"جابورون","name:ckb":"گابۆرۆن","name:pnb":"گابورون","name:udm":"Габороне"},"display_name":"Gaborone, Botswana","address":{"city":"Gaborone","ISO3166-2-lvl4":"BW-GA","country":"Botswana","country_code":"bw"},"population":231626,"osm_type":"node","osm_id":30670040,"type":"city","location":[25.9088474,-24.6581357],"bbox":[25.7488474,-24.8181357,26.0688474,-24.4981357],"border":{"name":"Gaborone","other_names":{"ISO3166-2":"BW-GA","name:am":"ጋበሮኔ","name:ar":"جابورون","name:az":"Qaborone","name:ba":"Габороне","name:be":"Габаронэ","name:bg":"Габороне","name:bn":"গাবোরোন","name:bo":"ག་བོ་རོ་ནི།","name:br":"Gaborone","name:ca":"Gaborone","name:ce":"Габороне","name:de":"Gaborone","name:el":"Γκαμπορόνε","name:en":"Gaborone","name:eo":"Gaberono","name:es":"Gaborone","name:fa":"گابورون","name:fr":"Gaborone","name:he":"גאבורון","name:hi":"गोबोर्नी","name:ht":"Gaboròn","name:hu":"Gaborone","name:hy":"Գաբորոնե","name:is":"Gaboróne","name:it":"Gaborone","name:ja":"ハボローネ","name:ka":"გაბორონე","name:kk":"Габороне","name:kn":"ಗ್ಯಾಬೆರೋಹ್ನಿ","name:ko":"가보로네","name:ku":"Gaboron","name:ky":"Габороне","name:lt":"Gaboronas","name:mk":"Габороне","name:ml":"ഗാബറോൺ","name:mr":"गॅबारोनी","name:my":"ဂါဘိုရိုနေမြို့","name:nl":"Gaborone","name:no":"Gaborone","name:oc":"Gaborone","name:os":"Габороне","name:pa":"ਗਾਬੋਰੋਨੀ","name:pl":"Gaborone","name:ps":"ګابورون","name:pt":"Gaborone","name:ru":"Габороне","name:sd":"گئبروني","name:sr":"Габороне","name:sv":"Gaborone","name:ta":"காபரோனி","name:tg":"Габороне","name:th":"กาโบโรเน","name:tr":"Gaboron","name:uk":"Габороне","name:ur":"گبرون","name:yi":"גאבאראנע","name:zh":"哈博羅內","name:zu":"IGaborone","name:arz":"جابورون","name:ckb":"گابۆرۆن","name:pnb":"گابورون","name:udm":"Габороне"},"display_name":"Gaborone, Botswana","address":{"city":"Gaborone","ISO3166-2-lvl4":"BW-GA","country":"Botswana","country_code":"bw"},"population":231626,"osm_type":"relation","osm_id":17349208,"type":"administrative","location":[25.9088474,-24.6581357],"bbox":[25.7709016,-24.8159274,26.0122434,-24.512628]}}
{"name":"Ghanzi","other_names":{"name:ar":"غانزي","name:ko":"간지","name:ru":"Ганзи","name:uk":"Ґанзі"},"display_name":"Ghanzi, Ghanzi District, Botswana","address":{"city":"Ghanzi","state":"Ghanzi District","ISO3166-2-lvl4":"BW-GH","country":"Botswana","country_code":"bw"},"population":10700,"osm_type":"node","osm_id":261638559,"type":"city","location":[21.6457062,-21.6968123],"bbox":[21.4857062,-21.8568123,21.8057062,-21.5368123]}
{"name":"Kanye","other_names":{"name:ar":"كانييه","name:ko":"카니에","name:ru":"Канье","alt_name:ar":"كاني"},"display_name":"Kanye, Southern District, Botswana","address":{"city":"Kanye","state":"Southern District","ISO3166-2-lvl4":"BW-SO","country":"Botswana","country_code":"bw"},"population":45196,"osm_type":"node","osm_id":287378072,"type":"city","location":[25.3358859,-24.9766112],"bbox":[25.1758859,-25.1366112,25.4958859,-24.8166112]}
{"name":"Maun","other_names":{"name:ko":"마운","name:ru":"Маун","name:uk":"Маун"},"display_name":"Maun, North-West District, Botswana","address":{"city":"Maun","state":"North-West District","ISO3166-2-lvl4":"BW-NW","country":"Botswana","country_code":"bw"},"population":55784,"osm_type":"node","osm_id":261633728,"type":"city","location":[23.4224352,-19.9860951],"bbox":[23.2624352,-20.1460951,23.5824352,-19.8260951]}
{"name":"Mochudi","other_names":{"name:en":"Mochudi","name:ko":"모추디","name:ru":"Мочуди"},"display_name":"Mochudi, Kgatleng District, Botswana","address":{"city":"Mochudi","state":"Kgatleng District","ISO3166-2-lvl4":"BW-KL","country":"Botswana","country_code":"bw"},"population":44815,"osm_type":"node","osm_id":1456560429,"type":"city","location":[26.1489495,-24.3828605],"bbox":[25.9889495,-24.5428605,26.3089495,-24.2228605]}
{"name":"Serowe","other_names":{"name:en":"Serowe","name:ko":"세로웨","name:ru":"Серове","name:uk":"Серове"},"display_name":"Serowe, Central District, Botswana","address":{"city":"Serowe","state":"Central District","ISO3166-2-lvl4":"BW-CE","country":"Botswana","country_code":"bw"},"osm_type":"node","osm_id":287641418,"type":"city","location":[26.703289,-22.39776],"bbox":[26.543289,-22.55776,26.863289,-22.23776],"border":{"name":"Serowe","other_names":{"name:en":"Serowe","name:ko":"세로웨","name:ru":"Серове","name:uk":"Серове"},"display_name":"Serowe, Central District, Botswana","address":{"city":"Serowe","state":"Central District","ISO3166-2-lvl4":"BW-CE","country":"Botswana","country_code":"bw"},"population":47447,"osm_type":"way","osm_id":133578644,"type":"city","location":[26.703289,-22.39776],"bbox":[26.6675316,-22.4580044,26.7821502,-22.3529316]}}
{"name":"Tsabong","other_names":{"name:ko":"차봉"},"display_name":"Tsabong, Tsabong Sub-district, Kgalagadi District, Botswana","address":{"city":"Tsabong","county":"Tsabong Sub-district","state":"Kgalagadi District","ISO3166-2-lvl4":"BW-KG","country":"Botswana","country_code":"bw"},"osm_type":"node","osm_id":2454873275,"type":"city","location":[22.401006,-26.021746],"bbox":[22.241006,-26.181746,22.561006,-25.861746]}
