{"name":"Choluteca","other_names":{"name:hu":"Choluteca","name:lt":"Čoluteka","name:ru":"Чолутека"},"display_name":"Choluteca, Honduras","address":{"city":"Choluteca","municipality":"Choluteca","state":"Choluteca","ISO3166-2-lvl4":"HN-CH","country":"Honduras","country_code":"hn"},"population":86179,"osm_type":"node","osm_id":302514187,"type":"city","location":[-87.1842323,13.3014081],"bbox":[-87.3442323,13.1414081,-87.0242323,13.4614081],"border":{"name":"Choluteca","other_names":{"name:es":"Choluteca","name:hu":"Choluteca","name:lt":"Čoluteka","name:ru":"Чолутека"},"display_name":"Choluteca, 51101, Honduras","address":{"municipality":"Choluteca","state":"Choluteca","ISO3166-2-lvl4":"HN-CH","postcode":"51101","country":"Honduras","country_code":"hn"},"population":86179,"osm_type":"relation","osm_id":16161140,"type":"administrative","location":[-87.1842323,13.3014081],"bbox":[-87.3754239,12.9876708,-87.0392068,13.5224385]}}
{"name":"Comayagua","other_names":{"name:hu":"Comayagua","name:lt":"Komajagva"},"display_name":"Comayagua, Honduras","address":{"city":"Comayagua","municipality":"Comayagua","state":"Comayagua","ISO3166-2-lvl4":"HN-CM","country":"Honduras","country_code":"hn"},"population":58600,"osm_type":"node","osm_id":308305741,"type":"city","location":[-87.6379227,14.4527976],"bbox":[-87.7979227,14.2927976,-87.4779227,14.6127976],"border":{"name":"Comayagua","other_names":{"name:es":"Comayagua","name:hu":"Comayagua","name:lt":"Komajagva"},"display_name":"Comayagua, Honduras","address":{"municipality":"Comayagua","state":"Comayagua","ISO3166-2-lvl4":"HN-CM","country":"Honduras","country_code":"hn"},"population":58600,"osm_type":"relation","osm_id":12110080,"type":"administrative","location":[-87.6379227,14.4527976],"bbox":[-87.8974603,14.355282,-87.3842585,14.5956117]}}
{"name":"Gracias","other_names":{"name:hu":"Gracias"},"display_name":"Gracias, Lempira, Honduras","address":{"city":"Gracias","municipality":"Gracias","state":"Lempira","ISO3166-2-lvl4":"HN-LE","country":"Honduras","country_code":"hn"},"population":50256,"osm_type":"node","osm_id":307974116,"type":"city","location":[-88.5813531,14.5889861],"bbox":[-88.7413531,14.4289861,-88.4213531,14.7489861],"border":{"name":"Gracias","other_names":{"name:es":"Gracias","name:hu":"Gracias"},"display_name":"Gracias, Lempira, 42101, Honduras","address":{"municipality":"Gracias","state":"Lempira","ISO3166-2-lvl4":"HN-LE","postcode":"42101","country":"Honduras","country_code":"hn"},"population":50256,"osm_type":"relation","osm_id":11722036,"type":"administrative","location":[-88.5813531,14.5889861],"bbox":[-88.7774753,14.5108472,-88.4950397,14.7481238]}}
{"name":"Juticalpa","other_names":{"name:hu":"Juticalpa","name:ru":"Хутикальпа"},"display_name":"Juticalpa, Olancho, Honduras","address":{"city":"Juticalpa","municipality":"Juticalpa","state":"Olancho","ISO3166-2-lvl4":"HN-OL","country":"Honduras","country_code":"hn"},"population":33260,"osm_type":"node","osm_id":307972854,"type":"city","location":[-86.2195829,14.6672029],"bbox":[-86.3795829,14.5072029,-86.0595829,14.8272029],"border":{"name":"Juticalpa","other_names":{"name:es":"Juticalpa","name:hu":"Juticalpa","name:ru":"Хутикальпа"},"display_name":"Juticalpa, Olancho, 16101, Honduras","address":{"municipality":"Juticalpa","state":"Olancho","ISO3166-2-lvl4":"HN-OL","postcode":"16101","country":"Honduras","country_code":"hn"},"population":33260,"osm_type":"relation","osm_id":13747841,"type":"administrative","location":[-86.2195829,14.6672029],"bbox":[-86.6775419,14.2713807,-85.9400665,14.7929245]}}
{"name":"La Ceiba","other_names":{"name:en":"La Ceiba","name:hu":"La Ceiba","name:lt":"La Seiba","name:ru":"Ла-Сейба","name:uk":"Ла-Сейба"},"display_name":"La Ceiba, Atlántida, Honduras","address":{"city":"La Ceiba","municipality":"La Ceiba","state":"Atlántida","ISO3166-2-lvl4":"HN-AT","country":"Honduras","country_code":"hn"},"population":196856,"osm_type":"node","osm_id":304624288,"type":"city","location":[-86.7917749,15.7833743],"bbox":[-86.9517749,15.6233743,-86.6317749,15.9433743],"border":{"name":"La Ceiba","other_names":{"name:es":"La Ceiba","name:en":"La Ceiba","name:hu":"La Ceiba","name:lt":"La Seiba","name:ru":"Ла-Сейба","name:uk":"Ла-Сейба"},"display_name":"La Ceiba, Atlántida, 31101, Honduras","address":{"municipality":"La Ceiba","state":"Atlántida","ISO3166-2-lvl4":"HN-AT","postcode":"31101","country":"Honduras","country_code":"hn"},"population":196856,"osm_type":"relation","osm_id":6054029,"type":"administrative","location":[-86.7917749,15.7833743],"bbox":[-86.89225,15.542353,-86.5981052,15.801448]}}
{"name":"La Esperanza","other_names":{"name:hu":"La Esperanza"},"display_name":"La Esperanza, Intibucá, Honduras","address":{"city":"La Esperanza","municipality":"La Esperanza","state":"Intibucá","ISO3166-2-lvl4":"HN-IN","country":"Honduras","country_code":"hn"},"population":21000,"osm_type":"node","osm_id":307974181,"type":"city","location":[-88.1767846,14.3081342],"bbox":[-88.3367846,14.1481342,-88.0167846,14.4681342],"border":{"name":"La Esperanza","other_names":{"name:es":"La Esperanza","name:hu":"La Esperanza"},"display_name":"La Esperanza, Intibucá, Honduras","address":{"municipality":"La Esperanza","state":"Intibucá","ISO3166-2-lvl4":"HN-IN","country":"Honduras","country_code":"hn"},"population":21000,"osm_type":"relation","osm_id":10554873,"type":"administrative","location":[-88.1767846,14.3081342],"bbox":[-88.2183832,14.1598381,-88.0557477,14.314001]}}
{"name":"La Paz","display_name":"La Paz, Honduras","address":{"city":"La Paz","municipality":"La Paz","state":"La Paz","ISO3166-2-lvl4":"HN-LP","country":"Honduras","country_code":"hn"},"population":46264,"osm_type":"node","osm_id":4451233286,"type":"city","location":[-87.683199,14.3233902],"bbox":[-87.843199,14.1633902,-87.523199,14.4833902],"border":{"name":"La Paz","other_names":{"name:es":"La Paz","official_name":"Municipio de La Paz"},"display_name":"La Paz, Honduras","address":{"municipality":"La Paz","state":"La Paz","ISO3166-2-lvl4":"HN-LP","country":"Honduras","country_code":"hn"},"population":46264,"osm_type":"relation","osm_id":13783554,"type":"administrative","location":[-87.683199,14.3233902],"bbox":[-87.872004,14.2290178,-87.6257041,14.3922515]}}
{"name":"Nacaome","other_names":{"name:fr":"Nacaome","name:ru":"Накаоме"},"display_name":"Nacaome, Valle, Honduras","address":{"city":"Nacaome","municipality":"Nacaome","state":"Valle","ISO3166-2-lvl4":"HN-VA","country":"Honduras","country_code":"hn"},"osm_type":"node","osm_id":2188921634,"type":"city","location":[-87.4881391,13.5325499],"bbox":[-87.6481391,13.3725499,-87.3281391,13.6925499],"border":{"name":"Nacaome","other_names":{"name:es":"Nacaome","name:fr":"Nacaome","name:ru":"Накаоме"},"display_name":"Nacaome, Valle, Honduras","address":{"municipality":"Nacaome","state":"Valle","ISO3166-2-lvl4":"HN-VA","country":"Honduras","country_code":"hn"},"osm_type":"relation","osm_id":13775640,"type":"administrative","location":[-87.4881391,13.5325499],"bbox":[-87.650508,13.3149435,-87.3672706,13.6696227]}}
{"name":"Nueva Ocotepeque","other_names":{"name:hu":"Nueva Ocotepeque","name:ru":"Нуэва-Окотепеке"},"display_name":"Nueva Ocotepeque, Ocotepeque, Honduras","address":{"city":"Nueva Ocotepeque","municipality":"Ocotepeque","state":"Ocotepeque","ISO3166-2-lvl4":"HN-OC","country":"Honduras","country_code":"hn"},"osm_type":"node","osm_id":322788132,"type":"city","location":[-89.1844797,14.4355133],"bbox":[-89.3444797,14.2755133,-89.0244797,14.5955133],"border":{"name":"Ocotepeque","other_names":{"name:es":"Ocotepeque","name:zh":"奥科特佩克","name:hu":"Nueva Ocotepeque","name:ru":"Нуэва-Окотепеке","alt":"Nueva Ocotepeque"},"display_name":"Ocotepeque, Honduras","address":{"municipality":"Ocotepeque","state":"Ocotepeque","ISO3166-2-lvl4":"HN-OC","country":"Honduras","country_code":"hn"},"osm_type":"relation","osm_id":10559532,"type":"administrative","location":[-89.1844797,14.4355133],"bbox":[-89.3559888,14.3647528,-89.1086255,14.4858129]}}
{"name":"Puerto Lempira","other_names":{"name:hu":"Puerto Lempira","name:ru":"Пуэрто-Лемпира","name:miq":"Ahuya Yari"},"display_name":"Puerto Lempira, Gracias a Dios, Honduras","address":{"city":"Puerto Lempira","municipality":"Puerto Lempira","state":"Gracias a Dios","ISO3166-2-lvl4":"HN-GD","country":"Honduras","country_code":"hn"},"osm_type":"node","osm_id":504843350,"type":"city","location":[-83.7725272,15.2664413],"bbox":[-83.9325272,15.1064413,-83.6125272,15.4264413],"border":{"name":"Puerto Lempira","other_names":{"name:es":"Puerto Lempira","name:hu":"Puerto Lempira","name:ru":"Пуэрто-Лемпира","name:miq":"Ahuya Yari"},"display_name":"Puerto Lempira, Gracias a Dios, Honduras","address":{"municipality":"Puerto Lempira","state":"Gracias a Dios","ISO3166-2-lvl4":"HN-GD","country":"Honduras","country_code":"hn"},"osm_type":"relation","osm_id":6050318,"type":"administrative","location":[-83.7725272,15.2664413],"bbox":[-84.7918617,14.615845,-83.385694,15.7330694]}}
{"name":"Roatán","other_names":{"name:ar":"رواتان","name:es":"Roatán","name:ur":"رواتان"},"display_name":"Roatán, Islas de la Bahía, Honduras","address":{"city":"Roatán","municipality":"Roatán","state":"Islas de la Bahía","ISO3166-2-lvl4":"HN-IB","country":"Honduras","country_code":"hn"},"osm_type":"node","osm_id":450570678,"type":"city","location":[-86.5374787,16.3167373],"bbox":[-86.6974787,16.1567373,-86.3774787,16.4767373],"border":{"name":"Roatán","other_names":{"name:ar":"رواتان","name:es":"Roatán","name:ur":"رواتان"},"display_name":"Roatán, Islas de la Bahía, Honduras","address":{"municipality":"Roatán","state":"Islas de la Bahía","ISO3166-2-lvl4":"HN-IB","country":"Honduras","country_code":"hn"},"osm_type":"relation","osm_id":3146641,"type":"administrative","location":[-86.5374787,16.3167373],"bbox":[-86.6030275,15.9282518,-86.4185721,16.3881356]}}
{"name":"San Pedro Sula","other_names":{"name:hu":"San Pedro Sula","name:ru":"Сан-Педро-Сула"},"display_name":"San Pedro Sula, Cortés, Honduras","address":{"city":"San Pedro Sula","municipality":"San Pedro Sula","state":"Cortés","ISO3166-2-lvl4":"HN-CR","country":"Honduras","country_code":"hn"},"population":719064,"osm_type":"node","osm_id":3371222422,"type":"city","location":[-88.0248937,15.5062156],"bbox":[-88.1848937,15.3462156,-87.8648937,15.6662156],"border":[{"name":"San Pedro Sula","other_names":{"name:es":"San Pedro Sula","name:hu":"San Pedro Sula","name:ru":"Сан-Педро-Сула"},"display_name":"San Pedro Sula, Cortés, Honduras","address":{"municipality":"San Pedro Sula","state":"Cortés","ISO3166-2-lvl4":"HN-CR","country":"Honduras","country_code":"hn"},"population":719064,"osm_type":"relation","osm_id":6057211,"type":"administrative","location":[-88.0248937,15.5062156],"bbox":[-88.4107325,15.3719705,-87.8463834,15.6168061]},{"name":"San Pedro Sula","other_names":{"name:es":"San Pedro Sula","name:lt":"San Pedro Sula"},"display_name":"San Pedro Sula, Cortés, Honduras","address":{"city":"San Pedro Sula","state":"Cortés","ISO3166-2-lvl4":"HN-CR","country":"Honduras","country_code":"hn"},"population":873824,"osm_type":"way","osm_id":161904500,"type":"administrative","location":[-88.00776696107931,15.493638650000001],"bbox":[-88.0551532,15.4177323,-87.917772,15.5692928]}]}
{"name":"Santa Bárbara","other_names":{"name:hu":"Santa Barbara"},"display_name":"Santa Bárbara, Honduras","address":{"city":"Santa Bárbara","municipality":"Santa Bárbara","state":"Santa Bárbara","ISO3166-2-lvl4":"HN-SB","country":"Honduras","country_code":"hn"},"population":29283,"osm_type":"node","osm_id":308306420,"type":"city","location":[-88.2364439,14.9216741],"bbox":[-88.3964439,14.7616741,-88.0764439,15.0816741],"border":{"name":"Santa Bárbara","other_names":{"name:es":"Santa Bárbara","name:hu":"Santa Barbara"},"display_name":"Santa Bárbara, 20101, Honduras","address":{"municipality":"Santa Bárbara","state":"Santa Bárbara","ISO3166-2-lvl4":"HN-SB","postcode":"20101","country":"Honduras","country_code":"hn"},"population":29283,"osm_type":"relation","osm_id":16095620,"type":"administrative","location":[-88.2364439,14.9216741],"bbox":[-88.3205596,14.8141059,-88.0501925,15.0005388]}}
{"name":"Santa Rosa de Copán","other_names":{"name:hu":"Santa Rosa de Copán","int_name":"Santa Rosa","old_name":"Santa Rosa de los Llanos"},"display_name":"Santa Rosa de Copán, Copán, Honduras","address":{"city":"Santa Rosa de Copán","municipality":"Santa Rosa de Copán","state":"Copán","ISO3166-2-lvl4":"HN-CP","country":"Honduras","country_code":"hn"},"population":56000,"osm_type":"node","osm_id":11934571268,"type":"city","location":[-88.7780977,14.7675556],"bbox":[-88.9380977,14.6075556,-88.6180977,14.9275556],"border":{"name":"Santa Rosa de Copán","other_names":{"name:es":"Santa Rosa de Copán","name:hu":"Santa Rosa de Copán","int_name":"Santa Rosa","old_name":"Santa Rosa de los Llanos"},"display_name":"Santa Rosa de Copán, Copán, 12001, Honduras","address":{"municipality":"Santa Rosa de Copán","state":"Copán","ISO3166-2-lvl4":"HN-CP","postcode":"12001","country":"Honduras","country_code":"hn"},"population":56000,"osm_type":"relation","osm_id":15691624,"type":"administrative","location":[-88.7780977,14.7675556],"bbox":[-88.9392385,14.7068671,-88.6412419,14.9106565]}}
{"name":"Tegucigalpa","other_names":{"name:am":"ቴጉሲጋልፓ","name:ar":"تيجوسيجالبا","name:az":"Tequsiqalpa","name:be":"Тэгусігальпа","name:bg":"Тегусигалпа","name:bo":"ཐེ་གུ་སི་གེ་པ།","name:ca":"Tegucigalpa","name:de":"Tegucigalpa","name:el":"Τεγκουσιγκάλπα","name:en":"Tegucigalpa","name:eo":"Tegucigalpo","name:es":"Tegucigalpa","name:fa":"تگوسیگالپا","name:fr":"Tegucigalpa","name:fy":"Tegusigalpa","name:he":"טגוסיגלפה","name:ht":"Tegousigoualpa","name:hu":"Tegucigalpa","name:hy":"Տեգուսիգալպա","name:is":"Tegucigalpa","name:ja":"テグシガルパ","name:ka":"ტეგუსიგალპა","name:ko":"테구시갈파","name:lt":"Tegusigalpa","name:lv":"Tegusigalpa","name:mk":"Тегусигалпа","name:ml":"ടെഗൂസിഗാൽപ","name:mr":"तेगुसिगल्पा","name:oc":"Tegucigalpa","name:pl":"Tegucigalpa","name:ru":"Тегусигальпа","name:sr":"Тегусигалпа","name:sv":"Tegucigalpa","name:ta":"டெகுசிகல்பா","name:th":"เตกูซิกัลปา","name:uk":"Тегусігальпа","name:ur":"ٹیگوسیگلپا","name:zh":"特古西加尔巴 / 德古西加巴","name:ace":"Tègucigalpa","name:nah":"Teōcuitlapan","name:sah":"Тегусигалпа","name:udm":"Тегусигальпа","name:zh-Hans":"特古西加尔巴","name:zh-Hant":"德古西加巴","name:be-tarask":"Тэгусыгальпа"},"display_name":"Tegucigalpa, Distrito Central, Francisco Morazán, Honduras","address":{"city":"Tegucigalpa","state":"Francisco Morazán","ISO3166-2-lvl4":"HN-FM","country":"Honduras","country_code":"hn"},"population":1120000,"osm_type":"node","osm_id":305138115,"type":"city","location":[-87.2040052,14.1057433],"bbox":[-87.3640052,13.9457433,-87.0440052,14.2657433],"border":[{"name":"Distrito Central","other_names":{"name:es":"Distrito Central","official_name":"Municipio del Distrito Central","name:am":"ቴጉሲጋልፓ","name:ar":"تيجوسيجالبا","name:az":"Tequsiqalpa","name:be":"Тэгусігальпа","name:bg":"Тегусигалпа","name:bo":"ཐེ་གུ་སི་གེ་པ།","name:ca":"Tegucigalpa","name:de":"Tegucigalpa","name:el":"Τεγκουσιγκάλπα","name:en":"Tegucigalpa","name:eo":"Tegucigalpo","name:fa":"تگوسیگالپا","name:fr":"Tegucigalpa","name:fy":"Tegusigalpa","name:he":"טגוסיגלפה","name:ht":"Tegousigoualpa","name:hu":"Tegucigalpa","name:hy":"Տեգուսիգալպա","name:is":"Tegucigalpa","name:ja":"テグシガルパ","name:ka":"ტეგუსიგალპა","name:ko":"테구시갈파","name:lt":"Tegusigalpa","name:lv":"Tegusigalpa","name:mk":"Тегусигалпа","name:ml":"ടെഗൂസിഗാൽപ","name:mr":"तेगुसिगल्पा","name:oc":"Tegucigalpa","name:pl":"Tegucigalpa","name:ru":"Тегусигальпа","name:sr":"Тегусигалпа","name:sv":"Tegucigalpa","name:ta":"டெகுசிகல்பா","name:th":"เตกูซิกัลปา","name:uk":"Тегусігальпа","name:ur":"ٹیگوسیگلپا","name:zh":"特古西加尔巴 / 德古西加巴","name:ace":"Tègucigalpa","name:nah":"Teōcuitlapan","name:sah":"Тегусигалпа","name:udm":"Тегусигальпа","name:zh-Hans":"特古西加尔巴","name:zh-Hant":"德古西加巴","name:be-tarask":"Тэгусыгальпа","alt":"Tegucigalpa","alt:es":"Tegucigalpa"},"display_name":"Distrito Central, Francisco Morazán, Honduras","address":{"municipality":"Distrito Central","state":"Francisco Morazán","ISO3166-2-lvl4":"HN-FM","country":"Honduras","country_code":"hn"},"population":1120000,"osm_type":"relation","osm_id":11734396,"type":"administrative","location":[-87.2040052,14.1057433],"bbox":[-87.4722759,13.8950626,-87.0054182,14.3719065]},{"name":"Tegucigalpa","other_names":{"name:es":"Tegucigalpa","name:zh":"特古西加尔巴 / 德古西加巴","name:zh-Hans":"特古西加尔巴","name:zh-Hant":"德古西加巴","name:am":"ቴጉሲጋልፓ","name:ar":"تيجوسيجالبا","name:az":"Tequsiqalpa","name:be":"Тэгусігальпа","name:bg":"Тегусигалпа","name:bo":"ཐེ་གུ་སི་གེ་པ།","name:ca":"Tegucigalpa","name:de":"Tegucigalpa","name:el":"Τεγκουσιγκάλπα","name:en":"Tegucigalpa","name:eo":"Tegucigalpo","name:fa":"تگوسیگالپا","name:fr":"Tegucigalpa","name:fy":"Tegusigalpa","name:he":"טגוסיגלפה","name:ht":"Tegousigoualpa","name:hu":"Tegucigalpa","name:hy":"Տեգուսիգալպա","name:is":"Tegucigalpa","name:ja":"テグシガルパ","name:ka":"ტეგუსიგალპა","name:ko":"테구시갈파","name:lt":"Tegusigalpa","name:lv":"Tegusigalpa","name:mk":"Тегусигалпа","name:ml":"ടെഗൂസിഗാൽപ","name:mr":"तेगुसिगल्पा","name:oc":"Tegucigalpa","name:pl":"Tegucigalpa","name:ru":"Тегусигальпа","name:sr":"Тегусигалпа","name:sv":"Tegucigalpa","name:ta":"டெகுசிகல்பா","name:th":"เตกูซิกัลปา","name:uk":"Тегусігальпа","name:ur":"ٹیگوسیگلپا","name:ace":"Tègucigalpa","name:nah":"Teōcuitlapan","name:sah":"Тегусигалпа","name:udm":"Тегусигальпа","name:be-tarask":"Тэгусыгальпа"},"display_name":"Tegucigalpa, Distrito Central, Francisco Morazán, Honduras","address":{"city":"Tegucigalpa","state":"Francisco Morazán","ISO3166-2-lvl4":"HN-FM","country":"Honduras","country_code":"hn"},"population":1126534,"osm_type":"relation","osm_id":3850824,"type":"administrative","location":[-87.2040052,14.1057433],"bbox":[-87.2807992,14.0068238,-87.1327733,14.1422032]}]}
{"name":"Trujillo","display_name":"Trujillo, Colón, Honduras","address":{"city":"Trujillo","municipality":"Trujillo","state":"Colón","ISO3166-2-lvl4":"HN-CL","country":"Honduras","country_code":"hn"},"population":30000,"osm_type":"node","osm_id":304624491,"type":"city","location":[-85.9529579,15.9179668],"bbox":[-86.1129579,15.7579668,-85.7929579,16.0779668],"border":{"name":"Trujillo","display_name":"Trujillo, Colón, 32101, Honduras","address":{"municipality":"Trujillo","state":"Colón","ISO3166-2-lvl4":"HN-CL","postcode":"32101","country":"Honduras","country_code":"hn"},"population":30000,"osm_type":"relation","osm_id":6049959,"type":"administrative","location":[-85.9529579,15.9179668],"bbox":[-86.2134563,15.6172614,-85.698575,16.0288608]}}
{"name":"Yoro","other_names":{"name:hu":"Yoro"},"display_name":"Yoro, Honduras","address":{"city":"Yoro","municipality":"Yoro","state":"Yoro","ISO3166-2-lvl4":"HN-YO","country":"Honduras","country_code":"hn"},"population":64425,"osm_type":"node","osm_id":307406289,"type":"city","location":[-87.124948,15.1379438],"bbox":[-87.284948,14.9779438,-86.964948,15.2979438],"border":{"name":"Yoro","other_names":{"name:es":"Yoro","official_name":"Municipio de Yoro","name:hu":"Yoro"},"display_name":"Yoro, 23101, Honduras","address":{"municipality":"Yoro","state":"Yoro","ISO3166-2-lvl4":"HN-YO","postcode":"23101","country":"Honduras","country_code":"hn"},"population":64425,"osm_type":"relation","osm_id":13782920,"type":"administrative","location":[-87.124948,15.1379438],"bbox":[-87.5625194,15.0151271,-86.855189,15.545764]}}
{"name":"Yuscarán","other_names":{"name:hu":"Yuscarán","name:ru":"Юскаран"},"display_name":"Yuscarán, El Paraíso, Honduras","address":{"city":"Yuscarán","municipality":"Yuscarán","state":"El Paraíso","ISO3166-2-lvl4":"HN-EP","country":"Honduras","country_code":"hn"},"osm_type":"node","osm_id":12455106250,"type":"city","location":[-86.8526487,13.9444194],"bbox":[-87.0126487,13.7844194,-86.6926487,14.1044194],"border":{"name":"Yuscarán","other_names":{"name:es":"Yuscarán","name:hu":"Yuscarán","name:ru":"Юскаран"},"display_name":"Yuscarán, El Paraíso, Honduras","address":{"municipality":"Yuscarán","state":"El Paraíso","ISO3166-2-lvl4":"HN-EP","country":"Honduras","country_code":"hn"},"osm_type":"relation","osm_id":16248654,"type":"administrative","location":[-86.8526487,13.9444194],"bbox":[-86.9397893,13.8642758,-86.7086515,14.0731069]}}
