{"name":"-","other_names":{"ref":"qa47","name:ar":"-","name:en":"-"},"display_name":"-, محافظة الجهراء, الكويت","address":{"city":"-","state":"محافظة الجهراء","ISO3166-2-lvl4":"KW-JA","country":"الكويت","country_code":"kw"},"osm_type":"relation","osm_id":18018224,"type":"administrative","location":[47.72685373958589,29.342457850000002],"bbox":[47.7133476,29.3116671,47.7976021,29.3718368],"inferred_type":"city"}
{"name":"Bnaider (Quarries)","other_names":{"name:ar":"بنيدر (دركال)"},"display_name":"Bnaider (Quarries), محافظة الأحمدي, الكويت","address":{"city":"Bnaider (Quarries)","state":"محافظة الأحمدي","ISO3166-2-lvl4":"KW-AH","country":"الكويت","country_code":"kw"},"osm_type":"way","osm_id":1314332174,"type":"city","location":[48.226507000000005,28.8224833],"bbox":[48.1935775,28.8215903,48.2594365,28.8233763]}
{"name":"Bnaider (Quarries)","other_names":{"name:ar":"بنيدر (دركال)"},"display_name":"Bnaider (Quarries), محافظة الأحمدي, الكويت","address":{"city":"Bnaider (Quarries)","state":"محافظة الأحمدي","ISO3166-2-lvl4":"KW-AH","country":"الكويت","country_code":"kw"},"osm_type":"way","osm_id":1314328505,"type":"city","location":[48.20241245908462,28.745638864712376],"bbox":[48.1848005,28.7435334,48.2834938,28.8095579]}
{"name":"Camp Arifjan","other_names":{"ref":"qah20","name:ar":"Camp Arifjan","name:en":"Camp Arifjan"},"display_name":"Camp Arifjan, محافظة الأحمدي, الكويت","address":{"city":"Camp Arifjan","state":"محافظة الأحمدي","ISO3166-2-lvl4":"KW-AH","country":"الكويت","country_code":"kw"},"osm_type":"way","osm_id":1159755811,"type":"administrative","location":[48.15046070079221,28.89895595],"bbox":[48.1210828,28.8583206,48.1846619,28.9374817],"inferred_type":"city"}
{"name":"Salmi west","other_names":{"name:ar":"غرب السالمي","name:en":"Salmi west"},"display_name":"Salmi west, محافظة الجهراء, الكويت","address":{"city":"Salmi west","state":"محافظة الجهراء","ISO3166-2-lvl4":"KW-JA","country":"الكويت","country_code":"kw"},"osm_type":"way","osm_id":1135462975,"type":"administrative","location":[47.14301608551603,29.18794995],"bbox":[47.1177412,29.1635798,47.2108377,29.2440322],"inferred_type":"city"}
{"name":"Shalehat Al-Nuwaiseeb","other_names":{"ref":"qah22","name:ar":"شاليهات النويصيب","name:en":"Shalehat Al-Nuwaiseeb"},"display_name":"Shalehat Al-Nuwaiseeb, شاليهات النويصيب, محافظة الأحمدي, الكويت","address":{"city":"Shalehat Al-Nuwaiseeb","qah22":"شاليهات النويصيب","state":"محافظة الأحمدي","ISO3166-2-lvl4":"KW-AH","country":"الكويت","country_code":"kw"},"osm_type":"way","osm_id":1298331841,"type":"city","location":[48.41067765884728,28.561333185618686],"bbox":[48.3987792,28.5372593,48.4283686,28.5885236],"border":{"name":"شاليهات النويصيب","other_names":{"ref":"qah43","name:ar":"شاليهات النويصيب","name:en":"Al Nuwaiseeb Chalets"},"display_name":"شاليهات النويصيب, محافظة الأحمدي, الكويت","address":{"qah22":"شاليهات النويصيب","state":"محافظة الأحمدي","ISO3166-2-lvl4":"KW-AH","country":"الكويت","country_code":"kw"},"osm_type":"relation","osm_id":18124450,"type":"administrative","location":[48.40715719615244,28.5620707],"bbox":[48.3920199,28.5356391,48.4283686,28.5885247]}}
{"name":"أبو حليفة","other_names":{"ref":"qah50","name:ar":"أبو حليفة","name:en":"Abu Halifa"},"display_name":"أبو حليفة, محافظة الأحمدي, الكويت","address":{"city":"أبو حليفة","state":"محافظة الأحمدي","ISO3166-2-lvl4":"KW-AH","country":"الكويت","country_code":"kw"},"osm_type":"relation","osm_id":18084894,"type":"administrative","location":[48.12557918400564,29.12870065],"bbox":[48.1143911,29.119102,48.1373767,29.1380214],"inferred_type":"city"}
{"name":"أبو فطيرة","other_names":{"ref":"qm12","name:ar":"أبو فطيرة","name:en":"Abu Fatira"},"display_name":"أبو فطيرة, محافظة مبارك الكبير, الكويت","address":{"city":"أبو فطيرة","state":"محافظة مبارك الكبير","ISO3166-2-lvl4":"KW-MU","country":"الكويت","country_code":"kw"},"osm_type":"relation","osm_id":18005321,"type":"administrative","location":[48.10199563611292,29.197622799999998],"bbox":[48.090808,29.1811201,48.1139087,29.21421],"inferred_type":"city"}
{"name":"أم حجول","other_names":{"ref":"qah31","name:ar":"أم حجول","name:en":"Um Hegoul"},"display_name":"أم حجول, محافظة الأحمدي, الكويت","address":{"city":"أم حجول","state":"محافظة الأحمدي","ISO3166-2-lvl4":"KW-AH","country":"الكويت","country_code":"kw"},"osm_type":"relation","osm_id":18091458,"type":"administrative","location":[47.785693718435645,28.623937],"bbox":[47.636874,28.5243622,47.9325008,28.7263457],"inferred_type":"city"}
{"name":"أم قدير","other_names":{"ref":"qah39","name:ar":"أم قدير","name:en":"Um Qudeer"},"display_name":"أم قدير, محافظة الجهراء, الكويت","address":{"city":"أم قدير","state":"محافظة الجهراء","ISO3166-2-lvl4":"KW-JA","country":"الكويت","country_code":"kw"},"osm_type":"relation","osm_id":18113792,"type":"administrative","location":[47.714382999466146,28.824825150000002],"bbox":[47.5333144,28.6280036,47.8424441,29.0131206],"inferred_type":"city"}
{"name":"أمغرة الصناعية","other_names":{"ref":"qj49","name:ar":"أمغرة الصناعية","name:en":"Industrial Amghara"},"display_name":"أمغرة الصناعية, محافظة الجهراء, الكويت","address":{"city":"أمغرة الصناعية","state":"محافظة الجهراء","ISO3166-2-lvl4":"KW-JA","country":"الكويت","country_code":"kw"},"osm_type":"relation","osm_id":18098487,"type":"administrative","location":[47.749150360884194,29.3119404],"bbox":[47.7291691,29.2932892,47.7640313,29.3260406],"inferred_type":"city"}
{"name":"إشبيلية","other_names":{"name:ar":"إشبيلية","name:en":"Ishbilya","name:ml":"ഇഷ്ബിലിയ","alt_name:ar":"اشبيلية","alt_name:en":"Ishbiliya;Ashbeliah;Eshbiliya"},"display_name":"إشبيلية, محافظة الفروانية, الكويت","address":{"city":"إشبيلية","state":"محافظة الفروانية","ISO3166-2-lvl4":"KW-FA","country":"الكويت","country_code":"kw"},"population":37842,"osm_type":"node","osm_id":4603691779,"type":"city","location":[47.9390916,29.2740582],"bbox":[47.7790916,29.1140582,48.0990916,29.4340582],"border":{"name":"إشبيلية","other_names":{"ref":"qf11","name:ar":"إشبيلية","name:en":"Ishbiliya","name:ml":"ഇഷ്ബിലിയ","alt_name:ar":"اشبيلية","alt_name:en":"Ishbiliya;Ashbeliah;Eshbiliya","alt:en":"Ishbilya"},"display_name":"إشبيلية, محافظة الفروانية, 92400, الكويت","address":{"city":"إشبيلية","state":"محافظة الفروانية","ISO3166-2-lvl4":"KW-FA","postcode":"92400","country":"الكويت","country_code":"kw"},"population":37842,"osm_type":"relation","osm_id":18048096,"type":"administrative","location":[47.9390916,29.2740582],"bbox":[47.9253303,29.2661318,47.9521073,29.2802635]}}
{"name":"ابو خرجين و الصبيحية","other_names":{"ref":"qah48","name:ar":"ابو خرجين و الصبيحية","name:en":"Abu Khurjeen - Al Subayhiyah"},"display_name":"ابو خرجين و الصبيحية, محافظة الأحمدي, الكويت","address":{"city":"ابو خرجين و الصبيحية","state":"محافظة الأحمدي","ISO3166-2-lvl4":"KW-AH","country":"الكويت","country_code":"kw"},"osm_type":"relation","osm_id":18124452,"type":"administrative","location":[48.02487130130996,28.73900445],"bbox":[47.7555083,28.6127703,48.2850496,28.8633834],"inferred_type":"city"}
{"name":"الأحمدي","other_names":{"name:ar":"الأحمدي","name:de":"Al Ahmadi","name:en":"Ahmadi","name:es":"Al Ahmadi","name:fr":"Al Ahmadi","name:ja":"アハマディ","name:ml":"അൽ-അഹമ്മദി","name:ru":"Эль-Ахмади"},"display_name":"الأحمدي, شرق الاحمدي, محافظة الأحمدي, 60012, الكويت","address":{"city":"الأحمدي","state":"محافظة الأحمدي","ISO3166-2-lvl4":"KW-AH","postcode":"60012","country":"الكويت","country_code":"kw"},"population":31422,"osm_type":"node","osm_id":1760623214,"type":"city","location":[48.0610236,29.0890687],"bbox":[47.9010236,28.9290687,48.2210236,29.2490687]}
{"name":"الأندلس","other_names":{"name:en":"Andalus","name:ml":"അന്തലൂസ്"},"display_name":"الأندلس, محافظة الفروانية, الكويت","address":{"city":"الأندلس","state":"محافظة الفروانية","ISO3166-2-lvl4":"KW-FA","country":"الكويت","country_code":"kw"},"osm_type":"node","osm_id":12114092256,"type":"city","location":[47.8869566,29.3041951],"bbox":[47.7269566,29.1441951,48.0469566,29.4641951],"border":{"name":"الأندلس","other_names":{"ref":"qf17","name:ar":"الأندلس","name:en":"Andalus","name:ml":"അന്തലൂസ്"},"display_name":"الأندلس, محافظة الفروانية, الكويت","address":{"city":"الأندلس","state":"محافظة الفروانية","ISO3166-2-lvl4":"KW-FA","country":"الكويت","country_code":"kw"},"osm_type":"relation","osm_id":18011085,"type":"administrative","location":[47.8869566,29.3041951],"bbox":[47.8647887,29.2955457,47.9057191,29.3106178]}}
{"name":"الابيرق والنعايم واللياح","other_names":{"ref":"qj32","name:ar":"الابيرق والنعايم واللياح","name:en":"Al Abaireq - Al Anaem - Al Laiyah"},"display_name":"الابيرق والنعايم واللياح, محافظة الجهراء, الكويت","address":{"city":"الابيرق والنعايم واللياح","state":"محافظة الجهراء","ISO3166-2-lvl4":"KW-JA","country":"الكويت","country_code":"kw"},"osm_type":"relation","osm_id":18113786,"type":"administrative","location":[47.17300681362186,29.62494295],"bbox":[46.8906255,29.2753227,47.5533155,29.9743313],"inferred_type":"city"}
{"name":"البدع","other_names":{"ref":"qh4","name:ar":"البدع","name:en":"Coast Strip A"},"display_name":"البدع, محافظة حولي, الكويت","address":{"city":"البدع","state":"محافظة حولي","ISO3166-2-lvl4":"KW-HA","country":"الكويت","country_code":"kw"},"osm_type":"relation","osm_id":18034873,"type":"administrative","location":[48.08874343765748,29.31566255],"bbox":[48.0860634,29.3079135,48.0917207,29.3232292],"inferred_type":"city"}
{"name":"الجابرية","other_names":{"name:ar":"الجابرية","name:en":"Jabriya","name:ml":"ജാബ്രിയ"},"display_name":"الجابرية, محافظة حولي, الكويت","address":{"city":"الجابرية","state":"محافظة حولي","ISO3166-2-lvl4":"KW-HA","country":"الكويت","country_code":"kw"},"population":76698,"osm_type":"node","osm_id":4603691892,"type":"city","location":[48.0329577,29.3192521],"bbox":[47.8729577,29.1592521,48.1929577,29.4792521],"border":{"name":"الجابرية","other_names":{"ref":"qh12","name:ar":"الجابرية","name:en":"Jabriya","name:ml":"ജാബ്രിയ"},"display_name":"الجابرية, محافظة حولي, الكويت","address":{"city":"الجابرية","state":"محافظة حولي","ISO3166-2-lvl4":"KW-HA","country":"الكويت","country_code":"kw"},"population":76698,"osm_type":"relation","osm_id":18031316,"type":"administrative","location":[48.0329577,29.3192521],"bbox":[48.012126,29.3073004,48.0528828,29.3309591]}}
{"name":"الجهراء الصناعية الحرفية","other_names":{"ref":"qj8","name:ar":"الجهراء الصناعية الحرفية","name:en":"Jahra Industrial Crafts"},"display_name":"الجهراء الصناعية الحرفية, محافظة الجهراء, الكويت","address":{"city":"الجهراء الصناعية الحرفية","state":"محافظة الجهراء","ISO3166-2-lvl4":"KW-JA","country":"الكويت","country_code":"kw"},"osm_type":"relation","osm_id":18101124,"type":"administrative","location":[47.64960450139957,29.32030695],"bbox":[47.6304397,29.3033921,47.6793716,29.3386185],"inferred_type":"city"}
{"name":"الجهراء","other_names":{"name:ar":"الجهراء","name:de":"al-Dschahra","name:en":"Al Jahra","name:es":"Jahra","name:et":"Al-Jahrā’","name:fr":"Al Jahra","name:ja":"ジャハラー","name:ml":"അൽ-ജഹ്റ","name:ru":"Эль-Джахра","int_name":"Al-Jahrā’"},"display_name":"الجهراء, محافظة الجهراء, الكويت","address":{"city":"الجهراء","state":"محافظة الجهراء","ISO3166-2-lvl4":"KW-JA","country":"الكويت","country_code":"kw"},"population":393432,"osm_type":"node","osm_id":1278188834,"type":"city","location":[47.6722054,29.3474636],"bbox":[47.5122054,29.1874636,47.8322054,29.5074636],"border":{"name":"الجهراء","other_names":{"ref":"qj28","name:ar":"الجهراء","name:en":"Jahra","name:de":"al-Dschahra","name:es":"Jahra","name:et":"Al-Jahrā’","name:fr":"Al Jahra","name:ja":"ジャハラー","name:ml":"അൽ-ജഹ്റ","name:ru":"Эль-Джахра","int_name":"Al-Jahrā’","alt:en":"Al Jahra"},"display_name":"الجهراء, محافظة الجهراء, 00003, الكويت","address":{"city":"الجهراء","state":"محافظة الجهراء","ISO3166-2-lvl4":"KW-JA","postcode":"00003","country":"الكويت","country_code":"kw"},"population":393432,"osm_type":"relation","osm_id":18024568,"type":"administrative","location":[47.6722054,29.3474636],"bbox":[47.6597965,29.335352,47.6872212,29.3610515]}}
{"name":"الخالدية","other_names":{"name:ar":"الخالدية","name:en":"Khaldiya","name:ml":"ഖാലിദിയ"},"display_name":"الخالدية, محافظة العاصمة, الكويت","address":{"city":"الخالدية","state":"محافظة العاصمة","ISO3166-2-lvl4":"KW-KU","country":"الكويت","country_code":"kw"},"population":19318,"osm_type":"node","osm_id":4603691897,"type":"city","location":[47.9630857,29.3266251],"bbox":[47.8030857,29.1666251,48.1230857,29.4866251],"border":{"name":"الخالدية","other_names":{"ref":"qa48","name:ar":"الخالدية","name:en":"Khaldiya","name:ml":"ഖാലിദിയ"},"display_name":"الخالدية, محافظة العاصمة, الكويت","address":{"city":"الخالدية","state":"محافظة العاصمة","ISO3166-2-lvl4":"KW-KU","country":"الكويت","country_code":"kw"},"population":19318,"osm_type":"relation","osm_id":18018211,"type":"administrative","location":[47.9630857,29.3266251],"bbox":[47.9520762,29.3170267,47.9746743,29.3341439]}}
{"name":"الدسمة","other_names":{"name:ar":"الدسمة","name:en":"Dasma","name:ml":"ദസ്മ"},"display_name":"الدسمة, محافظة العاصمة, الكويت","address":{"city":"الدسمة","state":"محافظة العاصمة","ISO3166-2-lvl4":"KW-KU","country":"الكويت","country_code":"kw"},"population":18656,"osm_type":"node","osm_id":4602123785,"type":"city","location":[48.0006648,29.3656987],"bbox":[47.8406648,29.2056987,48.1606648,29.5256987],"border":{"name":"الدسمة","other_names":{"ref":"qa22","name:ar":"الدسمة","name:en":"Dasma","name:ml":"ദസ്മ"},"display_name":"الدسمة, محافظة العاصمة, الكويت","address":{"city":"الدسمة","state":"محافظة العاصمة","ISO3166-2-lvl4":"KW-KU","country":"الكويت","country_code":"kw"},"population":18656,"osm_type":"relation","osm_id":18066282,"type":"administrative","location":[48.0006648,29.3656987],"bbox":[47.9922803,29.3569124,48.0109253,29.3744219]}}
{"name":"الدعية - قطعة 5","other_names":{"ref":"qa149","name:ar":"الدعية - قطعة 5","name:en":"Di'iya - Block 5"},"display_name":"الدعية - قطعة 5, الدعية, محافظة العاصمة, الكويت","address":{"city":"الدعية - قطعة 5","state":"محافظة العاصمة","ISO3166-2-lvl4":"KW-KU","country":"الكويت","country_code":"kw"},"osm_type":"relation","osm_id":18058274,"type":"administrative","location":[48.021810321177725,29.364272],"bbox":[48.0109253,29.3577688,48.030238,29.3710594],"inferred_type":"city"}
{"name":"الدعية","other_names":{"name:ar":"الدعية","name:en":"Da'iya","name:ml":"ദായ്യ","alt_name:en":"Di'iya"},"display_name":"الدعية, محافظة العاصمة, الكويت","address":{"city":"الدعية","state":"محافظة العاصمة","ISO3166-2-lvl4":"KW-KU","country":"الكويت","country_code":"kw"},"population":19636,"osm_type":"node","osm_id":4602123773,"type":"city","location":[48.0117679,29.3569034],"bbox":[47.8517679,29.1969034,48.1717679,29.5169034],"border":{"name":"الدعية","other_names":{"ref":"qa16","name:ar":"الدعية","name:en":"Daiya","name:ml":"ദായ്യ","alt_name:en":"Di'iya","alt:en":"Da'iya"},"display_name":"الدعية, محافظة العاصمة, الكويت","address":{"city":"الدعية","state":"محافظة العاصمة","ISO3166-2-lvl4":"KW-KU","country":"الكويت","country_code":"kw"},"population":19886,"osm_type":"relation","osm_id":18058279,"type":"administrative","location":[48.0117679,29.3569034],"bbox":[48.0032888,29.3497578,48.030238,29.3710594]}}
{"name":"الدوحة","other_names":{"name:en":"Doha","name:ml":"ദോഹ","official_name":"الدوحة السكنية","official_name:en":"Doha Residential"},"display_name":"الدوحة, محافظة العاصمة, الكويت","address":{"city":"الدوحة","state":"محافظة العاصمة","ISO3166-2-lvl4":"KW-KU","country":"الكويت","country_code":"kw"},"population":31056,"osm_type":"node","osm_id":11166002698,"type":"city","location":[47.8179812,29.3165511],"bbox":[47.6579812,29.1565511,47.9779812,29.4765511],"border":{"name":"الدوحة","other_names":{"ref":"qa50","name:ar":"الدوحة","name:en":"Doha","name:ml":"ദോഹ","official_name":"الدوحة السكنية","official_name:en":"Doha Residential"},"display_name":"الدوحة, محافظة العاصمة, الكويت","address":{"city":"الدوحة","state":"محافظة العاصمة","ISO3166-2-lvl4":"KW-KU","country":"الكويت","country_code":"kw"},"population":31832,"osm_type":"relation","osm_id":18018221,"type":"administrative","location":[47.8179812,29.3165511],"bbox":[47.7850986,29.3111904,47.8295011,29.3359529]}}
{"name":"الرابية","other_names":{"ref":"qf12","name:ar":"الرابية","name:en":"Rabiya"},"display_name":"الرابية, محافظة الفروانية, 85201, الكويت","address":{"city":"الرابية","state":"محافظة الفروانية","ISO3166-2-lvl4":"KW-FA","postcode":"85201","country":"الكويت","country_code":"kw"},"osm_type":"relation","osm_id":18011078,"type":"administrative","location":[47.93729309498375,29.295699650000003],"bbox":[47.9275294,29.2884621,47.9477918,29.301671],"inferred_type":"city"}
{"name":"الرتقة والحريجة","other_names":{"ref":"qj36","name:ar":"الرتقة والحريجة","name:en":"Al Retqah - Al Heraigah"},"display_name":"الرتقة والحريجة, محافظة الجهراء, الكويت","address":{"city":"الرتقة والحريجة","state":"محافظة الجهراء","ISO3166-2-lvl4":"KW-JA","country":"الكويت","country_code":"kw"},"osm_type":"relation","osm_id":18113784,"type":"administrative","location":[47.2934799985379,29.9655354],"bbox":[47.1316297,29.8273262,47.4850538,30.1038082],"inferred_type":"city"}
{"name":"الرحاب","other_names":{"name:ar":"الرحاب","name:en":"Rihab","name:ml":"റിഹാബ്","alt_name:en":"Rehab"},"display_name":"الرحاب, محافظة الفروانية, الكويت","address":{"city":"الرحاب","state":"محافظة الفروانية","ISO3166-2-lvl4":"KW-FA","country":"الكويت","country_code":"kw"},"osm_type":"node","osm_id":4603691778,"type":"city","location":[47.93872,29.2843652],"bbox":[47.77872,29.1243652,48.09872,29.4443652],"border":{"name":"الرحاب","other_names":{"ref":"qf 16","name:ar":"الرحاب","name:en":"Rihab","name:ml":"റിഹാബ്","alt_name:en":"Rehab"},"display_name":"الرحاب, محافظة الفروانية, الكويت","address":{"city":"الرحاب","state":"محافظة الفروانية","ISO3166-2-lvl4":"KW-FA","country":"الكويت","country_code":"kw"},"osm_type":"relation","osm_id":18011077,"type":"administrative","location":[47.93872,29.2843652],"bbox":[47.927252,29.2797513,47.9495431,29.2892809]}}
{"name":"الرحية وأم توينج","other_names":{"ref":"qj23","name:ar":"الرحية وأم توينج","name:en":"Ar Ruhayya - Um Tawaynij"},"display_name":"الرحية وأم توينج, محافظة الجهراء, الكويت","address":{"city":"الرحية وأم توينج","state":"محافظة الجهراء","ISO3166-2-lvl4":"KW-JA","country":"الكويت","country_code":"kw"},"osm_type":"relation","osm_id":18024578,"type":"administrative","location":[47.61408755020334,29.28464],"bbox":[47.5734953,29.226727,47.6738123,29.3385328],"inferred_type":"city"}
{"name":"الرقة","other_names":{"ref":"qah14","name:ar":"الرقة","name:en":"Riqqa"},"display_name":"الرقة, محافظة الأحمدي, 53301, الكويت","address":{"city":"الرقة","state":"محافظة الأحمدي","ISO3166-2-lvl4":"KW-AH","postcode":"53301","country":"الكويت","country_code":"kw"},"osm_type":"relation","osm_id":18020596,"type":"administrative","location":[48.10569333211748,29.147363849999998],"bbox":[48.0936978,29.1342333,48.1143911,29.1606592],"inferred_type":"city"}
{"name":"الرقعي","other_names":{"name:ar":"الرقعي","name:en":"Riggai","name:ml":"റിഗ്ഗയി","alt_name:en":"Reggae","alt_name_2:en":"Rig'i"},"display_name":"الرقعي, محافظة الفروانية, الكويت","address":{"city":"الرقعي","state":"محافظة الفروانية","ISO3166-2-lvl4":"KW-FA","country":"الكويت","country_code":"kw"},"osm_type":"node","osm_id":4603691776,"type":"city","location":[47.9165978,29.3045776],"bbox":[47.7565978,29.1445776,48.0765978,29.4645776],"border":{"name":"الرقعي","other_names":{"ref":"qf13","name:ar":"الرقعي","name:en":"Riggai","name:ml":"റിഗ്ഗയി","alt_name:en":"Reggae","alt_name_2:en":"Rig'i"},"display_name":"الرقعي, محافظة الفروانية, الكويت","address":{"city":"الرقعي","state":"محافظة الفروانية","ISO3166-2-lvl4":"KW-FA","country":"الكويت","country_code":"kw"},"osm_type":"relation","osm_id":18011086,"type":"administrative","location":[47.9165978,29.3045776],"bbox":[47.9048377,29.2986708,47.9275294,29.313054]}}
{"name":"الرميثية","other_names":{"ref":"qh3","name:ar":"الرميثية","name:en":"Rumaithiya"},"display_name":"الرميثية, محافظة حولي, 20006, الكويت","address":{"city":"الرميثية","county":"الرميثية","state":"محافظة حولي","ISO3166-2-lvl4":"KW-HA","postcode":"20006","country":"الكويت","country_code":"kw"},"osm_type":"way","osm_id":1313268089,"type":"city","location":[48.08837145,29.32277905],"bbox":[48.0881412,29.3223289,48.0886017,29.3232292],"border":{"name":"الرميثية","other_names":{"ref":"qh3","name:ar":"الرميثية","name:en":"Rumaithiya"},"display_name":"الرميثية, محافظة حولي, 25409, الكويت","address":{"county":"الرميثية","state":"محافظة حولي","ISO3166-2-lvl4":"KW-HA","postcode":"25409","country":"الكويت","country_code":"kw"},"osm_type":"relation","osm_id":18034886,"type":"administrative","location":[48.07053545795657,29.31513475],"bbox":[48.0528828,29.3041844,48.0886017,29.3258853]}}
{"name":"الرميثية","other_names":{"name:ar":"الرميثية","name:en":"Rumaithiya","name:ml":"റുമൈതിയ"},"display_name":"الرميثية, محافظة حولي, 25409, الكويت","address":{"city":"الرميثية","county":"الرميثية","state":"محافظة حولي","ISO3166-2-lvl4":"KW-HA","postcode":"25409","country":"الكويت","country_code":"kw"},"population":58127,"osm_type":"node","osm_id":4603691891,"type":"city","location":[48.0711695,29.3160203],"bbox":[47.9111695,29.1560203,48.2311695,29.4760203]}
{"name":"الروضة","other_names":{"name:ar":"الروضة","name:en":"Rawda","name:ml":"റൗദ"},"display_name":"الروضة, محافظة العاصمة, الكويت","address":{"city":"الروضة","state":"محافظة العاصمة","ISO3166-2-lvl4":"KW-KU","country":"الكويت","country_code":"kw"},"population":40245,"osm_type":"node","osm_id":1759971858,"type":"city","location":[47.9984225,29.3299239],"bbox":[47.8384225,29.1699239,48.1584225,29.4899239],"border":{"name":"الروضة","other_names":{"ref":"qa2","name:ar":"الروضة","name:en":"Rawda","name:ml":"റൗദ"},"display_name":"الروضة, محافظة العاصمة, الكويت","address":{"city":"الروضة","state":"محافظة العاصمة","ISO3166-2-lvl4":"KW-KU","country":"الكويت","country_code":"kw"},"population":40245,"osm_type":"relation","osm_id":18057957,"type":"administrative","location":[47.9984225,29.3299239],"bbox":[47.9874661,29.3206192,48.012126,29.3404627]}}
{"name":"الروضتين","other_names":{"ref":"qj48","name:ar":"الروضتين","name:en":"Rawdatain"},"display_name":"الروضتين, محافظة الجهراء, الكويت","address":{"city":"الروضتين","state":"محافظة الجهراء","ISO3166-2-lvl4":"KW-JA","country":"الكويت","country_code":"kw"},"osm_type":"relation","osm_id":18027488,"type":"administrative","location":[47.79212368747591,29.846405400000002],"bbox":[47.6692934,29.7408894,47.9168746,29.9501675],"inferred_type":"city"}
{"name":"الري","other_names":{"name:ar":"الري","name:en":"Rai","name:ml":"റയി","alt_name":"Rai","official_name":"Rai"},"display_name":"الري, محافظة الفروانية, الكويت","address":{"city":"الري","state":"محافظة الفروانية","ISO3166-2-lvl4":"KW-FA","country":"الكويت","country_code":"kw"},"osm_type":"node","osm_id":2852960214,"type":"city","location":[47.9435596,29.3089508],"bbox":[47.7835596,29.1489508,48.1035596,29.4689508],"border":{"name":"الري","other_names":{"ref":"qf21","name:ar":"الري","name:en":"Rai","name:ml":"റയി","alt_name":"Rai","official_name":"Rai"},"display_name":"الري, محافظة الفروانية, الكويت","address":{"city":"الري","state":"محافظة الفروانية","ISO3166-2-lvl4":"KW-FA","country":"الكويت","country_code":"kw"},"population":2616,"osm_type":"relation","osm_id":18011087,"type":"administrative","location":[47.9435596,29.3089508],"bbox":[47.92622,29.3005761,47.9635384,29.3170267]}}
{"name":"الزهراء","other_names":{"name:ar":"الزهراء","name:en":"Zahra","name:ml":"സഹ്റ"},"display_name":"الزهراء, محافظة حولي, الكويت","address":{"city":"الزهراء","state":"محافظة حولي","ISO3166-2-lvl4":"KW-HA","country":"الكويت","country_code":"kw"},"population":39433,"osm_type":"node","osm_id":4603691787,"type":"city","location":[48.0017895,29.2758259],"bbox":[47.8417895,29.1158259,48.1617895,29.4358259],"border":{"name":"الزهراء","other_names":{"ref":"qh15","name:ar":"الزهراء","name:en":"Zahra","name:ml":"സഹ്റ"},"display_name":"الزهراء, محافظة حولي, 20011, الكويت","address":{"city":"الزهراء","state":"محافظة حولي","ISO3166-2-lvl4":"KW-HA","postcode":"20011","country":"الكويت","country_code":"kw"},"population":39433,"osm_type":"relation","osm_id":18007023,"type":"administrative","location":[48.0017895,29.2758259],"bbox":[47.9853723,29.2646075,48.0140714,29.2858007]}}
{"name":"السالمية","other_names":{"ref":"qh6","name:ar":"السالمية","name:en":"Salmiya"},"display_name":"السالمية, محافظة حولي, 20003, الكويت","address":{"city":"السالمية","state":"محافظة حولي","ISO3166-2-lvl4":"KW-HA","postcode":"20003","country":"الكويت","country_code":"kw"},"osm_type":"way","osm_id":431866328,"type":"city","location":[48.09885125755052,29.352052917884468],"bbox":[48.0929504,29.3433751,48.101978,29.3526279],"border":{"name":"السالمية","other_names":{"ref":"qh6","name:ar":"السالمية","name:en":"Salmiya","name:ml":"സാൽമിയ"},"display_name":"السالمية, محافظة حولي, الكويت","address":{"city":"السالمية","state":"محافظة حولي","ISO3166-2-lvl4":"KW-HA","country":"الكويت","country_code":"kw"},"population":309960,"osm_type":"relation","osm_id":18030968,"type":"administrative","location":[48.0684884,29.3328242],"bbox":[48.0327549,29.3141541,48.101978,29.3526279]}}
{"name":"السالمية","other_names":{"name:ar":"السالمية","name:en":"Salmiya","name:ml":"സാൽമിയ"},"display_name":"السالمية, محافظة حولي, الكويت","address":{"city":"السالمية","state":"محافظة حولي","ISO3166-2-lvl4":"KW-HA","country":"الكويت","country_code":"kw"},"population":309960,"osm_type":"node","osm_id":4603691893,"type":"city","location":[48.0684884,29.3328242],"bbox":[47.9084884,29.1728242,48.2284884,29.4928242]}
{"name":"السرة","other_names":{"name:ar":"السرة","name:en":"Surra","name:ml":"സുറ"},"display_name":"السرة, محافظة العاصمة, الكويت","address":{"city":"السرة","state":"محافظة العاصمة","ISO3166-2-lvl4":"KW-KU","country":"الكويت","country_code":"kw"},"population":38492,"osm_type":"node","osm_id":1759971859,"type":"city","location":[48.0069616,29.3144991],"bbox":[47.8469616,29.1544991,48.1669616,29.4744991],"border":{"name":"السرة","other_names":{"ref":"qa32","name:ar":"السرة","name:en":"Surra","name:ml":"സുറ"},"display_name":"السرة, محافظة العاصمة, الكويت","address":{"city":"السرة","state":"محافظة العاصمة","ISO3166-2-lvl4":"KW-KU","country":"الكويت","country_code":"kw"},"population":38492,"osm_type":"relation","osm_id":18018206,"type":"administrative","location":[48.0069616,29.3144991],"bbox":[47.9933914,29.3053656,48.022032,29.3229055]}}
{"name":"السكراب","other_names":{"ref":"qj50","name:ar":"السكراب","name:en":"Sikrab"},"display_name":"السكراب, محافظة الجهراء, الكويت","address":{"city":"السكراب","state":"محافظة الجهراء","ISO3166-2-lvl4":"KW-JA","country":"الكويت","country_code":"kw"},"osm_type":"relation","osm_id":18098486,"type":"administrative","location":[47.769306722664865,29.301372200000003],"bbox":[47.7484128,29.2836224,47.7860373,29.3175983],"inferred_type":"city"}
{"name":"السلام","other_names":{"name:ar":"السلام","name:en":"Salam","name:ml":"സലാം"},"display_name":"السلام, محافظة حولي, الكويت","address":{"city":"السلام","state":"محافظة حولي","ISO3166-2-lvl4":"KW-HA","country":"الكويت","country_code":"kw"},"population":31775,"osm_type":"node","osm_id":4721453939,"type":"city","location":[48.0143201,29.2970331],"bbox":[47.8543201,29.1370331,48.1743201,29.4570331],"border":{"name":"السلام","other_names":{"ref":"qh7","name:ar":"السلام","name:en":"Salam","name:ml":"സലാം"},"display_name":"السلام, محافظة حولي, الكويت","address":{"city":"السلام","state":"محافظة حولي","ISO3166-2-lvl4":"KW-HA","country":"الكويت","country_code":"kw"},"population":31775,"osm_type":"relation","osm_id":18007009,"type":"administrative","location":[48.0143201,29.2970331],"bbox":[47.9997565,29.2880107,48.0294275,29.3073004]}}
{"name":"الشامية","other_names":{"name:ar":"الشامية","name:en":"Shamiya","name:ml":"ഷാമിയ"},"display_name":"الشامية, محافظة العاصمة, الكويت","address":{"city":"الشامية","state":"محافظة العاصمة","ISO3166-2-lvl4":"KW-KU","country":"الكويت","country_code":"kw"},"population":18078,"osm_type":"node","osm_id":4602123780,"type":"city","location":[47.9683478,29.3541641],"bbox":[47.8083478,29.1941641,48.1283478,29.5141641],"border":{"name":"الشامية","other_names":{"ref":"qa38","name:ar":"الشامية","name:en":"Shamiya","name:ml":"ഷാമിയ"},"display_name":"الشامية, محافظة العاصمة, الكويت","address":{"city":"الشامية","state":"محافظة العاصمة","ISO3166-2-lvl4":"KW-KU","country":"الكويت","country_code":"kw"},"population":18078,"osm_type":"relation","osm_id":18018194,"type":"administrative","location":[47.9683478,29.3541641],"bbox":[47.9562955,29.3436373,47.9741433,29.3596201]}}
{"name":"الشدادية الصناعية","other_names":{"ref":"qah3","name:ar":"الشدادية الصناعية","name:en":"Shadadiya industrial"},"display_name":"الشدادية الصناعية, الكويت","address":{"city":"الشدادية الصناعية","country":"الكويت","country_code":"kw"},"osm_type":"way","osm_id":1135462948,"type":"administrative","location":[47.85619654390152,29.1861168],"bbox":[47.8350287,29.1632027,47.8730533,29.1945456],"inferred_type":"city"}
{"name":"الشدادية","other_names":{"ref":"qf2","name:ar":"الشدادية","name:en":"Shadadiya"},"display_name":"الشدادية, محافظة الفروانية, الكويت","address":{"city":"الشدادية","state":"محافظة الفروانية","ISO3166-2-lvl4":"KW-FA","country":"الكويت","country_code":"kw"},"osm_type":"relation","osm_id":18130610,"type":"administrative","location":[47.84639740339037,29.212488800000003],"bbox":[47.8040987,29.1881581,47.8873025,29.2344382],"inferred_type":"city"}
{"name":"الشعب","other_names":{"ref":"qh5","name:ar":"الشعب","name:en":"Shaab"},"display_name":"الشعب, محافظة حولي, 35908, الكويت","address":{"city":"الشعب","state":"محافظة حولي","ISO3166-2-lvl4":"KW-HA","postcode":"35908","country":"الكويت","country_code":"kw"},"osm_type":"relation","osm_id":18007015,"type":"administrative","location":[48.025152571693745,29.35128905],"bbox":[48.0133921,29.3419699,48.0423358,29.3606777],"inferred_type":"city"}
{"name":"الشعيبة الصناعية الشرقية","other_names":{"ref":"qah36","name:ar":"الشعيبة الصناعية الشرقية","name:en":"East Shuaiba Industrial"},"display_name":"الشعيبة الصناعية الشرقية, محافظة الأحمدي, 65200, الكويت","address":{"city":"الشعيبة الصناعية الشرقية","state":"محافظة الأحمدي","ISO3166-2-lvl4":"KW-AH","postcode":"65200","country":"الكويت","country_code":"kw"},"osm_type":"relation","osm_id":18091793,"type":"administrative","location":[48.13805640756421,29.0351273],"bbox":[48.1138477,29.0192257,48.1759649,29.0506905],"inferred_type":"city"}
{"name":"الشعيبة","other_names":{"ref":"qah6","name:ar":"الشعيبة","name:en":"Shuaiba"},"display_name":"الشعيبة, محافظة الأحمدي, الكويت","address":{"city":"الشعيبة","state":"محافظة الأحمدي","ISO3166-2-lvl4":"KW-AH","country":"الكويت","country_code":"kw"},"osm_type":"relation","osm_id":18023222,"type":"administrative","location":[48.12422151351942,29.053786000000002],"bbox":[48.0923387,29.033217,48.1731659,29.0737108],"inferred_type":"city"}
{"name":"الشعيبه الصناعيه الغربيه","other_names":{"ref":"qah37","name:ar":"الشعيبه الصناعيه الغربيه","name:en":"Shuaiba Industrial Western"},"display_name":"الشعيبه الصناعيه الغربيه, محافظة الأحمدي, الكويت","address":{"city":"الشعيبه الصناعيه الغربيه","state":"محافظة الأحمدي","ISO3166-2-lvl4":"KW-AH","country":"الكويت","country_code":"kw"},"osm_type":"relation","osm_id":18091794,"type":"administrative","location":[48.119671815708536,28.99859705],"bbox":[48.0917939,28.9594163,48.1431736,29.036861],"inferred_type":"city"}
{"name":"الشقايا - الدبدبة - المتياهه","other_names":{"ref":"qj43","name:ar":"الشقايا - الدبدبة - المتياهه","name:en":"Al Shejaya - Al Dubdiba - Al Mityahah"},"display_name":"الشقايا - الدبدبة - المتياهه, محافظة الجهراء, الكويت","address":{"city":"الشقايا - الدبدبة - المتياهه","state":"محافظة الجهراء","ISO3166-2-lvl4":"KW-JA","country":"الكويت","country_code":"kw"},"osm_type":"relation","osm_id":18113788,"type":"administrative","location":[47.07093306451688,29.26687405],"bbox":[46.6844037,29.0462854,47.4341007,29.4864986],"inferred_type":"city"}
{"name":"الشهداء","other_names":{"name:ar":"الشهداء","name:en":"Shuhada","name:ml":"ശുഹദാ"},"display_name":"الشهداء, محافظة حولي, الكويت","address":{"city":"الشهداء","state":"محافظة حولي","ISO3166-2-lvl4":"KW-HA","country":"الكويت","country_code":"kw"},"osm_type":"node","osm_id":4603691788,"type":"city","location":[48.0306259,29.2713033],"bbox":[47.8706259,29.1113033,48.1906259,29.4313033],"border":{"name":"الشهداء","other_names":{"ref":"qh14","name:ar":"الشهداء","name:en":"Shuhada","name:ml":"ശുഹദാ"},"display_name":"الشهداء, محافظة حولي, الكويت","address":{"city":"الشهداء","state":"محافظة حولي","ISO3166-2-lvl4":"KW-HA","country":"الكويت","country_code":"kw"},"osm_type":"relation","osm_id":18007021,"type":"administrative","location":[48.0306259,29.2713033],"bbox":[48.0210397,29.2644695,48.0424697,29.2797812]}}
{"name":"الشويخ التعليمية","other_names":{"name:en":"Shuwaikh Educational","alt_name:en":"Shuwaikh Educational Quarter"},"display_name":"الشويخ التعليمية, محافظة العاصمة, الكويت","address":{"city":"الشويخ التعليمية","state":"محافظة العاصمة","ISO3166-2-lvl4":"KW-KU","country":"الكويت","country_code":"kw"},"osm_type":"node","osm_id":12125798672,"type":"city","location":[47.9157238,29.335023],"bbox":[47.7557238,29.175023,48.0757238,29.495023],"border":{"name":"الشويخ التعليمية","other_names":{"ref":"qa23","name:ar":"الشويخ التعليمية","name:en":"Shuwaikh Educational","alt_name:en":"Shuwaikh Educational Quarter"},"display_name":"الشويخ التعليمية, محافظة العاصمة, الكويت","address":{"city":"الشويخ التعليمية","state":"محافظة العاصمة","ISO3166-2-lvl4":"KW-KU","country":"الكويت","country_code":"kw"},"osm_type":"relation","osm_id":18018361,"type":"administrative","location":[47.9157238,29.335023],"bbox":[47.9024371,29.3234389,47.930746,29.3455249]}}
{"name":"الشويخ السكنية","other_names":{"name:ar":"الشويخ السكنية","name:en":"Shuwaikh Residential","name:ml":"ഷുവൈഖ് സുക്നിയ"},"display_name":"الشويخ السكنية, الشويخ, محافظة العاصمة, الكويت","address":{"city":"الشويخ السكنية","state":"محافظة العاصمة","ISO3166-2-lvl4":"KW-KU","country":"الكويت","country_code":"kw"},"population":5244,"osm_type":"node","osm_id":4602123779,"type":"city","location":[47.9563788,29.3544104],"bbox":[47.7963788,29.1944104,48.1163788,29.5144104],"border":{"name":"الشويخ","other_names":{"ref":"qa12","name:ar":"الشويخ","name:en":"Shuwaikh","name:ml":"ഷുവൈഖ് സുക്നിയ","alt":"الشويخ السكنية","alt:ar":"الشويخ السكنية","alt:en":"Shuwaikh Residential"},"display_name":"الشويخ, محافظة العاصمة, الكويت","address":{"city":"الشويخ","state":"محافظة العاصمة","ISO3166-2-lvl4":"KW-KU","country":"الكويت","country_code":"kw"},"population":5244,"osm_type":"relation","osm_id":18018195,"type":"administrative","location":[47.9563788,29.3544104],"bbox":[47.9398327,29.3412183,47.9630307,29.3648889]}}
{"name":"الشويخ الصحية","other_names":{"name:ar":"الشويخ الصحية","name:en":"Shuwaikh Medical Health Area Quarter","short_name:en":"Shuwaikh Medical / Health"},"display_name":"الشويخ الصحية, محافظة العاصمة, 70030, الكويت","address":{"city":"الشويخ الصحية","county":"الشويخ الصحية","state":"محافظة العاصمة","ISO3166-2-lvl4":"KW-KU","postcode":"70030","country":"الكويت","country_code":"kw"},"population":671,"osm_type":"node","osm_id":12125798677,"type":"city","location":[47.8966087,29.3258213],"bbox":[47.7366087,29.1658213,48.0566087,29.4858213],"border":{"name":"الشويخ الصحية","other_names":{"ref":"qa34","name:ar":"الشويخ الصحية","name:en":"Shuwaikh Medical"},"display_name":"الشويخ الصحية, شارع جمال عبد الناصر, الشويخ التعليمية, محافظة العاصمة, 70030, الكويت","address":{"amenity":"الشويخ الصحية","road":"شارع جمال عبد الناصر","city":"الشويخ التعليمية","state":"محافظة العاصمة","ISO3166-2-lvl4":"KW-KU","postcode":"70030","country":"الكويت","country_code":"kw"},"osm_type":"relation","osm_id":18018358,"type":"hospital","location":[47.89486398371611,29.32266775],"bbox":[47.8776835,29.3103748,47.9128113,29.3351317]}}
{"name":"الشويخ الصناعية","other_names":{"name:ar":"الشويخ الصناعية","name:en":"Shuwaikh Industrial","alt_name:en":"Industrial Shuwaikh"},"display_name":"الشويخ الصناعية, الشويخ الصناعية 3, محافظة العاصمة, 70030, الكويت","address":{"city":"الشويخ الصناعية","county":"الشويخ الصناعية 3","state":"محافظة العاصمة","ISO3166-2-lvl4":"KW-KU","postcode":"70030","country":"الكويت","country_code":"kw"},"population":3434,"osm_type":"node","osm_id":12133633110,"type":"city","location":[47.9361162,29.323567],"bbox":[47.7761162,29.163567,48.0961162,29.483567]}
{"name":"الصباحية","other_names":{"ref":"qah26","name:ar":"الصباحية","name:en":"Sabahiya"},"display_name":"الصباحية, محافظة الأحمدي, الكويت","address":{"city":"الصباحية","state":"محافظة الأحمدي","ISO3166-2-lvl4":"KW-AH","country":"الكويت","country_code":"kw"},"osm_type":"relation","osm_id":18085214,"type":"administrative","location":[48.10695441492037,29.10711315],"bbox":[48.0930051,29.0907537,48.1183201,29.1231248],"inferred_type":"city"}
{"name":"الصبية","other_names":{"name:ar":"الصبية","name:en":"Subiya"},"display_name":"الصبية, كاظمة, محافظة الجهراء, الكويت","address":{"city":"الصبية","county":"كاظمة","state":"محافظة الجهراء","ISO3166-2-lvl4":"KW-JA","country":"الكويت","country_code":"kw"},"population":6,"osm_type":"node","osm_id":10707750005,"type":"city","location":[47.7436464,29.4488272],"bbox":[47.5836464,29.2888272,47.9036464,29.6088272]}
{"name":"الصبية","other_names":{"ref":"qj34","name:ar":"الصبية","name:en":"Subiya"},"display_name":"الصبية, محافظة الجهراء, الكويت","address":{"city":"الصبية","state":"محافظة الجهراء","ISO3166-2-lvl4":"KW-JA","country":"الكويت","country_code":"kw"},"osm_type":"relation","osm_id":18027485,"type":"administrative","location":[48.065879392716354,29.7152161],"bbox":[47.9146282,29.512813,48.1878772,29.9180586],"inferred_type":"city"}
{"name":"الصدّيق","other_names":{"name:ar":"الصدّيق","name:en":"Siddeeq","name:ml":"അൽ-സിദ്ദിഖ്"},"display_name":"الصدّيق, محافظة حولي, الكويت","address":{"city":"الصدّيق","state":"محافظة حولي","ISO3166-2-lvl4":"KW-HA","country":"الكويت","country_code":"kw"},"population":7063,"osm_type":"node","osm_id":4603691785,"type":"city","location":[47.9919109,29.2944312],"bbox":[47.8319109,29.1344312,48.1519109,29.4544312],"border":{"name":"الصدّيق","other_names":{"ref":"qh16","name:ar":"الصدّيق","name:en":"As'siddīq","name:ml":"അൽ-സിദ്ദിഖ്","alt:en":"Siddeeq"},"display_name":"الصدّيق, محافظة حولي, الكويت","address":{"city":"الصدّيق","state":"محافظة حولي","ISO3166-2-lvl4":"KW-HA","country":"الكويت","country_code":"kw"},"population":7063,"osm_type":"relation","osm_id":18043188,"type":"administrative","location":[47.9919109,29.2944312],"bbox":[47.9790803,29.2839142,48.0030515,29.3053656]}}
{"name":"الصليبخات","other_names":{"name:en":"Sulaibikhat","alt_name":"الصليبيخات"},"display_name":"الصليبخات, محافظة العاصمة, الكويت","address":{"city":"الصليبخات","state":"محافظة العاصمة","ISO3166-2-lvl4":"KW-KU","country":"الكويت","country_code":"kw"},"population":34563,"osm_type":"node","osm_id":11850261210,"type":"city","location":[47.847002,29.3147329],"bbox":[47.687002,29.1547329,48.007002,29.4747329],"border":{"name":"الصليبخات","other_names":{"ref":"qa19","name:ar":"الصليبخات","name:en":"Sulaibikhat","alt_name":"الصليبيخات"},"display_name":"الصليبخات, محافظة العاصمة, الكويت","address":{"city":"الصليبخات","state":"محافظة العاصمة","ISO3166-2-lvl4":"KW-KU","country":"الكويت","country_code":"kw"},"population":34536,"osm_type":"relation","osm_id":18018220,"type":"administrative","location":[47.847002,29.3147329],"bbox":[47.8289285,29.3107829,47.8631526,29.3213247]}}
{"name":"الصليبية الزراعية","other_names":{"name:ar":"الصليبية الزراعية","name:en":"Sulaibiya Agricultural"},"display_name":"الصليبية الزراعية, محافظة الجهراء, الكويت","address":{"city":"الصليبية الزراعية","county":"الصليبية الزراعية","state":"محافظة الجهراء","ISO3166-2-lvl4":"KW-JA","country":"الكويت","country_code":"kw"},"osm_type":"node","osm_id":12135506403,"type":"city","location":[47.8053818,29.2856192],"bbox":[47.6453818,29.1256192,47.9653818,29.4456192],"border":[{"name":"الصليبية الزراعية","other_names":{"ref":"qj14","name:ar":"الصليبية الزراعية","name:en":"Sulaibiya Agricultural"},"display_name":"الصليبية الزراعية, محافظة الجهراء, الكويت","address":{"county":"الصليبية الزراعية","state":"محافظة الجهراء","ISO3166-2-lvl4":"KW-JA","country":"الكويت","country_code":"kw"},"osm_type":"relation","osm_id":18098318,"type":"administrative","location":[47.8078829140624,29.280431749999998],"bbox":[47.7849171,29.2657374,47.8370422,29.2958157]},{"name":"الصليبية الزراعية","other_names":{"ref":"qj22","name:ar":"الصليبية الزراعية","name:en":"Sulaibiya Agricultural"},"display_name":"الصليبية الزراعية, محافظة الجهراء, الكويت","address":{"county":"الصليبية الزراعية","state":"محافظة الجهراء","ISO3166-2-lvl4":"KW-JA","country":"الكويت","country_code":"kw"},"osm_type":"relation","osm_id":18098319,"type":"administrative","location":[47.765647137240435,29.23899195],"bbox":[47.6968408,29.185265,47.86025,29.2935547]}]}
{"name":"الصليبية الشعبية","other_names":{"name:en":"Sulaibiya Residential","name:ml":"സുലൈബിയ ഷാബിയ"},"display_name":"الصليبية الشعبية, محافظة الجهراء, الكويت","address":{"city":"الصليبية الشعبية","state":"محافظة الجهراء","ISO3166-2-lvl4":"KW-JA","country":"الكويت","country_code":"kw"},"osm_type":"node","osm_id":12135506439,"type":"city","location":[47.8226604,29.2896003],"bbox":[47.6626604,29.1296003,47.9826604,29.4496003],"border":{"name":"الصليبية الشعبية","other_names":{"ref":"qj15","name:ar":"الصليبية الشعبية","name:en":"Sulaibiya Residential","name:ml":"സുലൈബിയ ഷാബിയ"},"display_name":"الصليبية الشعبية, محافظة الجهراء, الكويت","address":{"city":"الصليبية الشعبية","state":"محافظة الجهراء","ISO3166-2-lvl4":"KW-JA","country":"الكويت","country_code":"kw"},"osm_type":"relation","osm_id":18024572,"type":"administrative","location":[47.8226604,29.2896003],"bbox":[47.8020643,29.2685116,47.8422323,29.2956981]}}
{"name":"الصليبية الصناعية 1","other_names":{"ref":"qj31","name:ar":"الصليبية الصناعية 1","name:en":"Industrial Sulaibiya 1"},"display_name":"الصليبية الصناعية 1, محافظة الجهراء, الكويت","address":{"city":"الصليبية الصناعية 1","state":"محافظة الجهراء","ISO3166-2-lvl4":"KW-JA","country":"الكويت","country_code":"kw"},"osm_type":"relation","osm_id":18098306,"type":"administrative","location":[47.83945204434884,29.286804449999998],"bbox":[47.8319537,29.2781943,47.8526849,29.2954395],"inferred_type":"city"}
{"name":"الصليبية الصناعية 3","other_names":{"ref":"qah4","name:ar":"الصليبية الصناعية 3","name:en":"Sulaibyia Industrial 3"},"display_name":"الصليبية الصناعية 3, محافظة الفروانية, الكويت","address":{"city":"الصليبية الصناعية 3","state":"محافظة الفروانية","ISO3166-2-lvl4":"KW-FA","country":"الكويت","country_code":"kw"},"osm_type":"relation","osm_id":18130614,"type":"administrative","location":[47.83375063556663,29.20987795],"bbox":[47.8123354,29.1973635,47.8550412,29.2256692],"inferred_type":"city"}
{"name":"الصليبية الصناعية","other_names":{"name:ar":"الصليبية الصناعية","name:en":"Industrial Sulaibiya","name:ml":"സുലൈബിയ സിനായ"},"display_name":"الصليبية الصناعية, الصليبية الصناعية 2, محافظة الجهراء, الكويت","address":{"city":"الصليبية الصناعية","county":"الصليبية الصناعية 2","state":"محافظة الجهراء","ISO3166-2-lvl4":"KW-JA","country":"الكويت","country_code":"kw"},"osm_type":"node","osm_id":12135506402,"type":"city","location":[47.8475184,29.2872398],"bbox":[47.6875184,29.1272398,48.0075184,29.4472398]}
{"name":"الصير وام المدفاع","other_names":{"ref":"qj39","name:ar":"الصير وام المدفاع","name:en":"As Syer - Um Al Medfaa"},"display_name":"الصير وام المدفاع, محافظة الجهراء, الكويت","address":{"city":"الصير وام المدفاع","state":"محافظة الجهراء","ISO3166-2-lvl4":"KW-JA","country":"الكويت","country_code":"kw"},"osm_type":"relation","osm_id":18113785,"type":"administrative","location":[47.45729875814368,29.74132465],"bbox":[47.2407426,29.5761645,47.6819775,29.9079927],"inferred_type":"city"}
{"name":"الضجيج","other_names":{"ref":"qf22","name:ar":"الضجيج","name:en":"Dajeej"},"display_name":"الضجيج, محافظة الفروانية, الكويت","address":{"city":"الضجيج","state":"محافظة الفروانية","ISO3166-2-lvl4":"KW-FA","country":"الكويت","country_code":"kw"},"osm_type":"relation","osm_id":18011095,"type":"administrative","location":[47.96230577701027,29.260849],"bbox":[47.9521073,29.2558468,47.9718313,29.2661318],"inferred_type":"city"}
{"name":"الظهر","other_names":{"ref":"qah27","name:ar":"الظهر","name:en":"Dahar"},"display_name":"الظهر, محافظة الأحمدي, الكويت","address":{"city":"الظهر","state":"محافظة الأحمدي","ISO3166-2-lvl4":"KW-AH","country":"الكويت","country_code":"kw"},"osm_type":"relation","osm_id":18020601,"type":"administrative","location":[48.0665082459348,29.163610849999998],"bbox":[48.0544052,29.1516233,48.0789951,29.1762663],"inferred_type":"city"}
{"name":"العارضية 4","other_names":{"ref":"qf10","name:ar":"العارضية 4","name:en":"Ardhiya 4"},"display_name":"العارضية 4, محافظة الفروانية, الكويت","address":{"city":"العارضية 4","state":"محافظة الفروانية","ISO3166-2-lvl4":"KW-FA","country":"الكويت","country_code":"kw"},"osm_type":"relation","osm_id":18011082,"type":"administrative","location":[47.91696199522042,29.2770886],"bbox":[47.9062048,29.2671072,47.9282095,29.2891301],"inferred_type":"city"}
{"name":"العارضية 6","other_names":{"ref":"qf14","name:ar":"العارضية 6","name:en":"Ardhiya 6"},"display_name":"العارضية 6, محافظة الفروانية, الكويت","address":{"city":"العارضية 6","state":"محافظة الفروانية","ISO3166-2-lvl4":"KW-FA","country":"الكويت","country_code":"kw"},"osm_type":"relation","osm_id":18011083,"type":"administrative","location":[47.92205324774241,29.29465155],"bbox":[47.9144279,29.2884216,47.9282679,29.3005761],"inferred_type":"city"}
{"name":"العارضية الحرفية","other_names":{"ref":"qf15","name:ar":"العارضية الحرفية","name:en":"Herafi Ardiya"},"display_name":"العارضية الحرفية, محافظة الفروانية, الكويت","address":{"city":"العارضية الحرفية","state":"محافظة الفروانية","ISO3166-2-lvl4":"KW-FA","country":"الكويت","country_code":"kw"},"osm_type":"relation","osm_id":18011084,"type":"administrative","location":[47.91093989628594,29.2939882],"bbox":[47.9055592,29.2886806,47.9163033,29.2994483],"inferred_type":"city"}
{"name":"العارضية","other_names":{"name:ar":"العارضية","name:en":"Ardhiya","name:ml":"അർദ്ധിയ","alt_name:en":"Ardiya"},"display_name":"العارضية, محافظة الفروانية, الكويت","address":{"city":"العارضية","state":"محافظة الفروانية","ISO3166-2-lvl4":"KW-FA","country":"الكويت","country_code":"kw"},"osm_type":"node","osm_id":4603691771,"type":"city","location":[47.8946694,29.2893416],"bbox":[47.7346694,29.1293416,48.0546694,29.4493416],"border":{"name":"العارضية","other_names":{"ref":"qf18","name:ar":"العارضية","name:en":"Ardhiya","name:ml":"അർദ്ധിയ","alt_name:en":"Ardiya"},"display_name":"العارضية, محافظة الفروانية, الكويت","address":{"city":"العارضية","state":"محافظة الفروانية","ISO3166-2-lvl4":"KW-FA","country":"الكويت","country_code":"kw"},"osm_type":"relation","osm_id":18011093,"type":"administrative","location":[47.8946694,29.2893416],"bbox":[47.8787822,29.2752511,47.9070044,29.2986708]}}
{"name":"العبدلي و صخيبريات","other_names":{"ref":"qj46","name:ar":"العبدلي و صخيبريات","name:en":"Abdily - Sekherbriyat"},"display_name":"العبدلي و صخيبريات, محافظة الجهراء, الكويت","address":{"city":"العبدلي و صخيبريات","state":"محافظة الجهراء","ISO3166-2-lvl4":"KW-JA","country":"الكويت","country_code":"kw"},"osm_type":"relation","osm_id":18113783,"type":"administrative","location":[47.546263494855154,29.982527849999997],"bbox":[47.432889,29.8612075,47.710106,30.1036958],"inferred_type":"city"}
{"name":"العبدلية","other_names":{"ref":"qah40","name:ar":"العبدلية","name:en":"Al Abdiliya"},"display_name":"العبدلية, محافظة الجهراء, الكويت","address":{"city":"العبدلية","state":"محافظة الجهراء","ISO3166-2-lvl4":"KW-JA","country":"الكويت","country_code":"kw"},"osm_type":"relation","osm_id":18113791,"type":"administrative","location":[47.7268798799314,28.9480161],"bbox":[47.5752481,28.8548998,47.8290438,29.0434775],"inferred_type":"city"}
{"name":"العدان","other_names":{"ref":"qm3","name:ar":"العدان","name:en":"Al-Adan"},"display_name":"العدان, محافظة مبارك الكبير, 47007, الكويت","address":{"city":"العدان","state":"محافظة مبارك الكبير","ISO3166-2-lvl4":"KW-MU","postcode":"47007","country":"الكويت","country_code":"kw"},"osm_type":"way","osm_id":1313182268,"type":"city","location":[48.08404340549787,29.235177450691697],"bbox":[48.0829605,29.2289614,48.0845283,29.2415454],"border":{"name":"العدان","other_names":{"ref":"qm3","name:ar":"العدان","name:en":"Al-Adan"},"display_name":"العدان, محافظة مبارك الكبير, الكويت","address":{"city":"العدان","state":"محافظة مبارك الكبير","ISO3166-2-lvl4":"KW-MU","country":"الكويت","country_code":"kw"},"osm_type":"relation","osm_id":18005318,"type":"administrative","location":[48.0681641977473,29.2327916],"bbox":[48.0500925,29.2196692,48.0845283,29.2455881]}}
{"name":"العدان","other_names":{"ref":"qm3","name:ar":"العدان","name:en":"Al-Adan"},"display_name":"العدان, محافظة مبارك الكبير, 47007, الكويت","address":{"city":"العدان","state":"محافظة مبارك الكبير","ISO3166-2-lvl4":"KW-MU","postcode":"47007","country":"الكويت","country_code":"kw"},"osm_type":"way","osm_id":1314450616,"type":"city","location":[48.08256745626777,29.243591028014826],"bbox":[48.0819834,29.2415454,48.0829605,29.2455881]}
{"name":"العديلية","other_names":{"name:ar":"العديلية","name:en":"Adailiya","name:ml":"അദൈലിയ"},"display_name":"العديلية, محافظة العاصمة, الكويت","address":{"city":"العديلية","state":"محافظة العاصمة","ISO3166-2-lvl4":"KW-KU","country":"الكويت","country_code":"kw"},"population":21987,"osm_type":"node","osm_id":4603691896,"type":"city","location":[47.9814749,29.3263351],"bbox":[47.8214749,29.1663351,48.1414749,29.4863351],"border":{"name":"العديلية","other_names":{"ref":"qa49","name:ar":"العديلية","name:en":"Adailiya","name:ml":"അദൈലിയ"},"display_name":"العديلية, محافظة العاصمة, الكويت","address":{"city":"العديلية","state":"محافظة العاصمة","ISO3166-2-lvl4":"KW-KU","country":"الكويت","country_code":"kw"},"population":21987,"osm_type":"relation","osm_id":18057958,"type":"administrative","location":[47.9814749,29.3263351],"bbox":[47.9712679,29.3185391,47.9933914,29.3349493]}}
{"name":"العقيلة","other_names":{"ref":"qah15","name:ar":"العقيلة","name:en":"Eqaila"},"display_name":"العقيلة, محافظة الأحمدي, الكويت","address":{"city":"العقيلة","state":"محافظة الأحمدي","ISO3166-2-lvl4":"KW-AH","country":"الكويت","country_code":"kw"},"osm_type":"relation","osm_id":18081620,"type":"administrative","location":[48.102573355017014,29.17092495],"bbox":[48.090965,29.1579567,48.1138024,29.183955],"inferred_type":"city"}
{"name":"العمرية","other_names":{"name:ar":"العمرية","name:en":"Omariya","name:ml":"ഒമറിയ","alt_name":"العميرية","alt_name:en":"Umariya"},"display_name":"العمرية, محافظة الفروانية, الكويت","address":{"city":"العمرية","state":"محافظة الفروانية","ISO3166-2-lvl4":"KW-FA","country":"الكويت","country_code":"kw"},"osm_type":"node","osm_id":3609387988,"type":"city","location":[47.9554698,29.2959594],"bbox":[47.7954698,29.1359594,48.1154698,29.4559594],"border":{"name":"العمرية","other_names":{"ref":"qf20","name:ar":"العمرية","name:en":"Omariya","alt_name":"العميرية","name:ml":"ഒമറിയ","alt_name:en":"Umariya"},"display_name":"العمرية, محافظة الفروانية, الكويت","address":{"city":"العمرية","state":"محافظة الفروانية","ISO3166-2-lvl4":"KW-FA","country":"الكويت","country_code":"kw"},"osm_type":"relation","osm_id":18011079,"type":"administrative","location":[47.9554698,29.2959594],"bbox":[47.9454402,29.2892809,47.965956,29.3029173]}}
{"name":"العيون","other_names":{"ref":"qj5","name:ar":"العيون","name:en":"Oyoun"},"display_name":"العيون, محافظة الجهراء, الكويت","address":{"city":"العيون","state":"محافظة الجهراء","ISO3166-2-lvl4":"KW-JA","country":"الكويت","country_code":"kw"},"osm_type":"relation","osm_id":18024566,"type":"administrative","location":[47.65514704962955,29.3283623],"bbox":[47.6471907,29.3194177,47.6661885,29.3370901],"inferred_type":"city"}
{"name":"الفحيحيل","other_names":{"ref":"qah5","name:ar":"الفحيحيل","name:en":"Fahaheel"},"display_name":"الفحيحيل, محافظة الأحمدي, الكويت","address":{"city":"الفحيحيل","state":"محافظة الأحمدي","ISO3166-2-lvl4":"KW-AH","country":"الكويت","country_code":"kw"},"osm_type":"relation","osm_id":18020591,"type":"administrative","location":[48.127512101260436,29.081324000000002],"bbox":[48.1114932,29.0702178,48.1436122,29.0924255],"inferred_type":"city"}
{"name":"الفردوس","other_names":{"name:ar":"الفردوس","name:en":"Firdous","name:ml":"ഫിർദൗസ്","alt_name:en":"Ferdous"},"display_name":"الفردوس, محافظة الفروانية, الكويت","address":{"city":"الفردوس","state":"محافظة الفروانية","ISO3166-2-lvl4":"KW-FA","country":"الكويت","country_code":"kw"},"osm_type":"node","osm_id":4603691772,"type":"city","location":[47.874774,29.283319],"bbox":[47.714774,29.123319,48.034774,29.443319],"border":{"name":"الفردوس","other_names":{"ref":"qf8","name:ar":"الفردوس","name:en":"Firdous","name:ml":"ഫിർദൗസ്","alt_name:en":"Ferdous"},"display_name":"الفردوس, محافظة الفروانية, الكويت","address":{"city":"الفردوس","state":"محافظة الفروانية","ISO3166-2-lvl4":"KW-FA","country":"الكويت","country_code":"kw"},"osm_type":"relation","osm_id":18011092,"type":"administrative","location":[47.874774,29.283319],"bbox":[47.8644355,29.2744738,47.8889407,29.2966233]}}
{"name":"الفروانية","other_names":{"ref":"qf21","name:ar":"الفروانية","name:en":"Farwaniya"},"display_name":"الفروانية, محافظة الفروانية, الكويت","address":{"city":"الفروانية","state":"محافظة الفروانية","ISO3166-2-lvl4":"KW-FA","country":"الكويت","country_code":"kw"},"osm_type":"relation","osm_id":18011080,"type":"administrative","location":[47.95895396681685,29.2786583],"bbox":[47.9477918,29.265769,47.9705186,29.2902489],"inferred_type":"city"}
{"name":"الفنطاس","other_names":{"ref":"qah1","name:ar":"الفنطاس","name:en":"Al-Fintas"},"display_name":"الفنطاس, محافظة الأحمدي, 51008, الكويت","address":{"city":"الفنطاس","state":"محافظة الأحمدي","ISO3166-2-lvl4":"KW-AH","postcode":"51008","country":"الكويت","country_code":"kw"},"osm_type":"relation","osm_id":18081621,"type":"administrative","location":[48.117814952973546,29.17177145],"bbox":[48.1101018,29.1587867,48.123242,29.1849231],"inferred_type":"city"}
{"name":"الفنيطيس","other_names":{"ref":"qm1","name:ar":"الفنيطيس","name:en":"Al-Funaitees"},"display_name":"الفنيطيس, محافظة مبارك الكبير, 47007, الكويت","address":{"city":"الفنيطيس","county":"الفنيطيس","state":"محافظة مبارك الكبير","ISO3166-2-lvl4":"KW-MU","postcode":"47007","country":"الكويت","country_code":"kw"},"osm_type":"way","osm_id":1314450597,"type":"city","location":[48.095611895849395,29.232677058059263],"bbox":[48.0944058,29.2323842,48.0968131,29.232813]}
{"name":"الفنيطيس","other_names":{"ref":"qm1","name:ar":"الفنيطيس","name:en":"Al-Funaitees"},"display_name":"الفنيطيس, محافظة مبارك الكبير, 47007, الكويت","address":{"city":"الفنيطيس","county":"الفنيطيس","state":"محافظة مبارك الكبير","ISO3166-2-lvl4":"KW-MU","postcode":"47007","country":"الكويت","country_code":"kw"},"osm_type":"way","osm_id":1314450595,"type":"city","location":[48.0900529821083,29.229256732454985],"bbox":[48.0899321,29.227729,48.0905592,29.2308656]}
{"name":"الفنيطيس","other_names":{"ref":"qm1","name:ar":"الفنيطيس","name:en":"Al-Funaitees"},"display_name":"الفنيطيس, محافظة مبارك الكبير, 47007, الكويت","address":{"city":"الفنيطيس","county":"الفنيطيس","state":"محافظة مبارك الكبير","ISO3166-2-lvl4":"KW-MU","postcode":"47007","country":"الكويت","country_code":"kw"},"osm_type":"way","osm_id":1314450596,"type":"city","location":[48.09219486516974,29.23171505654565],"bbox":[48.0900496,29.2308656,48.0944058,29.2323842]}
{"name":"الفنيطيس","other_names":{"ref":"qm1","name:ar":"الفنيطيس","name:en":"Al-Funaitees"},"display_name":"الفنيطيس, محافظة مبارك الكبير, 47007, الكويت","address":{"city":"الفنيطيس","county":"الفنيطيس","state":"محافظة مبارك الكبير","ISO3166-2-lvl4":"KW-MU","postcode":"47007","country":"الكويت","country_code":"kw"},"osm_type":"way","osm_id":461166733,"type":"city","location":[48.08694305483332,29.227858119570985],"bbox":[48.0835892,29.2276026,48.0904761,29.2289614],"border":{"name":"الفنيطيس","other_names":{"ref":"qm1","name:ar":"الفنيطيس","name:en":"Al-Funaitees"},"display_name":"الفنيطيس, محافظة مبارك الكبير, الكويت","address":{"county":"الفنيطيس","state":"محافظة مبارك الكبير","ISO3166-2-lvl4":"KW-MU","country":"الكويت","country_code":"kw"},"osm_type":"relation","osm_id":17935319,"type":"administrative","location":[48.093582615664445,29.2210847],"bbox":[48.0813873,29.2093035,48.1031905,29.232813]}}
{"name":"الفيحاء","other_names":{"name:ar":"الفيحاء","name:en":"Faiha","name:ml":"ഫൈഹ","name:pronunciation":"Feːħə"},"display_name":"الفيحاء, محافظة العاصمة, الكويت","address":{"city":"الفيحاء","state":"محافظة العاصمة","ISO3166-2-lvl4":"KW-KU","country":"الكويت","country_code":"kw"},"population":22991,"osm_type":"node","osm_id":4602123777,"type":"city","location":[47.9795444,29.3384809],"bbox":[47.8195444,29.1784809,48.1395444,29.4984809],"border":{"name":"الفيحاء","other_names":{"ref":"qa1","name:ar":"الفيحاء","name:en":"Faiha","name:ml":"ഫൈഹ","name:pronunciation":"Feːħə"},"display_name":"الفيحاء, محافظة العاصمة, الكويت","address":{"city":"الفيحاء","state":"محافظة العاصمة","ISO3166-2-lvl4":"KW-KU","country":"الكويت","country_code":"kw"},"population":22991,"osm_type":"relation","osm_id":18024099,"type":"administrative","location":[47.9795444,29.3384809],"bbox":[47.9712304,29.3319529,47.9874661,29.3456939]}}
{"name":"القادسية","other_names":{"name:ar":"القادسية","name:en":"Qadsiya","name:ml":"ഖാദ്സിയ"},"display_name":"القادسية, محافظة العاصمة, الكويت","address":{"city":"القادسية","state":"محافظة العاصمة","ISO3166-2-lvl4":"KW-KU","country":"الكويت","country_code":"kw"},"population":24457,"osm_type":"node","osm_id":4602123775,"type":"city","location":[48.0030653,29.3487761],"bbox":[47.8430653,29.1887761,48.1630653,29.5087761],"border":{"name":"القادسية","other_names":{"ref":"qa5","name:ar":"القادسية","name:en":"Qadsiya","name:ml":"ഖാദ്സിയ"},"display_name":"القادسية, محافظة العاصمة, الكويت","address":{"city":"القادسية","state":"محافظة العاصمة","ISO3166-2-lvl4":"KW-KU","country":"الكويت","country_code":"kw"},"population":24457,"osm_type":"relation","osm_id":18018203,"type":"administrative","location":[48.0030653,29.3487761],"bbox":[47.9940563,29.3404627,48.0133921,29.3569124]}}
{"name":"القبلة","other_names":{"ref":"qa11","name:ar":"القبلة","name:en":"Qibla"},"display_name":"القبلة, محافظة العاصمة, الكويت","address":{"city":"القبلة","state":"محافظة العاصمة","ISO3166-2-lvl4":"KW-KU","country":"الكويت","country_code":"kw"},"osm_type":"relation","osm_id":18018196,"type":"administrative","location":[47.97150963673633,29.3704793],"bbox":[47.9582935,29.3607115,47.9825877,29.3798543],"inferred_type":"city"}
{"name":"القرين","other_names":{"ref":"qm5","name:ar":"القرين","name:en":"Qurain"},"display_name":"القرين, محافظة مبارك الكبير, الكويت","address":{"city":"القرين","state":"محافظة مبارك الكبير","ISO3166-2-lvl4":"KW-MU","country":"الكويت","country_code":"kw"},"osm_type":"relation","osm_id":18005320,"type":"administrative","location":[48.07728223529135,29.200793500000003],"bbox":[48.0597215,29.192018,48.0933421,29.2094599],"inferred_type":"city"}
{"name":"القصر","other_names":{"ref":"qj29","name:ar":"القصر","name:en":"Qasr"},"display_name":"القصر, محافظة الجهراء, 03200, الكويت","address":{"city":"القصر","state":"محافظة الجهراء","ISO3166-2-lvl4":"KW-JA","postcode":"03200","country":"الكويت","country_code":"kw"},"osm_type":"relation","osm_id":18024562,"type":"administrative","location":[47.693715362832876,29.34279235],"bbox":[47.6750841,29.3318144,47.7133476,29.3525761],"inferred_type":"city"}
{"name":"القصور","other_names":{"ref":"qm4","name:ar":"القصور","name:en":"Qusour"},"display_name":"القصور, محافظة مبارك الكبير, الكويت","address":{"city":"القصور","state":"محافظة مبارك الكبير","ISO3166-2-lvl4":"KW-MU","country":"الكويت","country_code":"kw"},"osm_type":"relation","osm_id":18005319,"type":"administrative","location":[48.07285374333661,29.2156084],"bbox":[48.0558023,29.2061717,48.090808,29.2259273],"inferred_type":"city"}
{"name":"القيروان","other_names":{"name:en":"Qairawan","name:ml":"ഖൈറവാൻ"},"display_name":"القيروان, محافظة الجهراء, الكويت","address":{"city":"القيروان","state":"محافظة الجهراء","ISO3166-2-lvl4":"KW-JA","country":"الكويت","country_code":"kw"},"osm_type":"node","osm_id":11866163109,"type":"city","location":[47.8004084,29.3013827],"bbox":[47.6404084,29.1413827,47.9604084,29.4613827],"border":{"name":"القيروان","other_names":{"ref":"qj21","name:ar":"القيروان","name:en":"Qairawan","name:ml":"ഖൈറവാൻ"},"display_name":"القيروان, محافظة الجهراء, الكويت","address":{"city":"القيروان","state":"محافظة الجهراء","ISO3166-2-lvl4":"KW-JA","country":"الكويت","country_code":"kw"},"osm_type":"relation","osm_id":18024573,"type":"administrative","location":[47.8004084,29.3013827],"bbox":[47.7849805,29.2953867,47.8246891,29.3116671]}}
{"name":"المرقاب","other_names":{"ref":"qa37","name:ar":"المرقاب","name:en":"Mirqab"},"display_name":"المرقاب, محافظة العاصمة, الكويت","address":{"city":"المرقاب","state":"محافظة العاصمة","ISO3166-2-lvl4":"KW-KU","country":"الكويت","country_code":"kw"},"osm_type":"relation","osm_id":18018197,"type":"administrative","location":[47.98508210409316,29.36866015],"bbox":[47.9741977,29.3616901,47.9940129,29.3753451],"inferred_type":"city"}
{"name":"المسايل","other_names":{"ref":"qm2","name:ar":"المسايل","name:en":"Al Masayel"},"display_name":"المسايل, محافظة مبارك الكبير, الكويت","address":{"city":"المسايل","state":"محافظة مبارك الكبير","ISO3166-2-lvl4":"KW-MU","country":"الكويت","country_code":"kw"},"osm_type":"relation","osm_id":18005317,"type":"administrative","location":[48.08932517935784,29.238148000000002],"bbox":[48.0819834,29.2276026,48.0968131,29.2488534],"inferred_type":"city"}
{"name":"المطار الدولي","other_names":{"ref":"qf24","name:ar":"المطار الدولي","name:en":"International Airport"},"display_name":"المطار الدولي, محافظة الفروانية, الكويت","address":{"city":"المطار الدولي","state":"محافظة الفروانية","ISO3166-2-lvl4":"KW-FA","country":"الكويت","country_code":"kw"},"osm_type":"relation","osm_id":18011089,"type":"administrative","location":[47.97010615915811,29.22487305],"bbox":[47.9425515,29.1909028,48.0078453,29.2606452],"inferred_type":"city"}
{"name":"المطلاع وجال الاطراف","other_names":{"ref":"qj7","name:ar":"المطلاع وجال الاطراف","name:en":"Al Metlaa - Jal Al Atraf"},"display_name":"المطلاع وجال الاطراف, محافظة الجهراء, الكويت","address":{"city":"المطلاع وجال الاطراف","state":"محافظة الجهراء","ISO3166-2-lvl4":"KW-JA","country":"الكويت","country_code":"kw"},"osm_type":"relation","osm_id":18113782,"type":"administrative","location":[47.55593261912145,29.465540949999998],"bbox":[47.4029599,29.3124447,47.6615386,29.6190435],"inferred_type":"city"}
{"name":"المنصورية","other_names":{"name:ar":"المنصورية","name:en":"Mansouriya","name:ml":"മൻസൂരിയ","alt_name":"Mansouria","alt_name:en":"Mansuriya"},"display_name":"المنصورية, محافظة العاصمة, الكويت","address":{"city":"المنصورية","state":"محافظة العاصمة","ISO3166-2-lvl4":"KW-KU","country":"الكويت","country_code":"kw"},"population":8886,"osm_type":"node","osm_id":4602123784,"type":"city","location":[47.9935624,29.3587693],"bbox":[47.8335624,29.1987693,48.1535624,29.5187693],"border":{"name":"المنصورية","other_names":{"ref":"qa28","name:ar":"المنصورية","name:en":"Mansouriya","name:ml":"മൻസൂരിയ","alt_name":"Mansouria","alt_name:en":"Mansuriya"},"display_name":"المنصورية, محافظة العاصمة, 25501, الكويت","address":{"city":"المنصورية","state":"محافظة العاصمة","ISO3166-2-lvl4":"KW-KU","postcode":"25501","country":"الكويت","country_code":"kw"},"population":8886,"osm_type":"relation","osm_id":18018192,"type":"administrative","location":[47.9935624,29.3587693],"bbox":[47.9868632,29.3503588,48.0032888,29.3649637]}}
{"name":"المنطقة الوسطي","other_names":{"ref":"qm9","name:ar":"المنطقة الوسطي","name:en":"Wista"},"display_name":"المنطقة الوسطي, محافظة مبارك الكبير, الكويت","address":{"city":"المنطقة الوسطي","state":"محافظة مبارك الكبير","ISO3166-2-lvl4":"KW-MU","country":"الكويت","country_code":"kw"},"osm_type":"relation","osm_id":18005314,"type":"administrative","location":[48.02780074273463,29.2191227],"bbox":[47.98782,29.1727119,48.0689245,29.2658487],"inferred_type":"city"}
{"name":"المنقف","other_names":{"ref":"qah49","name:ar":"المنقف","name:en":"Mangaf"},"display_name":"المنقف, محافظة الأحمدي, الكويت","address":{"city":"المنقف","state":"محافظة الأحمدي","ISO3166-2-lvl4":"KW-AH","country":"الكويت","country_code":"kw"},"osm_type":"relation","osm_id":18020592,"type":"administrative","location":[48.128144136934125,29.105911149999997],"bbox":[48.1158367,29.0907473,48.1398931,29.1214425],"inferred_type":"city"}
{"name":"المهبولة","other_names":{"ref":"qah51","name:ar":"المهبولة","name:en":"Mahboula"},"display_name":"المهبولة, محافظة الأحمدي, 54001, الكويت","address":{"city":"المهبولة","state":"محافظة الأحمدي","ISO3166-2-lvl4":"KW-AH","postcode":"54001","country":"الكويت","country_code":"kw"},"osm_type":"relation","osm_id":18081762,"type":"administrative","location":[48.12101013570732,29.1490219],"bbox":[48.1104684,29.1364445,48.1330673,29.1611706],"inferred_type":"city"}
{"name":"النزهة","other_names":{"name:ar":"النزهة","name:en":"Nuzha","name:ml":"അൽ നുസ്ഹ","alt_name:en":"Nizha"},"display_name":"النزهة, محافظة العاصمة, الكويت","address":{"city":"النزهة","state":"محافظة العاصمة","ISO3166-2-lvl4":"KW-KU","country":"الكويت","country_code":"kw"},"population":14489,"osm_type":"node","osm_id":4602123776,"type":"city","location":[47.9915104,29.3416311],"bbox":[47.8315104,29.1816311,48.1515104,29.5016311],"border":{"name":"النزهة","other_names":{"ref":"qa18","name:ar":"النزهة","name:en":"Al Nuzha","name:ml":"അൽ നുസ്ഹ","alt_name:en":"Nizha","alt:en":"Nuzha"},"display_name":"النزهة, محافظة العاصمة, الكويت","address":{"city":"النزهة","state":"محافظة العاصمة","ISO3166-2-lvl4":"KW-KU","country":"الكويت","country_code":"kw"},"population":14489,"osm_type":"relation","osm_id":18018204,"type":"administrative","location":[47.9915104,29.3416311],"bbox":[47.983023,29.3349493,48.0005835,29.3503588]}}
{"name":"النسيم","other_names":{"ref":"qj41","name:ar":"النسيم","name:en":"Nasseem"},"display_name":"النسيم, محافظة الجهراء, الكويت","address":{"city":"النسيم","state":"محافظة الجهراء","ISO3166-2-lvl4":"KW-JA","country":"الكويت","country_code":"kw"},"osm_type":"relation","osm_id":18024565,"type":"administrative","location":[47.67650132210068,29.3207054],"bbox":[47.6590005,29.3109582,47.6966071,29.3286043],"inferred_type":"city"}
{"name":"النعايم","other_names":{"ref":"qj44","name:ar":"النعايم","name:en":"Naayem"},"display_name":"النعايم, محافظة الجهراء, الكويت","address":{"city":"النعايم","state":"محافظة الجهراء","ISO3166-2-lvl4":"KW-JA","country":"الكويت","country_code":"kw"},"osm_type":"relation","osm_id":17973035,"type":"administrative","location":[47.27152036920444,29.22047865],"bbox":[47.1858269,29.1818094,47.3323863,29.2545312],"inferred_type":"city"}
{"name":"النهضة","other_names":{"name:en":"Nahdha","name:ml":"നഹ്ദ","alt_name:en":"Nahda"},"display_name":"النهضة, محافظة الجهراء, الكويت","address":{"city":"النهضة","state":"محافظة الجهراء","ISO3166-2-lvl4":"KW-JA","country":"الكويت","country_code":"kw"},"osm_type":"node","osm_id":12114092260,"type":"city","location":[47.8609025,29.3028796],"bbox":[47.7009025,29.1428796,48.0209025,29.4628796],"border":{"name":"النهضة","other_names":{"ref":"qj20","name:ar":"النهضة","name:en":"Nahda","name:ml":"നഹ്ദ","alt_name:en":"Nahda","alt:en":"Nahdha"},"display_name":"النهضة, محافظة الجهراء, الكويت","address":{"city":"النهضة","state":"محافظة الجهراء","ISO3166-2-lvl4":"KW-JA","country":"الكويت","country_code":"kw"},"osm_type":"relation","osm_id":18092097,"type":"administrative","location":[47.8609025,29.3028796],"bbox":[47.8513508,29.2951605,47.8655932,29.3109592]}}
{"name":"النويصيب","other_names":{"ref":"qah44","name:ar":"النويصيب","name:en":"Al-Nuwaiseeb"},"display_name":"النويصيب, محافظة الأحمدي, الكويت","address":{"city":"النويصيب","state":"محافظة الأحمدي","ISO3166-2-lvl4":"KW-AH","country":"الكويت","country_code":"kw"},"osm_type":"relation","osm_id":18024184,"type":"administrative","location":[48.37403102224032,28.5698789],"bbox":[48.3344653,28.5339683,48.4295569,28.6052273],"inferred_type":"city"}
{"name":"الوفرة السكنية","other_names":{"ref":"qah47","name:ar":"الوفرة السكنية","name:en":"Wafra Residintial"},"display_name":"الوفرة السكنية, محافظة الأحمدي, الكويت","address":{"city":"الوفرة السكنية","state":"محافظة الأحمدي","ISO3166-2-lvl4":"KW-AH","country":"الكويت","country_code":"kw"},"osm_type":"relation","osm_id":18091480,"type":"administrative","location":[48.020842609628886,28.60767865],"bbox":[48.0014614,28.5883843,48.0416572,28.6242902],"inferred_type":"city"}
{"name":"اليرموك","other_names":{"name:ar":"اليرموك","name:en":"Yarmouk","name:ml":"യർമൂക്ക്","alt_name:en":"Yarmuk"},"display_name":"اليرموك, محافظة العاصمة, الكويت","address":{"city":"اليرموك","state":"محافظة العاصمة","ISO3166-2-lvl4":"KW-KU","country":"الكويت","country_code":"kw"},"population":25771,"osm_type":"node","osm_id":4603691783,"type":"city","location":[47.9694907,29.3112015],"bbox":[47.8094907,29.1512015,48.1294907,29.4712015],"border":{"name":"اليرموك","other_names":{"ref":"qa30","name:ar":"اليرموك","name:en":"Yarmouk","name:ml":"യർമൂക്ക്","alt_name:en":"Yarmuk"},"display_name":"اليرموك, محافظة العاصمة, 72504, الكويت","address":{"city":"اليرموك","state":"محافظة العاصمة","ISO3166-2-lvl4":"KW-KU","postcode":"72504","country":"الكويت","country_code":"kw"},"population":25771,"osm_type":"relation","osm_id":18018212,"type":"administrative","location":[47.9694907,29.3112015],"bbox":[47.960876,29.3029173,47.9790803,29.3185391]}}
{"name":"ام العيش","other_names":{"ref":"qj35","name:ar":"ام العيش","name:en":"Umm Al-Aish"},"display_name":"ام العيش, محافظة الجهراء, 73921, الكويت","address":{"city":"ام العيش","state":"محافظة الجهراء","ISO3166-2-lvl4":"KW-JA","postcode":"73921","country":"الكويت","country_code":"kw"},"osm_type":"relation","osm_id":18027487,"type":"administrative","location":[47.7710517387071,29.6747662],"bbox":[47.6544185,29.5320119,47.8941494,29.8180664],"inferred_type":"city"}
{"name":"بنيد القار","other_names":{"ref":"qa13","name:ar":"بنيد القار","name:en":"Bnaid Al Qar"},"display_name":"بنيد القار, محافظة العاصمة, 35020, الكويت","address":{"city":"بنيد القار","state":"محافظة العاصمة","ISO3166-2-lvl4":"KW-KU","postcode":"35020","country":"الكويت","country_code":"kw"},"population":36400,"osm_type":"relation","osm_id":18058453,"type":"administrative","location":[48.001398357365204,29.374168500000003],"bbox":[47.9966046,29.3657667,48.0128191,29.3823174],"inferred_type":"city"}
{"name":"بيان","other_names":{"ref":"qh9","name:ar":"بيان","name:en":"Bayan"},"display_name":"بيان, محافظة حولي, 32001, الكويت","address":{"city":"بيان","state":"محافظة حولي","ISO3166-2-lvl4":"KW-HA","postcode":"32001","country":"الكويت","country_code":"kw"},"population":47734,"osm_type":"way","osm_id":1314836148,"type":"city","location":[48.0358796192941,29.309431740668618],"bbox":[48.0335516,29.309051,48.0382055,29.3098254],"border":{"name":"بيان","other_names":{"ref":"qh9","name:ar":"بيان","name:en":"Bayan","name:ja":"バヤン","name:ml":"ബയാൻ","name:ur":"بیان"},"display_name":"بيان, محافظة حولي, 32001, الكويت","address":{"city":"بيان","state":"محافظة حولي","ISO3166-2-lvl4":"KW-HA","postcode":"32001","country":"الكويت","country_code":"kw"},"population":47734,"osm_type":"relation","osm_id":18034398,"type":"administrative","location":[48.0478482,29.2975129],"bbox":[48.022032,29.2797812,48.0694861,29.3141541]}}
{"name":"بيان","other_names":{"name:ar":"بيان","name:en":"Bayan","name:ja":"バヤン","name:ml":"ബയാൻ","name:ur":"بیان"},"display_name":"بيان, محافظة حولي, الكويت","address":{"city":"بيان","state":"محافظة حولي","ISO3166-2-lvl4":"KW-HA","country":"الكويت","country_code":"kw"},"osm_type":"node","osm_id":1759552757,"type":"city","location":[48.0478482,29.2975129],"bbox":[47.8878482,29.1375129,48.2078482,29.4575129]}
{"name":"تيماء","other_names":{"ref":"qj16","name:ar":"تيماء","name:en":"Taima"},"display_name":"تيماء, محافظة الجهراء, الكويت","address":{"city":"تيماء","state":"محافظة الجهراء","ISO3166-2-lvl4":"KW-JA","country":"الكويت","country_code":"kw"},"osm_type":"relation","osm_id":18024564,"type":"administrative","location":[47.68092341901978,29.327857549999997],"bbox":[47.6631405,29.3189579,47.7017091,29.3365559],"inferred_type":"city"}
{"name":"جابر الأحمد","other_names":{"name:ar":"جابر الأحمد","name:de":"Jaber Al-Ahmad","name:en":"Jaber Al-Ahmad","name:es":"Jaber Al-Ahmad","name:fr":"Jaber Al-Ahmad","name:ml":"ജാബിർ അൽ-അഹമ്മദ്","official_name":"مدينة جابر الأحمد","official_name:en":"Jaber Al-Ahmad City"},"display_name":"جابر الأحمد, محافظة العاصمة, الكويت","address":{"city":"جابر الأحمد","state":"محافظة العاصمة","ISO3166-2-lvl4":"KW-KU","country":"الكويت","country_code":"kw"},"population":64205,"osm_type":"node","osm_id":4602123782,"type":"city","location":[47.7639361,29.3427117],"bbox":[47.6039361,29.1827117,47.9239361,29.5027117],"border":{"name":"جابر الأحمد","other_names":{"ref":"qa15","name:ar":"جابر الأحمد","name:en":"Jaber Al-Ahmad","name:de":"Jaber Al-Ahmad","name:es":"Jaber Al-Ahmad","name:fr":"Jaber Al-Ahmad","name:ml":"ജാബിർ അൽ-അഹമ്മദ്","official_name":"مدينة جابر الأحمد","official_name:en":"Jaber Al-Ahmad City"},"display_name":"جابر الأحمد, محافظة العاصمة, 91712, الكويت","address":{"city":"جابر الأحمد","state":"محافظة العاصمة","ISO3166-2-lvl4":"KW-KU","postcode":"91712","country":"الكويت","country_code":"kw"},"population":64205,"osm_type":"relation","osm_id":18018226,"type":"administrative","location":[47.7639361,29.3427117],"bbox":[47.7315759,29.3231247,47.7889134,29.3624839]}}
{"name":"جابر العلي","other_names":{"ref":"qah30","name:ar":"جابر العلي","name:en":"Jaber Al-Ali"},"display_name":"جابر العلي, محافظة الأحمدي, الكويت","address":{"city":"جابر العلي","state":"محافظة الأحمدي","ISO3166-2-lvl4":"KW-AH","country":"الكويت","country_code":"kw"},"osm_type":"relation","osm_id":18081619,"type":"administrative","location":[48.08303685728312,29.167716849999998],"bbox":[48.0689245,29.1548515,48.0936978,29.1805526],"inferred_type":"city"}
{"name":"جامعة الكويت - الشدادية","other_names":{"ref":"qf6","name:ar":"جامعة الكويت - الشدادية","name:en":"Kuwait University - Shaddadiya Campus","name:tr":"Sabah Al-Salem Üniversite Şehri","official_name":"مدينة صباح السالم الجامعية","official_name:en":"Subah Al-Salim University City"},"display_name":"جامعة الكويت - الشدادية, شارع 25, جليب الشيوخ - قطعة 4, جليب الشيوخ, محافظة الفروانية, 86355, الكويت","address":{"amenity":"جامعة الكويت - الشدادية","road":"شارع 25","city_district":"جليب الشيوخ - قطعة 4","city":"جليب الشيوخ","state":"محافظة الفروانية","ISO3166-2-lvl4":"KW-FA","postcode":"86355","country":"الكويت","country_code":"kw"},"osm_type":"relation","osm_id":18130613,"type":"university","location":[47.896643248826464,29.257789799999998],"bbox":[47.8643229,29.2443147,47.9303732,29.2676277]}
{"name":"جليب الشيوخ","other_names":{"name:ar":"جليب الشيوخ","name:en":"Jileeb Al-Shiyukh","name:ml":"അബ്ബാസിയ","alt_name:en":"Jleeb Al-Shuyoukh"},"display_name":"جليب الشيوخ, محافظة الفروانية, الكويت","address":{"city":"جليب الشيوخ","state":"محافظة الفروانية","ISO3166-2-lvl4":"KW-FA","country":"الكويت","country_code":"kw"},"population":274026,"osm_type":"node","osm_id":4603691781,"type":"city","location":[47.9336667,29.2596016],"bbox":[47.7736667,29.0996016,48.0936667,29.4196016],"border":{"name":"جليب الشيوخ","other_names":{"ref":"qf25","name:ar":"جليب الشيوخ","name:en":"Jaleeb Al Shoyoukh","name:ml":"അബ്ബാസിയ","alt_name:en":"Jleeb Al-Shuyoukh","alt:en":"Jileeb Al-Shiyukh"},"display_name":"جليب الشيوخ, محافظة الفروانية, الكويت","address":{"city":"جليب الشيوخ","state":"محافظة الفروانية","ISO3166-2-lvl4":"KW-FA","country":"الكويت","country_code":"kw"},"population":274026,"osm_type":"relation","osm_id":18011096,"type":"administrative","location":[47.9336667,29.2596016],"bbox":[47.907876,29.2362645,47.9536985,29.2674683]}}
{"name":"جنوب الاحمدي","other_names":{"ref":"qah11","name:ar":"جنوب الاحمدي","name:en":"South Ahmadi"},"display_name":"جنوب الاحمدي, محافظة الأحمدي, 60012, الكويت","address":{"city":"جنوب الاحمدي","state":"محافظة الأحمدي","ISO3166-2-lvl4":"KW-AH","postcode":"60012","country":"الكويت","country_code":"kw"},"osm_type":"way","osm_id":1320369786,"type":"city","location":[48.04675325,29.089865],"bbox":[48.0466678,29.0898605,48.0468387,29.0898695]}
{"name":"جنوب الصباحية","other_names":{"ref":"qah29","name:ar":"جنوب الصباحية","name:en":"South-Sabahiya"},"display_name":"جنوب الصباحية, محافظة الأحمدي, الكويت","address":{"city":"جنوب الصباحية","state":"محافظة الأحمدي","ISO3166-2-lvl4":"KW-AH","country":"الكويت","country_code":"kw"},"osm_type":"relation","osm_id":18020590,"type":"administrative","location":[48.106279785974706,29.0771251],"bbox":[48.0979985,29.0616269,48.1158367,29.0933831],"inferred_type":"city"}
{"name":"جنوب المطلاع","other_names":{"name:ar":"جنوب المطلاع","name:en":"South Mutlaa","alt_name:en":"South Al Mutla City"},"display_name":"جنوب المطلاع, مدينة المطلاع السكنية, محافظة الجهراء, الكويت","address":{"city":"جنوب المطلاع","state":"محافظة الجهراء","ISO3166-2-lvl4":"KW-JA","country":"الكويت","country_code":"kw"},"osm_type":"node","osm_id":9570866695,"type":"city","location":[47.5798839,29.4626054],"bbox":[47.4198839,29.3026054,47.7398839,29.6226054]}
{"name":"جنوب امغرة الصناعية","other_names":{"ref":"qj24","name:ar":"جنوب امغرة الصناعية","name:en":"South Amgara"},"display_name":"جنوب امغرة الصناعية, محافظة الجهراء, الكويت","address":{"city":"جنوب امغرة الصناعية","state":"محافظة الجهراء","ISO3166-2-lvl4":"KW-JA","country":"الكويت","country_code":"kw"},"osm_type":"relation","osm_id":18113495,"type":"administrative","location":[47.722785722245895,29.275899199999998],"bbox":[47.7021295,29.2577369,47.7472965,29.2961834],"inferred_type":"city"}
{"name":"جنوب امغره","other_names":{"name:ar":"جنوب امغره","name:en":"Amgarah South"},"display_name":"جنوب امغره, جنوب امغرة الصناعية, محافظة الجهراء, الكويت","address":{"city":"جنوب امغره","state":"محافظة الجهراء","ISO3166-2-lvl4":"KW-JA","country":"الكويت","country_code":"kw"},"osm_type":"way","osm_id":354745149,"type":"administrative","location":[47.72820462887121,29.2814378],"bbox":[47.7171221,29.2697229,47.7409476,29.2923974],"inferred_type":"city"}
{"name":"جنوب خيطان","other_names":{"ref":"qf23","name:ar":"جنوب خيطان","name:en":"South Khaitan"},"display_name":"جنوب خيطان, محافظة الفروانية, الكويت","address":{"city":"جنوب خيطان","state":"محافظة الفروانية","ISO3166-2-lvl4":"KW-FA","country":"الكويت","country_code":"kw"},"osm_type":"relation","osm_id":18011094,"type":"administrative","location":[47.97968261533685,29.2628347],"bbox":[47.9705186,29.2591438,47.9886125,29.2660723],"inferred_type":"city"}
{"name":"جنوب عبدالله المبارك","other_names":{"ref":"qf4","name:ar":"جنوب عبدالله المبارك","name:en":"South Abdullah Al-Mubarak"},"display_name":"جنوب عبدالله المبارك, محافظة الفروانية, الكويت","address":{"city":"جنوب عبدالله المبارك","state":"محافظة الفروانية","ISO3166-2-lvl4":"KW-FA","country":"الكويت","country_code":"kw"},"osm_type":"relation","osm_id":18054019,"type":"administrative","location":[47.89639210105058,29.20933375],"bbox":[47.8853347,29.193616,47.9052474,29.2246205],"inferred_type":"city"}
{"name":"جنوب مدينه سعد العبدالله","other_names":{"ref":"qj27","name:ar":"جنوب مدينه سعد العبدالله","name:en":"South of Saad Al-Abdullah City"},"display_name":"جنوب مدينه سعد العبدالله, محافظة الجهراء, الكويت","address":{"city":"جنوب مدينه سعد العبدالله","state":"محافظة الجهراء","ISO3166-2-lvl4":"KW-JA","country":"الكويت","country_code":"kw"},"osm_type":"relation","osm_id":18024570,"type":"administrative","location":[47.67834995059099,29.254327500000002],"bbox":[47.6258188,29.1956227,47.732334,29.3040694],"inferred_type":"city"}
{"name":"جنوب مدينه صباح الاحمد","other_names":{"ref":"qah24","name:ar":"جنوب مدينه صباح الاحمد","name:en":"South of Sabah Al-Ahmad City"},"display_name":"جنوب مدينه صباح الاحمد, محافظة الأحمدي, الكويت","address":{"city":"جنوب مدينه صباح الاحمد","state":"محافظة الأحمدي","ISO3166-2-lvl4":"KW-AH","country":"الكويت","country_code":"kw"},"osm_type":"relation","osm_id":18023620,"type":"administrative","location":[48.15029711176715,28.722241500000003],"bbox":[48.0721894,28.6734812,48.1994234,28.7723467],"inferred_type":"city"}
{"name":"جواخير الجهراء","other_names":{"name:ar":"جواخير الجهراء","name:en":"Jawakher Al Jahra"},"display_name":"جواخير الجهراء, محافظة الجهراء, الكويت","address":{"city":"جواخير الجهراء","state":"محافظة الجهراء","ISO3166-2-lvl4":"KW-JA","country":"الكويت","country_code":"kw"},"osm_type":"relation","osm_id":18101423,"type":"administrative","location":[47.66004278195876,29.307048700000003],"bbox":[47.6527681,29.302861,47.6667488,29.3118702],"inferred_type":"city"}
{"name":"حطين","other_names":{"name:ar":"حطين","name:en":"Hitteen","name:ml":"ഹിത്തീൻ"},"display_name":"حطين, محافظة حولي, الكويت","address":{"city":"حطين","state":"محافظة حولي","ISO3166-2-lvl4":"KW-HA","country":"الكويت","country_code":"kw"},"population":26187,"osm_type":"node","osm_id":4603691786,"type":"city","location":[48.0206507,29.282662],"bbox":[47.8606507,29.122662,48.1806507,29.442662],"border":{"name":"حطين","other_names":{"ref":"qh11","name:ar":"حطين","name:en":"Hitteen","name:ml":"ഹിത്തീൻ"},"display_name":"حطين, محافظة حولي, الكويت","address":{"city":"حطين","state":"محافظة حولي","ISO3166-2-lvl4":"KW-HA","country":"الكويت","country_code":"kw"},"population":26187,"osm_type":"relation","osm_id":18007008,"type":"administrative","location":[48.0206507,29.282662],"bbox":[48.0021683,29.2769403,48.0350587,29.2907377]}}
{"name":"حولي","other_names":{"name:ar":"حولي","name:en":"Hawally","name:ml":"ഹവല്ലി","name:ru":"Хавалли"},"display_name":"حولي, محافظة حولي, الكويت","address":{"city":"حولي","state":"محافظة حولي","ISO3166-2-lvl4":"KW-HA","country":"الكويت","country_code":"kw"},"population":221249,"osm_type":"node","osm_id":4603691895,"type":"city","location":[48.0235507,29.3378678],"bbox":[47.8635507,29.1778678,48.1835507,29.4978678],"border":{"name":"حولي","other_names":{"ref":"qh13","name:ar":"حولي","name:en":"Hawally","alt_name":"حولى","name:ml":"ഹവല്ലി","name:ru":"Хавалли"},"display_name":"حولي, محافظة حولي, الكويت","address":{"city":"حولي","state":"محافظة حولي","ISO3166-2-lvl4":"KW-HA","country":"الكويت","country_code":"kw"},"population":221249,"osm_type":"relation","osm_id":18007014,"type":"administrative","location":[48.0235507,29.3378678],"bbox":[48.0005835,29.3229055,48.0396938,29.3497578]}}
{"name":"خيطان","other_names":{"ref":"qf19","name:ar":"خيطان","name:en":"Khaitan"},"display_name":"خيطان, محافظة الفروانية, 83004, الكويت","address":{"city":"خيطان","state":"محافظة الفروانية","ISO3166-2-lvl4":"KW-FA","postcode":"83004","country":"الكويت","country_code":"kw"},"osm_type":"relation","osm_id":18011088,"type":"administrative","location":[47.97593792735192,29.2853097],"bbox":[47.9635384,29.2657406,47.98782,29.3040045],"inferred_type":"city"}
{"name":"دسمان","other_names":{"ref":"qa35","name:ar":"دسمان","name:en":"Dasman"},"display_name":"دسمان, محافظة العاصمة, الكويت","address":{"city":"دسمان","state":"محافظة العاصمة","ISO3166-2-lvl4":"KW-KU","country":"الكويت","country_code":"kw"},"osm_type":"relation","osm_id":18018339,"type":"administrative","location":[47.99941147458771,29.38734405],"bbox":[47.9935621,29.3809982,48.005791,29.3932943],"inferred_type":"city"}
{"name":"سعد العبد الله","other_names":{"ref":"qj4","name:ar":"سعد العبد الله","name:en":"Saad Al-Abdulla"},"display_name":"سعد العبد الله, محافظة الجهراء, 91100, الكويت","address":{"city":"سعد العبد الله","state":"محافظة الجهراء","ISO3166-2-lvl4":"KW-JA","postcode":"91100","country":"الكويت","country_code":"kw"},"osm_type":"relation","osm_id":18024571,"type":"administrative","location":[47.71889242563317,29.31881225],"bbox":[47.6763962,29.296701,47.7455363,29.340738],"inferred_type":"city"}
{"name":"سلوى","other_names":{"ref":"qh17","name:ar":"سلوى","name:en":"Salwa"},"display_name":"سلوى, محافظة حولي, 25600, الكويت","address":{"city":"سلوى","state":"محافظة حولي","ISO3166-2-lvl4":"KW-HA","postcode":"25600","country":"الكويت","country_code":"kw"},"osm_type":"relation","osm_id":18035325,"type":"administrative","location":[48.080735809961105,29.28928585],"bbox":[48.0610041,29.2688727,48.0911579,29.309573],"inferred_type":"city"}
{"name":"شاليهات الجليعة","other_names":{"ref":"qah19","name:ar":"شاليهات الجليعة","name:en":"Shalehat Jlea'a"},"display_name":"شاليهات الجليعة, محافظة الأحمدي, الكويت","address":{"city":"شاليهات الجليعة","state":"محافظة الأحمدي","ISO3166-2-lvl4":"KW-AH","country":"الكويت","country_code":"kw"},"osm_type":"relation","osm_id":18023539,"type":"administrative","location":[48.261968170586215,28.88368355],"bbox":[48.2329046,28.8704093,48.2899909,28.8969558],"inferred_type":"city"}
{"name":"شاليهات الخيران","other_names":{"ref":"qah21","name:ar":"شاليهات الخيران","name:en":"Shalehat Al-Khiran"},"display_name":"شاليهات الخيران, محافظة الأحمدي, الكويت","address":{"city":"شاليهات الخيران","state":"محافظة الأحمدي","ISO3166-2-lvl4":"KW-AH","country":"الكويت","country_code":"kw"},"osm_type":"relation","osm_id":18024183,"type":"city","location":[48.38254576200871,28.62234655],"bbox":[48.3502574,28.5881291,48.3993882,28.6574133]}
{"name":"شاليهات الدوحة","other_names":{"ref":"qa45","name:ar":"شاليهات الدوحة","name:en":"Doha Chalets"},"display_name":"شاليهات الدوحة, محافظة الجهراء, الكويت","address":{"city":"شاليهات الدوحة","state":"محافظة الجهراء","ISO3166-2-lvl4":"KW-JA","country":"الكويت","country_code":"kw"},"osm_type":"relation","osm_id":18018427,"type":"city","location":[47.75428113922573,29.373019149999998],"bbox":[47.743432,29.3671284,47.7769114,29.3788768],"border":{"name":"شاليهات الدوحة","other_names":{"ref":"qa45","name:ar":"شاليهات الدوحة","name:en":"Doha Chalets"},"display_name":"شاليهات الدوحة, محافظة الجهراء, الكويت","address":{"city":"شاليهات الدوحة","state":"محافظة الجهراء","ISO3166-2-lvl4":"KW-JA","country":"الكويت","country_code":"kw"},"osm_type":"relation","osm_id":18018223,"type":"administrative","location":[47.75428113922573,29.373019149999998],"bbox":[47.743432,29.3671284,47.7769114,29.3788768]}}
{"name":"شاليهات الزور","other_names":{"ref":"qah34","name:ar":"شاليهات الزور","name:en":"Shalehat Zoor"},"display_name":"شاليهات الزور, محافظة الأحمدي, الكويت","address":{"city":"شاليهات الزور","state":"محافظة الأحمدي","ISO3166-2-lvl4":"KW-AH","country":"الكويت","country_code":"kw"},"osm_type":"relation","osm_id":18124449,"type":"administrative","location":[48.38398628717422,28.67405935],"bbox":[48.3763218,28.6627399,48.3940645,28.6855617],"inferred_type":"city"}
{"name":"شاليهات الضباعية","other_names":{"ref":"qah18","name:ar":"شاليهات الضباعية","name:en":"Shalehat Dba'ayeh"},"display_name":"شاليهات الضباعية, محافظة الأحمدي, الكويت","address":{"city":"شاليهات الضباعية","state":"محافظة الأحمدي","ISO3166-2-lvl4":"KW-AH","country":"الكويت","country_code":"kw"},"osm_type":"relation","osm_id":18023547,"type":"administrative","location":[48.20969800803068,28.91765755],"bbox":[48.1815935,28.888759,48.2362919,28.9465467],"inferred_type":"city"}
{"name":"شاليهات بنيدر","other_names":{"ref":"qah43","name:ar":"شاليهات بنيدر","name:en":"Shalehat Bneder"},"display_name":"شاليهات بنيدر, محافظة الأحمدي, الكويت","address":{"city":"شاليهات بنيدر","state":"محافظة الأحمدي","ISO3166-2-lvl4":"KW-AH","country":"الكويت","country_code":"kw"},"osm_type":"relation","osm_id":18124451,"type":"administrative","location":[48.281838864161855,28.8012317],"bbox":[48.2763505,28.7447092,48.3445253,28.8557571],"inferred_type":"city","border":{"name":"الزور وصولة","other_names":{"ref":"qah43","name:ar":"الزور وصولة","name:en":"Az Zour - Sulah"},"display_name":"الزور وصولة, محافظة الأحمدي, الكويت","address":{"city":"الزور وصولة","state":"محافظة الأحمدي","ISO3166-2-lvl4":"KW-AH","country":"الكويت","country_code":"kw"},"osm_type":"relation","osm_id":18023544,"type":"administrative","location":[48.2813753199914,28.7863664],"bbox":[48.2249335,28.6770875,48.3958153,28.8938991]}}
{"name":"شاليهات ميناء عبدالله","other_names":{"ref":"qah17","name:ar":"شاليهات ميناء عبدالله","name:en":"Shalehat Mina Abdullah"},"display_name":"شاليهات ميناء عبدالله, محافظة الأحمدي, الكويت","address":{"city":"شاليهات ميناء عبدالله","state":"محافظة الأحمدي","ISO3166-2-lvl4":"KW-AH","country":"الكويت","country_code":"kw"},"osm_type":"relation","osm_id":18023548,"type":"administrative","location":[48.169112069350305,28.97146525],"bbox":[48.1494125,28.9406317,48.1983318,29.0023104],"inferred_type":"city"}
{"name":"شرق الاحمدي","other_names":{"ref":"qah10","name:ar":"شرق الاحمدي","name:en":"East Ahmadi"},"display_name":"شرق الاحمدي, محافظة الأحمدي, 60012, الكويت","address":{"city":"شرق الاحمدي","state":"محافظة الأحمدي","ISO3166-2-lvl4":"KW-AH","postcode":"60012","country":"الكويت","country_code":"kw"},"osm_type":"relation","osm_id":18116116,"type":"administrative","location":[48.07243011316177,29.07793255],"bbox":[48.0438875,29.0443859,48.0997597,29.1113196],"inferred_type":"city"}
{"name":"شرق","other_names":{"ref":"qa36","name:ar":"شرق","name:en":"Sharq"},"display_name":"شرق, محافظة العاصمة, الكويت","address":{"city":"شرق","state":"محافظة العاصمة","ISO3166-2-lvl4":"KW-KU","country":"الكويت","country_code":"kw"},"osm_type":"relation","osm_id":18018199,"type":"administrative","location":[47.98490606920652,29.382140049999997],"bbox":[47.9725871,29.3720811,47.9973776,29.3920284],"inferred_type":"city"}
{"name":"شمال غرب الجهراء","other_names":{"ref":"qj10","name:ar":"شمال غرب الجهراء","name:en":"North West Jahra"},"display_name":"شمال غرب الجهراء, محافظة الجهراء, الكويت","address":{"city":"شمال غرب الجهراء","state":"محافظة الجهراء","ISO3166-2-lvl4":"KW-JA","country":"الكويت","country_code":"kw"},"osm_type":"relation","osm_id":18024561,"type":"administrative","location":[47.65013422322924,29.3550672],"bbox":[47.6300766,29.3370049,47.6731251,29.3736328],"inferred_type":"city"}
{"name":"شمال غرب الصليبخات","other_names":{"name:ar":"شمال غرب الصليبخات","name:en":"North West Sulaibikhat","official_name":"شمال غرب الصليبيخات"},"display_name":"شمال غرب الصليبخات, محافظة العاصمة, 91712, الكويت","address":{"city":"شمال غرب الصليبخات","county":"شمال غرب الصليبخات","state":"محافظة العاصمة","ISO3166-2-lvl4":"KW-KU","postcode":"91712","country":"الكويت","country_code":"kw"},"population":14865,"osm_type":"node","osm_id":10840179098,"type":"city","location":[47.8068916,29.328167],"bbox":[47.6468916,29.168167,47.9668916,29.488167],"border":{"name":"شمال غرب الصليبخات","other_names":{"ref":"qa14","name:ar":"شمال غرب الصليبخات","name:en":"Northwest Sulaibikhat"},"display_name":"شمال غرب الصليبخات, محافظة العاصمة, الكويت","address":{"county":"شمال غرب الصليبخات","state":"محافظة العاصمة","ISO3166-2-lvl4":"KW-KU","country":"الكويت","country_code":"kw"},"osm_type":"relation","osm_id":18077479,"type":"administrative","location":[47.80979518327102,29.327493099999998],"bbox":[47.7984452,29.3198624,47.8304386,29.3354019]}}
{"name":"صباح السالم","other_names":{"ref":"qm11","name:ar":"صباح السالم","name:en":"Sabah Al Salem"},"display_name":"صباح السالم, محافظة مبارك الكبير, 47007, الكويت","address":{"city":"صباح السالم","state":"محافظة مبارك الكبير","ISO3166-2-lvl4":"KW-MU","postcode":"47007","country":"الكويت","country_code":"kw"},"population":92818,"osm_type":"way","osm_id":1313182267,"type":"city","location":[48.08667047216672,29.247462587411633],"bbox":[48.0819834,29.2455881,48.0915232,29.2488534],"border":{"name":"صباح السالم","other_names":{"ref":"qm11","name:ar":"صباح السالم","name:en":"Sabah Al Salem"},"display_name":"صباح السالم, محافظة مبارك الكبير, 00965, الكويت","address":{"city":"صباح السالم","state":"محافظة مبارك الكبير","ISO3166-2-lvl4":"KW-MU","postcode":"00965","country":"الكويت","country_code":"kw"},"population":92818,"osm_type":"relation","osm_id":18005316,"type":"administrative","location":[48.067745367201866,29.25387625],"bbox":[48.0424697,29.2389642,48.0915232,29.2687436]}}
{"name":"صباح الناصر","other_names":{"name:ar":"صباح الناصر","name:en":"Sabah Al Nasser","name:ml":"സബാഹ് അൽ നാസർ","alt_name:en":"Subah Al-Nasir"},"display_name":"صباح الناصر, محافظة الفروانية, الكويت","address":{"city":"صباح الناصر","state":"محافظة الفروانية","ISO3166-2-lvl4":"KW-FA","country":"الكويت","country_code":"kw"},"population":51070,"osm_type":"node","osm_id":4603691773,"type":"city","location":[47.8858181,29.2709529],"bbox":[47.7258181,29.1109529,48.0458181,29.4309529],"border":{"name":"صباح الناصر","other_names":{"ref":"qf5","name:ar":"صباح الناصر","name:en":"Sabah Al-Nasser","name:ml":"സബാഹ് അൽ നാസർ","alt_name:en":"Subah Al-Nasir","alt:en":"Sabah Al Nasser"},"display_name":"صباح الناصر, محافظة الفروانية, الكويت","address":{"city":"صباح الناصر","state":"محافظة الفروانية","ISO3166-2-lvl4":"KW-FA","country":"الكويت","country_code":"kw"},"population":51070,"osm_type":"relation","osm_id":18011091,"type":"administrative","location":[47.8858181,29.2709529],"bbox":[47.8643229,29.2660922,47.907876,29.2787103]}}
{"name":"صبحان الصناعية","other_names":{"name:ar":"صبحان الصناعية","name:en":"Industrial Subhan"},"display_name":"صبحان الصناعية, محافظة مبارك الكبير, الكويت","address":{"city":"صبحان الصناعية","state":"محافظة مبارك الكبير","ISO3166-2-lvl4":"KW-MU","country":"الكويت","country_code":"kw"},"osm_type":"relation","osm_id":18110053,"type":"administrative","location":[48.00087414216398,29.234116450000002],"bbox":[47.9907972,29.2231505,48.0173044,29.2447915],"inferred_type":"city"}
{"name":"صبحان الصناعية","other_names":{"name:ar":"صبحان الصناعية","name:en":"Industrial Sabhan","official_name":"Industrial Sabhan"},"display_name":"صبحان الصناعية, محافظة مبارك الكبير, الكويت","address":{"city":"صبحان الصناعية","state":"محافظة مبارك الكبير","ISO3166-2-lvl4":"KW-MU","country":"الكويت","country_code":"kw"},"osm_type":"way","osm_id":93594114,"type":"administrative","location":[48.00763681751459,29.22979585],"bbox":[47.9969406,29.2238143,48.0171328,29.2338964],"inferred_type":"city"}
{"name":"صهيد العوازم - المطار","other_names":{"ref":"qf3","name:ar":"صهيد العوازم - المطار","name:en":"Suhayed Al Awazim - Airport"},"display_name":"صهيد العوازم - المطار, محافظة الفروانية, الكويت","address":{"city":"صهيد العوازم - المطار","state":"محافظة الفروانية","ISO3166-2-lvl4":"KW-FA","country":"الكويت","country_code":"kw"},"osm_type":"relation","osm_id":18130611,"type":"administrative","location":[47.918024107069925,29.20364015],"bbox":[47.8815937,29.1795848,48.0070457,29.2265956],"inferred_type":"city"}
{"name":"ضاحية عبد الله السالم (الضاحية)","other_names":{"name:en":"Abdullah Al-Salem (Dahya)","name:ml":"ദാഹിയ അബ്ദുള്ള അസ്സാലെം","alt_name:ar":"ضاحية عبدالله السالم","alt_name:en":"Abdalla Al Salim Suburb"},"display_name":"ضاحية عبد الله السالم (الضاحية), ضاحية عبد الله السالم, محافظة العاصمة, الكويت","address":{"city":"ضاحية عبد الله السالم (الضاحية)","state":"محافظة العاصمة","ISO3166-2-lvl4":"KW-KU","country":"الكويت","country_code":"kw"},"population":22150,"osm_type":"node","osm_id":4602123783,"type":"city","location":[47.9802873,29.3535991],"bbox":[47.8202873,29.1935991,48.1402873,29.5135991],"border":{"name":"ضاحية عبد الله السالم","other_names":{"ref":"qa20","name:ar":"ضاحية عبد الله السالم","name:en":"Abdullah Al-Salem (Dhahiya)","name:ml":"ദാഹിയ അബ്ദുള്ള അസ്സാലെം","alt_name:ar":"ضاحية عبدالله السالم","alt_name:en":"Abdalla Al Salim Suburb","alt":"ضاحية عبد الله السالم (الضاحية)","alt:en":"Abdullah Al-Salem (Dahya)"},"display_name":"ضاحية عبد الله السالم, محافظة العاصمة, الكويت","address":{"city":"ضاحية عبد الله السالم","state":"محافظة العاصمة","ISO3166-2-lvl4":"KW-KU","country":"الكويت","country_code":"kw"},"population":22150,"osm_type":"relation","osm_id":18066945,"type":"administrative","location":[47.9802873,29.3535991],"bbox":[47.9725311,29.343648,47.9940563,29.3612173]}}
{"name":"عبدالله المبارك الصباح","other_names":{"ref":"qf7","name:ar":"عبدالله المبارك الصباح","name:en":"Abdullah Mubarak Al-Sabah"},"display_name":"عبدالله المبارك الصباح, محافظة الفروانية, الكويت","address":{"city":"عبدالله المبارك الصباح","state":"محافظة الفروانية","ISO3166-2-lvl4":"KW-FA","country":"الكويت","country_code":"kw"},"osm_type":"relation","osm_id":18054498,"type":"administrative","location":[47.906454668757284,29.2432105],"bbox":[47.8772976,29.2313297,47.9282067,29.2550814],"inferred_type":"city"}
{"name":"غرب الجليب - الشدادية","other_names":{"ref":"qf9","name:ar":"غرب الجليب - الشدادية","name:en":"South ElJelleb - Ash Shadadiay"},"display_name":"غرب الجليب - الشدادية, محافظة الفروانية, الكويت","address":{"city":"غرب الجليب - الشدادية","state":"محافظة الفروانية","ISO3166-2-lvl4":"KW-FA","country":"الكويت","country_code":"kw"},"osm_type":"relation","osm_id":18130612,"type":"administrative","location":[47.878574858413586,29.24633465],"bbox":[47.86025,29.2263411,47.9437735,29.2660922],"inferred_type":"city"}
{"name":"غرب عبدالله المبارك الصباح","other_names":{"ref":"qf26","name:ar":"غرب عبدالله المبارك الصباح","name:en":"West of Abdullah Al Mubarak Al Sabah"},"display_name":"غرب عبدالله المبارك الصباح, محافظة الفروانية, الكويت","address":{"city":"غرب عبدالله المبارك الصباح","state":"محافظة الفروانية","ISO3166-2-lvl4":"KW-FA","country":"الكويت","country_code":"kw"},"osm_type":"relation","osm_id":18054183,"type":"administrative","location":[47.85195367852415,29.2405788],"bbox":[47.8209371,29.2262603,47.8850698,29.2547094],"inferred_type":"city"}
{"name":"غرناطة","other_names":{"name:en":"Granada","name:ml":"ഗർണാത്ത","alt_name:en":"Ghirnata"},"display_name":"غرناطة, محافظة العاصمة, الكويت","address":{"city":"غرناطة","state":"محافظة العاصمة","ISO3166-2-lvl4":"KW-KU","country":"الكويت","country_code":"kw"},"population":10677,"osm_type":"node","osm_id":12143388697,"type":"city","location":[47.8655881,29.3134852],"bbox":[47.7055881,29.1534852,48.0255881,29.4734852],"border":{"name":"غرناطة","other_names":{"ref":"qa42","name:ar":"غرناطة","name:en":"Granada","name:ml":"ഗർണാത്ത","alt_name:en":"Ghirnata"},"display_name":"غرناطة, محافظة العاصمة, الكويت","address":{"city":"غرناطة","state":"محافظة العاصمة","ISO3166-2-lvl4":"KW-KU","country":"الكويت","country_code":"kw"},"population":10572,"osm_type":"relation","osm_id":18018219,"type":"administrative","location":[47.8655881,29.3134852],"bbox":[47.8621417,29.3094813,47.8857726,29.325327]}}
{"name":"فهد الأحمد","other_names":{"ref":"qah16","name:ar":"فهد الأحمد","name:en":"Fahad Al-Ahmad"},"display_name":"فهد الأحمد, محافظة الأحمدي, الكويت","address":{"city":"فهد الأحمد","state":"محافظة الأحمدي","ISO3166-2-lvl4":"KW-AH","country":"الكويت","country_code":"kw"},"osm_type":"relation","osm_id":18020594,"type":"administrative","location":[48.10404915656262,29.12733335],"bbox":[48.0914058,29.1192713,48.1170571,29.1366361],"inferred_type":"city"}
{"name":"قرادان والحفيرة و الفوار","other_names":{"ref":"qah7","name:ar":"قرادان والحفيرة و الفوار","name:en":"Qaradan - Al Hafirah - Al Fawwar"},"display_name":"قرادان والحفيرة و الفوار, محافظة الأحمدي, الكويت","address":{"city":"قرادان والحفيرة و الفوار","state":"محافظة الأحمدي","ISO3166-2-lvl4":"KW-AH","country":"الكويت","country_code":"kw"},"osm_type":"relation","osm_id":18124453,"type":"administrative","location":[48.256675202403784,28.643178499999998],"bbox":[48.1909382,28.5328146,48.3981208,28.7365772],"inferred_type":"city"}
{"name":"قرطبة","other_names":{"name:ar":"قرطبة","name:en":"Qurtuba","name:ml":"ഖുർതുബ","alt_name:en":"Qortuba"},"display_name":"قرطبة, محافظة العاصمة, الكويت","address":{"city":"قرطبة","state":"محافظة العاصمة","ISO3166-2-lvl4":"KW-KU","country":"الكويت","country_code":"kw"},"population":35814,"osm_type":"node","osm_id":1759971888,"type":"city","location":[47.9872723,29.3119409],"bbox":[47.8272723,29.1519409,48.1472723,29.4719409],"border":{"name":"قرطبة","other_names":{"ref":"qa31","name:ar":"قرطبة","name:en":"Qortuba","name:ml":"ഖുർതുബ","alt_name:en":"Qortuba","alt:en":"Qurtuba"},"display_name":"قرطبة, محافظة العاصمة, الكويت","address":{"city":"قرطبة","state":"محافظة العاصمة","ISO3166-2-lvl4":"KW-KU","country":"الكويت","country_code":"kw"},"population":35814,"osm_type":"relation","osm_id":18018205,"type":"administrative","location":[47.9872723,29.3119409],"bbox":[47.9746743,29.3040045,47.9997565,29.3206192]}}
{"name":"قطعة 4","other_names":{"ref":"qm 21","name:ar":"قطعة 4","name:en":"Block 4"},"display_name":"قطعة 4, شارع 302, قطعة 3, المسايل, محافظة مبارك الكبير, 47007, الكويت","address":{"amenity":"قطعة 4","road":"شارع 302","neighbourhood":"قطعة 3","suburb":"المسايل","city":"المسايل","state":"محافظة مبارك الكبير","ISO3166-2-lvl4":"KW-MU","postcode":"47007","country":"الكويت","country_code":"kw"},"osm_type":"relation","osm_id":18025490,"type":"place_of_worship","location":[48.0908541023114,29.2348038],"bbox":[48.0875543,29.2308656,48.0944058,29.2382731]}
{"name":"قلمة شايع والمناقيش","other_names":{"ref":"qj42","name:ar":"قلمة شايع والمناقيش","name:en":"Qulmat Shayea-Al Manaqeesh"},"display_name":"قلمة شايع والمناقيش, محافظة الجهراء, الكويت","address":{"city":"قلمة شايع والمناقيش","state":"محافظة الجهراء","ISO3166-2-lvl4":"KW-JA","country":"الكويت","country_code":"kw"},"osm_type":"relation","osm_id":18113789,"type":"administrative","location":[47.28842067769887,29.07047325],"bbox":[47.0502968,28.9068017,47.5892952,29.2335892],"inferred_type":"city"}
{"name":"كبد الزراعية","other_names":{"ref":"qah38","name:ar":"كبد الزراعية","name:en":"Kabd Agricultural"},"display_name":"كبد الزراعية, محافظة الأحمدي, الكويت","address":{"city":"كبد الزراعية","state":"محافظة الأحمدي","ISO3166-2-lvl4":"KW-AH","country":"الكويت","country_code":"kw"},"osm_type":"way","osm_id":1298047325,"type":"city","location":[47.82472810009432,29.096108665464193],"bbox":[47.7867251,29.0655055,47.8247373,29.1253695],"border":{"name":"الهيئة العامة للزراعة والثروة السمكية - مزارع","other_names":{"ref":"qah38","name:ar":"الهيئة العامة للزراعة والثروة السمكية - مزارع","name:en":"PAFER - Farms"},"display_name":"الهيئة العامة للزراعة والثروة السمكية - مزارع, محافظة الأحمدي, الكويت","address":{"city":"الهيئة العامة للزراعة والثروة السمكية - مزارع","state":"محافظة الأحمدي","ISO3166-2-lvl4":"KW-AH","country":"الكويت","country_code":"kw"},"osm_type":"relation","osm_id":18124553,"type":"administrative","location":[47.806088335876325,29.09687865],"bbox":[47.7867251,29.0655055,47.8247373,29.1253695]}}
{"name":"كبد والشق و الضبعة","other_names":{"ref":"qj26","name:ar":"كبد والشق و الضبعة","name:en":"Kabd - Shiqq - Dabah"},"display_name":"كبد والشق و الضبعة, محافظة الجهراء, الكويت","address":{"city":"كبد والشق و الضبعة","state":"محافظة الجهراء","ISO3166-2-lvl4":"KW-JA","country":"الكويت","country_code":"kw"},"osm_type":"relation","osm_id":18113790,"type":"administrative","location":[47.596960222705135,29.1772032],"bbox":[47.3879595,29.0272164,47.7901598,29.3250101],"inferred_type":"city"}
{"name":"كبد","other_names":{"ref":"qj25","name:ar":"كبد","name:en":"Kabd"},"display_name":"كبد, محافظة الجهراء, الكويت","address":{"city":"كبد","state":"محافظة الجهراء","ISO3166-2-lvl4":"KW-JA","country":"الكويت","country_code":"kw"},"osm_type":"relation","osm_id":17973036,"type":"administrative","location":[47.74428213484062,29.102707600000002],"bbox":[47.7095866,29.0766952,47.7787037,29.1310064],"inferred_type":"city"}
{"name":"كيفان","other_names":{"name:ar":"كيفان","name:en":"Kaifan","name:ml":"കൈഫാൻ"},"display_name":"كيفان, محافظة العاصمة, الكويت","address":{"city":"كيفان","state":"محافظة العاصمة","ISO3166-2-lvl4":"KW-KU","country":"الكويت","country_code":"kw"},"population":28843,"osm_type":"node","osm_id":4602123778,"type":"city","location":[47.9618183,29.3385681],"bbox":[47.8018183,29.1785681,48.1218183,29.4985681],"border":{"name":"كيفان","other_names":{"ref":"qa24","name:ar":"كيفان","name:en":"Kaifan","name:ml":"കൈഫാൻ"},"display_name":"كيفان, محافظة العاصمة, الكويت","address":{"city":"كيفان","state":"محافظة العاصمة","ISO3166-2-lvl4":"KW-KU","country":"الكويت","country_code":"kw"},"population":28843,"osm_type":"relation","osm_id":18018210,"type":"administrative","location":[47.9618183,29.3385681],"bbox":[47.945796,29.3319529,47.9725311,29.3489642]}}
{"name":"مبارك الكبير","other_names":{"ref":"qm6","name:ar":"مبارك الكبير","name:en":"Mubarak Al-Kabeer"},"display_name":"مبارك الكبير, محافظة مبارك الكبير, الكويت","address":{"city":"مبارك الكبير","state":"محافظة مبارك الكبير","ISO3166-2-lvl4":"KW-MU","country":"الكويت","country_code":"kw"},"osm_type":"relation","osm_id":18005322,"type":"administrative","location":[48.0827588503128,29.187095550000002],"bbox":[48.0638262,29.1762663,48.1020416,29.1985566],"inferred_type":"city"}
{"name":"مدينة الكويت","other_names":{"name:af":"Koeweit","name:am":"ኩዌት ከተማ","name:ar":"مدينة الكويت","name:az":"Küveyt","name:be":"Кувейт","name:bg":"Кувейт","name:bn":"কুয়েত সিটি","name:bo":"ཁུ་ཝི་ཐི།","name:br":"Koweit","name:bs":"Kuvajt","name:ca":"Al-Kuwait","name:cs":"Kuvajt","name:cy":"Dinas Kuwait","name:da":"Kuwait City","name:de":"Kuwait-Stadt","name:el":"Πόλη του Κουβέιτ","name:en":"Kuwait City","name:eo":"Kuvajturbo","name:es":"Kuwait","name:et":"Al-Kuwayt","name:eu":"Kuwait","name:fa":"کویت","name:fi":"Kuwait","name:fr":"Koweït","name:fy":"Koeweit","name:gd":"Cubhait","name:gl":"Kuwait","name:he":"העיר כווית","name:hi":"कुवैत नगर","name:hr":"Kuvajt","name:ht":"Kowèt","name:hu":"Kuvaitváros","name:hy":"Էլ Քուվեյթ","name:id":"Kuwait City","name:io":"Kuwait-Urbo","name:it":"Città del Kuwait","name:ja":"クウェート市","name:ka":"ელ-ქუვეითი","name:kl":"Kuwait Illoqarfik","name:ko":"쿠웨이트시티","name:lt":"Kuveitas","name:lv":"Kuveita","name:mk":"Кувајт","name:ml":"കുവൈറ്റ് നഗരം","name:mn":"Кувейт хот","name:mr":"कुवेत शहर","name:ms":"Bandar Kuwait","name:nl":"Koeweit","name:nn":"Kuwait by","name:no":"Kuwait","name:oc":"Kowait","name:os":"Эль-Кувейт","name:pl":"Kuwejt","name:pt":"Kuwait","name:ro":"Kuweit","name:ru":"Эль-Кувейт","name:sk":"Kuvajt","name:sr":"Кувајт","name:sv":"Kuwait City","name:sw":"Jiji la Kuwait","name:ta":"குவைத் நகரம்","name:te":"కువైట్ సిటీ","name:tg":"Ал-Кувейт","name:th":"คูเวตซิตี","name:tl":"Lungsod ng Kuwait","name:tr":"Kuveyt","name:ug":"كۇۋائىت شەھىرى","name:uk":"Ель-Кувейт","name:ur":"کویت شہر","name:vi":"Thành phố Kuwait","name:vo":"Kuväyt","name:yo":"Ìlú Kuwaiti","name:zh":"科威特市","int_name":"Kuwait City","name:ace":"Al-Kuwait","name:arc":"ܟܘܘܝܬ","name:ckb":"شاری کوێت","name:frp":"Koveyit","name:hif":"Kuwait City","name:kab":"Tamdint Lekwit","name:lmo":"Cità del Kuwait","name:nah":"Āltepētl Cuhuait","name:nan":"Kuwait Chhī","name:nov":"Kuwayt Urbe","name:pms":"Sità dël Kuwait","name:sco":"Kuwait Ceety","name:vro":"Al-Kuwayt","name:war":"Syudad han Kuwait","name:simple":"Kuwait City","name:be-tarask":"Кувэйт"},"display_name":"مدينة الكويت, القبلة, محافظة العاصمة, 15005, الكويت","address":{"city":"مدينة الكويت","state":"محافظة العاصمة","ISO3166-2-lvl4":"KW-KU","postcode":"15005","country":"الكويت","country_code":"kw"},"population":637411,"osm_type":"node","osm_id":544060405,"type":"city","location":[47.9734174,29.3796532],"bbox":[47.8134174,29.2196532,48.1334174,29.5396532]}
{"name":"مدينة المطلاع السكنية","other_names":{"ref":"qj8","name:ar":"مدينة المطلاع السكنية","name:en":"Al Metlaa new"},"display_name":"مدينة المطلاع السكنية, محافظة الجهراء, الكويت","address":{"city":"مدينة المطلاع السكنية","state":"محافظة الجهراء","ISO3166-2-lvl4":"KW-JA","country":"الكويت","country_code":"kw"},"osm_type":"relation","osm_id":17973038,"type":"administrative","location":[47.596630001920396,29.4832981],"bbox":[47.546575,29.3957112,47.6486277,29.5724493],"inferred_type":"city"}
{"name":"مدينة صباح الأحمد البحرية - لؤلؤة الخيران سابقا","other_names":{"ref":"qah46","name:ar":"مدينة صباح الأحمد البحرية - لؤلؤة الخيران سابقا","name:en":"Sabah Al Ahmad Marine City - Loloat Al-Khiran"},"display_name":"مدينة صباح الأحمد البحرية - لؤلؤة الخيران سابقا, محافظة الأحمدي, الكويت","address":{"city":"مدينة صباح الأحمد البحرية - لؤلؤة الخيران سابقا","state":"محافظة الأحمدي","ISO3166-2-lvl4":"KW-AH","country":"الكويت","country_code":"kw"},"osm_type":"relation","osm_id":18124454,"type":"administrative","location":[48.33252659991169,28.65097255],"bbox":[48.2962451,28.5985093,48.392761,28.7034546],"inferred_type":"city"}
{"name":"مزارع الوفرة","other_names":{"ref":"qah8","name:ar":"مزارع الوفرة","name:en":"Wafra Farms"},"display_name":"مزارع الوفرة, محافظة الأحمدي, الكويت","address":{"city":"مزارع الوفرة","state":"محافظة الأحمدي","ISO3166-2-lvl4":"KW-AH","country":"الكويت","country_code":"kw"},"osm_type":"relation","osm_id":18091481,"type":"administrative","location":[48.0775838355151,28.6091477],"bbox":[47.8937331,28.5274149,48.2997536,28.693237],"inferred_type":"city"}
{"name":"مشرف","other_names":{"ref":"qh1","name:ar":"مشرف","name:en":"Mishref"},"display_name":"مشرف, محافظة حولي, الكويت","address":{"city":"مشرف","state":"محافظة حولي","ISO3166-2-lvl4":"KW-HA","country":"الكويت","country_code":"kw"},"osm_type":"relation","osm_id":18035324,"type":"administrative","location":[48.066111784200636,29.27903355],"bbox":[48.0516876,29.2644531,48.0848007,29.2935104],"inferred_type":"city"}
{"name":"معسكرات الجهراء","other_names":{"ref":"qj45","name:ar":"معسكرات الجهراء","name:en":"Jahra Camps"},"display_name":"معسكرات الجهراء, محافظة الجهراء, الكويت","address":{"city":"معسكرات الجهراء","state":"محافظة الجهراء","ISO3166-2-lvl4":"KW-JA","country":"الكويت","country_code":"kw"},"osm_type":"relation","osm_id":18026972,"type":"administrative","location":[47.6854590617596,29.366672800000003],"bbox":[47.6615386,29.340738,47.726795,29.3925453],"inferred_type":"city"}
{"name":"مناطق نائية - الجهراء","other_names":{"ref":"qj12","name:ar":"مناطق نائية - الجهراء","name:en":"Rural Areas - Al-Jahra"},"display_name":"مناطق نائية - الجهراء, محافظة الجهراء, الكويت","address":{"city":"مناطق نائية - الجهراء","state":"محافظة الجهراء","ISO3166-2-lvl4":"KW-JA","country":"الكويت","country_code":"kw"},"osm_type":"relation","osm_id":18024576,"type":"administrative","location":[47.85550155346594,29.26030905],"bbox":[47.8358116,29.2547094,47.8643229,29.2660922],"inferred_type":"city"}
{"name":"منطقة الوزارات","other_names":{"ref":"qh15","name:ar":"منطقة الوزارات","name:en":"Ministries Area"},"display_name":"منطقة الوزارات, محافظة حولي, الكويت","address":{"city":"منطقة الوزارات","state":"محافظة حولي","ISO3166-2-lvl4":"KW-HA","country":"الكويت","country_code":"kw"},"osm_type":"relation","osm_id":18007022,"type":"administrative","location":[48.01768271665355,29.2718961],"bbox":[48.0127484,29.2644531,48.0224412,29.2800191],"inferred_type":"city"}
{"name":"ميناء الدوحة","other_names":{"ref":"qa44","name:ar":"ميناء الدوحة","name:en":"Doha Port","alt_name":"مينا الدوحة","alt_name:en":"Mina Doha"},"display_name":"ميناء الدوحة, محافظة العاصمة, الكويت","address":{"city":"ميناء الدوحة","state":"محافظة العاصمة","ISO3166-2-lvl4":"KW-KU","country":"الكويت","country_code":"kw"},"population":456,"osm_type":"relation","osm_id":18018225,"type":"administrative","location":[47.78961277523228,29.365211000000002],"bbox":[47.7606479,29.3346224,47.8494549,29.3956264],"inferred_type":"city"}
{"name":"ميناء الشويخ","other_names":{"name:en":"Shuwaikh Port","alt_name:en":"Mina Al-Shuwaykh"},"display_name":"ميناء الشويخ, محافظة العاصمة, الكويت","address":{"city":"ميناء الشويخ","state":"محافظة العاصمة","ISO3166-2-lvl4":"KW-KU","country":"الكويت","country_code":"kw"},"osm_type":"node","osm_id":9559836154,"type":"city","location":[47.9299827,29.3481228],"bbox":[47.7699827,29.1881228,48.0899827,29.5081228],"border":{"name":"ميناء الشويخ","other_names":{"ref":"qa27","name:ar":"ميناء الشويخ","name:en":"Shuwaikh Port","alt_name:en":"Mina Al-Shuwaykh"},"display_name":"ميناء الشويخ, محافظة العاصمة, الكويت","address":{"city":"ميناء الشويخ","state":"محافظة العاصمة","ISO3166-2-lvl4":"KW-KU","country":"الكويت","country_code":"kw"},"osm_type":"relation","osm_id":18018216,"type":"administrative","location":[47.9299827,29.3481228],"bbox":[47.9075331,29.3399597,47.9398327,29.3626132]}}
{"name":"ميناء عبدالله","other_names":{"ref":"qah35","name:ar":"ميناء عبدالله","name:en":"Mina Abdullah Refinery (MAB)"},"display_name":"ميناء عبدالله, محافظة الأحمدي, الكويت","address":{"city":"ميناء عبدالله","state":"محافظة الأحمدي","ISO3166-2-lvl4":"KW-AH","country":"الكويت","country_code":"kw"},"osm_type":"relation","osm_id":18023540,"type":"administrative","location":[48.14979140526732,29.00387585],"bbox":[48.1277256,28.9879118,48.1667537,29.0199393],"inferred_type":"city"}
{"name":"ميناء عبدالله","other_names":{"ref":"qah42","name:ar":"ميناء عبدالله","name:en":"Mina Abdulla"},"display_name":"ميناء عبدالله, محافظة الأحمدي, الكويت","address":{"city":"ميناء عبدالله","state":"محافظة الأحمدي","ISO3166-2-lvl4":"KW-AH","country":"الكويت","country_code":"kw"},"osm_type":"relation","osm_id":18023541,"type":"administrative","location":[48.09087455707111,28.979453749999998],"bbox":[48.0725898,28.945249,48.122338,29.0136058],"inferred_type":"city"}
{"name":"هدية","other_names":{"ref":"qah25","name:ar":"هدية","name:en":"Hadiya"},"display_name":"هدية, محافظة الأحمدي, الكويت","address":{"city":"هدية","state":"محافظة الأحمدي","ISO3166-2-lvl4":"KW-AH","country":"الكويت","country_code":"kw"},"osm_type":"relation","osm_id":18020595,"type":"administrative","location":[48.09193905959076,29.14457575],"bbox":[48.0789951,29.130941,48.1026952,29.1579567],"inferred_type":"city"}
