{"name":"أبو الحصاني","other_names":{"name:ar":"أبو الحصاني","name:en":"Abu Al-Hasani","official_name":"أبو الحصانية"},"display_name":"أبو الحصاني, أبو الحصانية, محافظة مبارك الكبير, 51008, الكويت","address":{"town":"أبو الحصاني","county":"أبو الحصانية","state":"محافظة مبارك الكبير","ISO3166-2-lvl4":"KW-MU","postcode":"51008","country":"الكويت","country_code":"kw"},"osm_type":"node","osm_id":12135776171,"type":"town","location":[48.1125675,29.1939127],"bbox":[48.0725675,29.1539127,48.1525675,29.2339127],"border":{"name":"أبو الحصانية","other_names":{"name:ar":"أبو الحصانية","name:en":"Coast Strip B"},"display_name":"أبو الحصانية, محافظة مبارك الكبير, الكويت","address":{"county":"أبو الحصانية","state":"محافظة مبارك الكبير","ISO3166-2-lvl4":"KW-MU","country":"الكويت","country_code":"kw"},"osm_type":"relation","osm_id":18028248,"type":"administrative","location":[48.11294400496475,29.19086435],"bbox":[48.1081271,29.183955,48.1187788,29.1978606]}}
{"name":"صباح الأحمد","other_names":{"name:ar":"صباح الأحمد","name:en":"Sabah Al-Ahmad","name:fr":"Sabah Al-Ahmad","name:ml":"സബാഹ് അൽ-അഹമ്മദ്"},"display_name":"صباح الأحمد, ابو خرجين و الصبيحية, محافظة الأحمدي, الكويت","address":{"town":"صباح الأحمد","city":"ابو خرجين و الصبيحية","state":"محافظة الأحمدي","ISO3166-2-lvl4":"KW-AH","country":"الكويت","country_code":"kw"},"osm_type":"node","osm_id":4588169807,"type":"town","location":[48.0636544,28.7823563],"bbox":[48.0236544,28.7423563,48.1036544,28.8223563],"border":{"name":"صباح الأحمد","other_names":{"ref":"qah45","name:ar":"صباح الأحمد","name:en":"Sabah Al-Ahmad"},"display_name":"صباح الأحمد, محافظة الأحمدي, الكويت","address":{"city":"صباح الأحمد","state":"محافظة الأحمدي","ISO3166-2-lvl4":"KW-AH","country":"الكويت","country_code":"kw"},"osm_type":"relation","osm_id":18023619,"type":"administrative","location":[48.058349376525555,28.77522005],"bbox":[48.0207158,28.7415203,48.1089998,28.8127159]}}
{"name":"علي صباح السالم","other_names":{"name:ar":"علي صباح السالم","name:en":"Ali Subah Al Salem","name:ml":"അലി സുബാഹ് അൽ സാലെം"},"display_name":"علي صباح السالم, ام الهيمان-علي صباح السالم, محافظة الأحمدي, 44001, الكويت","address":{"town":"علي صباح السالم","county":"ام الهيمان-علي صباح السالم","state":"محافظة الأحمدي","ISO3166-2-lvl4":"KW-AH","postcode":"44001","country":"الكويت","country_code":"kw"},"osm_type":"node","osm_id":4600587315,"type":"town","location":[48.1507963,28.9555874],"bbox":[48.1107963,28.9155874,48.1907963,28.9955874]}
