{"name":"ສະຫວັນນະເຂດ","other_names":{"name:en":"Savannakhet","name:fr":"Kaison Phômvihan-Ville","name:lo":"ສະຫວັນນະເຂດ","name:th":"ไกสอน พมวิหาน","name:zh":"凯山丰威汉市","old_name":"ຄັນທະບູລີ","alt_name:fr":"Savannakhét;Caïssone Pômevihane-Ville","old_name:en":"Khanthabouli","old_name:lo":"ຄັນທະບູລີ","official_name":"ໄກສອນ ພົມວິຫານ","official_name:en":"Kaysone Phomvihane","official_name:lo":"ໄກສອນ ພົມວິຫານ"},"display_name":"ສະຫວັນນະເຂດ, ເມືອງຊົນນະບູລ, ສະຫວັນນະເຂດ, 49000, ປະເທດລາວ","address":{"city":"ສະຫວັນນະເຂດ","county":"ເມືອງຊົນນະບູລ","state":"ສະຫວັນນະເຂດ","ISO3166-2-lvl4":"LA-SV","postcode":"49000","country":"ປະເທດລາວ","country_code":"la"},"population":120000,"osm_type":"node","osm_id":6066399433,"type":"city","location":[104.7509856,16.5636044],"bbox":[104.5909856,16.4036044,104.9109856,16.7236044],"border":{"name":"ເມືອງຊົນນະບູລ","other_names":{"name:en":"Khanthaboury District","name:it":"Distretto di Khanthaboury","name:lo":"ເມືອງຊົນນະບູລ","name:uk":"Сонбулі","name:ur":"خانتھابورے ضلع","alt_name":"Khanthabouri;Khanthaboury;Kaysone Phomvihane;Kayson"},"display_name":"ເມືອງຊົນນະບູລ, ສະຫວັນນະເຂດ, ປະເທດລາວ","address":{"county":"ເມືອງຊົນນະບູລ","state":"ສະຫວັນນະເຂດ","ISO3166-2-lvl4":"LA-SV","country":"ປະເທດລາວ","country_code":"la"},"osm_type":"relation","osm_id":5831704,"type":"administrative","location":[104.8489148703824,16.589647499999998],"bbox":[104.733283,16.427039,105.0113176,16.7500542]}}
{"name":"ເຊກອງ","other_names":{"name:en":"Xekong","name:fr":"Xékong","name:ja":"セーコーン","name:lo":"ເຊກອງ","name:ru":"Секонг","name:zh":"塞公","alt_name":"Xekong","int_name":"Sekong","name:lo-Latn":"Xékong"},"display_name":"ເຊກອງ, ເມືອງລະມາມ, ເຊກອງ, ປະເທດລາວ","address":{"city":"ເຊກອງ","county":"ເມືອງລະມາມ","state":"ເຊກອງ","ISO3166-2-lvl4":"LA-XE","country":"ປະເທດລາວ","country_code":"la"},"osm_type":"node","osm_id":133072627,"type":"city","location":[106.7220009,15.3484551],"bbox":[106.5620009,15.1884551,106.8820009,15.5084551]}
{"name":"ໄຊຍະບູລີ","other_names":{"name:en":"Sayaboury","name:eo":"Sainjabuli","name:fa":"ساینیابولی","name:fr":"Xaignabouli","name:id":"Xaignabouli","name:it":"Sainyabuli","name:ja":"サイニャブリー","name:ka":"საინიაბული","name:lo":"ໄຊຍະບູລີ","name:lt":"Sainjabulis","name:nl":"Muang Sayaburi","name:pl":"Muang Xaignabouli","name:ru":"Сайнябули","name:th":"ไชยบุรี","name:uk":"Сайнябулі","name:ur":"سائنیابولی","name:vi":"Xay Nha Bu Ly","name:zh":"沙耶武里","alt_name":"Sainyabuli;Xaignabouli;Xayaburi;Xayaboury","alt_name:vi":"Xay Nha Bu Li;Xaynhabuly;Xaynhabuli;Xayabury;Xayaburi","name:lo-Latn":"Xaignabouli"},"display_name":"ໄຊຍະບູລີ, ເມືອງໄຊຍະບູລ, ໄຊຍະບູລີ, ປະເທດລາວ","address":{"city":"ໄຊຍະບູລີ","county":"ເມືອງໄຊຍະບູລ","state":"ໄຊຍະບູລີ","ISO3166-2-lvl4":"LA-XA","country":"ປະເທດລາວ","country_code":"la"},"osm_type":"node","osm_id":300086614,"type":"city","location":[101.7059229,19.2653107],"bbox":[101.5459229,19.1053107,101.8659229,19.4253107],"border":{"name":"ເມືອງໄຊຍະບູລ","other_names":{"name:en":"Xayabury District","name:eo":"Sainjabuli","name:fa":"ساینیابولی","name:fr":"Xaignabouli","name:id":"Xaignabouli","name:it":"Sainyabuli","name:ka":"საინიაბული","name:lo":"ໄຊຍະບູລ","name:lt":"Sainjabulis","name:nl":"Muang Sayaburi","name:pl":"Muang Xaignabouli","name:ru":"Сайнябули","name:th":"ไชยบุรี","name:ur":"سائنیابولی","name:vi":"Xayabury","name:zh":"沙耶武里","alt_name":"Xaignabouri;Xayabury District;Xayaburi;Xayaboury"},"display_name":"ເມືອງໄຊຍະບູລ, ໄຊຍະບູລີ, ປະເທດລາວ","address":{"county":"ເມືອງໄຊຍະບູລ","state":"ໄຊຍະບູລີ","ISO3166-2-lvl4":"LA-XA","country":"ປະເທດລາວ","country_code":"la"},"osm_type":"relation","osm_id":5831798,"type":"administrative","location":[101.61809849627492,19.2536139],"bbox":[101.4058183,18.8517287,101.8967336,19.6583609]}}
{"name":"ທ່າແຂກ","other_names":{"name:en":"Thakhek","name:fr":"Thakhek","name:ja":"ターケーク","name:lo":"ທ່າແຂກ","name:ru":"Тхакхэк","name:th":"ท่าแขก","name:uk":"Тхакхек","name:vi":"Thà Khẹt","name:zh":"他曲","int_name":"Thakhek"},"display_name":"ທ່າແຂກ, ເມືອງທ່າແຂກ, ຄໍາມ່ວນ, 12000, ປະເທດລາວ","address":{"city":"ທ່າແຂກ","county":"ເມືອງທ່າແຂກ","state":"ຄໍາມ່ວນ","ISO3166-2-lvl4":"LA-KH","postcode":"12000","country":"ປະເທດລາວ","country_code":"la"},"population":70000,"osm_type":"node","osm_id":133081246,"type":"city","location":[104.8064526,17.3946183],"bbox":[104.6464526,17.2346183,104.9664526,17.5546183],"border":{"name":"ເມືອງທ່າແຂກ","other_names":{"name:en":"Thakhek District","name:it":"Distretto di Thakhek","name:lo":"ເມືອງທ່າແຂກ","name:uk":"Тхакхек","name:ur":"تھاخک ضلع","name:vi":"Thakhek","alt_name":"Thakhek;ທ່າແຂກ"},"display_name":"ເມືອງທ່າແຂກ, ຄໍາມ່ວນ, 12000, ປະເທດລາວ","address":{"county":"ເມືອງທ່າແຂກ","state":"ຄໍາມ່ວນ","ISO3166-2-lvl4":"LA-KH","postcode":"12000","country":"ປະເທດລາວ","country_code":"la"},"osm_type":"relation","osm_id":5831777,"type":"administrative","location":[104.90725143876404,17.38278325],"bbox":[104.653161,17.171133,105.0137039,17.5966839]}}
{"name":"ປາກຊັນ","other_names":{"name:en":"Pakxan","name:ja":"パクサン","name:lo":"ປາກຊັນ","name:ru":"Паксане","alt_name":"Paksan","name:lo-Latn":"Pakxan"},"display_name":"ປາກຊັນ, ເມືອງປາກຊັນ, ບໍລິຄຳໄຊ, ປະເທດລາວ","address":{"city":"ປາກຊັນ","county":"ເມືອງປາກຊັນ","state":"ບໍລິຄຳໄຊ","ISO3166-2-lvl4":"LA-BL","country":"ປະເທດລາວ","country_code":"la"},"osm_type":"node","osm_id":122511459,"type":"city","location":[103.6592885,18.3923993],"bbox":[103.4992885,18.2323993,103.8192885,18.5523993],"border":{"name":"ເມືອງປາກຊັນ","other_names":{"name:en":"Paksane District","name:it":"Distretto di Paksane","name:lo":"ເມືອງປາກຊັນ","name:uk":"Паксан","name:ur":"پاکسان ضلع","alt_name":"Paksan;Paksane;Pakxan;Paksan District"},"display_name":"ເມືອງປາກຊັນ, ບໍລິຄຳໄຊ, ປະເທດລາວ","address":{"county":"ເມືອງປາກຊັນ","state":"ບໍລິຄຳໄຊ","ISO3166-2-lvl4":"LA-BL","country":"ປະເທດລາວ","country_code":"la"},"osm_type":"relation","osm_id":5831744,"type":"administrative","location":[103.73014560855336,18.406456],"bbox":[103.436044,18.283761,103.9151756,18.5281844]}}
{"name":"ປາກເຊ","other_names":{"name:en":"Pakse","name:et":"Pakxé","name:fr":"Pakse","name:he":"פאקסה","name:ja":"パークセー","name:lo":"ປາກເຊ","name:ru":"Паксе","name:uk":"Паксе","name:zh":"巴色","alt_name":"Laos Pakxe","name:lo-Latn":"Pakxé"},"display_name":"ປາກເຊ, ເມືອງປາກເຊ, ຈຳປາສັກ, 16010, ປະເທດລາວ","address":{"city":"ປາກເຊ","county":"ເມືອງປາກເຊ","state":"ຈຳປາສັກ","ISO3166-2-lvl4":"LA-CH","postcode":"16010","country":"ປະເທດລາວ","country_code":"la"},"population":120000,"osm_type":"node","osm_id":133069982,"type":"city","location":[105.8043971,15.1201461],"bbox":[105.6443971,14.9601461,105.9643971,15.2801461],"border":{"name":"ເມືອງປາກເຊ","other_names":{"name:en":"Pak Sé District","name:he":"פאקסה","name:it":"Distretto di Pak Sé","name:lo":"ເມືອງປາກເຊ","name:nl":"Pakse","name:th":"เมืองปากเซ","name:ur":"پاک سے ضلع","name:vi":"Paksé","alt_name":"Pak Sé;Pakxe;Pakse;ປາກເຊ"},"display_name":"ເມືອງປາກເຊ, ຈຳປາສັກ, 16010, ປະເທດລາວ","address":{"county":"ເມືອງປາກເຊ","state":"ຈຳປາສັກ","ISO3166-2-lvl4":"LA-CH","postcode":"16010","country":"ປະເທດລາວ","country_code":"la"},"osm_type":"relation","osm_id":5831745,"type":"administrative","location":[105.82715655483375,15.11540535],"bbox":[105.7262663,15.0497216,105.8846261,15.1820698]}}
{"name":"ຜົ້ງສາລີ","other_names":{"name:en":"Phongsali","name:fr":"Phôngsali","name:ja":"ポンサーリー","name:lo":"ຜົ້ງສາລີ","name:ru":"Пхонгсали","name:uk":"Пхонґсалі","name:vi":"Phongsaly","name:zh":"丰沙里","alt_name":"Phongsaly"},"display_name":"ຜົ້ງສາລີ, ເມືອງຜົ້ງສາລ, ຜົ້ງສາລີ, 00856, ປະເທດລາວ","address":{"city":"ຜົ້ງສາລີ","county":"ເມືອງຜົ້ງສາລ","state":"ຜົ້ງສາລີ","ISO3166-2-lvl4":"LA-PH","postcode":"00856","country":"ປະເທດລາວ","country_code":"la"},"osm_type":"node","osm_id":132724948,"type":"city","location":[102.1056616,21.6834928],"bbox":[101.9456616,21.5234928,102.2656616,21.8434928],"border":{"name":"ເມືອງຜົ້ງສາລ","other_names":{"name:en":"Phongsaly District","name:fr":"Phôngsali","name:it":"Distretto di Phongsali","name:lo":"ເມືອງຜົ້ງສາລ","name:th":"เมืองพงสาลี","name:uk":"Пхонґсалі район","name:ur":"فونگسالی ضلع","name:vi":"Phongsaly (huyện)","alt_name":"Phongsali;Phongsaly"},"display_name":"ເມືອງຜົ້ງສາລ, ຜົ້ງສາລີ, 00856, ປະເທດລາວ","address":{"county":"ເມືອງຜົ້ງສາລ","state":"ຜົ້ງສາລີ","ISO3166-2-lvl4":"LA-PH","postcode":"00856","country":"ປະເທດລາວ","country_code":"la"},"osm_type":"relation","osm_id":5831755,"type":"administrative","location":[102.20861899505016,21.8314961],"bbox":[101.9382818,21.4489868,102.4511756,22.2154125]}}
{"name":"ໂພນສະຫວັນ","other_names":{"name:en":"Phonsavan","name:es":"Phonsavan","name:ja":"ポーンサワン","name:lo":"ໂພນສະຫວັນ","name:ru":"Пхонсаван","name:vi":"Phôn Xa Vẳn","old_name":"Muang Phouan","name:lo-Latn":"Phônsavan"},"display_name":"ໂພນສະຫວັນ, ເມືອງແປກ, ຊຽງຂວາງ, ປະເທດລາວ","address":{"city":"ໂພນສະຫວັນ","county":"ເມືອງແປກ","state":"ຊຽງຂວາງ","ISO3166-2-lvl4":"LA-XI","country":"ປະເທດລາວ","country_code":"la"},"osm_type":"node","osm_id":133221690,"type":"city","location":[103.206607,19.45189],"bbox":[103.046607,19.29189,103.366607,19.61189]}
{"name":"ເມືອງ ໂພນທອງ","display_name":"ເມືອງ ໂພນທອງ, ເມືອງໂພນທອງ, ຫລວງພະບາງ, ປະເທດລາວ","address":{"city":"ເມືອງ ໂພນທອງ","county":"ເມືອງໂພນທອງ","state":"ຫລວງພະບາງ","ISO3166-2-lvl4":"LA-LP","country":"ປະເທດລາວ","country_code":"la"},"osm_type":"node","osm_id":12504484336,"type":"city","location":[103.0764447,20.7318845],"bbox":[102.9164447,20.5718845,103.2364447,20.8918845]}
{"name":"ເມືອງໄຊ","other_names":{"name:en":"Muang Xay","name:es":"Muang Xay","name:fr":"Xai","name:ja":"ウドムサイ","name:lo":"ເມືອງໄຊ","name:ru":"Сай","name:uk":"Удомсай","name:zh":"孟赛","alt_name":"ອຸດົມໄຊ;Muang Xai;Oudomxai","int_name":"Oudomxay","alt_name:fr":"Oudômxai"},"display_name":"ເມືອງໄຊ, ອຸດົມໄຊ, ປະເທດລາວ","address":{"city":"ເມືອງໄຊ","county":"ເມືອງໄຊ","state":"ອຸດົມໄຊ","ISO3166-2-lvl4":"LA-OU","country":"ປະເທດລາວ","country_code":"la"},"osm_type":"node","osm_id":127799783,"type":"city","location":[101.9853678,20.6930134],"bbox":[101.8253678,20.5330134,102.1453678,20.8530134],"border":{"name":"ເມືອງໄຊ","other_names":{"name:en":"Xay District","name:it":"Distretto di Xay","name:lo":"ເມືອງໄຊ","name:uk":"Сай (район)","name:ur":"سائے ضلع","name:vi":"Xay, Oudomxay","alt_name":"Xai;Xai District;Xay"},"display_name":"ເມືອງໄຊ, ອຸດົມໄຊ, ປະເທດລາວ","address":{"county":"ເມືອງໄຊ","state":"ອຸດົມໄຊ","ISO3166-2-lvl4":"LA-OU","country":"ປະເທດລາວ","country_code":"la"},"osm_type":"relation","osm_id":5831795,"type":"administrative","location":[102.04837395933288,20.73275245],"bbox":[101.5444374,20.4754216,102.3463159,20.9902067]}}
{"name":"ວຽງຈັນ","other_names":{"name:am":"ቭየንትዬን","name:ar":"فيينتيان","name:az":"Vyentyan","name:be":"В'енцьян","name:bg":"Виентян","name:bn":"ভিয়েনতিয়েন","name:bo":"ཝིན་ཆིའང་","name:ca":"Vientiane","name:cv":"Вьентьян","name:de":"Vientiane","name:el":"Βιεντιάν","name:en":"Vientiane","name:eo":"Vjentiano","name:es":"Vientián","name:et":"Vientiane","name:eu":"Vientian","name:fa":"وینتیان","name:fr":"Vientiane","name:fy":"Wiën Tsjan","name:he":"ויינטיאן","name:hi":"विअंग् चन्","name:hr":"Vientiane","name:ht":"Vyantyàn","name:hu":"Vientián","name:hy":"Վյենտյան","name:is":"Vientiane","name:it":"Vientiane","name:ja":"ヴィエンチャン","name:ka":"ვიენტიანი","name:kk":"Вьентьян","name:kn":"ವಿಅಂಗ್ ಚನ್","name:ko":"비엔티안","name:ku":"Vientiane","name:lo":"ວຽງຈັນ","name:lt":"Vientianas","name:lv":"Vjenčana","name:mk":"Виентијан","name:ml":"വിയാങ്ചാൻ","name:mr":"व्हिआंतियान","name:nl":"Vientiane","name:oc":"Viengchan","name:os":"Вьентьян","name:pl":"Wientian","name:pt":"Vienciana","name:ru":"Вьентьян","name:sk":"Vientian","name:sl":"Vientjan","name:sr":"Вијентијан","name:sv":"Vientiane","name:ta":"வியஞ்சான்","name:tg":"Вентян","name:th":"เวียงจันทน์","name:ug":"Wyéntyan","name:uk":"В'єнтьян","name:ur":"وینتیان","name:vi":"Viêng Chăn","name:vo":"Viengtjan","name:zh":"万象 / 永珍","name:bjn":"Wiangcan","name:ckb":"ڤیەنتیان","name:nah":"Vianchan","name:udm":"Вьентьян","name:wuu":"万象","name:yue":"永珍","alt_name:ko":"위앙짠","old_name:vi":"Vạn Tượng","name:zh-Hans":"万象","name:zh-Hant":"永珍","name:be-tarask":"Віенцьян","name:zh-Hans-CN":"万象","name:zh-Hans-TW":"永珍","name:zh-Hant-CN":"萬象","name:zh-Hant-TW":"永珍"},"display_name":"ວຽງຈັນ, ເມືອງຈັນທະບູລີ, ນະຄອນຫຼວງວຽງຈັນ, ປະເທດລາວ","address":{"city":"ວຽງຈັນ","county":"ເມືອງຈັນທະບູລີ","state":"ນະຄອນຫຼວງວຽງຈັນ","ISO3166-2-lvl4":"LA-VT","country":"ປະເທດລາວ","country_code":"la"},"population":783000,"osm_type":"node","osm_id":122739684,"type":"city","location":[102.6133707,17.9640988],"bbox":[102.4533707,17.8040988,102.7733707,18.1240988],"border":{"name":"ວຽງຈັນ","other_names":{"name:af":"Vientiane","name:am":"ቭየንትዬን","name:ar":"فيينتيان","name:az":"Vyentyan","name:be":"Горад В'енцьян","name:bg":"Виентян","name:bn":"ভিয়েনতিয়েন","name:bo":"ཝིན་ཆིའང་","name:br":"Vientiane","name:bs":"Vientiane","name:ca":"Vientiane","name:ce":"Вьентьян","name:cs":"Vientiane","name:cv":"Вьентьян","name:cy":"Vientiane","name:da":"Vientiane","name:de":"Vientiane","name:el":"Βιεντιάν","name:en":"Vientiane Capital","name:eo":"Vjentiano","name:es":"Vientián","name:et":"Vientiane","name:eu":"Vientian","name:fa":"وینتیان","name:fi":"Vientiane","name:fj":"Vientiane","name:fr":"Vientiane","name:fy":"Wiën Tsjan","name:ga":"Vientiane","name:gd":"Vientiane","name:gl":"Vientiane","name:he":"ויינטיאן","name:hi":"व्यिंचन","name:hr":"Vientiane","name:ht":"Vyantyàn","name:hu":"Vientián","name:hy":"Վիենտյան","name:id":"Vientiane","name:ie":"Vientiane","name:io":"Vientiane","name:is":"Vientiane","name:it":"Vientiane","name:ja":"ヴィエンチャン","name:ka":"ვიენტიანი","name:kk":"Вьентьян","name:kn":"ವಿಯೆನ್ ಟಿಯೇನ್","name:ko":"비엔티안","name:ky":"Вьентьян","name:la":"Vientiane","name:lb":"Vientiane","name:ln":"Vientiane","name:lo":"ວຽງຈັນ","name:lt":"Vientianas","name:lv":"Vjenčana","name:mg":"Vientiane","name:mk":"Виентијан","name:ml":"വിയന്റിയൻ","name:mn":"Вьентьян","name:mr":"व्हिआंतियान","name:ms":"Vientiane","name:my":"ဗီယင်ကျန်းမြို့","name:nl":"Vientiane","name:nn":"Vientiane","name:no":"Vientiane","name:oc":"Viengchan","name:os":"Вьентьян","name:pa":"ਵਿਆਂਗ ਚਾਨ","name:pl":"Wientian","name:pt":"Vienciana","name:ro":"Vientiane","name:ru":"Вьентьян","name:sk":"Vientian","name:sn":"Vientiane","name:sq":"Vientiane","name:sr":"Вијентијан","name:sv":"Vientiane","name:sw":"Vientiane","name:ta":"வியஞ்சான்","name:tg":"Вентян","name:th":"เวียงจันทน์","name:tl":"Vientiane","name:tr":"Vientiane","name:ug":"Wyéntyan","name:uk":"В'єнтьян","name:ur":"وینتیان","name:uz":"Ventyan","name:vi":"Viêng Chăn","name:vo":"Viengtjan","name:yo":"Vientiane","name:za":"Fanhyiengh","name:zh":"万象","alt_name":"City of Vientiane","alt_name:ko":"위앙짠","name:zh-Hans":"万象","name:zh-Hant":"永珍","name:ku":"Vientiane","name:sl":"Vientjan","name:bjn":"Wiangcan","name:ckb":"ڤیەنتیان","name:nah":"Vianchan","name:udm":"Вьентьян","name:wuu":"万象","name:yue":"永珍","name:zh-Hans-CN":"万象","name:zh-Hans-TW":"永珍","name:zh-Hant-CN":"萬象","name:zh-Hant-TW":"永珍","old_name:vi":"Vạn Tượng","name:be-tarask":"Віенцьян","alt:be":"В'енцьян","alt:en":"Vientiane","alt:hi":"विअंग् चन्","alt:hy":"Վյենտյան","alt:kn":"ವಿಅಂಗ್ ಚನ್","alt:ml":"വിയാങ്ചാൻ","alt:zh":"万象 / 永珍"},"display_name":"ວຽງຈັນ, ເມືອງຈັນທະບູລີ, ນະຄອນຫຼວງວຽງຈັນ, ປະເທດລາວ","address":{"city":"ວຽງຈັນ","county":"ເມືອງຈັນທະບູລີ","state":"ນະຄອນຫຼວງວຽງຈັນ","ISO3166-2-lvl4":"LA-VT","country":"ປະເທດລາວ","country_code":"la"},"population":783000,"osm_type":"relation","osm_id":6979808,"type":"administrative","location":[102.6133707,17.9640988],"bbox":[102.3591126,17.803142,102.918316,18.039084]}}
{"name":"ຫ້ວຍຊາຍ","other_names":{"name:de":"Huaisai","name:en":"Houayxay","name:ja":"フアイサーイ","name:lo":"ຫ້ວຍຊາຍ","name:ru":"Хуайсай","name:zh":"会晒","alt_name":"Huay Xai","name:lo-Latn":"Viaxay"},"display_name":"ຫ້ວຍຊາຍ, ເມືອງຫ້ວຍຊາຍ, ບໍ່ແກ້ວ, ປະເທດລາວ","address":{"city":"ຫ້ວຍຊາຍ","county":"ເມືອງຫ້ວຍຊາຍ","state":"ບໍ່ແກ້ວ","ISO3166-2-lvl4":"LA-BK","country":"ປະເທດລາວ","country_code":"la"},"osm_type":"node","osm_id":297975116,"type":"city","location":[100.4122174,20.2793074],"bbox":[100.2522174,20.1193074,100.5722174,20.4393074],"border":{"name":"ເມືອງຫ້ວຍຊາຍ","other_names":{"name:en":"Houaixai District","name:it":"Distretto di Houay Xay","name:lo":"ເມືອງຫ້ວຍຊາຍ","name:pl":"Houixai","name:th":"เมืองห้วยชาย","name:uk":"Хуайсай","name:ur":"ہوواے سائے ضلع","alt_name":"Houayxay;Houay Xay;Houay Xay District"},"display_name":"ເມືອງຫ້ວຍຊາຍ, ບໍ່ແກ້ວ, ປະເທດລາວ","address":{"county":"ເມືອງຫ້ວຍຊາຍ","state":"ບໍ່ແກ້ວ","ISO3166-2-lvl4":"LA-BK","country":"ປະເທດລາວ","country_code":"la"},"osm_type":"relation","osm_id":5831696,"type":"administrative","location":[100.60165074465222,20.3571219],"bbox":[100.293463,20.142834,101.0129534,20.5710734]}}
{"name":"ຫຼວງນ້ຳທາ","other_names":{"name:en":"Luang Namtha","name:es":"Luang Namtha","name:fr":"Louangnamtha","name:ja":"ルアンナムター","name:lo":"ຫຼວງນ້ຳທາ","name:ru":"Луангнамтха","name:uk":"Луангнамтха","name:vi":"Luồng Nậm Tha","name:zh":"琅南塔"},"display_name":"ຫຼວງນ້ຳທາ, ເມືອງຫຼວງນໍ້າທາ, ຫລວງນໍ້າທາ, 03000, ປະເທດລາວ","address":{"city":"ຫຼວງນ້ຳທາ","county":"ເມືອງຫຼວງນໍ້າທາ","state":"ຫລວງນໍ້າທາ","ISO3166-2-lvl4":"LA-LM","postcode":"03000","country":"ປະເທດລາວ","country_code":"la"},"osm_type":"node","osm_id":132714958,"type":"city","location":[101.4076361,21.0072205],"bbox":[101.2476361,20.8472205,101.5676361,21.1672205],"border":{"name":"ເມືອງຫຼວງນໍ້າທາ","other_names":{"name:en":"Namtha District","name:fr":"Louangnamtha","name:it":"Distretto di Namtha","name:lo":"ເມືອງຫຼວງນໍ້າທາ","name:th":"น้ำทา","name:uk":"Намтха","name:ur":"نامتھا ضلع","name:vi":"Namtha","alt_name":"Louang-Namtha;Namtha"},"display_name":"ເມືອງຫຼວງນໍ້າທາ, ຫລວງນໍ້າທາ, 03000, ປະເທດລາວ","address":{"county":"ເມືອງຫຼວງນໍ້າທາ","state":"ຫລວງນໍ້າທາ","ISO3166-2-lvl4":"LA-LM","postcode":"03000","country":"ປະເທດລາວ","country_code":"la"},"osm_type":"relation","osm_id":5831717,"type":"administrative","location":[101.43518338097832,21.01060455],"bbox":[101.1591656,20.764777,101.77623,21.256354]}}
{"name":"ຫຼວງພະບາງ","other_names":{"name:de":"Luang Prabang","name:en":"Luang Prabang","name:es":"Luang Prabang","name:fr":"Luang Prabang","name:he":"לואנג פרבאנג","name:ja":"ルアンパバーン","name:lo":"ຫຼວງພະບາງ","name:ml":"ലുവാങ് പ്രബാങ്","name:ru":"Луангпхабанг","name:uk":"Луангпхабанг","name:vi":"Luổng Phạ Bang","name:zh":"琅勃拉邦","alt_name:he":"לואנגפרבאנג"},"display_name":"ຫຼວງພະບາງ, ເມືອງຫຼວງພະບາງ, ຫລວງພະບາງ, 10554, ປະເທດລາວ","address":{"city":"ຫຼວງພະບາງ","county":"ເມືອງຫຼວງພະບາງ","state":"ຫລວງພະບາງ","ISO3166-2-lvl4":"LA-LP","postcode":"10554","country":"ປະເທດລາວ","country_code":"la"},"population":53792,"osm_type":"node","osm_id":116056557,"type":"city","location":[102.135898,19.8887438],"bbox":[101.975898,19.7287438,102.295898,20.0487438]}
{"name":"ອະນຸວົງ","other_names":{"name:en":"Anouvong","name:ja":"セゾーブン","name:lo":"ອະນຸວົງ","alt_name":"ໄຊສົມບູນ;Xaysomboun","name:alt":"Saysomboune"},"display_name":"ອະນຸວົງ, ໄຊສົມບູນ, ປະເທດລາວ","address":{"city":"ອະນຸວົງ","state":"ໄຊສົມບູນ","ISO3166-2-lvl4":"LA-XS","country":"ປະເທດລາວ","country_code":"la"},"osm_type":"node","osm_id":2371160930,"type":"city","location":[103.0924793,18.8976936],"bbox":[102.9324793,18.7376936,103.2524793,19.0576936],"border":{"name":"ອະນຸວົງ","other_names":{"name:en":"Anouvong District","name:lo":"ອະນຸວົງ","alt_name":"Anouvong","name:ja":"セゾーブン","_place_alt_name":"ໄຊສົມບູນ;Xaysomboun","name:alt":"Saysomboune","alt:en":"Anouvong"},"display_name":"ອະນຸວົງ, ໄຊສົມບູນ, ປະເທດລາວ","address":{"city":"ອະນຸວົງ","state":"ໄຊສົມບູນ","ISO3166-2-lvl4":"LA-XS","country":"ປະເທດລາວ","country_code":"la"},"osm_type":"relation","osm_id":5831671,"type":"administrative","location":[103.0924793,18.8976936],"bbox":[102.5801669,18.6528001,103.5180221,19.1271218]}}
{"name":"ອັດຕະປື","other_names":{"name:en":"Attapeu","name:fr":"Attapu","name:it":"Attapeu","name:ja":"アッタプー","name:ko":"앗타푸","name:lo":"ອັດຕະປື","name:ru":"Аттапы","name:uk":"Аттапи","name:zh":"阿速坡","int_name":"Attapeu","name:lo-Latn":"Attapu"},"display_name":"ອັດຕະປື, ເມືອງສາມັກຄີໄຊ, ອັດຕະປື, ປະເທດລາວ","address":{"city":"ອັດຕະປື","county":"ເມືອງສາມັກຄີໄຊ","state":"ອັດຕະປື","ISO3166-2-lvl4":"LA-AT","country":"ປະເທດລາວ","country_code":"la"},"population":19200,"osm_type":"node","osm_id":133445298,"type":"city","location":[106.8278077,14.8122882],"bbox":[106.6678077,14.6522882,106.9878077,14.9722882]}
