{"name":"Ban Thadindeng","display_name":"Ban Thadindeng, ເມືອງໄຊທານີ, ນະຄອນຫຼວງວຽງຈັນ, ປະເທດລາວ","address":{"town":"Ban Thadindeng","county":"ເມືອງໄຊທານີ","state":"ນະຄອນຫຼວງວຽງຈັນ","ISO3166-2-lvl4":"LA-VT","country":"ປະເທດລາວ","country_code":"la"},"osm_type":"node","osm_id":556745252,"type":"town","location":[102.7732128,18.1698723],"bbox":[102.7332128,18.1298723,102.8132128,18.2098723]}
{"name":"Ban Veunkhen","display_name":"Ban Veunkhen, ເມືອງມູນລະປະໂມກ, ຈຳປາສັກ, 13060, ປະເທດລາວ","address":{"town":"Ban Veunkhen","county":"ເມືອງມູນລະປະໂມກ","state":"ຈຳປາສັກ","ISO3166-2-lvl4":"LA-CH","postcode":"13060","country":"ປະເທດລາວ","country_code":"la"},"osm_type":"node","osm_id":6134299341,"type":"town","location":[105.8548952,14.3670059],"bbox":[105.8148952,14.3270059,105.8948952,14.4070059]}
{"name":"Davasan","display_name":"Davasan, ເມືອງເຊໂປນ, ສະຫວັນນະເຂດ, ປະເທດລາວ","address":{"town":"Davasan","county":"ເມືອງເຊໂປນ","state":"ສະຫວັນນະເຂດ","ISO3166-2-lvl4":"LA-SV","country":"ປະເທດລາວ","country_code":"la"},"osm_type":"node","osm_id":4707049762,"type":"town","location":[106.5782298,16.6253593],"bbox":[106.5382298,16.5853593,106.6182298,16.6653593]}
{"name":"Gnommalat","other_names":{"name:en":"Gnommalat","name:lo":"ຍົມມະລາດ","name:lo-Latn":"Gnômmalat"},"display_name":"Gnommalat, ເມືອງຍົມມະລາດ, ຄໍາມ່ວນ, ປະເທດລາວ","address":{"town":"Gnommalat","county":"ເມືອງຍົມມະລາດ","state":"ຄໍາມ່ວນ","ISO3166-2-lvl4":"LA-KH","country":"ປະເທດລາວ","country_code":"la"},"osm_type":"node","osm_id":778151336,"type":"town","location":[105.1720658,17.6071487],"bbox":[105.1320658,17.5671487,105.2120658,17.6471487],"border":{"name":"ເມືອງຍົມມະລາດ","other_names":{"name:en":"Yommalath District","name:it":"Distretto di Yommalath","name:lo":"ເມືອງຍົມມະລາດ","name:th":"ยมราช","name:uk":"Нхоммалатх","name:ur":"یومملٹھ ضلع","name:vi":"Nhommalath","alt_name":"Gnommalat;Yommalath;Nhommalath"},"display_name":"ເມືອງຍົມມະລາດ, ຄໍາມ່ວນ, ປະເທດລາວ","address":{"county":"ເມືອງຍົມມະລາດ","state":"ຄໍາມ່ວນ","ISO3166-2-lvl4":"LA-KH","country":"ປະເທດລາວ","country_code":"la"},"osm_type":"relation","osm_id":5831688,"type":"administrative","location":[105.23130896437632,17.540211],"bbox":[104.8462068,17.3852437,105.6909769,17.694383]}}
{"name":"Houahat","display_name":"Houahat, ເມືອງໄຊພູທອງ, ສະຫວັນນະເຂດ, ປະເທດລາວ","address":{"town":"Houahat","county":"ເມືອງໄຊພູທອງ","state":"ສະຫວັນນະເຂດ","ISO3166-2-lvl4":"LA-SV","country":"ປະເທດລາວ","country_code":"la"},"osm_type":"way","osm_id":229637541,"type":"town","location":[104.90102861819543,16.3644304],"bbox":[104.8989089,16.3618671,104.9027278,16.3662319]}
{"name":"Mahaxai","other_names":{"name:en":"Mahaxay","name:lo":"ມະຫາໄຊ","name:lo-Latn":"Mahaxai"},"display_name":"Mahaxai, ເມືອງມະຫາໄຊ, ຄໍາມ່ວນ, ປະເທດລາວ","address":{"town":"Mahaxai","county":"ເມືອງມະຫາໄຊ","state":"ຄໍາມ່ວນ","ISO3166-2-lvl4":"LA-KH","country":"ປະເທດລາວ","country_code":"la"},"osm_type":"node","osm_id":133080179,"type":"town","location":[105.1950585,17.4152534],"bbox":[105.1550585,17.3752534,105.2350585,17.4552534],"border":{"name":"ເມືອງມະຫາໄຊ","other_names":{"name:en":"Mahaxay District","name:it":"Distretto di Mahaxay","name:lo":"ເມືອງມະຫາໄຊ","name:th":"มหาไชย","name:uk":"Махасай","name:vi":"Mahaxay","alt_name":"Mahaxai;Mahaxay"},"display_name":"ເມືອງມະຫາໄຊ, ຄໍາມ່ວນ, ປະເທດລາວ","address":{"county":"ເມືອງມະຫາໄຊ","state":"ຄໍາມ່ວນ","ISO3166-2-lvl4":"LA-KH","country":"ປະເທດລາວ","country_code":"la"},"osm_type":"relation","osm_id":5831719,"type":"administrative","location":[105.35560018524859,17.33907305],"bbox":[104.9843051,17.1804879,105.6855672,17.4978054]}}
{"name":"Mok","display_name":"Mok, ເມືອງທ່າໂທມ, ຊຽງຂວາງ, ປະເທດລາວ","address":{"town":"Mok","county":"ເມືອງທ່າໂທມ","state":"ຊຽງຂວາງ","ISO3166-2-lvl4":"LA-XI","country":"ປະເທດລາວ","country_code":"la"},"osm_type":"node","osm_id":5603660531,"type":"town","location":[103.9572214,19.0705035],"bbox":[103.9172214,19.0305035,103.9972214,19.1105035]}
{"name":"Muang Huong","display_name":"Muang Huong, ເມືອງບໍລິຄັນ, ບໍລິຄຳໄຊ, ປະເທດລາວ","address":{"town":"Muang Huong","county":"ເມືອງບໍລິຄັນ","state":"ບໍລິຄຳໄຊ","ISO3166-2-lvl4":"LA-BL","country":"ປະເທດລາວ","country_code":"la"},"osm_type":"node","osm_id":5621842085,"type":"town","location":[103.6912251,18.744432],"bbox":[103.6512251,18.704432,103.7312251,18.784432]}
{"name":"Muang Saen","other_names":{"name:lo":"Muang Saen","name:ru":"Муонг-Сене"},"display_name":"Muang Saen, ເມືອງໂຂງ, ຈຳປາສັກ, ປະເທດລາວ","address":{"town":"Muang Saen","county":"ເມືອງໂຂງ","state":"ຈຳປາສັກ","ISO3166-2-lvl4":"LA-CH","country":"ປະເທດລາວ","country_code":"la"},"osm_type":"node","osm_id":278525045,"type":"town","location":[105.783609,14.1018569],"bbox":[105.743609,14.0618569,105.823609,14.1418569]}
{"name":"Sanmouay","other_names":{"name:en":"Sanmouay","name:ko":"산모우아이","name:lo":"Sanmouay"},"display_name":"Sanmouay, ເມືອງສະມ້ວຍ, ສາລະວັນ, ປະເທດລາວ","address":{"town":"Sanmouay","county":"ເມືອງສະມ້ວຍ","state":"ສາລະວັນ","ISO3166-2-lvl4":"LA-SL","country":"ປະເທດລາວ","country_code":"la"},"osm_type":"node","osm_id":369495014,"type":"town","location":[106.8041432,16.4423408],"bbox":[106.7641432,16.4023408,106.8441432,16.4823408],"border":{"name":"ເມືອງສະມ້ວຍ","other_names":{"name:en":"Sa Mouay District","name:it":"Distretto di Samuai","name:lo":"ເມືອງສະມ້ວຍ","name:uk":"Самуй","name:ur":"سا موے ضلع","name:vi":"Sa Mouay","alt_name":"Sanmouay;Samouay;Samuoi;Samuoi District"},"display_name":"ເມືອງສະມ້ວຍ, ສາລະວັນ, ປະເທດລາວ","address":{"county":"ເມືອງສະມ້ວຍ","state":"ສາລະວັນ","ISO3166-2-lvl4":"LA-SL","country":"ປະເທດລາວ","country_code":"la"},"osm_type":"relation","osm_id":5831763,"type":"administrative","location":[106.84386188630548,16.403556350000002],"bbox":[106.7292216,16.2568017,107.0756834,16.5495692]}}
{"name":"Vieng Thong","display_name":"Vieng Thong, ເມືອງວຽງຄຳ, ຫລວງພະບາງ, ປະເທດລາວ","address":{"town":"Vieng Thong","county":"ເມືອງວຽງຄຳ","state":"ຫລວງພະບາງ","ISO3166-2-lvl4":"LA-LP","country":"ປະເທດລາວ","country_code":"la"},"osm_type":"node","osm_id":10279696494,"type":"town","location":[103.0504345,20.2158637],"bbox":[103.0104345,20.1758637,103.0904345,20.2558637]}
{"name":"Xethamouak","display_name":"Xethamouak, ເມືອງພີນ, ສະຫວັນນະເຂດ, ປະເທດລາວ","address":{"town":"Xethamouak","county":"ເມືອງພີນ","state":"ສະຫວັນນະເຂດ","ISO3166-2-lvl4":"LA-SV","country":"ປະເທດລາວ","country_code":"la"},"osm_type":"node","osm_id":2392389295,"type":"town","location":[105.9218058,16.5719276],"bbox":[105.8818058,16.5319276,105.9618058,16.6119276]}
{"name":"Xônboul","other_names":{"name:en":"Xônboul","name:lo":"Xônboul"},"display_name":"Xônboul, ເມືອງຊົນນະບູລີ, ສະຫວັນນະເຂດ, ປະເທດລາວ","address":{"town":"Xônboul","county":"ເມືອງຊົນນະບູລີ","state":"ສະຫວັນນະເຂດ","ISO3166-2-lvl4":"LA-SV","country":"ປະເທດລາວ","country_code":"la"},"osm_type":"node","osm_id":369489156,"type":"town","location":[105.3377938,16.390769],"bbox":[105.2977938,16.350769,105.3777938,16.430769],"border":{"name":"ເມືອງຊົນນະບູລີ","other_names":{"name:en":"Xonboury District","name:it":"Distretto di Xonboury","name:lo":"ເມືອງຊົນນະບູລີ","name:uk":"Сайпхутхонг","name:vi":"Xonbuly","alt_name":"Xonbouri;Xonboury;Xonnabouly;Xônboul"},"display_name":"ເມືອງຊົນນະບູລີ, ສະຫວັນນະເຂດ, ປະເທດລາວ","address":{"county":"ເມືອງຊົນນະບູລີ","state":"ສະຫວັນນະເຂດ","ISO3166-2-lvl4":"LA-SV","country":"ປະເທດລາວ","country_code":"la"},"osm_type":"relation","osm_id":5831810,"type":"administrative","location":[105.54324608448117,16.400728],"bbox":[105.2843535,16.2285804,105.8144804,16.5738362]}}
{"name":"ກາສີ","other_names":{"name:en":"Kasi","name:fr":"Kasi","name:lo":"ກາສີ","name:zh":"孟卡西","int_name":"Kasi","name:lo-Latn":"Kasi"},"display_name":"ກາສີ, ວຽງຈັນ, ປະເທດລາວ","address":{"town":"ກາສີ","county":"ກາສີ","state":"ວຽງຈັນ","ISO3166-2-lvl4":"LA-VI","country":"ປະເທດລາວ","country_code":"la"},"osm_type":"node","osm_id":133199929,"type":"town","location":[102.2530773,19.2301656],"bbox":[102.2130773,19.1901656,102.2930773,19.2701656],"border":{"name":"ກາສີ","other_names":{"name:en":"Kasy District","name:lo":"ກາສີ","name:vi":"Kasy","alt_name":"Kasi;Kasy"},"display_name":"ກາສີ, ວຽງຈັນ, ປະເທດລາວ","address":{"county":"ກາສີ","state":"ວຽງຈັນ","ISO3166-2-lvl4":"LA-VI","country":"ປະເທດລາວ","country_code":"la"},"osm_type":"relation","osm_id":5831699,"type":"administrative","location":[102.08909469785667,19.0944382],"bbox":[101.7895794,18.7769903,102.5491155,19.4135669]}}
{"name":"ເກີນ","other_names":{"name:en":"Ban Keun","name:lo":"ເກີນ"},"display_name":"ເກີນ, ທຸລະຄົມ, ວຽງຈັນ, ປະເທດລາວ","address":{"town":"ເກີນ","county":"ທຸລະຄົມ","state":"ວຽງຈັນ","ISO3166-2-lvl4":"LA-VI","country":"ປະເທດລາວ","country_code":"la"},"osm_type":"node","osm_id":369492426,"type":"town","location":[102.5737809,18.3609072],"bbox":[102.5337809,18.3209072,102.6137809,18.4009072]}
{"name":"ແກ່ນທ້າວ","other_names":{"name:en":"Kenthao","name:lo":"ແກ່ນທ້າວ","name:lo-Latn":"Kenthao"},"display_name":"ແກ່ນທ້າວ, ເມືອງແກ່ນທ້າວ, ໄຊຍະບູລີ, ປະເທດລາວ","address":{"town":"ແກ່ນທ້າວ","county":"ເມືອງແກ່ນທ້າວ","state":"ໄຊຍະບູລີ","ISO3166-2-lvl4":"LA-XA","country":"ປະເທດລາວ","country_code":"la"},"osm_type":"node","osm_id":1312803384,"type":"town","location":[101.394235,17.7313169],"bbox":[101.354235,17.6913169,101.434235,17.7713169],"border":{"name":"ເມືອງແກ່ນທ້າວ","other_names":{"name:en":"Kenethao District","name:lo":"ເມືອງແກ່ນທ້າວ","name:th":"แก่นท้าว","name:vi":"Kenethao","alt_name":"Kenthao;Kenethao District"},"display_name":"ເມືອງແກ່ນທ້າວ, ໄຊຍະບູລີ, ປະເທດລາວ","address":{"county":"ເມືອງແກ່ນທ້າວ","state":"ໄຊຍະບູລີ","ISO3166-2-lvl4":"LA-XA","country":"ປະເທດລາວ","country_code":"la"},"osm_type":"relation","osm_id":5831700,"type":"administrative","location":[101.348607819743,17.84927775],"bbox":[101.114463,17.603911,101.5744785,18.0912951]}}
{"name":"ໂຂງ","other_names":{"name:en":"Muang Khong","name:lo":"ໂຂງ","name:ru":"Конг","name:uk":"Кхонґ","name:lo-Latn":"Không"},"display_name":"ໂຂງ, ເມືອງໂຂງ, ຈຳປາສັກ, ປະເທດລາວ","address":{"town":"ໂຂງ","county":"ເມືອງໂຂງ","state":"ຈຳປາສັກ","ISO3166-2-lvl4":"LA-CH","country":"ປະເທດລາວ","country_code":"la"},"osm_type":"node","osm_id":278524786,"type":"town","location":[105.855192,14.118838],"bbox":[105.815192,14.078838,105.895192,14.158838],"border":{"name":"ເມືອງໂຂງ","other_names":{"name:en":"Khong District","name:it":"Distretto di Khong","name:lo":"ເມືອງໂຂງ","name:uk":"Кхонґ","name:vi":"Khong","alt_name":"Khong;ໂຂງ"},"display_name":"ເມືອງໂຂງ, ຈຳປາສັກ, 10060, ປະເທດລາວ","address":{"county":"ເມືອງໂຂງ","state":"ຈຳປາສັກ","ISO3166-2-lvl4":"LA-CH","postcode":"10060","country":"ປະເທດລາວ","country_code":"la"},"osm_type":"relation","osm_id":5831706,"type":"administrative","location":[105.92918055635442,14.200214299999999],"bbox":[105.7735113,13.9096752,106.1881626,14.4898446]}}
{"name":"ຄອບ","other_names":{"name:en":"Khop","name:lo":"ຄອບ","name:lo-Latn":"Khop"},"display_name":"ຄອບ, ເມືອງຄອບ, ໄຊຍະບູລີ, ປະເທດລາວ","address":{"town":"ຄອບ","county":"ເມືອງຄອບ","state":"ໄຊຍະບູລີ","ISO3166-2-lvl4":"LA-XA","country":"ປະເທດລາວ","country_code":"la"},"osm_type":"node","osm_id":1330653272,"type":"town","location":[100.5511547,19.6954138],"bbox":[100.5111547,19.6554138,100.5911547,19.7354138],"border":{"name":"ເມືອງຄອບ","other_names":{"name:en":"Khop District","name:lo":"ເມືອງຄອບ","name:th":"เมืองคอบ","name:vi":"Khop","alt_name":"Khop"},"display_name":"ເມືອງຄອບ, ໄຊຍະບູລີ, ປະເທດລາວ","address":{"county":"ເມືອງຄອບ","state":"ໄຊຍະບູລີ","ISO3166-2-lvl4":"LA-XA","country":"ປະເທດລາວ","country_code":"la"},"osm_type":"relation","osm_id":5831708,"type":"administrative","location":[100.55350521453741,19.6647756],"bbox":[100.403787,19.498852,100.70414,19.8313619]}}
{"name":"ເງິນ","other_names":{"name:en":"Ngeune","name:lo":"ເງິນ","name:lo-Latn":"Ngeun"},"display_name":"ເງິນ, ເມືອງເງິນ, ໄຊຍະບູລີ, ປະເທດລາວ","address":{"town":"ເງິນ","county":"ເມືອງເງິນ","state":"ໄຊຍະບູລີ","ISO3166-2-lvl4":"LA-XA","country":"ປະເທດລາວ","country_code":"la"},"osm_type":"node","osm_id":1330653269,"type":"town","location":[101.1124241,19.6176376],"bbox":[101.0724241,19.5776376,101.1524241,19.6576376],"border":{"name":"ເມືອງເງິນ","other_names":{"name:en":"Ngeun District","name:lo":"ເມືອງເງິນ","name:vi":"Ngeun (huyện)","alt_name":"Ngeun"},"display_name":"ເມືອງເງິນ, ໄຊຍະບູລີ, ປະເທດລາວ","address":{"county":"ເມືອງເງິນ","state":"ໄຊຍະບູລີ","ISO3166-2-lvl4":"LA-XA","country":"ປະເທດລາວ","country_code":"la"},"osm_type":"relation","osm_id":5831732,"type":"administrative","location":[101.14168648478434,19.7308217],"bbox":[100.9626609,19.572127,101.2856395,19.8908543]}}
{"name":"ຈຳປາສັກ","other_names":{"name:cs":"Čampasak","name:de":"Champasak","name:en":"Bassac","name:fr":"Champassak","name:hr":"Čampasak","name:ja":"チャンパーサック","name:ka":"ტიამპატსაკი","name:ko":"참빠삭","name:lo":"ຈຳປາສັກ","name:nl":"Champassak","name:ru":"Тямпатсак","name:sr":"Чампасак","name:vi":"Champasak","name:zh":"占巴塞","alt_name:fr":"Champasak"},"display_name":"ຈຳປາສັກ, ເມືອງຈຳປາສັກ, ຈຳປາສັກ, ປະເທດລາວ","address":{"town":"ຈຳປາສັກ","county":"ເມືອງຈຳປາສັກ","state":"ຈຳປາສັກ","ISO3166-2-lvl4":"LA-CH","country":"ປະເທດລາວ","country_code":"la"},"osm_type":"node","osm_id":300080784,"type":"town","location":[105.8765804,14.8872885],"bbox":[105.8365804,14.8472885,105.9165804,14.9272885],"border":{"name":"ເມືອງຈຳປາສັກ","other_names":{"name:en":"Champassack District","name:fr":"Champasak","name:it":"Distretto di Champasak","name:lo":"ເມືອງຈຳປາສັກ","name:nl":"Champassak","name:th":"จำปาศักดิ์","name:vi":"Champasack","alt_name":"Champasak;ຈຳປາສັກ"},"display_name":"ເມືອງຈຳປາສັກ, ຈຳປາສັກ, 16000, ປະເທດລາວ","address":{"county":"ເມືອງຈຳປາສັກ","state":"ຈຳປາສັກ","ISO3166-2-lvl4":"LA-CH","postcode":"16000","country":"ປະເທດລາວ","country_code":"la"},"osm_type":"relation","osm_id":5831681,"type":"administrative","location":[105.71858439467431,14.84273],"bbox":[105.517547,14.651935,105.9331264,15.0334583]}}
{"name":"ສະໜາມໄຊ","other_names":{"name:en":"Sanamxai","name:lo":"ສະໜາມໄຊ","name:pl":"Sanamxai","name:th":"สนามชัย"},"display_name":"ສະໜາມໄຊ, ເມືອງສະໜາມໄຊ, ອັດຕະປື, ປະເທດລາວ","address":{"town":"ສະໜາມໄຊ","county":"ເມືອງສະໜາມໄຊ","state":"ອັດຕະປື","ISO3166-2-lvl4":"LA-AT","country":"ປະເທດລາວ","country_code":"la"},"osm_type":"node","osm_id":2405762435,"type":"town","location":[106.5793568,14.6845866],"bbox":[106.5393568,14.6445866,106.6193568,14.7245866],"border":{"name":"ເມືອງສະໜາມໄຊ","other_names":{"name:en":"Sanamxay District","name:it":"Distretto di Sanamxay","name:lo":"ສະໜາມໄຊ","name:pl":"Sanamxay","name:th":"เมืองสนามชัย","name:uk":"Санамсай","name:vi":"Sanamxai","alt_name":"Sanamxai;Sanamxay District"},"display_name":"ເມືອງສະໜາມໄຊ, ອັດຕະປື, ປະເທດລາວ","address":{"county":"ເມືອງສະໜາມໄຊ","state":"ອັດຕະປື","ISO3166-2-lvl4":"LA-AT","country":"ປະເທດລາວ","country_code":"la"},"osm_type":"relation","osm_id":5831765,"type":"administrative","location":[106.45258721595974,14.72790395],"bbox":[106.1701705,14.4429997,106.7143951,15.0126301]}}
{"name":"ສາມຫຼ່ຽມຄຳ 金三角","other_names":{"name:en":"Golden Triangle","name:ja":"ゴールデントライアングル","name:lo":"ສາມຫຼ່ຽມຄຳ","name:my":"ရွှေတြိဂံ","name:th":"สามเหลี่ยมทองคํา","name:zh":"金三角"},"display_name":"ສາມຫຼ່ຽມຄຳ 金三角, ເຂດເສດຖະກິດພິເສດສາມຫຼ່ຽມຄຳ 金三角经济特区, ເມືອງຕົ້ນເຜິ້ງ, ບໍ່ແກ້ວ, ປະເທດລາວ","address":{"town":"ສາມຫຼ່ຽມຄຳ 金三角","state":"ບໍ່ແກ້ວ","ISO3166-2-lvl4":"LA-BK","country":"ປະເທດລາວ","country_code":"la"},"osm_type":"node","osm_id":9504022866,"type":"town","location":[100.1052489,20.3402597],"bbox":[100.0652489,20.3002597,100.1452489,20.3802597],"border":{"name":"ເຂດເສດຖະກິດພິເສດສາມຫຼ່ຽມຄຳ 金三角经济特区","other_names":{"name:en":"Golden Triangle Special Economic Zone","name:ja":"ゴールデントライアングル経済特別区","name:lo":"ເຂດເສດຖະກິດພິເສດສາມຫຼ່ຽມຄຳ","name:my":"ရွှေတြိဂံအထူးစီးပွားရေးဇုံ","name:th":"เขตเศรษฐกิจพิเศษสามเหลี่ยมทองคํา","name:zh":"金三角经济特区","alt":"ສາມຫຼ່ຽມຄຳ 金三角","alt:en":"Golden Triangle","alt:ja":"ゴールデントライアングル","alt:lo":"ສາມຫຼ່ຽມຄຳ","alt:my":"ရွှေတြိဂံ","alt:th":"สามเหลี่ยมทองคํา","alt:zh":"金三角"},"display_name":"ເຂດເສດຖະກິດພິເສດສາມຫຼ່ຽມຄຳ 金三角经济特区, ເມືອງຕົ້ນເຜິ້ງ, ບໍ່ແກ້ວ, ປະເທດລາວ","address":{"town":"ເຂດເສດຖະກິດພິເສດສາມຫຼ່ຽມຄຳ 金三角经济特区","state":"ບໍ່ແກ້ວ","ISO3166-2-lvl4":"LA-BK","country":"ປະເທດລາວ","country_code":"la"},"osm_type":"relation","osm_id":15652673,"type":"administrative","location":[100.1052489,20.3402597],"bbox":[100.0843247,20.2954387,100.1748752,20.361905]}}
{"name":"ສາລະວັນ","other_names":{"name:en":"Salavan","name:fr":"Salavan","name:lo":"ສາລະວັນ","name:zh":"沙拉湾"},"display_name":"ສາລະວັນ, ເມືອງສາລະວັນ, ສາລະວັນ, ປະເທດລາວ","address":{"town":"ສາລະວັນ","county":"ເມືອງສາລະວັນ","state":"ສາລະວັນ","ISO3166-2-lvl4":"LA-SL","country":"ປະເທດລາວ","country_code":"la"},"population":5521,"osm_type":"node","osm_id":5418779124,"type":"town","location":[106.4230585,15.7172058],"bbox":[106.3830585,15.6772058,106.4630585,15.7572058],"border":{"name":"ເມືອງສາລະວັນ","other_names":{"name:en":"Saravane District","name:fr":"Salavan","name:it":"Distretto di Salavan","name:lo":"ເມືອງສາລະວັນ","name:th":"เมืองสาละวัน","name:uk":"Сараван","name:ur":"سالاوان ضلع","name:vi":"Saravane","alt_name":"Saravan;Salavan;Saravane;Salavane"},"display_name":"ເມືອງສາລະວັນ, ສາລະວັນ, 30000, ປະເທດລາວ","address":{"county":"ເມືອງສາລະວັນ","state":"ສາລະວັນ","ISO3166-2-lvl4":"LA-SL","postcode":"30000","country":"ປະເທດລາວ","country_code":"la"},"osm_type":"relation","osm_id":5831768,"type":"administrative","location":[106.4016444174942,15.729146700000001],"bbox":[105.999077,15.482714,106.7154537,15.9740954]}}
{"name":"ສຸຂຸມາ","other_names":{"name:en":"Soukhouma","name:lo":"ສຸຂຸມາ"},"display_name":"ສຸຂຸມາ, ເມືອງສຸຂຸມາ, ຈຳປາສັກ, ປະເທດລາວ","address":{"town":"ສຸຂຸມາ","county":"ເມືອງສຸຂຸມາ","state":"ຈຳປາສັກ","ISO3166-2-lvl4":"LA-CH","country":"ປະເທດລາວ","country_code":"la"},"osm_type":"node","osm_id":278521818,"type":"town","location":[105.7882452,14.6370913],"bbox":[105.7482452,14.5970913,105.8282452,14.6770913],"border":{"name":"ເມືອງສຸຂຸມາ","other_names":{"name:en":"Soukhoumma District","name:it":"Distretto di Soukhoumma","name:lo":"ເມືອງສຸຂຸມາ","name:uk":"Сукхума","name:vi":"Sukhuma","alt_name":"Soukhouma;Sukhuma;Soukhoumma;ສຸຂຸມາ"},"display_name":"ເມືອງສຸຂຸມາ, ຈຳປາສັກ, ປະເທດລາວ","address":{"county":"ເມືອງສຸຂຸມາ","state":"ຈຳປາສັກ","ISO3166-2-lvl4":"LA-CH","country":"ປະເທດລາວ","country_code":"la"},"osm_type":"relation","osm_id":5831775,"type":"administrative","location":[105.69580663331297,14.631545],"bbox":[105.4731187,14.4505057,105.871405,14.811993]}}
{"name":"ສົບເບົາ","other_names":{"name:en":"Sopbao","name:lo":"ສົບເບົາ","name:lo-Latn":"Sôpbao"},"display_name":"ສົບເບົາ, ອງສົບເບົາ, ຫົວພັນ, ປະເທດລາວ","address":{"town":"ສົບເບົາ","county":"ອງສົບເບົາ","state":"ຫົວພັນ","ISO3166-2-lvl4":"LA-HO","country":"ປະເທດລາວ","country_code":"la"},"osm_type":"node","osm_id":1322135897,"type":"town","location":[104.3829441,20.7113682],"bbox":[104.3429441,20.6713682,104.4229441,20.7513682],"border":{"name":"ອງສົບເບົາ","other_names":{"name:en":"Sop Bao District","name:it":"Distretto di Sop Bao","name:lo":"ເມືອງສົບເບົາ","name:uk":"Сопбао","name:vi":"Sop Bao","alt_name":"Sopbao;ເມືອງສົບເບົາ"},"display_name":"ອງສົບເບົາ, ຫົວພັນ, ປະເທດລາວ","address":{"county":"ອງສົບເບົາ","state":"ຫົວພັນ","ISO3166-2-lvl4":"LA-HO","country":"ປະເທດລາວ","country_code":"la"},"osm_type":"relation","osm_id":5831774,"type":"administrative","location":[104.39102051086732,20.65015435],"bbox":[104.1312477,20.473758,104.6417203,20.8269849]}}
{"name":"ຊະນະຄາມ","other_names":{"name:en":"Xanakham","name:lo":"ຊະນະຄາມ","name:ru":"Санакхам"},"display_name":"ຊະນະຄາມ, ວຽງຈັນ, ປະເທດລາວ","address":{"town":"ຊະນະຄາມ","county":"ຊະນະຄາມ","state":"ວຽງຈັນ","ISO3166-2-lvl4":"LA-VI","country":"ປະເທດລາວ","country_code":"la"},"osm_type":"node","osm_id":1174399255,"type":"town","location":[101.6804175,17.9145768],"bbox":[101.6404175,17.8745768,101.7204175,17.9545768],"border":{"name":"ຊະນະຄາມ","other_names":{"name:en":"Xanakham District","name:lo":"ຊະນະຄາມ","alt_name":"Xanakham;Xanakharm;Xanakharm District"},"display_name":"ຊະນະຄາມ, ວຽງຈັນ, ປະເທດລາວ","address":{"county":"ຊະນະຄາມ","state":"ວຽງຈັນ","ISO3166-2-lvl4":"LA-VI","country":"ປະເທດລາວ","country_code":"la"},"osm_type":"relation","osm_id":5831811,"type":"administrative","location":[101.5741449840667,18.1014349],"bbox":[101.3862423,17.8135368,101.7932005,18.3899781]}}
{"name":"ຊຳໃຕ້","other_names":{"name:en":"Xamtai","name:lo":"ຊຳໃຕ້","alt_name":"Samtai;Samtay;Xamtay;Sam Tai"},"display_name":"ຊຳໃຕ້, ຫົວພັນ, ປະເທດລາວ","address":{"town":"ຊຳໃຕ້","county":"ຊຳໃຕ້","state":"ຫົວພັນ","ISO3166-2-lvl4":"LA-HO","country":"ປະເທດລາວ","country_code":"la"},"osm_type":"node","osm_id":1322135905,"type":"town","location":[104.6385597,19.9987144],"bbox":[104.5985597,19.9587144,104.6785597,20.0387144],"border":{"name":"ຊຳໃຕ້","other_names":{"name:en":"Samtay District","name:it":"Distretto di Samtay","name:lo":"ຊຳໃຕ້","name:th":"เมืองชำใต้","name:uk":"Самтай","name:vi":"Xamtay","alt_name":"Xam-Tai;Samtay;Xamtay;Xamtay District;ເມືອງຊຳໃຕ້"},"display_name":"ຊຳໃຕ້, ຫົວພັນ, ປະເທດລາວ","address":{"county":"ຊຳໃຕ້","state":"ຫົວພັນ","ISO3166-2-lvl4":"LA-HO","country":"ປະເທດລາວ","country_code":"la"},"osm_type":"relation","osm_id":5831803,"type":"administrative","location":[104.6847505060813,19.97833285],"bbox":[104.1310291,19.7488701,104.9937678,20.2080738]}}
{"name":"ຊຳເໜືອ","other_names":{"name:en":"Xam Neua","name:fr":"Sam Neua","name:ja":"サムヌア","name:lo":"ຊຳເໜືອ","name:ru":"Самныа","name:th":"ซำเหนือ","name:uk":"Самниа","name:ur":"سام نوا","name:vi":"Sầm Nưa","alt_name":"Xamneua","int_name":"Xam Nua","name:lo-Latn":"Xamnua"},"display_name":"ຊຳເໜືອ, ຫົວພັນ, 07000, ປະເທດລາວ","address":{"town":"ຊຳເໜືອ","county":"ຊຳເໜືອ","state":"ຫົວພັນ","ISO3166-2-lvl4":"LA-HO","postcode":"07000","country":"ປະເທດລາວ","country_code":"la"},"osm_type":"node","osm_id":297964174,"type":"town","location":[104.047364,20.4151514],"bbox":[104.007364,20.3751514,104.087364,20.4551514],"border":{"name":"ຊຳເໜືອ","other_names":{"name:de":"Sam Neua","name:en":"Xam Neua District","name:eo":"Sam Neŭa","name:fr":"Sam Neua","name:hr":"Xam Neua","name:it":"Distretto di Sam Neua","name:ja":"サムヌア郡","name:ka":"სამნია","name:lo":"ຊຳເໜືອ","name:lt":"Samnia","name:nl":"Sam Neua","name:pl":"Sam Neua","name:pt":"Sam Neua","name:ru":"Самныа","name:th":"เมืองซำเหนือ","name:uk":"Самниа","name:ur":"سام نوا ضلع","name:vi":"Xam Neua","name:zh":"桑怒","alt_name":"Xam-Nua;Xamneua District;Xam Neua;Xamneua District"},"display_name":"ຊຳເໜືອ, ຫົວພັນ, 07000, ປະເທດລາວ","address":{"county":"ຊຳເໜືອ","state":"ຫົວພັນ","ISO3166-2-lvl4":"LA-HO","postcode":"07000","country":"ປະເທດລາວ","country_code":"la"},"osm_type":"relation","osm_id":5831802,"type":"administrative","location":[103.82915674277822,20.3707439],"bbox":[103.4924165,20.0642372,104.3900327,20.6801407]}}
{"name":"ຊຽງຄໍ້","other_names":{"name:en":"Xiangkho","name:lo":"ຊຽງຄໍ້"},"display_name":"ຊຽງຄໍ້, ຫົວພັນ, ປະເທດລາວ","address":{"town":"ຊຽງຄໍ້","county":"ຊຽງຄໍ້","state":"ຫົວພັນ","ISO3166-2-lvl4":"LA-HO","country":"ປະເທດລາວ","country_code":"la"},"osm_type":"node","osm_id":369505075,"type":"town","location":[104.1459353,20.8147444],"bbox":[104.1059353,20.7747444,104.1859353,20.8547444],"border":{"name":"ຊຽງຄໍ້","other_names":{"name:en":"Xiengkho District","name:it":"Distretto di Xiengkho","name:lo":"ເມືອງຊຽງຄ","name:uk":"С'єнгкхор","name:vi":"Xiengkhor","alt_name":"Xiangkho;Xiengkhor;Xiengkhor District"},"display_name":"ຊຽງຄໍ້, ຫົວພັນ, ປະເທດລາວ","address":{"county":"ຊຽງຄໍ້","state":"ຫົວພັນ","ISO3166-2-lvl4":"LA-HO","country":"ປະເທດລາວ","country_code":"la"},"osm_type":"relation","osm_id":5831809,"type":"administrative","location":[104.22063722131847,20.822410650000002],"bbox":[104.0070319,20.6661661,104.379644,20.9765648]}}
{"name":"ຊຽງເງິນ","other_names":{"name:en":"Xieng Ngeun","name:lo":"ຊຽງເງິນ","name:zh":"相嫩"},"display_name":"ຊຽງເງິນ, ເມືອງຊຽງເງິນ, ຫລວງພະບາງ, 06000, ປະເທດລາວ","address":{"town":"ຊຽງເງິນ","county":"ເມືອງຊຽງເງິນ","state":"ຫລວງພະບາງ","ISO3166-2-lvl4":"LA-LP","postcode":"06000","country":"ປະເທດລາວ","country_code":"la"},"osm_type":"node","osm_id":997414903,"type":"town","location":[102.1831298,19.7580305],"bbox":[102.1431298,19.7180305,102.2231298,19.7980305],"border":{"name":"ເມືອງຊຽງເງິນ","other_names":{"name:en":"Xiengngeun District","name:it":"Distretto di Xiengngeun","name:lo":"ເມືອງຊຽງເງິນ","name:uk":"С'єнгнгун","name:vi":"Xieng Ngeun","name:zh":"相嫩","alt_name":"Xiang-Ngeun"},"display_name":"ເມືອງຊຽງເງິນ, ຫລວງພະບາງ, 06000, ປະເທດລາວ","address":{"county":"ເມືອງຊຽງເງິນ","state":"ຫລວງພະບາງ","ISO3166-2-lvl4":"LA-LP","postcode":"06000","country":"ປະເທດລາວ","country_code":"la"},"osm_type":"relation","osm_id":5831807,"type":"administrative","location":[102.25023779925063,19.611606600000002],"bbox":[102.0210059,19.3666728,102.5716211,19.8554828]}}
{"name":"ຊຽງຮ່ອນ","other_names":{"name:en":"Xianghon","name:lo":"ຊຽງຮ່ອນ","name:alt":"Xienglom","name:lo-Latn":"Xianghon"},"display_name":"ຊຽງຮ່ອນ, ເມືອງຊຽງຮ່ອນ, ໄຊຍະບູລີ, ປະເທດລາວ","address":{"town":"ຊຽງຮ່ອນ","county":"ເມືອງຊຽງຮ່ອນ","state":"ໄຊຍະບູລີ","ISO3166-2-lvl4":"LA-XA","country":"ປະເທດລາວ","country_code":"la"},"osm_type":"node","osm_id":1330653264,"type":"town","location":[100.8149978,19.6295232],"bbox":[100.7749978,19.5895232,100.8549978,19.6695232],"border":{"name":"ເມືອງຊຽງຮ່ອນ","other_names":{"name:en":"Xienghone District","name:lo":"ເມືອງຊຽງຮ່ອນ","alt_name":"Xianghon;Xienghon;Xienghone"},"display_name":"ເມືອງຊຽງຮ່ອນ, ໄຊຍະບູລີ, ປະເທດລາວ","address":{"county":"ເມືອງຊຽງຮ່ອນ","state":"ໄຊຍະບູລີ","ISO3166-2-lvl4":"LA-XA","country":"ປະເທດລາວ","country_code":"la"},"osm_type":"relation","osm_id":5831808,"type":"administrative","location":[100.8535874716253,19.6976072],"bbox":[100.6602351,19.487276,101.0480292,19.9074792]}}
{"name":"ເຊໂນ","other_names":{"name:en":"Seno","name:lo":"ເຊໂນ","name:zh":"西诺"},"display_name":"ເຊໂນ, ເມືອງອຸທຸມພອນ, ສະຫວັນນະເຂດ, ປະເທດລາວ","address":{"town":"ເຊໂນ","county":"ເມືອງອຸທຸມພອນ","state":"ສະຫວັນນະເຂດ","ISO3166-2-lvl4":"LA-SV","country":"ປະເທດລາວ","country_code":"la"},"osm_type":"node","osm_id":429425372,"type":"town","location":[104.9641129,16.6790272],"bbox":[104.9241129,16.6390272,105.0041129,16.7190272]}
{"name":"ເຊໂປນ","other_names":{"name:en":"Xepon","name:lo":"ເຊໂປນ","name:zh":"车邦","name:lo-Latn":"Xépôn"},"display_name":"ເຊໂປນ, ເມືອງເຊໂປນ, ສະຫວັນນະເຂດ, ປະເທດລາວ","address":{"town":"ເຊໂປນ","county":"ເມືອງເຊໂປນ","state":"ສະຫວັນນະເຂດ","ISO3166-2-lvl4":"LA-SV","country":"ປະເທດລາວ","country_code":"la"},"osm_type":"node","osm_id":133417249,"type":"town","location":[106.2082439,16.6997449],"bbox":[106.1682439,16.6597449,106.2482439,16.7397449],"border":{"name":"ເມືອງເຊໂປນ","other_names":{"name:en":"Seponh District","name:it":"Distretto di Sepone","name:lo":"ເມືອງເຊໂປນ","name:uk":"Сепон","name:vi":"Seponh","alt_name":"Xepon;Sepon;Sepone;Seponh"},"display_name":"ເມືອງເຊໂປນ, ສະຫວັນນະເຂດ, ປະເທດລາວ","address":{"county":"ເມືອງເຊໂປນ","state":"ສະຫວັນນະເຂດ","ISO3166-2-lvl4":"LA-SV","country":"ປະເທດລາວ","country_code":"la"},"osm_type":"relation","osm_id":5831806,"type":"administrative","location":[106.2895542354448,16.78548835],"bbox":[106.0133121,16.5414049,106.6545914,17.0223827]}}
{"name":"ໄຊຈຳພອນ","other_names":{"name:en":"Xaichamphone","name:lo":"ໄຊຈຳພອນ"},"display_name":"ໄຊຈຳພອນ, ບໍລິຄຳໄຊ, ປະເທດລາວ","address":{"town":"ໄຊຈຳພອນ","county":"ໄຊຈຳພອນ","state":"ບໍລິຄຳໄຊ","ISO3166-2-lvl4":"LA-BL","country":"ປະເທດລາວ","country_code":"la"},"osm_type":"node","osm_id":4666616226,"type":"town","location":[104.9946428,18.5776535],"bbox":[104.9546428,18.5376535,105.0346428,18.6176535],"border":{"name":"ໄຊຈຳພອນ","other_names":{"name:en":"Xaichamphone District","name:lo":"ໄຊຈຳພອນ","alt_name":"Xaichamphon;ເມື່ອງ ໄຊຈຳພອນ"},"display_name":"ໄຊຈຳພອນ, ບໍລິຄຳໄຊ, ປະເທດລາວ","address":{"county":"ໄຊຈຳພອນ","state":"ບໍລິຄຳໄຊ","ISO3166-2-lvl4":"LA-BL","country":"ປະເທດລາວ","country_code":"la"},"osm_type":"relation","osm_id":6949871,"type":"administrative","location":[104.89489797544286,18.57028045],"bbox":[104.6488102,18.3026461,105.19818,18.8379962]}}
{"name":"ໄຊເສດຖາ","other_names":{"name:en":"Saisetha","name:lo":"ໄຊເສດຖາ"},"display_name":"ໄຊເສດຖາ, ເມືອງໄຊສະຖານ, ອັດຕະປື, ປະເທດລາວ","address":{"town":"ໄຊເສດຖາ","county":"ເມືອງໄຊສະຖານ","state":"ອັດຕະປື","ISO3166-2-lvl4":"LA-AT","country":"ປະເທດລາວ","country_code":"la"},"osm_type":"node","osm_id":4684808514,"type":"town","location":[106.9373999,14.8174338],"bbox":[106.8973999,14.7774338,106.9773999,14.8574338]}
{"name":"ຍອດອູ","other_names":{"name:en":"Gnot-Ou","name:lo":"ຍອດອູ","name:zh":"有乌区"},"display_name":"ຍອດອູ, ເມືອງຍອດອ, ຜົ້ງສາລີ, ປະເທດລາວ","address":{"town":"ຍອດອູ","county":"ເມືອງຍອດອ","state":"ຜົ້ງສາລີ","ISO3166-2-lvl4":"LA-PH","country":"ປະເທດລາວ","country_code":"la"},"osm_type":"node","osm_id":1319731225,"type":"town","location":[101.7906479,22.1248203],"bbox":[101.7506479,22.0848203,101.8306479,22.1648203],"border":{"name":"ເມືອງຍອດອ","other_names":{"name:en":"Yot Ou District","name:it":"Distretto di Nhot Ou","name:lo":"ເມືອງຍອດອ","name:uk":"Гноту","name:ur":"یوٹ و ضلع","name:vi":"Nhot Ou","name:zh":"乌德县","alt_name":"Gnot-Ou;Yot Ou;ເມືອງຍອດອູ່"},"display_name":"ເມືອງຍອດອ, ຜົ້ງສາລີ, ປະເທດລາວ","address":{"county":"ເມືອງຍອດອ","state":"ຜົ້ງສາລີ","ISO3166-2-lvl4":"LA-PH","country":"ປະເທດລາວ","country_code":"la"},"osm_type":"relation","osm_id":5831689,"type":"administrative","location":[101.91331700032447,22.1953929],"bbox":[101.5492057,21.882173,102.2783335,22.5086717]}}
{"name":"ດອນ","other_names":{"name:en":"Don","name:lo":"ດອນ"},"display_name":"ດອນ, ເຟືອງ, ວຽງຈັນ, ປະເທດລາວ","address":{"town":"ດອນ","county":"ເຟືອງ","state":"ວຽງຈັນ","ISO3166-2-lvl4":"LA-VI","country":"ປະເທດລາວ","country_code":"la"},"osm_type":"node","osm_id":2400199498,"type":"town","location":[102.1248054,18.6798923],"bbox":[102.0848054,18.6398923,102.1648054,18.7198923]}
{"name":"ດອນຕະລາດ","other_names":{"name:en":"Dontalat","name:lo":"ດອນຕະລາດ"},"display_name":"ດອນຕະລາດ, ເມືອງຈຳປາສັກ, ຈຳປາສັກ, ປະເທດລາວ","address":{"town":"ດອນຕະລາດ","county":"ເມືອງຈຳປາສັກ","state":"ຈຳປາສັກ","ISO3166-2-lvl4":"LA-CH","country":"ປະເທດລາວ","country_code":"la"},"osm_type":"node","osm_id":2405785783,"type":"town","location":[105.8097774,14.786935],"bbox":[105.7697774,14.746935,105.8497774,14.826935]}
{"name":"ດັກຈືງ","other_names":{"name:en":"Dakching","name:lo":"ດັກຈືງ"},"display_name":"ດັກຈືງ, ເມືອງດັກຈຶງ, ເຊກອງ, ປະເທດລາວ","address":{"town":"ດັກຈືງ","county":"ເມືອງດັກຈຶງ","state":"ເຊກອງ","ISO3166-2-lvl4":"LA-XE","country":"ປະເທດລາວ","country_code":"la"},"osm_type":"node","osm_id":3476155365,"type":"town","location":[107.2685008,15.4659164],"bbox":[107.2285008,15.4259164,107.3085008,15.5059164]}
{"name":"ດົງສະຫວ່າງ","other_names":{"name:en":"Dongsavang","name:lo":"ດົງສະຫວ່າງ"},"display_name":"ດົງສະຫວ່າງ, ເມືອງສອງຄອນ, ສະຫວັນນະເຂດ, ປະເທດລາວ","address":{"town":"ດົງສະຫວ່າງ","county":"ເມືອງສອງຄອນ","state":"ສະຫວັນນະເຂດ","ISO3166-2-lvl4":"LA-SV","country":"ປະເທດລາວ","country_code":"la"},"osm_type":"node","osm_id":3582958139,"type":"town","location":[105.3037962,16.2548318],"bbox":[105.2637962,16.2148318,105.3437962,16.2948318]}
{"name":"ຕາແຫຼວເກົ່າ","other_names":{"name:en":"Taleo Kao","name:lo":"ຕາແຫຼວເກົ່າ"},"display_name":"ຕາແຫຼວເກົ່າ, ເມືອງຈຳພອນ, ສະຫວັນນະເຂດ, ປະເທດລາວ","address":{"town":"ຕາແຫຼວເກົ່າ","county":"ເມືອງຈຳພອນ","state":"ສະຫວັນນະເຂດ","ISO3166-2-lvl4":"LA-SV","country":"ປະເທດລາວ","country_code":"la"},"osm_type":"node","osm_id":369495090,"type":"town","location":[105.254114,16.4204684],"bbox":[105.214114,16.3804684,105.294114,16.4604684]}
{"name":"ຕຸ້ມລານ","other_names":{"name:en":"Toumlane","name:lo":"ຕຸ້ມລານ"},"display_name":"ຕຸ້ມລານ, ເມືອງຕຸ້ມລານ, ສາລະວັນ, ປະເທດລາວ","address":{"town":"ຕຸ້ມລານ","county":"ເມືອງຕຸ້ມລານ","state":"ສາລະວັນ","ISO3166-2-lvl4":"LA-SL","country":"ປະເທດລາວ","country_code":"la"},"osm_type":"node","osm_id":3474949831,"type":"town","location":[106.1940983,15.9928192],"bbox":[106.1540983,15.9528192,106.2340983,16.0328192],"border":{"name":"ເມືອງຕຸ້ມລານ","other_names":{"name:en":"Toumlane District","name:it":"Distretto di Tumlan","name:lo":"ເມືອງຕຸ້ມລານ","name:th":"เมืองตุ้มลาน","name:uk":"Тумларн","name:vi":"Toumlane","alt_name":"Toumlan;Toomlan;Tumlan;Toomlarn;Toomlarn District"},"display_name":"ເມືອງຕຸ້ມລານ, ສາລະວັນ, ປະເທດລາວ","address":{"county":"ເມືອງຕຸ້ມລານ","state":"ສາລະວັນ","ISO3166-2-lvl4":"LA-SL","country":"ປະເທດລາວ","country_code":"la"},"osm_type":"relation","osm_id":5831785,"type":"administrative","location":[106.2331871382411,16.0234126],"bbox":[106.1004284,15.86667,106.3738431,16.1814508]}}
{"name":"ຕົ້ນເຜິ້ງ","other_names":{"name:en":"Tonpheung","name:zh":"敦鹏","name:lo-Latn":"Tônpheung"},"display_name":"ຕົ້ນເຜິ້ງ, ເມືອງຕົ້ນເຜິ້ງ, ບໍ່ແກ້ວ, ປະເທດລາວ","address":{"town":"ຕົ້ນເຜິ້ງ","state":"ບໍ່ແກ້ວ","ISO3166-2-lvl4":"LA-BK","country":"ປະເທດລາວ","country_code":"la"},"osm_type":"node","osm_id":1322086027,"type":"town","location":[100.1018746,20.2915321],"bbox":[100.0618746,20.2515321,100.1418746,20.3315321],"border":{"name":"ເມືອງຕົ້ນເຜິ້ງ","other_names":{"name:en":"Tonpheung District","name:it":"Distretto di Ton Pheung","name:lo":"ເມືອງຕົ້ນເຜິ້ງ","name:vi":"Tonpheung","alt_name":"Tonpheung;Ton Pheung","name:zh":"敦鹏","name:lo-Latn":"Tônpheung","alt":"ຕົ້ນເຜິ້ງ","alt:en":"Tonpheung"},"display_name":"ເມືອງຕົ້ນເຜິ້ງ, ບໍ່ແກ້ວ, ປະເທດລາວ","address":{"town":"ເມືອງຕົ້ນເຜິ້ງ","state":"ບໍ່ແກ້ວ","ISO3166-2-lvl4":"LA-BK","country":"ປະເທດລາວ","country_code":"la"},"osm_type":"relation","osm_id":5831784,"type":"administrative","location":[100.1018746,20.2915321],"bbox":[100.0843247,20.24412,100.5535291,20.6628823]}}
{"name":"ຖິ່ນແກ້ວ","other_names":{"name:en":"Thinkeo","name:lo":"ຖິ່ນແກ້ວ","name:th":"ถิ่นแก้ว"},"display_name":"ຖິ່ນແກ້ວ, ແກ້ວອຸດົມ, ວຽງຈັນ, ປະເທດລາວ","address":{"town":"ຖິ່ນແກ້ວ","county":"ແກ້ວອຸດົມ","state":"ວຽງຈັນ","ISO3166-2-lvl4":"LA-VI","country":"ປະເທດລາວ","country_code":"la"},"osm_type":"node","osm_id":368159547,"type":"town","location":[102.5069834,18.5207579],"bbox":[102.4669834,18.4807579,102.5469834,18.5607579]}
{"name":"ທ່າງອນ","other_names":{"name:en":"Thangon","name:lo":"ທ່າງອນ"},"display_name":"ທ່າງອນ, ເມືອງໄຊທານີ, ນະຄອນຫຼວງວຽງຈັນ, ປະເທດລາວ","address":{"town":"ທ່າງອນ","county":"ເມືອງໄຊທານີ","state":"ນະຄອນຫຼວງວຽງຈັນ","ISO3166-2-lvl4":"LA-VT","country":"ປະເທດລາວ","country_code":"la"},"osm_type":"node","osm_id":535183758,"type":"town","location":[102.6235696,18.1305996],"bbox":[102.5835696,18.0905996,102.6635696,18.1705996]}
{"name":"ທ່າໂທມ","other_names":{"name:en":"Thathom","name:lo":"ທ່າໂທມ","name:lo-Latn":"Thathôm"},"display_name":"ທ່າໂທມ, ເມືອງທ່າໂທມ, ໄຊສົມບູນ, ປະເທດລາວ","address":{"town":"ທ່າໂທມ","county":"ເມືອງທ່າໂທມ","state":"ໄຊສົມບູນ","ISO3166-2-lvl4":"LA-XS","country":"ປະເທດລາວ","country_code":"la"},"osm_type":"node","osm_id":133192553,"type":"town","location":[103.6058384,18.9862285],"bbox":[103.5658384,18.9462285,103.6458384,19.0262285],"border":{"name":"ເມືອງທ່າໂທມ","other_names":{"name:en":"Thathom District","name:lo":"ເມືອງທ່າໂທມ","name:th":"เมืองท่าโทม","alt_name":"Thatom;Thathom"},"display_name":"ເມືອງທ່າໂທມ, ໄຊສົມບູນ, ປະເທດລາວ","address":{"county":"ເມືອງທ່າໂທມ","state":"ໄຊສົມບູນ","ISO3166-2-lvl4":"LA-XS","country":"ປະເທດລາວ","country_code":"la"},"osm_type":"relation","osm_id":5831781,"type":"administrative","location":[103.65296295196725,18.9858239],"bbox":[103.2731518,18.8178331,103.8994364,19.1545121]}}
{"name":"ທ່າບົກ","other_names":{"name:en":"Thabok","name:lo":"ທ່າບົກ","name:ru":"Бан-Табок"},"display_name":"ທ່າບົກ, ເມືອງທ່າພະບາດ, ບໍລິຄຳໄຊ, ປະເທດລາວ","address":{"town":"ທ່າບົກ","county":"ເມືອງທ່າພະບາດ","state":"ບໍລິຄຳໄຊ","ISO3166-2-lvl4":"LA-BL","country":"ປະເທດລາວ","country_code":"la"},"osm_type":"node","osm_id":504328263,"type":"town","location":[103.1980347,18.3736483],"bbox":[103.1580347,18.3336483,103.2380347,18.4136483]}
{"name":"ທົ່ງມີໄຊ","other_names":{"name:en":"Thongmixai","name:lo":"ທົ່ງມີໄຊ","name:lo-Latn":"Thongmixai"},"display_name":"ທົ່ງມີໄຊ, ເມືອງທົ່ງມີໄຊ, ໄຊຍະບູລີ, ປະເທດລາວ","address":{"town":"ທົ່ງມີໄຊ","county":"ເມືອງທົ່ງມີໄຊ","state":"ໄຊຍະບູລີ","ISO3166-2-lvl4":"LA-XA","country":"ປະເທດລາວ","country_code":"la"},"osm_type":"node","osm_id":1314919932,"type":"town","location":[101.1786961,18.4008167],"bbox":[101.1386961,18.3608167,101.2186961,18.4408167],"border":{"name":"ເມືອງທົ່ງມີໄຊ","other_names":{"name:en":"Thongmyxay District","name:lo":"ເມືອງທົ່ງມີໄຊ","name:vi":"Thongmyxay","alt_name":"Thongmixai;Thongmyxay"},"display_name":"ເມືອງທົ່ງມີໄຊ, ໄຊຍະບູລີ, ປະເທດລາວ","address":{"county":"ເມືອງທົ່ງມີໄຊ","state":"ໄຊຍະບູລີ","ISO3166-2-lvl4":"LA-XA","country":"ປະເທດລາວ","country_code":"la"},"osm_type":"relation","osm_id":5831782,"type":"administrative","location":[101.19829987348506,18.422336100000003],"bbox":[101.052418,18.213042,101.4043076,18.630986]}}
{"name":"ນາກາຍ","other_names":{"name:en":"Nakay","name:lo":"ນາກາຍ","name:lo-Latn":"Nakay"},"display_name":"ນາກາຍ, ມືອງນາກາຍ, ຄໍາມ່ວນ, 12080, ປະເທດລາວ","address":{"town":"ນາກາຍ","county":"ມືອງນາກາຍ","state":"ຄໍາມ່ວນ","ISO3166-2-lvl4":"LA-KH","postcode":"12080","country":"ປະເທດລາວ","country_code":"la"},"osm_type":"node","osm_id":1120018538,"type":"town","location":[105.1486752,17.7155388],"bbox":[105.1086752,17.6755388,105.1886752,17.7555388],"border":{"name":"ມືອງນາກາຍ","other_names":{"name:en":"Nakai District","name:it":"Distretto di Nakai","name:lo":"ມືອງນາກາຍ","name:th":"เมืองนากาย","name:uk":"Накай","name:vi":"Nakai","alt_name":"Nakay;Nakai;Nakai District"},"display_name":"ມືອງນາກາຍ, ຄໍາມ່ວນ, 12080, ປະເທດລາວ","address":{"county":"ມືອງນາກາຍ","state":"ຄໍາມ່ວນ","ISO3166-2-lvl4":"LA-KH","postcode":"12080","country":"ປະເທດລາວ","country_code":"la"},"osm_type":"relation","osm_id":5831725,"type":"administrative","location":[105.20240812061581,17.93216925],"bbox":[104.7798304,17.597828,105.7580128,18.2665555]}}
{"name":"ນາໝໍ້","other_names":{"name:en":"Namor","name:lo":"ນາໝໍ້","name:zh":"纳堆"},"display_name":"ນາໝໍ້, ເມືອງນາໝ, ອຸດົມໄຊ, ປະເທດລາວ","address":{"town":"ນາໝໍ້","county":"ເມືອງນາໝ","state":"ອຸດົມໄຊ","ISO3166-2-lvl4":"LA-OU","country":"ປະເທດລາວ","country_code":"la"},"osm_type":"node","osm_id":1319746954,"type":"town","location":[101.7623125,20.9140732],"bbox":[101.7223125,20.8740732,101.8023125,20.9540732]}
{"name":"ນຳ້ເນີນ","other_names":{"name:en":"Nam Neun","name:lo":"ນຳ້ເນີນ"},"display_name":"ນຳ້ເນີນ, ຫົວເມືອງ, ຫົວພັນ, ປະເທດລາວ","address":{"town":"ນຳ້ເນີນ","county":"ຫົວເມືອງ","state":"ຫົວພັນ","ISO3166-2-lvl4":"LA-HO","country":"ປະເທດລາວ","country_code":"la"},"osm_type":"node","osm_id":990488698,"type":"town","location":[103.7164802,20.0324036],"bbox":[103.6764802,19.9924036,103.7564802,20.0724036]}
{"name":"ບໍ່ເຕັນ","other_names":{"name:en":"Boten","name:ja":"ボーテン","name:lo":"ບໍ່ເຕັນ","name:ms":"Boten","name:th":"บ่อเต็น","name:zh":"磨丁","name:zh-Hans":"磨丁","name:zh-Hant":"磨丁"},"display_name":"ບໍ່ເຕັນ, ເມືອງຫຼວງນໍ້າທາ, ຫລວງນໍ້າທາ, ປະເທດລາວ","address":{"town":"ບໍ່ເຕັນ","county":"ເມືອງຫຼວງນໍ້າທາ","state":"ຫລວງນໍ້າທາ","ISO3166-2-lvl4":"LA-LM","country":"ປະເທດລາວ","country_code":"la"},"osm_type":"node","osm_id":777404512,"type":"town","location":[101.6725976,21.1841821],"bbox":[101.6325976,21.1441821,101.7125976,21.2241821]}
{"name":"ບໍລິຄັນ","other_names":{"name:en":"Borikham","name:lo":"ບໍລິຄັນ"},"display_name":"ບໍລິຄັນ, ເມືອງບໍລິຄັນ, ບໍລິຄຳໄຊ, ປະເທດລາວ","address":{"town":"ບໍລິຄັນ","county":"ເມືອງບໍລິຄັນ","state":"ບໍລິຄຳໄຊ","ISO3166-2-lvl4":"LA-BL","country":"ປະເທດລາວ","country_code":"la"},"osm_type":"node","osm_id":4666616216,"type":"town","location":[103.7266034,18.5618092],"bbox":[103.6866034,18.5218092,103.7666034,18.6018092],"border":{"name":"ເມືອງບໍລິຄັນ","other_names":{"name:en":"Borikhane District","name:it":"Distretto di Borikhane","name:lo":"ບໍລິຄັນ","name:th":"เมืองบริคัณฑ์","name:uk":"Болікханх","name:vi":"Borikhanh","alt_name":"Bolikhan;Borikhan;Borikhane;Bolikhane;Bolikanh"},"display_name":"ເມືອງບໍລິຄັນ, ບໍລິຄຳໄຊ, 85620, ປະເທດລາວ","address":{"county":"ເມືອງບໍລິຄັນ","state":"ບໍລິຄຳໄຊ","ISO3166-2-lvl4":"LA-BL","postcode":"85620","country":"ປະເທດລາວ","country_code":"la"},"osm_type":"relation","osm_id":5831676,"type":"administrative","location":[103.77359578032068,18.6768965],"bbox":[103.3892486,18.3971518,104.1790313,18.9581559]}}
{"name":"ບູນໃຕ້","other_names":{"name:en":"Bountai","name:lo":"ບູນໃຕ້","alt_name":"ບຸນໃຕ້;Boun Tai"},"display_name":"ບູນໃຕ້, ເມືອງບຸນໃຕ້, ຜົ້ງສາລີ, ປະເທດລາວ","address":{"town":"ບູນໃຕ້","county":"ເມືອງບຸນໃຕ້","state":"ຜົ້ງສາລີ","ISO3166-2-lvl4":"LA-PH","country":"ປະເທດລາວ","country_code":"la"},"osm_type":"node","osm_id":1319731400,"type":"town","location":[101.9732747,21.3885969],"bbox":[101.9332747,21.3485969,102.0132747,21.4285969]}
{"name":"ບູນເໜືອ","other_names":{"name:en":"Bounneua","name:lo":"ບູນເໜືອ"},"display_name":"ບູນເໜືອ, ເມືອງບຸນເໜືອ, ຜົ້ງສາລີ, ປະເທດລາວ","address":{"town":"ບູນເໜືອ","county":"ເມືອງບຸນເໜືອ","state":"ຜົ້ງສາລີ","ISO3166-2-lvl4":"LA-PH","country":"ປະເທດລາວ","country_code":"la"},"osm_type":"node","osm_id":1319731379,"type":"town","location":[101.9046302,21.6356702],"bbox":[101.8646302,21.5956702,101.9446302,21.6756702],"border":{"name":"ເມືອງບຸນເໜືອ","other_names":{"name:en":"Boun Neua District","name:it":"Distretto di Boun Neua","name:lo":"ເມືອງບຸນເໜືອ","name:th":"เมืองบุนเหนือ","name:uk":"Буннуа","name:vi":"Boun Neua","alt_name":"Boun-Nua;Boun Neua;Bounneua"},"display_name":"ເມືອງບຸນເໜືອ, ຜົ້ງສາລີ, ປະເທດລາວ","address":{"county":"ເມືອງບຸນເໜືອ","state":"ຜົ້ງສາລີ","ISO3166-2-lvl4":"LA-PH","country":"ປະເທດລາວ","country_code":"la"},"osm_type":"relation","osm_id":5831679,"type":"administrative","location":[101.85864207242187,21.683678],"bbox":[101.723608,21.4250078,102.0285503,21.9429588]}}
{"name":"ແບງ","other_names":{"name:en":"Beng","name:lo":"ແບງ","name:lo-Latn":"Bèng"},"display_name":"ແບງ, ເມືອງແບ່ງ, ອຸດົມໄຊ, ປະເທດລາວ","address":{"town":"ແບງ","county":"ເມືອງແບ່ງ","state":"ອຸດົມໄຊ","ISO3166-2-lvl4":"LA-OU","country":"ປະເທດລາວ","country_code":"la"},"osm_type":"node","osm_id":1319746952,"type":"town","location":[101.639979,20.2986352],"bbox":[101.599979,20.2586352,101.679979,20.3386352],"border":{"name":"ເມືອງແບ່ງ","other_names":{"name:en":"Beng District","name:it":"Distretto di Beng","name:lo":"ເມືອງແບ່ງ","name:th":"เมืองแบ่ง","name:uk":"Бенг","name:vi":"Beng, Oudomxay","alt_name":"Beng"},"display_name":"ເມືອງແບ່ງ, ອຸດົມໄຊ, ປະເທດລາວ","address":{"county":"ເມືອງແບ່ງ","state":"ອຸດົມໄຊ","ISO3166-2-lvl4":"LA-OU","country":"ປະເທດລາວ","country_code":"la"},"osm_type":"relation","osm_id":5831675,"type":"administrative","location":[101.67874333261057,20.343046649999998],"bbox":[101.4527058,20.1188093,102.0009064,20.5669663]}}
{"name":"ປະທຸມພອນ","other_names":{"name:en":"Pathoumphon","name:lo":"ປະທຸມພອນ","name:ru":"Фиафай","name:lo-Latn":"Pathoumphon"},"display_name":"ປະທຸມພອນ, ເມືອງປະທຸມພອນ, ຈຳປາສັກ, ປະເທດລາວ","address":{"town":"ປະທຸມພອນ","county":"ເມືອງປະທຸມພອນ","state":"ຈຳປາສັກ","ISO3166-2-lvl4":"LA-CH","country":"ປະເທດລາວ","country_code":"la"},"osm_type":"node","osm_id":781848422,"type":"town","location":[105.9346098,14.7991472],"bbox":[105.8946098,14.7591472,105.9746098,14.8391472],"border":{"name":"ເມືອງປະທຸມພອນ","other_names":{"name:en":"Pathouphone District","name:it":"Distretto di Pathoumphone","name:lo":"ເມືອງປະທຸມພອນ","name:uk":"Патхумпхон","name:vi":"Pathoomphone","alt_name":"Pathoumphon;Pathoumphone;Pathouphone;Pathoomphone;ປະທຸມພອນ"},"display_name":"ເມືອງປະທຸມພອນ, ຈຳປາສັກ, ປະເທດລາວ","address":{"county":"ເມືອງປະທຸມພອນ","state":"ຈຳປາສັກ","ISO3166-2-lvl4":"LA-CH","country":"ປະເທດລາວ","country_code":"la"},"osm_type":"relation","osm_id":5831748,"type":"administrative","location":[106.05425569610767,14.70784265],"bbox":[105.8446875,14.3372814,106.3574727,15.0785789]}}
{"name":"ປາກກະດິງ","other_names":{"name:en":"Pakkading","name:lo":"ປາກກະດິງ"},"display_name":"ປາກກະດິງ, ເມືອງປາກກະດິງ, ບໍລິຄຳໄຊ, ປະເທດລາວ","address":{"town":"ປາກກະດິງ","county":"ເມືອງປາກກະດິງ","state":"ບໍລິຄຳໄຊ","ISO3166-2-lvl4":"LA-BL","country":"ປະເທດລາວ","country_code":"la"},"osm_type":"node","osm_id":2529272627,"type":"town","location":[103.9934771,18.3261258],"bbox":[103.9534771,18.2861258,104.0334771,18.3661258],"border":{"name":"ເມືອງປາກກະດິງ","other_names":{"name:en":"Pakkading District","name:it":"Distretto di Pakkading","name:lo":"ປາກກະດິງ","name:th":"เมืองปากกระดิง","name:uk":"Паккадінг","name:vi":"Pakkading","alt_name":"Pakkading;Pak Kading"},"display_name":"ເມືອງປາກກະດິງ, ບໍລິຄຳໄຊ, ປະເທດລາວ","address":{"county":"ເມືອງປາກກະດິງ","state":"ບໍລິຄຳໄຊ","ISO3166-2-lvl4":"LA-BL","country":"ປະເທດລາວ","country_code":"la"},"osm_type":"relation","osm_id":5831741,"type":"administrative","location":[104.23172170594532,18.2210425],"bbox":[103.8840709,17.869779,104.4381409,18.5761561]}}
{"name":"ປາກຊ່ອງ","other_names":{"name:en":"Pakxong","name:lo":"ປາກຊ່ອງ"},"display_name":"ປາກຊ່ອງ, ເມືອງສອງຄອນ, ສະຫວັນນະເຂດ, ປະເທດລາວ","address":{"town":"ປາກຊ່ອງ","county":"ເມືອງສອງຄອນ","state":"ສະຫວັນນະເຂດ","ISO3166-2-lvl4":"LA-SV","country":"ປະເທດລາວ","country_code":"la"},"osm_type":"node","osm_id":2385107448,"type":"town","location":[105.201733,16.235826],"bbox":[105.161733,16.195826,105.241733,16.275826]}
{"name":"ປາກຊ່ອງ","other_names":{"name:en":"Paksong","name:lo":"ປາກຊ່ອງ","int_name":"Paksong","name:lo-Latn":"Pakxong"},"display_name":"ປາກຊ່ອງ, ເມືອງປາກຊ່ອງ, ຈຳປາສັກ, ປະເທດລາວ","address":{"town":"ປາກຊ່ອງ","county":"ເມືອງປາກຊ່ອງ","state":"ຈຳປາສັກ","ISO3166-2-lvl4":"LA-CH","country":"ປະເທດລາວ","country_code":"la"},"osm_type":"node","osm_id":747847031,"type":"town","location":[106.2279755,15.1799147],"bbox":[106.1879755,15.1399147,106.2679755,15.2199147],"border":{"name":"ເມືອງປາກຊ່ອງ","other_names":{"name:en":"Paksong District","name:it":"Distretto di Paksong","name:lo":"ເມືອງປາກຊ່ອງ","name:nl":"Paksong","name:pt":"Paksong","name:th":"เมืองปากช่อง","name:uk":"Паксонг","name:vi":"Paksong","alt_name":"Paksong;Pakxong;ປາກຊ່ອງ"},"display_name":"ເມືອງປາກຊ່ອງ, ຈຳປາສັກ, ປະເທດລາວ","address":{"county":"ເມືອງປາກຊ່ອງ","state":"ຈຳປາສັກ","ISO3166-2-lvl4":"LA-CH","country":"ປະເທດລາວ","country_code":"la"},"osm_type":"relation","osm_id":5831747,"type":"administrative","location":[106.4455953294478,15.07450965],"bbox":[106.0141986,14.7585402,106.8281934,15.3897086]}}
{"name":"ປາກທາ","other_names":{"name:en":"Paktha","name:lo":"ປາກທາ"},"display_name":"ປາກທາ, ເມືອງປາກທາ, ບໍ່ແກ້ວ, ປະເທດລາວ","address":{"town":"ປາກທາ","county":"ເມືອງປາກທາ","state":"ບໍ່ແກ້ວ","ISO3166-2-lvl4":"LA-BK","country":"ປະເທດລາວ","country_code":"la"},"osm_type":"node","osm_id":1322085995,"type":"town","location":[100.5980369,20.1045535],"bbox":[100.5580369,20.0645535,100.6380369,20.1445535],"border":{"name":"ເມືອງປາກທາ","other_names":{"name:en":"Paktha District","name:it":"Distretto di Pak Tha","name:lo":"ເມືອງປາກທາ","name:th":"ปากทา","name:uk":"Пактха","name:vi":"Paktha","alt_name":"Paktha;Pak Tha;Pak Tha District"},"display_name":"ເມືອງປາກທາ, ບໍ່ແກ້ວ, ປະເທດລາວ","address":{"county":"ເມືອງປາກທາ","state":"ບໍ່ແກ້ວ","ISO3166-2-lvl4":"LA-BK","country":"ປະເທດລາວ","country_code":"la"},"osm_type":"relation","osm_id":5831743,"type":"administrative","location":[100.63944758619968,19.995933],"bbox":[100.438173,19.7696277,100.77341,20.2217173]}}
{"name":"ປາກແບ່ງ","other_names":{"name:en":"Pakbeng","name:ja":"パークベン","name:lo":"ປາກແບ່ງ","name:lo-Latn":"Pakbèng"},"display_name":"ປາກແບ່ງ, ເມືອງປາກແບ່ງ, ອຸດົມໄຊ, ປະເທດລາວ","address":{"town":"ປາກແບ່ງ","county":"ເມືອງປາກແບ່ງ","state":"ອຸດົມໄຊ","ISO3166-2-lvl4":"LA-OU","country":"ປະເທດລາວ","country_code":"la"},"osm_type":"node","osm_id":573463051,"type":"town","location":[101.1363375,19.8944894],"bbox":[101.0963375,19.8544894,101.1763375,19.9344894],"border":{"name":"ເມືອງປາກແບ່ງ","other_names":{"name:en":"Pak Beng District","name:it":"Distretto di Pak Beng","name:lo":"ເມືອງປາກແບ່ງ","name:uk":"Пакбенг","name:vi":"Pakbeng","alt_name":"Pakbeng;Pakbeng District;Pak Beng"},"display_name":"ເມືອງປາກແບ່ງ, ອຸດົມໄຊ, ປະເທດລາວ","address":{"county":"ເມືອງປາກແບ່ງ","state":"ອຸດົມໄຊ","ISO3166-2-lvl4":"LA-OU","country":"ປະເທດລາວ","country_code":"la"},"osm_type":"relation","osm_id":5831740,"type":"administrative","location":[100.97379395988266,19.976193600000002],"bbox":[100.727124,19.8178249,101.4302208,20.1372257]}}
{"name":"ປາກລາຍ","other_names":{"name:en":"Paklay","name:lo":"ປາກລາຍ","name:ru":"Паклай","name:lo-Latn":"Paklay"},"display_name":"ປາກລາຍ, ເມືອງປາກລາຍ, ໄຊຍະບູລີ, ປະເທດລາວ","address":{"town":"ປາກລາຍ","county":"ເມືອງປາກລາຍ","state":"ໄຊຍະບູລີ","ISO3166-2-lvl4":"LA-XA","country":"ປະເທດລາວ","country_code":"la"},"osm_type":"node","osm_id":669621175,"type":"town","location":[101.409824,18.2224826],"bbox":[101.369824,18.1824826,101.449824,18.2624826]}
{"name":"ຜາໄຊ","other_names":{"name:en":"Phaxai","name:lo":"ຜາໄຊ"},"display_name":"ຜາໄຊ, ເມືອງຜາໄຊ, ຊຽງຂວາງ, ປະເທດລາວ","address":{"town":"ຜາໄຊ","county":"ເມືອງຜາໄຊ","state":"ຊຽງຂວາງ","ISO3166-2-lvl4":"LA-XI","country":"ປະເທດລາວ","country_code":"la"},"osm_type":"node","osm_id":1323749793,"type":"town","location":[103.092336,19.2700338],"bbox":[103.052336,19.2300338,103.132336,19.3100338],"border":{"name":"ເມືອງຜາໄຊ","other_names":{"name:en":"Phaxay District","name:it":"Distretto di Phaxay","name:lo":"ເມືອງຜາໄຊ","name:th":"เมืองผาชัย","name:uk":"Пхасай","name:vi":"Phaxay","alt_name":"Phaxai"},"display_name":"ເມືອງຜາໄຊ, ຊຽງຂວາງ, ປະເທດລາວ","address":{"county":"ເມືອງຜາໄຊ","state":"ຊຽງຂວາງ","ISO3166-2-lvl4":"LA-XI","country":"ປະເທດລາວ","country_code":"la"},"osm_type":"relation","osm_id":5831752,"type":"administrative","location":[103.04609806930054,19.28180115],"bbox":[102.8281468,19.1154669,103.3445028,19.4404281]}}
{"name":"ຜາອຸດົມ","other_names":{"name:en":"Pha-Oudom","name:lo":"ຜາອຸດົມ","name:lo-Latn":"Pha-Oudôm"},"display_name":"ຜາອຸດົມ, ເມືອງຜາອຸດົມ, ບໍ່ແກ້ວ, ປະເທດລາວ","address":{"town":"ຜາອຸດົມ","county":"ເມືອງຜາອຸດົມ","state":"ບໍ່ແກ້ວ","ISO3166-2-lvl4":"LA-BK","country":"ປະເທດລາວ","country_code":"la"},"osm_type":"node","osm_id":1322086003,"type":"town","location":[100.8245915,20.0866135],"bbox":[100.7845915,20.0466135,100.8645915,20.1266135],"border":{"name":"ເມືອງຜາອຸດົມ","other_names":{"name:en":"Pha Oudom District","name:it":"Distretto di Pha Oudom","name:lo":"ເມືອງຜາອຸດົມ","name:vi":"Pha Oudom","alt_name":"Pha-Oudom"},"display_name":"ເມືອງຜາອຸດົມ, ບໍ່ແກ້ວ, ປະເທດລາວ","address":{"county":"ເມືອງຜາອຸດົມ","state":"ບໍ່ແກ້ວ","ISO3166-2-lvl4":"LA-BK","country":"ປະເທດລາວ","country_code":"la"},"osm_type":"relation","osm_id":5831750,"type":"administrative","location":[100.96072573134512,20.197084949999997],"bbox":[100.6488066,19.9881244,101.2552881,20.4037394]}}
{"name":"ພູກູດ","other_names":{"name:en":"Phoukout","name:lo":"ພູກູດ"},"display_name":"ພູກູດ, ເມືອງພູກູດ, ຊຽງຂວາງ, ປະເທດລາວ","address":{"town":"ພູກູດ","county":"ເມືອງພູກູດ","state":"ຊຽງຂວາງ","ISO3166-2-lvl4":"LA-XI","country":"ປະເທດລາວ","country_code":"la"},"osm_type":"node","osm_id":1316289923,"type":"town","location":[102.9004782,19.5423052],"bbox":[102.8604782,19.5023052,102.9404782,19.5823052],"border":{"name":"ເມືອງພູກູດ","other_names":{"name:en":"Phou Kout District","name:it":"Distretto di Phou Kout","name:lo":"ເມືອງພູກູດ","name:th":"เมืองภูกูด","name:uk":"Пхукут","name:vi":"Phou Kout","alt_name":"Phookood District;Phookood;Phoukout"},"display_name":"ເມືອງພູກູດ, ຊຽງຂວາງ, ປະເທດລາວ","address":{"county":"ເມືອງພູກູດ","state":"ຊຽງຂວາງ","ISO3166-2-lvl4":"LA-XI","country":"ປະເທດລາວ","country_code":"la"},"osm_type":"relation","osm_id":5831760,"type":"administrative","location":[102.95296206203967,19.5908711],"bbox":[102.6509053,19.243898,103.4159629,19.9386753]}}
{"name":"ພູຄູນ","other_names":{"name:en":"Phoukhoun","name:lo":"ພູຄູນ"},"display_name":"ພູຄູນ, ເມືອງພູຄູນ, ຫລວງພະບາງ, ປະເທດລາວ","address":{"town":"ພູຄູນ","county":"ເມືອງພູຄູນ","state":"ຫລວງພະບາງ","ISO3166-2-lvl4":"LA-LP","country":"ປະເທດລາວ","country_code":"la"},"osm_type":"node","osm_id":116168747,"type":"town","location":[102.4265708,19.4399279],"bbox":[102.3865708,19.3999279,102.4665708,19.4799279],"border":{"name":"ເມືອງພູຄູນ","other_names":{"name:en":"Phoukhoune District","name:it":"Distretto di Phoukhoune","name:lo":"ເມືອງພູຄູນ","name:uk":"Пхукхун","name:vi":"Phoukhoune","alt_name":"Phoukhoun"},"display_name":"ເມືອງພູຄູນ, ຫລວງພະບາງ, ປະເທດລາວ","address":{"county":"ເມືອງພູຄູນ","state":"ຫລວງພະບາງ","ISO3166-2-lvl4":"LA-LP","country":"ປະເທດລາວ","country_code":"la"},"osm_type":"relation","osm_id":5831759,"type":"administrative","location":[102.49487537875234,19.49621475],"bbox":[102.335065,19.2158505,102.8710737,19.7753535]}}
{"name":"ພຽງ","other_names":{"name:en":"Phiang","name:lo":"ພຽງ","name:lo-Latn":"Phiang"},"display_name":"ພຽງ, ເມືອງພຽງ, ໄຊຍະບູລີ, ປະເທດລາວ","address":{"town":"ພຽງ","county":"ເມືອງພຽງ","state":"ໄຊຍະບູລີ","ISO3166-2-lvl4":"LA-XA","country":"ປະເທດລາວ","country_code":"la"},"osm_type":"node","osm_id":1330656255,"type":"town","location":[101.5089249,19.0427276],"bbox":[101.4689249,19.0027276,101.5489249,19.0827276],"border":{"name":"ເມືອງພຽງ","other_names":{"name:en":"Phiang District","name:lo":"ເມືອງພຽງ","name:vi":"Phiang","alt_name":"Phiang;Phieng"},"display_name":"ເມືອງພຽງ, ໄຊຍະບູລີ, ປະເທດລາວ","address":{"county":"ເມືອງພຽງ","state":"ໄຊຍະບູລີ","ISO3166-2-lvl4":"LA-XA","country":"ປະເທດລາວ","country_code":"la"},"osm_type":"relation","osm_id":5831753,"type":"administrative","location":[101.45591548761828,18.8761365],"bbox":[101.223803,18.5198954,101.6912572,19.2317932]}}
{"name":"ໂພນທອງ","other_names":{"name:en":"Phonethong","name:lo":"ໂພນທອງ"},"display_name":"ໂພນທອງ, ເມືອງໂພນທອງ, ຈຳປາສັກ, ປະເທດລາວ","address":{"town":"ໂພນທອງ","county":"ເມືອງໂພນທອງ","state":"ຈຳປາສັກ","ISO3166-2-lvl4":"LA-CH","country":"ປະເທດລາວ","country_code":"la"},"osm_type":"node","osm_id":3565704885,"type":"town","location":[105.653363,15.1017474],"bbox":[105.613363,15.0617474,105.693363,15.1417474]}
{"name":"ໂພນໂຮງ","other_names":{"name:en":"Phonhong","name:ja":"ポーンホーン","name:lo":"ໂພນໂຮງ","name:ru":"Пхонхонг","name:th":"เมืองโพนโฮง","name:zh":"丰洪","int_name":"Phônhông","alt_name:zh":"蓬洪; 澎湖","name:lo-Latn":"Phônhông"},"display_name":"ໂພນໂຮງ, ວຽງຈັນ, ປະເທດລາວ","address":{"town":"ໂພນໂຮງ","county":"ໂພນໂຮງ","state":"ວຽງຈັນ","ISO3166-2-lvl4":"LA-VI","country":"ປະເທດລາວ","country_code":"la"},"osm_type":"node","osm_id":300088501,"type":"town","location":[102.4166072,18.5007177],"bbox":[102.3766072,18.4607177,102.4566072,18.5407177],"border":{"name":"ໂພນໂຮງ","other_names":{"name:en":"Phonhong District","name:lo":"ໂພນໂຮງ","alt_name":"Phonhong"},"display_name":"ໂພນໂຮງ, ວຽງຈັນ, ປະເທດລາວ","address":{"county":"ໂພນໂຮງ","state":"ວຽງຈັນ","ISO3166-2-lvl4":"LA-VI","country":"ປະເທດລາວ","country_code":"la"},"osm_type":"relation","osm_id":5831756,"type":"administrative","location":[102.39428719061505,18.4702379],"bbox":[102.2331845,18.2894223,102.5014161,18.6511622]}}
{"name":"ເມິງ","other_names":{"name:en":"Meung","name:lo":"ເມິງ"},"display_name":"ເມິງ, ເມືອງເມິງ, ບໍ່ແກ້ວ, ປະເທດລາວ","address":{"town":"ເມິງ","county":"ເມືອງເມິງ","state":"ບໍ່ແກ້ວ","ISO3166-2-lvl4":"LA-BK","country":"ປະເທດລາວ","country_code":"la"},"osm_type":"node","osm_id":1322086025,"type":"town","location":[100.4587184,20.7302519],"bbox":[100.4187184,20.6902519,100.4987184,20.7702519],"border":{"name":"ເມືອງເມິງ","other_names":{"name:en":"Meung District","name:it":"Distretto di Meung","name:lo":"ເມືອງເມິງ","name:pl":"Meung","name:uk":"Мууег","name:vi":"Meung","alt_name":"Meung"},"display_name":"ເມືອງເມິງ, ບໍ່ແກ້ວ, ປະເທດລາວ","address":{"county":"ເມືອງເມິງ","state":"ບໍ່ແກ້ວ","ISO3166-2-lvl4":"LA-BK","country":"ປະເທດລາວ","country_code":"la"},"osm_type":"relation","osm_id":5831722,"type":"administrative","location":[100.50154435850523,20.66029185],"bbox":[100.1918797,20.475254,100.8439904,20.8444812]}}
{"name":"ເມືອງ ກ້ວນ","other_names":{"name:en":"Meung Quan","name:lo":"ເມືອງ ກ້ວນ"},"display_name":"ເມືອງ ກ້ວນ, ເມືອງກອັນ, ຫົວພັນ, ປະເທດລາວ","address":{"town":"ເມືອງ ກ້ວນ","county":"ເມືອງກອັນ","state":"ຫົວພັນ","ISO3166-2-lvl4":"LA-HO","country":"ປະເທດລາວ","country_code":"la"},"osm_type":"node","osm_id":5698283274,"type":"town","location":[104.5372134,19.8302923],"bbox":[104.4972134,19.7902923,104.5772134,19.8702923]}
{"name":"ເມືອງ ນອງ","other_names":{"name:en":"Muang Nong","name:lo":"ເມືອງ ນອງ"},"display_name":"ເມືອງ ນອງ, ເມືອງນອງ, ສະຫວັນນະເຂດ, ປະເທດລາວ","address":{"town":"ເມືອງ ນອງ","county":"ເມືອງນອງ","state":"ສະຫວັນນະເຂດ","ISO3166-2-lvl4":"LA-SV","country":"ປະເທດລາວ","country_code":"la"},"osm_type":"node","osm_id":2990381052,"type":"town","location":[106.4982927,16.3752632],"bbox":[106.4582927,16.3352632,106.5382927,16.4152632]}
{"name":"ເມືອງ ພີນ","other_names":{"name:en":"Muang Phin","name:lo":"ເມືອງ ພີນ"},"display_name":"ເມືອງ ພີນ, ເມືອງພີນ, ສະຫວັນນະເຂດ, ປະເທດລາວ","address":{"town":"ເມືອງ ພີນ","county":"ເມືອງພີນ","state":"ສະຫວັນນະເຂດ","ISO3166-2-lvl4":"LA-SV","country":"ປະເທດລາວ","country_code":"la"},"osm_type":"node","osm_id":2159123025,"type":"town","location":[106.0206608,16.5355517],"bbox":[105.9806608,16.4955517,106.0606608,16.5755517]}
{"name":"ເມືອງເກົ່າ","other_names":{"name:en":"Mueangkao","name:lo":"ເມືອງເກົ່າ"},"display_name":"ເມືອງເກົ່າ, ວຽງຄຳ, ວຽງຈັນ, 00000, ປະເທດລາວ","address":{"town":"ເມືອງເກົ່າ","county":"ວຽງຄຳ","state":"ວຽງຈັນ","ISO3166-2-lvl4":"LA-VI","postcode":"00000","country":"ປະເທດລາວ","country_code":"la"},"osm_type":"node","osm_id":1508154606,"type":"town","location":[102.5342054,18.4322111],"bbox":[102.4942054,18.3922111,102.5742054,18.4722111]}
{"name":"ເມືອງຄຳ","other_names":{"name:en":"Muang Kham","name:lo":"ເມືອງຄຳ","int_name":"Muang Kham"},"display_name":"ເມືອງຄຳ, ຊຽງຂວາງ, ປະເທດລາວ","address":{"town":"ເມືອງຄຳ","county":"ເມືອງຄຳ","state":"ຊຽງຂວາງ","ISO3166-2-lvl4":"LA-XI","country":"ປະເທດລາວ","country_code":"la"},"osm_type":"node","osm_id":956379454,"type":"town","location":[103.5594094,19.6338517],"bbox":[103.5194094,19.5938517,103.5994094,19.6738517],"border":{"name":"ເມືອງຄຳ","other_names":{"name:en":"Kham District","name:it":"Distretto di Kham","name:lo":"ເມືອງຄຳ","name:th":"เมืองคำ","name:uk":"Кхам","name:vi":"Kham","alt_name":"ເມືອງຄຳເກີດ"},"display_name":"ເມືອງຄຳ, ຊຽງຂວາງ, ປະເທດລາວ","address":{"county":"ເມືອງຄຳ","state":"ຊຽງຂວາງ","ISO3166-2-lvl4":"LA-XI","country":"ປະເທດລາວ","country_code":"la"},"osm_type":"relation","osm_id":5831702,"type":"administrative","location":[103.62392087307433,19.75769735],"bbox":[103.3361596,19.4738687,103.929794,20.0407609]}}
{"name":"ເມືອງຄູນ","other_names":{"name:en":"Muang Khoun","name:lo":"ເມືອງຄູນ","alt_name":"Muang Khoun"},"display_name":"ເມືອງຄູນ, ຊຽງຂວາງ, ປະເທດລາວ","address":{"town":"ເມືອງຄູນ","county":"ເມືອງຄູນ","state":"ຊຽງຂວາງ","ISO3166-2-lvl4":"LA-XI","country":"ປະເທດລາວ","country_code":"la"},"osm_type":"node","osm_id":951829046,"type":"town","location":[103.3667834,19.3338299],"bbox":[103.3267834,19.2938299,103.4067834,19.3738299],"border":{"name":"ເມືອງຄູນ","other_names":{"name:en":"Khoune District","name:it":"Distretto di Khoune","name:lo":"ເມືອງຄູນ","name:th":"เมืองคูณ","name:uk":"Кхун","name:vi":"Khoune","alt_name":"Khoun"},"display_name":"ເມືອງຄູນ, ຊຽງຂວາງ, ປະເທດລາວ","address":{"county":"ເມືອງຄູນ","state":"ຊຽງຂວາງ","ISO3166-2-lvl4":"LA-XI","country":"ປະເທດລາວ","country_code":"la"},"osm_type":"relation","osm_id":5831709,"type":"administrative","location":[103.48152359023743,19.2760002],"bbox":[103.2046636,19.0457911,103.7617021,19.5075057]}}
{"name":"ເມືອງຄົງເຊໂດນ","other_names":{"name:en":"Khongxedone","name:lo":"ເມືອງຄົງເຊໂດນ","name:ru":"Конг-Седоне","name:uk":"Кхонґседон","alt_name":"Khongxedon"},"display_name":"ເມືອງຄົງເຊໂດນ, ສາລະວັນ, ປະເທດລາວ","address":{"town":"ເມືອງຄົງເຊໂດນ","county":"ເມືອງຄົງເຊໂດນ","state":"ສາລະວັນ","ISO3166-2-lvl4":"LA-SL","country":"ປະເທດລາວ","country_code":"la"},"osm_type":"node","osm_id":4060732198,"type":"town","location":[105.8032404,15.5743092],"bbox":[105.7632404,15.5343092,105.8432404,15.6143092],"border":{"name":"ເມືອງຄົງເຊໂດນ","other_names":{"name:en":"Khongsedone District","name:it":"Distretto di Khongsedone","name:lo":"ເມືອງຄົງເຊໂດນ","name:uk":"Кхонґседон","name:vi":"Khongxedone","alt_name":"Khongxedon;Khongsedone District"},"display_name":"ເມືອງຄົງເຊໂດນ, ສາລະວັນ, ປະເທດລາວ","address":{"county":"ເມືອງຄົງເຊໂດນ","state":"ສາລະວັນ","ISO3166-2-lvl4":"LA-SL","country":"ປະເທດລາວ","country_code":"la"},"osm_type":"relation","osm_id":5831707,"type":"administrative","location":[105.78325902172591,15.55511775],"bbox":[105.590867,15.4243701,105.9553844,15.6866979]}}
{"name":"ເມືອງງາ","other_names":{"name:en":"Muang Nga","name:lo":"ເມືອງງາ","name:zh":"孟阿"},"display_name":"ເມືອງງາ, ອຸດົມໄຊ, ປະເທດລາວ","address":{"town":"ເມືອງງາ","county":"ເມືອງງາ","state":"ອຸດົມໄຊ","ISO3166-2-lvl4":"LA-OU","country":"ປະເທດລາວ","country_code":"la"},"osm_type":"node","osm_id":2244084365,"type":"town","location":[101.9757884,20.2792356],"bbox":[101.9357884,20.2392356,102.0157884,20.3192356],"border":{"name":"ເມືອງງາ","other_names":{"name:en":"Nga District","name:it":"Distretto di Nga","name:lo":"ເມືອງງາ","name:th":"เมืองงา","name:uk":"Нга","name:vi":"Nga, Oudomxay","alt_name":"Nga"},"display_name":"ເມືອງງາ, ອຸດົມໄຊ, ປະເທດລາວ","address":{"county":"ເມືອງງາ","state":"ອຸດົມໄຊ","ISO3166-2-lvl4":"LA-OU","country":"ປະເທດລາວ","country_code":"la"},"osm_type":"relation","osm_id":5831731,"type":"administrative","location":[102.00167297499999,20.19313055],"bbox":[101.5874409,19.858756,102.205206,20.5269799]}}
{"name":"ເມືອງຈອມເພັດ","other_names":{"name:en":"Muang Chomphet","name:lo":"ເມືອງຈອມເພັດ","name:lo-Latn":"Muang Chomphét"},"display_name":"ເມືອງຈອມເພັດ, ຫລວງພະບາງ, 10554, ປະເທດລາວ","address":{"town":"ເມືອງຈອມເພັດ","county":"ເມືອງຈອມເພັດ","state":"ຫລວງພະບາງ","ISO3166-2-lvl4":"LA-LP","postcode":"10554","country":"ປະເທດລາວ","country_code":"la"},"osm_type":"node","osm_id":1316262091,"type":"town","location":[102.117032,19.9121619],"bbox":[102.077032,19.8721619,102.157032,19.9521619],"border":{"name":"ເມືອງຈອມເພັດ","other_names":{"name:en":"Chomphet District","name:it":"Distretto di Chomphet","name:lo":"ເມືອງຈອມເພັດ","name:uk":"Чомпхет","name:vi":"Chomphet","alt_name":"Chomphet"},"display_name":"ເມືອງຈອມເພັດ, ຫລວງພະບາງ, ປະເທດລາວ","address":{"county":"ເມືອງຈອມເພັດ","state":"ຫລວງພະບາງ","ISO3166-2-lvl4":"LA-LP","country":"ປະເທດລາວ","country_code":"la"},"osm_type":"relation","osm_id":5831684,"type":"administrative","location":[101.90452777338683,19.859884450000003],"bbox":[101.7223839,19.6309586,102.2409154,20.0902692]}}
{"name":"ເມືອງຈຳພອນ","other_names":{"name:en":"Muang Champhon","name:lo":"ເມືອງຈຳພອນ"},"display_name":"ເມືອງຈຳພອນ, ສະຫວັນນະເຂດ, ປະເທດລາວ","address":{"town":"ເມືອງຈຳພອນ","county":"ເມືອງຈຳພອນ","state":"ສະຫວັນນະເຂດ","ISO3166-2-lvl4":"LA-SV","country":"ປະເທດລາວ","country_code":"la"},"osm_type":"node","osm_id":2544564714,"type":"town","location":[105.1997916,16.4409727],"bbox":[105.1597916,16.4009727,105.2397916,16.4809727],"border":{"name":"ເມືອງຈຳພອນ","other_names":{"name:en":"Champhone District","name:it":"Distretto di Champhone","name:lo":"ເມືອງຈຳພອນ","name:uk":"Чампхон","name:vi":"Champhone","alt_name":"Champhon;Champhone"},"display_name":"ເມືອງຈຳພອນ, ສະຫວັນນະເຂດ, ປະເທດລາວ","address":{"county":"ເມືອງຈຳພອນ","state":"ສະຫວັນນະເຂດ","ISO3166-2-lvl4":"LA-SV","country":"ປະເທດລາວ","country_code":"la"},"osm_type":"relation","osm_id":5831682,"type":"administrative","location":[105.2185693619833,16.4903005],"bbox":[104.9930324,16.3110788,105.4690677,16.6683129]}}
{"name":"ເມືອງສິງ","other_names":{"name:en":"Muang Sing","name:es":"Muang Sing","name:lo":"ເມືອງສິງ"},"display_name":"ເມືອງສິງ, ເມືອງສີງ, ຫລວງນໍ້າທາ, ປະເທດລາວ","address":{"town":"ເມືອງສິງ","county":"ເມືອງສີງ","state":"ຫລວງນໍ້າທາ","ISO3166-2-lvl4":"LA-LM","country":"ປະເທດລາວ","country_code":"la"},"osm_type":"node","osm_id":297704490,"type":"town","location":[101.1485711,21.1888866],"bbox":[101.1085711,21.1488866,101.1885711,21.2288866],"border":{"name":"ເມືອງສີງ","other_names":{"name:de":"Muang Sing","name:en":"Sing District","name:fi":"Muang Sing","name:it":"Distretto di Sing","name:lo":"ເມືອງສີງ","name:th":"เมืองสิงห์","name:vi":"Sing","alt_name":"Sing;Mueang Sing"},"display_name":"ເມືອງສີງ, ຫລວງນໍ້າທາ, ປະເທດລາວ","address":{"county":"ເມືອງສີງ","state":"ຫລວງນໍ້າທາ","ISO3166-2-lvl4":"LA-LM","country":"ປະເທດລາວ","country_code":"la"},"osm_type":"relation","osm_id":5831771,"type":"administrative","location":[101.05779021518875,21.27071975],"bbox":[100.8447821,20.97449,101.2874071,21.564628]}}
{"name":"ເມືອງທ່າປາງທອງ","other_names":{"name:en":"Muang Thapangthong","name:lo":"ເມືອງ ທ່າປາງທອງ"},"display_name":"ເມືອງທ່າປາງທອງ, ສະຫວັນນະເຂດ, ປະເທດລາວ","address":{"town":"ເມືອງທ່າປາງທອງ","county":"ເມືອງທ່າປາງທອງ","state":"ສະຫວັນນະເຂດ","ISO3166-2-lvl4":"LA-SV","country":"ປະເທດລາວ","country_code":"la"},"osm_type":"node","osm_id":2995303541,"type":"town","location":[105.7451094,15.9940061],"bbox":[105.7051094,15.9540061,105.7851094,16.0340061],"border":{"name":"ເມືອງທ່າປາງທອງ","other_names":{"name:en":"Thapangthong District","name:it":"Distretto di Thapangthong","name:lo":"ເມືອງທ່າປາງທອງ","name:uk":"Тхапангтхонг","name:vi":"Thapangthong","alt_name":"Thapangthong;Thapanthong"},"display_name":"ເມືອງທ່າປາງທອງ, ສະຫວັນນະເຂດ, ປະເທດລາວ","address":{"county":"ເມືອງທ່າປາງທອງ","state":"ສະຫວັນນະເຂດ","ISO3166-2-lvl4":"LA-SV","country":"ປະເທດລາວ","country_code":"la"},"osm_type":"relation","osm_id":5831778,"type":"administrative","location":[105.79499607181651,16.09912565],"bbox":[105.5113377,15.8767864,106.1486771,16.3199232]}}
{"name":"ເມືອງນານ","other_names":{"name:en":"Muang Nan","name:lo":"ເມືອງນານ"},"display_name":"ເມືອງນານ, ຫລວງພະບາງ, ປະເທດລາວ","address":{"town":"ເມືອງນານ","county":"ເມືອງນານ","state":"ຫລວງພະບາງ","ISO3166-2-lvl4":"LA-LP","country":"ປະເທດລາວ","country_code":"la"},"osm_type":"node","osm_id":889689568,"type":"town","location":[101.8792661,19.4940813],"bbox":[101.8392661,19.4540813,101.9192661,19.5340813],"border":{"name":"ເມືອງນານ","other_names":{"name:en":"Nane District","name:it":"Distretto di Nane","name:lo":"ເມືອງນານ","name:vi":"Nane","alt_name":"ນານ;Nan;Nane"},"display_name":"ເມືອງນານ, ຫລວງພະບາງ, ປະເທດລາວ","address":{"county":"ເມືອງນານ","state":"ຫລວງພະບາງ","ISO3166-2-lvl4":"LA-LP","country":"ປະເທດລາວ","country_code":"la"},"osm_type":"relation","osm_id":5831729,"type":"administrative","location":[101.97049133066778,19.348472649999998],"bbox":[101.7954234,19.0422543,102.1463924,19.6550581]}}
{"name":"ເມືອງນາແລ","other_names":{"name:en":"Muang Nale","name:lo":"ເມືອງນາແລ","name:lo-Latn":"Muang Nalè"},"display_name":"ເມືອງນາແລ, ຫລວງນໍ້າທາ, ປະເທດລາວ","address":{"town":"ເມືອງນາແລ","county":"ເມືອງນາແລ","state":"ຫລວງນໍ້າທາ","ISO3166-2-lvl4":"LA-LM","country":"ປະເທດລາວ","country_code":"la"},"osm_type":"node","osm_id":1319742858,"type":"town","location":[101.4471808,20.5322736],"bbox":[101.4071808,20.4922736,101.4871808,20.5722736],"border":{"name":"ເມືອງນາແລ","other_names":{"name:en":"Nale District","name:it":"Distretto di Na Le","name:lo":"ເມືອງນາແລ","name:th":"เมืองนาแล","name:uk":"Нале","name:vi":"Na Le","alt_name":"Nale"},"display_name":"ເມືອງນາແລ, ຫລວງນໍ້າທາ, ປະເທດລາວ","address":{"county":"ເມືອງນາແລ","state":"ຫລວງນໍ້າທາ","ISO3166-2-lvl4":"LA-LM","country":"ປະເທດລາວ","country_code":"la"},"osm_type":"relation","osm_id":5831726,"type":"administrative","location":[101.41749704361834,20.547642500000002],"bbox":[101.0129534,20.3015951,101.573223,20.7911381]}}
{"name":"ເມືອງນ້ຳບາກ","other_names":{"name:en":"Muang Nambak","name:lo":"ເມືອງນ້ຳບາກ"},"display_name":"ເມືອງນ້ຳບາກ, ຫລວງພະບາງ, ປະເທດລາວ","address":{"town":"ເມືອງນ້ຳບາກ","county":"ເມືອງນ້ຳບາກ","state":"ຫລວງພະບາງ","ISO3166-2-lvl4":"LA-LP","country":"ປະເທດລາວ","country_code":"la"},"osm_type":"node","osm_id":1316260398,"type":"town","location":[102.462369,20.6307572],"bbox":[102.422369,20.5907572,102.502369,20.6707572],"border":{"name":"ເມືອງນ້ຳບາກ","other_names":{"name:en":"Nam Bak District","name:it":"Distretto di Nam Bak","name:lo":"ເມືອງນ້ຳບາກ","name:uk":"Намбак","name:vi":"Nambak","alt_name":"Nambak"},"display_name":"ເມືອງນ້ຳບາກ, ຫລວງພະບາງ, ປະເທດລາວ","address":{"county":"ເມືອງນ້ຳບາກ","state":"ຫລວງພະບາງ","ISO3166-2-lvl4":"LA-LP","country":"ປະເທດລາວ","country_code":"la"},"osm_type":"relation","osm_id":5831727,"type":"administrative","location":[102.3913966964403,20.59539565],"bbox":[102.1374198,20.2357617,102.6560487,20.9561033]}}
{"name":"ເມືອງປາກແຊງ","other_names":{"name:en":"Muang Pakxeng","name:lo":"ເມືອງປາກແຊງ","alt_name":"Pak Seng","name:lo-Latn":"Muang Pakxèng"},"display_name":"ເມືອງປາກແຊງ, ຫລວງພະບາງ, ປະເທດລາວ","address":{"town":"ເມືອງປາກແຊງ","county":"ເມືອງປາກແຊງ","state":"ຫລວງພະບາງ","ISO3166-2-lvl4":"LA-LP","country":"ປະເທດລາວ","country_code":"la"},"osm_type":"node","osm_id":299982133,"type":"town","location":[102.6676467,20.1665946],"bbox":[102.6276467,20.1265946,102.7076467,20.2065946],"border":{"name":"ເມືອງປາກແຊງ","other_names":{"name:en":"Pak Seng District","name:it":"Distretto di Pak Seng","name:lo":"ເມືອງປາກແຊງ","name:uk":"Паксенг","name:vi":"Pak Xeng","alt_name":"Pakxeng"},"display_name":"ເມືອງປາກແຊງ, ຫລວງພະບາງ, ປະເທດລາວ","address":{"county":"ເມືອງປາກແຊງ","state":"ຫລວງພະບາງ","ISO3166-2-lvl4":"LA-LP","country":"ປະເທດລາວ","country_code":"la"},"osm_type":"relation","osm_id":5831746,"type":"administrative","location":[102.64007336684153,20.206026700000002],"bbox":[102.3108106,19.9742409,102.9944208,20.4395172]}}
{"name":"ເມືອງປາກອູ","other_names":{"name:en":"Muang Pak Ou","name:lo":"ເມືອງປາກອູ","name:alt":"Pakou"},"display_name":"ເມືອງປາກອູ, ເມືອງປາກອ, ຫລວງພະບາງ, ປະເທດລາວ","address":{"town":"ເມືອງປາກອູ","county":"ເມືອງປາກອ","state":"ຫລວງພະບາງ","ISO3166-2-lvl4":"LA-LP","country":"ປະເທດລາວ","country_code":"la"},"osm_type":"node","osm_id":1316252891,"type":"town","location":[102.2149095,20.054237],"bbox":[102.1749095,20.014237,102.2549095,20.094237],"border":{"name":"ເມືອງປາກອ","other_names":{"name:en":"Pak Ou District","name:it":"Distretto di Pak Ou","name:lo":"ເມືອງປາກອູ","name:uk":"Парку","name:vi":"Pak Ou","alt_name":"Pak-Ou"},"display_name":"ເມືອງປາກອ, ຫລວງພະບາງ, ປະເທດລາວ","address":{"county":"ເມືອງປາກອ","state":"ຫລວງພະບາງ","ISO3166-2-lvl4":"LA-LP","country":"ປະເທດລາວ","country_code":"la"},"osm_type":"relation","osm_id":5831739,"type":"administrative","location":[102.30421678267986,20.13789775],"bbox":[102.1426496,19.9517172,102.5188875,20.3236292]}}
{"display_name":"ເມືອງພູຄູນ, ຫລວງພະບາງ, ປະເທດລາວ","address":{"county":"ເມືອງພູຄູນ","state":"ຫລວງພະບາງ","ISO3166-2-lvl4":"LA-LP","country":"ປະເທດລາວ","country_code":"la"},"osm_type":"node","osm_id":5241397757,"type":"town","location":[102.5934327,19.4715589],"bbox":[102.5534327,19.4315589,102.6334327,19.5115589]}
{"display_name":"ເມືອງພູວົງ, ອັດຕະປື, ປະເທດລາວ","address":{"county":"ເມືອງພູວົງ","state":"ອັດຕະປື","ISO3166-2-lvl4":"LA-AT","country":"ປະເທດລາວ","country_code":"la"},"osm_type":"node","osm_id":6041845048,"type":"town","location":[106.7169106,14.6429672],"bbox":[106.6769106,14.6029672,106.7569106,14.6829672]}
{"name":"ເມືອງໂພນໄຊ","other_names":{"name:en":"Muang Phonxai","name:lo":"ເມືອງໂພນໄຊ","name:lo-Latn":"Muang Phônxai"},"display_name":"ເມືອງໂພນໄຊ, ຫລວງພະບາງ, ປະເທດລາວ","address":{"town":"ເມືອງໂພນໄຊ","county":"ເມືອງໂພນໄຊ","state":"ຫລວງພະບາງ","ISO3166-2-lvl4":"LA-LP","country":"ປະເທດລາວ","country_code":"la"},"osm_type":"node","osm_id":1316236205,"type":"town","location":[102.54488,19.9486294],"bbox":[102.50488,19.9086294,102.58488,19.9886294],"border":{"name":"ເມືອງໂພນໄຊ","other_names":{"name:en":"Phonxay District","name:it":"Distretto di Phonxay","name:lo":"ເມືອງໂພນໄຊ","name:uk":"Пхонсай","name:vi":"Phonxay","alt_name":"Phonxai"},"display_name":"ເມືອງໂພນໄຊ, ຫລວງພະບາງ, ປະເທດລາວ","address":{"county":"ເມືອງໂພນໄຊ","state":"ຫລວງພະບາງ","ISO3166-2-lvl4":"LA-LP","country":"ປະເທດລາວ","country_code":"la"},"osm_type":"relation","osm_id":5831758,"type":"administrative","location":[102.78448004755877,19.8844672],"bbox":[102.3291594,19.6754752,103.1417763,20.0946692]}}
{"name":"ເມືອງໃໝ່","other_names":{"name:en":"Muang Mai","name:lo":"ເມືອງໃໝ່"},"display_name":"ເມືອງໃໝ່, ເມືອງໃໝ, ຜົ້ງສາລີ, ປະເທດລາວ","address":{"town":"ເມືອງໃໝ່","county":"ເມືອງໃໝ","state":"ຜົ້ງສາລີ","ISO3166-2-lvl4":"LA-PH","country":"ປະເທດລາວ","country_code":"la"},"osm_type":"node","osm_id":1319731496,"type":"town","location":[102.7232947,21.1718308],"bbox":[102.6832947,21.1318308,102.7632947,21.2118308],"border":{"name":"ເມືອງໃໝ","other_names":{"name:en":"May District","name:it":"Distretto di Mai","name:lo":"ເມືອງໃໝ່","name:th":"เมืองใหม่","name:uk":"Май","name:vi":"May","alt_name":"Mai"},"display_name":"ເມືອງໃໝ, ຜົ້ງສາລີ, ປະເທດລາວ","address":{"county":"ເມືອງໃໝ","state":"ຜົ້ງສາລີ","ISO3166-2-lvl4":"LA-PH","country":"ປະເທດລາວ","country_code":"la"},"osm_type":"relation","osm_id":5831720,"type":"administrative","location":[102.715891277791,21.424077349999997],"bbox":[102.465382,21.0017132,102.9928735,21.846469]}}
{"name":"ເມືອງຫລາ","other_names":{"name:en":"Muang La","name:lo":"ເມືອງຫລາ"},"display_name":"ເມືອງຫລາ, ເມືອງຫຼາ, ອຸດົມໄຊ, ປະເທດລາວ","address":{"town":"ເມືອງຫລາ","county":"ເມືອງຫຼາ","state":"ອຸດົມໄຊ","ISO3166-2-lvl4":"LA-OU","country":"ປະເທດລາວ","country_code":"la"},"osm_type":"node","osm_id":1319746951,"type":"town","location":[102.1196803,20.8686497],"bbox":[102.0796803,20.8286497,102.1596803,20.9086497]}
{"name":"ເມືອງແອດ","other_names":{"name:en":"Muang Et","name:lo":"ເມືອງແອດ","name:lo-Latn":"Muang Èt"},"display_name":"ເມືອງແອດ, ຫົວພັນ, ປະເທດລາວ","address":{"town":"ເມືອງແອດ","county":"ເມືອງແອດ","state":"ຫົວພັນ","ISO3166-2-lvl4":"LA-HO","country":"ປະເທດລາວ","country_code":"la"},"osm_type":"node","osm_id":1322135909,"type":"town","location":[104.0057814,20.8203924],"bbox":[103.9657814,20.7803924,104.0457814,20.8603924],"border":{"name":"ເມືອງແອດ","other_names":{"name:en":"Et District","name:it":"Distretto di Et","name:lo":"ເມືອງແອດ","name:vi":"Et","alt_name":"Et"},"display_name":"ເມືອງແອດ, ຫົວພັນ, ປະເທດລາວ","address":{"county":"ເມືອງແອດ","state":"ຫົວພັນ","ISO3166-2-lvl4":"LA-HO","country":"ປະເທດລາວ","country_code":"la"},"osm_type":"relation","osm_id":5831686,"type":"administrative","location":[103.88800654663007,20.730106650000003],"bbox":[103.6578541,20.5475335,104.1015022,20.9133295]}}
{"name":"ລອງ","other_names":{"name:en":"Muang Long","name:lo":"ລອງ","name:lo-Latn":"Muang Long"},"display_name":"ລອງ, ເມືອງລອງ, ຫລວງນໍ້າທາ, ປະເທດລາວ","address":{"town":"ລອງ","county":"ເມືອງລອງ","state":"ຫລວງນໍ້າທາ","ISO3166-2-lvl4":"LA-LM","country":"ປະເທດລາວ","country_code":"la"},"osm_type":"node","osm_id":297699233,"type":"town","location":[100.8209453,20.9633104],"bbox":[100.7809453,20.9233104,100.8609453,21.0033104]}
{"name":"ລະຫານ້ຳທົ່ງ","other_names":{"name:en":"Lahanam-Thong","name:lo":"ລະຫານ້ຳທົ່ງ"},"display_name":"ລະຫານ້ຳທົ່ງ, ເມືອງສອງຄອນ, ສະຫວັນນະເຂດ, ປະເທດລາວ","address":{"town":"ລະຫານ້ຳທົ່ງ","county":"ເມືອງສອງຄອນ","state":"ສະຫວັນນະເຂດ","ISO3166-2-lvl4":"LA-SV","country":"ປະເທດລາວ","country_code":"la"},"osm_type":"node","osm_id":2385113068,"type":"town","location":[105.2668116,16.2706716],"bbox":[105.2268116,16.2306716,105.3068116,16.3106716]}
{"name":"ເລົ່າຄໍ","other_names":{"name:en":"Lao Kham","name:lo":"ເລົ່າຄໍ"},"display_name":"ເລົ່າຄໍ, ເມືອງເລົ່າງາມ, ສາລະວັນ, ປະເທດລາວ","address":{"town":"ເລົ່າຄໍ","county":"ເມືອງເລົ່າງາມ","state":"ສາລະວັນ","ISO3166-2-lvl4":"LA-SL","country":"ປະເທດລາວ","country_code":"la"},"osm_type":"node","osm_id":3572848600,"type":"town","location":[106.1650062,15.463196],"bbox":[106.1250062,15.423196,106.2050062,15.503196]}
{"name":"ວັງວຽງ","other_names":{"name:en":"Vang Vieng","name:es":"Vang Vieng","name:ja":"ヴァンヴィエン","name:ko":"방비엥","name:lo":"ວັງວຽງ","name:zh":"万荣","alt_name:ko":"왕위앙","alt_name:zh":"萬榮","name:lo-Latn":"Vangviang"},"display_name":"ວັງວຽງ, ວຽງຈັນ, 00008, ປະເທດລາວ","address":{"town":"ວັງວຽງ","county":"ວັງວຽງ","state":"ວຽງຈັນ","ISO3166-2-lvl4":"LA-VI","postcode":"00008","country":"ປະເທດລາວ","country_code":"la"},"osm_type":"node","osm_id":1452955147,"type":"town","location":[102.4477333,18.9194213],"bbox":[102.4077333,18.8794213,102.4877333,18.9594213],"border":{"name":"ວັງວຽງ","other_names":{"name:en":"Vangvieng District","name:he":"ואנג ויינג","name:lo":"ວັງວຽງ","alt_name":"Vangvieng;Vangviang"},"display_name":"ວັງວຽງ, ວຽງຈັນ, ປະເທດລາວ","address":{"county":"ວັງວຽງ","state":"ວຽງຈັນ","ISO3166-2-lvl4":"LA-VI","country":"ປະເທດລາວ","country_code":"la"},"osm_type":"relation","osm_id":5831786,"type":"administrative","location":[102.44369264442491,18.920577100000003],"bbox":[102.2403783,18.6262367,102.631701,19.2164325]}}
{"name":"ວາປີ","other_names":{"name:en":"Vapy","name:lo":"ວາປີ"},"display_name":"ວາປີ, ເມືອງວາປີ, ສາລະວັນ, ປະເທດລາວ","address":{"town":"ວາປີ","county":"ເມືອງວາປີ","state":"ສາລະວັນ","ISO3166-2-lvl4":"LA-SL","country":"ປະເທດລາວ","country_code":"la"},"osm_type":"node","osm_id":3869062344,"type":"town","location":[105.9077627,15.6665553],"bbox":[105.8677627,15.6265553,105.9477627,15.7065553],"border":{"name":"ເມືອງວາປີ","other_names":{"name:en":"Vapy District","name:it":"Distretto di Vapi","name:lo":"ເມືອງວາປ","name:th":"เมืองวาปี","name:uk":"Вапі","name:vi":"Vapy","alt_name":"Vapi;Vapy"},"display_name":"ເມືອງວາປີ, ສາລະວັນ, ປະເທດລາວ","address":{"county":"ເມືອງວາປີ","state":"ສາລະວັນ","ISO3166-2-lvl4":"LA-SL","country":"ປະເທດລາວ","country_code":"la"},"osm_type":"relation","osm_id":5831787,"type":"administrative","location":[105.97054550688041,15.75349495],"bbox":[105.7877748,15.5401517,106.1190966,15.9654683]}}
{"name":"ວີລະບຸລີ","other_names":{"name:en":"Vilabouly","name:lo":"ວີລະບຸລີ"},"display_name":"ວີລະບຸລີ, ເມືອງວີລະບຸລີ, ສະຫວັນນະເຂດ, ປະເທດລາວ","address":{"town":"ວີລະບຸລີ","county":"ເມືອງວີລະບຸລີ","state":"ສະຫວັນນະເຂດ","ISO3166-2-lvl4":"LA-SV","country":"ປະເທດລາວ","country_code":"la"},"osm_type":"node","osm_id":2159794474,"type":"town","location":[105.9492817,16.9723049],"bbox":[105.9092817,16.9323049,105.9892817,17.0123049]}
{"name":"ວຽງຄຳ","other_names":{"name:en":"Vieng Kham","name:lo":"ວຽງຄຳ","name:lo-Latn":"Viangkham"},"display_name":"ວຽງຄຳ, ເມືອງວຽງຄຳ, ຫລວງພະບາງ, ປະເທດລາວ","address":{"town":"ວຽງຄຳ","county":"ເມືອງວຽງຄຳ","state":"ຫລວງພະບາງ","ISO3166-2-lvl4":"LA-LP","country":"ປະເທດລາວ","country_code":"la"},"osm_type":"node","osm_id":299980495,"type":"town","location":[102.8764991,20.450144],"bbox":[102.8364991,20.410144,102.9164991,20.490144],"border":{"name":"ເມືອງວຽງຄຳ","other_names":{"name:en":"Viengkham District","name:it":"Distretto di Viengkham","name:lo":"ວຽງຄຳ","name:th":"เวียงคำ","name:uk":"В'єнгкхам","name:vi":"Viengkham","alt_name":"Viangkham"},"display_name":"ເມືອງວຽງຄຳ, ຫລວງພະບາງ, ປະເທດລາວ","address":{"county":"ເມືອງວຽງຄຳ","state":"ຫລວງພະບາງ","ISO3166-2-lvl4":"LA-LP","country":"ປະເທດລາວ","country_code":"la"},"osm_type":"relation","osm_id":5831788,"type":"administrative","location":[103.02825340297076,20.36278665],"bbox":[102.7737311,20.0214167,103.2426325,20.703446]}}
{"name":"ວຽງໄຊ","other_names":{"name:en":"Vieng Xai","name:ja":"ヴィエンサイ","name:lo":"ວຽງໄຊ","name:lo-Latn":"Viangxai"},"display_name":"ວຽງໄຊ, ຫົວພັນ, ປະເທດລາວ","address":{"town":"ວຽງໄຊ","county":"ວຽງໄຊ","state":"ຫົວພັນ","ISO3166-2-lvl4":"LA-HO","country":"ປະເທດລາວ","country_code":"la"},"osm_type":"node","osm_id":369504881,"type":"town","location":[104.2277162,20.410941],"bbox":[104.1877162,20.370941,104.2677162,20.450941],"border":{"name":"ວຽງໄຊ","other_names":{"name:en":"Viengxay District","name:it":"Distretto di Viengxay","name:lo":"ວຽງໄຊ","name:uk":"В'єнгсай","name:vi":"Viengxay","alt_name":"Viangxai;ເມືອງວຽງໄຊ"},"display_name":"ວຽງໄຊ, ຫົວພັນ, ປະເທດລາວ","address":{"county":"ວຽງໄຊ","state":"ຫົວພັນ","ISO3166-2-lvl4":"LA-HO","country":"ປະເທດລາວ","country_code":"la"},"osm_type":"relation","osm_id":5831791,"type":"administrative","location":[104.28445927181517,20.3885327],"bbox":[104.1241111,20.1411148,104.7197812,20.6356868]}}
{"name":"ວຽງທອງ","other_names":{"name:en":"Viengthong","name:lo":"ວຽງທອງ","alt_name":"Vieng Thong"},"display_name":"ວຽງທອງ, ເມືອງວຽງທອງ, ບໍລິຄຳໄຊ, ປະເທດລາວ","address":{"town":"ວຽງທອງ","county":"ເມືອງວຽງທອງ","state":"ບໍລິຄຳໄຊ","ISO3166-2-lvl4":"LA-BL","country":"ປະເທດລາວ","country_code":"la"},"osm_type":"node","osm_id":2372213960,"type":"town","location":[104.4452839,18.5179852],"bbox":[104.4052839,18.4779852,104.4852839,18.5579852],"border":{"name":"ເມືອງວຽງທອງ","other_names":{"name:en":"Viengthong District","name:lo":"ວຽງທອງ","name:th":"เมืองเวียงทอง","name:uk":"В'єнгтхонг","name:vi":"Viengthong","alt_name":"Viengthong"},"display_name":"ເມືອງວຽງທອງ, ບໍລິຄຳໄຊ, ປະເທດລາວ","address":{"county":"ເມືອງວຽງທອງ","state":"ບໍລິຄຳໄຊ","ISO3166-2-lvl4":"LA-BL","country":"ປະເທດລາວ","country_code":"la"},"osm_type":"relation","osm_id":5831793,"type":"administrative","location":[104.35362074800865,18.701586050000003],"bbox":[104.0295287,18.278689,104.7048427,19.12116]}}
{"name":"ວຽງທອງ","other_names":{"name:en":"Viangthong","name:lo":"ວຽງທອງ"},"display_name":"ວຽງທອງ, ເມືອງຮ້ຽມ, ຫົວພັນ, ປະເທດລາວ","address":{"town":"ວຽງທອງ","county":"ເມືອງຮ້ຽມ","state":"ຫົວພັນ","ISO3166-2-lvl4":"LA-HO","country":"ປະເທດລາວ","country_code":"la"},"osm_type":"node","osm_id":297938211,"type":"town","location":[103.3716122,20.0885595],"bbox":[103.3316122,20.0485595,103.4116122,20.1285595]}
{"name":"ວຽງພູຄາ","other_names":{"name:en":"Vieng Phouka","name:lo":"ວຽງພູຄາ","int_name":"Vieng Phouka","alt_name:en":"Vieng Phoukha"},"display_name":"ວຽງພູຄາ, ເມືອງວຽງພູຄາ, ຫລວງນໍ້າທາ, ປະເທດລາວ","address":{"town":"ວຽງພູຄາ","county":"ເມືອງວຽງພູຄາ","state":"ຫລວງນໍ້າທາ","ISO3166-2-lvl4":"LA-LM","country":"ປະເທດລາວ","country_code":"la"},"osm_type":"node","osm_id":1319742868,"type":"town","location":[101.0612304,20.6779314],"bbox":[101.0212304,20.6379314,101.1012304,20.7179314]}
{"name":"ໜອງແຮດ","other_names":{"name:en":"Nonghet","name:lo":"ໜອງແຮດ","name:lo-Latn":"Nonghèt"},"display_name":"ໜອງແຮດ, ເມືອງໜອງແຮດ, ຊຽງຂວາງ, ປະເທດລາວ","address":{"town":"ໜອງແຮດ","county":"ເມືອງໜອງແຮດ","state":"ຊຽງຂວາງ","ISO3166-2-lvl4":"LA-XI","country":"ປະເທດລາວ","country_code":"la"},"osm_type":"node","osm_id":1323497124,"type":"town","location":[103.9856014,19.4978695],"bbox":[103.9456014,19.4578695,104.0256014,19.5378695],"border":{"name":"ເມືອງໜອງແຮດ","other_names":{"name:en":"Nong Het District","name:it":"Distretto di Nong Het","name:lo":"ເມືອງໜອງແຮດ","name:th":"เมืองหนองแฮด","name:uk":"Нонгхет","name:vi":"Nong Het","alt_name":"Nonghet;Nonghed;Nonghed District;Nong Het"},"display_name":"ເມືອງໜອງແຮດ, ຊຽງຂວາງ, ປະເທດລາວ","address":{"county":"ເມືອງໜອງແຮດ","state":"ຊຽງຂວາງ","ISO3166-2-lvl4":"LA-XI","country":"ປະເທດລາວ","country_code":"la"},"osm_type":"relation","osm_id":5831736,"type":"administrative","location":[103.90634082633,19.5958029],"bbox":[103.5773597,19.297463,104.1833098,19.8938659]}}
{"name":"ຫລັກ ໒໐","other_names":{"name:en":"Lak Sao","name:lo":"ຫລັກ ໒໐","alt_name":"Kham Keut;Khamkued;Kham Koed"},"display_name":"ຫລັກ ໒໐, ເມືອງຄຳເກີດ, ບໍລິຄຳໄຊ, ປະເທດລາວ","address":{"town":"ຫລັກ ໒໐","county":"ເມືອງຄຳເກີດ","state":"ບໍລິຄຳໄຊ","ISO3166-2-lvl4":"LA-BL","country":"ປະເທດລາວ","country_code":"la"},"osm_type":"node","osm_id":2660869169,"type":"town","location":[104.9704073,18.1941289],"bbox":[104.9304073,18.1541289,105.0104073,18.2341289],"border":{"name":"ເມືອງຄຳເກີດ","other_names":{"name:en":"Khamkeut District","name:it":"Distretto di Khamkeut","name:lo":"ຄຳເກີດ","name:th":"เมืองคำเกิด","name:uk":"Кхамкхеутх","name:vi":"Khamkeuth","alt_name":"Kham Keut;Khamkued;Kham Koed"},"display_name":"ເມືອງຄຳເກີດ, ບໍລິຄຳໄຊ, ປະເທດລາວ","address":{"county":"ເມືອງຄຳເກີດ","state":"ບໍລິຄຳໄຊ","ISO3166-2-lvl4":"LA-BL","country":"ປະເທດລາວ","country_code":"la"},"osm_type":"relation","osm_id":5831703,"type":"administrative","location":[104.90079414856237,18.2168328],"bbox":[104.3897055,17.932365,105.2588078,18.502463]}}
{"name":"ຫິນເຫີບ","other_names":{"name:en":"Hinheup","name:lo":"ຫິນເຫີບ","name:zh":"欣合","alt_name":"Hinherp","name:lo-Latn":"Hinheup"},"display_name":"ຫິນເຫີບ, ຫີນເຫີບ, ວຽງຈັນ, ປະເທດລາວ","address":{"town":"ຫິນເຫີບ","county":"ຫີນເຫີບ","state":"ວຽງຈັນ","ISO3166-2-lvl4":"LA-VI","country":"ປະເທດລາວ","country_code":"la"},"osm_type":"node","osm_id":300073903,"type":"town","location":[102.3279347,18.639151],"bbox":[102.2879347,18.599151,102.3679347,18.679151],"border":{"name":"ຫີນເຫີບ","other_names":{"name:en":"Hinhurp District","name:lo":"ຫີນເຫີບ","name:vi":"Hinhurp","alt_name":"Hinheup;Hinherb;ເມືອງຫີນເຫີບ"},"display_name":"ຫີນເຫີບ, ວຽງຈັນ, ປະເທດລາວ","address":{"county":"ຫີນເຫີບ","state":"ວຽງຈັນ","ISO3166-2-lvl4":"LA-VI","country":"ປະເທດລາວ","country_code":"la"},"osm_type":"relation","osm_id":5831692,"type":"administrative","location":[102.29982524341887,18.6369629],"bbox":[102.0350143,18.3826621,102.4909791,18.906037]}}
{"name":"ຫົງສາ","other_names":{"name:en":"Hongsa","name:lo":"ຫົງສາ","name:vi":"Hongsa"},"display_name":"ຫົງສາ, ເມືອງຫົງສາ, ໄຊຍະບູລີ, ປະເທດລາວ","address":{"town":"ຫົງສາ","county":"ເມືອງຫົງສາ","state":"ໄຊຍະບູລີ","ISO3166-2-lvl4":"LA-XA","country":"ປະເທດລາວ","country_code":"la"},"osm_type":"node","osm_id":1330653259,"type":"town","location":[101.3408219,19.7068104],"bbox":[101.3008219,19.6668104,101.3808219,19.7468104],"border":{"name":"ເມືອງຫົງສາ","other_names":{"name:en":"Hongsa District","name:lo":"ເມືອງຫົງສາ","name:vi":"Hongsa","alt_name":"Hongsa"},"display_name":"ເມືອງຫົງສາ, ໄຊຍະບູລີ, ປະເທດລາວ","address":{"county":"ເມືອງຫົງສາ","state":"ໄຊຍະບູລີ","ISO3166-2-lvl4":"LA-XA","country":"ປະເທດລາວ","country_code":"la"},"osm_type":"relation","osm_id":5831694,"type":"administrative","location":[101.49307290630499,19.7245638],"bbox":[101.2427422,19.5161204,101.7754807,19.9355227]}}
{"name":"ຫົວເມືອງ","other_names":{"name:en":"Houamuang","name:lo":"ຫົວເມືອງ"},"display_name":"ຫົວເມືອງ, ຫົວພັນ, ປະເທດລາວ","address":{"town":"ຫົວເມືອງ","county":"ຫົວເມືອງ","state":"ຫົວພັນ","ISO3166-2-lvl4":"LA-HO","country":"ປະເທດລາວ","country_code":"la"},"osm_type":"node","osm_id":1322135912,"type":"town","location":[103.8852827,20.1979714],"bbox":[103.8452827,20.1579714,103.9252827,20.2379714],"border":{"name":"ຫົວເມືອງ","other_names":{"name:en":"Houameuang District","name:it":"Distretto di Huameuang","name:lo":"ຫົວເມືອງ","name:uk":"Хуамеуанг","name:vi":"Huameuang","alt_name":"Houamuang;Houameuang"},"display_name":"ຫົວເມືອງ, ຫົວພັນ, ປະເທດລາວ","address":{"county":"ຫົວເມືອງ","state":"ຫົວພັນ","ISO3166-2-lvl4":"LA-HO","country":"ປະເທດລາວ","country_code":"la"},"osm_type":"relation","osm_id":5831695,"type":"administrative","location":[103.84244990947334,20.06849715],"bbox":[103.4936244,19.7882608,104.1661354,20.3514713]}}
{"name":"ຮູນ","other_names":{"name:en":"Houn","name:lo":"ຮູນ"},"display_name":"ຮູນ, ເມືອງຮຸນ, ອຸດົມໄຊ, ປະເທດລາວ","address":{"town":"ຮູນ","county":"ເມືອງຮຸນ","state":"ອຸດົມໄຊ","ISO3166-2-lvl4":"LA-OU","country":"ປະເທດລາວ","country_code":"la"},"osm_type":"node","osm_id":1319746955,"type":"town","location":[101.4603741,20.1469318],"bbox":[101.4203741,20.1069318,101.5003741,20.1869318],"border":{"name":"ເມືອງຮຸນ","other_names":{"name:en":"Houne District","name:it":"Distretto di Houne","name:lo":"ເມືອງຮຸນ","name:uk":"Хун (район)","name:vi":"Houne","alt_name":"Houn;Houne District;Houn District"},"display_name":"ເມືອງຮຸນ, ອຸດົມໄຊ, ປະເທດລາວ","address":{"county":"ເມືອງຮຸນ","state":"ອຸດົມໄຊ","ISO3166-2-lvl4":"LA-OU","country":"ປະເທດລາວ","country_code":"la"},"osm_type":"relation","osm_id":5831697,"type":"administrative","location":[101.4672145418042,20.0944998],"bbox":[101.155359,19.8242174,101.7608394,20.3653324]}}
{"name":"ໄຮ່","other_names":{"name:en":"Hai","name:lo":"ໄຮ່"},"display_name":"ໄຮ່, ເມືອງປາກງື່ມ, ນະຄອນຫຼວງວຽງຈັນ, ປະເທດລາວ","address":{"town":"ໄຮ່","county":"ເມືອງປາກງື່ມ","state":"ນະຄອນຫຼວງວຽງຈັນ","ISO3166-2-lvl4":"LA-VT","country":"ປະເທດລາວ","country_code":"la"},"osm_type":"node","osm_id":792342789,"type":"town","location":[103.0580628,18.1699357],"bbox":[103.0180628,18.1299357,103.0980628,18.2099357]}
