{"name":"Афон Ҿыц","other_names":{"name:ab":"Афон Ҿыц","name:az":"Yeni Afon","name:be":"Новы Афон","name:ca":"Nou Atos","name:ce":"Керла Афон","name:cs":"Nový Athos","name:cu":"Новꙑи Аѳѡнъ","name:cv":"Çĕнĕ Афон","name:de":"Nowy Afon","name:el":"Νέος Άθως","name:en":"New Athos","name:eo":"Aĥali Atoni","name:es":"Novi Afón","name:et":"Novõi Afon","name:fa":"نیو آتوس","name:fi":"Novyi Afon","name:fr":"Nouvel Athos","name:gl":"Nova Athos","name:hr":"Novi Atos","name:hy":"Նոր Աֆոն","name:id":"Afon Baru","name:it":"Nuovo Athos","name:ja":"ノヴィ・アフォン","name:ka":"ახალი ათონი","name:ko":"노비 아폰","name:kv":"Выль Афон","name:lt":"Naujasis Atonas","name:lv":"Afončhica","name:nl":"Nieuw Athos","name:os":"Ног Афон","name:pl":"Nowy Aton","name:pt":"Nova Atos","name:ru":"Новый Афон","name:sk":"Achali Atoni","name:sr":"Нови Атос","name:sv":"Afon Tjyts","name:tr":"Yeni Afon","name:tt":"Яңа Афон","name:uk":"Новий Афон","name:ur":"نیا آتھوس","name:uz":"Yangi Athos","name:zh":"新阿豐","name:xmf":"ახალი ათონი","old_name":"Nikopol;Acheisos;Anakopia;Nikopia;Nikofia;Nikopsis;Absara;Psyrtskha","alt_name:en":"Novy Afon, Afon Chyts","alt_name:ru":"Афон чыц"},"display_name":"Афон Ҿыц, Гәдоуҭа араион, აფხაზეთის ავტონომიური რესპუბლიკა - Аԥснытәи Автономтә Республика, Абхазия - Аԥсны, საქართველო","address":{"town":"Афон Ҿыц","region":"Гәдоуҭа араион","state":"აფხაზეთის ავტონომიური რესპუბლიკა - Аԥснытәи Автономтә Республика","ISO3166-2-lvl4":"GE-AB","country":"Абхазия - Аԥсны","ISO3166-2-lvl3":"GE-AB","country_code":"ge"},"population":1539,"osm_type":"node","osm_id":34395497,"type":"town","location":[40.8138974,43.0881819],"bbox":[40.7738974,43.0481819,40.8538974,43.1281819],"border":{"name":"Афон Ҿыц","other_names":{"name:ab":"Афон Ҿыц","name:de":"Nowy Afon","name:el":"Νέος Άθως","name:en":"New Athos","name:fr":"Nouvel Athos","name:hy":"Նոր Աֆոն","name:it":"Nuovo Athos","name:ka":"ახალი ათონი","name:pl":"Nowy Aton","name:ru":"Новый Афон","name:sr":"Нови Атос","name:tr":"Yeni Afon","name:uk":"Новий Афон","name:xmf":"ახალი ათონი","old_name":"Nikopol;Acheisos;Anakopia;Nikopia;Nikofia;Nikopsis;Absara;Psyrtskha","alt_name:en":"Novy Afon, Afon Chyts","alt_name:ru":"Афон чыц","name:az":"Yeni Afon","name:be":"Новы Афон","name:ca":"Nou Atos","name:ce":"Керла Афон","name:cs":"Nový Athos","name:cu":"Новꙑи Аѳѡнъ","name:cv":"Çĕнĕ Афон","name:eo":"Aĥali Atoni","name:es":"Novi Afón","name:et":"Novõi Afon","name:fa":"نیو آتوس","name:fi":"Novyi Afon","name:gl":"Nova Athos","name:hr":"Novi Atos","name:id":"Afon Baru","name:ja":"ノヴィ・アフォン","name:ko":"노비 아폰","name:kv":"Выль Афон","name:lt":"Naujasis Atonas","name:lv":"Afončhica","name:nl":"Nieuw Athos","name:os":"Ног Афон","name:pt":"Nova Atos","name:sk":"Achali Atoni","name:sv":"Afon Tjyts","name:tt":"Яңа Афон","name:ur":"نیا آتھوس","name:uz":"Yangi Athos","name:zh":"新阿豐"},"display_name":"Афон Ҿыц, Гәдоуҭа араион, აფხაზეთის ავტონომიური რესპუბლიკა - Аԥснытәи Автономтә Республика, Абхазия - Аԥсны, საქართველო","address":{"town":"Афон Ҿыц","region":"Гәдоуҭа араион","state":"აფხაზეთის ავტონომიური რესპუბლიკა - Аԥснытәи Автономтә Республика","ISO3166-2-lvl4":"GE-AB","country":"Абхазия - Аԥсны","ISO3166-2-lvl3":"GE-AB","country_code":"ge"},"population":1539,"osm_type":"relation","osm_id":2612381,"type":"administrative","location":[40.8138974,43.0881819],"bbox":[40.7878773,43.0756861,40.881685,43.1064905]}}
{"name":"Гагра","other_names":{"name:ab":"Гагра","name:an":"Gagra","name:ar":"غاغرا","name:az":"Qaqra","name:ca":"Gagra","name:cs":"Gagra","name:cy":"Gagra","name:da":"Gagra","name:de":"Gagra","name:el":"Γκάγκρα","name:en":"Gagra","name:eo":"Gagra","name:es":"Gagra","name:et":"Gagra","name:eu":"Gagra","name:fa":"گاگرا","name:fi":"Gagra","name:fr":"Gagra","name:he":"גגרה","name:hr":"Gagra","name:hu":"Gagra","name:hy":"Գագրա","name:id":"Gagra","name:io":"Gagra","name:it":"Gagra","name:ja":"ガグラ","name:ka":"გაგრა","name:ko":"가그라","name:lt":"Gagra","name:lv":"Gagra","name:ml":"ഗഗ്ര","name:ms":"Gagra","name:nb":"Gagra","name:nl":"Gagra (stad)","name:os":"Гагрæ","name:pl":"Gagra","name:pt":"Gagra","name:ro":"Gagra","name:ru":"Гагра","name:sk":"Gagra","name:sl":"Gagra","name:sv":"Gagra","name:ta":"கக்ரா நகரம்","name:th":"กากรา","name:tr":"Gagra","name:uk":"Ґаґра","name:ur":"گاگرا","name:uz":"Gagra","name:vi":"Gagra","name:zh":"加格拉"},"display_name":"Гагра, Гагра араион, აფხაზეთის ავტონომიური რესპუბლიკა - Аԥснытәи Автономтә Республика, Абхазия - Аԥсны, საქართველო","address":{"town":"Гагра","region":"Гагра араион","state":"აფხაზეთის ავტონომიური რესპუბლიკა - Аԥснытәи Автономтә Республика","ISO3166-2-lvl4":"GE-AB","country":"Абхазия - Аԥсны","ISO3166-2-lvl3":"GE-AB","country_code":"ge"},"population":15700,"osm_type":"node","osm_id":1643098992,"type":"town","location":[40.2582275,43.2964532],"bbox":[40.2182275,43.2564532,40.2982275,43.3364532],"border":{"name":"Гагра","other_names":{"name:ab":"Гагра","name:de":"Gagra","name:el":"Γκάγκρα","name:en":"Gagra","name:et":"Gagra","name:fr":"Gagra","name:hy":"Գագրա","name:ka":"გაგრა","name:ml":"ഗഗ്ര","name:ru":"Гагра","name:uk":"Ґаґра"},"display_name":"Гагра, Гагра араион, აფხაზეთის ავტონომიური რესპუბლიკა - Аԥснытәи Автономтә Республика, Абхазия - Аԥсны, საქართველო","address":{"town":"Гагра","region":"Гагра араион","state":"აფხაზეთის ავტონომიური რესპუბლიკა - Аԥснытәи Автономтә Республика","ISO3166-2-lvl4":"GE-AB","country":"Абхазия - Аԥсны","ISO3166-2-lvl3":"GE-AB","country_code":"ge"},"osm_type":"relation","osm_id":2612405,"type":"administrative","location":[40.26846983800224,43.289035999999996],"bbox":[40.2431123,43.2573593,40.2868859,43.3205075]}}
{"name":"Гал","other_names":{"name:ab":"Гал","name:de":"Gal","name:en":"Gal","name:ka":"გალი","name:ru":"Гал","old_name:en":"Gali","old_name:es":"Gali","old_name:fr":"Gali","old_name:ru":"Гали"},"display_name":"Гал, Гал араион, აფხაზეთის ავტონომიური რესპუბლიკა - Аԥснытәи Автономтә Республика, Абхазия - Аԥсны, 354000, საქართველო","address":{"town":"Гал","region":"Гал араион","state":"აფხაზეთის ავტონომიური რესპუბლიკა - Аԥснытәи Автономтә Республика","ISO3166-2-lvl4":"GE-AB","country":"Абхазия - Аԥсны","ISO3166-2-lvl3":"GE-AB","postcode":"354000","country_code":"ge"},"population":7605,"osm_type":"node","osm_id":286418976,"type":"town","location":[41.737236,42.628948],"bbox":[41.697236,42.588948,41.777236,42.668948],"border":{"name":"Гал","other_names":{"name:ab":"Гал","name:de":"Gal","name:en":"Gal","name:ka":"გალი","name:ru":"Гал","old_name:en":"Gali","old_name:es":"Gali","old_name:fr":"Gali","old_name:ru":"Гали"},"display_name":"Гал, Гал араион, აფხაზეთის ავტონომიური რესპუბლიკა - Аԥснытәи Автономтә Республика, Абхазия - Аԥсны, 354000, საქართველო","address":{"town":"Гал","region":"Гал араион","state":"აფხაზეთის ავტონომიური რესპუბლიკა - Аԥснытәи Автономтә Республика","ISO3166-2-lvl4":"GE-AB","country":"Абхазия - Аԥсны","ISO3166-2-lvl3":"GE-AB","postcode":"354000","country_code":"ge"},"population":7605,"osm_type":"relation","osm_id":17078254,"type":"administrative","location":[41.737236,42.628948],"bbox":[41.7108016,42.6070483,41.7877092,42.6434489]}}
{"name":"Гәдоуҭа","other_names":{"name:ab":"Гәдоуҭа","name:de":"Gudauta","name:en":"Gudauta","name:fr":"Goudaouta","name:hy":"Գուդաութա","name:ka":"გუდაუთა","name:lt":"Gudauta","name:ml":"ഗുഡൗട്ട","name:ru":"Гудаута","name:uk":"Ґудаута"},"display_name":"Гәдоуҭа, Гәдоуҭа араион, აფხაზეთის ავტონომიური რესპუბლიკა - Аԥснытәи Автономтә Республика, Абхазия - Аԥсны, საქართველო","address":{"town":"Гәдоуҭа","region":"Гәдоуҭа араион","state":"აფხაზეთის ავტონომიური რესპუბლიკა - Аԥснытәи Автономтә Республика","ISO3166-2-lvl4":"GE-AB","country":"Абхазия - Аԥсны","ISO3166-2-lvl3":"GE-AB","country_code":"ge"},"population":7700,"osm_type":"node","osm_id":286418463,"type":"town","location":[40.6244745,43.102722],"bbox":[40.5844745,43.062722,40.6644745,43.142722],"border":{"name":"Гәдоуҭа","other_names":{"name:ab":"Гәдоуҭа","name:de":"Gudauta","name:en":"Gudauta","name:fr":"Goudaouta","name:hy":"Գուդաութա","name:ka":"გუდაუთა","name:lt":"Gudauta","name:ml":"ഗുഡൗട്ട","name:ru":"Гудаута","name:uk":"Ґудаута"},"display_name":"Гәдоуҭа, Гәдоуҭа араион, აფხაზეთის ავტონომიური რესპუბლიკა - Аԥснытәи Автономтә Республика, Абхазия - Аԥсны, საქართველო","address":{"town":"Гәдоуҭа","region":"Гәдоуҭа араион","state":"აფხაზეთის ავტონომიური რესპუბლიკა - Аԥснытәи Автономтә Республика","ISO3166-2-lvl4":"GE-AB","country":"Абхазия - Аԥсны","ISO3166-2-lvl3":"GE-AB","country_code":"ge"},"population":7700,"osm_type":"relation","osm_id":18528077,"type":"town","location":[40.6244745,43.102722],"bbox":[40.6054851,43.0929144,40.6523052,43.119213]}}
{"name":"Гәылрыԥшь","other_names":{"name:ab":"Гәылрыԥшь","name:de":"Gulripsch","name:en":"Gulrypsh","name:fr":"Goulrypch","name:ka":"გულრიფში","name:pl":"Gulripsz","name:ru":"Гулрыпш","name:uk":"Гулрипш","official_name:ru":"Гулрыпш"},"display_name":"Гәылрыԥшь, Гәылрыԥшь араион, აფხაზეთის ავტონომიური რესპუბლიკა - Аԥснытәи Автономтә Республика, Абхазия - Аԥсны, საქართველო","address":{"town":"Гәылрыԥшь","region":"Гәылрыԥшь араион","state":"აფხაზეთის ავტონომიური რესპუბლიკა - Аԥснытәи Автономтә Республика","ISO3166-2-lvl4":"GE-AB","country":"Абхазия - Аԥсны","ISO3166-2-lvl3":"GE-AB","country_code":"ge"},"population":3910,"osm_type":"node","osm_id":1636165000,"type":"town","location":[41.1027197,42.9290997],"bbox":[41.0627197,42.8890997,41.1427197,42.9690997],"border":{"name":"Гәылрыԥшь","other_names":{"name:ab":"Гәылрыԥшь","name:de":"Gulripsch","name:en":"Gulrypsh","name:fr":"Goulrypch","name:ka":"გულრიფში","name:pl":"Gulripsz","name:ru":"Гулрыпш","name:uk":"Гулрипш","official_name:ru":"Гулрыпш"},"display_name":"Гәылрыԥшь, Гәылрыԥшь араион, აფხაზეთის ავტონომიური რესპუბლიკა - Аԥснытәи Автономтә Республика, Абхазия - Аԥсны, საქართველო","address":{"town":"Гәылрыԥшь","region":"Гәылрыԥшь араион","state":"აფხაზეთის ავტონომიური რესპუბლიკა - Аԥснытәи Автономтә Республика","ISO3166-2-lvl4":"GE-AB","country":"Абхазия - Аԥсны","ISO3166-2-lvl3":"GE-AB","country_code":"ge"},"population":3910,"osm_type":"relation","osm_id":2632304,"type":"town","location":[41.1027197,42.9290997],"bbox":[41.0878653,42.9221115,41.1115481,42.9350605]}}
{"name":"Дзау","other_names":{"name:de":"Dsau","name:en":"Java","name:ka":"ჯავა","name:ml":"ജാവ","name:os":"Дзау","name:pl":"Dżawa","name:ru":"Дзау","name:uk":"Джава","alt_name:ru":"Джава","old_name:ru":"Джава"},"display_name":"Дзау, Дзауы район, Хуссар Ирыстон - Южная Осетия, საქართველო","address":{"town":"Дзау","county":"Дзауы район","country":"Хуссар Ирыстон - Южная Осетия","country_code":"ge"},"population":2111,"osm_type":"node","osm_id":448897340,"type":"town","location":[43.9229967,42.3904458],"bbox":[43.8829967,42.3504458,43.9629967,42.4304458],"border":{"name":"Дзау","other_names":{"name:de":"Dsau","name:en":"Java","name:ka":"ჯავა","name:os":"Дзау","name:pl":"Dżawa","name:ru":"Дзау","name:uk":"Джава","alt_name:ru":"Джава","old_name:ru":"Джава","name:ml":"ജാവ"},"display_name":"Дзау, Дзауы район, Хуссар Ирыстон - Южная Осетия, საქართველო","address":{"town":"Дзау","county":"Дзауы район","country":"Хуссар Ирыстон - Южная Осетия","country_code":"ge"},"population":2111,"osm_type":"way","osm_id":170196329,"type":"town","location":[43.9229967,42.3904458],"bbox":[43.9124459,42.3784994,43.9449692,42.4059751]}}
{"name":"Къуайса","other_names":{"name:de":"Kwaissa","name:en":"Kvaisa","name:ka":"კვაისა","name:os":"Къуайса","name:ru":"Квайса","name:uk":"Квайса","int_name":"Kvaisa"},"display_name":"Къуайса, Хуссар Ирыстон - Южная Осетия, საქართველო","address":{"town":"Къуайса","country":"Хуссар Ирыстон - Южная Осетия","country_code":"ge"},"population":917,"osm_type":"node","osm_id":480705092,"type":"town","location":[43.6468291,42.521516],"bbox":[43.6068291,42.481516,43.6868291,42.561516],"border":{"name":"Къуайса","other_names":{"name:de":"Kwaissa","name:en":"Kvaisa","name:ka":"კვაისა","name:os":"Къуайса","name:ru":"Квайса","name:uk":"Квайса","int_name":"Kvaisa"},"display_name":"Къуайса, Хуссар Ирыстон - Южная Осетия, საქართველო","address":{"town":"Къуайса","country":"Хуссар Ирыстон - Южная Осетия","country_code":"ge"},"population":917,"osm_type":"relation","osm_id":15788129,"type":"administrative","location":[43.6468291,42.521516],"bbox":[43.6431185,42.5187058,43.6559953,42.5293566]}}
{"name":"Ленингор","other_names":{"name:de":"Achalgori","name:en":"Akhalgori","name:he":"אחלגורי","name:ka":"ახალგორი","name:lt":"Achalgoris","name:ml":"ലെനിൻഗോർ","name:os":"Ленингор","name:pl":"Akhalgori","name:ru":"Ленингор","name:uk":"Ахалгори","name:xmf":"ახალგორი","old_name:os":"Ахалгур","old_name:ru":"Ахалгори"},"display_name":"Ленингор, Ленингоры район, Хуссар Ирыстон - Южная Осетия, საქართველო","address":{"town":"Ленингор","county":"Ленингоры район","country":"Хуссар Ирыстон - Южная Осетия","country_code":"ge"},"population":1033,"osm_type":"node","osm_id":387180719,"type":"town","location":[44.4851837,42.1218994],"bbox":[44.4451837,42.0818994,44.5251837,42.1618994],"border":[{"name":"Ленингор","other_names":{"name:de":"Leningor","name:en":"Leningor","name:ka":"ახალგორი","name:lt":"Achalgoris","name:os":"Ленингор","name:ru":"Ленингор","old_name:de":"Achalgori","old_name:en":"Akhalgori","old_name:os":"Ахалгур","old_name:ru":"Ахалгори"},"display_name":"Ленингор, Ленингоры район, Хуссар Ирыстон - Южная Осетия, საქართველო","address":{"town":"Ленингор","county":"Ленингоры район","country":"Хуссар Ирыстон - Южная Осетия","country_code":"ge"},"osm_type":"way","osm_id":323631537,"type":"town","location":[44.482169640824736,42.12442885],"bbox":[44.4754713,42.1129916,44.4888702,42.1363814]},{"name":"Ленингор","other_names":{"name:de":"Leningor","name:en":"Leningor","name:ka":"ახალგორი","name:os":"Ленингор","name:ru":"Ленингор","name:he":"אחלגורי","name:lt":"Achalgoris","name:ml":"ലെനിൻഗോർ","name:pl":"Akhalgori","name:uk":"Ахалгори","name:xmf":"ახალგორი","old_name:os":"Ахалгур","old_name:ru":"Ахалгори","alt:de":"Achalgori","alt:en":"Akhalgori"},"display_name":"Ленингор, Ленингоры район, Хуссар Ирыстон - Южная Осетия, საქართველო","address":{"town":"Ленингор","county":"Ленингоры район","country":"Хуссар Ирыстон - Южная Осетия","country_code":"ge"},"population":1033,"osm_type":"relation","osm_id":2537351,"type":"administrative","location":[44.4851837,42.1218994],"bbox":[44.2614587,42.0228059,44.6252026,42.5276791]}]}
{"name":"Очамчыра","other_names":{"name:ab":"Очамчыра","name:be":"Ачамчыре","name:de":"Otschamtschire","name:en":"Ochamchyra","name:es":"Ochamchire","name:fr":"Otchamtchiré","name:ka":"ოჩამჩირე","name:ml":"ഓച്ചംചിറ","name:pl":"Oczamczire","name:ru":"Очамчыра","alt_name:de":"Otschamtschire","alt_name:fr":"Otchamtchira;Otchamtchire","old_name:en":"Ochamchire","old_name:ru":"Очамчира"},"display_name":"Очамчыра, Очамчыра араион, აფხაზეთის ავტონომიური რესპუბლიკა - Аԥснытәи Автономтә Республика, Абхазия - Аԥсны, საქართველო","address":{"town":"Очамчыра","region":"Очамчыра араион","state":"აფხაზეთის ავტონომიური რესპუბლიკა - Аԥснытәи Автономтә Республика","ISO3166-2-lvl4":"GE-AB","country":"Абхазия - Аԥсны","ISO3166-2-lvl3":"GE-AB","country_code":"ge"},"population":5276,"osm_type":"node","osm_id":513363722,"type":"town","location":[41.4721354,42.7121136],"bbox":[41.4321354,42.6721136,41.5121354,42.7521136],"border":{"name":"Очамчыра","other_names":{"name:ab":"Очамчыра","name:be":"Ачамчыре","name:de":"Otschamtschire","name:en":"Ochamchyra","name:es":"Ochamchire","name:fr":"Otchamtchiré","name:ka":"ოჩამჩირე","name:pl":"Oczamczire","name:ru":"Очамчыра","alt_name:de":"Otschamtschire","alt_name:fr":"Otchamtchira;Otchamtchire","old_name:en":"Ochamchire","old_name:ru":"Очамчира","name:ml":"ഓച്ചംചിറ"},"display_name":"Очамчыра, Очамчыра араион, აფხაზეთის ავტონომიური რესპუბლიკა - Аԥснытәи Автономтә Республика, Абхазия - Аԥсны, საქართველო","address":{"town":"Очамчыра","region":"Очамчыра араион","state":"აფხაზეთის ავტონომიური რესპუბლიკა - Аԥснытәи Автономтә Республика","ISO3166-2-lvl4":"GE-AB","country":"Абхазия - Аԥсны","ISO3166-2-lvl3":"GE-AB","country_code":"ge"},"population":5276,"osm_type":"relation","osm_id":2646014,"type":"town","location":[41.4721354,42.7121136],"bbox":[41.4514863,42.6996333,41.4912,42.7272329]}}
{"name":"Ԥицунда","other_names":{"name:ab":"Ԥицунда","name:de":"Pizunda","name:en":"Pitsunda","name:fr":"Pitsounda","name:it":"Pezonda","name:ka":"ბიჭვინთა","name:lt":"Picunda","name:ru":"Пицунда","name:tr":"Pitsunda","name:uk":"Піцунда","alt_name:fr":"Bitchvinta","alt_name:tr":"Biçvinta"},"display_name":"Ԥицунда, Пицунда, Гагра араион, აფხაზეთის ავტონომიური რესპუბლიკა - Аԥснытәи Автономтә Республика, Абхазия - Аԥсны, საქართველო","address":{"town":"Ԥицунда","region":"Гагра араион","state":"აფხაზეთის ავტონომიური რესპუბლიკა - Аԥснытәи Автономтә Республика","ISO3166-2-lvl4":"GE-AB","country":"Абхазия - Аԥсны","ISO3166-2-lvl3":"GE-AB","country_code":"ge"},"population":7000,"osm_type":"node","osm_id":34185745,"type":"town","location":[40.3372158,43.1597674],"bbox":[40.2972158,43.1197674,40.3772158,43.1997674],"border":{"name":"Пицунда","other_names":{"name:ab":"Пицунда","name:de":"Pizunda","name:en":"Pitsunda","name:hy":"Պիցունդա","name:ka":"ბიჭვინთა","name:ru":"Пицунда","name:uk":"Піцунда","name:fr":"Pitsounda","name:it":"Pezonda","name:lt":"Picunda","name:tr":"Pitsunda","alt_name:fr":"Bitchvinta","alt_name:tr":"Biçvinta","alt":"Ԥицунда","alt:ab":"Ԥицунда"},"display_name":"Пицунда, Гагра араион, აფხაზეთის ავტონომიური რესპუბლიკა - Аԥснытәи Автономтә Республика, Абхазия - Аԥсны, საქართველო","address":{"town":"Пицунда","region":"Гагра араион","state":"აფხაზეთის ავტონომიური რესპუბლიკა - Аԥснытәи Автономтә Республика","ISO3166-2-lvl4":"GE-AB","country":"Абхазия - Аԥсны","ISO3166-2-lvl3":"GE-AB","country_code":"ge"},"population":7000,"osm_type":"relation","osm_id":2625159,"type":"town","location":[40.3372158,43.1597674],"bbox":[40.328105,43.1519123,40.3499482,43.1721621]}}
{"name":"Тҟәарчал","other_names":{"name:ab":"Тҟәарчал","name:en":"Tqwarchal","name:fr":"Tkouartchal","name:ka":"ტყვარჩელი","name:ru":"Ткуарчал","int_name":"Tkvarcheli","name:xmf":"ტყვარჩელი","alt_name:ru":"Ткварчел","old_name:de":"Tqwartscheli","old_name:en":"Tkvarcheli","old_name:fr":"Tkvartchéli","old_name:hy":"Տղվարչել","old_name:ru":"Ткварчели","old_name:uk":"Ткварчелi"},"display_name":"Тҟәарчал, Тҟәарчал араион, აფხაზეთის ავტონომიური რესპუბლიკა - Аԥснытәи Автономтә Республика, Абхазия - Аԥсны, საქართველო","address":{"town":"Тҟәарчал","region":"Тҟәарчал араион","state":"აფხაზეთის ავტონომიური რესპუბლიკა - Аԥснытәи Автономтә Республика","ISO3166-2-lvl4":"GE-AB","country":"Абхазия - Аԥсны","ISO3166-2-lvl3":"GE-AB","country_code":"ge"},"population":5013,"osm_type":"node","osm_id":286420246,"type":"town","location":[41.68263,42.8471066],"bbox":[41.64263,42.8071066,41.72263,42.8871066],"border":{"name":"Тҟәарчал","other_names":{"name:ab":"Тҟәарчал","name:en":"Tqwarchal","name:fr":"Tkouartchal","name:ka":"ტყვარჩელი","name:ru":"Ткуарчал","int_name":"Tkvarcheli","name:xmf":"ტყვარჩელი","alt_name:ru":"Ткварчел","old_name:de":"Tqwartscheli","old_name:en":"Tkvarcheli","old_name:fr":"Tkvartchéli","old_name:hy":"Տղվարչել","old_name:ru":"Ткварчели","old_name:uk":"Ткварчелi"},"display_name":"Тҟәарчал, Тҟәарчал араион, აფხაზეთის ავტონომიური რესპუბლიკა - Аԥснытәи Автономтә Республика, Абхазия - Аԥсны, საქართველო","address":{"town":"Тҟәарчал","region":"Тҟәарчал араион","state":"აფხაზეთის ავტონომიური რესპუბლიკა - Аԥснытәи Автономтә Республика","ISO3166-2-lvl4":"GE-AB","country":"Абхазия - Аԥсны","ISO3166-2-lvl3":"GE-AB","country_code":"ge"},"population":5013,"osm_type":"relation","osm_id":17075197,"type":"administrative","location":[41.68263,42.8471066],"bbox":[41.6511869,42.7991912,41.947058,42.988451]}}
{"name":"აბასთუმანი","other_names":{"name:de":"Abastumani","name:en":"Abastumani","name:et":"Abasthumani","name:hy":"Աբասթուման","name:ka":"აბასთუმანი","name:lt":"Abastumanis","name:pl":"Abastumani","name:pt":"Abass-Tumàn","name:ru":"Абастумани","name:sr":"Абастумани","name:tr":"Abastumani","name:uk":"Абастумані","name:xmf":"აბასთუმანი"},"display_name":"აბასთუმანი, ადიგენის მუნიციპალიტეტი, სამცხე-ჯავახეთი, საქართველო","address":{"town":"აბასთუმანი","county":"ადიგენის მუნიციპალიტეტი","state":"სამცხე-ჯავახეთი","ISO3166-2-lvl4":"GE-SJ","country":"საქართველო","country_code":"ge"},"population":579,"osm_type":"node","osm_id":457440730,"type":"town","location":[42.8319346,41.7535704],"bbox":[42.7919346,41.7135704,42.8719346,41.7935704],"border":{"name":"აბასთუმანი","other_names":{"name:de":"Abastumani","name:en":"Abastumani","name:et":"Abasthumani","name:hy":"Աբասթուման","name:ka":"აბასთუმანი","name:lt":"Abastumanis","name:pl":"Abastumani","name:pt":"Abass-Tumàn","name:ru":"Абастумани","name:sr":"Абастумани","name:tr":"Abastumani","name:uk":"Абастумані","name:xmf":"აბასთუმანი"},"display_name":"აბასთუმანი, ადიგენის მუნიციპალიტეტი, სამცხე-ჯავახეთი, საქართველო","address":{"town":"აბასთუმანი","county":"ადიგენის მუნიციპალიტეტი","state":"სამცხე-ჯავახეთი","ISO3166-2-lvl4":"GE-SJ","country":"საქართველო","country_code":"ge"},"population":664,"osm_type":"relation","osm_id":18807848,"type":"town","location":[42.8319346,41.7535704],"bbox":[42.8106239,41.720529,42.8468406,41.7868634]}}
{"name":"აბაშა","other_names":{"name:de":"Abascha","name:en":"Abasha","name:ka":"აბაშა","name:lt":"Abaša","name:ru":"Абаша","name:sr":"Абаша","name:uk":"Абаша","name:xmf":"აბაშა"},"display_name":"აბაშა, აბაშის მუნიციპალიტეტი, სამეგრელო-ზემო სვანეთი, საქართველო","address":{"town":"აბაშა","county":"აბაშის მუნიციპალიტეტი","state":"სამეგრელო-ზემო სვანეთი","ISO3166-2-lvl4":"GE-SZ","country":"საქართველო","country_code":"ge"},"population":4133,"osm_type":"node","osm_id":375718539,"type":"town","location":[42.2033321,42.2049284],"bbox":[42.1633321,42.1649284,42.2433321,42.2449284],"border":[{"name":"აბაშა","other_names":{"name:de":"Abascha","name:en":"Abasha","name:ka":"აბაშა","name:ru":"Абаша","name:sr":"Абаша","int_name":"Abasha","name:lt":"Abaša","name:uk":"Абаша","name:xmf":"აბაშა"},"display_name":"აბაშა, აბაშის მუნიციპალიტეტი, სამეგრელო-ზემო სვანეთი, საქართველო","address":{"town":"აბაშა","county":"აბაშის მუნიციპალიტეტი","state":"სამეგრელო-ზემო სვანეთი","ISO3166-2-lvl4":"GE-SZ","country":"საქართველო","country_code":"ge"},"population":4396,"osm_type":"relation","osm_id":15061105,"type":"town","location":[42.2033321,42.2049284],"bbox":[42.1856654,42.1945738,42.2309303,42.2203977]},{"name":"აბაშის მუნიციპალიტეტი","other_names":{"name:de":"Munizipalität Abascha","name:en":"Abasha Municipality","name:es":"Municipio de Abasha","name:et":"Abaša rajoon","name:fa":"شهرداری آباشا","name:fi":"Abašan piirikunta","name:fr":"Municipalité de Abacha","name:he":"נפת אבאשה","name:hy":"Աբաշայի մունիցիպալիտետ","name:it":"Municipalità di Abasha","name:ka":"აბაშის მუნიციპალიტეტი","name:lt":"Abaša","name:nl":"Abasja gemeente","name:os":"Абашæ","name:pt":"Distrito de Abaxa","name:ru":"Абашский муниципалитет","name:sv":"Abasja distrikt","name:uk":"Абашський муніципалітет","name:zh":"阿巴沙市","int_name":"Abashis Munitsipaliteti","name:ceb":"Abashis Munitsip'alit'et'i","name:mzn":"آباشا","name:war":"Abasha distrito","name:xmf":"აბაშაშ მუნიციპალიტეტი"},"display_name":"აბაშის მუნიციპალიტეტი, სამეგრელო-ზემო სვანეთი, 0200, საქართველო","address":{"county":"აბაშის მუნიციპალიტეტი","state":"სამეგრელო-ზემო სვანეთი","ISO3166-2-lvl4":"GE-SZ","postcode":"0200","country":"საქართველო","country_code":"ge"},"osm_type":"relation","osm_id":2016164,"type":"administrative","location":[42.18969494326804,42.2073305],"bbox":[42.0283692,42.1045317,42.3574244,42.3100366]}]}
{"name":"აგარა","other_names":{"name:de":"Agara","name:en":"Agara","name:ka":"აგარა","name:ru":"Агара","name:uk":"Агара"},"display_name":"აგარა, ქარელის მუნიციპალიტეტი, შიდა ქართლი, საქართველო","address":{"town":"აგარა","county":"ქარელის მუნიციპალიტეტი","state":"შიდა ქართლი","ISO3166-2-lvl4":"GE-SK","country":"საქართველო","country_code":"ge"},"population":2803,"osm_type":"node","osm_id":539541634,"type":"town","location":[43.8203744,42.0376325],"bbox":[43.7803744,41.9976325,43.8603744,42.0776325],"border":{"name":"აგარა","other_names":{"name:en":"Agara","name:ka":"აგარა","name:ru":"Агара","name:de":"Agara","name:uk":"Агара"},"display_name":"აგარა, ქარელის მუნიციპალიტეტი, შიდა ქართლი, საქართველო","address":{"town":"აგარა","county":"ქარელის მუნიციპალიტეტი","state":"შიდა ქართლი","ISO3166-2-lvl4":"GE-SK","country":"საქართველო","country_code":"ge"},"population":2803,"osm_type":"way","osm_id":265377360,"type":"town","location":[43.8203744,42.0376325],"bbox":[43.8114586,42.0292079,43.8381095,42.0492238]}}
{"name":"ადიგენი","other_names":{"name:en":"Adigeni","name:hy":"Ադիգեն","name:ka":"ადიგენი","name:ml":"ആഡിഗെനി","name:ru":"Адигени","name:tr":"Adıgeni","name:uk":"Адігені"},"display_name":"ადიგენი, ადიგენის მუნიციპალიტეტი, სამცხე-ჯავახეთი, 0300, საქართველო","address":{"town":"ადიგენი","county":"ადიგენის მუნიციპალიტეტი","state":"სამცხე-ჯავახეთი","ISO3166-2-lvl4":"GE-SJ","postcode":"0300","country":"საქართველო","country_code":"ge"},"population":1068,"osm_type":"node","osm_id":457440822,"type":"town","location":[42.7061207,41.6749791],"bbox":[42.6661207,41.6349791,42.7461207,41.7149791],"border":{"name":"ადიგენი","other_names":{"name:en":"Adigeni","name:ka":"ადიგენი","name:ru":"Адигени","name:hy":"Ադիգեն","name:ml":"ആഡിഗെനി","name:tr":"Adıgeni","name:uk":"Адігені"},"display_name":"ადიგენი, ადიგენის მუნიციპალიტეტი, სამცხე-ჯავახეთი, საქართველო","address":{"town":"ადიგენი","county":"ადიგენის მუნიციპალიტეტი","state":"სამცხე-ჯავახეთი","ISO3166-2-lvl4":"GE-SJ","country":"საქართველო","country_code":"ge"},"population":1068,"osm_type":"way","osm_id":641778126,"type":"town","location":[42.7061207,41.6749791],"bbox":[42.6965725,41.6685985,42.724493,41.6794909]}}
{"name":"ამბროლაური","other_names":{"name:de":"Ambrolauri","name:en":"Ambrolauri","name:fr":"Ambrolauri","name:ka":"ამბროლაური","name:lt":"Ambrolauris","name:ml":"അംബ്രോലൗറി","name:ru":"Амбролаури","name:sr":"Амбролаури","name:uk":"Амболаурі","name:zh":"安布罗劳里"},"display_name":"ამბროლაური, ამბროლაურის მუნიციპალიტეტი, რაჭა-ლეჩხუმი და ქვემო სვანეთი, საქართველო","address":{"town":"ამბროლაური","county":"ამბროლაურის მუნიციპალიტეტი","state":"რაჭა-ლეჩხუმი და ქვემო სვანეთი","ISO3166-2-lvl4":"GE-RL","country":"საქართველო","country_code":"ge"},"population":1952,"osm_type":"node","osm_id":389682007,"type":"town","location":[43.1519007,42.5193765],"bbox":[43.1119007,42.4793765,43.1919007,42.5593765],"border":[{"name":"ამბროლაური","other_names":{"name:de":"Ambrolauri","name:en":"Ambrolauri","name:fr":"Ambrolauri","name:ka":"ამბროლაური","name:ru":"Амбролаури","name:sr":"Амбролаури"},"display_name":"ამბროლაური, ამბროლაურის მუნიციპალიტეტი, რაჭა-ლეჩხუმი და ქვემო სვანეთი, საქართველო","address":{"town":"ამბროლაური","county":"ამბროლაურის მუნიციპალიტეტი","state":"რაჭა-ლეჩხუმი და ქვემო სვანეთი","ISO3166-2-lvl4":"GE-RL","country":"საქართველო","country_code":"ge"},"population":2001,"osm_type":"way","osm_id":34012095,"type":"town","location":[43.14594401574021,42.518611899999996],"bbox":[43.1245029,42.5075084,43.1669891,42.529801]},{"name":"ამბროლაური","other_names":{"name:en":"Ambrolauri","name:ka":"ამბროლაური","name:ru":"Амбролаури","name:de":"Ambrolauri","name:fr":"Ambrolauri","name:lt":"Ambrolauris","name:ml":"അംബ്രോലൗറി","name:sr":"Амбролаури","name:uk":"Амболаурі","name:zh":"安布罗劳里"},"display_name":"ამბროლაური, ამბროლაურის მუნიციპალიტეტი, რაჭა-ლეჩხუმი და ქვემო სვანეთი, საქართველო","address":{"town":"ამბროლაური","county":"ამბროლაურის მუნიციპალიტეტი","state":"რაჭა-ლეჩხუმი და ქვემო სვანეთი","ISO3166-2-lvl4":"GE-RL","country":"საქართველო","country_code":"ge"},"population":1952,"osm_type":"relation","osm_id":8374177,"type":"administrative","location":[43.1519007,42.5193765],"bbox":[43.1245029,42.5075084,43.1669891,42.529801]}]}
{"name":"ანაკლია","other_names":{"name:de":"Anaklia","name:en":"Anaklia","name:ka":"ანაკლია","name:ml":"അനാക്ലിയ","name:ru":"Анаклиа","name:sr":"Анаклија","name:tr":"Anaklia","name:uk":"Анаклія","int_name":"Anaklia","name:xmf":"ანარკია"},"display_name":"ანაკლია, ზუგდიდის მუნიციპალიტეტი, სამეგრელო-ზემო სვანეთი, საქართველო","address":{"town":"ანაკლია","county":"ზუგდიდის მუნიციპალიტეტი","state":"სამეგრელო-ზემო სვანეთი","ISO3166-2-lvl4":"GE-SZ","country":"საქართველო","country_code":"ge"},"population":1331,"osm_type":"node","osm_id":1733993072,"type":"town","location":[41.5657276,42.3954083],"bbox":[41.5257276,42.3554083,41.6057276,42.4354083],"border":{"name":"ანაკლია","other_names":{"name:de":"Anaklia","name:en":"Anaklia","name:ka":"ანაკლია","name:ru":"Анаклиа","name:sr":"Анаклија","name:uk":"Анаклія","int_name":"Anaklia","name:xmf":"ანარკია","name:ml":"അനാക്ലിയ","name:tr":"Anaklia"},"display_name":"ანაკლია, ზუგდიდის მუნიციპალიტეტი, სამეგრელო-ზემო სვანეთი, 2109, საქართველო","address":{"town":"ანაკლია","county":"ზუგდიდის მუნიციპალიტეტი","state":"სამეგრელო-ზემო სვანეთი","ISO3166-2-lvl4":"GE-SZ","postcode":"2109","country":"საქართველო","country_code":"ge"},"population":1331,"osm_type":"relation","osm_id":17699751,"type":"administrative","location":[41.5657276,42.3954083],"bbox":[41.5570238,42.3625633,41.6397124,42.4159164]}}
{"name":"ასპინძა","other_names":{"name:de":"Aspindsa","name:en":"Aspindza","name:hy":"Ասպնջակ","name:ka":"ასპინძა","name:ml":"ആസ്പിൻഡ്സ","name:ru":"Аспиндза","name:uk":"Аспіндза"},"display_name":"ასპინძა, ასპინძის მუნიციპალიტეტი, სამცხე-ჯავახეთი, 0500, საქართველო","address":{"town":"ასპინძა","county":"ასპინძის მუნიციპალიტეტი","state":"სამცხე-ჯავახეთი","ISO3166-2-lvl4":"GE-SJ","postcode":"0500","country":"საქართველო","country_code":"ge"},"population":2425,"osm_type":"node","osm_id":415574362,"type":"town","location":[43.2504979,41.5727921],"bbox":[43.2104979,41.5327921,43.2904979,41.6127921],"border":{"name":"ასპინძა","other_names":{"name:de":"Aspindsa","name:en":"Aspindza","name:hy":"Ասպնջակ","name:ka":"ასპინძა","name:ru":"Аспиндза","name:tr":"Aspindza","name:uk":"Аспіндза","name:ml":"ആസ്പിൻഡ്സ"},"display_name":"ასპინძა, ასპინძის მუნიციპალიტეტი, სამცხე-ჯავახეთი, 0500, საქართველო","address":{"town":"ასპინძა","county":"ასპინძის მუნიციპალიტეტი","state":"სამცხე-ჯავახეთი","ISO3166-2-lvl4":"GE-SJ","postcode":"0500","country":"საქართველო","country_code":"ge"},"population":2575,"osm_type":"way","osm_id":95779182,"type":"town","location":[43.2504979,41.5727921],"bbox":[43.2400739,41.5638742,43.2661613,41.5840873]}}
{"name":"ახალქალაქი","other_names":{"name:az":"Axalqalaqi","name:de":"Achalkalaki","name:en":"Akhalkalaki","name:hy":"Ախալքալաք","name:ka":"ახალქალაქი","name:lt":"Achalkalakis","name:ml":"അഖൽക്കലാക്കി","name:ru":"Ахалкалаки","name:sr":"Ахалкалаки","name:tr":"Ahılkelek","name:uk":"Ахалкалакі"},"display_name":"ახალქალაქი, ახალქალაქის მუნიციპალიტეტი, სამცხე-ჯავახეთი, საქართველო","address":{"town":"ახალქალაქი","county":"ახალქალაქის მუნიციპალიტეტი","state":"სამცხე-ჯავახეთი","ISO3166-2-lvl4":"GE-SJ","country":"საქართველო","country_code":"ge"},"population":7437,"osm_type":"node","osm_id":218553534,"type":"town","location":[43.4854274,41.4077907],"bbox":[43.4454274,41.3677907,43.5254274,41.4477907],"border":{"name":"ახალქალაქი","other_names":{"name:az":"Axalqalaqi","name:de":"Achalkalaki","name:en":"Akhalkalaki","name:hy":"Ախալքալաք","name:ka":"ახალქალაქი","name:lt":"Achalkalakis","name:ru":"Ахалкалаки","name:sr":"Ахалкалаки","name:tr":"Ahılkelek","name:uk":"Ахалкалакі","name:ml":"അഖൽക്കലാക്കി"},"display_name":"ახალქალაქი, ახალქალაქის მუნიციპალიტეტი, სამცხე-ჯავახეთი, 0700, საქართველო","address":{"town":"ახალქალაქი","county":"ახალქალაქის მუნიციპალიტეტი","state":"სამცხე-ჯავახეთი","ISO3166-2-lvl4":"GE-SJ","postcode":"0700","country":"საქართველო","country_code":"ge"},"population":7693,"osm_type":"relation","osm_id":16929994,"type":"town","location":[43.4854274,41.4077907],"bbox":[43.4725195,41.3885628,43.4988414,41.4175967]}}
{"name":"ახალციხე","other_names":{"name:ar":"آخالتسيخه","name:cs":"Achalciche","name:de":"Achalziche","name:en":"Akhaltsikhe","name:fa":"آخالتسیخه","name:fr":"Akhaltsikhé","name:hr":"Ahalcihe","name:hy":"Ախալցխա","name:ka":"ახალციხე","name:lt":"Achalcichė","name:ml":"ആഖാൽറ്റ്സിഖെ","name:ru":"Ахалцихе","name:sr":"Ахалцихе","name:tr":"Ahıska","name:uk":"Ахалціхе","name:ur":"آخالتسیخے","name:mzn":"آخالت سیکه","nat_name":"ახალციხე","old_name":"ლომსია","alt_name:ar":"أخالتسيخ","alt_name:tr":"Ahaltsihe","old_name:en":"Lomsia","old_name:ru":"Ломсия"},"display_name":"ახალციხე, ახალციხის მუნიციპალიტეტი, სამცხე-ჯავახეთი, საქართველო","address":{"town":"ახალციხე","county":"ახალციხის მუნიციპალიტეტი","state":"სამცხე-ჯავახეთი","ISO3166-2-lvl4":"GE-SJ","country":"საქართველო","country_code":"ge"},"population":17445,"osm_type":"node","osm_id":218370088,"type":"town","location":[42.9859225,41.6395128],"bbox":[42.9459225,41.5995128,43.0259225,41.6795128],"border":{"name":"ახალციხე","other_names":{"name:ar":"آخالتسيخه","name:de":"Achalziche","name:en":"Akhaltsikhe","name:fa":"آخالتسیخه","name:fr":"Akhaltsikhé","name:hy":"Ախալցխա","name:ka":"ახალციხე","name:ru":"Ахалцихе","name:sr":"Ахалцихе","name:tr":"Ahıska","name:ur":"آخالتسیخے","name:mzn":"آخالت سیکه","nat_name":"ახალციხე","old_name":"ლომსია","alt_name:ar":"أخالتسيخ","alt_name:tr":"Ahaltsihe","old_name:en":"Lomsia","old_name:ru":"Ломсия","name:cs":"Achalciche","name:hr":"Ahalcihe","name:lt":"Achalcichė","name:ml":"ആഖാൽറ്റ്സിഖെ","name:uk":"Ахалціхе"},"display_name":"ახალციხე, ახალციხის მუნიციპალიტეტი, სამცხე-ჯავახეთი, 0800, საქართველო","address":{"town":"ახალციხე","county":"ახალციხის მუნიციპალიტეტი","state":"სამცხე-ჯავახეთი","ISO3166-2-lvl4":"GE-SJ","postcode":"0800","country":"საქართველო","country_code":"ge"},"population":17445,"osm_type":"relation","osm_id":8374207,"type":"administrative","location":[42.9859225,41.6395128],"bbox":[42.9580303,41.6089469,43.0417192,41.6623977]}}
{"name":"ახმეტა","other_names":{"name:ce":"Ахмета","name:de":"Achmeta","name:en":"Akhmeta","name:ka":"ახმეტა","name:lt":"Akhmeta","name:ml":"അഖ്മെറ്റ","name:os":"Ахметъа","name:ru":"Ахмета","name:sr":"Ахмета","name:uk":"Ахмета","int_name":"Akhmeta"},"display_name":"ახმეტა, ახმეტის მუნიციპალიტეტი, კახეთი, საქართველო","address":{"town":"ახმეტა","county":"ახმეტის მუნიციპალიტეტი","state":"კახეთი","ISO3166-2-lvl4":"GE-KA","country":"საქართველო","country_code":"ge"},"population":5664,"osm_type":"node","osm_id":275556330,"type":"town","location":[45.2108579,42.0341864],"bbox":[45.1708579,41.9941864,45.2508579,42.0741864],"border":{"name":"ახმეტა","other_names":{"name:ce":"Ахмета","name:de":"Achmeta","name:en":"Akhmeta","name:ka":"ახმეტა","name:lt":"Akhmeta","name:os":"Ахметъа","name:ru":"Ахмета","name:sr":"Ахмета","name:uk":"Ахмета","name:ml":"അഖ്മെറ്റ","int_name":"Akhmeta"},"display_name":"ახმეტა, ახმეტის მუნიციპალიტეტი, კახეთი, საქართველო","address":{"town":"ახმეტა","county":"ახმეტის მუნიციპალიტეტი","state":"კახეთი","ISO3166-2-lvl4":"GE-KA","country":"საქართველო","country_code":"ge"},"population":6158,"osm_type":"way","osm_id":33836710,"type":"town","location":[45.2108579,42.0341864],"bbox":[45.1793621,42.0202825,45.2391671,42.0550478]}}
{"name":"ბაკურიანი","other_names":{"name:de":"Bakuriani","name:en":"Bakuriani","name:he":"באקוריאני","name:hy":"Բակուրիան","name:ka":"ბაკურიანი","name:lt":"Bakurianis","name:nl":"Bakoerjani","name:ru":"Бакуриани","name:tr":"Bakuriani","name:uk":"Бакуріані"},"display_name":"ბაკურიანი, ბორჯომის მუნიციპალიტეტი, სამცხე-ჯავახეთი, 1204, საქართველო","address":{"town":"ბაკურიანი","county":"ბორჯომის მუნიციპალიტეტი","state":"სამცხე-ჯავახეთი","ISO3166-2-lvl4":"GE-SJ","postcode":"1204","country":"საქართველო","country_code":"ge"},"population":1817,"osm_type":"node","osm_id":311913158,"type":"town","location":[43.5280065,41.7510862],"bbox":[43.4880065,41.7110862,43.5680065,41.7910862],"border":{"name":"ბაკურიანი","other_names":{"name:de":"Bakuriani","name:en":"Bakuriani","name:he":"באקוריאני","name:hy":"Բակուրիան","name:ka":"ბაკურიანი","name:lt":"Bakurianis","name:nl":"Bakoerjani","name:ru":"Бакуриани","name:tr":"Bakuriani","name:uk":"Бакуріані"},"display_name":"ბაკურიანი, ბორჯომის მუნიციპალიტეტი, სამცხე-ჯავახეთი, 1204, საქართველო","address":{"town":"ბაკურიანი","county":"ბორჯომის მუნიციპალიტეტი","state":"სამცხე-ჯავახეთი","ISO3166-2-lvl4":"GE-SJ","postcode":"1204","country":"საქართველო","country_code":"ge"},"population":1879,"osm_type":"way","osm_id":715323243,"type":"town","location":[43.5280065,41.7510862],"bbox":[43.5123181,41.7249173,43.5542893,41.7628134]}}
{"name":"ბაღდათი","other_names":{"name:de":"Bagdati","name:en":"Baghdati","name:fr":"Baghdati","name:ka":"ბაღდათი","name:ml":"ബാഗ്ദാട്ടി","name:ru":"Багдати","name:sr":"Багдати","name:uk":"Багдаті","old_name":"მაიაკოვსკი","old_name:en":"Mayakovskiy","old_name:ka":"მაიაკოვსკი","old_name:ru":"Маяковский"},"display_name":"ბაღდათი, ბაღდათის მუნიციპალიტეტი, იმერეთი, საქართველო","address":{"town":"ბაღდათი","county":"ბაღდათის მუნიციპალიტეტი","state":"იმერეთი","ISO3166-2-lvl4":"GE-IM","country":"საქართველო","country_code":"ge"},"population":2412,"osm_type":"node","osm_id":389644233,"type":"town","location":[42.8252215,42.067933],"bbox":[42.7852215,42.027933,42.8652215,42.107933],"border":[{"name":"ბაღდათი","other_names":{"name:de":"Bagdati","name:en":"Baghdati","name:fr":"Baghdati","name:ka":"ბაღდათი","name:ru":"Багдати","name:sr":"Багдати","name:uk":"Багдаті","old_name":"მაიაკოვსკი","old_name:en":"Mayakovskiy","old_name:ka":"მაიაკოვსკი","old_name:ru":"Маяковский","name:ml":"ബാഗ്ദാട്ടി"},"display_name":"ბაღდათი, ბაღდათის მუნიციპალიტეტი, იმერეთი, საქართველო","address":{"town":"ბაღდათი","county":"ბაღდათის მუნიციპალიტეტი","state":"იმერეთი","ISO3166-2-lvl4":"GE-IM","country":"საქართველო","country_code":"ge"},"population":2796,"osm_type":"relation","osm_id":18594086,"type":"town","location":[42.8252215,42.067933],"bbox":[42.8126693,42.0440502,42.8363263,42.0845397]},{"name":"ბაღდათის მუნიციპალიტეტი","other_names":{"name:de":"Munizipalität Baghdati","name:en":"Baghdati Municipality","name:es":"Municipio de Bagdati","name:et":"Bagdathi rajoon","name:fa":"شهرداری باقداتی","name:fi":"Baghdatin piirikunta","name:fr":"Municipalité de Baghdati","name:he":"נפת בר'דתי","name:hy":"Բաղդաթի մունիցիպալիտետ","name:it":"Municipalità di Bagdati","name:ka":"ბაღდადი;მაიაკოვსკი","name:ru":"Багдатский муниципалитет","name:uk":"Багдатський муніципалітет","name:zh":"巴格達蒂市","int_name":"Baghdatis Munitsipaliteti","name:ceb":"Baghdatis Munitsip'alit'et'i","name:xmf":"ბაღდათიშ მუნიციპალიტეტი","old_name:en":"Baghdadi;Mayakovskiy","old_name:ka":"ბაღდადი;მაიაკოვსკი","old_name:ru":"Маяковский"},"display_name":"ბაღდათის მუნიციპალიტეტი, იმერეთი, 1000, საქართველო","address":{"county":"ბაღდათის მუნიციპალიტეტი","state":"იმერეთი","ISO3166-2-lvl4":"GE-IM","postcode":"1000","country":"საქართველო","country_code":"ge"},"osm_type":"relation","osm_id":2024539,"type":"administrative","location":[42.90253163035463,41.99985165],"bbox":[42.6541913,41.8090182,43.1270446,42.1924713]}]}
{"name":"ბოლნისი","other_names":{"name:az":"Bolnisi","name:de":"Bolnissi","name:en":"Bolnisi","name:et":"Bolnisi","name:fr":"Bolnissi","name:ka":"ბოლნისი","name:lt":"Bolnisis","name:ml":"ബോൾനിസി","name:ru":"Болниси","name:sr":"Болниси","name:uk":"Болнісі","old_name":"Katharinenfeld, Luxemburg","old_name:de":"Katharinenfeld, Luxemburg"},"display_name":"ბოლნისი, ბოლნისის მუნიციპალიტეტი, ქვემო ქართლი, საქართველო","address":{"town":"ბოლნისი","county":"ბოლნისის მუნიციპალიტეტი","state":"ქვემო ქართლი","ISO3166-2-lvl4":"GE-KK","country":"საქართველო","country_code":"ge"},"population":8461,"osm_type":"node","osm_id":387606444,"type":"town","location":[44.5369461,41.4493333],"bbox":[44.4969461,41.4093333,44.5769461,41.4893333],"border":{"name":"ბოლნისი","other_names":{"name:az":"Bolnis","name:de":"Bolnissi","name:en":"Bolnisi","name:et":"Bolnisi","name:fr":"Bolnissi","name:ka":"ბოლნისი","name:ru":"Болниси","name:sr":"Болниси","old_name":"Katharinenfeld, Luxemburg","old_name:de":"Katharinenfeld, Luxemburg","name:lt":"Bolnisis","name:ml":"ബോൾനിസി","name:uk":"Болнісі","alt:az":"Bolnisi"},"display_name":"ბოლნისი, ბოლნისის მუნიციპალიტეტი, ქვემო ქართლი, საქართველო","address":{"town":"ბოლნისი","county":"ბოლნისის მუნიციპალიტეტი","state":"ქვემო ქართლი","ISO3166-2-lvl4":"GE-KK","country":"საქართველო","country_code":"ge"},"population":8406,"osm_type":"way","osm_id":75732327,"type":"town","location":[44.5369461,41.4493333],"bbox":[44.5181961,41.4425831,44.5808144,41.458782]}}
{"name":"ბორჯომი","other_names":{"name:az":"Borjomi","name:de":"Bordschomi","name:en":"Borjomi","name:fr":"Bordjomi","name:hu":"Borgyomi","name:hy":"Բորժոմ","name:it":"Borgiomi","name:ka":"ბორჯომი","name:ko":"보르조미","name:lt":"Boržomis","name:ml":"ബോർജോമി","name:os":"Боржом","name:ru":"Боржоми","name:sr":"Боржоми","name:tr":"Borcomi","name:uk":"Боржомі","name:xmf":"ბორჯომი","name:sr-Latn":"Boržomi"},"display_name":"ბორჯომი, ბორჯომის მუნიციპალიტეტი, სამცხე-ჯავახეთი, საქართველო","address":{"town":"ბორჯომი","county":"ბორჯომის მუნიციპალიტეტი","state":"სამცხე-ჯავახეთი","ISO3166-2-lvl4":"GE-SJ","country":"საქართველო","country_code":"ge"},"population":11248,"osm_type":"node","osm_id":280683308,"type":"town","location":[43.3828753,41.840533],"bbox":[43.3428753,41.800533,43.4228753,41.880533],"border":{"name":"ბორჯომი","other_names":{"name:az":"Borjomi","name:de":"Bordschomi","name:en":"Borjomi","name:fr":"Bordjomi","name:hu":"Borgyomi","name:hy":"Բորժոմ","name:it":"Borgiomi","name:ka":"ბორჯომი","name:ko":"보르조미","name:lt":"Boržomis","name:os":"Боржом","name:ru":"Боржоми","name:sr":"Боржоми","name:tr":"Borcomi","name:uk":"Боржомі","name:xmf":"ბორჯომი","name:sr-Latn":"Boržomi","name:ml":"ബോർജോമി"},"display_name":"ბორჯომი, ბორჯომის მუნიციპალიტეტი, სამცხე-ჯავახეთი, 1200, საქართველო","address":{"town":"ბორჯომი","county":"ბორჯომის მუნიციპალიტეტი","state":"სამცხე-ჯავახეთი","ISO3166-2-lvl4":"GE-SJ","postcode":"1200","country":"საქართველო","country_code":"ge"},"population":11194,"osm_type":"relation","osm_id":17409709,"type":"administrative","location":[43.3828753,41.840533],"bbox":[43.3321609,41.8065574,43.4450483,41.870173]}}
{"name":"გარდაბანი","other_names":{"name:az":"Qardabani","name:de":"Gardabani","name:en":"Gardabani","name:et":"Gardabani","name:fr":"Gardabani","name:ka":"გარდაბანი","name:ml":"ഗാർഡാബാനി","name:ru":"Гардабани","name:sr":"Гардабани","name:uk":"Ґардабані","old_name":"Karayazi"},"display_name":"გარდაბანი, გარდაბნის მუნიციპალიტეტი, ქვემო ქართლი, საქართველო","address":{"town":"გარდაბანი","county":"გარდაბნის მუნიციპალიტეტი","state":"ქვემო ქართლი","ISO3166-2-lvl4":"GE-KK","country":"საქართველო","country_code":"ge"},"population":12364,"osm_type":"node","osm_id":292825343,"type":"town","location":[45.089706,41.4596178],"bbox":[45.049706,41.4196178,45.129706,41.4996178],"border":{"name":"გარდაბანი","other_names":{"name:az":"Qardabani","name:de":"Gardabani","name:en":"Gardabani","name:et":"Gardabani","name:ka":"გარდაბანი","name:ru":"Гардабани","name:sr":"Гардабани","name:uk":"Ґардабані","old_name":"Karayazi","name:fr":"Gardabani","name:ml":"ഗാർഡാബാനി"},"display_name":"გარდაბანი, გარდაბნის მუნიციპალიტეტი, ქვემო ქართლი, საქართველო","address":{"town":"გარდაბანი","county":"გარდაბნის მუნიციპალიტეტი","state":"ქვემო ქართლი","ISO3166-2-lvl4":"GE-KK","country":"საქართველო","country_code":"ge"},"population":12045,"osm_type":"relation","osm_id":18245344,"type":"town","location":[45.089706,41.4596178],"bbox":[45.0736213,41.4401548,45.1057976,41.4817129]}}
{"name":"გურჯაანი","other_names":{"name:de":"Gurdschani","name:en":"Gurjaani","name:ka":"გურჯაანი","name:lt":"Gurdžaanis","name:ml":"ഗുർജാനി","name:ru":"Гурджаани","name:sr":"Гуржани","name:uk":"Гурджаані"},"display_name":"გურჯაანი, გურჯაანის მუნიციპალიტეტი, კახეთი, საქართველო","address":{"town":"გურჯაანი","county":"გურჯაანის მუნიციპალიტეტი","state":"კახეთი","ISO3166-2-lvl4":"GE-KA","country":"საქართველო","country_code":"ge"},"population":7217,"osm_type":"node","osm_id":289106527,"type":"town","location":[45.7946722,41.7463818],"bbox":[45.7546722,41.7063818,45.8346722,41.7863818],"border":{"name":"გურჯაანი","other_names":{"name:de":"Gurdschani","name:en":"Gurjaani","name:ka":"გურჯაანი","name:ru":"Гурджаани","name:sr":"Гуржани","name:lt":"Gurdžaanis","name:ml":"ഗുർജാനി","name:uk":"Гурджаані"},"display_name":"გურჯაანი, გურჯაანის მუნიციპალიტეტი, კახეთი, საქართველო","address":{"town":"გურჯაანი","county":"გურჯაანის მუნიციპალიტეტი","state":"კახეთი","ISO3166-2-lvl4":"GE-KA","country":"საქართველო","country_code":"ge"},"population":7426,"osm_type":"way","osm_id":74688344,"type":"town","location":[45.7946722,41.7463818],"bbox":[45.7734666,41.7329589,45.8256698,41.7619701]}}
{"name":"დედოფლისწყარო","other_names":{"name:de":"Dedopliszqaro","name:en":"Dedoplistskaro","name:ka":"დედოფლისწყარო","name:ml":"ഡെഡോപ്ലിസ്റ്റ്കാറോ","name:ru":"Дедоплисцкаро","name:sr":"Дедоплистскаро","name:tr":"Dedoplistskaro","name:uk":"Дедопліс Цкаро","int_name":"Dedoplistskaro","old_name:de":"Königsbrunnen","old_name:ka:1803-1926":"ცარსკიე კოლოდცი","old_name:ka:1926-1991":"წითელწყარო"},"display_name":"დედოფლისწყარო, დედოფლისწყაროს მუნიციპალიტეტი, კახეთი, 1600, საქართველო","address":{"town":"დედოფლისწყარო","county":"დედოფლისწყაროს მუნიციპალიტეტი","state":"კახეთი","ISO3166-2-lvl4":"GE-KA","postcode":"1600","country":"საქართველო","country_code":"ge"},"population":5460,"osm_type":"node","osm_id":388180700,"type":"town","location":[46.1104053,41.4639589],"bbox":[46.0704053,41.4239589,46.1504053,41.5039589],"border":[{"name":"დედოფლისწყარო","other_names":{"name:de":"Dedopliszqaro","name:en":"Dedoplistskaro","name:ka":"დედოფლისწყარო","name:ko":"데도플리스츠카로","name:ru":"Дедоплисцкаро","name:sr":"Дедоплистскаро","name:uk":"Дедопліс Цкаро","int_name":"Dedoplistskaro","old_name:de":"Königsbrunnen","name:ml":"ഡെഡോപ്ലിസ്റ്റ്കാറോ","name:tr":"Dedoplistskaro","old_name:ka:1803-1926":"ცარსკიე კოლოდცი","old_name:ka:1926-1991":"წითელწყარო"},"display_name":"დედოფლისწყარო, დედოფლისწყაროს მუნიციპალიტეტი, კახეთი, საქართველო","address":{"town":"დედოფლისწყარო","county":"დედოფლისწყაროს მუნიციპალიტეტი","state":"კახეთი","ISO3166-2-lvl4":"GE-KA","country":"საქართველო","country_code":"ge"},"population":5602,"osm_type":"way","osm_id":33880121,"type":"town","location":[46.1104053,41.4639589],"bbox":[46.0967933,41.4521274,46.1275141,41.4747921]},{"name":"დედოფლისწყაროს მუნიციპალიტეტი","other_names":{"name:az":"Dedoplistsğaro bələdiyyəsi","name:cs":"Municipalita Dedopliscqaro","name:de":"Munizipalität Dedopliszqaro","name:en":"Dedoplistsqaro Municipality","name:es":"Municipio de Dedoplistskaro","name:fa":"شهرداری ددوپلیس تسقارو","name:fi":"Dedoplistsqaron piirikunta","name:fr":"Municipalité de Dedoplistskaro","name:hy":"Դեդոփլիս Ծղարոյի մունիցիպալիտետ","name:it":"Municipalità di Dedoplistskaro","name:ka":"დედოფლისწყაროს მუნიციპალიტეტი","name:os":"Дедоплисцъхъаройы муниципалитет","name:ru":"Дедоплисцкаройский муниципалитет","name:uk":"Дедоплісцкаройський муніципалітет","name:zh":"代多普利斯茨卡羅市","name:ceb":"Dedoplists'q'aros Munitsip'alit'et'i","alt_name:en":"Dedoplistsqaros Munitsipaliteti","old_name:ka":"წითელწყარო","old_name:ru":"Царские Колодцы"},"display_name":"დედოფლისწყაროს მუნიციპალიტეტი, კახეთი, 1600, საქართველო","address":{"county":"დედოფლისწყაროს მუნიციპალიტეტი","state":"კახეთი","ISO3166-2-lvl4":"GE-KA","postcode":"1600","country":"საქართველო","country_code":"ge"},"osm_type":"relation","osm_id":2027334,"type":"administrative","location":[46.1197220409518,41.3168955],"bbox":[45.749476,41.0551284,46.7365373,41.5787312]}]}
{"name":"დმანისი","other_names":{"name:az":"Başkeçid Dumanis","name:cs":"Dmanisi","name:de":"Dmanissi","name:en":"Dmanisi","name:hy":"Դմանիս","name:ka":"დმანისი","name:ml":"ഡ്മാനിസി","name:ru":"Дманиси","name:sr":"Дманиси","name:uk":"Дманісі","name:az-cyr":"Башкечид"},"display_name":"დმანისი, დმანისის მუნიციპალიტეტი, ქვემო ქართლი, საქართველო","address":{"town":"დმანისი","county":"დმანისის მუნიციპალიტეტი","state":"ქვემო ქართლი","ISO3166-2-lvl4":"GE-KK","country":"საქართველო","country_code":"ge"},"population":3099,"osm_type":"node","osm_id":389677665,"type":"town","location":[44.2041258,41.3310492],"bbox":[44.1641258,41.2910492,44.2441258,41.3710492],"border":{"name":"დმანისი","other_names":{"name:az":"Başkeçid Dumanis","name:de":"Dmanissi","name:en":"Dmanisi","name:hy":"Դմանիս","name:ka":"დმანისი","name:ru":"Дманиси","name:sr":"Дманиси","name:cs":"Dmanisi","name:ml":"ഡ്മാനിസി","name:uk":"Дманісі","name:az-cyr":"Башкечид"},"display_name":"დმანისი, დმანისის მუნიციპალიტეტი, ქვემო ქართლი, 1700, საქართველო","address":{"town":"დმანისი","county":"დმანისის მუნიციპალიტეტი","state":"ქვემო ქართლი","ISO3166-2-lvl4":"GE-KK","postcode":"1700","country":"საქართველო","country_code":"ge"},"population":3012,"osm_type":"relation","osm_id":17403257,"type":"town","location":[44.2041258,41.3310492],"bbox":[44.1859178,41.3217302,44.2269752,41.3401603]}}
{"name":"დუშეთი","other_names":{"name:de":"Duscheti","name:en":"Dusheti","name:ka":"დუშეთი","name:lt":"Dušetis","name:ml":"ഡൂഷെട്ടി","name:os":"Душет","name:ru":"Душети","name:sr":"Душети","name:uk":"Душеті"},"display_name":"დუშეთი, დუშეთის მუნიციპალიტეტი, მცხეთა-მთიანეთი, საქართველო","address":{"town":"დუშეთი","county":"დუშეთის მუნიციპალიტეტი","state":"მცხეთა-მთიანეთი","ISO3166-2-lvl4":"GE-MM","country":"საქართველო","country_code":"ge"},"population":7389,"osm_type":"node","osm_id":388181553,"type":"town","location":[44.6959371,42.0844709],"bbox":[44.6559371,42.0444709,44.7359371,42.1244709],"border":{"name":"დუშეთი","other_names":{"name:de":"Duscheti","name:en":"Dusheti","name:ka":"დუშეთი","name:ru":"Душети","name:sr":"Душети","name:lt":"Dušetis","name:ml":"ഡൂഷെട്ടി","name:os":"Душет","name:uk":"Душеті"},"display_name":"დუშეთი, დუშეთის მუნიციპალიტეტი, მცხეთა-მთიანეთი, საქართველო","address":{"town":"დუშეთი","county":"დუშეთის მუნიციპალიტეტი","state":"მცხეთა-მთიანეთი","ISO3166-2-lvl4":"GE-MM","country":"საქართველო","country_code":"ge"},"population":7300,"osm_type":"way","osm_id":33880279,"type":"town","location":[44.6959371,42.0844709],"bbox":[44.679036,42.0719882,44.7069041,42.0929092]}}
{"name":"ვალე","other_names":{"name:cs":"Vale","name:de":"Wale","name:en":"Vale","name:et":"Vale","name:fr":"Valé","name:hy":"Վալե","name:ka":"ვალე","name:lt":"Valė","name:ml":"വാലെ","name:nl":"Vale","name:os":"Вале","name:pl":"Wale","name:ro":"Vale","name:ru":"Вале","name:sr":"Вале","name:uk":"Вале","name:zh":"瓦萊","name:mzn":"وِیل"},"display_name":"ვალე, ახალციხის მუნიციპალიტეტი, სამცხე-ჯავახეთი, საქართველო","address":{"town":"ვალე","county":"ახალციხის მუნიციპალიტეტი","state":"სამცხე-ჯავახეთი","ISO3166-2-lvl4":"GE-SJ","country":"საქართველო","country_code":"ge"},"population":4982,"osm_type":"node","osm_id":218366796,"type":"town","location":[42.8772147,41.6175224],"bbox":[42.8372147,41.5775224,42.9172147,41.6575224],"border":{"name":"ვალე","other_names":{"name:cs":"Vale","name:de":"Wale","name:en":"Vale","name:et":"Vale","name:fr":"Valé","name:hy":"Վալե","name:ka":"ვალე","name:nl":"Vale","name:os":"Вале","name:pl":"Wale","name:ro":"Vale","name:ru":"Вале","name:sr":"Вале","name:tr":"Vale","name:mzn":"وِیل","name:lt":"Valė","name:ml":"വാലെ","name:uk":"Вале","name:zh":"瓦萊"},"display_name":"ვალე, ახალციხის მუნიციპალიტეტი, სამცხე-ჯავახეთი, საქართველო","address":{"town":"ვალე","county":"ახალციხის მუნიციპალიტეტი","state":"სამცხე-ჯავახეთი","ISO3166-2-lvl4":"GE-SJ","country":"საქართველო","country_code":"ge"},"population":4982,"osm_type":"relation","osm_id":16393084,"type":"town","location":[42.8772147,41.6175224],"bbox":[42.8588355,41.6067429,42.9109905,41.6418183]}}
{"name":"ვანი","other_names":{"name:ce":"Вани","name:de":"Wani","name:en":"Vani","name:et":"Vani","name:fa":"وانی","name:fr":"Vani","name:hy":"Վանի","name:ka":"ვანი","name:lt":"Vanis","name:nl":"Vani","name:os":"Вани","name:ru":"Вани","name:sr":"Вани","name:uk":"Вані"},"display_name":"ვანი, ვანის მუნიციპალიტეტი, იმერეთი, საქართველო","address":{"town":"ვანი","county":"ვანის მუნიციპალიტეტი","state":"იმერეთი","ISO3166-2-lvl4":"GE-IM","country":"საქართველო","country_code":"ge"},"population":3151,"osm_type":"node","osm_id":389665587,"type":"town","location":[42.511975,42.0851175],"bbox":[42.471975,42.0451175,42.551975,42.1251175],"border":{"name":"ვანი","other_names":{"name:ce":"Вани","name:de":"Wani","name:en":"Vani","name:et":"Vani","name:fa":"وانی","name:fr":"Vani","name:hy":"Վանի","name:ka":"ვანი","name:lt":"Vanis","name:nl":"Vani","name:os":"Вани","name:ru":"Вани","name:sr":"Вани","name:uk":"Вані"},"display_name":"ვანი, ვანის მუნიციპალიტეტი, იმერეთი, საქართველო","address":{"town":"ვანი","county":"ვანის მუნიციპალიტეტი","state":"იმერეთი","ISO3166-2-lvl4":"GE-IM","country":"საქართველო","country_code":"ge"},"population":3374,"osm_type":"relation","osm_id":18502718,"type":"town","location":[42.511975,42.0851175],"bbox":[42.4877572,42.0669696,42.5395882,42.1017569]}}
{"name":"ზესტაფონი","other_names":{"name:cs":"Zestaponi","name:de":"Sestafoni","name:en":"Zestaponi","name:et":"Zestaphoni","name:fi":"Zestaponi","name:fr":"Zestafoni","name:hr":"Zestafoni","name:hy":"Զեստաֆոն","name:it":"Zestaponi","name:ja":"ゼスタポニ","name:ka":"ზესტაფონი","name:ko":"제스타포니","name:lt":"Zestafonis","name:ml":"സെസ്റ്റഫോണി","name:nl":"Zestaponi","name:pl":"Zestaponi","name:pt":"Zestaponi","name:ru":"Зестафони","name:sr":"Зестафони","name:sv":"Zestaponi","name:uk":"Зестафоні","name:zh":"澤斯塔波尼","name:mzn":"زستافونی","name:war":"Zestaponi","name:xmf":"ზესტაფონი","old_name":"ყვირილა;ჯუღელი","alt_name:en":"Zestafoni","old_name:en":"Kvirila"},"display_name":"ზესტაფონი, ზესტაფონის მუნიციპალიტეტი, იმერეთი, 2000, საქართველო","address":{"town":"ზესტაფონი","county":"ზესტაფონის მუნიციპალიტეტი","state":"იმერეთი","ISO3166-2-lvl4":"GE-IM","postcode":"2000","country":"საქართველო","country_code":"ge"},"population":20183,"osm_type":"node","osm_id":274202470,"type":"town","location":[43.0392502,42.1073698],"bbox":[42.9992502,42.0673698,43.0792502,42.1473698],"border":{"name":"ზესტაფონი","other_names":{"name:cs":"Zestaponi","name:de":"Sestafoni","name:en":"Zestaponi","name:et":"Zestaphoni","name:fi":"Zestaponi","name:fr":"Zestafoni","name:hr":"Zestafoni","name:hy":"Զեստաֆոն","name:it":"Zestaponi","name:ja":"ゼスタポニ","name:ka":"ზესტაფონი","name:ko":"제스타포니","name:lt":"Zestafonis","name:ml":"സെസ്റ്റഫോണി","name:nl":"Zestaponi","name:pl":"Zestaponi","name:pt":"Zestaponi","name:ru":"Зестафони","name:sr":"Зестафони","name:sv":"Zestaponi","name:uk":"Зестафоні","name:zh":"澤斯塔波尼","name:mzn":"زستافونی","name:war":"Zestaponi","name:xmf":"ზესტაფონი","old_name":"ყვირილა;ჯუღელი","alt_name:en":"Zestafoni","old_name:en":"Kvirila"},"display_name":"ზესტაფონი, ზესტაფონის მუნიციპალიტეტი, იმერეთი, 2000, საქართველო","address":{"town":"ზესტაფონი","county":"ზესტაფონის მუნიციპალიტეტი","state":"იმერეთი","ISO3166-2-lvl4":"GE-IM","postcode":"2000","country":"საქართველო","country_code":"ge"},"population":20548,"osm_type":"relation","osm_id":6255831,"type":"town","location":[43.0392502,42.1073698],"bbox":[43.0055887,42.0901494,43.0706038,42.1273302]}}
{"name":"თეთრიწყარო","other_names":{"name:az":"Ağbulaq","name:de":"Tetrizqaro","name:en":"Tetritskaro","name:et":"Thethri Tskaro","name:ka":"თეთრიწყარო","name:lt":"Tetri Ckaro","name:ml":"ടെട്രിറ്റ്‌സ്‌കാറോ","name:ru":"Тетри-Цкаро","name:sr":"Тетри Цгаро","name:uk":"Тетрі-Цкаро"},"display_name":"თეთრიწყარო, თეთრიწყაროს მუნიციპალიტეტი, ქვემო ქართლი, საქართველო","address":{"town":"თეთრიწყარო","county":"თეთრიწყაროს მუნიციპალიტეტი","state":"ქვემო ქართლი","ISO3166-2-lvl4":"GE-KK","country":"საქართველო","country_code":"ge"},"population":5041,"osm_type":"node","osm_id":311732296,"type":"town","location":[44.4625567,41.5427292],"bbox":[44.4225567,41.5027292,44.5025567,41.5827292],"border":{"name":"თეთრიწყარო","other_names":{"name:az":"Tetri Skaro","name:en":"Tetritskaro","name:et":"ThethriTskaro","name:ka":"თეთრიწყარო","name:ru":"Тетри-Цкаро","name:sr":"ТетриЦкаро","name:de":"Tetrizqaro","name:lt":"Tetri Ckaro","name:ml":"ടെട്രിറ്റ്‌സ്‌കാറോ","name:uk":"Тетрі-Цкаро","alt:az":"Ağbulaq","alt:et":"Thethri Tskaro","alt:sr":"Тетри Цгаро"},"display_name":"თეთრიწყარო, თეთრიწყაროს მუნიციპალიტეტი, ქვემო ქართლი, საქართველო","address":{"town":"თეთრიწყარო","county":"თეთრიწყაროს მუნიციპალიტეტი","state":"ქვემო ქართლი","ISO3166-2-lvl4":"GE-KK","country":"საქართველო","country_code":"ge"},"population":4427,"osm_type":"relation","osm_id":17400045,"type":"town","location":[44.4625567,41.5427292],"bbox":[44.4278848,41.5322997,44.4960344,41.5556215]}}
{"name":"თერჯოლა","other_names":{"name:de":"Terdschola","name:en":"Terjola","name:fr":"Terdjola","name:it":"Tergiola","name:ka":"თერჯოლა","name:lt":"Terdžola","name:ml":"ടെർജോല","name:ru":"Тержола","name:sr":"Тержола","name:uk":"Тержола"},"display_name":"თერჯოლა, თერჯოლის მუნიციპალიტეტი, იმერეთი, საქართველო","address":{"town":"თერჯოლა","county":"თერჯოლის მუნიციპალიტეტი","state":"იმერეთი","ISO3166-2-lvl4":"GE-IM","country":"საქართველო","country_code":"ge"},"population":4888,"osm_type":"node","osm_id":389636290,"type":"town","location":[42.9769943,42.1811342],"bbox":[42.9369943,42.1411342,43.0169943,42.2211342],"border":{"name":"თერჯოლა","other_names":{"name:de":"Terdschola","name:en":"Terjola","name:fr":"Terdjola","name:it":"Tergiola","name:ka":"თერჯოლა","name:lt":"Terdžola","name:ru":"Тержола","name:sr":"Тержола","name:uk":"Тержола","name:ml":"ടെർജോല"},"display_name":"თერჯოლა, თერჯოლის მუნიციპალიტეტი, იმერეთი, საქართველო","address":{"town":"თერჯოლა","county":"თერჯოლის მუნიციპალიტეტი","state":"იმერეთი","ISO3166-2-lvl4":"GE-IM","country":"საქართველო","country_code":"ge"},"population":4888,"osm_type":"way","osm_id":34008761,"type":"town","location":[42.9769943,42.1811342],"bbox":[42.9540856,42.1684946,43.0034103,42.2035847]}}
{"name":"თიანეთი","other_names":{"name:en":"Tianeti","name:ka":"თიანეთი","name:ml":"ടിയാനെറ്റി","name:ru":"Тианети","name:uk":"Тіанеті","int_name":"Tianeti"},"display_name":"თიანეთი, თიანეთის მუნიციპალიტეტი, მცხეთა-მთიანეთი, 2500, საქართველო","address":{"town":"თიანეთი","county":"თიანეთის მუნიციპალიტეტი","state":"მცხეთა-მთიანეთი","ISO3166-2-lvl4":"GE-MM","postcode":"2500","country":"საქართველო","country_code":"ge"},"population":3549,"osm_type":"node","osm_id":430614401,"type":"town","location":[44.9681531,42.1098363],"bbox":[44.9281531,42.0698363,45.0081531,42.1498363],"border":{"name":"თიანეთი","other_names":{"name:en":"Tianeti","name:ka":"თიანეთი","name:ru":"Тианети","int_name":"Tianeti","name:ml":"ടിയാനെറ്റി","name:uk":"Тіанеті"},"display_name":"თიანეთი, თიანეთის მუნიციპალიტეტი, მცხეთა-მთიანეთი, 2500, საქართველო","address":{"town":"თიანეთი","county":"თიანეთის მუნიციპალიტეტი","state":"მცხეთა-მთიანეთი","ISO3166-2-lvl4":"GE-MM","postcode":"2500","country":"საქართველო","country_code":"ge"},"population":3549,"osm_type":"way","osm_id":95067936,"type":"town","location":[44.9681531,42.1098363],"bbox":[44.95627,42.0928342,44.9747986,42.1227667]}}
{"name":"კაზრეთი","other_names":{"name:en":"Kazreti","name:ka":"კაზრეთი","name:ml":"കാസ്രെറ്റി","name:ru":"Казрети","name:uk":"Казреті"},"display_name":"კაზრეთი, ბოლნისის მუნიციპალიტეტი, ქვემო ქართლი, საქართველო","address":{"town":"კაზრეთი","county":"ბოლნისის მუნიციპალიტეტი","state":"ქვემო ქართლი","ISO3166-2-lvl4":"GE-KK","country":"საქართველო","country_code":"ge"},"population":5547,"osm_type":"node","osm_id":387617666,"type":"town","location":[44.4174136,41.3862068],"bbox":[44.3774136,41.3462068,44.4574136,41.4262068],"border":{"name":"კაზრეთი","other_names":{"name:en":"Kazreti","name:ka":"კაზრეთი","name:ru":"Казрети","name:ml":"കാസ്രെറ്റി","name:uk":"Казреті"},"display_name":"კაზრეთი, ბოლნისის მუნიციპალიტეტი, ქვემო ქართლი, საქართველო","address":{"town":"კაზრეთი","county":"ბოლნისის მუნიციპალიტეტი","state":"ქვემო ქართლი","ISO3166-2-lvl4":"GE-KK","country":"საქართველო","country_code":"ge"},"population":5562,"osm_type":"relation","osm_id":16461536,"type":"town","location":[44.4174136,41.3862068],"bbox":[44.4050558,41.3731776,44.4226729,41.3899745]}}
{"name":"კასპი","other_names":{"name:de":"Kaspi","name:en":"Kaspi","name:et":"Kaspi","name:hr":"Kaspi","name:ka":"კასპი","name:lt":"Kaspis","name:ml":"കാസ്പി","name:pl":"Kaspi","name:ru":"Каспи","name:sr":"Каспи","name:uk":"Каспі"},"display_name":"კასპი, კასპის მუნიციპალიტეტი, შიდა ქართლი, 2600, საქართველო","address":{"town":"კასპი","county":"კასპის მუნიციპალიტეტი","state":"შიდა ქართლი","ISO3166-2-lvl4":"GE-SK","postcode":"2600","country":"საქართველო","country_code":"ge"},"population":12319,"osm_type":"node","osm_id":288782540,"type":"town","location":[44.4186645,41.9245899],"bbox":[44.3786645,41.8845899,44.4586645,41.9645899],"border":{"name":"კასპი","other_names":{"name:de":"Kaspi","name:en":"Kaspi","name:et":"Kaspi","name:ka":"კასპი","name:lt":"Kaspis","name:pl":"Kaspi","name:ru":"Каспи","name:sr":"Каспи","name:hr":"Kaspi","name:ml":"കാസ്പി","name:uk":"Каспі"},"display_name":"კასპი, კასპის მუნიციპალიტეტი, შიდა ქართლი, საქართველო","address":{"town":"კასპი","county":"კასპის მუნიციპალიტეტი","state":"შიდა ქართლი","ISO3166-2-lvl4":"GE-SK","country":"საქართველო","country_code":"ge"},"population":15200,"osm_type":"way","osm_id":25688527,"type":"town","location":[44.4186645,41.9245899],"bbox":[44.4073096,41.9109632,44.4492209,41.9503885]}}
{"name":"ლაგოდეხი","other_names":{"name:de":"Lagodekhi","name:en":"Lagodekhi","name:ka":"ლაგოდეხი","name:ml":"ലാഗോഡെഖി","name:ru":"Лагодехи","name:uk":"Лаґодехі"},"display_name":"ლაგოდეხი, ლაგოდეხის მუნიციპალიტეტი, კახეთი, საქართველო","address":{"town":"ლაგოდეხი","county":"ლაგოდეხის მუნიციპალიტეტი","state":"კახეთი","ISO3166-2-lvl4":"GE-KA","country":"საქართველო","country_code":"ge"},"population":5607,"osm_type":"node","osm_id":8771928327,"type":"town","location":[46.2738235,41.8242785],"bbox":[46.2338235,41.7842785,46.3138235,41.8642785],"border":{"name":"ლაგოდეხი","other_names":{"name:az":"Laqodex","name:de":"Lagodechi","name:en":"Lagodekhi","name:ka":"ლაგოდეხი","name:lt":"Lagodechis","name:ru":"Лагодехи","name:uk":"Лаґодехі","name:ml":"ലാഗോഡെഖി","alt:de":"Lagodekhi"},"display_name":"ლაგოდეხი, ლაგოდეხის მუნიციპალიტეტი, კახეთი, საქართველო","address":{"town":"ლაგოდეხი","county":"ლაგოდეხის მუნიციპალიტეტი","state":"კახეთი","ISO3166-2-lvl4":"GE-KA","country":"საქართველო","country_code":"ge"},"population":5700,"osm_type":"way","osm_id":33880381,"type":"town","location":[46.2738235,41.8242785],"bbox":[46.2604117,41.8088329,46.2835892,41.8413084]}}
{"name":"ლანჩხუთი","other_names":{"name:de":"Lantschchuti","name:en":"Lanchkhuti","name:fr":"Lanchkhuti","name:ka":"ლანჩხუთი","name:lt":"Lančchutis","name:ml":"ലാഞ്ച്ഖൂട്ടി","name:ru":"Ланчхути","name:sr":"Ланчхути","name:uk":"Ланчхуті"},"display_name":"ლანჩხუთი, ლანჩხუთის მუნიციპალიტეტი, გურია, საქართველო","address":{"town":"ლანჩხუთი","county":"ლანჩხუთის მუნიციპალიტეტი","state":"გურია","ISO3166-2-lvl4":"GE-GU","country":"საქართველო","country_code":"ge"},"population":6214,"osm_type":"node","osm_id":388177293,"type":"town","location":[42.0364392,42.0875384],"bbox":[41.9964392,42.0475384,42.0764392,42.1275384],"border":[{"name":"ლანჩხუთი","other_names":{"name:de":"Lantschchuti","name:en":"Lanchkhuti","name:fr":"Lanchkhuti","name:ka":"ლანჩხუთი","name:lt":"Lančchutis","name:ru":"Ланчхути","name:sr":"Ланчхути","name:uk":"Ланчхуті"},"display_name":"ლანჩხუთი, ლანჩხუთის მუნიციპალიტეტი, გურია, საქართველო","address":{"town":"ლანჩხუთი","county":"ლანჩხუთის მუნიციპალიტეტი","state":"გურია","ISO3166-2-lvl4":"GE-GU","country":"საქართველო","country_code":"ge"},"population":6200,"osm_type":"way","osm_id":628354549,"type":"town","location":[42.0308461224039,42.0867738],"bbox":[42.0112252,42.0646191,42.0984936,42.1090004]},{"name":"ლანჩხუთი","other_names":{"name:ka":"ლანჩხუთი","name:de":"Lantschchuti","name:en":"Lanchkhuti","name:fr":"Lanchkhuti","name:lt":"Lančchutis","name:ml":"ലാഞ്ച്ഖൂട്ടി","name:ru":"Ланчхути","name:sr":"Ланчхути","name:uk":"Ланчхуті"},"display_name":"ლანჩხუთი, ლანჩხუთის მუნიციპალიტეტი, გურია, საქართველო","address":{"town":"ლანჩხუთი","county":"ლანჩხუთის მუნიციპალიტეტი","state":"გურია","ISO3166-2-lvl4":"GE-GU","country":"საქართველო","country_code":"ge"},"population":6214,"osm_type":"relation","osm_id":16170926,"type":"administrative","location":[42.0364392,42.0875384],"bbox":[42.0040211,42.0483286,42.0861654,42.1654109]}]}
{"name":"ლენტეხი","other_names":{"name:az":"Lentexi","name:de":"Lentechi","name:en":"Lentekhi","name:he":"לֵנטֵחי","name:ka":"ლენტეხი","name:ml":"ലെൻ്റെഖി","name:ru":"Лентехи","name:uk":"Лентехі"},"display_name":"ლენტეხი, ლენტეხის მუნიციპალიტეტი, რაჭა-ლეჩხუმი და ქვემო სვანეთი, საქართველო","address":{"town":"ლენტეხი","county":"ლენტეხის მუნიციპალიტეტი","state":"რაჭა-ლეჩხუმი და ქვემო სვანეთი","ISO3166-2-lvl4":"GE-RL","country":"საქართველო","country_code":"ge"},"population":1020,"osm_type":"node","osm_id":478639417,"type":"town","location":[42.7251827,42.7893711],"bbox":[42.6851827,42.7493711,42.7651827,42.8293711],"border":{"name":"ლენტეხი","other_names":{"name:de":"Lentechi","name:en":"Lentekhi","name:he":"לֵנטֵחי","name:ka":"ლენტეხი","name:ru":"Лентехи","name:az":"Lentexi","name:ml":"ലെൻ്റെഖി","name:uk":"Лентехі"},"display_name":"ლენტეხი, ლენტეხის მუნიციპალიტეტი, რაჭა-ლეჩხუმი და ქვემო სვანეთი, საქართველო","address":{"town":"ლენტეხი","county":"ლენტეხის მუნიციპალიტეტი","state":"რაჭა-ლეჩხუმი და ქვემო სვანეთი","ISO3166-2-lvl4":"GE-RL","country":"საქართველო","country_code":"ge"},"population":1800,"osm_type":"way","osm_id":159047970,"type":"town","location":[42.7251827,42.7893711],"bbox":[42.7104449,42.7827544,42.7326965,42.7988673]}}
{"name":"მანგლისი","other_names":{"name:en":"Manglisi","name:hy":"Մանգլիս","name:ka":"მანგლისი","name:ml":"മാൻഗ്ലിസി","name:pl":"Manglisi","name:ru":"Манглиси","name:uk":"Манглісі","int_name":"Manglisi"},"display_name":"მანგლისი, თეთრიწყაროს მუნიციპალიტეტი, ქვემო ქართლი, საქართველო","address":{"town":"მანგლისი","county":"თეთრიწყაროს მუნიციპალიტეტი","state":"ქვემო ქართლი","ISO3166-2-lvl4":"GE-KK","country":"საქართველო","country_code":"ge"},"population":1673,"osm_type":"node","osm_id":387157943,"type":"town","location":[44.3830654,41.6986621],"bbox":[44.3430654,41.6586621,44.4230654,41.7386621]}
{"name":"მარნეული","other_names":{"name:ar":"مارنولي","name:az":"Sarvan;Borçalı Marneul","name:de":"Marneuli","name:en":"Marneuli","name:fa":"مارنئولی","name:fr":"Marneuli","name:he":"מרנאולי","name:hr":"Marneuli","name:hy":"Մառնեուլ","name:ka":"მარნეული","name:ml":"മാർനെയൂലി","name:ru":"Марнеули","name:sr":"Марнеули","name:uk":"Марнеулі","name:ur":"مارنئولی","int_name":"Marneuli","name:mzn":"مارنئولی","nat_name":"მარნეული","old_name":"Bortshali;Borchali;Sarvan","old_name:de":"Marxheim;Marnaul"},"display_name":"მარნეული, მარნეულის მუნიციპალიტეტი, ქვემო ქართლი, საქართველო","address":{"town":"მარნეული","county":"მარნეულის მუნიციპალიტეტი","state":"ქვემო ქართლი","ISO3166-2-lvl4":"GE-KK","country":"საქართველო","country_code":"ge"},"population":26400,"osm_type":"node","osm_id":209847414,"type":"town","location":[44.8159789,41.4718258],"bbox":[44.7759789,41.4318258,44.8559789,41.5118258],"border":{"name":"მარნეული","other_names":{"name:ar":"مارنولي","name:az":"Borçalı Marneul","name:en":"Marneuli","name:fa":"مارنئولی","name:fr":"Marneuli","name:he":"מרנאולי","name:hy":"Մառնեուլի","name:ka":"მარნეული","name:ru":"Марнеули","name:sr":"Марнеули","name:ur":"مارنئولی","int_name":"Marneuli","name:mzn":"مارنئولی","nat_name":"მარნეული","old_name":"Marneuli","alt_name:hy":"Բորչալու","old_name:de":"Marxheim;Marnaul","name:de":"Marneuli","name:hr":"Marneuli","name:ml":"മാർനെയൂലി","name:uk":"Марнеулі","_place_old_name":"Bortshali;Borchali;Sarvan","alt:az":"Sarvan;Borçalı Marneul","alt:hy":"Մառնեուլ"},"display_name":"მარნეული, მარნეულის მუნიციპალიტეტი, ქვემო ქართლი, საქართველო","address":{"town":"მარნეული","county":"მარნეულის მუნიციპალიტეტი","state":"ქვემო ქართლი","ISO3166-2-lvl4":"GE-KK","country":"საქართველო","country_code":"ge"},"population":24928,"osm_type":"way","osm_id":33728338,"type":"town","location":[44.8159789,41.4718258],"bbox":[44.7854018,41.4552551,44.8399163,41.5105778]}}
{"name":"მარტვილი","other_names":{"name:de":"Martwili","name:en":"Martvili","name:ka":"მარტვილი","name:lt":"Martvilis","name:ml":"മാർട്വിലി","name:ru":"Мартвили","name:sr":"Мартвили","name:uk":"Мартвілі","name:zh":"马尔特维利","old_name":"გეგეჭკორი","old_name:en":"Gegechkori","old_name:ka":"გეგეჭკორი","old_name:ru":"Гегечкори"},"display_name":"მარტვილი, მარტვილის მუნიციპალიტეტი, სამეგრელო-ზემო სვანეთი, 3100, საქართველო","address":{"town":"მარტვილი","county":"მარტვილის მუნიციპალიტეტი","state":"სამეგრელო-ზემო სვანეთი","ISO3166-2-lvl4":"GE-SZ","postcode":"3100","country":"საქართველო","country_code":"ge"},"population":3966,"osm_type":"node","osm_id":338167531,"type":"town","location":[42.3801746,42.4144214],"bbox":[42.3401746,42.3744214,42.4201746,42.4544214],"border":[{"name":"მარტვილი","other_names":{"name:en":"Martvili","name:ka":"მარტვილი","name:ru":"Мартвили","int_name":"Martvili","name:de":"Martwili","name:lt":"Martvilis","name:ml":"മാർട്വിലി","name:sr":"Мартвили","name:uk":"Мартвілі","name:zh":"马尔特维利","old_name":"გეგეჭკორი","old_name:en":"Gegechkori","old_name:ka":"გეგეჭკორი","old_name:ru":"Гегечкори"},"display_name":"მარტვილი, მარტვილის მუნიციპალიტეტი, სამეგრელო-ზემო სვანეთი, საქართველო","address":{"town":"მარტვილი","county":"მარტვილის მუნიციპალიტეტი","state":"სამეგრელო-ზემო სვანეთი","ISO3166-2-lvl4":"GE-SZ","country":"საქართველო","country_code":"ge"},"population":3966,"osm_type":"way","osm_id":30594343,"type":"town","location":[42.3801746,42.4144214],"bbox":[42.3631301,42.4023418,42.3866477,42.4271818]},{"name":"მარტვილის მუნიციპალიტეტი","other_names":{"name:de":"Munizipalität Martwili","name:en":"Martvili Municipality","name:es":"Municipio de Martvili","name:et":"Martvili rajoon","name:fa":"شهرداری مارتویلی","name:fi":"Martvilin piirikunta","name:fr":"Municipalité de Martvili","name:he":"נפת מרטווילי","name:hy":"Մարտվիլի մունիցիպալիտետ","name:it":"Municipalità di Martvili","name:ka":"მარტვილის მუნიციპალიტეტი","name:ru":"Мартвильский муниципалитет","name:uk":"Мартвільський муніципалітет","name:zh":"馬爾特維利市","int_name":"Martvili","name:ceb":"Mart'vilis Munitsip'alit'et'i","name:scn":"Municipalitati di Martvili","name:xmf":"მარტვილიშ მუნიციპალიტეტი"},"display_name":"მარტვილის მუნიციპალიტეტი, სამეგრელო-ზემო სვანეთი, 3100, საქართველო","address":{"county":"მარტვილის მუნიციპალიტეტი","state":"სამეგრელო-ზემო სვანეთი","ISO3166-2-lvl4":"GE-SZ","postcode":"3100","country":"საქართველო","country_code":"ge"},"osm_type":"relation","osm_id":2016165,"type":"administrative","location":[42.38444506632596,42.53983055],"bbox":[42.1781657,42.2884242,42.6176367,42.7902499]}]}
{"name":"მესტია","other_names":{"name:de":"Mestia","name:en":"Mestia","name:fr":"Mestia","name:ka":"მესტია","name:ko":"메스티아","name:ml":"മെസ്റ്റിയ","name:ru":"Местиа","name:uk":"Местія","name:zh":"梅斯蒂亚","int_name":"Mestia","name:sva_rm":"Mestia"},"display_name":"მესტია, მესტიის მუნიციპალიტეტი, სამეგრელო-ზემო სვანეთი, საქართველო","address":{"town":"მესტია","county":"მესტიის მუნიციპალიტეტი","state":"სამეგრელო-ზემო სვანეთი","ISO3166-2-lvl4":"GE-SZ","country":"საქართველო","country_code":"ge"},"population":1689,"osm_type":"node","osm_id":375730929,"type":"town","location":[42.7244532,43.0437615],"bbox":[42.6844532,43.0037615,42.7644532,43.0837615],"border":[{"name":"მესტია","other_names":{"name:de":"Mestia","name:en":"Mestia","name:fr":"Mestia","name:ka":"მესტია","name:ko":"메스티아","name:ru":"Местиа","name:uk":"Местія","int_name":"Mestia","name:sva_rm":"Mestia","name:ml":"മെസ്റ്റിയ","name:zh":"梅斯蒂亚"},"display_name":"მესტია, მესტიის მუნიციპალიტეტი, სამეგრელო-ზემო სვანეთი, 3200, საქართველო","address":{"town":"მესტია","county":"მესტიის მუნიციპალიტეტი","state":"სამეგრელო-ზემო სვანეთი","ISO3166-2-lvl4":"GE-SZ","postcode":"3200","country":"საქართველო","country_code":"ge"},"population":1798,"osm_type":"way","osm_id":628347610,"type":"town","location":[42.7244532,43.0437615],"bbox":[42.7092726,43.0378888,42.7612918,43.0756906]},{"name":"მესტიის მუნიციპალიტეტი","other_names":{"name:de":"Munizipalität Mestia","name:en":"Mestia Municipality","name:es":"Municipio de Mestia","name:et":"Mestia rajoon","name:fa":"`شهرداری مستیا","name:fi":"Mestian piirikunta","name:fr":"Municipalité de Mestia","name:he":"נפת מסטיה","name:hy":"Մեստիայի շրջան","name:it":"Municipalità di Mestia","name:ka":"მესტიის მუნიციპალიტეტი","name:os":"Местиайы муниципалитет","name:ru":"Местийский муниципалитет","name:uk":"Местійський муніципалітет","name:zh":"梅斯蒂亚","alt_name":"ზემო სვანეთი","int_name":"Mestiis Munitsipaliteti","name:ceb":"Mest'iis Munitsip'alit'et'i","name:xmf":"მესტიაშ მუნიციპალიტეტი","alt_name:de":"Oberswanetien","alt_name:en":"Upper Svaneti","alt_name:ka":"ზემო სვანეთი","alt_name:ru":"Верхняя Сванетия"},"display_name":"მესტიის მუნიციპალიტეტი, სამეგრელო-ზემო სვანეთი, საქართველო","address":{"county":"მესტიის მუნიციპალიტეტი","state":"სამეგრელო-ზემო სვანეთი","ISO3166-2-lvl4":"GE-SZ","country":"საქართველო","country_code":"ge"},"osm_type":"relation","osm_id":2016168,"type":"administrative","location":[42.49772772879243,43.033365849999996],"bbox":[41.866457,42.8102396,43.146234,43.2569824]}]}
{"name":"მცხეთა","other_names":{"name:cs":"Mccheta","name:de":"Mzcheta","name:en":"Mtskheta","name:fr":"Mtskheta","name:he":"מצחטה","name:ka":"მცხეთა","name:lt":"Mccheta","name:ml":"മ്റ്റിസ്ഖേറ്റ","name:ru":"Мцхета","name:sr":"Мцхета","name:uk":"Мцхета","name:zh":"姆茨赫塔"},"display_name":"მცხეთა, მცხეთის მუნიციპალიტეტი, მცხეთა-მთიანეთი, საქართველო","address":{"town":"მცხეთა","county":"მცხეთის მუნიციპალიტეტი","state":"მცხეთა-მთიანეთი","ISO3166-2-lvl4":"GE-MM","country":"საქართველო","country_code":"ge"},"population":7380,"osm_type":"node","osm_id":218787821,"type":"town","location":[44.7195591,41.846295],"bbox":[44.6795591,41.806295,44.7595591,41.886295],"border":{"name":"მცხეთა","other_names":{"name:cs":"Mccheta","name:de":"Mzcheta","name:en":"Mtskheta","name:ka":"მცხეთა","name:ko":"므츠헤타","name:ru":"Мцхета","name:sr":"Мцхета","name:fr":"Mtskheta","name:he":"מצחטה","name:lt":"Mccheta","name:ml":"മ്റ്റിസ്ഖേറ്റ","name:uk":"Мцхета","name:zh":"姆茨赫塔"},"display_name":"მცხეთა, მცხეთის მუნიციპალიტეტი, მცხეთა-მთიანეთი, 3300, საქართველო","address":{"town":"მცხეთა","county":"მცხეთის მუნიციპალიტეტი","state":"მცხეთა-მთიანეთი","ISO3166-2-lvl4":"GE-MM","postcode":"3300","country":"საქართველო","country_code":"ge"},"population":7940,"osm_type":"relation","osm_id":8374155,"type":"administrative","location":[44.7195591,41.846295],"bbox":[44.632532,41.8023027,44.7302368,41.8945508]}}
{"name":"ნინოწმინდა","other_names":{"name:az":"Ninotsminda","name:de":"Ninozminda","name:en":"Ninotsminda","name:et":"Ninotsminda","name:fr":"Ninotsminda","name:hu":"Ninocminda","name:hy":"Նինոծմինդա","name:ka":"ნინოწმინდა","name:ml":"നിനോട്സ്മിൻഡ","name:ru":"Ниноцминда","name:sr":"Ниноцминда","name:tr":"Altunkale","name:uk":"Ніноцмінда","old_name":"ბოგდანოვკა","old_name:de":"Bogdanowka","old_name:en":"Bogdanovka","old_name:hy":"Բոգդանովկա","old_name:ru":"Богдановка"},"display_name":"ნინოწმინდა, ნინოწმინდის მუნიციპალიტეტი, სამცხე-ჯავახეთი, 3400, საქართველო","address":{"town":"ნინოწმინდა","county":"ნინოწმინდის მუნიციპალიტეტი","state":"სამცხე-ჯავახეთი","ISO3166-2-lvl4":"GE-SJ","postcode":"3400","country":"საქართველო","country_code":"ge"},"population":3844,"osm_type":"node","osm_id":388184687,"type":"town","location":[43.5927945,41.2650182],"bbox":[43.5527945,41.2250182,43.6327945,41.3050182],"border":[{"name":"ნინოწმინდა","other_names":{"name:az":"Ninotsminda","name:de":"Ninozminda","name:en":"Ninotsminda","name:et":"Ninotsminda","name:fr":"Ninotsminda","name:hu":"Ninocminda","name:hy":"Նինոծմինդա","name:ka":"ნინოწმინდა","name:ru":"Ниноцминда","name:sr":"Ниноцминда","name:tr":"Altunkale","name:uk":"Ніноцмінда","old_name":"ბოგდანოვკა","old_name:de":"Bogdanowka","old_name:en":"Bogdanovka","old_name:hy":"Բոգդանովկա","old_name:ru":"Богдановка","name:ml":"നിനോട്സ്മിൻഡ"},"display_name":"ნინოწმინდა, ნინოწმინდის მუნიციპალიტეტი, სამცხე-ჯავახეთი, საქართველო","address":{"town":"ნინოწმინდა","county":"ნინოწმინდის მუნიციპალიტეტი","state":"სამცხე-ჯავახეთი","ISO3166-2-lvl4":"GE-SJ","country":"საქართველო","country_code":"ge"},"population":4242,"osm_type":"relation","osm_id":18593290,"type":"town","location":[43.5927945,41.2650182],"bbox":[43.5753416,41.2537019,43.6020166,41.2799456]},{"name":"ნინოწმინდის მუნიციპალიტეტი","other_names":{"name:de":"Munizipalität Ninozminda","name:en":"Ninotsminda Municipality","name:es":"Municipio de Ninotsminda","name:fa":"شهرداری نینوتسمیندا","name:fi":"Ninotsmindan piirikunta","name:fr":"Municipalité de Ninotsminda","name:he":"נפת נינוצמינדה","name:hy":"Նինոծմինդայի մունիցիպալիտետ","name:it":"Municipalità di Ninotsminda","name:ka":"ნინოწმინდის მუნიციპალიტეტი","name:os":"Ниноцъминдайы муниципалитет","name:ru":"Ниноцминдский муниципалитет","name:tr":"Ninotsminda Belediyesi","name:uk":"Ніноцміндійський муніципалітет","name:uz":"Ninotsminda munitsipaliteti","name:zh":"尼諾茨明達市","int_name":"Ninotsmindis Munitsipaliteti","name:ceb":"Ninots'mindis Munitsip'alit'et'i","name:xmf":"ნინოწმინდაშ მუნიციპალიტეტი","old_name":"Bogdanovka District","old_name:ka":"ბოგდანოვკა","old_name:ru":"Богдановский район"},"display_name":"ნინოწმინდის მუნიციპალიტეტი, სამცხე-ჯავახეთი, საქართველო","address":{"county":"ნინოწმინდის მუნიციპალიტეტი","state":"სამცხე-ჯავახეთი","ISO3166-2-lvl4":"GE-SJ","country":"საქართველო","country_code":"ge"},"osm_type":"relation","osm_id":2013751,"type":"administrative","location":[43.74497216441859,41.32433965],"bbox":[43.427654,41.109326,43.9665864,41.5397641]}]}
{"name":"ოზურგეთი","other_names":{"name:de":"Osurgeti","name:en":"Ozurgeti","name:es":"Ozurgueti","name:fr":"Ozourguéti","name:hr":"Ozurgeti","name:it":"Ozurgeti","name:ka":"ოზურგეთი","name:lt":"Ozurgetis","name:ml":"ഓസൂർഗെട്ടി","name:ru":"Озургети","name:sr":"Озургети","name:tr":"Ozurgeti","name:uk":"Озурґеті","old_name:1934-1989":"მახარაძე","old_name:de:1934-1989":"Macharadse","old_name:en:1934-1989":"Makharadze","old_name:ka:1934-1989":"მახარაძე","old_name:ru:1934-1989":"Махарадзе"},"display_name":"ოზურგეთი, ოზურგეთის მუნიციპალიტეტი, გურია, საქართველო","address":{"town":"ოზურგეთი","county":"ოზურგეთის მუნიციპალიტეტი","state":"გურია","ISO3166-2-lvl4":"GE-GU","country":"საქართველო","country_code":"ge"},"population":13935,"osm_type":"node","osm_id":218716543,"type":"town","location":[42.0059263,41.9230979],"bbox":[41.9659263,41.8830979,42.0459263,41.9630979],"border":{"name":"ოზურგეთი","other_names":{"name:de":"Osurgeti","name:en":"Ozurgeti","name:es":"Ozurgueti","name:fr":"Ozourguéti","name:hr":"Ozurgeti","name:it":"Ozurgeti","name:ka":"ოზურგეთი","name:lt":"Ozurgetis","name:ru":"Озургети","name:sr":"Озургети","name:tr":"Ozurgeti","name:uk":"Озурґеті","name:ml":"ഓസൂർഗെട്ടി","old_name:1934-1989":"მახარაძე","old_name:de:1934-1989":"Macharadse","old_name:en:1934-1989":"Makharadze","old_name:ka:1934-1989":"მახარაძე","old_name:ru:1934-1989":"Махарадзе"},"display_name":"ოზურგეთი, ოზურგეთის მუნიციპალიტეტი, გურია, საქართველო","address":{"town":"ოზურგეთი","county":"ოზურგეთის მუნიციპალიტეტი","state":"გურია","ISO3166-2-lvl4":"GE-GU","country":"საქართველო","country_code":"ge"},"population":14211,"osm_type":"relation","osm_id":8374107,"type":"administrative","location":[42.0059263,41.9230979],"bbox":[41.9002207,41.8968228,42.0348423,41.9428981]}}
{"name":"ონი","other_names":{"name:de":"Oni","name:en":"Oni","name:eo":"Oni","name:es":"Oni","name:et":"Oni","name:fi":"Oni","name:gl":"Oni","name:he":"אוני","name:hy":"Օնի","name:ka":"ონი","name:ml":"ഓനി","name:nl":"Oni","name:os":"Он","name:ru":"Они","name:sr":"Они","name:sv":"Oni","name:uk":"Оні","name:zh":"奧尼","name:mzn":"اونی","name:war":"Oni, Heorhya","name:xmf":"ონი"},"display_name":"ონი, ონის მუნიციპალიტეტი, რაჭა-ლეჩხუმი და ქვემო სვანეთი, საქართველო","address":{"town":"ონი","county":"ონის მუნიციპალიტეტი","state":"რაჭა-ლეჩხუმი და ქვემო სვანეთი","ISO3166-2-lvl4":"GE-RL","country":"საქართველო","country_code":"ge"},"population":2480,"osm_type":"node","osm_id":389681534,"type":"town","location":[43.4427287,42.585344],"bbox":[43.4027287,42.545344,43.4827287,42.625344],"border":{"name":"ონი","other_names":{"name:de":"Oni","name:en":"Oni","name:eo":"Oni","name:es":"Oni","name:et":"Oni","name:fi":"Oni","name:gl":"Oni","name:he":"אוני","name:hu":"Oni","name:ka":"ონი","name:nl":"Oni","name:os":"Он","name:ru":"Они","name:sr":"Они","name:sv":"Oni","name:uk":"Оні","name:zh":"奧尼","name:mzn":"اونی","name:war":"Oni, Heorhya","name:xmf":"ონი","name:hy":"Օնի","name:ml":"ഓനി"},"display_name":"ონი, ონის მუნიციპალიტეტი, რაჭა-ლეჩხუმი და ქვემო სვანეთი, საქართველო","address":{"town":"ონი","county":"ონის მუნიციპალიტეტი","state":"რაჭა-ლეჩხუმი და ქვემო სვანეთი","ISO3166-2-lvl4":"GE-RL","country":"საქართველო","country_code":"ge"},"population":2480,"osm_type":"way","osm_id":34012039,"type":"town","location":[43.4427287,42.585344],"bbox":[43.4259641,42.5737641,43.4639017,42.5980503]}}
{"name":"ჟინვალი","other_names":{"name:de":"Schinwali","name:en":"Zhinvali","name:ka":"ჟინვალი","name:ml":"ഷിൻവാലി","name:ru":"Жинвали","int_name":"Jinvali"},"display_name":"ჟინვალი, დუშეთის მუნიციპალიტეტი, მცხეთა-მთიანეთი, 1813, საქართველო","address":{"town":"ჟინვალი","county":"დუშეთის მუნიციპალიტეტი","state":"მცხეთა-მთიანეთი","ISO3166-2-lvl4":"GE-MM","postcode":"1813","country":"საქართველო","country_code":"ge"},"population":2643,"osm_type":"node","osm_id":1834491854,"type":"town","location":[44.7668474,42.1079165],"bbox":[44.7268474,42.0679165,44.8068474,42.1479165],"border":{"name":"ჟინვალი","other_names":{"name:de":"Schinwali","name:en":"Zhinvali","name:ka":"ჟინვალი","name:ru":"Жинвали","int_name":"Jinvali","name:ml":"ഷിൻവാലി"},"display_name":"ჟინვალი, დუშეთის მუნიციპალიტეტი, მცხეთა-მთიანეთი, საქართველო","address":{"town":"ჟინვალი","county":"დუშეთის მუნიციპალიტეტი","state":"მცხეთა-მთიანეთი","ISO3166-2-lvl4":"GE-MM","country":"საქართველო","country_code":"ge"},"population":2643,"osm_type":"relation","osm_id":18700043,"type":"town","location":[44.7668474,42.1079165],"bbox":[44.7620629,42.1014257,44.7769514,42.1123903]}}
{"name":"საგარეჯო","other_names":{"name:az":"Saqareco","name:cs":"Sagaredžo","name:de":"Sagaredscho","name:en":"Sagarejo","name:hy":"Սագարեջո","name:ka":"საგარეჯო","name:ml":"സാഗാറെജോ","name:ru":"Сагареджо","name:sr":"Сагарежо","name:tr":"Sagareco","int_name":"Sagarejo","old_name":"თვალი","old_name:de":"Twali","old_name:en":"Tvali","old_name:ka":"თვალი"},"display_name":"საგარეჯო, საგარეჯოს მუნიციპალიტეტი, კახეთი, საქართველო","address":{"town":"საგარეჯო","county":"საგარეჯოს მუნიციპალიტეტი","state":"კახეთი","ISO3166-2-lvl4":"GE-KA","country":"საქართველო","country_code":"ge"},"population":10166,"osm_type":"node","osm_id":9845474023,"type":"town","location":[45.3259549,41.7369023],"bbox":[45.2859549,41.6969023,45.3659549,41.7769023],"border":{"name":"საგარეჯო","other_names":{"name:cs":"Sagaredžo","name:de":"Sagaredscho","name:en":"Sagarejo","name:ka":"საგარეჯო","name:ru":"Сагареджо","name:sr":"Сагарежо","int_name":"Sagarejo","name:az":"Saqareco","name:hy":"Սագարեջո","name:ml":"സാഗാറെജോ","name:tr":"Sagareco","old_name":"თვალი","old_name:de":"Twali","old_name:en":"Tvali","old_name:ka":"თვალი"},"display_name":"საგარეჯო, საგარეჯოს მუნიციპალიტეტი, კახეთი, საქართველო","address":{"town":"საგარეჯო","county":"საგარეჯოს მუნიციპალიტეტი","state":"კახეთი","ISO3166-2-lvl4":"GE-KA","country":"საქართველო","country_code":"ge"},"population":10359,"osm_type":"way","osm_id":26294040,"type":"town","location":[45.3259549,41.7369023],"bbox":[45.3015662,41.7070595,45.3612143,41.7528918]}}
{"name":"სამტრედია","other_names":{"name:de":"Samtredia","name:en":"Samtredia","name:fr":"Samtredia","name:hr":"Samtredia","name:ka":"სამტრედია","name:ml":"സാംട്രെഡിയ","name:ru":"Самтредия","name:uk":"Самтредія"},"display_name":"სამტრედია, სამტრედიის მუნიციპალიტეტი, იმერეთი, საქართველო","address":{"town":"სამტრედია","county":"სამტრედიის მუნიციპალიტეტი","state":"იმერეთი","ISO3166-2-lvl4":"GE-IM","country":"საქართველო","country_code":"ge"},"population":20633,"osm_type":"node","osm_id":2522066856,"type":"town","location":[42.3458802,42.1646492],"bbox":[42.3058802,42.1246492,42.3858802,42.2046492],"border":[{"name":"სამტრედია","other_names":{"name:de":"Samtredia","name:en":"Samtredia","name:fr":"Samtredia","name:ka":"სამტრედია","name:ru":"Самтредия","name:uk":"Самтредія"},"display_name":"სამტრედია, სამტრედიის მუნიციპალიტეტი, იმერეთი, 3900, საქართველო","address":{"town":"სამტრედია","county":"სამტრედიის მუნიციპალიტეტი","state":"იმერეთი","ISO3166-2-lvl4":"GE-IM","postcode":"3900","country":"საქართველო","country_code":"ge"},"population":22400,"osm_type":"way","osm_id":628351266,"type":"town","location":[42.349989689065154,42.16450485],"bbox":[42.3020142,42.1476077,42.4032783,42.1806264]},{"name":"სამტრედია","other_names":{"name:de":"Samtredia","name:en":"Samtredia","name:fr":"Samtredia","name:ka":"სამტრედია","name:ru":"Самтредия","name:uk":"Самтредія","name:hr":"Samtredia","name:ml":"സാംട്രെഡിയ"},"display_name":"სამტრედია, სამტრედიის მუნიციპალიტეტი, იმერეთი, 3900, საქართველო","address":{"town":"სამტრედია","county":"სამტრედიის მუნიციპალიტეტი","state":"იმერეთი","ISO3166-2-lvl4":"GE-IM","postcode":"3900","country":"საქართველო","country_code":"ge"},"population":20633,"osm_type":"relation","osm_id":14282785,"type":"administrative","location":[42.3458802,42.1646492],"bbox":[42.2890155,42.1190173,42.3991032,42.1919721]}]}
{"name":"საჩხერე","other_names":{"name:de":"Satschchere","name:en":"Sachkhere","name:it":"Sachkhere","name:ka":"საჩხერე","name:lt":"Sačcherė","name:os":"СачхереСачхере","name:ru":"Сачхере","name:sr":"Сачхере","name:uk":"Сачхере"},"display_name":"საჩხერე, საჩხერის მუნიციპალიტეტი, იმერეთი, 1727, საქართველო","address":{"town":"საჩხერე","county":"საჩხერის მუნიციპალიტეტი","state":"იმერეთი","ISO3166-2-lvl4":"GE-IM","postcode":"1727","country":"საქართველო","country_code":"ge"},"population":5235,"osm_type":"node","osm_id":387159396,"type":"town","location":[43.405233,42.3401451],"bbox":[43.365233,42.3001451,43.445233,42.3801451],"border":{"name":"საჩხერე","other_names":{"name:cs":"Sačchere","name:de":"Satschchere","name:en":"Sachkhere","name:it":"Sachkhere","name:ka":"საჩხერე","name:lt":"Sačcherė","name:os":"СачхереСачхере","name:ru":"Сачхере","name:sr":"Сачхере","name:uk":"Сачхере"},"display_name":"საჩხერე, საჩხერის მუნიციპალიტეტი, იმერეთი, 1727, საქართველო","address":{"town":"საჩხერე","county":"საჩხერის მუნიციპალიტეტი","state":"იმერეთი","ISO3166-2-lvl4":"GE-IM","postcode":"1727","country":"საქართველო","country_code":"ge"},"population":5235,"osm_type":"relation","osm_id":16430751,"type":"town","location":[43.405233,42.3401451],"bbox":[43.3794093,42.3239822,43.4244235,42.3499771]}}
{"name":"სენაკი","other_names":{"name:de":"Senaki","name:en":"Senaki","name:et":"Senaki","name:hr":"Senaki","name:ka":"სენაკი","name:lt":"Senakis","name:ml":"സെനാക്കി","name:ru":"Сенаки","name:sr":"Сенаки","name:uk":"Сенакі","nat_name":"სენაკი","old_name":"Tskhakaya"},"display_name":"სენაკი, სენაკის მუნიციპალიტეტი, სამეგრელო-ზემო სვანეთი, 4100, საქართველო","address":{"town":"სენაკი","county":"სენაკის მუნიციპალიტეტი","state":"სამეგრელო-ზემო სვანეთი","ISO3166-2-lvl4":"GE-SZ","postcode":"4100","country":"საქართველო","country_code":"ge"},"population":14991,"osm_type":"node","osm_id":280683309,"type":"town","location":[42.0635021,42.2697221],"bbox":[42.0235021,42.2297221,42.1035021,42.3097221],"border":{"name":"სენაკი","other_names":{"name:de":"Senaki","name:en":"Senaki","name:et":"Senaki","name:ka":"სენაკი","name:ru":"Сенаки","name:sr":"Сенаки","nat_name":"სენაკი","old_name":"Tskhakaya","name:hr":"Senaki","name:lt":"Senakis","name:ml":"സെനാക്കി","name:uk":"Сенакі"},"display_name":"სენაკი, სენაკის მუნიციპალიტეტი, სამეგრელო-ზემო სვანეთი, საქართველო","address":{"town":"სენაკი","county":"სენაკის მუნიციპალიტეტი","state":"სამეგრელო-ზემო სვანეთი","ISO3166-2-lvl4":"GE-SZ","country":"საქართველო","country_code":"ge"},"population":17053,"osm_type":"way","osm_id":30594351,"type":"town","location":[42.0635021,42.2697221],"bbox":[42.0376601,42.2590919,42.097731,42.2831513]}}
{"name":"სიღნაღი","other_names":{"name:de":"Sighnaghi","name:en":"Sighnaghi","name:et":"Signagi","name:ka":"სიღნაღი","name:lt":"Signachis","name:ml":"സിഗ്നാഗി","name:ru":"Сигнахи","name:sr":"Сигнахи","name:uk":"Сіґнаґі"},"display_name":"სიღნაღი, სიღნაღის მუნიციპალიტეტი, კახეთი, საქართველო","address":{"town":"სიღნაღი","county":"სიღნაღის მუნიციპალიტეტი","state":"კახეთი","ISO3166-2-lvl4":"GE-KA","country":"საქართველო","country_code":"ge"},"population":1407,"osm_type":"node","osm_id":289105944,"type":"town","location":[45.922812,41.6189931],"bbox":[45.882812,41.5789931,45.962812,41.6589931],"border":{"name":"სიღნაღი","other_names":{"name:en":"Sighnaghi","name:et":"Signagi","name:ka":"სიღნაღი","name:ru":"Сигнахи","name:sr":"Сигнахи","name:uk":"Сігнагі","name:de":"Sighnaghi","name:lt":"Signachis","name:ml":"സിഗ്നാഗി","alt:uk":"Сіґнаґі"},"display_name":"სიღნაღი, სიღნაღის მუნიციპალიტეტი, კახეთი, საქართველო","address":{"town":"სიღნაღი","county":"სიღნაღის მუნიციპალიტეტი","state":"კახეთი","ISO3166-2-lvl4":"GE-KA","country":"საქართველო","country_code":"ge"},"population":1446,"osm_type":"relation","osm_id":16768135,"type":"town","location":[45.922812,41.6189931],"bbox":[45.9112508,41.5970714,45.9414017,41.6256844]}}
{"name":"სტეფანწმინდა","other_names":{"name:ar":"ستيبانتسميندا","name:bn":"স্টেপ্যান্টসমিন্দা","name:de":"Stepantsminda","name:en":"Stepantsminda","name:es":"Stepantsminda","name:fr":"Stepantsminda","name:hi":"स्टेपेंट्समिंडा","name:it":"Stepantsminda","name:ja":"ステパンツミンダ","name:ka":"სტეფანწმინდა","name:ko":"스테판츠민다","name:ml":"സ്റ്റെപ്പൻ്റ്സ്മിൻഡ","name:nl":"Stepantsminda","name:os":"Сæна","name:pl":"Stepantsminda","name:pt":"Stepantsminda","name:ru":"Степанцминда","name:sv":"Stepantsminda","name:tr":"Stepantsminda","name:uk":"Степанцмінда","name:zh":"斯捷潘茨明达","int_name":"Stepantsminda","alt_name:en":"Gergeti","old_name:1921-2007":"ყაზბეგი","old_name:ar:1921-2007":"كازبيجي","old_name:bn:1921-2007":"কাজবেগি","old_name:de:1921-2007":"Kasbegi","old_name:en:1921-2007":"Kazbegi","old_name:es:1921-2007":"Kazbegi","old_name:fr:1921-2007":"Kazbegi","old_name:hi:1921-2007":"काज़बेगी","old_name:it:1921-2007":"Kazbegi","old_name:ja:1921-2007":"カズベギ","old_name:ka:1921-2007":"ყაზბეგი","old_name:ko:1921-2007":"카즈베기","old_name:nl:1921-2007":"Kazbegi","old_name:pl:1921-2007":"Kazbegi","old_name:pt:1921-2007":"Kazbegi","old_name:ru:1921-2007":"Казбеги","old_name:sv:1921-2007":"Kazbegi","old_name:tr:1921-2007":"Kazbegi","old_name:uk:1921-2007":"Казбегі","old_name:zh:1921-2007":"卡兹别吉"},"display_name":"სტეფანწმინდა, ყაზბეგის მუნიციპალიტეტი, მცხეთა-მთიანეთი, 4700, საქართველო","address":{"town":"სტეფანწმინდა","county":"ყაზბეგის მუნიციპალიტეტი","state":"მცხეთა-მთიანეთი","ISO3166-2-lvl4":"GE-MM","postcode":"4700","country":"საქართველო","country_code":"ge"},"population":1552,"osm_type":"node","osm_id":274262563,"type":"town","location":[44.6408079,42.6579897],"bbox":[44.6008079,42.6179897,44.6808079,42.6979897],"border":{"name":"სტეფანწმინდა","other_names":{"name:ar":"ستيبانتسميندا","name:bn":"স্টেপ্যান্টসমিন্দা","name:de":"Stepantsminda","name:en":"Stepantsminda","name:es":"Stepantsminda","name:fr":"Stepantsminda","name:hi":"स्टेपेंट्समिंडा","name:it":"Stepantsminda","name:ja":"ステパンツミンダ","name:ka":"სტეფანწმინდა","name:ko":"스테판츠민다","name:nl":"Stepantsminda","name:os":"Сæна","name:pl":"Stepantsminda","name:pt":"Stepantsminda","name:ru":"Степанцминда","name:sv":"Stepantsminda","name:tr":"Stepantsminda","name:uk":"Степанцмінда","name:zh":"斯捷潘茨明达","int_name":"Stepantsminda","alt_name:en":"Gergeti","name:ml":"സ്റ്റെപ്പൻ്റ്സ്മിൻഡ","old_name:1921-2007":"ყაზბეგი","old_name:ar:1921-2007":"كازبيجي","old_name:bn:1921-2007":"কাজবেগি","old_name:de:1921-2007":"Kasbegi","old_name:en:1921-2007":"Kazbegi","old_name:es:1921-2007":"Kazbegi","old_name:fr:1921-2007":"Kazbegi","old_name:hi:1921-2007":"काज़बेगी","old_name:it:1921-2007":"Kazbegi","old_name:ja:1921-2007":"カズベギ","old_name:ka:1921-2007":"ყაზბეგი","old_name:ko:1921-2007":"카즈베기","old_name:nl:1921-2007":"Kazbegi","old_name:pl:1921-2007":"Kazbegi","old_name:pt:1921-2007":"Kazbegi","old_name:ru:1921-2007":"Казбеги","old_name:sv:1921-2007":"Kazbegi","old_name:tr:1921-2007":"Kazbegi","old_name:uk:1921-2007":"Казбегі","old_name:zh:1921-2007":"卡兹别吉"},"display_name":"სტეფანწმინდა, ყაზბეგის მუნიციპალიტეტი, მცხეთა-მთიანეთი, 4700, საქართველო","address":{"town":"სტეფანწმინდა","county":"ყაზბეგის მუნიციპალიტეტი","state":"მცხეთა-მთიანეთი","ISO3166-2-lvl4":"GE-MM","postcode":"4700","country":"საქართველო","country_code":"ge"},"population":1491,"osm_type":"relation","osm_id":15904860,"type":"town","location":[44.6408079,42.6579897],"bbox":[44.6279404,42.64744,44.6522296,42.666353]}}
{"name":"სურამი","other_names":{"name:en":"Surami","name:ka":"სურამი","name:os":"Сурам","name:ru":"Сурами","name:uk":"Сурамі"},"display_name":"სურამი, ხაშურის მუნიციპალიტეტი, შიდა ქართლი, საქართველო","address":{"town":"სურამი","county":"ხაშურის მუნიციპალიტეტი","state":"შიდა ქართლი","ISO3166-2-lvl4":"GE-SK","country":"საქართველო","country_code":"ge"},"population":6973,"osm_type":"node","osm_id":292825344,"type":"town","location":[43.5629931,42.0180524],"bbox":[43.5229931,41.9780524,43.6029931,42.0580524],"border":{"name":"სურამი","other_names":{"name:en":"Surami","name:ka":"სურამი","name:os":"Сурам","name:ru":"Сурами","name:uk":"Сурамі"},"display_name":"სურამი, ხაშურის მუნიციპალიტეტი, შიდა ქართლი, საქართველო","address":{"town":"სურამი","county":"ხაშურის მუნიციპალიტეტი","state":"შიდა ქართლი","ISO3166-2-lvl4":"GE-SK","country":"საქართველო","country_code":"ge"},"population":7314,"osm_type":"relation","osm_id":17639369,"type":"administrative","location":[43.5629931,42.0180524],"bbox":[43.4748745,41.9996116,43.6698389,42.065106]}}
{"name":"ტყიბული","other_names":{"name:de":"Tqibuli","name:en":"Tkibuli","name:fr":"Tkibuli","name:ka":"ტყიბული","name:lt":"Tkibulis","name:ml":"ടിക്കിബുലിസ്","name:ru":"Ткибули","name:sr":"Ткибули","name:uk":"Ткібулі"},"display_name":"ტყიბული, ტყიბულის მუნიციპალიტეტი, იმერეთი, საქართველო","address":{"town":"ტყიბული","county":"ტყიბულის მუნიციპალიტეტი","state":"იმერეთი","ISO3166-2-lvl4":"GE-IM","country":"საქართველო","country_code":"ge"},"population":7957,"osm_type":"node","osm_id":292823696,"type":"town","location":[42.9980769,42.3477177],"bbox":[42.9580769,42.3077177,43.0380769,42.3877177],"border":{"name":"ტყიბული","other_names":{"name:en":"Tqibuli","name:ka":"ტყიბული","name:ru":"Ткибули","name:de":"Tqibuli","name:fr":"Tkibuli","name:lt":"Tkibulis","name:ml":"ടിക്കിബുലിസ്","name:sr":"Ткибули","name:uk":"Ткібулі","alt:en":"Tkibuli"},"display_name":"ტყიბული, ტყიბულის მუნიციპალიტეტი, იმერეთი, საქართველო","address":{"town":"ტყიბული","county":"ტყიბულის მუნიციპალიტეტი","state":"იმერეთი","ISO3166-2-lvl4":"GE-IM","country":"საქართველო","country_code":"ge"},"population":7957,"osm_type":"way","osm_id":33728717,"type":"town","location":[42.9980769,42.3477177],"bbox":[42.9716077,42.3310218,43.0191021,42.3727034]}}
{"name":"ურეკი","other_names":{"name:de":"Ureki","name:en":"Ureki","name:ka":"ურეკი","name:ru":"Уреки","int_name":"Ureki"},"display_name":"ურეკი, ოზურგეთის მუნიციპალიტეტი, გურია, 3522, საქართველო","address":{"town":"ურეკი","county":"ოზურგეთის მუნიციპალიტეტი","state":"გურია","ISO3166-2-lvl4":"GE-GU","postcode":"3522","country":"საქართველო","country_code":"ge"},"population":1527,"osm_type":"relation","osm_id":12909780,"type":"town","location":[41.763434536607065,41.990989549999995],"bbox":[41.7582037,41.9815674,41.7714238,42.0010579]}
{"name":"ურეკი","other_names":{"name:en":"Ureki","name:ka":"ურეკი","name:ml":"ഊറെക്കി","name:ru":"Уреки","name:uk":"Урекі"},"display_name":"ურეკი, ოზურგეთის მუნიციპალიტეტი, გურია, საქართველო","address":{"town":"ურეკი","county":"ოზურგეთის მუნიციპალიტეტი","state":"გურია","ISO3166-2-lvl4":"GE-GU","country":"საქართველო","country_code":"ge"},"population":1591,"osm_type":"node","osm_id":479748232,"type":"town","location":[41.7793458,41.9969365],"bbox":[41.7393458,41.9569365,41.8193458,42.0369365],"border":{"name":"ურეკი","other_names":{"name:en":"Ureki","name:ka":"ურეკი","name:ru":"Уреки","name:uk":"Урекі","name:ml":"ഊറെക്കി"},"display_name":"ურეკი, ოზურგეთის მუნიციპალიტეტი, გურია, 3522, საქართველო","address":{"town":"ურეკი","county":"ოზურგეთის მუნიციპალიტეტი","state":"გურია","ISO3166-2-lvl4":"GE-GU","postcode":"3522","country":"საქართველო","country_code":"ge"},"population":1591,"osm_type":"relation","osm_id":16832399,"type":"administrative","location":[41.7793458,41.9969365],"bbox":[41.7551334,41.969109,41.8073022,42.0239554]}}
{"name":"ფასანაური","other_names":{"name:de":"Passanauri","name:en":"Pasanauri","name:ka":"ფასანაური","name:os":"Пасанаур","name:ru":"Пасанаури","name:uk":"Пасанаурі"},"display_name":"ფასანაური, დუშეთის მუნიციპალიტეტი, მცხეთა-მთიანეთი, საქართველო","address":{"town":"ფასანაური","county":"დუშეთის მუნიციპალიტეტი","state":"მცხეთა-მთიანეთი","ISO3166-2-lvl4":"GE-MM","country":"საქართველო","country_code":"ge"},"population":1084,"osm_type":"node","osm_id":793974533,"type":"town","location":[44.6904581,42.3489314],"bbox":[44.6504581,42.3089314,44.7304581,42.3889314],"border":{"name":"ფასანაური","other_names":{"name:de":"Passanauri","name:en":"Pasanauri","name:ka":"ფასანაური","name:os":"Пасанаур","name:ru":"Пасанаури","name:uk":"Пасанаурі"},"display_name":"ფასანაური, დუშეთის მუნიციპალიტეტი, მცხეთა-მთიანეთი, საქართველო","address":{"town":"ფასანაური","county":"დუშეთის მუნიციპალიტეტი","state":"მცხეთა-მთიანეთი","ISO3166-2-lvl4":"GE-MM","country":"საქართველო","country_code":"ge"},"population":1135,"osm_type":"relation","osm_id":12583037,"type":"town","location":[44.6904581,42.3489314],"bbox":[44.6701333,42.3108945,44.7148704,42.3833118]}}
{"name":"ქარელი","other_names":{"name:de":"Kareli","name:en":"Kareli","name:ka":"ქარელი","name:ml":"കാറെലി","name:ru":"Карели","name:sr":"Карели","name:uk":"Карелі"},"display_name":"ქარელი, ქარელის მუნიციპალიტეტი, შიდა ქართლი, საქართველო","address":{"town":"ქარელი","county":"ქარელის მუნიციპალიტეტი","state":"შიდა ქართლი","ISO3166-2-lvl4":"GE-SK","country":"საქართველო","country_code":"ge"},"population":6746,"osm_type":"node","osm_id":280181619,"type":"town","location":[43.8933008,42.0214841],"bbox":[43.8533008,41.9814841,43.9333008,42.0614841],"border":{"name":"ქარელი","other_names":{"name:en":"Kareli","name:ka":"ქარელი","name:ru":"Карели","name:de":"Kareli","name:ml":"കാറെലി","name:sr":"Карели","name:uk":"Карелі"},"display_name":"ქარელი, ქარელის მუნიციპალიტეტი, შიდა ქართლი, საქართველო","address":{"town":"ქარელი","county":"ქარელის მუნიციპალიტეტი","state":"შიდა ქართლი","ISO3166-2-lvl4":"GE-SK","country":"საქართველო","country_code":"ge"},"population":6654,"osm_type":"way","osm_id":27153367,"type":"town","location":[43.8933008,42.0214841],"bbox":[43.8758807,42.0101021,43.9112801,42.0293802]}}
{"name":"ქედა","other_names":{"name:de":"Keda","name:en":"Keda","name:ka":"ქედა","name:ku":"Kêda","name:ru":"Кеда","name:tr":"Keda","name:uk":"Кеда"},"display_name":"ქედა, ქედის მუნიციპალიტეტი, აჭარის ავტონომიური რესპუბლიკა, საქართველო","address":{"town":"ქედა","county":"ქედის მუნიციპალიტეტი","state":"აჭარის ავტონომიური რესპუბლიკა","ISO3166-2-lvl4":"GE-AJ","country":"საქართველო","country_code":"ge"},"population":1055,"osm_type":"node","osm_id":218643951,"type":"town","location":[41.9398463,41.5979339],"bbox":[41.8998463,41.5579339,41.9798463,41.6379339],"border":{"name":"ქედა","other_names":{"name:en":"Keda","name:ka":"ქედა","name:ru":"Кеда"},"display_name":"ქედა, ქედის მუნიციპალიტეტი, აჭარის ავტონომიური რესპუბლიკა, საქართველო","address":{"village":"ქედა","county":"ქედის მუნიციპალიტეტი","state":"აჭარის ავტონომიური რესპუბლიკა","ISO3166-2-lvl4":"GE-AJ","country":"საქართველო","country_code":"ge"},"population":149,"osm_type":"way","osm_id":1311743055,"type":"town","location":[41.9466011,41.5970521],"bbox":[41.935275,41.5942384,41.9546621,41.6049215]}}
{"name":"ქობულეთი","other_names":{"name:ab":"Қобулеҭ","name:ca":"Kobuleti","name:cs":"Kobuleti","name:de":"Kobuleti","name:en":"Kobuleti","name:et":"Khobulethi","name:he":"כובולתי","name:hr":"Kobuleti","name:hy":"Քոբուլեթ","name:ja":"コブレチ","name:ka":"ქობულეთი","name:ko":"코불레티","name:ku":"Kobûlêtî","name:lt":"Kobuletis","name:ml":"കോബുലെട്ടി","name:nl":"Koboeleti","name:os":"Кобулет","name:pl":"Kobuleti","name:ro":"Kobuleti","name:ru":"Кобулети","name:sl":"Kobuleti","name:sr":"Кобулети","name:sv":"Kobuleti","name:tr":"Kobuleti","name:uk":"Кобулеті","name:zh":"科布列季","name:mzn":"کوبولتی","name:war":"Kobuleti","name:xmf":"ქობულეთი"},"display_name":"ქობულეთი, ქობულეთის მუნიციპალიტეტი, აჭარის ავტონომიური რესპუბლიკა, საქართველო","address":{"town":"ქობულეთი","county":"ქობულეთის მუნიციპალიტეტი","state":"აჭარის ავტონომიური რესპუბლიკა","ISO3166-2-lvl4":"GE-AJ","country":"საქართველო","country_code":"ge"},"population":17538,"osm_type":"node","osm_id":292823695,"type":"town","location":[41.7793202,41.8113601],"bbox":[41.7393202,41.7713601,41.8193202,41.8513601],"border":[{"name":"ქობულეთი","other_names":{"name:ab":"Қобулеҭ","name:ca":"Kobuleti","name:cs":"Kobuleti","name:de":"Kobuleti","name:en":"Kobuleti","name:et":"Khobulethi","name:he":"כובולתי","name:hy":"Քոբուլեթ","name:ja":"コブレチ","name:ka":"ქობულეთი","name:ko":"코불레티","name:ku":"Kobûlêtî","name:lt":"Kobuletis","name:nl":"Koboeleti","name:os":"Кобулет","name:pl":"Kobuleti","name:ro":"Kobuleti","name:ru":"Кобулети","name:sl":"Kobuleti","name:sr":"Кобулети","name:sv":"Kobuleti","name:tr":"Kobuleti","name:uk":"Кобулеті","name:zh":"科布列季","name:mzn":"کوبولتی","name:war":"Kobuleti","name:xmf":"ქობულეთი"},"display_name":"ქობულეთი, ქობულეთის მუნიციპალიტეტი, აჭარის ავტონომიური რესპუბლიკა, 6200, საქართველო","address":{"town":"ქობულეთი","county":"ქობულეთის მუნიციპალიტეტი","state":"აჭარის ავტონომიური რესპუბლიკა","ISO3166-2-lvl4":"GE-AJ","postcode":"6200","country":"საქართველო","country_code":"ge"},"osm_type":"relation","osm_id":8738685,"type":"town","location":[41.780816097424136,41.84341715],"bbox":[41.7648187,41.7908088,41.7961979,41.8957687]},{"name":"ქობულეთი","other_names":{"name:ab":"Қобулеҭ","name:ca":"Kobuleti","name:cs":"Kobuleti","name:de":"Kobuleti","name:en":"Kobuleti","name:et":"Khobulethi","name:he":"כובולתי","name:hy":"Քոբուլեթ","name:ja":"コブレチ","name:ka":"ქობულეთი","name:ko":"코불레티","name:ku":"Kobûlêtî","name:lt":"Kobuletis","name:nl":"Koboeleti","name:os":"Кобулет","name:pl":"Kobuleti","name:ro":"Kobuleti","name:ru":"Кобулети","name:sl":"Kobuleti","name:sr":"Кобулети","name:sv":"Kobuleti","name:tr":"Kobuleti","name:uk":"Кобулеті","name:zh":"科布列季","name:mzn":"کوبولتی","name:war":"Kobuleti","name:xmf":"ქობულეთი","name:hr":"Kobuleti","name:ml":"കോബുലെട്ടി"},"display_name":"ქობულეთი, ქობულეთის მუნიციპალიტეტი, აჭარის ავტონომიური რესპუბლიკა, 6200, საქართველო","address":{"town":"ქობულეთი","county":"ქობულეთის მუნიციპალიტეტი","state":"აჭარის ავტონომიური რესპუბლიკა","ISO3166-2-lvl4":"GE-AJ","postcode":"6200","country":"საქართველო","country_code":"ge"},"population":17538,"osm_type":"relation","osm_id":13593738,"type":"administrative","location":[41.7793202,41.8113601],"bbox":[41.7548491,41.7712867,41.8356813,41.9119317]}]}
{"name":"ყვარელი","other_names":{"name:en":"Kvareli","name:ka":"ყვარელი","name:ml":"ക്വാറെലി","name:ru":"Кварели","name:sr":"Кварели"},"display_name":"ყვარელი, ყვარლის მუნიციპალიტეტი, კახეთი, 4800, საქართველო","address":{"town":"ყვარელი","county":"ყვარლის მუნიციპალიტეტი","state":"კახეთი","ISO3166-2-lvl4":"GE-KA","postcode":"4800","country":"საქართველო","country_code":"ge"},"population":10177,"osm_type":"node","osm_id":5929505015,"type":"town","location":[45.8139601,41.9482236],"bbox":[45.7739601,41.9082236,45.8539601,41.9882236],"border":{"name":"ყვარელი","other_names":{"name:en":"Kvareli","name:ka":"ყვარელი","name:ru":"Кварели","name:sr":"Кварели","name:ml":"ക്വാറെലി"},"display_name":"ყვარელი, ყვარლის მუნიციპალიტეტი, კახეთი, 4800, საქართველო","address":{"town":"ყვარელი","county":"ყვარლის მუნიციპალიტეტი","state":"კახეთი","ISO3166-2-lvl4":"GE-KA","postcode":"4800","country":"საქართველო","country_code":"ge"},"population":9543,"osm_type":"way","osm_id":31970772,"type":"town","location":[45.8139601,41.9482236],"bbox":[45.7911329,41.9283016,45.8356281,41.977011]}}
{"name":"შორაპანი","other_names":{"name:de":"Schorapani","name:en":"Shorapani","name:ka":"შორაპანი","name:ru":"Шорапани"},"display_name":"შორაპანი, ზესტაფონის მუნიციპალიტეტი, იმერეთი, 2000, საქართველო","address":{"town":"შორაპანი","county":"ზესტაფონის მუნიციპალიტეტი","state":"იმერეთი","ISO3166-2-lvl4":"GE-IM","postcode":"2000","country":"საქართველო","country_code":"ge"},"population":1971,"osm_type":"node","osm_id":540155231,"type":"town","location":[43.0808594,42.094734],"bbox":[43.0408594,42.054734,43.1208594,42.134734],"border":{"name":"შორაპანი","other_names":{"name:en":"Shorapani","name:ka":"შორაპანი","name:ru":"Шорапани","name:de":"Schorapani"},"display_name":"შორაპანი, ზესტაფონის მუნიციპალიტეტი, იმერეთი, საქართველო","address":{"town":"შორაპანი","county":"ზესტაფონის მუნიციპალიტეტი","state":"იმერეთი","ISO3166-2-lvl4":"GE-IM","country":"საქართველო","country_code":"ge"},"population":1971,"osm_type":"way","osm_id":1343011575,"type":"town","location":[43.0808594,42.094734],"bbox":[43.0676523,42.0841925,43.1025244,42.1045551]}}
{"name":"შუახევი","other_names":{"name:de":"Schuachewi","name:en":"Shuakhevi","name:ka":"შუახევი","name:ku":"Şûaxêvî","name:ru":"Шуахеви","name:uk":"Шуахеві"},"display_name":"შუახევი, შუახევის მუნიციპალიტეტი, აჭარის ავტონომიური რესპუბლიკა, 6300, საქართველო","address":{"town":"შუახევი","county":"შუახევის მუნიციპალიტეტი","state":"აჭარის ავტონომიური რესპუბლიკა","ISO3166-2-lvl4":"GE-AJ","postcode":"6300","country":"საქართველო","country_code":"ge"},"population":566,"osm_type":"node","osm_id":218704706,"type":"town","location":[42.1854878,41.624637],"bbox":[42.1454878,41.584637,42.2254878,41.664637],"border":{"name":"შუახევი","other_names":{"name:en":"Shuakhevi","name:ka":"შუახევი","name:ru":"Шуахеви","name:de":"Schuachewi","name:ku":"Şûaxêvî","name:uk":"Шуахеві"},"display_name":"შუახევი, შუახევის მუნიციპალიტეტი, აჭარის ავტონომიური რესპუბლიკა, საქართველო","address":{"town":"შუახევი","county":"შუახევის მუნიციპალიტეტი","state":"აჭარის ავტონომიური რესპუბლიკა","ISO3166-2-lvl4":"GE-AJ","country":"საქართველო","country_code":"ge"},"population":566,"osm_type":"way","osm_id":1311453407,"type":"town","location":[42.1854878,41.624637],"bbox":[42.180138,41.6238149,42.1967094,41.6298754]}}
{"name":"ჩაქვი","other_names":{"name:de":"Tschakwi","name:en":"Chakvi","name:ka":"ჩაქვი","name:ml":"ചാക്വി","name:ru":"Чакви","old_name":"ჩაქვა","old_name:ru":"Чаква"},"display_name":"ჩაქვი, ქობულეთის მუნიციპალიტეტი, აჭარის ავტონომიური რესპუბლიკა, 6400, საქართველო","address":{"town":"ჩაქვი","county":"ქობულეთის მუნიციპალიტეტი","state":"აჭარის ავტონომიური რესპუბლიკა","ISO3166-2-lvl4":"GE-AJ","postcode":"6400","country":"საქართველო","country_code":"ge"},"population":7492,"osm_type":"node","osm_id":540544663,"type":"town","location":[41.7334564,41.7187049],"bbox":[41.6934564,41.6787049,41.7734564,41.7587049],"border":{"name":"ჩაქვი","other_names":{"name:de":"Tschakwi","name:en":"Chakvi","name:ka":"ჩაქვი","name:ru":"Чакви","old_name":"ჩაქვა","old_name:ru":"Чаква","name:ml":"ചാക്വി"},"display_name":"ჩაქვი, ქობულეთის მუნიციპალიტეტი, აჭარის ავტონომიური რესპუბლიკა, 6400, საქართველო","address":{"town":"ჩაქვი","county":"ქობულეთის მუნიციპალიტეტი","state":"აჭარის ავტონომიური რესპუბლიკა","ISO3166-2-lvl4":"GE-AJ","postcode":"6400","country":"საქართველო","country_code":"ge"},"population":6720,"osm_type":"relation","osm_id":15061261,"type":"administrative","location":[41.7334564,41.7187049],"bbox":[41.7220787,41.6654745,41.764934,41.741468]}}
{"name":"ჩოხატაური","other_names":{"name:de":"Tschochatauri","name:en":"Chokhatauri","name:et":"Tšohhatauri","name:fr":"Tchokhataouri","name:ka":"ჩოხატაური","name:nl":"Tsjochataoeri","name:ru":"Чохатаури","name:uk":"Чохатаурі"},"display_name":"ჩოხატაური, ჩოხატაურის მუნიციპალიტეტი, გურია, საქართველო","address":{"town":"ჩოხატაური","county":"ჩოხატაურის მუნიციპალიტეტი","state":"გურია","ISO3166-2-lvl4":"GE-GU","country":"საქართველო","country_code":"ge"},"population":1454,"osm_type":"node","osm_id":479780417,"type":"town","location":[42.2399471,42.0192103],"bbox":[42.1999471,41.9792103,42.2799471,42.0592103],"border":{"name":"ჩოხატაური","other_names":{"name:en":"Chokhatauri","name:ka":"ჩოხატაური","name:ru":"Чохатаури","name:de":"Tschochatauri","name:et":"Tšohhatauri","name:fr":"Tchokhataouri","name:nl":"Tsjochataoeri","name:uk":"Чохатаурі"},"display_name":"ჩოხატაური, ჩოხატაურის მუნიციპალიტეტი, გურია, საქართველო","address":{"town":"ჩოხატაური","county":"ჩოხატაურის მუნიციპალიტეტი","state":"გურია","ISO3166-2-lvl4":"GE-GU","country":"საქართველო","country_code":"ge"},"population":1454,"osm_type":"relation","osm_id":14057963,"type":"administrative","location":[42.2399471,42.0192103],"bbox":[42.2085607,42.0055412,42.2564864,42.0250806]}}
{"name":"ჩხოროწყუ","other_names":{"name:de":"Tschchorozku","name:en":"Chkhorotsku","name:ka":"ჩხოროწყუ","name:ml":"ച്കോറോസ്കു","name:ru":"Чхороцку","name:uk":"Чхороцку","name:xmf":"ჩხოროწყუ"},"display_name":"ჩხოროწყუ, ჩხოროწყუს მუნიციპალიტეტი, სამეგრელო-ზემო სვანეთი, საქართველო","address":{"town":"ჩხოროწყუ","county":"ჩხოროწყუს მუნიციპალიტეტი","state":"სამეგრელო-ზემო სვანეთი","ISO3166-2-lvl4":"GE-SZ","country":"საქართველო","country_code":"ge"},"population":2372,"osm_type":"node","osm_id":375727966,"type":"town","location":[42.1321257,42.5258474],"bbox":[42.0921257,42.4858474,42.1721257,42.5658474],"border":{"name":"ჩხოროწყუ","other_names":{"name:de":"Tschchorozku","name:en":"Chkhorotsku","name:ka":"ჩხოროწყუ","name:ru":"Чхороцку","name:uk":"Чхороцку","name:xmf":"ჩხოროწყუ","name:ml":"ച്കോറോസ്കു"},"display_name":"ჩხოროწყუ, ჩხოროწყუს მუნიციპალიტეტი, სამეგრელო-ზემო სვანეთი, საქართველო","address":{"town":"ჩხოროწყუ","county":"ჩხოროწყუს მუნიციპალიტეტი","state":"სამეგრელო-ზემო სვანეთი","ISO3166-2-lvl4":"GE-SZ","country":"საქართველო","country_code":"ge"},"population":2372,"osm_type":"way","osm_id":30594355,"type":"town","location":[42.1321257,42.5258474],"bbox":[42.1095872,42.5055848,42.1393168,42.5336537]}}
{"name":"ცაგერი","other_names":{"name:az":"Tsaqeri","name:de":"Zageri","name:en":"Tsageri","name:hy":"Ցագեր","name:ka":"ცაგერი","name:ml":"സാഗെറി","name:ru":"Цагери","name:sr":"Цагери","name:uk":"Цагері","name:zh":"察盖里","int_name":"Tsageri"},"display_name":"ცაგერი, ცაგერის მუნიციპალიტეტი, რაჭა-ლეჩხუმი და ქვემო სვანეთი, საქართველო","address":{"town":"ცაგერი","county":"ცაგერის მუნიციპალიტეტი","state":"რაჭა-ლეჩხუმი და ქვემო სვანეთი","ISO3166-2-lvl4":"GE-RL","country":"საქართველო","country_code":"ge"},"population":1014,"osm_type":"node","osm_id":387172805,"type":"town","location":[42.7700726,42.6476005],"bbox":[42.7300726,42.6076005,42.8100726,42.6876005],"border":{"name":"ცაგერი","other_names":{"name:az":"Tsaqeri","name:de":"Zageri","name:en":"Tsageri","name:hy":"Ցագեր","name:ka":"ცაგერი","name:ru":"Цагери","name:sr":"Цагери","name:uk":"Цагері","int_name":"Tsageri","name:ml":"സാഗെറി","name:zh":"察盖里"},"display_name":"ცაგერი, ცაგერის მუნიციპალიტეტი, რაჭა-ლეჩხუმი და ქვემო სვანეთი, საქართველო","address":{"town":"ცაგერი","county":"ცაგერის მუნიციპალიტეტი","state":"რაჭა-ლეჩხუმი და ქვემო სვანეთი","ISO3166-2-lvl4":"GE-RL","country":"საქართველო","country_code":"ge"},"population":1014,"osm_type":"relation","osm_id":15694560,"type":"administrative","location":[42.7700726,42.6476005],"bbox":[42.7580541,42.6366696,42.7767158,42.6595825]}}
{"name":"წალენჯიხა","other_names":{"name:de":"Zalendschicha","name:en":"Tsalenjikha","name:ka":"წალენჯიხა","name:ml":"സാലെൻജിഖ","name:ru":"Цаленджиха","name:sr":"Цаленжиха","name:uk":"Цаленджіха","name:xmf":"წალენჯიხა"},"display_name":"წალენჯიხა, წალენჯიხის მუნიციპალიტეტი, სამეგრელო-ზემო სვანეთი, საქართველო","address":{"town":"წალენჯიხა","county":"წალენჯიხის მუნიციპალიტეტი","state":"სამეგრელო-ზემო სვანეთი","ISO3166-2-lvl4":"GE-SZ","country":"საქართველო","country_code":"ge"},"population":2938,"osm_type":"node","osm_id":311453425,"type":"town","location":[42.0677958,42.6131131],"bbox":[42.0277958,42.5731131,42.1077958,42.6531131],"border":{"name":"წალენჯიხა","other_names":{"name:de":"Zalendschicha","name:en":"Tsalenjikha","name:ka":"წალენჯიხა","name:ru":"Цаленджиха","name:sr":"Цаленжиха","name:ml":"സാലെൻജിഖ","name:uk":"Цаленджіха","name:xmf":"წალენჯიხა"},"display_name":"წალენჯიხა, წალენჯიხის მუნიციპალიტეტი, სამეგრელო-ზემო სვანეთი, საქართველო","address":{"town":"წალენჯიხა","county":"წალენჯიხის მუნიციპალიტეტი","state":"სამეგრელო-ზემო სვანეთი","ISO3166-2-lvl4":"GE-SZ","country":"საქართველო","country_code":"ge"},"population":3092,"osm_type":"way","osm_id":28357831,"type":"town","location":[42.0677958,42.6131131],"bbox":[42.0395995,42.5925385,42.0945312,42.6301834]}}
{"name":"წალკა","other_names":{"name:az":"Barmaqsız","name:cs":"Calka","name:de":"Zalka","name:el":"Τσάλκα","name:en":"Tsalka","name:fr":"Tsalka","name:hu":"Calka","name:hy":"Ծալկա","name:ka":"წალკა","name:ml":"സാൽക്ക","name:nl":"Tsalka","name:os":"Цалкæ","name:pl":"Calka","name:ro":"Țalka","name:ru":"Цалка","name:sr":"Цалка","name:tr":"Tsalka","name:uk":"Цалка"},"display_name":"წალკა, წალკის მუნიციპალიტეტი, ქვემო ქართლი, 5300, საქართველო","address":{"town":"წალკა","county":"წალკის მუნიციპალიტეტი","state":"ქვემო ქართლი","ISO3166-2-lvl4":"GE-KK","postcode":"5300","country":"საქართველო","country_code":"ge"},"population":3900,"osm_type":"node","osm_id":389687636,"type":"town","location":[44.0914431,41.5953381],"bbox":[44.0514431,41.5553381,44.1314431,41.6353381],"border":{"name":"წალკა","other_names":{"name:az":"Barmaqsız","name:cs":"Calka","name:de":"Zalka","name:el":"Τσάλκα","name:en":"Tsalka","name:fr":"Tsalka","name:hu":"Calka","name:hy":"Ծալկա","name:ka":"წალკა","name:nl":"Tsalka","name:os":"Цалкæ","name:pl":"Calka","name:ro":"Țalka","name:ru":"Цалка","name:sr":"Цалка","name:tr":"Tsalka","name:uk":"Цалка","name:ml":"സാൽക്ക"},"display_name":"წალკა, წალკის მუნიციპალიტეტი, ქვემო ქართლი, საქართველო","address":{"town":"წალკა","county":"წალკის მუნიციპალიტეტი","state":"ქვემო ქართლი","ISO3166-2-lvl4":"GE-KK","country":"საქართველო","country_code":"ge"},"population":3467,"osm_type":"way","osm_id":34012533,"type":"town","location":[44.0914431,41.5953381],"bbox":[44.0678827,41.5833304,44.109571,41.6085758]}}
{"name":"წნორი","other_names":{"name:de":"Znori","name:en":"Tsnori","name:hy":"Ծնորի","name:ka":"წნორი","name:lt":"Cnoris","name:ml":"സ്നോറി","name:nl":"Tsnori","name:ro":"Tsnori","name:ru":"Цнори","name:sr":"Цнори","name:sv":"Tsnori","name:uk":"Цнорі","name:zh":"茨諾里","name:xmf":"წნორი"},"display_name":"წნორი, სიღნაღის მუნიციპალიტეტი, კახეთი, საქართველო","address":{"town":"წნორი","county":"სიღნაღის მუნიციპალიტეტი","state":"კახეთი","ISO3166-2-lvl4":"GE-KA","country":"საქართველო","country_code":"ge"},"population":4767,"osm_type":"node","osm_id":289106190,"type":"town","location":[45.9780928,41.6182456],"bbox":[45.9380928,41.5782456,46.0180928,41.6582456],"border":{"name":"წნორი","other_names":{"name:de":"Znori","name:en":"Tsnori","name:hy":"Ծնորի","name:ka":"წნორი","name:lt":"Cnoris","name:nl":"Tsnori","name:ro":"Tsnori","name:ru":"Цнори","name:sr":"Цнори","name:sv":"Tsnori","name:uk":"Цнорі","name:zh":"茨諾里","name:xmf":"წნორი","name:ml":"സ്നോറി"},"display_name":"წნორი, სიღნაღის მუნიციპალიტეტი, კახეთი, საქართველო","address":{"town":"წნორი","county":"სიღნაღის მუნიციპალიტეტი","state":"კახეთი","ISO3166-2-lvl4":"GE-KA","country":"საქართველო","country_code":"ge"},"population":4796,"osm_type":"relation","osm_id":18377596,"type":"town","location":[45.9780928,41.6182456],"bbox":[45.9494698,41.6057945,46.0008585,41.6242354]}}
{"name":"წყალტუბო","other_names":{"name:cs":"Cchaltubo","name:de":"Zqaltubo","name:en":"Tskaltubo","name:et":"Tskaltubo","name:fi":"Tsqaltubo","name:fr":"Tskaltubo","name:he":"צחלטובו","name:hr":"Chaltubo","name:hy":"Ծղալտուբո","name:ja":"チャルトゥボ","name:ka":"წყალტუბო","name:ko":"츠할투보","name:lt":"Cchaltubas","name:ml":"സ്കാൽറ്റൂബോ","name:nl":"Tskaltoebo","name:nn":"Tsqaltubo","name:pl":"Ckaltubo","name:ru":"Цхалтубо","name:sr":"Цхалтубо","name:sv":"Tsqaltubo","name:uk":"Цхалтубо","name:zh":"茨卡爾圖博","int_name":"Tskaltubo","name:mzn":"تسقولتوبو","name:war":"Tsqaltubo","name:xmf":"წყალტუბო"},"display_name":"წყალტუბო, წყალტუბოს მუნიციპალიტეტი, იმერეთი, საქართველო","address":{"town":"წყალტუბო","county":"წყალტუბოს მუნიციპალიტეტი","state":"იმერეთი","ISO3166-2-lvl4":"GE-IM","country":"საქართველო","country_code":"ge"},"population":7104,"osm_type":"node","osm_id":291725496,"type":"town","location":[42.5979488,42.3253518],"bbox":[42.5579488,42.2853518,42.6379488,42.3653518],"border":{"name":"წყალტუბო","other_names":{"name:cs":"Cchaltubo","name:de":"Zqaltubo","name:en":"Tskaltubo","name:et":"Tskaltubo","name:fi":"Tsqaltubo","name:fr":"Tskaltubo","name:he":"צחלטובו","name:hr":"Chaltubo","name:hy":"Ծղալտուբո","name:ja":"チャルトゥボ","name:ka":"წყალტუბო","name:ko":"츠할투보","name:lt":"Cchaltubas","name:nl":"Tskaltoebo","name:nn":"Tsqaltubo","name:pl":"Ckaltubo","name:ru":"Цхалтубо","name:sr":"Цхалтубо","name:sv":"Tsqaltubo","name:uk":"Цхалтубо","name:zh":"茨卡爾圖博","int_name":"Tskaltubo","name:mzn":"تسقولتوبو","name:war":"Tsqaltubo","name:xmf":"წყალტუბო","name:ml":"സ്കാൽറ്റൂബോ"},"display_name":"წყალტუბო, წყალტუბოს მუნიციპალიტეტი, იმერეთი, 5400, საქართველო","address":{"town":"წყალტუბო","county":"წყალტუბოს მუნიციპალიტეტი","state":"იმერეთი","ISO3166-2-lvl4":"GE-IM","postcode":"5400","country":"საქართველო","country_code":"ge"},"population":8458,"osm_type":"relation","osm_id":15617773,"type":"administrative","location":[42.5979488,42.3253518],"bbox":[42.5807096,42.2896082,42.6203446,42.3369767]}}
{"name":"ჭიათურა","other_names":{"name:cs":"Čiatura","name:da":"Tjiatura","name:de":"Tschiatura","name:en":"Chiatura","name:eo":"Ĉiatura","name:es":"Chiatura","name:et":"Tšiathura","name:fi":"Tšiatura","name:fr":"Tchiatoura","name:he":"צ׳יאתורה","name:hr":"Čiatura","name:hy":"Ճիաթուրա","name:ja":"チアトゥラ","name:ka":"ჭიათურა","name:ko":"치아투라","name:lt":"Čiatura","name:nl":"Tsjiatoera","name:nn":"Tsjiatura","name:pl":"Cziatura","name:ro":"Chiatura","name:ru":"Чиатура","name:sr":"Чијатура","name:sv":"Tjiatura","name:uk":"Чіатура","name:zh":"奇阿圖拉","name:mzn":"چیاتورا","name:war":"Chiatura","name:xmf":"ჭიათურა"},"display_name":"ჭიათურა, ჭიათურის მუნიციპალიტეტი, იმერეთი, საქართველო","address":{"town":"ჭიათურა","county":"ჭიათურის მუნიციპალიტეტი","state":"იმერეთი","ISO3166-2-lvl4":"GE-IM","country":"საქართველო","country_code":"ge"},"population":11943,"osm_type":"node","osm_id":291727016,"type":"town","location":[43.2888362,42.2910245],"bbox":[43.2488362,42.2510245,43.3288362,42.3310245],"border":[{"name":"ჭიათურის მუნიციპალიტეტი","other_names":{"name:de":"Munizipalität Tschiatura","name:en":"Chiatura Municipality","name:es":"Municipio de Chiatura","name:fa":"شهرداری چیاتورا","name:fi":"Tšiaturan piirikunta","name:fr":"Municipalité de Tchiatoura","name:he":"נפת צ'יאתורה","name:hy":"Ճիաթուրայի մունիցիպալիտետ","name:ja":"チアトゥラ","name:ka":"ჭიათურის მუნიციპალიტეტი","name:ko":"치아투라","name:nl":"Tsjiatoera gemeente","name:os":"Чъиатурайы муниципалитет","name:ru":"Чиатурский муниципалитет","name:uk":"Чіатурський муніципалітет","name:zh":"奇阿圖拉市","int_name":"Chiaturis Munitsipaliteti","name:ceb":"Chiat'uris Munitsip'alit'et'i","name:scn":"Municipalitati di Chiatura","name:xmf":"ჭიათურაშ მუნიციპალიტეტი"},"display_name":"ჭიათურის მუნიციპალიტეტი, იმერეთი, 5500, საქართველო","address":{"county":"ჭიათურის მუნიციპალიტეტი","state":"იმერეთი","ISO3166-2-lvl4":"GE-IM","postcode":"5500","country":"საქართველო","country_code":"ge"},"osm_type":"relation","osm_id":2024543,"type":"administrative","location":[43.257512678680285,42.2816908],"bbox":[43.1087535,42.1256292,43.4536985,42.4387322]},{"name":"ჭიათურა","other_names":{"name:cs":"Čiatura","name:da":"Tjiatura","name:de":"Tschiatura","name:en":"Chiatura","name:eo":"Ĉiatura","name:es":"Chiatura","name:et":"Tšiathura","name:fi":"Tšiatura","name:fr":"Tchiatoura","name:he":"צ'יאתורה","name:hy":"Ճիաթուրա","name:ja":"チアトゥラ","name:ka":"ჭიათურა","name:ko":"치아투라","name:lt":"Čiatura","name:nl":"Tsjiatoera","name:nn":"Tsjiatura","name:pl":"Cziatura","name:ro":"Chiatura","name:ru":"Чиатура","name:sr":"Чијатура","name:sv":"Tjiatura","name:uk":"Чіатура","name:zh":"奇阿圖拉","name:mzn":"چیاتورا","name:war":"Chiatura","name:xmf":"ჭიათურა","name:hr":"Čiatura","alt:he":"צ׳יאתורה"},"display_name":"ჭიათურა, ჭიათურის მუნიციპალიტეტი, იმერეთი, საქართველო","address":{"town":"ჭიათურა","county":"ჭიათურის მუნიციპალიტეტი","state":"იმერეთი","ISO3166-2-lvl4":"GE-IM","country":"საქართველო","country_code":"ge"},"population":13800,"osm_type":"relation","osm_id":15842959,"type":"administrative","location":[43.2888362,42.2910245],"bbox":[43.261251,42.2754901,43.3497119,42.3324395]}]}
{"name":"ხარაგაული","other_names":{"name:de":"Charagauli","name:en":"Kharagauli","name:ka":"ხარაგაული","name:ml":"ഖാറാഗൗലി","name:ru":"Харагаули","name:uk":"Харагаулі"},"display_name":"ხარაგაული, ხარაგაულის მუნიციპალიტეტი, იმერეთი, 5600, საქართველო","address":{"town":"ხარაგაული","county":"ხარაგაულის მუნიციპალიტეტი","state":"იმერეთი","ISO3166-2-lvl4":"GE-IM","postcode":"5600","country":"საქართველო","country_code":"ge"},"population":1738,"osm_type":"node","osm_id":392118925,"type":"town","location":[43.2072406,42.0114411],"bbox":[43.1672406,41.9714411,43.2472406,42.0514411],"border":{"name":"ხარაგაული","other_names":{"name:de":"Charagauli","name:en":"Kharagauli","name:ka":"ხარაგაული","name:ru":"Харагаули","name:ml":"ഖാറാഗൗലി","name:uk":"Харагаулі"},"display_name":"ხარაგაული, ხარაგაულის მუნიციპალიტეტი, იმერეთი, საქართველო","address":{"town":"ხარაგაული","county":"ხარაგაულის მუნიციპალიტეტი","state":"იმერეთი","ISO3166-2-lvl4":"GE-IM","country":"საქართველო","country_code":"ge"},"population":8233,"osm_type":"way","osm_id":223666778,"type":"town","location":[43.2072406,42.0114411],"bbox":[43.1858102,42.0074606,43.2134382,42.0276703]}}
{"name":"ხაშური","other_names":{"name:de":"Chaschuri","name:en":"Khashuri","name:et":"Hašuri","name:fr":"Khachouri","name:hr":"Hašuri","name:ka":"ხაშური","name:ml":"ഖാഷുറി","name:ru":"Хашури","name:sr":"Хашури","name:uk":"Хашурі","old_name":"Mikhaylovo;Stalinisi","old_name:ka":"მიხაილოდო;სტალინისი","old_name:ru":"Михайлово;Сталиниси"},"display_name":"ხაშური, ხაშურის მუნიციპალიტეტი, შიდა ქართლი, 5700, საქართველო","address":{"town":"ხაშური","county":"ხაშურის მუნიციპალიტეტი","state":"შიდა ქართლი","ISO3166-2-lvl4":"GE-SK","postcode":"5700","country":"საქართველო","country_code":"ge"},"population":23949,"osm_type":"node","osm_id":274202979,"type":"town","location":[43.5989395,41.9972652],"bbox":[43.5589395,41.9572652,43.6389395,42.0372652],"border":{"name":"ხაშური","other_names":{"name:de":"Chaschuri","name:en":"Khashuri","name:et":"Hašuri","name:fr":"Khachouri","name:ka":"ხაშური","name:ru":"Хашури","name:sr":"Хашури","name:hr":"Hašuri","name:ml":"ഖാഷുറി","name:uk":"Хашурі","old_name":"Mikhaylovo;Stalinisi","old_name:ka":"მიხაილოდო;სტალინისი","old_name:ru":"Михайлово;Сталиниси"},"display_name":"ხაშური, ხაშურის მუნიციპალიტეტი, შიდა ქართლი, 5700, საქართველო","address":{"town":"ხაშური","county":"ხაშურის მუნიციპალიტეტი","state":"შიდა ქართლი","ISO3166-2-lvl4":"GE-SK","postcode":"5700","country":"საქართველო","country_code":"ge"},"population":23949,"osm_type":"way","osm_id":257600550,"type":"town","location":[43.5989395,41.9972652],"bbox":[43.5693967,41.9769467,43.6215228,42.0113297]}}
{"name":"ხობი","other_names":{"name:de":"Chobi","name:en":"Khobi","name:ka":"ხობი","name:lt":"Chobis","name:ml":"ഖോബി","name:ru":"Хоби","name:sr":"Хоби","name:uk":"Хобі"},"display_name":"ხობი, ხობის მუნიციპალიტეტი, სამეგრელო-ზემო სვანეთი, საქართველო","address":{"town":"ხობი","county":"ხობის მუნიციპალიტეტი","state":"სამეგრელო-ზემო სვანეთი","ISO3166-2-lvl4":"GE-SZ","country":"საქართველო","country_code":"ge"},"population":2970,"osm_type":"node","osm_id":389635184,"type":"town","location":[41.9037601,42.3179705],"bbox":[41.8637601,42.2779705,41.9437601,42.3579705],"border":{"name":"ხობი","other_names":{"name:en":"Khobi","name:ka":"ხობი","name:ru":"Хоби","name:de":"Chobi","name:lt":"Chobis","name:ml":"ഖോബി","name:sr":"Хоби","name:uk":"Хобі"},"display_name":"ხობი, ხობის მუნიციპალიტეტი, სამეგრელო-ზემო სვანეთი, საქართველო","address":{"town":"ხობი","county":"ხობის მუნიციპალიტეტი","state":"სამეგრელო-ზემო სვანეთი","ISO3166-2-lvl4":"GE-SZ","country":"საქართველო","country_code":"ge"},"population":2970,"osm_type":"relation","osm_id":18070553,"type":"town","location":[41.9037601,42.3179705],"bbox":[41.8685344,42.3026305,41.9255805,42.3482785]}}
{"name":"ხონი","other_names":{"name:de":"Choni","name:en":"Khoni","name:et":"Honi","name:fr":"Choni","name:ka":"ხონი","name:lt":"Chonis","name:ml":"ഖോനി","name:pl":"Choni","name:ru":"Хони","name:sr":"Хони","name:uk":"Хоні","old_name":"Tsulukidze","old_name:ka":"წულუკიძე","old_name:ru":"Цулукидзе"},"display_name":"ხონი, ხონის მუნიციპალიტეტი, იმერეთი, საქართველო","address":{"town":"ხონი","county":"ხონის მუნიციპალიტეტი","state":"იმერეთი","ISO3166-2-lvl4":"GE-IM","country":"საქართველო","country_code":"ge"},"population":7651,"osm_type":"node","osm_id":292825342,"type":"town","location":[42.4221702,42.3245517],"bbox":[42.3821702,42.2845517,42.4621702,42.3645517],"border":[{"name":"ხონი","other_names":{"name:de":"Choni","name:en":"Khoni","name:et":"Honi","name:fr":"Choni","name:ka":"ხონი","name:lt":"Chonis","name:pl":"Choni","name:ru":"Хони","name:sr":"Хони","name:uk":"Хоні","name:ml":"ഖോനി","old_name":"Tsulukidze","old_name:ka":"წულუკიძე","old_name:ru":"Цулукидзе"},"display_name":"ხონი, ხონის მუნიციპალიტეტი, იმერეთი, საქართველო","address":{"town":"ხონი","county":"ხონის მუნიციპალიტეტი","state":"იმერეთი","ISO3166-2-lvl4":"GE-IM","country":"საქართველო","country_code":"ge"},"population":7651,"osm_type":"way","osm_id":1213638082,"type":"town","location":[42.4221702,42.3245517],"bbox":[42.394309,42.2978375,42.4598783,42.3471107]},{"name":"ხონის მუნიციპალიტეტი","other_names":{"name:de":"Munizipalität Choni","name:en":"Khoni Municipality","name:es":"Municipio de Joni","name:et":"Honi rajoon","name:fa":"شهرداری خنی","name:fi":"Khonin piirikunta","name:fr":"Municipalité de Khoni","name:hy":"Խոնի մունիցիպալիտետ","name:it":"Municipalità di Khoni","name:ka":"ხონის მუნიციპალიტეტი","name:ru":"Хонийский муниуипалитет","name:sv":"Choni distrikt","name:uk":"Хонський муніципалітет","name:zh":"霍尼市","int_name":"Khonis Munitsipaliteti","name:ceb":"Khonis Munitsip'alit'et'i","name:xmf":"ხონიშ მუნიციპალიტეტი","old_name":"Tsulukidze","old_name:ka":"წულუკიძე","old_name:ru":"Цулукидзе"},"display_name":"ხონის მუნიციპალიტეტი, იმერეთი, 5900, საქართველო","address":{"county":"ხონის მუნიციპალიტეტი","state":"იმერეთი","ISO3166-2-lvl4":"GE-IM","postcode":"5900","country":"საქართველო","country_code":"ge"},"osm_type":"relation","osm_id":2024536,"type":"administrative","location":[42.48606663619236,42.397873149999995],"bbox":[42.3287867,42.2309625,42.6398751,42.5659041]}]}
{"name":"ხულო","other_names":{"name:de":"Chulo","name:en":"Khulo","name:it":"Khulo","name:ka":"ხულო","name:ku":"Xûlo","name:ru":"Хуло","name:tr":"Hulo","name:uk":"Хуло"},"display_name":"ხულო, ხულოს მუნიციპალიტეტი, აჭარის ავტონომიური რესპუბლიკა, საქართველო","address":{"town":"ხულო","county":"ხულოს მუნიციპალიტეტი","state":"აჭარის ავტონომიური რესპუბლიკა","ISO3166-2-lvl4":"GE-AJ","country":"საქართველო","country_code":"ge"},"population":874,"osm_type":"node","osm_id":540579150,"type":"town","location":[42.31409,41.6434669],"bbox":[42.27409,41.6034669,42.35409,41.6834669],"border":{"name":"ხულო","other_names":{"name:en":"Khulo","name:ka":"ხულო","name:ru":"Хуло","name:de":"Chulo","name:it":"Khulo","name:ku":"Xûlo","name:tr":"Hulo","name:uk":"Хуло"},"display_name":"ხულო, ხულოს მუნიციპალიტეტი, აჭარის ავტონომიური რესპუბლიკა, საქართველო","address":{"town":"ხულო","county":"ხულოს მუნიციპალიტეტი","state":"აჭარის ავტონომიური რესპუბლიკა","ISO3166-2-lvl4":"GE-AJ","country":"საქართველო","country_code":"ge"},"population":874,"osm_type":"way","osm_id":963347220,"type":"administrative","location":[42.31409,41.6434669],"bbox":[42.3107612,41.6417434,42.3203045,41.6484864]}}
{"name":"ჯვარზენი","other_names":{"name:en":"Jvarzeni","name:ka":"ჯვარზენი","name:ru":"Джварзени"},"display_name":"ჯვარზენი, წალენჯიხის მუნიციპალიტეტი, სამეგრელო-ზემო სვანეთი, საქართველო","address":{"town":"ჯვარზენი","county":"წალენჯიხის მუნიციპალიტეტი","state":"სამეგრელო-ზემო სვანეთი","ISO3166-2-lvl4":"GE-SZ","country":"საქართველო","country_code":"ge"},"osm_type":"way","osm_id":795127759,"type":"town","location":[42.052432333059684,42.71784155],"bbox":[42.042388,42.7072617,42.0632238,42.7289518]}
{"name":"ჯვარი","other_names":{"name:de":"Dschwari","name:en":"Jvari","name:ka":"ჯვარი","name:ml":"ജ്വാറി","name:ru":"Джвари","name:sr":"Жвари","name:uk":"Джварі"},"display_name":"ჯვარი, წალენჯიხის მუნიციპალიტეტი, სამეგრელო-ზემო სვანეთი, 5200, საქართველო","address":{"town":"ჯვარი","county":"წალენჯიხის მუნიციპალიტეტი","state":"სამეგრელო-ზემო სვანეთი","ISO3166-2-lvl4":"GE-SZ","postcode":"5200","country":"საქართველო","country_code":"ge"},"population":1148,"osm_type":"node","osm_id":389642124,"type":"town","location":[42.0496433,42.7175724],"bbox":[42.0096433,42.6775724,42.0896433,42.7575724]}
