{"name":"Аҟəа","other_names":{"name:ab":"Аҟəа","name:af":"Soechoemi","name:an":"Sukhumi","name:ar":"سوخومي","name:az":"Suxumi","name:ba":"Сухум","name:be":"Сухумі","name:bg":"Сухуми","name:bn":"সুখুমি","name:bs":"Suhumi","name:ca":"Sukhumi","name:ce":"Сухуми","name:cs":"Suchumi","name:cu":"Соухоумъ","name:cv":"Сухум","name:cy":"Sukhumi","name:da":"Sukhumi","name:de":"Suchumi","name:el":"Σουχούμι","name:en":"Sukhum","name:eo":"Suĥumo","name:es":"Sujumi","name:et":"Suhhumi","name:eu":"Sokhumi","name:fa":"سوخومی","name:fi":"Suhumi","name:fr":"Soukhoumi","name:gl":"Sukhumi","name:gv":"Aqwa","name:ha":"Sukhumi","name:he":"סוחומי","name:hi":"सोखुमी","name:hr":"Suhumi","name:hu":"Szuhumi","name:hy":"Սուխում","name:id":"Sukhum","name:ik":"Sukhumi","name:io":"Suhumi","name:is":"Súkúmí","name:it":"Suchumi","name:ja":"スフミ","name:jv":"Sokhumi","name:ka":"სოხუმი","name:kk":"Сухум","name:ko":"수후미","name:kv":"Сухум","name:la":"Dioscurias","name:lt":"Suchumis","name:lv":"Suhumi","name:mk":"Сухуми","name:ml":"സോക്കുമി","name:mr":"सुखुमी","name:ms":"Sukhumi","name:nb":"Sukhumi","name:nl":"Soechoemi","name:nn":"Sukhumi","name:oc":"Aqwa","name:os":"Сухум","name:pa":"ਸੁਖ਼ੂਮੀ","name:pl":"Suchumi","name:ps":"سوخومي","name:pt":"Sucumi","name:ro":"Suhumi","name:ru":"Сухум","name:rw":"Sukumi","name:sc":"Sukhumi","name:sk":"Sochumi","name:sl":"Suhumi","name:sr":"Сухуми","name:sv":"Suchumi","name:ta":"சுகுமி","name:tg":"Сухумӣ","name:th":"ซูฮูมี","name:tr":"Sohum","name:tt":"Сухум","name:uk":"Сухумі","name:ur":"سخومی","name:uz":"Suxumi","name:vi":"Sukhumi","name:vo":"Akva","name:zh":"苏呼米/蘇呼米","int_name":"Sokhumi","name:kbd":"Согъум","alt_name:de":"Sochumi","alt_name:en":"Sokhumi","alt_name:ru":"Сохуми","old_name:en":"Sukhumi","old_name:ka":"ცხუმი","old_name:ru":"Сухуми","old_name:tr":"Sohumkale","name:zh-Hans":"苏呼米","name:zh-Hant":"蘇呼米","name:ru:word_stress":"Суху́м"},"display_name":"Аҟəа, აფხაზეთის ავტონომიური რესპუბლიკა - Аԥснытәи Автономтә Республика, Абхазия - Аԥсны, საქართველო","address":{"city":"Аҟəа","state":"აფხაზეთის ავტონომიური რესპუბლიკა - Аԥснытәи Автономтә Республика","ISO3166-2-lvl4":"GE-AB","country":"Абхазия - Аԥсны","ISO3166-2-lvl3":"GE-AB","country_code":"ge"},"population":65530,"osm_type":"node","osm_id":790323861,"type":"city","location":[41.0192741,43.0033629],"bbox":[40.8592741,42.8433629,41.1792741,43.1633629],"border":{"name":"Аҟəа","other_names":{"name:ab":"Аҟəа","name:az":"Suxumi","name:ca":"Sukhumi","name:cs":"Suchumi","name:de":"Suchumi","name:el":"Σουχούμι","name:en":"Sukhum","name:es":"Sujumi","name:fr":"Soukhoumi","name:hi":"सोखुमी","name:hr":"Suhumi","name:it":"Suchumi","name:ka":"სოხუმი","name:ko":"수후미","name:ml":"സോക്കുമി","name:nl":"Soechoemi","name:os":"Сухум","name:pl":"Suchumi","name:ru":"Сухум","name:tr":"Sohum","name:uk":"Сухумі","name:zh":"苏呼米/蘇呼米","name:kbd":"Согъум","alt_name:de":"Sochumi","alt_name:en":"Sokhumi","alt_name:ka":"აყუ","alt_name:ru":"Сохуми","old_name:en":"Sukhumi","old_name:ka":"ცხუმი","old_name:ru":"Сухуми","old_name:tr":"Sohumkale","name:zh-Hans":"苏呼米","name:zh-Hant":"蘇呼米","name:af":"Soechoemi","name:an":"Sukhumi","name:ar":"سوخومي","name:ba":"Сухум","name:be":"Сухумі","name:bg":"Сухуми","name:bn":"সুখুমি","name:bs":"Suhumi","name:ce":"Сухуми","name:cu":"Соухоумъ","name:cv":"Сухум","name:cy":"Sukhumi","name:da":"Sukhumi","name:eo":"Suĥumo","name:et":"Suhhumi","name:eu":"Sokhumi","name:fa":"سوخومی","name:fi":"Suhumi","name:gl":"Sukhumi","name:gv":"Aqwa","name:ha":"Sukhumi","name:he":"סוחומי","name:hu":"Szuhumi","name:hy":"Սուխում","name:id":"Sukhum","name:ik":"Sukhumi","name:io":"Suhumi","name:is":"Súkúmí","name:ja":"スフミ","name:jv":"Sokhumi","name:kk":"Сухум","name:kv":"Сухум","name:la":"Dioscurias","name:lt":"Suchumis","name:lv":"Suhumi","name:mk":"Сухуми","name:mr":"सुखुमी","name:ms":"Sukhumi","name:nb":"Sukhumi","name:nn":"Sukhumi","name:oc":"Aqwa","name:pa":"ਸੁਖ਼ੂਮੀ","name:ps":"سوخومي","name:pt":"Sucumi","name:ro":"Suhumi","name:rw":"Sukumi","name:sc":"Sukhumi","name:sk":"Sochumi","name:sl":"Suhumi","name:sr":"Сухуми","name:sv":"Suchumi","name:ta":"சுகுமி","name:tg":"Сухумӣ","name:th":"ซูฮูมี","name:tt":"Сухум","name:ur":"سخومی","name:uz":"Suxumi","name:vi":"Sukhumi","name:vo":"Akva","int_name":"Sokhumi","name:ru:word_stress":"Суху́м"},"display_name":"Аҟəа, აფხაზეთის ავტონომიური რესპუბლიკა - Аԥснытәи Автономтә Республика, Абхазия - Аԥсны, საქართველო","address":{"city":"Аҟəа","state":"აფხაზეთის ავტონომიური რესპუბლიკა - Аԥснытәи Автономтә Республика","ISO3166-2-lvl4":"GE-AB","country":"Абхазия - Аԥсны","ISO3166-2-lvl3":"GE-AB","country_code":"ge"},"population":65530,"osm_type":"relation","osm_id":2027324,"type":"administrative","location":[41.0192741,43.0033629],"bbox":[40.9600653,42.9806681,41.068654,43.0287453]}}
{"name":"Рьап ақыҭа ахадара","other_names":{"name:ab":"Рьап ақыҭа ахадара","name:ka":"Рьап ақыҭа ахадара","name:ru":"Сельская администрация Ряп"},"display_name":"Рьап ақыҭа ахадара, Гал араион, აფხაზეთის ავტონომიური რესპუბლიკა - Аԥснытәи Автономтә Республика, Абхазия - Аԥсны, საქართველო","address":{"city":"Рьап ақыҭа ахадара","region":"Гал араион","state":"აფხაზეთის ავტონომიური რესპუბლიკა - Аԥснытәи Автономтә Республика","ISO3166-2-lvl4":"GE-AB","country":"Абхазия - Аԥсны","ISO3166-2-lvl3":"GE-AB","country_code":"ge"},"osm_type":"relation","osm_id":17560832,"type":"administrative","location":[41.63953915519248,42.60422325],"bbox":[41.5773212,42.5817007,41.7030384,42.6444592],"inferred_type":"city"}
{"name":"Ҭаӷьлан ақыҭа ахадара","other_names":{"name:ka":"Ҭаӷьлан ақыҭа ахадара","name:ru":"Сельская администрация Таглан"},"display_name":"Ҭаӷьлан ақыҭа ахадара, Гал араион, აფხაზეთის ავტონომიური რესპუბლიკა - Аԥснытәи Автономтә Республика, Абхазия - Аԥсны, საქართველო","address":{"city":"Ҭаӷьлан ақыҭа ахадара","region":"Гал араион","state":"აფხაზეთის ავტონომიური რესპუბლიკა - Аԥснытәи Автономтә Республика","ISO3166-2-lvl4":"GE-AB","country":"Абхазия - Аԥсны","ISO3166-2-lvl3":"GE-AB","country_code":"ge"},"osm_type":"relation","osm_id":17707272,"type":"administrative","location":[41.7547801149844,42.5427798],"bbox":[41.7123579,42.518849,41.8088246,42.5662463],"inferred_type":"city"}
{"name":"Цхинвал","other_names":{"name:af":"Zchinwali","name:ar":"تسخينفالي","name:az":"Tsxinvali","name:be":"Цхінвалі","name:bg":"Цхинвали","name:bn":"স্কিনভালি","name:bs":"Chinvali","name:ca":"Tskhinvali","name:ce":"Цхинвали","name:cs":"Cchinvali","name:cy":"Tskhinvali","name:da":"Tskhinvali","name:de":"Zchinwali","name:el":"Τσχινβάλι","name:en":"Tskhinvali","name:eo":"Cĥinval","name:es":"Tsjinvali","name:et":"Tshinvali","name:eu":"Tskhinvali","name:fa":"تسخینوالی","name:fi":"Tskhinvali","name:fr":"Tskhinvali","name:gl":"Tskhinvali","name:he":"צחינוואלי","name:hi":"तस्किनवाली","name:hr":"Činvali","name:hu":"Chinvali","name:hy":"Ցխինվալ","name:id":"Tskhinvali","name:is":"Tskinval","name:it":"Tskhinvali","name:ja":"ツヒンヴァリ","name:ka":"ცხინვალი","name:ko":"츠힌발리","name:ku":"Çînwali","name:kv":"Чреба","name:la":"Schinuvalium","name:lt":"Cchinvalis","name:lv":"Chinvala","name:ml":"ടിസ്ക്കിൻവാലി","name:ms":"Tskhinvali","name:nb":"Tskhinvali","name:nl":"Tschinvali","name:nn":"Tskhinvali","name:no":"Tskhinvali","name:os":"Цхинвал","name:pa":"ਸਖ਼ਿਨਵਾਲੀ","name:pl":"Cchinwali","name:ps":"تسخینوالی","name:pt":"Tskhinvali","name:ro":"Țhinvali","name:ru":"Цхинвал","name:sc":"Tskhinvali","name:sk":"Cchinvali","name:sl":"Chinval","name:sq":"Chinvali","name:sr":"Цхинвали","name:sv":"Tschinvali","name:ta":"திஸ்கின்வாலி","name:tg":"Схинволи","name:th":"ซคินวาลี","name:tl":"Tskhinvali","name:tr":"Tshinvali","name:uk":"Цхінвалі","name:ur":"تسخینوالی","name:uz":"Sxinvali","name:vi":"Tskhinvali","name:vo":"Zkinval","name:zh":"茨欣瓦利","name:gag":"Tshinvali","old_name:ru":"Крцхинвали;Сталинири"},"display_name":"Цхинвал, Хуссар Ирыстон - Южная Осетия, საქართველო","address":{"city":"Цхинвал","country":"Хуссар Ирыстон - Южная Осетия","country_code":"ge"},"population":34184,"osm_type":"node","osm_id":2706851374,"type":"city","location":[43.9708477,42.2251222],"bbox":[43.8108477,42.0651222,44.1308477,42.3851222],"border":{"name":"Цхинвал","other_names":{"name:be":"Цхінвалi","name:ca":"Tskhinvali","name:de":"Zchinwali","name:en":"Tskhinvali","name:es":"Tsjinvali","name:fr":"Tskhinvali","name:hr":"Činvali","name:hu":"Chinvali","name:hy":"Ցխինվալ","name:ka":"ცხინვალი","name:ku":"Çînwali","name:os":"Цхинвал","name:pl":"Cchinwali","name:ru":"Цхинвал","name:sr":"Цхинвали","name:tg":"Схинволи","name:uk":"Цхінвалі","name:gag":"Tshinvali","old_name":"Krtskhinvali;Staliniri","alt_name:de":"Zchinwal","alt_name:en":"Chreba;Tskhinvali","alt_name:fr":"Tskhinval","alt_name:ka":"ცხინვალი","alt_name:os":"Чъреба","alt_name:ru":"Цхинвали","old_name:ka":"ქრცხინვალი;სტალინირი","old_name:ru":"Крцхинвали;Сталинири","name:af":"Zchinwali","name:ar":"تسخينفالي","name:az":"Tsxinvali","name:bg":"Цхинвали","name:bn":"স্কিনভালি","name:bs":"Chinvali","name:ce":"Цхинвали","name:cs":"Cchinvali","name:cy":"Tskhinvali","name:da":"Tskhinvali","name:el":"Τσχινβάλι","name:eo":"Cĥinval","name:et":"Tshinvali","name:eu":"Tskhinvali","name:fa":"تسخینوالی","name:fi":"Tskhinvali","name:gl":"Tskhinvali","name:he":"צחינוואלי","name:hi":"तस्किनवाली","name:id":"Tskhinvali","name:is":"Tskinval","name:it":"Tskhinvali","name:ja":"ツヒンヴァリ","name:ko":"츠힌발리","name:kv":"Чреба","name:la":"Schinuvalium","name:lt":"Cchinvalis","name:lv":"Chinvala","name:ml":"ടിസ്ക്കിൻവാലി","name:ms":"Tskhinvali","name:nb":"Tskhinvali","name:nl":"Tschinvali","name:nn":"Tskhinvali","name:no":"Tskhinvali","name:pa":"ਸਖ਼ਿਨਵਾਲੀ","name:ps":"تسخینوالی","name:pt":"Tskhinvali","name:ro":"Țhinvali","name:sc":"Tskhinvali","name:sk":"Cchinvali","name:sl":"Chinval","name:sq":"Chinvali","name:sv":"Tschinvali","name:ta":"திஸ்கின்வாலி","name:th":"ซคินวาลี","name:tl":"Tskhinvali","name:tr":"Tshinvali","name:ur":"تسخینوالی","name:uz":"Sxinvali","name:vi":"Tskhinvali","name:vo":"Zkinval","name:zh":"茨欣瓦利","alt:be":"Цхінвалі"},"display_name":"Цхинвал, Хуссар Ирыстон - Южная Осетия, საქართველო","address":{"city":"Цхинвал","country":"Хуссар Ирыстон - Южная Осетия","country_code":"ge"},"population":34184,"osm_type":"relation","osm_id":2027318,"type":"administrative","location":[43.9708477,42.2251222],"bbox":[43.9486501,42.2039191,43.9857387,42.2780224]}}
{"name":"Шьашьикәара ақыҭа ахадара","other_names":{"name:ab":"Шьашьикәара ақыҭа ахадара","name:ka":"Шьашьикәара ақыҭа ахадара","name:ru":"Сельская администрация Шашикуара"},"display_name":"Шьашьикәара ақыҭа ахадара, Гал араион, აფხაზეთის ავტონომიური რესპუბლიკა - Аԥснытәи Автономтә Республика, Абхазия - Аԥсны, საქართველო","address":{"city":"Шьашьикәара ақыҭа ахадара","region":"Гал араион","state":"აფხაზეთის ავტონომიური რესპუბლიკა - Аԥснытәи Автономтә Республика","ISO3166-2-lvl4":"GE-AB","country":"Абхазия - Аԥсны","ISO3166-2-lvl3":"GE-AB","country_code":"ge"},"osm_type":"relation","osm_id":17554220,"type":"administrative","location":[41.723910015980096,42.6089268],"bbox":[41.6987098,42.5793027,41.7547925,42.6386278],"inferred_type":"city"}
{"name":"ბათუმი","other_names":{"name:ab":"Баҭым","name:af":"Batoemi","name:ar":"باطومى","name:av":"Батуми","name:az":"Batumi","name:ba":"Батуми","name:be":"Батумі","name:bg":"Батуми","name:bn":"বাটোমি","name:ca":"Batumi","name:ce":"Батуми","name:cs":"Batumi","name:cv":"Батуми","name:cy":"Batumi","name:da":"Batumi","name:de":"Batumi","name:el":"Μπατούμι","name:en":"Batumi","name:eo":"Batumi","name:es":"Batumi","name:et":"Bathumi","name:eu":"Batumi","name:fa":"باتومی","name:fi":"Batumi","name:fr":"Batoumi","name:fy":"Batûm","name:ga":"Batumi","name:gl":"Batumi","name:gu":"બાતુમી","name:he":"בתומי","name:hi":"बाटुमि","name:hr":"Batumi","name:hu":"Batumi","name:hy":"Բաթում","name:id":"Batumi","name:ie":"Batumi","name:it":"Batumi","name:ja":"バトゥミ","name:jv":"Batumi","name:ka":"ბათუმი","name:kk":"Батуми","name:kn":"ಬಟುಮಿ","name:ko":"바투미","name:ku":"Batûmî","name:ky":"Батеми","name:la":"Bathys","name:lt":"Batumis","name:lv":"Batumi","name:mk":"Батуми","name:ml":"ബാട്ടുമി","name:mn":"Батуми","name:mr":"बातुमी","name:ms":"Batumi","name:nb":"Batumi","name:nl":"Batoemi","name:nn":"Batumi","name:no":"Batumi","name:oc":"Batum","name:os":"Батуми","name:pl":"Batumi","name:pt":"Batumi","name:qu":"Batumi","name:ro":"Batumi","name:ru":"Батуми","name:rw":"Batumi","name:sh":"Batumi","name:si":"බතුමි","name:sk":"Batumi","name:sl":"Batumi","name:sq":"Batumi","name:sr":"Батуми","name:sv":"Batumi","name:ta":"பத்தூமி","name:te":"బటుమీ","name:tg":"Батеми","name:th":"บาทูมี","name:tr":"Batum","name:tt":"Батум","name:uk":"Батумі","name:ur":"باتومی","name:uz":"Batumi","name:vi":"Batumi","name:vo":"Batumi","name:zh":"巴統","name:arz":"باتومى","name:ast":"Batumi","name:ceb":"Batumi","name:ckb":"باتوومی","name:diq":"Batum","name:frr":"Batumi","name:hsb":"Batumi","name:hyw":"Պաթում","name:mdf":"Батуми","name:mhr":"Батуми","name:myv":"Батуми","name:mzn":"باتومی","name:pnb":"باتومی","name:scn":"Batumi","name:sco":"Batumi","name:sgs":"Batomis","name:szl":"Batumi","name:tly":"Batumi","name:udm":"Батуми","name:vec":"Batumi","name:vep":"Batum","name:war":"Batumi","name:wuu":"巴统","name:xmf":"ბათუმი","name:yue":"巴統","name:simple":"Batumi","name:bat_smg":"Batomis","name:tt-Latn":"Batumi","name:zh-Hans":"巴统","name:zh-Hant":"巴統","name:be_x_old":"Батумі","name:be-tarask":"Батумі"},"display_name":"ბათუმი, აჭარის ავტონომიური რესპუბლიკა, საქართველო","address":{"city":"ბათუმი","state":"აჭარის ავტონომიური რესპუბლიკა","ISO3166-2-lvl4":"GE-AJ","country":"საქართველო","country_code":"ge"},"population":186949,"osm_type":"node","osm_id":160257516,"type":"city","location":[41.6360085,41.6509502],"bbox":[41.4760085,41.4909502,41.7960085,41.8109502],"border":[{"name":"ბათუმი","other_names":{"name:ab":"Баҭым","name:ar":"باطومي","name:az":"Batumi","name:bg":"Батуми","name:ca":"Batumi","name:de":"Batumi","name:en":"Batumi","name:es":"Batumi","name:fa":"باتومی","name:fr":"Batoumi","name:he":"בתומי","name:hr":"Batumi","name:hu":"Batumi","name:hy":"Բաթում","name:ja":"バトゥミ","name:ka":"ბათუმი","name:ku":"Batûmî","name:lt":"Batumis","name:nl":"Batoemi","name:os":"Батуми","name:pl":"Batumi","name:ru":"Батуми","name:sr":"Батуми","name:tr":"Batum","name:uk":"Батумі","name:zh":"巴統","name:xmf":"ბათუმი"},"display_name":"ბათუმი, აჭარის ავტონომიური რესპუბლიკა, საქართველო","address":{"city":"ბათუმი","state":"აჭარის ავტონომიური რესპუბლიკა","ISO3166-2-lvl4":"GE-AJ","country":"საქართველო","country_code":"ge"},"osm_type":"relation","osm_id":8742159,"type":"city","location":[41.6249897328339,41.6241427],"bbox":[41.5594872,41.5312428,41.7456988,41.7170258]},{"name":"ბათუმი","other_names":{"name:ab":"Баҭым","name:ar":"باطومي","name:az":"Batumi","name:bg":"Батуми","name:ca":"Batumi","name:de":"Batumi","name:en":"Batumi","name:es":"Batumi","name:fa":"باتومی","name:fr":"Batoumi","name:he":"בתומי","name:hr":"Batumi","name:hu":"Batumi","name:hy":"Բաթում","name:ja":"バトゥミ","name:ka":"ბათუმი","name:ku":"Batûmî","name:lt":"Batumis","name:nl":"Batoemi","name:os":"Батуми","name:pl":"Batumi","name:ru":"Батуми","name:sr":"Батуми","name:tr":"Batum","name:uk":"Батумі","name:zh":"巴统","int_name":"Batumi","name:xmf":"ბათუმი","name:af":"Batoemi","name:av":"Батуми","name:ba":"Батуми","name:be":"Батумі","name:bn":"বাটোমি","name:ce":"Батуми","name:cs":"Batumi","name:cv":"Батуми","name:cy":"Batumi","name:da":"Batumi","name:el":"Μπατούμι","name:eo":"Batumi","name:et":"Bathumi","name:eu":"Batumi","name:fi":"Batumi","name:fy":"Batûm","name:ga":"Batumi","name:gl":"Batumi","name:gu":"બાતુમી","name:hi":"बाटुमि","name:id":"Batumi","name:ie":"Batumi","name:it":"Batumi","name:jv":"Batumi","name:kk":"Батуми","name:kn":"ಬಟುಮಿ","name:ko":"바투미","name:ky":"Батеми","name:la":"Bathys","name:lv":"Batumi","name:mk":"Батуми","name:ml":"ബാട്ടുമി","name:mn":"Батуми","name:mr":"बातुमी","name:ms":"Batumi","name:nb":"Batumi","name:nn":"Batumi","name:no":"Batumi","name:oc":"Batum","name:pt":"Batumi","name:qu":"Batumi","name:ro":"Batumi","name:rw":"Batumi","name:sh":"Batumi","name:si":"බතුමි","name:sk":"Batumi","name:sl":"Batumi","name:sq":"Batumi","name:sv":"Batumi","name:ta":"பத்தூமி","name:te":"బటుమీ","name:tg":"Батеми","name:th":"บาทูมี","name:tt":"Батум","name:ur":"باتومی","name:uz":"Batumi","name:vi":"Batumi","name:vo":"Batumi","name:arz":"باتومى","name:ast":"Batumi","name:ceb":"Batumi","name:ckb":"باتوومی","name:diq":"Batum","name:frr":"Batumi","name:hsb":"Batumi","name:hyw":"Պաթում","name:mdf":"Батуми","name:mhr":"Батуми","name:myv":"Батуми","name:mzn":"باتومی","name:pnb":"باتومی","name:scn":"Batumi","name:sco":"Batumi","name:sgs":"Batomis","name:szl":"Batumi","name:tly":"Batumi","name:udm":"Батуми","name:vec":"Batumi","name:vep":"Batum","name:war":"Batumi","name:wuu":"巴统","name:yue":"巴統","name:simple":"Batumi","name:bat_smg":"Batomis","name:tt-Latn":"Batumi","name:zh-Hans":"巴统","name:zh-Hant":"巴統","name:be_x_old":"Батумі","name:be-tarask":"Батумі","alt:ar":"باطومى","alt:zh":"巴統"},"display_name":"ბათუმი, აჭარის ავტონომიური რესპუბლიკა, საქართველო","address":{"city":"ბათუმი","state":"აჭარის ავტონომიური რესპუბლიკა","ISO3166-2-lvl4":"GE-AJ","country":"საქართველო","country_code":"ge"},"population":186949,"osm_type":"relation","osm_id":2009237,"type":"administrative","location":[41.6360085,41.6509502],"bbox":[41.5594872,41.5312428,41.7456988,41.7170258]}]}
{"name":"გორი","other_names":{"name:ab":"Гәар","name:an":"Gori","name:ar":"غوري","name:az":"Qori şəhəri","name:ba":"Гори","name:be":"Горы","name:bg":"Гори","name:ca":"Gori","name:ce":"Гори","name:cs":"Gori","name:cv":"Гори","name:da":"Gori","name:de":"Gori","name:el":"Γκόρι","name:en":"Gori","name:eo":"Gori","name:es":"Gori","name:et":"Gori","name:eu":"Gori","name:fa":"گوری","name:fi":"Gori","name:fr":"Gori","name:gl":"Gori","name:he":"גורי","name:hi":"गोरी","name:hr":"Gori","name:hu":"Gori","name:hy":"Գորի","name:id":"Gori","name:it":"Gori","name:ja":"ゴリ","name:ka":"გორი","name:ko":"고리","name:la":"Goridis","name:lt":"Goris","name:lv":"Gori","name:ml":"ഗോറി","name:mn":"Гори","name:nb":"Gori","name:nl":"Gori","name:nn":"Gori","name:no":"Gori","name:oc":"Gòri","name:os":"Гур","name:pa":"ਗੋਰੀ","name:pl":"Gori","name:pt":"Gori","name:ro":"Gori","name:ru":"Гори","name:sk":"Gori","name:sl":"Gori","name:sq":"Gori","name:sr":"Гори","name:sv":"Gori","name:tg":"Гурӣ","name:th":"กอรี","name:tr":"Gori","name:uk":"Ґорі","name:ur":"گوری","name:uz":"Gori","name:vi":"Gori","name:zh":"哥里"},"display_name":"გორი, გორის მუნიციპალიტეტი, შიდა ქართლი, საქართველო","address":{"city":"გორი","county":"გორის მუნიციპალიტეტი","state":"შიდა ქართლი","ISO3166-2-lvl4":"GE-SK","country":"საქართველო","country_code":"ge"},"population":41933,"osm_type":"node","osm_id":5683127962,"type":"city","location":[44.1117811,41.9818469],"bbox":[43.9517811,41.8218469,44.2717811,42.1418469],"border":{"name":"გორი","other_names":{"name:cs":"Gori","name:en":"Gori","name:ja":"ゴリ","name:ka":"გორი","name:ru":"Гори","name:ab":"Гәар","name:an":"Gori","name:ar":"غوري","name:az":"Qori şəhəri","name:ba":"Гори","name:be":"Горы","name:bg":"Гори","name:ca":"Gori","name:ce":"Гори","name:cv":"Гори","name:da":"Gori","name:de":"Gori","name:el":"Γκόρι","name:eo":"Gori","name:es":"Gori","name:et":"Gori","name:eu":"Gori","name:fa":"گوری","name:fi":"Gori","name:fr":"Gori","name:gl":"Gori","name:he":"גורי","name:hi":"गोरी","name:hr":"Gori","name:hu":"Gori","name:hy":"Գորի","name:id":"Gori","name:it":"Gori","name:ko":"고리","name:la":"Goridis","name:lt":"Goris","name:lv":"Gori","name:ml":"ഗോറി","name:mn":"Гори","name:nb":"Gori","name:nl":"Gori","name:nn":"Gori","name:no":"Gori","name:oc":"Gòri","name:os":"Гур","name:pa":"ਗੋਰੀ","name:pl":"Gori","name:pt":"Gori","name:ro":"Gori","name:sk":"Gori","name:sl":"Gori","name:sq":"Gori","name:sr":"Гори","name:sv":"Gori","name:tg":"Гурӣ","name:th":"กอรี","name:tr":"Gori","name:uk":"Ґорі","name:ur":"گوری","name:uz":"Gori","name:vi":"Gori","name:zh":"哥里"},"display_name":"გორი, გორის მუნიციპალიტეტი, შიდა ქართლი, 1400, საქართველო","address":{"city":"გორი","county":"გორის მუნიციპალიტეტი","state":"შიდა ქართლი","ISO3166-2-lvl4":"GE-SK","postcode":"1400","country":"საქართველო","country_code":"ge"},"population":41933,"osm_type":"relation","osm_id":8374250,"type":"administrative","location":[44.1117811,41.9818469],"bbox":[44.0824621,41.9639448,44.1634244,42.0160041]}}
{"name":"ზუგდიდი","other_names":{"name:ab":"Жәыргьыҭ","name:ar":"زوغديدي","name:az":"Zuqdidi","name:be":"Зугдыды","name:bg":"Зугдиди","name:br":"Zougdidi","name:ca":"Zúgdidi","name:ce":"Зугдиди","name:cs":"Zugdidi","name:da":"Sugdidi","name:de":"Sugdidi","name:el":"Ζουγκντίντι","name:en":"Zugdidi","name:eo":"Zugdidi","name:es":"Zugdidi","name:et":"Zugdidi","name:eu":"Zugdidi","name:fa":"زوگدیدی","name:fi":"Zugdidi","name:fr":"Zougdidi","name:he":"זוגדידי","name:hr":"Zugdidi","name:hu":"Zugdidi","name:hy":"Զուգդիդ","name:id":"Zugdidi","name:it":"Zugdidi","name:ja":"ズグディディ","name:ka":"ზუგდიდი","name:ko":"주그디디","name:lt":"Zugdidis","name:lv":"Zugdidi","name:mk":"Зугдиди","name:ml":"സുഗ്ഡിഡി","name:nl":"Zoegdidi","name:os":"Зугдиди","name:pl":"Zugdidi","name:pt":"Zugdidi","name:ro":"Zugdidi","name:ru":"Зугдиди","name:sk":"Zugdidi","name:sl":"Zugdidi","name:sr":"Зугдиди","name:sv":"Zugdidi","name:th":"ซุกดีดี","name:tr":"Zugdidi","name:uk":"Зуґдіді","name:ur":"زوگدیدی","name:uz":"Zugdidi","name:vi":"Zugdidi","name:zh":"祖格迪迪","name:xmf":"ზუგდიდი"},"display_name":"ზუგდიდი, ზუგდიდის მუნიციპალიტეტი, სამეგრელო-ზემო სვანეთი, საქართველო","address":{"city":"ზუგდიდი","county":"ზუგდიდის მუნიციპალიტეტი","state":"სამეგრელო-ზემო სვანეთი","ISO3166-2-lvl4":"GE-SZ","country":"საქართველო","country_code":"ge"},"population":40067,"osm_type":"node","osm_id":280679947,"type":"city","location":[41.8716891,42.5072124],"bbox":[41.7116891,42.3472124,42.0316891,42.6672124],"border":{"name":"ზუგდიდი","other_names":{"name:ab":"Жәыргьыҭ","name:de":"Sugdidi","name:en":"Zugdidi","name:fr":"Zougdidi","name:hi":"जुगडीडी","name:it":"Zugdidi","name:ka":"ზუგდიდი","name:ru":"Зугдиди","name:sr":"Зугдиди","name:tr":"Zugdidi","name:uk":"Зуґдіді","name:xmf":"ზუგიდი","name:ar":"زوغديدي","name:az":"Zuqdidi","name:be":"Зугдыды","name:bg":"Зугдиди","name:br":"Zougdidi","name:ca":"Zúgdidi","name:ce":"Зугдиди","name:cs":"Zugdidi","name:da":"Sugdidi","name:el":"Ζουγκντίντι","name:eo":"Zugdidi","name:es":"Zugdidi","name:et":"Zugdidi","name:eu":"Zugdidi","name:fa":"زوگدیدی","name:fi":"Zugdidi","name:he":"זוגדידי","name:hr":"Zugdidi","name:hu":"Zugdidi","name:hy":"Զուգդիդ","name:id":"Zugdidi","name:ja":"ズグディディ","name:ko":"주그디디","name:lt":"Zugdidis","name:lv":"Zugdidi","name:mk":"Зугдиди","name:ml":"സുഗ്ഡിഡി","name:nl":"Zoegdidi","name:os":"Зугдиди","name:pl":"Zugdidi","name:pt":"Zugdidi","name:ro":"Zugdidi","name:sk":"Zugdidi","name:sl":"Zugdidi","name:sv":"Zugdidi","name:th":"ซุกดีดี","name:ur":"زوگدیدی","name:uz":"Zugdidi","name:vi":"Zugdidi","name:zh":"祖格迪迪","alt:xmf":"ზუგდიდი"},"display_name":"ზუგდიდი, ზუგდიდის მუნიციპალიტეტი, სამეგრელო-ზემო სვანეთი, 2100, საქართველო","address":{"city":"ზუგდიდი","county":"ზუგდიდის მუნიციპალიტეტი","state":"სამეგრელო-ზემო სვანეთი","ISO3166-2-lvl4":"GE-SZ","postcode":"2100","country":"საქართველო","country_code":"ge"},"population":41332,"osm_type":"relation","osm_id":8374200,"type":"administrative","location":[41.8716891,42.5072124],"bbox":[41.820925,42.4761051,41.9040763,42.5363686]}}
{"name":"თბილისი","other_names":{"name:ab":"Қарҭ","name:af":"Tbilisi","name:am":"ትብሊሲ","name:an":"Tbilisi","name:ar":"تبليسي","name:av":"Тбилиси","name:ay":"Tbilisi","name:az":"Tbilisi","name:ba":"Тбилиси","name:be":"Тбілісі","name:bg":"Тбилиси","name:bi":"Tbilisi","name:bn":"তিবি‌লিসি","name:bo":"ཁྲེ་བྷི་ལི་སི།","name:br":"Tbilisi","name:bs":"Tbilisi","name:ca":"Tbilissi","name:ce":"Тиблиси","name:cs":"Tbilisi","name:cu":"Тбилиси","name:cv":"Тбилиси","name:cy":"Tbilisi","name:da":"Tbilisi","name:de":"Tiflis","name:dz":"ཊི་བི་ལི་སི","name:ee":"Tbilisi","name:el":"Τιφλίδα","name:en":"Tbilisi","name:eo":"Tbiliso","name:es":"Tiflis","name:et":"Thbilisi","name:eu":"Tbilisi","name:fa":"تفلیس","name:fi":"Tbilisi","name:fj":"Tbilisi","name:fo":"Tbilisi","name:fr":"Tbilissi","name:fy":"Tbilisy","name:ga":"Tbilisi","name:gd":"Tbilisi","name:gl":"Tbilisi","name:gn":"Tivilísi","name:gv":"Tbilisi","name:he":"טביליסי","name:hi":"तिब्लिसी","name:hr":"Tbilisi","name:ht":"Tbilisi","name:hu":"Tbiliszi","name:hy":"Թբիլիսի","name:ia":"Tbilisi","name:id":"Tbilisi","name:ie":"Tbilisi","name:io":"Tbilisi","name:is":"Tíblisi","name:it":"Tbilisi","name:ja":"トビリシ","name:jv":"Tbilisi","name:ka":"თბილისი","name:kk":"Тбилиси","name:kn":"ಟಿಬಿಲಿಸಿ","name:ko":"트빌리시","name:ks":"ٹِبلیسی","name:ku":"Tibîlîsî","name:kv":"Тбилиси","name:ky":"Тбилиси","name:la":"Triphelis","name:lb":"Tiflis","name:lt":"Tbilisis","name:lv":"Tbilisi","name:mg":"Tbilisi","name:mi":"Tbilisi","name:mk":"Тбилиси","name:ml":"ടിബിലിസി","name:mn":"Тбилис","name:mr":"त्बिलिसी","name:ms":"Tbilisi","name:mt":"Tbilisi","name:nb":"Tbilisi","name:nl":"Tbilisi","name:nn":"Tbilisi","name:no":"Tbilisi","name:nv":"Tó Sido","name:oc":"Tbilissi","name:os":"Тбилис","name:pa":"ਤਬੀਲਿਸੀ","name:pl":"Tbilisi","name:ps":"تفلیس","name:pt":"Tbilisi","name:qu":"Tbilisi","name:ro":"Tbilisi","name:ru":"Тбилиси","name:rw":"Tbilisi","name:sc":"Tbilisi","name:sd":"تبليسي","name:se":"Tbilisi","name:sh":"Tbilisi","name:sk":"Tbilisi","name:sl":"Tbilisi","name:sn":"Tbilisi","name:sq":"Tbilisi","name:sr":"Тбилиси","name:sv":"Tbilisi","name:sw":"Tbilisi","name:ta":"திபிலீசி","name:tg":"Тбилисӣ","name:th":"ทบิลิซิ","name:tk":"Tiflis","name:tl":"Tbilisi","name:tr":"Tiflis","name:tt":"Tbilisi","name:tw":"Tbilisi","name:ty":"Tbilisi","name:ug":"تبىلىسى","name:uk":"Тбілісі","name:ur":"تبلیسی","name:uz":"Tbilisi","name:vi":"Tbilisi","name:vo":"Tbilisi","name:wo":"Tibilisi","name:yi":"טביליסי","name:yo":"Tbilisi","name:zh":"第比利斯","int_name":"Tbilisi","name:ace":"Tbilisi","name:arc":"ܛܒܝܠܝܣܝ","name:bcl":"Tbilisi","name:ckb":"تبلیس","name:diq":"Tıflis","name:frp":"Tbilisi","name:gag":"Tbilisi","name:hif":"Tbilisi","name:hsb":"Tbilisi","name:kab":"Tbilisi","name:kbd":"Тбилиси","name:lbe":"Ттуплис","name:lij":"Tiblisi","name:lmo":"Tbilisi","name:mhr":"Тбилиси","name:mrj":"Тбилиси","name:myv":"Тбилиси ош","name:mzn":"تفلیس","name:nah":"Tbilisi","name:nan":"Tbilisi","name:nov":"Tbilisi","name:pam":"Tbilisi","name:pms":"Tbilisi","name:pnb":"تبلیسی","name:sah":"Тбилиси","name:scn":"Tbilisi","name:sco":"Tbilisi","name:szl":"Tbilisi","name:udm":"Тбилиси","name:vep":"Tbilisi","name:vro":"Thbilisi","name:war":"Tbilisi","name:xmf":"ქართი","alt_name:ca":"Tiflis","alt_name:ko":"뜨빌리씨","alt_name:ml":"ടിഫ്ലിസ്","name:simple":"Tbilisi","old_name:pl":"Tyflis","old_name:ru":"Тифлис","name:bat-smg":"Tbėlėsis","name:roa-tara":"Tbilisi","name:be-tarask":"Тбілісі"},"display_name":"თბილისი, საქართველო","address":{"city":"თბილისი","ISO3166-2-lvl4":"GE-TB","country":"საქართველო","country_code":"ge"},"population":1282574,"osm_type":"node","osm_id":1614277087,"type":"city","location":[44.8014495,41.6934591],"bbox":[44.6414495,41.5334591,44.9614495,41.8534591],"border":{"name":"თბილისი","other_names":{"name:ab":"Қарҭ","name:af":"Tbilisi","name:am":"ትብሊሲ","name:an":"Tbilisi","name:ar":"تبليسي","name:av":"Туплис","name:ay":"Tbilisi","name:az":"Tbilisi","name:ba":"Тбилиси","name:be":"Тбілісі","name:bg":"Тбилиси","name:bi":"Tbilisi","name:bn":"তিবি‌লিসি","name:bo":"ཁྲེ་བྷི་ལི་སི།","name:br":"Tbilisi","name:bs":"Tbilisi","name:ca":"Tbilissi","name:ce":"Тиблиси","name:cs":"Tbilisi","name:cv":"Тбилиси","name:cy":"Tbilisi","name:da":"Tbilisi","name:de":"Tiflis","name:dz":"ཊི་བི་ལི་སི","name:ee":"Tbilisi","name:el":"Τιφλίδα","name:en":"Tbilisi","name:eo":"Tbiliso","name:es":"Tiflis","name:et":"Thbilisi","name:eu":"Tbilisi","name:fa":"تفلیس","name:fi":"Tbilisi","name:fj":"Tbilisi","name:fo":"Tbilisi","name:fr":"Tbilissi","name:fy":"Tbilisy","name:ga":"Tbilisi","name:gd":"Tbilisi","name:gl":"Tbilisi","name:gn":"Tivilísi","name:gu":"ટિબિલિસિ","name:gv":"Tbilisi","name:he":"טביליסי","name:hi":"तिब्लिसी","name:hr":"Tbilisi","name:ht":"Tbilisi","name:hu":"Tbiliszi","name:hy":"Թբիլիսի","name:ia":"Tbilisi","name:id":"Tbilisi","name:ie":"Tbilisi","name:io":"Tbilisi","name:is":"Tíblisi","name:it":"Tbilisi","name:ja":"トビリシ","name:jv":"Tiflis","name:ka":"თბილისი","name:kg":"Tbilisi","name:kk":"Тбилиси","name:kn":"ಟಿಬಿಲಿಸಿ","name:ko":"트빌리시","name:ku":"Tibîlîsî","name:kv":"Тбилиси","name:ky":"Тбилиси","name:la":"Tiphlis","name:lb":"Tiflis","name:lt":"Tbilisis","name:lv":"Tbilisi","name:mg":"Tbilisi","name:mi":"Tbilisi","name:mk":"Тбилиси","name:ml":"റ്റ്ബിലിസി","name:mn":"Тбилиси","name:mr":"त्बिलिसी","name:ms":"Tbilisi","name:nl":"Tbilisi","name:nn":"Tbilisi","name:no":"Tbilisi","name:nv":"Tó Sido (Dził Daantsaaítah Bilagáana Bikéyah)","name:oc":"Tbilissi","name:or":"ତିଲିସି","name:os":"Тбилис","name:pa":"ਤਬੀਲਿਸੀ","name:pl":"Tbilisi","name:ps":"تفلیس","name:pt":"Tiblíssi","name:qu":"Tbilisi","name:ro":"Tbilisi","name:ru":"Тбилиси","name:sc":"Tbilisi","name:sd":"تبليسي","name:se":"Tbilisi","name:sh":"Tbilisi","name:sk":"Tbilisi","name:sl":"Tbilisi","name:sn":"Tbilisi","name:sq":"Tbilisi","name:sr":"Тбилиси","name:sv":"Tbilisi","name:sw":"Tbilisi","name:ta":"திபிலீசி","name:tg":"Тифлис","name:th":"ทบิลิซิ","name:tk":"Tiflis","name:tl":"Tbilisi","name:tr":"Tiflis","name:tt":"Tbilisi","name:tw":"Tbilisi","name:ty":"Tbilisi","name:ug":"تبىلىسى","name:uk":"Тбілісі","name:ur":"تبلیسی","name:uz":"Tbilisi","name:vi":"Tbilisi","name:vo":"Tbilisi","name:wo":"Tibilisi","name:yi":"טביליסי","name:yo":"Tbilisi","name:zh":"第比利斯","int_name":"Tbilisi","name:ace":"Tbilisi","name:ady":"Тбилиси","name:ang":"Tiflis","name:arc":"ܛܒܝܠܝܣܝ","name:ary":"تبيليسي","name:arz":"تبليسى","name:ast":"Tblisi","name:awa":"थ्बिलीसी","name:azb":"تفلیس","name:ban":"Tbilisi","name:bcl":"Tbilisi","name:bew":"Tiplis","name:bxr":"Тбилиси","name:cdo":"Tbilisi","name:ceb":"K'alak'i T'bilisi","name:ckb":"تبلیس","name:crh":"Tiflis","name:diq":"Tıflis","name:frp":"Tbilisi","name:frr":"Tiflis","name:gag":"Tbilisi","name:glk":"تفليس","name:hak":"Tbilisi","name:hif":"Tbilisi","name:hsb":"Tbilisi","name:hyw":"Թիֆլիս","name:ilo":"Tbilisi","name:inh":"Каьлаке","name:kaa":"Tbilisi","name:kab":"Tbilisi","name:kbd":"Тбилиси","name:lbe":"Ттуплис","name:lez":"Тбилиси","name:lfn":"Tbilisi","name:lij":"Tiblisi","name:lmo":"Tbilisi","name:ltg":"Tbilisi","name:mdf":"Тбилиси","name:mhr":"Тбилиси","name:mrj":"Тбилиси","name:myv":"Тбилиси ош","name:mzn":"تفلیس","name:nah":"Tbilisi","name:nan":"Tbilisi","name:nia":"Tbilisi","name:nov":"Tbilisi","name:nrm":"Tbilisi","name:olo":"Tbiliisi","name:pam":"Tbilisi","name:pap":"Tbilisi","name:pih":"Tbilisi","name:pms":"Tbilisi","name:pnb":"تبلیسی","name:rue":"Тбилиси","name:sah":"Тбилиси","name:sat":"ᱛᱤᱵᱤᱞᱤᱥᱤ","name:scn":"Tbilisi","name:sco":"Tbilisi","name:smn":"Tbilisi","name:szl":"Tbilisi","name:tet":"Tbilisi","name:tly":"Tbilisi","name:tum":"Tbilisi","name:udm":"Тбилиси","name:vep":"Tbilis","name:vls":"Tbilisi","name:vro":"Thbilisi","name:war":"Tbilisi","name:wuu":"第比利斯","name:xmf":"ქართი","name:yue":"第比利斯","name:zea":"Tbilisi","old_name":"ტფილისი","ISO3166-2":"GE-TB","alt_name:av":"Туплис","alt_name:ca":"Tiflis","alt_name:ko":"뜨빌리씨","alt_name:zh":"提比里斯","name:simple":"Tbilisi","old_name:en":"Tiflisi","old_name:ru":"Тифлис","name:bat-smg":"Tbėlėsis","name:cbk_zam":"Tbilisi","name:roa-tara":"Tbilisi","name:cu":"Тбилиси","name:ks":"ٹِبلیسی","name:mt":"Tbilisi","name:nb":"Tbilisi","name:rw":"Tbilisi","name:be-tarask":"Тбілісі","name:zh_min_nan":"Tbilisi","alt_name:ml":"ടിഫ്ലിസ്","old_name:pl":"Tyflis","alt:av":"Тбилиси","alt:jv":"Tbilisi","alt:la":"Triphelis","alt:ml":"ടിബിലിസി","alt:mn":"Тбилис","alt:nv":"Tó Sido","alt:pt":"Tbilisi","alt:tg":"Тбилисӣ","alt:vep":"Tbilisi"},"display_name":"თბილისი, საქართველო","address":{"city":"თბილისი","ISO3166-2-lvl4":"GE-TB","country":"საქართველო","country_code":"ge"},"population":1241700,"osm_type":"relation","osm_id":1996871,"type":"administrative","location":[44.8014495,41.6934591],"bbox":[44.5962016,41.6177901,45.0172908,41.8438777]}}
{"name":"თელავი","other_names":{"name:de":"Telawi","name:en":"Telavi","name:es":"Telavi","name:et":"Thelavi","name:fr":"Telavi","name:hi":"तेलावी","name:hr":"Telavi","name:ka":"თელავი","name:ku":"Têlavî","name:lt":"Telavis","name:ml":"ടെലാവി","name:ru":"Телави","name:sr":"Телави","name:uk":"Телаві","int_name":"Telavi","nat_name":"თელავი"},"display_name":"თელავი, თელავის მუნიციპალიტეტი, კახეთი, საქართველო","address":{"city":"თელავი","county":"თელავის მუნიციპალიტეტი","state":"კახეთი","ISO3166-2-lvl4":"GE-KA","country":"საქართველო","country_code":"ge"},"population":19875,"osm_type":"node","osm_id":218752469,"type":"city","location":[45.4703169,41.9197221],"bbox":[45.3103169,41.7597221,45.6303169,42.0797221],"border":{"name":"თელავი","other_names":{"name:de":"Telawi","name:en":"Telavi","name:et":"Thelavi","name:hi":"तेलावी","name:ka":"თელავი","name:ku":"Têlavî","name:ru":"Телави","name:sr":"Телави","nat_name":"თელავი","name:es":"Telavi","name:fr":"Telavi","name:hr":"Telavi","name:lt":"Telavis","name:ml":"ടെലാവി","name:uk":"Телаві","int_name":"Telavi"},"display_name":"თელავი, თელავის მუნიციპალიტეტი, კახეთი, საქართველო","address":{"city":"თელავი","county":"თელავის მუნიციპალიტეტი","state":"კახეთი","ISO3166-2-lvl4":"GE-KA","country":"საქართველო","country_code":"ge"},"population":20023,"osm_type":"relation","osm_id":8374133,"type":"administrative","location":[45.4703169,41.9197221],"bbox":[45.4409234,41.9026763,45.5355406,41.9471185]}}
{"name":"რუსთავი","other_names":{"name:az":"Rustavi","name:cs":"Rustavi","name:de":"Rustawi","name:en":"Rustavi","name:es":"Rustavi","name:et":"Rusthavi","name:fr":"Roustavi","name:hi":"रूस्तावी","name:hr":"Rustavi","name:hy":"Ռուսթավ","name:ka":"რუსთავი","name:lt":"Rustavis","name:ml":"റൂസ്റ്റാവി","name:os":"Рустау","name:pt":"Rustavi","name:ru":"Рустави","name:sr":"Рустави","name:uk":"Руставі","name:ckb":"ڕوستاڤی"},"display_name":"რუსთავი, ქვემო ქართლი, საქართველო","address":{"city":"რუსთავი","state":"ქვემო ქართლი","ISO3166-2-lvl4":"GE-KK","country":"საქართველო","country_code":"ge"},"population":128249,"osm_type":"node","osm_id":184688705,"type":"city","location":[45.0112804,41.54309],"bbox":[44.8512804,41.38309,45.1712804,41.70309],"border":[{"name":"რუსთავი","other_names":{"name:az":"Rustavi","name:cs":"Rustavi","name:de":"Rustawi","name:en":"Rustavi","name:es":"Rustavi","name:et":"Rusthavi","name:fr":"Roustavi","name:hi":"रूस्तावी","name:hr":"Rustavi","name:hy":"Ռուսթավ","name:ka":"რუსთავი","name:lt":"Rustavis","name:ml":"റുസ്താവി","name:os":"Рустау","name:pt":"Rustavi","name:ru":"Рустави","name:sr":"Рустави","name:uk":"Руставі","int_name":"Rustavi","name:ckb":"ڕوستاڤی","alt:ml":"റൂസ്റ്റാവി"},"display_name":"რუსთავი, ქვემო ქართლი, 3700, საქართველო","address":{"city":"რუსთავი","state":"ქვემო ქართლი","ISO3166-2-lvl4":"GE-KK","postcode":"3700","country":"საქართველო","country_code":"ge"},"population":132333,"osm_type":"relation","osm_id":5997314,"type":"city","location":[45.0112804,41.54309],"bbox":[44.8903022,41.4910595,45.0862639,41.601172]},{"name":"რუსთავი","other_names":{"name:de":"Rustawi","name:en":"Rustavi","name:ka":"რუსთავი","name:pt":"Rustavi","name:ru":"Рустави","name:sr":"Рустави","name:uk":"Руставі","int_name":"Rustavi","name:az":"Rustavi","name:cs":"Rustavi","name:es":"Rustavi","name:et":"Rusthavi","name:fr":"Roustavi","name:hi":"रूस्तावी","name:hr":"Rustavi","name:hy":"Ռուսթավ","name:lt":"Rustavis","name:ml":"റൂസ്റ്റാവി","name:os":"Рустау","name:ckb":"ڕوستاڤی"},"display_name":"რუსთავი, ქვემო ქართლი, 3700, საქართველო","address":{"city":"რუსთავი","state":"ქვემო ქართლი","ISO3166-2-lvl4":"GE-KK","postcode":"3700","country":"საქართველო","country_code":"ge"},"population":116400,"osm_type":"relation","osm_id":1997305,"type":"administrative","location":[45.0112804,41.54309],"bbox":[44.8903022,41.4910595,45.0862639,41.601172]}]}
{"name":"ფოთი","other_names":{"name:ab":"Ҧаҭ","name:de":"Poti","name:en":"Poti","name:es":"Poti","name:et":"Phothi","name:fr":"Poti","name:hi":"पोटि","name:hr":"Poti","name:hu":"Poti","name:hy":"Փոթի","name:ja":"ポチ","name:ka":"ფოთი","name:lt":"Potis","name:ml":"പോട്ടി","name:os":"Поти","name:pl":"Poti","name:ru":"Поти","name:sr":"Поти","name:tr":"Faş","name:uk":"Поті","name:zh":"波季","int_name":"Poti","alt_name:tr":"Poti","old_name:ka":"ფაზისი"},"display_name":"ფოთი, სამეგრელო-ზემო სვანეთი, საქართველო","address":{"city":"ფოთი","state":"სამეგრელო-ზემო სვანეთი","ISO3166-2-lvl4":"GE-SZ","country":"საქართველო","country_code":"ge"},"population":41175,"osm_type":"node","osm_id":182620747,"type":"city","location":[41.6748028,42.141614],"bbox":[41.5148028,41.981614,41.8348028,42.301614],"border":{"name":"ფოთი","other_names":{"ref":"GE-PTI","name:de":"Poti","name:en":"Poti","name:ka":"ფოთი","name:ru":"Поти","name:tr":"Faş","name:uk":"Поті","int_name":"Poti","name:lzz":"ფაში","name:xmf":"ფუთი","name:ab":"Ҧаҭ","name:es":"Poti","name:et":"Phothi","name:fr":"Poti","name:hi":"पोटि","name:hr":"Poti","name:hu":"Poti","name:hy":"Փոթի","name:ja":"ポチ","name:lt":"Potis","name:ml":"പോട്ടി","name:os":"Поти","name:pl":"Poti","name:sr":"Поти","name:zh":"波季","alt_name:tr":"Poti","old_name:ka":"ფაზისი"},"display_name":"ფოთი, სამეგრელო-ზემო სვანეთი, 4400, საქართველო","address":{"city":"ფოთი","state":"სამეგრელო-ზემო სვანეთი","ISO3166-2-lvl4":"GE-SZ","postcode":"4400","country":"საქართველო","country_code":"ge"},"population":47300,"osm_type":"relation","osm_id":1995348,"type":"administrative","location":[41.6748028,42.141614],"bbox":[41.6268566,42.0685758,41.719883,42.2089911]}}
{"name":"ქუთაისი","other_names":{"name:ab":"Қәҭешь","name:af":"Koetaisi","name:ar":"كوتايسي","name:av":"Кутаиси","name:az":"Kutaisi","name:ba":"Кутаиси","name:be":"Кутаісі","name:bg":"Кутаиси","name:br":"Kutaisi","name:ca":"Kutaïsi","name:ce":"Кутаиси","name:cs":"Kutaisi","name:cv":"Кутаиси","name:cy":"Kutaisi","name:da":"Kutaisi","name:de":"Kutaissi","name:el":"Κουτάισι","name:en":"Kutaisi","name:eo":"Kutaiso","name:es":"Kutaisi","name:et":"Khuthaisi","name:eu":"Kutaisi","name:fa":"کوتائیسی","name:fi":"Kutaisi","name:fr":"Koutaïssi","name:gl":"Kutaisi","name:gn":"Kutaisi","name:he":"כותאיסי","name:hi":"कुटैसी","name:hr":"Kutaisi","name:hu":"Kutaiszi","name:hy":"Քութայիս","name:id":"Kutaisi","name:ie":"Kutaisi","name:it":"Kutaisi","name:ja":"クタイシ","name:ka":"ქუთაისი","name:ko":"쿠타이시","name:kv":"Кутаиси","name:la":"Cytaea","name:lt":"Kutaisis","name:lv":"Kutaisi","name:mk":"Кутаиси","name:ml":"കൂട്ടൈസി","name:mn":"Кутаиси","name:mr":"कुतैसी","name:ms":"Kutaisi","name:nb":"Kutaisi","name:nl":"Koetaisi","name:nn":"Kutaisi","name:os":"Кутаиси","name:pl":"Kutaisi","name:pt":"Cutáissi","name:qu":"Kutaisi","name:ro":"Kutaisi","name:ru":"Кутаиси","name:sk":"Kutaisi","name:sl":"Kutaisi","name:sq":"Kutaisi","name:sr":"Кутаиси","name:sv":"Kutaisi","name:ta":"குத்தாயிசி","name:tg":"Кутаиси","name:th":"คูทาอีซี","name:tr":"Kutayıs","name:uk":"Кутаїсі","name:ur":"کوتائیسی","name:uz":"Kutaisi","name:vi":"Kutaisi","name:zh":"庫塔伊西","name:gag":"Kutaisi"},"display_name":"ქუთაისი, იმერეთი, საქართველო","address":{"city":"ქუთაისი","state":"იმერეთი","ISO3166-2-lvl4":"GE-IM","country":"საქართველო","country_code":"ge"},"population":123722,"osm_type":"node","osm_id":218730242,"type":"city","location":[42.7054475,42.2716078],"bbox":[42.5454475,42.1116078,42.8654475,42.4316078],"border":[{"name":"ქუთაისი","other_names":{"name:ab":"Қәҭешь","name:ar":"كوتايسي","name:az":"Kutaisi","name:be":"Кутаісі","name:bg":"Кутаиси","name:ca":"Kutaïsi","name:ce":"Кутаиси","name:cv":"Кутаиси","name:de":"Kutaissi","name:el":"Κουτάισι","name:en":"Kutaisi","name:eo":"Kutaiso","name:es":"Kutaisi","name:et":"Khuthaisi","name:fa":"کوتائیسی","name:fr":"Koutaïssi","name:he":"כותאיסי","name:hu":"Kutaiszi","name:hy":"Քութայիս","name:it":"Kutaisi","name:ja":"クタイシ","name:ka":"ქუთაისი","name:ko":"쿠타이시","name:lt":"Kutaisis","name:mr":"कुतैसी","name:nl":"Koetaisi","name:os":"Кутаиси","name:ru":"Кутаиси","name:sr":"Кутаиси","name:tr":"Kutayıs","name:uk":"Кутаїсі","name:zh":"庫塔伊西","int_name":"Kutaisi","name:gag":"Kutaisi","name:xmf":"ქუთეში","old_name":"Aea;Aia;Kutatisi;Kutaïssi"},"display_name":"ქუთაისი, იმერეთი, საქართველო","address":{"city":"ქუთაისი","state":"იმერეთი","ISO3166-2-lvl4":"GE-IM","country":"საქართველო","country_code":"ge"},"population":129300,"osm_type":"relation","osm_id":8742174,"type":"city","location":[42.66337376288469,42.2596791],"bbox":[42.5981083,42.1971209,42.741879,42.3223739]},{"name":"ქუთაისი","other_names":{"name:de":"Kutaissi","name:en":"Kutaisi","name:ka":"ქუთაისი","name:ru":"Кутаиси","name:uk":"Кутаїсі муніципалітет","int_name":"Kutaisi","name:xmf":"ქუთეში","old_name":"Aea;Aia;Kutatisi;Kutaïssi","name:ab":"Қәҭешь","name:af":"Koetaisi","name:ar":"كوتايسي","name:av":"Кутаиси","name:az":"Kutaisi","name:ba":"Кутаиси","name:be":"Кутаісі","name:bg":"Кутаиси","name:br":"Kutaisi","name:ca":"Kutaïsi","name:ce":"Кутаиси","name:cs":"Kutaisi","name:cv":"Кутаиси","name:cy":"Kutaisi","name:da":"Kutaisi","name:el":"Κουτάισι","name:eo":"Kutaiso","name:es":"Kutaisi","name:et":"Khuthaisi","name:eu":"Kutaisi","name:fa":"کوتائیسی","name:fi":"Kutaisi","name:fr":"Koutaïssi","name:gl":"Kutaisi","name:gn":"Kutaisi","name:he":"כותאיסי","name:hi":"कुटैसी","name:hr":"Kutaisi","name:hu":"Kutaiszi","name:hy":"Քութայիս","name:id":"Kutaisi","name:ie":"Kutaisi","name:it":"Kutaisi","name:ja":"クタイシ","name:ko":"쿠타이시","name:kv":"Кутаиси","name:la":"Cytaea","name:lt":"Kutaisis","name:lv":"Kutaisi","name:mk":"Кутаиси","name:ml":"കൂട്ടൈസി","name:mn":"Кутаиси","name:mr":"कुतैसी","name:ms":"Kutaisi","name:nb":"Kutaisi","name:nl":"Koetaisi","name:nn":"Kutaisi","name:os":"Кутаиси","name:pl":"Kutaisi","name:pt":"Cutáissi","name:qu":"Kutaisi","name:ro":"Kutaisi","name:sk":"Kutaisi","name:sl":"Kutaisi","name:sq":"Kutaisi","name:sr":"Кутаиси","name:sv":"Kutaisi","name:ta":"குத்தாயிசி","name:tg":"Кутаиси","name:th":"คูทาอีซี","name:tr":"Kutayıs","name:ur":"کوتائیسی","name:uz":"Kutaisi","name:vi":"Kutaisi","name:zh":"庫塔伊西","name:gag":"Kutaisi","alt:uk":"Кутаїсі"},"display_name":"ქუთაისი, იმერეთი, საქართველო","address":{"city":"ქუთაისი","state":"იმერეთი","ISO3166-2-lvl4":"GE-IM","country":"საქართველო","country_code":"ge"},"population":123722,"osm_type":"relation","osm_id":2024547,"type":"administrative","location":[42.7054475,42.2716078],"bbox":[42.5981083,42.1971209,42.741879,42.3223739]}]}
