{"name":"Çatalköy","other_names":{"name:el":"Άγιος Επίκτητος","name:en":"Agios Epiktitos","name:tr":"Çatalköy","name:uk":"Агіос Епіктітос","alt_name:uk":"Чаталкьой"},"display_name":"Çatalköy, Çatalköy-Esentepe Belediyesi, Girne ilçesi, Kuzey Kıbrıs, Κύπρος - Kıbrıs","address":{"town":"Çatalköy","municipality":"Çatalköy-Esentepe Belediyesi","district":"Girne ilçesi","ISO3166-2-lvl5":"CY-06","country":"Kuzey Kıbrıs","country_code":"cy"},"osm_type":"node","osm_id":306213431,"type":"town","location":[33.3906576,35.3213447],"bbox":[33.3506576,35.2813447,33.4306576,35.3613447],"border":{"name":"Çatalköy","other_names":{"name:el":"Άγιος Επίκτητος","name:en":"Agios Epiktitos","name:tr":"Çatalköy","name:uk":"Агіос Епіктітос","alt_name:uk":"Чаталкьой"},"display_name":"Çatalköy, Çatalköy-Esentepe Belediyesi, Girne ilçesi, Kuzey Kıbrıs, Κύπρος - Kıbrıs","address":{"town":"Çatalköy","municipality":"Çatalköy-Esentepe Belediyesi","district":"Girne ilçesi","ISO3166-2-lvl5":"CY-06","country":"Kuzey Kıbrıs","country_code":"cy"},"osm_type":"relation","osm_id":16272360,"type":"administrative","location":[33.3906576,35.3213447],"bbox":[33.3783534,35.2870418,33.4574459,35.337842]}}
{"name":"Değirmenlik","other_names":{"name:el":"Κυθραία","name:en":"Kythrea","name:pl":"Kitrea","name:ru":"Китрея","name:tr":"Değirmenlik"},"display_name":"Değirmenlik, Değirmenlik-Akıncılar Belediyesi, Lefkoşa ilçesi, Kuzey Kıbrıs, Κύπρος - Kıbrıs","address":{"town":"Değirmenlik","municipality":"Değirmenlik-Akıncılar Belediyesi","state_district":"Lefkoşa ilçesi","country":"Kuzey Kıbrıs","country_code":"cy"},"osm_type":"node","osm_id":317794242,"type":"town","location":[33.4806933,35.2476457],"bbox":[33.4406933,35.2076457,33.5206933,35.2876457],"border":{"name":"Değirmenlik","other_names":{"name:el":"Κυθρέα","name:en":"Kythrea","name:pl":"Kitrea","name:ru":"Китрея","name:tr":"Değirmenlik","alt:el":"Κυθραία"},"display_name":"Değirmenlik, Değirmenlik-Akıncılar Belediyesi, Lefkoşa ilçesi, Kuzey Kıbrıs, Κύπρος - Kıbrıs","address":{"town":"Değirmenlik","municipality":"Değirmenlik-Akıncılar Belediyesi","state_district":"Lefkoşa ilçesi","country":"Kuzey Kıbrıs","country_code":"cy"},"osm_type":"relation","osm_id":16283782,"type":"administrative","location":[33.4806933,35.2476457],"bbox":[33.4382606,35.2306024,33.5336477,35.2849829]}}
{"name":"Dikmen","other_names":{"name:el":"Δίκωμο","name:en":"Dikomo","name:tr":"Dikmen"},"display_name":"Dikmen, Aşağıdikmen, Dikmen Belediyesi, Girne ilçesi, Kuzey Kıbrıs, 99380, Κύπρος - Kıbrıs","address":{"town":"Dikmen","city":"Aşağıdikmen","municipality":"Dikmen Belediyesi","district":"Girne ilçesi","ISO3166-2-lvl5":"CY-06","country":"Kuzey Kıbrıs","postcode":"99380","country_code":"cy"},"osm_type":"node","osm_id":11691620562,"type":"town","location":[33.3235946,35.2687477],"bbox":[33.2835946,35.2287477,33.3635946,35.3087477]}
{"name":"Dipkarpaz","other_names":{"name:el":"Ριζοκάρπασο","name:en":"Dipkarpaz","name:eu":"Rizokarpaso","name:hu":"Dipkarpaz","name:tr":"Dipkarpaz","name:uk":"Різокарпасон","alt_name:uk":"Діпкарпаз"},"display_name":"Dipkarpaz, Erenköy-Karpaz Belediyesi, İskele ilçesi, Kuzey Kıbrıs, Κύπρος - Kıbrıs","address":{"town":"Dipkarpaz","municipality":"Erenköy-Karpaz Belediyesi","state_district":"İskele ilçesi","country":"Kuzey Kıbrıs","country_code":"cy"},"osm_type":"node","osm_id":1080163344,"type":"town","location":[34.3806708,35.5977395],"bbox":[34.3406708,35.5577395,34.4206708,35.6377395],"border":{"name":"Dipkarpaz","other_names":{"name:uk":"Різокарпасон","name:el":"Ριζοκάρπασο","name:en":"Dipkarpaz","name:eu":"Rizokarpaso","name:hu":"Dipkarpaz","name:tr":"Dipkarpaz","alt_name:uk":"Діпкарпаз"},"display_name":"Dipkarpaz, Erenköy-Karpaz Belediyesi, İskele ilçesi, Kuzey Kıbrıs, 99890, Κύπρος - Kıbrıs","address":{"town":"Dipkarpaz","municipality":"Erenköy-Karpaz Belediyesi","state_district":"İskele ilçesi","country":"Kuzey Kıbrıs","postcode":"99890","country_code":"cy"},"osm_type":"relation","osm_id":16337170,"type":"administrative","location":[34.3806708,35.5977395],"bbox":[34.2966717,35.522607,34.6072161,35.7108922]}}
{"name":"Engomi","other_names":{"name:ar":"إنغومي","name:el":"Έγκωμη","name:en":"Engomi","name:ru":"Энгоми","name:tr":"İncirli","name:uk":"Енгомі","alt_name:tr":"Engomi","alt":"Έγκωμη"},"display_name":"Engomi, Λευκωσία - Lefkoşa, Δήμος Λευκωσίας, Επαρχία Λευκωσίας, Κύπρος, Κύπρος - Kıbrıs","address":{"town":"Engomi","municipality":"Λευκωσία - Lefkoşa","county":"Δήμος Λευκωσίας","state_district":"Επαρχία Λευκωσίας","ISO3166-2-lvl5":"CY-01","state":"Κύπρος","country":"Κύπρος - Kıbrıs","country_code":"cy"},"osm_type":"relation","osm_id":2628524,"type":"administrative","location":[33.3366249,35.1659936],"bbox":[33.2830129,35.1365117,33.3496695,35.1688084],"inferred_type":"town"}
{"name":"Geçitkale","other_names":{"name:el":"Λευκόνοικο","name:en":"Lefkoniko","name:ru":"Лефконико","name:tr":"Geçitkale","name:uk":"Лефконіко","alt_name:tr":"Lefkonuk","alt_name:uk":"Гечіткале"},"display_name":"Geçitkale, Geçitkale-Serdarlı Belediyesi, Gazimağusa ilçesi, Kuzey Kıbrıs, Κύπρος - Kıbrıs","address":{"town":"Geçitkale","municipality":"Geçitkale-Serdarlı Belediyesi","state_district":"Gazimağusa ilçesi","country":"Kuzey Kıbrıs","country_code":"cy"},"osm_type":"node","osm_id":1097038376,"type":"town","location":[33.7321988,35.2605334],"bbox":[33.6921988,35.2205334,33.7721988,35.3005334],"border":{"name":"Geçitkale","other_names":{"name:el":"Λευκόνοικο","name:en":"Lefkoniko","name:ru":"Лефконико","name:tr":"Geçitkale","name:uk":"Лефконіко","alt_name:tr":"Lefkonuk","alt_name:uk":"Гечіткале"},"display_name":"Geçitkale, Geçitkale-Serdarlı Belediyesi, Gazimağusa ilçesi, Kuzey Kıbrıs, 99610, Κύπρος - Kıbrıs","address":{"town":"Geçitkale","municipality":"Geçitkale-Serdarlı Belediyesi","state_district":"Gazimağusa ilçesi","country":"Kuzey Kıbrıs","postcode":"99610","country_code":"cy"},"osm_type":"relation","osm_id":16300870,"type":"administrative","location":[33.7321988,35.2605334],"bbox":[33.6955214,35.2066785,33.7784827,35.3223515]}}
{"name":"Gönyeli","other_names":{"name:el":"Κιόνελι","name:en":"Gönyeli","name:tr":"Gönyeli","name:uk":"Кіонелі","int_name":"Kioneli","alt_name:uk":"Гьоньєлі"},"display_name":"Gönyeli, Gönyeli-Alayköy Belediyesi, Lefkoşa ilçesi, Kuzey Kıbrıs, Κύπρος - Kıbrıs","address":{"town":"Gönyeli","municipality":"Gönyeli-Alayköy Belediyesi","state_district":"Lefkoşa ilçesi","country":"Kuzey Kıbrıs","country_code":"cy"},"population":11671,"osm_type":"node","osm_id":6572625863,"type":"town","location":[33.3058171,35.216417],"bbox":[33.2658171,35.176417,33.3458171,35.256417],"border":[{"name":"Gönyeli","other_names":{"name:en":"Gonyeli","name:tr":"Gönyeli","name:uk":"Кіонелі","alt_name:uk":"Гьоньєлі"},"display_name":"Gönyeli, Gönyeli-Alayköy Belediyesi, Lefkoşa ilçesi, Kuzey Kıbrıs, 99150, Κύπρος - Kıbrıs","address":{"town":"Gönyeli","municipality":"Gönyeli-Alayköy Belediyesi","state_district":"Lefkoşa ilçesi","country":"Kuzey Kıbrıs","postcode":"99150","country_code":"cy"},"population":20000,"osm_type":"way","osm_id":482253970,"type":"town","location":[33.30203997951948,35.2193684],"bbox":[33.2852618,35.1964609,33.3278346,35.2413336]},{"name":"Gönyeli","other_names":{"name:el":"Κιόνελι","name:en":"Gönyeli","name:tr":"Gönyeli","name:uk":"Кіонелі","int_name":"Kioneli","alt_name:uk":"Гьоньєлі"},"display_name":"Gönyeli, Gönyeli-Alayköy Belediyesi, Lefkoşa ilçesi, Kuzey Kıbrıs, 99150, Κύπρος - Kıbrıs","address":{"town":"Gönyeli","municipality":"Gönyeli-Alayköy Belediyesi","state_district":"Lefkoşa ilçesi","country":"Kuzey Kıbrıs","postcode":"99150","country_code":"cy"},"population":11671,"osm_type":"relation","osm_id":16283616,"type":"administrative","location":[33.3058171,35.216417],"bbox":[33.260867,35.1935915,33.328801,35.2551627]}]}
{"name":"Güzelyurt","other_names":{"name:ar":"مورفو","name:el":"Μορφου","name:en":"Morphou","name:eu":"Morfou","name:fa":"مورفو","name:hu":"Güzelyurt","name:hy":"Մորֆու","name:ru":"Морфу","name:tr":"Güzelyurt","name:uk":"Морфу","name:ur":"مورفو","name:azb":"مورفو","name:ota":"اومورفو","alt_name:tr":"Omorfo","alt_name:uk":"Гюзельюрт"},"display_name":"Güzelyurt, Güzelyurt Belediyesi, Güzelyurt ilçesi, Kuzey Kıbrıs, Κύπρος - Kıbrıs","address":{"town":"Güzelyurt","municipality":"Güzelyurt Belediyesi","state_district":"Güzelyurt ilçesi","country":"Kuzey Kıbrıs","country_code":"cy"},"osm_type":"node","osm_id":6615980502,"type":"town","location":[32.9928829,35.1993042],"bbox":[32.9528829,35.1593042,33.0328829,35.2393042],"border":[{"name":"Güzelyurt","other_names":{"name:ar":"مورفو","name:de":"Morfou","name:el":"Μόρφου","name:en":"Guzelyurt","name:fa":"مورفو","name:tr":"Güzelyurt","name:uk":"Морфу","name:ur":"مورفو","name:azb":"مورفو","alt_name:uk":"Гюзельюрт"},"display_name":"Güzelyurt, Güzelyurt Belediyesi, Güzelyurt ilçesi, Kuzey Kıbrıs, Κύπρος - Kıbrıs","address":{"town":"Güzelyurt","municipality":"Güzelyurt Belediyesi","state_district":"Güzelyurt ilçesi","country":"Kuzey Kıbrıs","country_code":"cy"},"osm_type":"way","osm_id":337031440,"type":"town","location":[32.99285301819883,35.1984269],"bbox":[32.9782501,35.183288,33.008321,35.211771]},{"name":"Güzelyurt","other_names":{"name:ar":"مورفو","name:el":"Μορφου","name:en":"Morphou","name:eu":"Morfou","name:fa":"مورفو","name:hu":"Güzelyurt","name:hy":"Մորֆու","name:ru":"Морфу","name:tr":"Güzelyurt","name:uk":"Морфу","name:ur":"مورفو","name:azb":"مورفو","name:ota":"اومورفو","alt_name:tr":"Omorfo","alt_name:uk":"Гюзельюрт"},"display_name":"Güzelyurt, Güzelyurt Belediyesi, Güzelyurt ilçesi, Kuzey Kıbrıs, 99700, Κύπρος - Kıbrıs","address":{"town":"Güzelyurt","municipality":"Güzelyurt Belediyesi","state_district":"Güzelyurt ilçesi","country":"Kuzey Kıbrıs","postcode":"99700","country_code":"cy"},"osm_type":"relation","osm_id":16268773,"type":"administrative","location":[32.9928829,35.1993042],"bbox":[32.9288286,35.1747923,33.0325401,35.2692687]}]}
{"name":"İskele","other_names":{"name:ar":"تريكومو","name:de":"Trikomo","name:el":"Τρίκωμο","name:en":"Trikomo","name:es":"Trikomo","name:eu":"Trikomo","name:fr":"Trikomo","name:tr":"İskele","name:uk":"Трікомо","alt_name:ar":"إسكله","alt_name:tr":"Trikomo"},"display_name":"İskele, İskele Belediyesi, İskele ilçesi, Kuzey Kıbrıs, Κύπρος - Kıbrıs","address":{"town":"İskele","municipality":"İskele Belediyesi","state_district":"İskele ilçesi","country":"Kuzey Kıbrıs","country_code":"cy"},"osm_type":"node","osm_id":1097007425,"type":"town","location":[33.8930603,35.285677],"bbox":[33.8530603,35.245677,33.9330603,35.325677],"border":{"name":"İskele","other_names":{"name:ar":"تريكومو","name:de":"Trikomo","name:el":"Τρίκωμο","name:en":"Trikomo","name:es":"Trikomo","name:eu":"Trikomo","name:fr":"Trikomo","name:tr":"İskele","name:uk":"Трікомо","alt_name:ar":"إسكله","alt_name:tr":"Trikomo"},"display_name":"İskele, İskele Belediyesi, İskele ilçesi, Kuzey Kıbrıs, Κύπρος - Kıbrıs","address":{"town":"İskele","municipality":"İskele Belediyesi","state_district":"İskele ilçesi","country":"Kuzey Kıbrıs","country_code":"cy"},"osm_type":"relation","osm_id":16334944,"type":"administrative","location":[33.8930603,35.285677],"bbox":[33.8505453,35.2471145,33.9422231,35.3275419]}}
{"name":"Lapta","other_names":{"name:el":"Λάπηθος","name:en":"Lapithos","name:ru":"Лапитос","name:tr":"Lapta"},"display_name":"Lapta, Lapta-Alsancak-Çamlıbel Belediyesi, Girne ilçesi, Kuzey Kıbrıs, Κύπρος - Kıbrıs","address":{"town":"Lapta","municipality":"Lapta-Alsancak-Çamlıbel Belediyesi","district":"Girne ilçesi","ISO3166-2-lvl5":"CY-06","country":"Kuzey Kıbrıs","country_code":"cy"},"osm_type":"node","osm_id":299290538,"type":"town","location":[33.1722789,35.3387318],"bbox":[33.1322789,35.2987318,33.2122789,35.3787318],"border":{"name":"Lapta","other_names":{"name:el":"Λάπηθος","name:en":"Lapithos","name:ru":"Лапитос","name:tr":"Lapta"},"display_name":"Lapta, Lapta-Alsancak-Çamlıbel Belediyesi, Girne ilçesi, Kuzey Kıbrıs, Κύπρος - Kıbrıs","address":{"town":"Lapta","municipality":"Lapta-Alsancak-Çamlıbel Belediyesi","district":"Girne ilçesi","ISO3166-2-lvl5":"CY-06","country":"Kuzey Kıbrıs","country_code":"cy"},"osm_type":"relation","osm_id":16272275,"type":"administrative","location":[33.1722789,35.3387318],"bbox":[33.1345299,35.310578,33.2006728,35.3608739]}}
{"name":"Lefke","other_names":{"name:ar":"لفكا","name:el":"Λεύκα","name:en":"Lefka","name:eu":"Lefka","name:fa":"لفکا","name:hy":"Լեֆկա","name:ru":"Лефка","name:tr":"Lefke","name:uk":"Лефка","name:ur":"لفکا","name:ota":"لفكه"},"display_name":"Lefke, Lefke Belediyesi, Lefke ilçesi, Kuzey Kıbrıs, Κύπρος - Kıbrıs","address":{"town":"Lefke","municipality":"Lefke Belediyesi","state_district":"Lefke ilçesi","country":"Kuzey Kıbrıs","country_code":"cy"},"osm_type":"node","osm_id":306213498,"type":"town","location":[32.8495971,35.1137814],"bbox":[32.8095971,35.0737814,32.8895971,35.1537814],"border":[{"name":"Lefke","other_names":{"name:ar":"لفكا","name:el":"Λευκα","name:fa":"لفکا","name:tr":"Lefke","name:uk":"Лефка","name:ur":"لفکا"},"display_name":"Lefke, Lefke Belediyesi, Lefke ilçesi, Kuzey Kıbrıs, 99770, Κύπρος - Kıbrıs","address":{"town":"Lefke","municipality":"Lefke Belediyesi","state_district":"Lefke ilçesi","country":"Kuzey Kıbrıs","postcode":"99770","country_code":"cy"},"osm_type":"way","osm_id":696236231,"type":"town","location":[32.84992358187377,35.11393805],"bbox":[32.8380461,35.1053806,32.8587329,35.1223785]},{"name":"Lefke","other_names":{"name:ar":"لفكا","name:el":"Λεύκα","name:en":"Lefka","name:eu":"Lefka","name:fa":"لفکا","name:hy":"Լեֆկա","name:ru":"Лефка","name:tr":"Lefke","name:uk":"Лефка","name:ur":"لفکا","name:ota":"لفكه"},"display_name":"Lefke, Lefke Belediyesi, Lefke ilçesi, Kuzey Kıbrıs, 99770, Κύπρος - Kıbrıs","address":{"town":"Lefke","municipality":"Lefke Belediyesi","state_district":"Lefke ilçesi","country":"Kuzey Kıbrıs","postcode":"99770","country_code":"cy"},"osm_type":"relation","osm_id":16264684,"type":"administrative","location":[32.8495971,35.1137814],"bbox":[32.8188823,35.081812,32.8632929,35.1409202]}]}
{"name":"Αγία Νάπα","other_names":{"name:ar":"آيا نابا","name:de":"Agia Napa","name:el":"Αγία Νάπα","name:en":"Ayia Napa","name:es":"Ayia Napa","name:eu":"Ayia Napa","name:fr":"Agía Nápa","name:hu":"Ajía Nápa","name:ka":"აია-ნაპა","name:lt":"Agia Napa","name:pl":"Ajia Napa","name:ru":"Айя-Напа","name:tr":"Aya Napa","name:uk":"Ая-Напа","int_name":"Ayia Napa","alt_name:ar":"ايا نابا"},"display_name":"Αγία Νάπα, Δήμος Αγίας Νάπας, Επαρχία Αμμοχώστου, Κύπρος, Κύπρος - Kıbrıs","address":{"town":"Αγία Νάπα","county":"Δήμος Αγίας Νάπας","state_district":"Επαρχία Αμμοχώστου","ISO3166-2-lvl5":"CY-04","state":"Κύπρος","country":"Κύπρος - Kıbrıs","country_code":"cy"},"population":2693,"osm_type":"node","osm_id":21621301,"type":"town","location":[33.9962036,34.9893216],"bbox":[33.9562036,34.9493216,34.0362036,35.0293216],"border":{"name":"Αγία Νάπα","other_names":{"name:en":"Ayia Napa","name:fr":"Agía Nápa","alt_name:en":"Agia Napa","name:ar":"آيا نابا","name:de":"Agia Napa","name:el":"Αγία Νάπα","name:es":"Ayia Napa","name:eu":"Ayia Napa","name:hu":"Ajía Nápa","name:ka":"აია-ნაპა","name:lt":"Agia Napa","name:pl":"Ajia Napa","name:ru":"Айя-Напа","name:tr":"Aya Napa","name:uk":"Ая-Напа","int_name":"Ayia Napa","alt_name:ar":"ايا نابا"},"display_name":"Αγία Νάπα, Δήμος Αγίας Νάπας, Επαρχία Αμμοχώστου, Κύπρος, 5330, Κύπρος - Kıbrıs","address":{"town":"Αγία Νάπα","county":"Δήμος Αγίας Νάπας","state_district":"Επαρχία Αμμοχώστου","ISO3166-2-lvl5":"CY-04","state":"Κύπρος","postcode":"5330","country":"Κύπρος - Kıbrıs","country_code":"cy"},"population":2693,"osm_type":"relation","osm_id":12311643,"type":"administrative","location":[33.9962036,34.9893216],"bbox":[33.9317034,34.9560593,34.0876092,35.0148263]}}
{"name":"Άγιος Αθανάσιος","other_names":{"name:el":"Άγιος Αθανάσιος","name:en":"Agios Athanasios","name:hu":"Ájiosz Atanásziosz","name:tr":"Aytanaş","int_name":"Agios Athanasios"},"display_name":"Άγιος Αθανάσιος, Δήμος Αγίου Αθανασίου, Δήμος Ανατολικής Λεμεσού, Επαρχία Λεμεσού, Κύπρος, Κύπρος - Kıbrıs","address":{"town":"Άγιος Αθανάσιος","city":"Δήμος Αγίου Αθανασίου","county":"Δήμος Ανατολικής Λεμεσού","state_district":"Επαρχία Λεμεσού","ISO3166-2-lvl5":"CY-02","state":"Κύπρος","country":"Κύπρος - Kıbrıs","country_code":"cy"},"osm_type":"node","osm_id":1638971821,"type":"town","location":[33.0507518,34.7094757],"bbox":[33.0107518,34.6694757,33.0907518,34.7494757],"border":{"name":"Άγιος Αθανάσιος","other_names":{"name:el":"Άγιος Αθανάσιος","name:en":"Agios Athanasios","name:hu":"Ájiosz Atanásziosz","name:tr":"Aytanaş","int_name":"Agios Athanasios"},"display_name":"Άγιος Αθανάσιος, Δήμος Αγίου Αθανασίου, Δήμος Ανατολικής Λεμεσού, Επαρχία Λεμεσού, Κύπρος, Κύπρος - Kıbrıs","address":{"town":"Άγιος Αθανάσιος","city":"Δήμος Αγίου Αθανασίου","county":"Δήμος Ανατολικής Λεμεσού","state_district":"Επαρχία Λεμεσού","ISO3166-2-lvl5":"CY-02","state":"Κύπρος","country":"Κύπρος - Kıbrıs","country_code":"cy"},"osm_type":"relation","osm_id":13509428,"type":"administrative","location":[33.0507518,34.7094757],"bbox":[33.0340228,34.7053331,33.07403,34.7530647]}}
{"name":"Άγιος Δομέτιος","other_names":{"name:el":"Άγιος Δομέτιος","name:en":"Ayios Dhometios","name:ru":"Агиос-Дометиос","name:uk":"Айос Дометіос","int_name":"Agios Dometios","name:tr":"Aydemet","alt_name:el":"Άης Δεμέτης"},"display_name":"Άγιος Δομέτιος, Λευκωσία - Lefkoşa, Δήμος Λευκωσίας, Επαρχία Λευκωσίας, Κύπρος, Κύπρος - Kıbrıs","address":{"town":"Άγιος Δομέτιος","municipality":"Λευκωσία - Lefkoşa","county":"Δήμος Λευκωσίας","state_district":"Επαρχία Λευκωσίας","ISO3166-2-lvl5":"CY-01","state":"Κύπρος","country":"Κύπρος - Kıbrıs","country_code":"cy"},"population":12100,"osm_type":"relation","osm_id":2628523,"type":"administrative","location":[33.3354319,35.1769168],"bbox":[33.2918699,35.1601493,33.3427009,35.1832818],"inferred_type":"town","border":{"name":"Aydemet","display_name":"Aydemet, Lefkoşa Türk Belediyesi, Lefkoşa ilçesi, Kuzey Kıbrıs, Κύπρος - Kıbrıs","address":{"city":"Aydemet","municipality":"Lefkoşa Türk Belediyesi","state_district":"Lefkoşa ilçesi","country":"Kuzey Kıbrıs","country_code":"cy"},"osm_type":"relation","osm_id":16283714,"type":"administrative","location":[33.32080159897783,35.1849854],"bbox":[33.2917304,35.1674506,33.3471931,35.2014775]}}
{"name":"Αθηένου","other_names":{"name:ar":"أثينو","name:de":"Athienou","name:el":"Αθηένου","name:en":"Athiénou","name:fa":"آتیه‌نو","name:fr":"Athienou","name:hu":"Athiénu","name:pl":"Atienu","name:tr":"Kiracıköy","name:uk":"Атієну","name:ur":"آتھینو","alt_name:el":"Αθηαίνου","alt_name:tr":"Atinu"},"display_name":"Αθηένου, Athienou, Δήμος Αθηένου, Επαρχία Λάρνακας, Κύπρος, Κύπρος - Kıbrıs","address":{"town":"Αθηένου","county":"Δήμος Αθηένου","state_district":"Επαρχία Λάρνακας","ISO3166-2-lvl5":"CY-03","state":"Κύπρος","country":"Κύπρος - Kıbrıs","country_code":"cy"},"population":5000,"osm_type":"node","osm_id":1637506794,"type":"town","location":[33.5404951,35.0618614],"bbox":[33.5004951,35.0218614,33.5804951,35.1018614],"border":[{"name":"Athienou","other_names":{"name:el":"Αθηένου","name:en":"Athienou","name:tr":"Atinu","name:ar":"أثينو","name:de":"Athienou","name:fa":"آتیه‌نو","name:fr":"Athienou","name:hu":"Athiénu","name:pl":"Atienu","name:uk":"Атієну","name:ur":"آتھینو","official_name:en":"Dimos Athienou","alt_name:el":"Αθηαίνου","alt_name:tr":"Atinu","alt":"Αθηένου","alt:en":"Athiénou","alt:tr":"Kiracıköy"},"display_name":"Athienou, Δήμος Αθηένου, Επαρχία Λάρνακας, Κύπρος, 7600, Κύπρος - Kıbrıs","address":{"town":"Athienou","county":"Δήμος Αθηένου","state_district":"Επαρχία Λάρνακας","ISO3166-2-lvl5":"CY-03","state":"Κύπρος","postcode":"7600","country":"Κύπρος - Kıbrıs","country_code":"cy"},"population":5000,"osm_type":"relation","osm_id":15018457,"type":"administrative","location":[33.5404951,35.0618614],"bbox":[33.475948,35.0080785,33.586435,35.0825416]},{"name":"Kiracıköy","display_name":"Kiracıköy, Değirmenlik-Akıncılar Belediyesi, Lefkoşa ilçesi, Kuzey Kıbrıs, Κύπρος - Kıbrıs","address":{"city":"Kiracıköy","municipality":"Değirmenlik-Akıncılar Belediyesi","state_district":"Lefkoşa ilçesi","country":"Kuzey Kıbrıs","country_code":"cy"},"osm_type":"relation","osm_id":16283800,"type":"administrative","location":[33.5093975423801,35.07506789999999],"bbox":[33.4779377,35.0382814,33.6019447,35.1118056]}]}
{"name":"Αραδίππου","other_names":{"name:ar":"أراديبو","name:de":"Aradippou","name:el":"Αραδίππου","name:en":"Aradhippou","name:eu":"Aradipou","name:fr":"Aradíppou","name:hu":"Aradíppu","name:hy":"Արադիպու","name:lt":"Aradipu","name:pl":"Aradipu","name:ru":"Арадиппу","name:tr":"Aradip","name:uk":"Арадіппу"},"display_name":"Αραδίππου, Δήμος Αραδίππου, Επαρχία Λάρνακας, Κύπρος, Κύπρος - Kıbrıs","address":{"town":"Αραδίππου","county":"Δήμος Αραδίππου","state_district":"Επαρχία Λάρνακας","ISO3166-2-lvl5":"CY-03","state":"Κύπρος","country":"Κύπρος - Kıbrıs","country_code":"cy"},"population":20000,"osm_type":"node","osm_id":67322815,"type":"town","location":[33.5926752,34.9496176],"bbox":[33.5526752,34.9096176,33.6326752,34.9896176],"border":{"name":"Αραδίππου","other_names":{"name:el":"Αραδίππου","name:en":"Aradippou","name:fr":"Aradíppou","name:ar":"أراديبو","name:de":"Aradippou","name:eu":"Aradipou","name:hu":"Aradíppu","name:hy":"Արադիպու","name:lt":"Aradipu","name:pl":"Aradipu","name:ru":"Арадиппу","name:tr":"Aradip","name:uk":"Арадіппу","official_name:en":"Dimos Aradippou","alt:en":"Aradhippou"},"display_name":"Αραδίππου, Δήμος Αραδίππου, Επαρχία Λάρνακας, Κύπρος, Κύπρος - Kıbrıs","address":{"town":"Αραδίππου","county":"Δήμος Αραδίππου","state_district":"Επαρχία Λάρνακας","ISO3166-2-lvl5":"CY-03","state":"Κύπρος","country":"Κύπρος - Kıbrıs","country_code":"cy"},"population":20000,"osm_type":"relation","osm_id":13757555,"type":"administrative","location":[33.5926752,34.9496176],"bbox":[33.5270625,34.895393,33.6206153,35.0048661]}}
{"name":"Γέρι","other_names":{"name:el":"Γέρι","name:en":"Yeri","name:hu":"Jéri","name:tr":"Yeri","name:uk":"Гері","int_name":"Geri"},"display_name":"Γέρι, Geri, Δήμος Λατσιών - Γερίου, Επαρχία Λευκωσίας, Κύπρος, Κύπρος - Kıbrıs","address":{"town":"Γέρι","county":"Δήμος Λατσιών - Γερίου","state_district":"Επαρχία Λευκωσίας","ISO3166-2-lvl5":"CY-01","state":"Κύπρος","country":"Κύπρος - Kıbrıs","country_code":"cy"},"population":8235,"osm_type":"node","osm_id":39663578,"type":"town","location":[33.4204148,35.1068501],"bbox":[33.3804148,35.0668501,33.4604148,35.1468501],"border":{"name":"Geri","other_names":{"name:el":"Γέρι","name:en":"Yeri","name:hu":"Jéri","name:tr":"Yeri","name:uk":"Гері","int_name":"Geri","alt":"Γέρι"},"display_name":"Geri, Δήμος Λατσιών - Γερίου, Επαρχία Λευκωσίας, Κύπρος, Κύπρος - Kıbrıs","address":{"town":"Geri","county":"Δήμος Λατσιών - Γερίου","state_district":"Επαρχία Λευκωσίας","ISO3166-2-lvl5":"CY-01","state":"Κύπρος","country":"Κύπρος - Kıbrıs","country_code":"cy"},"population":8235,"osm_type":"relation","osm_id":15022746,"type":"administrative","location":[33.4204148,35.1068501],"bbox":[33.388309,35.075203,33.462987,35.1339548]}}
{"name":"Γερμασόγεια","other_names":{"name:ar":"غرمسوغيا","name:el":"Γερμασόγεια","name:en":"Yermasoyia","name:fr":"Germasogeia","name:hu":"Jermaszójia","name:pl":"Jermasoja","name:ru":"Гермасойя","name:tr":"Yermasoya","name:uk":"Гермасойя","alt_name":"Germasogeia"},"display_name":"Γερμασόγεια, Δήμος Γερμασόγειας, Δήμος Ανατολικής Λεμεσού, Επαρχία Λεμεσού, Κύπρος, 4044, Κύπρος - Kıbrıs","address":{"town":"Γερμασόγεια","county":"Δήμος Ανατολικής Λεμεσού","state_district":"Επαρχία Λεμεσού","ISO3166-2-lvl5":"CY-02","state":"Κύπρος","postcode":"4044","country":"Κύπρος - Kıbrıs","country_code":"cy"},"population":8535,"osm_type":"node","osm_id":60057108,"type":"town","location":[33.0879427,34.7130838],"bbox":[33.0479427,34.6730838,33.1279427,34.7530838],"border":{"name":"Δήμος Γερμασόγειας","other_names":{"name:ar":"بلدية غرمسوغيا","name:el":"Δήμος Γερμασόγειας","name:en":"Germasogeia","name:fr":"Germasogeia","name:hu":"Jermaszójia","name:pl":"Jermasoja","name:ru":"Гермасойя","name:tr":"Yermasoya","name:uk":"Гермасойя","alt_name":"Germasogeia","alt":"Γερμασόγεια","alt:ar":"غرمسوغيا","alt:el":"Γερμασόγεια","alt:en":"Yermasoyia"},"display_name":"Δήμος Γερμασόγειας, Δήμος Ανατολικής Λεμεσού, Επαρχία Λεμεσού, Κύπρος, Κύπρος - Kıbrıs","address":{"town":"Δήμος Γερμασόγειας","county":"Δήμος Ανατολικής Λεμεσού","state_district":"Επαρχία Λεμεσού","ISO3166-2-lvl5":"CY-02","state":"Κύπρος","country":"Κύπρος - Kıbrıs","country_code":"cy"},"population":8535,"osm_type":"relation","osm_id":8422793,"type":"administrative","location":[33.0879427,34.7130838],"bbox":[33.0574928,34.6891132,33.1068625,34.7519894]}}
{"name":"Γεροσκήπου","other_names":{"name:de":"Geroskipou","name:el":"Γεροσκήπου","name:en":"Geroskipou","name:hu":"Jeroszkípu","name:hy":"Յերոշիբու","name:ru":"Ерошибу","name:tr":"Yeroşibu","name:uk":"Героскіпу","alt_name:en":"Yeroskipou"},"display_name":"Γεροσκήπου, Δήμος Ανατολικής Πάφου, Επαρχία Πάφου, Κύπρος, Κύπρος - Kıbrıs","address":{"town":"Γεροσκήπου","county":"Δήμος Ανατολικής Πάφου","state_district":"Επαρχία Πάφου","ISO3166-2-lvl5":"CY-05","state":"Κύπρος","country":"Κύπρος - Kıbrıs","country_code":"cy"},"population":8313,"osm_type":"node","osm_id":1637467513,"type":"town","location":[32.4526968,34.7611753],"bbox":[32.4126968,34.7211753,32.4926968,34.8011753],"border":{"name":"Γεροσκήπου","other_names":{"name:de":"Geroskipou","name:el":"Γεροσκήπου","name:en":"Yeroskipou","name:ru":"Героскипу","name:tr":"Yeroşibu","name:hu":"Jeroszkípu","name:hy":"Յերոշիբու","name:uk":"Героскіпу","alt_name:en":"Yeroskipou","alt:en":"Geroskipou","alt:ru":"Ерошибу"},"display_name":"Γεροσκήπου, Δήμος Ανατολικής Πάφου, Επαρχία Πάφου, Κύπρος, Κύπρος - Kıbrıs","address":{"town":"Γεροσκήπου","county":"Δήμος Ανατολικής Πάφου","state_district":"Επαρχία Πάφου","ISO3166-2-lvl5":"CY-05","state":"Κύπρος","country":"Κύπρος - Kıbrıs","country_code":"cy"},"population":8313,"osm_type":"relation","osm_id":533387,"type":"administrative","location":[32.4526968,34.7611753],"bbox":[32.4245046,34.7284512,32.4887186,34.7731346]}}
{"name":"Δάλι","other_names":{"name:ar":"دالي","name:el":"Δάλι","name:en":"Dali","name:eu":"Dali","name:fr":"Dali","name:hu":"Dáli","name:ru":"Дали","name:tr":"Dali","name:uk":"Далі"},"display_name":"Δάλι, Dali, Δήμος Νότιας Λευκωσίας - ιδαλίου, Επαρχία Λευκωσίας, Κύπρος, 2540, Κύπρος - Kıbrıs","address":{"town":"Δάλι","city":"Dali","county":"Δήμος Νότιας Λευκωσίας - ιδαλίου","state_district":"Επαρχία Λευκωσίας","ISO3166-2-lvl5":"CY-01","state":"Κύπρος","postcode":"2540","country":"Κύπρος - Kıbrıs","country_code":"cy"},"population":10000,"osm_type":"node","osm_id":2011086710,"type":"town","location":[33.4218073,35.0225693],"bbox":[33.3818073,34.9825693,33.4618073,35.0625693],"border":{"name":"Dali","display_name":"Dali, Δήμος Νότιας Λευκωσίας - ιδαλίου, Επαρχία Λευκωσίας, Κύπρος, 2540, Κύπρος - Kıbrıs","address":{"city":"Dali","county":"Δήμος Νότιας Λευκωσίας - ιδαλίου","state_district":"Επαρχία Λευκωσίας","ISO3166-2-lvl5":"CY-01","state":"Κύπρος","postcode":"2540","country":"Κύπρος - Kıbrıs","country_code":"cy"},"osm_type":"relation","osm_id":15022777,"type":"administrative","location":[33.41253529954545,35.0457355],"bbox":[33.368646,35.005576,33.449618,35.085893]}}
{"name":"Δερύνεια","other_names":{"name:ar":"درينيا","name:el":"Δερύνεια","name:en":"Deryneia","name:eu":"Deryneia","name:fr":"Derýnia","name:hu":"Derínia","name:ru":"Дериния","name:tr":"Derinya","name:uk":"Дерінея","alt_name":"Dherynia","alt_name:en":"Dherynia"},"display_name":"Δερύνεια, Δήμος Παραλιμνίου - Δερύνειας, Επαρχία Αμμοχώστου, Κύπρος, Κύπρος - Kıbrıs","address":{"town":"Δερύνεια","county":"Δήμος Παραλιμνίου - Δερύνειας","state_district":"Επαρχία Αμμοχώστου","ISO3166-2-lvl5":"CY-04","state":"Κύπρος","country":"Κύπρος - Kıbrıs","country_code":"cy"},"population":5758,"osm_type":"node","osm_id":1637869319,"type":"town","location":[33.9609128,35.064867],"bbox":[33.9209128,35.024867,34.0009128,35.104867],"border":{"name":"Δερύνεια","other_names":{"name:en":"Deryneia","name:fr":"Derýnia","name:ar":"درينيا","name:el":"Δερύνεια","name:eu":"Deryneia","name:hu":"Derínia","name:ru":"Дериния","name:tr":"Derinya","name:uk":"Дерінея","alt_name":"Dherynia","alt_name:en":"Dherynia"},"display_name":"Δερύνεια, Δήμος Παραλιμνίου - Δερύνειας, Επαρχία Αμμοχώστου, Κύπρος, 5380, Κύπρος - Kıbrıs","address":{"town":"Δερύνεια","county":"Δήμος Παραλιμνίου - Δερύνειας","state_district":"Επαρχία Αμμοχώστου","ISO3166-2-lvl5":"CY-04","state":"Κύπρος","postcode":"5380","country":"Κύπρος - Kıbrıs","country_code":"cy"},"population":5758,"osm_type":"relation","osm_id":12315013,"type":"administrative","location":[33.9609128,35.064867],"bbox":[33.8958084,35.0414543,33.9995252,35.0770713]}}
{"name":"Δρομολαξιά","other_names":{"name:el":"Δρομολαξιά","name:en":"Dromolaxia","name:eu":"Dromolaxia","name:fr":"Dromolaxiá","name:hu":"Dromolaxiá","name:tr":"Dromolakşa","name:uk":"Дромолаксія","int_name":"Dromolaxia"},"display_name":"Δρομολαξιά, Δήμος Δρομολαξιάς-Μενεού, Δήμος Δρομολαξιάς - Μενεού, Επαρχία Λάρνακας, Κύπρος, Κύπρος - Kıbrıs","address":{"town":"Δρομολαξιά","city":"Δήμος Δρομολαξιάς-Μενεού","county":"Δήμος Δρομολαξιάς - Μενεού","state_district":"Επαρχία Λάρνακας","ISO3166-2-lvl5":"CY-03","state":"Κύπρος","country":"Κύπρος - Kıbrıs","country_code":"cy"},"population":5064,"osm_type":"node","osm_id":29705608,"type":"town","location":[33.5871451,34.8730569],"bbox":[33.5471451,34.8330569,33.6271451,34.9130569],"border":{"name":"Δρομολαξιά","other_names":{"name:el":"Δρομολαξιά","name:en":"Dromolaxia","int_name":"Dromolaxia","name:eu":"Dromolaxia","name:fr":"Dromolaxiá","name:hu":"Dromolaxiá","name:tr":"Dromolakşa","name:uk":"Дромолаксія"},"display_name":"Δρομολαξιά, Δήμος Δρομολαξιάς-Μενεού, Δήμος Δρομολαξιάς - Μενεού, Επαρχία Λάρνακας, Κύπρος, 7020, Κύπρος - Kıbrıs","address":{"town":"Δρομολαξιά","city":"Δήμος Δρομολαξιάς-Μενεού","county":"Δήμος Δρομολαξιάς - Μενεού","state_district":"Επαρχία Λάρνακας","ISO3166-2-lvl5":"CY-03","state":"Κύπρος","postcode":"7020","country":"Κύπρος - Kıbrıs","country_code":"cy"},"population":5064,"osm_type":"relation","osm_id":13704358,"type":"administrative","location":[33.5871451,34.8730569],"bbox":[33.5515498,34.8643447,33.6176235,34.9059415]}}
{"name":"Έμπα","other_names":{"name:el":"Έμπα","name:en":"Empa","name:hu":"Émba","name:tr":"Emba","name:uk":"Емпа"},"display_name":"Έμπα, Empa, Επαρχία Πάφου, Κύπρος, 8250, Κύπρος - Kıbrıs","address":{"town":"Έμπα","city":"Empa","state_district":"Επαρχία Πάφου","ISO3166-2-lvl5":"CY-05","state":"Κύπρος","postcode":"8250","country":"Κύπρος - Kıbrıs","country_code":"cy"},"population":4855,"osm_type":"node","osm_id":29377568,"type":"town","location":[32.4235493,34.8087473],"bbox":[32.3835493,34.7687473,32.4635493,34.8487473],"border":{"name":"Empa","other_names":{"official_name":"Κοινότητα Έμπας"},"display_name":"Empa, Επαρχία Πάφου, Κύπρος, Κύπρος - Kıbrıs","address":{"city":"Empa","state_district":"Επαρχία Πάφου","ISO3166-2-lvl5":"CY-05","state":"Κύπρος","country":"Κύπρος - Kıbrıs","country_code":"cy"},"osm_type":"relation","osm_id":8437299,"type":"administrative","location":[32.423319668209736,34.807064],"bbox":[32.4102527,34.7891609,32.4380798,34.8256411]}}
{"name":"Επισκοπή","other_names":{"name:ar":"إيبسكوبي","name:de":"Episkopi","name:el":"Επισκοπή","name:en":"Episkopi","name:hu":"Episkopí","name:mk":"Епископи","name:ru":"Эпископи","name:tr":"Piskobu","name:uk":"Епіскопі"},"display_name":"Επισκοπή, Δήμος Κουρίου, Επαρχία Λεμεσού, Κύπρος, Κύπρος - Kıbrıs","address":{"town":"Επισκοπή","county":"Δήμος Κουρίου","state_district":"Επαρχία Λεμεσού","ISO3166-2-lvl5":"CY-02","state":"Κύπρος","country":"Κύπρος - Kıbrıs","country_code":"cy"},"population":3681,"osm_type":"node","osm_id":268526913,"type":"town","location":[32.9018553,34.6704337],"bbox":[32.8618553,34.6304337,32.9418553,34.7104337],"border":{"name":"Επισκοπή","other_names":{"name:en":"Episkopi","name:ar":"إيبسكوبي","name:de":"Episkopi","name:el":"Επισκοπή","name:hu":"Episkopí","name:mk":"Епископи","name:ru":"Эпископи","name:tr":"Piskobu","name:uk":"Епіскопі"},"display_name":"Επισκοπή, Δήμος Κουρίου, Επαρχία Λεμεσού, Κύπρος, 4620, Κύπρος - Kıbrıs","address":{"town":"Επισκοπή","county":"Δήμος Κουρίου","state_district":"Επαρχία Λεμεσού","ISO3166-2-lvl5":"CY-02","state":"Κύπρος","postcode":"4620","country":"Κύπρος - Kıbrıs","country_code":"cy"},"population":3681,"osm_type":"relation","osm_id":13013918,"type":"administrative","location":[32.9018553,34.6704337],"bbox":[32.8581434,34.6634273,32.9160888,34.7034061]}}
{"name":"Κάτω Πολεμίδια","other_names":{"name:de":"Kato Polemidia","name:el":"Κάτω Πολεμίδια","name:en":"Kato Polemidia","name:hu":"Káto Polemídia","name:ru":"Като Полемидия","name:tr":"Aşağı Polemidya","alt_name:tr":"Aşağı Binatlı"},"display_name":"Κάτω Πολεμίδια, Δήμος Κάτω Πολεμιδίων, Δήμος Πολεμιδιών, Επαρχία Λεμεσού, Κύπρος, Κύπρος - Kıbrıs","address":{"town":"Κάτω Πολεμίδια","county":"Δήμος Πολεμιδιών","state_district":"Επαρχία Λεμεσού","ISO3166-2-lvl5":"CY-02","state":"Κύπρος","country":"Κύπρος - Kıbrıs","country_code":"cy"},"osm_type":"node","osm_id":1621755475,"type":"town","location":[33.0034555,34.690548],"bbox":[32.9634555,34.650548,33.0434555,34.730548],"border":{"name":"Δήμος Κάτω Πολεμιδίων","other_names":{"name:el":"Δήμος Κάτω Πολεμιδίων","name:en":"Kato Polemidia Municipality","name:tr":"Aşağı Polemidya Belediyesi","name:de":"Kato Polemidia","name:hu":"Káto Polemídia","name:ru":"Като Полемидия","alt_name:tr":"Aşağı Binatlı","alt":"Κάτω Πολεμίδια","alt:el":"Κάτω Πολεμίδια","alt:en":"Kato Polemidia","alt:tr":"Aşağı Polemidya"},"display_name":"Δήμος Κάτω Πολεμιδίων, Δήμος Πολεμιδιών, Επαρχία Λεμεσού, Κύπρος, Κύπρος - Kıbrıs","address":{"town":"Δήμος Κάτω Πολεμιδίων","county":"Δήμος Πολεμιδιών","state_district":"Επαρχία Λεμεσού","ISO3166-2-lvl5":"CY-02","state":"Κύπρος","country":"Κύπρος - Kıbrıs","country_code":"cy"},"osm_type":"relation","osm_id":8433688,"type":"administrative","location":[33.0034555,34.690548],"bbox":[32.9504281,34.6553005,33.017279,34.7417536]}}
{"name":"Κίτι","other_names":{"name:el":"Κίτι","name:en":"Kiti","name:hu":"Kíti","name:tr":"Çite","name:uk":"Кіті"},"display_name":"Κίτι, Δήμος Δρομολαξιάς - Μενεού, Επαρχία Λάρνακας, Κύπρος, Κύπρος - Kıbrıs","address":{"town":"Κίτι","county":"Δήμος Δρομολαξιάς - Μενεού","state_district":"Επαρχία Λάρνακας","ISO3166-2-lvl5":"CY-03","state":"Κύπρος","country":"Κύπρος - Kıbrıs","country_code":"cy"},"population":4252,"osm_type":"node","osm_id":29705484,"type":"town","location":[33.5726051,34.8456226],"bbox":[33.5326051,34.8056226,33.6126051,34.8856226],"border":{"name":"Κίτι","other_names":{"name:el":"Κίτι","name:en":"Kiti","name:hu":"Kíti","name:tr":"Çite","name:uk":"Кіті"},"display_name":"Κίτι, Δήμος Δρομολαξιάς - Μενεού, Επαρχία Λάρνακας, Κύπρος, 7550, Κύπρος - Kıbrıs","address":{"town":"Κίτι","county":"Δήμος Δρομολαξιάς - Μενεού","state_district":"Επαρχία Λάρνακας","ISO3166-2-lvl5":"CY-03","state":"Κύπρος","postcode":"7550","country":"Κύπρος - Kıbrıs","country_code":"cy"},"population":4252,"osm_type":"relation","osm_id":13753739,"type":"administrative","location":[33.5726051,34.8456226],"bbox":[33.5585823,34.8223915,33.5949658,34.8730047]}}
{"name":"Λακατάμεια","other_names":{"name:de":"Lakatamia","name:el":"Λακατάμεια","name:en":"Lakatamia","name:eu":"Lakatamia","name:hu":"Lakatámia","name:tr":"Lakadamya","name:uk":"Лакатамія","alt_name":"Λακατάμια","int_name":"Lakatamia"},"display_name":"Λακατάμεια, Λευκωσία - Lefkoşa, Δήμος Λακατάμειας, Επαρχία Λευκωσίας, Κύπρος, Κύπρος - Kıbrıs","address":{"town":"Λακατάμεια","municipality":"Λευκωσία - Lefkoşa","county":"Δήμος Λακατάμειας","state_district":"Επαρχία Λευκωσίας","ISO3166-2-lvl5":"CY-01","state":"Κύπρος","country":"Κύπρος - Kıbrıs","country_code":"cy"},"population":38345,"osm_type":"node","osm_id":2052006010,"type":"town","location":[33.3078496,35.1200946],"bbox":[33.2678496,35.0800946,33.3478496,35.1600946],"border":{"name":"Λακατάμεια","other_names":{"name:de":"Lakatamia","name:el":"Λακατάμεια","name:en":"Lakatameia","name:ru":"Лакатамия","name:uk":"Лакатамія","int_name":"Lakatamia","name:eu":"Lakatamia","name:hu":"Lakatámia","name:tr":"Lakadamya","alt_name":"Λακατάμια","alt:en":"Lakatamia"},"display_name":"Λακατάμεια, Λευκωσία - Lefkoşa, Δήμος Λακατάμειας, Επαρχία Λευκωσίας, Κύπρος, Κύπρος - Kıbrıs","address":{"town":"Λακατάμεια","municipality":"Λευκωσία - Lefkoşa","county":"Δήμος Λακατάμειας","state_district":"Επαρχία Λευκωσίας","ISO3166-2-lvl5":"CY-01","state":"Κύπρος","country":"Κύπρος - Kıbrıs","country_code":"cy"},"population":38345,"osm_type":"relation","osm_id":2628525,"type":"administrative","location":[33.3078496,35.1200946],"bbox":[33.26978,35.080529,33.3565672,35.152257]}}
{"name":"Λατσιά","other_names":{"name:el":"Λατσιά","name:en":"Latsia","name:hu":"Laciá","name:tr":"Latça","name:uk":"Лачія"},"display_name":"Λατσιά, Latsia, Λευκωσία - Lefkoşa, Δήμος Λατσιών - Γερίου, Επαρχία Λευκωσίας, Κύπρος, Κύπρος - Kıbrıs","address":{"town":"Λατσιά","municipality":"Λευκωσία - Lefkoşa","county":"Δήμος Λατσιών - Γερίου","state_district":"Επαρχία Λευκωσίας","ISO3166-2-lvl5":"CY-01","state":"Κύπρος","country":"Κύπρος - Kıbrıs","country_code":"cy"},"population":12195,"osm_type":"node","osm_id":2057562429,"type":"town","location":[33.3815988,35.0995648],"bbox":[33.3415988,35.0595648,33.4215988,35.1395648],"border":{"name":"Latsia","other_names":{"name:ru":"Лация","name:uk":"Лація","name:el":"Λατσιά","name:en":"Latsia","name:hu":"Laciá","name:tr":"Latça","alt":"Λατσιά","alt:uk":"Лачія"},"display_name":"Latsia, Λευκωσία - Lefkoşa, Δήμος Λατσιών - Γερίου, Επαρχία Λευκωσίας, Κύπρος, Κύπρος - Kıbrıs","address":{"town":"Latsia","municipality":"Λευκωσία - Lefkoşa","county":"Δήμος Λατσιών - Γερίου","state_district":"Επαρχία Λευκωσίας","ISO3166-2-lvl5":"CY-01","state":"Κύπρος","country":"Κύπρος - Kıbrıs","country_code":"cy"},"population":12195,"osm_type":"relation","osm_id":2628526,"type":"administrative","location":[33.3815988,35.0995648],"bbox":[33.350338,35.0691785,33.395771,35.1244299]}}
{"name":"Μέσα Γειτονιά","other_names":{"name:el":"Μέσα Γειτονιά","name:en":"Mesa Geitonia","name:hu":"Mésza Jitoniá","name:tr":"Mesayiton"},"display_name":"Μέσα Γειτονιά, Δήμος Μέσα Γειτονιάς, Δήμος Λεμεσού, Επαρχία Λεμεσού, Κύπρος, Κύπρος - Kıbrıs","address":{"town":"Μέσα Γειτονιά","county":"Δήμος Λεμεσού","state_district":"Επαρχία Λεμεσού","ISO3166-2-lvl5":"CY-02","state":"Κύπρος","country":"Κύπρος - Kıbrıs","country_code":"cy"},"osm_type":"node","osm_id":60170093,"type":"town","location":[33.0449947,34.701862],"bbox":[33.0049947,34.661862,33.0849947,34.741862],"border":{"name":"Δήμος Μέσα Γειτονιάς","other_names":{"name:el":"Δήμος Μέσα Γειτονιάς","name:en":"Mesa Geitonia","name:hu":"Mésza Jitoniá","name:tr":"Mesayiton","alt":"Μέσα Γειτονιά","alt:el":"Μέσα Γειτονιά"},"display_name":"Δήμος Μέσα Γειτονιάς, Δήμος Λεμεσού, Επαρχία Λεμεσού, Κύπρος, Κύπρος - Kıbrıs","address":{"town":"Δήμος Μέσα Γειτονιάς","county":"Δήμος Λεμεσού","state_district":"Επαρχία Λεμεσού","ISO3166-2-lvl5":"CY-02","state":"Κύπρος","country":"Κύπρος - Kıbrıs","country_code":"cy"},"osm_type":"relation","osm_id":8422686,"type":"administrative","location":[33.0449947,34.701862],"bbox":[33.0283398,34.6912704,33.0658479,34.7299775]}}
{"name":"Ξυλοφάγου","other_names":{"name:ar":"اكسيلوفغو","name:de":"Xylofagou","name:el":"Ξυλοφάγου","name:en":"Xylofagou","name:eu":"Xylofagou","name:fr":"Xylofágou","name:hu":"Xilofágu","name:mk":"Ксилофагу","name:pl":"Ksilofagu","name:ru":"Ксилофагу","name:tr":"Şilofagu","name:uk":"Ксілофагу"},"display_name":"Ξυλοφάγου, Επαρχία Λάρνακας, Κύπρος, Κύπρος - Kıbrıs","address":{"town":"Ξυλοφάγου","state_district":"Επαρχία Λάρνακας","ISO3166-2-lvl5":"CY-03","state":"Κύπρος","country":"Κύπρος - Kıbrıs","country_code":"cy"},"population":4957,"osm_type":"node","osm_id":21285807,"type":"town","location":[33.8491973,34.9772326],"bbox":[33.8091973,34.9372326,33.8891973,35.0172326],"border":{"name":"Ξυλοφάγου","other_names":{"name:de":"Xylofagou","name:el":"Ξυλοφάγου","name:en":"Xylofagou","name:ar":"اكسيلوفغو","name:eu":"Xylofagou","name:fr":"Xylofágou","name:hu":"Xilofágu","name:mk":"Ксилофагу","name:pl":"Ksilofagu","name:ru":"Ксилофагу","name:tr":"Şilofagu","name:uk":"Ксілофагу"},"display_name":"Ξυλοφάγου, Επαρχία Λάρνακας, Κύπρος, 7520, Κύπρος - Kıbrıs","address":{"town":"Ξυλοφάγου","state_district":"Επαρχία Λάρνακας","ISO3166-2-lvl5":"CY-03","state":"Κύπρος","postcode":"7520","country":"Κύπρος - Kıbrıs","country_code":"cy"},"population":4957,"osm_type":"relation","osm_id":12082787,"type":"administrative","location":[33.8491973,34.9772326],"bbox":[33.8320138,34.9646733,33.9023274,35.0080605]}}
{"name":"Ορόκλινη","other_names":{"name:el":"Ορόκλινη","name:en":"Oroklini","name:fr":"Oróklini","name:hu":"Oróklini","name:tr":"Oroklini","name:uk":"Орокліні","alt_name":"Βορόκληνη"},"display_name":"Ορόκλινη, Δήμος Λάρνακας, Επαρχία Λάρνακας, Κύπρος, Κύπρος - Kıbrıs","address":{"town":"Ορόκλινη","county":"Δήμος Λάρνακας","state_district":"Επαρχία Λάρνακας","ISO3166-2-lvl5":"CY-03","state":"Κύπρος","country":"Κύπρος - Kıbrıs","country_code":"cy"},"population":6134,"osm_type":"node","osm_id":1625160790,"type":"town","location":[33.6558552,34.9822755],"bbox":[33.6158552,34.9422755,33.6958552,35.0222755],"border":{"name":"Ορόκλινη","other_names":{"name:uk":"Орокліні","name:el":"Ορόκλινη","name:en":"Oroklini","name:fr":"Oróklini","name:hu":"Oróklini","name:tr":"Oroklini","alt_name":"Βορόκληνη"},"display_name":"Ορόκλινη, Δήμος Λάρνακας, Επαρχία Λάρνακας, Κύπρος, Κύπρος - Kıbrıs","address":{"town":"Ορόκλινη","county":"Δήμος Λάρνακας","state_district":"Επαρχία Λάρνακας","ISO3166-2-lvl5":"CY-03","state":"Κύπρος","country":"Κύπρος - Kıbrıs","country_code":"cy"},"population":6134,"osm_type":"relation","osm_id":13795855,"type":"administrative","location":[33.6558552,34.9822755],"bbox":[33.6391291,34.9564605,33.6781089,35.0187326]}}
{"name":"Πάνω Λεύκαρα","other_names":{"name:de":"Pano Lefkara","name:el":"Πάνω Λεύκαρα","name:en":"Pano Lefkara","name:hu":"Páno Léfkara","name:ru":"Лефкара","name:tr":"Yukarı Lefkara"},"display_name":"Πάνω Λεύκαρα, Pano Lefkara, Δήμος Λεύκαρών, Επαρχία Λάρνακας, Κύπρος, Κύπρος - Kıbrıs","address":{"town":"Πάνω Λεύκαρα","county":"Δήμος Λεύκαρών","state_district":"Επαρχία Λάρνακας","ISO3166-2-lvl5":"CY-03","state":"Κύπρος","country":"Κύπρος - Kıbrıs","country_code":"cy"},"population":1100,"osm_type":"node","osm_id":268651408,"type":"town","location":[33.3068524,34.8665517],"bbox":[33.2668524,34.8265517,33.3468524,34.9065517],"border":{"name":"Pano Lefkara","other_names":{"name:el":"Πάνω Λεύκαρα","name:en":"Pano Lefkara","name:tr":"Yukarı Lefkara","name:de":"Pano Lefkara","name:hu":"Páno Léfkara","name:ru":"Лефкара","alt":"Πάνω Λεύκαρα"},"display_name":"Pano Lefkara, Δήμος Λεύκαρών, Επαρχία Λάρνακας, Κύπρος, 7700, Κύπρος - Kıbrıs","address":{"town":"Pano Lefkara","county":"Δήμος Λεύκαρών","state_district":"Επαρχία Λάρνακας","ISO3166-2-lvl5":"CY-03","state":"Κύπρος","postcode":"7700","country":"Κύπρος - Kıbrıs","country_code":"cy"},"population":1100,"osm_type":"relation","osm_id":15018465,"type":"administrative","location":[33.3068524,34.8665517],"bbox":[33.2485024,34.8180025,33.3716324,34.9213601]}}
{"name":"Παραλίμνι","other_names":{"name:ar":"باراليمني","name:de":"Paralimni","name:el":"Παραλίμνι","name:en":"Paralimni","name:es":"Paralimni","name:eu":"Paralimni","name:fr":"Paralímni","name:he":"פאראלימני","name:hu":"Paralímni","name:lt":"Paralimnis","name:ru":"Паралимни","name:tr":"Paralimni","name:uk":"Паралімні"},"display_name":"Παραλίμνι, Δήμος Παραλιμνίου - Δερύνειας, Επαρχία Αμμοχώστου, Κύπρος, Κύπρος - Kıbrıs","address":{"town":"Παραλίμνι","county":"Δήμος Παραλιμνίου - Δερύνειας","state_district":"Επαρχία Αμμοχώστου","ISO3166-2-lvl5":"CY-04","state":"Κύπρος","country":"Κύπρος - Kıbrıs","country_code":"cy"},"population":15000,"osm_type":"node","osm_id":21422610,"type":"town","location":[33.9828013,35.0391526],"bbox":[33.9428013,34.9991526,34.0228013,35.0791526],"border":{"name":"Παραλίμνι","other_names":{"name:en":"Paralimni","name:fr":"Paralímni","name:ar":"باراليمني","name:de":"Paralimni","name:el":"Παραλίμνι","name:es":"Paralimni","name:eu":"Paralimni","name:he":"פאראלימני","name:hu":"Paralímni","name:lt":"Paralimnis","name:ru":"Паралимни","name:tr":"Paralimni","name:uk":"Паралімні"},"display_name":"Παραλίμνι, Δήμος Παραλιμνίου - Δερύνειας, Επαρχία Αμμοχώστου, Κύπρος, Κύπρος - Kıbrıs","address":{"town":"Παραλίμνι","county":"Δήμος Παραλιμνίου - Δερύνειας","state_district":"Επαρχία Αμμοχώστου","ISO3166-2-lvl5":"CY-04","state":"Κύπρος","country":"Κύπρος - Kıbrıs","country_code":"cy"},"population":15000,"osm_type":"relation","osm_id":12311602,"type":"administrative","location":[33.9828013,35.0391526],"bbox":[33.9541817,34.9836703,34.0787606,35.0696085]}}
{"name":"Πέγεια","other_names":{"name:ar":"بيغيا","name:de":"Peyia","name:el":"Πέγεια","name:en":"Peyia","name:eu":"Pegeia","name:fr":"Pegeia","name:hu":"Péjia","name:ru":"Пейя","name:tr":"Peya","name:uk":"Пейя","alt_name":"Pegeia"},"display_name":"Πέγεια, Δήμος Ακάμα, Επαρχία Πάφου, Κύπρος, Κύπρος - Kıbrıs","address":{"town":"Πέγεια","county":"Δήμος Ακάμα","state_district":"Επαρχία Πάφου","ISO3166-2-lvl5":"CY-05","state":"Κύπρος","country":"Κύπρος - Kıbrıs","country_code":"cy"},"population":3953,"osm_type":"node","osm_id":41005573,"type":"town","location":[32.3803202,34.8835052],"bbox":[32.3403202,34.8435052,32.4203202,34.9235052],"border":{"name":"Πέγεια","other_names":{"name:ar":"بيغيا","name:el":"Πέγεια","name:en":"Peyia","name:fr":"Péyia","name:ru":"Пейя","name:uk":"Пегейя","name:de":"Peyia","name:eu":"Pegeia","name:hu":"Péjia","name:tr":"Peya","alt_name":"Pegeia","alt:fr":"Pegeia","alt:uk":"Пейя"},"display_name":"Πέγεια, Δήμος Ακάμα, Επαρχία Πάφου, Κύπρος, Κύπρος - Kıbrıs","address":{"town":"Πέγεια","county":"Δήμος Ακάμα","state_district":"Επαρχία Πάφου","ISO3166-2-lvl5":"CY-05","state":"Κύπρος","country":"Κύπρος - Kıbrıs","country_code":"cy"},"population":3953,"osm_type":"relation","osm_id":2672302,"type":"administrative","location":[32.3803202,34.8835052],"bbox":[32.3133642,34.8440484,32.412962,34.9446251]}}
{"name":"Πόλις","other_names":{"name:ar":"بوليس","name:de":"Polis","name:el":"Πόλις","name:en":"Polis","name:eu":"Polis","name:fr":"Pólis","name:hu":"Pólisz","name:hy":"Պոլի","name:ru":"Полис","name:tr":"Poli","name:uk":"Поліс","alt_name":"Πόλις Χρυσοχούς","alt_name:en":"Polis Chrysochous","alt_name:fr":"Pólis Chrysochoús","alt_name:hy":"Պոլի Հրիսոհու","alt_name:ru":"Полис Хрисохус","alt_name:tr":"Poli Hırsofu"},"display_name":"Πόλις, Πόλις Χρυσοχούς, Δήμος Πόλις Χρυσοχούς, Επαρχία Πάφου, Κύπρος, 8820, Κύπρος - Kıbrıs","address":{"town":"Πόλις","city":"Πόλις Χρυσοχούς","county":"Δήμος Πόλις Χρυσοχούς","state_district":"Επαρχία Πάφου","ISO3166-2-lvl5":"CY-05","state":"Κύπρος","postcode":"8820","country":"Κύπρος - Kıbrıs","country_code":"cy"},"population":3000,"osm_type":"node","osm_id":38989632,"type":"town","location":[32.426471,35.034477],"bbox":[32.386471,34.994477,32.466471,35.074477],"border":[{"name":"Πόλις Χρυσοχούς","other_names":{"name:en":"Polis Chrysochous"},"display_name":"Πόλις Χρυσοχούς, Δήμος Πόλις Χρυσοχούς, Επαρχία Πάφου, Κύπρος, Κύπρος - Kıbrıs","address":{"city":"Πόλις Χρυσοχούς","county":"Δήμος Πόλις Χρυσοχούς","state_district":"Επαρχία Πάφου","ISO3166-2-lvl5":"CY-05","state":"Κύπρος","country":"Κύπρος - Kıbrıs","country_code":"cy"},"osm_type":"relation","osm_id":9500327,"type":"administrative","location":[32.42393655522737,35.0368445],"bbox":[32.3902137,35.009331,32.4694493,35.0643107]},{"name":"Πολις","other_names":{"name:el":"Πολις","name:en":"Polis","name:tr":"Poli"},"display_name":"Πολις, Πόλις Χρυσοχούς, Δήμος Πόλις Χρυσοχούς, Επαρχία Πάφου, Κύπρος, Κύπρος - Kıbrıs","address":{"city_district":"Πολις","city":"Πόλις Χρυσοχούς","county":"Δήμος Πόλις Χρυσοχούς","state_district":"Επαρχία Πάφου","ISO3166-2-lvl5":"CY-05","state":"Κύπρος","country":"Κύπρος - Kıbrıs","country_code":"cy"},"osm_type":"relation","osm_id":17836135,"type":"administrative","location":[32.43156109588982,35.03789675],"bbox":[32.3911761,35.0114394,32.4694493,35.0643107]}]}
{"name":"Πρωταράς","other_names":{"name:de":"Protaras","name:el":"Πρωταράς","name:en":"Protaras","name:fr":"Protarás","name:hu":"Protarász","name:ru":"Протарас","name:tr":"Protaras","name:uk":"Протарас"},"display_name":"Πρωταράς, Παραλίμνι, Δήμος Παραλιμνίου - Δερύνειας, Επαρχία Αμμοχώστου, Κύπρος, 5297, Κύπρος - Kıbrıs","address":{"town":"Πρωταράς","county":"Δήμος Παραλιμνίου - Δερύνειας","state_district":"Επαρχία Αμμοχώστου","ISO3166-2-lvl5":"CY-04","state":"Κύπρος","postcode":"5297","country":"Κύπρος - Kıbrıs","country_code":"cy"},"osm_type":"node","osm_id":21422489,"type":"town","location":[34.0531284,35.0149462],"bbox":[34.0131284,34.9749462,34.0931284,35.0549462]}
{"name":"Στρόβολος","other_names":{"name:ar":"استروفولوس","name:de":"Strovolos","name:el":"Στρόβολος","name:en":"Strovolos","name:es":"Strovolos","name:fr":"Strovolos","name:hu":"Sztróvolosz","name:ru":"Строволос","name:tr":"Strovulo","name:uk":"Строволос"},"display_name":"Στρόβολος, Strovolos, Λευκωσία - Lefkoşa, Δήμος Στροβόλου, Επαρχία Λευκωσίας, Κύπρος, Κύπρος - Kıbrıs","address":{"town":"Στρόβολος","municipality":"Λευκωσία - Lefkoşa","county":"Δήμος Στροβόλου","state_district":"Επαρχία Λευκωσίας","ISO3166-2-lvl5":"CY-01","state":"Κύπρος","country":"Κύπρος - Kıbrıs","country_code":"cy"},"population":67904,"osm_type":"node","osm_id":2052006016,"type":"town","location":[33.3454972,35.1328993],"bbox":[33.3054972,35.0928993,33.3854972,35.1728993],"border":{"name":"Strovolos","other_names":{"name:ar":"استروفولوس","name:el":"Στρόβολος","name:en":"Strovolos","name:ru":"Строволос","name:uk":"Строволос","name:de":"Strovolos","name:es":"Strovolos","name:fr":"Strovolos","name:hu":"Sztróvolosz","name:tr":"Strovulo","alt":"Στρόβολος"},"display_name":"Strovolos, Λευκωσία - Lefkoşa, Δήμος Στροβόλου, Επαρχία Λευκωσίας, Κύπρος, Κύπρος - Kıbrıs","address":{"town":"Strovolos","municipality":"Λευκωσία - Lefkoşa","county":"Δήμος Στροβόλου","state_district":"Επαρχία Λευκωσίας","ISO3166-2-lvl5":"CY-01","state":"Κύπρος","country":"Κύπρος - Kıbrıs","country_code":"cy"},"population":67904,"osm_type":"relation","osm_id":2628527,"type":"administrative","location":[33.3454972,35.1328993],"bbox":[33.3096963,35.1030546,33.3817569,35.165465]}}
{"name":"Τραχώνι","other_names":{"name:de":"Trachoni","name:el":"Τραχώνι","name:en":"Trachoni","name:hu":"Trahóni","name:tr":"Trahon","name:uk":"Трахоні"},"display_name":"Τραχώνι, Akrotiri Sovereign Base Area, 4651, Κύπρος - Kıbrıs","address":{"town":"Τραχώνι","county":"Akrotiri Sovereign Base Area","postcode":"4651","country":"Κύπρος - Kıbrıs","country_code":"cy"},"population":3952,"osm_type":"node","osm_id":5613669841,"type":"town","location":[32.9608575,34.6585518],"bbox":[32.9208575,34.6185518,33.0008575,34.6985518]}
{"name":"Τσέρι","other_names":{"name:el":"Τσέρι","name:en":"Tseri","name:eu":"Tseri","name:hu":"Tszéri","name:tr":"Çeri","name:uk":"Цері"},"display_name":"Τσέρι, Tseri, Δήμος Λακατάμειας, Επαρχία Λευκωσίας, Κύπρος, 2480, Κύπρος - Kıbrıs","address":{"town":"Τσέρι","city":"Tseri","county":"Δήμος Λακατάμειας","state_district":"Επαρχία Λευκωσίας","ISO3166-2-lvl5":"CY-01","state":"Κύπρος","postcode":"2480","country":"Κύπρος - Kıbrıs","country_code":"cy"},"population":7035,"osm_type":"node","osm_id":2109675460,"type":"town","location":[33.324669,35.0726972],"bbox":[33.284669,35.0326972,33.364669,35.1126972],"border":{"name":"Tseri","display_name":"Tseri, Δήμος Λακατάμειας, Επαρχία Λευκωσίας, Κύπρος, 2480, Κύπρος - Kıbrıs","address":{"city":"Tseri","county":"Δήμος Λακατάμειας","state_district":"Επαρχία Λευκωσίας","ISO3166-2-lvl5":"CY-01","state":"Κύπρος","postcode":"2480","country":"Κύπρος - Kıbrıs","country_code":"cy"},"osm_type":"relation","osm_id":15022679,"type":"administrative","location":[33.334741006016046,35.0658615],"bbox":[33.299273,35.033946,33.3670211,35.097847]}}
{"name":"Ύψωνας","other_names":{"name:el":"Ύψωνας","name:en":"Ypsonas","name:hu":"Ípszonasz","name:tr":"İpsona","name:uk":"Іпсонас","alt_name":"Ipsonas","int_name":"Ypsonas"},"display_name":"Ύψωνας, Δήμος Κουρίου, Επαρχία Λεμεσού, Κύπρος, Κύπρος - Kıbrıs","address":{"town":"Ύψωνας","county":"Δήμος Κουρίου","state_district":"Επαρχία Λεμεσού","ISO3166-2-lvl5":"CY-02","state":"Κύπρος","country":"Κύπρος - Kıbrıs","country_code":"cy"},"population":10916,"osm_type":"node","osm_id":1621752518,"type":"town","location":[32.9631519,34.6903956],"bbox":[32.9231519,34.6503956,33.0031519,34.7303956],"border":{"name":"Ύψωνας","other_names":{"name:en":"Ypsonas Municipality","name:el":"Ύψωνας","name:hu":"Ípszonasz","name:tr":"İpsona","name:uk":"Іпсонас","alt_name":"Ipsonas","int_name":"Ypsonas","alt:en":"Ypsonas"},"display_name":"Ύψωνας, Δήμος Κουρίου, Επαρχία Λεμεσού, Κύπρος, Κύπρος - Kıbrıs","address":{"town":"Ύψωνας","county":"Δήμος Κουρίου","state_district":"Επαρχία Λεμεσού","ISO3166-2-lvl5":"CY-02","state":"Κύπρος","country":"Κύπρος - Kıbrıs","country_code":"cy"},"population":10916,"osm_type":"relation","osm_id":13013878,"type":"administrative","location":[32.9631519,34.6903956],"bbox":[32.9162423,34.6795008,32.9890377,34.7591403]}}
{"name":"Χλώρακας","other_names":{"name:el":"Χλώρακας","name:en":"Chloraka","name:fr":"Chlórakas","name:hu":"Hlórakasz","name:tr":"Hloraka","name:uk":"Хлорака","alt_name":"Χλώρακα","alt_name:en":"Chlorakas"},"display_name":"Χλώρακας, Hlorakas, Επαρχία Πάφου, Κύπρος, 8220, Κύπρος - Kıbrıs","address":{"town":"Χλώρακας","city":"Hlorakas","state_district":"Επαρχία Πάφου","ISO3166-2-lvl5":"CY-05","state":"Κύπρος","postcode":"8220","country":"Κύπρος - Kıbrıs","country_code":"cy"},"population":5356,"osm_type":"node","osm_id":30354208,"type":"town","location":[32.4079198,34.7995901],"bbox":[32.3679198,34.7595901,32.4479198,34.8395901]}
