{"display_name":"Aghbugha, Իջևան համայնք, Տավուշի մարզ, Հայաստան","address":{"hamlet":"Aghbugha","state_district":"Իջևան համայնք","state":"Տավուշի մարզ","ISO3166-2-lvl4":"AM-TV","country":"Հայաստան","country_code":"am"},"osm_type":"node","osm_id":12989307115,"type":"hamlet","location":[44.9836922,40.9173393],"bbox":[44.9636922,40.8973393,45.0036922,40.9373393]}
{"display_name":"Гехик, Մարտունի համայնք, Գեղարքունիքի մարզ, Հայաստան","address":{"hamlet":"Гехик","state_district":"Մարտունի համայնք","state":"Գեղարքունիքի մարզ","ISO3166-2-lvl4":"AM-GR","country":"Հայաստան","country_code":"am"},"osm_type":"node","osm_id":3979732191,"type":"hamlet","location":[45.4345063,40.044698],"bbox":[45.4145063,40.024698,45.4545063,40.064698]}
{"name":"Ագարակ","other_names":{"name:en":"Agarak","name:hy":"Ագարակ","name:ru":"Агарак"},"display_name":"Ագարակ, Կապան համայնք, Սյունիքի մարզ, Հայաստան","address":{"village":"Ագարակ","state_district":"Կապան համայնք","state":"Սյունիքի մարզ","ISO3166-2-lvl4":"AM-SU","country":"Հայաստան","country_code":"am"},"population":168,"osm_type":"way","osm_id":674613410,"type":"hamlet","location":[46.5399695,39.208345],"bbox":[46.536119,39.2025672,46.5500236,39.2133246]}
{"name":"Արավետ","other_names":{"name:en":"Aravet","name:hy":"Արավետ","name:ru":"Аравет"},"display_name":"Արավետ, Ամասիա համայնք, Շիրակի մարզ, Հայաստան","address":{"hamlet":"Արավետ","state_district":"Ամասիա համայնք","state":"Շիրակի մարզ","ISO3166-2-lvl4":"AM-SH","country":"Հայաստան","country_code":"am"},"osm_type":"node","osm_id":5745879856,"type":"hamlet","location":[43.7729698,41.0452216],"bbox":[43.7529698,41.0252216,43.7929698,41.0652216]}
{"name":"Բյուրաշատ","other_names":{"name:en":"Byurashat","name:hy":"Բյուրաշատ","name:ru":"Бюрашат"},"display_name":"Բյուրաշատ, Նորաշեն, Արտաշատ համայնք, Արարատի մարզ, Հայաստան","address":{"hamlet":"Բյուրաշատ","village":"Նորաշեն","state_district":"Արտաշատ համայնք","state":"Արարատի մարզ","ISO3166-2-lvl4":"AM-AR","country":"Հայաստան","country_code":"am"},"osm_type":"node","osm_id":9244027490,"type":"hamlet","location":[44.6356527,40.0352373],"bbox":[44.6156527,40.0152373,44.6556527,40.0552373],"border":{"name":"Բյուրաշատ","other_names":{"name:en":"Byurashat","name:hy":"Բյուրաշատ","name:ru":"Бюрашат"},"display_name":"Բյուրաշատ, Նորաշեն, Արտաշատ համայնք, Արարատի մարզ, Հայաստան","address":{"hamlet":"Բյուրաշատ","village":"Նորաշեն","state_district":"Արտաշատ համայնք","state":"Արարատի մարզ","ISO3166-2-lvl4":"AM-AR","country":"Հայաստան","country_code":"am"},"osm_type":"way","osm_id":1001510381,"type":"hamlet","location":[44.6356527,40.0352373],"bbox":[44.6327148,40.031514,44.6435334,40.0452436]}}
{"name":"Գանձակ","other_names":{"name:en":"Gandzak","name:hy":"Գանձակ","name:ru":"Гандзак"},"display_name":"Գանձակ, Արենի համայնք, Վայոց ձորի մարզ, Հայաստան","address":{"hamlet":"Գանձակ","state_district":"Արենի համայնք","state":"Վայոց ձորի մարզ","ISO3166-2-lvl4":"AM-VD","country":"Հայաստան","country_code":"am"},"osm_type":"node","osm_id":5476191362,"type":"hamlet","location":[45.3203845,39.6822554],"bbox":[45.3003845,39.6622554,45.3403845,39.7022554],"border":{"name":"Գանձակ","other_names":{"name:en":"Gandzak","name:hy":"Գանձակ","name:ru":"Гандзак"},"display_name":"Գանձակ, Արենի համայնք, Վայոց ձորի մարզ, Հայաստան","address":{"hamlet":"Գանձակ","state_district":"Արենի համայնք","state":"Վայոց ձորի մարզ","ISO3166-2-lvl4":"AM-VD","country":"Հայաստան","country_code":"am"},"osm_type":"way","osm_id":1012777963,"type":"hamlet","location":[45.3203845,39.6822554],"bbox":[45.3196253,39.6813529,45.3212131,39.6832326]}}
{"name":"Գեղմահովիտ","other_names":{"name:en":"Geghmahovit","name:hy":"Գեղմահովիտ","name:ru":"Гегмаовит","old_name":"Բայբուրդ","old_name:en":"Bayburd"},"display_name":"Գեղմահովիտ, Արտաշատ համայնք, Արարատի մարզ, 2218, Հայաստան","address":{"hamlet":"Գեղմահովիտ","state_district":"Արտաշատ համայնք","state":"Արարատի մարզ","ISO3166-2-lvl4":"AM-AR","postcode":"2218","country":"Հայաստան","country_code":"am"},"osm_type":"node","osm_id":2007285239,"type":"hamlet","location":[44.7836667,40.0906507],"bbox":[44.7636667,40.0706507,44.8036667,40.1106507]}
{"name":"Գյուղաձոր","other_names":{"name:en":"Gyughadzor","name:hy":"Գյուղաձոր","name:ru":"Гюхадзор"},"display_name":"Գյուղաձոր, Արտաշատ համայնք, Արարատի մարզ, Հայաստան","address":{"hamlet":"Գյուղաձոր","state_district":"Արտաշատ համայնք","state":"Արարատի մարզ","ISO3166-2-lvl4":"AM-AR","country":"Հայաստան","country_code":"am"},"osm_type":"node","osm_id":2007331092,"type":"hamlet","location":[44.8151481,40.0591694],"bbox":[44.7951481,40.0391694,44.8351481,40.0791694]}
{"name":"Գոմարանց","other_names":{"name:en":"Gomarants","name:hy":"Գոմարանց","alt_name":"Old Gyumoran"},"display_name":"Գոմարանց, Մեղրի համայնք, Սյունիքի մարզ, Հայաստան","address":{"hamlet":"Գոմարանց","state_district":"Մեղրի համայնք","state":"Սյունիքի մարզ","ISO3166-2-lvl4":"AM-SU","country":"Հայաստան","country_code":"am"},"osm_type":"node","osm_id":11622416319,"type":"hamlet","location":[46.3749835,38.9951689],"bbox":[46.3549835,38.9751689,46.3949835,39.0151689],"border":{"name":"Գոմարանց","other_names":{"name:en":"Gomarants","name:hy":"Գոմարանց","name:ru":"Гомаранц","alt_name":"Old Gyumoran"},"display_name":"Գոմարանց, Մեղրի համայնք, Սյունիքի մարզ, Հայաստան","address":{"hamlet":"Գոմարանց","state_district":"Մեղրի համայնք","state":"Սյունիքի մարզ","ISO3166-2-lvl4":"AM-SU","country":"Հայաստան","country_code":"am"},"osm_type":"way","osm_id":274232552,"type":"hamlet","location":[46.3749835,38.9951689],"bbox":[46.3739546,38.9937533,46.3764322,38.9959139]}}
{"name":"Գոմշավար","other_names":{"name:en":"Gomshavar","name:hy":"Գոմշավար","name:ru":"Гомшавар"},"display_name":"Գոմշավար, Նոյեմբերյան համայնք, Տավուշի մարզ, Հայաստան","address":{"hamlet":"Գոմշավար","state_district":"Նոյեմբերյան համայնք","state":"Տավուշի մարզ","ISO3166-2-lvl4":"AM-TV","country":"Հայաստան","country_code":"am"},"osm_type":"node","osm_id":8733536939,"type":"hamlet","location":[44.8644537,41.0181344],"bbox":[44.8444537,40.9981344,44.8844537,41.0381344],"border":{"name":"Գոմշավար","other_names":{"name:en":"Gomshavar","name:hy":"Գոմշավար","name:ru":"Гомшавар"},"display_name":"Գոմշավար, Նոյեմբերյան համայնք, Տավուշի մարզ, Հայաստան","address":{"hamlet":"Գոմշավար","state_district":"Նոյեմբերյան համայնք","state":"Տավուշի մարզ","ISO3166-2-lvl4":"AM-TV","country":"Հայաստան","country_code":"am"},"osm_type":"way","osm_id":943195248,"type":"hamlet","location":[44.8644537,41.0181344],"bbox":[44.8604607,41.01607,44.8688288,41.0196965]}}
{"name":"Էլիդջա","other_names":{"name:en":"Elidja","name:hy":"Էլիդջա","name:ru":"Элиджа"},"display_name":"Էլիդջա, Արտաշատ համայնք, Արարատի մարզ, 2218, Հայաստան","address":{"hamlet":"Էլիդջա","state_district":"Արտաշատ համայնք","state":"Արարատի մարզ","ISO3166-2-lvl4":"AM-AR","postcode":"2218","country":"Հայաստան","country_code":"am"},"osm_type":"node","osm_id":8262205546,"type":"hamlet","location":[44.7955446,40.1070106],"bbox":[44.7755446,40.0870106,44.8155446,40.1270106]}
{"name":"Իջևանատուն","other_names":{"name:en":"Ijevanatun","name:hy":"Իջևանատուն","name:ru":"Иджеванатун"},"display_name":"Իջևանատուն, Մարտունի համայնք, Գեղարքունիքի մարզ, Հայաստան","address":{"hamlet":"Իջևանատուն","state_district":"Մարտունի համայնք","state":"Գեղարքունիքի մարզ","ISO3166-2-lvl4":"AM-GR","country":"Հայաստան","country_code":"am"},"osm_type":"node","osm_id":8064908903,"type":"hamlet","location":[45.2470029,40.0379984],"bbox":[45.2270029,40.0179984,45.2670029,40.0579984],"border":{"name":"Իջևանատուն","other_names":{"name:en":"Ijevanatun","name:hy":"Իջևանատուն","name:ru":"Иджеванатун"},"display_name":"Իջևանատուն, Մարտունի համայնք, Գեղարքունիքի մարզ, Հայաստան","address":{"hamlet":"Իջևանատուն","state_district":"Մարտունի համայնք","state":"Գեղարքունիքի մարզ","ISO3166-2-lvl4":"AM-GR","country":"Հայաստան","country_code":"am"},"osm_type":"way","osm_id":360233469,"type":"hamlet","location":[45.2470029,40.0379984],"bbox":[45.2448567,40.035784,45.2495213,40.0398648]}}
{"name":"Լուսաձոր","other_names":{"name:en":"Lusadzor","name:hy":"Լուսաձոր","name:ru":"Лусадзор"},"display_name":"Լուսաձոր, Մարտունի համայնք, Գեղարքունիքի մարզ, Հայաստան","address":{"hamlet":"Լուսաձոր","state_district":"Մարտունի համայնք","state":"Գեղարքունիքի մարզ","ISO3166-2-lvl4":"AM-GR","country":"Հայաստան","country_code":"am"},"osm_type":"node","osm_id":8261997406,"type":"hamlet","location":[45.3089781,40.074427],"bbox":[45.2889781,40.054427,45.3289781,40.094427],"border":{"name":"Լուսաձոր","other_names":{"name:en":"Lusadzor","name:hy":"Լուսաձոր","name:ru":"Лусадзор"},"display_name":"Լուսաձոր, Մարտունի համայնք, Գեղարքունիքի մարզ, Հայաստան","address":{"hamlet":"Լուսաձոր","state_district":"Մարտունի համայնք","state":"Գեղարքունիքի մարզ","ISO3166-2-lvl4":"AM-GR","country":"Հայաստան","country_code":"am"},"osm_type":"way","osm_id":888670419,"type":"hamlet","location":[45.3089781,40.074427],"bbox":[45.2853441,40.069112,45.3196721,40.0835879]}}
{"name":"Խաչաշեն","other_names":{"name:en":"Khachashen","name:hy":"Խաչաշեն","name:ru":"Хачашен"},"display_name":"Խաչաշեն, Փամբակ համայնք, Լոռու մարզ, 2005, Հայաստան","address":{"hamlet":"Խաչաշեն","state_district":"Փամբակ համայնք","state":"Լոռու մարզ","ISO3166-2-lvl4":"AM-LO","postcode":"2005","country":"Հայաստան","country_code":"am"},"osm_type":"node","osm_id":9062858380,"type":"hamlet","location":[44.5121503,40.8232551],"bbox":[44.4921503,40.8032551,44.5321503,40.8432551]}
{"name":"Կաբախլու","other_names":{"name:az":"کاباخلو","name:en":"Kabakhlu","name:fa":"کاباخلو","name:he":"קבאכלו","name:hy":"Կաբախլու","name:ru":"Кабахлу","name:az-Latn":"Kabaxlu"},"display_name":"Կաբախլու, Ծաղկաձոր համայնք, Կոտայքի մարզ, Հայաստան","address":{"hamlet":"Կաբախլու","state_district":"Ծաղկաձոր համայնք","state":"Կոտայքի մարզ","ISO3166-2-lvl4":"AM-KT","country":"Հայաստան","country_code":"am"},"osm_type":"node","osm_id":7993236942,"type":"hamlet","location":[44.5820697,40.5830215],"bbox":[44.5620697,40.5630215,44.6020697,40.6030215],"border":{"name":"Կաբախլու","other_names":{"name:en":"Kabakhlu","name:hy":"Կաբախլու","name:ru":"Кабахлу","name:az":"کاباخلو","name:fa":"کاباخلو","name:he":"קבאכלו","name:az-Latn":"Kabaxlu"},"display_name":"Կաբախլու, Ծաղկաձոր համայնք, Կոտայքի մարզ, Հայաստան","address":{"hamlet":"Կաբախլու","state_district":"Ծաղկաձոր համայնք","state":"Կոտայքի մարզ","ISO3166-2-lvl4":"AM-KT","country":"Հայաստան","country_code":"am"},"osm_type":"way","osm_id":889575302,"type":"hamlet","location":[44.5820697,40.5830215],"bbox":[44.5777402,40.5817626,44.5840407,40.5845769]}}
{"name":"Կալեր","other_names":{"name:hy":"Կալեր","name:ru":"Калер"},"display_name":"Կալեր, Մեղրի համայնք, Սյունիքի մարզ, Հայաստան","address":{"hamlet":"Կալեր","state_district":"Մեղրի համայնք","state":"Սյունիքի մարզ","ISO3166-2-lvl4":"AM-SU","country":"Հայաստան","country_code":"am"},"osm_type":"node","osm_id":3726675318,"type":"hamlet","location":[46.2764001,39.0630227],"bbox":[46.2564001,39.0430227,46.2964001,39.0830227],"border":{"name":"Կալեր","other_names":{"name:hy":"Կալեր","name:ru":"Калер"},"display_name":"Կալեր, Մեղրի համայնք, Սյունիքի մարզ, Հայաստան","address":{"hamlet":"Կալեր","state_district":"Մեղրի համայնք","state":"Սյունիքի մարզ","ISO3166-2-lvl4":"AM-SU","country":"Հայաստան","country_code":"am"},"osm_type":"way","osm_id":368824736,"type":"hamlet","location":[46.2764001,39.0630227],"bbox":[46.2749537,39.0622711,46.2773013,39.0639686]}}
{"name":"Կարմիրգյուղ","other_names":{"name:en":"Karmir Gyugh","name:hy":"Կարմիրգյուղ"},"display_name":"Կարմիրգյուղ, Նոյեմբերյան համայնք, Տավուշի մարզ, Հայաստան","address":{"hamlet":"Կարմիրգյուղ","state_district":"Նոյեմբերյան համայնք","state":"Տավուշի մարզ","ISO3166-2-lvl4":"AM-TV","country":"Հայաստան","country_code":"am"},"osm_type":"node","osm_id":9763499588,"type":"hamlet","location":[44.8105395,40.9991319],"bbox":[44.7905395,40.9791319,44.8305395,41.0191319]}
{"name":"Կոջաքար","other_names":{"name:en":"Kochaqar","name:hy":"Կոջաքար","old_name:en":"Tala"},"display_name":"Կոջաքար, Իջևան համայնք, Տավուշի մարզ, Հայաստան","address":{"hamlet":"Կոջաքար","village":"Կոջաքար","state_district":"Իջևան համայնք","state":"Տավուշի մարզ","ISO3166-2-lvl4":"AM-TV","country":"Հայաստան","country_code":"am"},"osm_type":"node","osm_id":11505557988,"type":"hamlet","location":[45.0102483,40.9031521],"bbox":[44.9902483,40.8831521,45.0302483,40.9231521]}
{"name":"Կորդոն","other_names":{"name:en":"Kordon","name:hy":"Կորդոն","name:ru":"Кордон"},"display_name":"Կորդոն, Մարտունի համայնք, Գեղարքունիքի մարզ, Հայաստան","address":{"hamlet":"Կորդոն","state_district":"Մարտունի համայնք","state":"Գեղարքունիքի մարզ","ISO3166-2-lvl4":"AM-GR","country":"Հայաստան","country_code":"am"},"osm_type":"node","osm_id":8261997407,"type":"hamlet","location":[45.3557474,40.0211226],"bbox":[45.3357474,40.0011226,45.3757474,40.0411226],"border":{"name":"Կորդոն","other_names":{"name:en":"Kordon","name:hy":"Կորդոն","name:ru":"Кордон"},"display_name":"Կորդոն, Մարտունի համայնք, Գեղարքունիքի մարզ, Հայաստան","address":{"hamlet":"Կորդոն","state_district":"Մարտունի համայնք","state":"Գեղարքունիքի մարզ","ISO3166-2-lvl4":"AM-GR","country":"Հայաստան","country_code":"am"},"osm_type":"way","osm_id":213904307,"type":"hamlet","location":[45.3557474,40.0211226],"bbox":[45.3539894,40.0172127,45.3576031,40.0252409]}}
{"name":"Կոփոյ Վար","other_names":{"name:en":"Kopoy Var","name:hy":"Կոփոյ Վար","name:ru":"Копой Вар"},"display_name":"Կոփոյ Վար, Մարտունի համայնք, Գեղարքունիքի մարզ, Հայաստան","address":{"hamlet":"Կոփոյ Վար","state_district":"Մարտունի համայնք","state":"Գեղարքունիքի մարզ","ISO3166-2-lvl4":"AM-GR","country":"Հայաստան","country_code":"am"},"osm_type":"node","osm_id":8261997383,"type":"hamlet","location":[45.3678872,39.9990871],"bbox":[45.3478872,39.9790871,45.3878872,40.0190871],"border":{"name":"Կոփոյ Վար","other_names":{"name:en":"Kopoy Var","name:hy":"Կոփոյ Վար","name:ru":"Копой Вар"},"display_name":"Կոփոյ Վար, Մարտունի համայնք, Գեղարքունիքի մարզ, Հայաստան","address":{"hamlet":"Կոփոյ Վար","state_district":"Մարտունի համայնք","state":"Գեղարքունիքի մարզ","ISO3166-2-lvl4":"AM-GR","country":"Հայաստան","country_code":"am"},"osm_type":"way","osm_id":213904302,"type":"hamlet","location":[45.3678872,39.9990871],"bbox":[45.364776,39.9964878,45.3708824,40.0011155]}}
{"name":"Հովիտ","other_names":{"name:en":"Hovit","name:hy":"Հովիտ","name:ru":"Овит","alt:ru":"Ховит"},"display_name":"Հովիտ, Ախուրյան համայնք, Շիրակի մարզ, Հայաստան","address":{"village":"Հովիտ","state_district":"Ախուրյան համայնք","state":"Շիրակի մարզ","ISO3166-2-lvl4":"AM-SH","country":"Հայաստան","country_code":"am"},"population":562,"osm_type":"way","osm_id":217319669,"type":"hamlet","location":[43.9949778,40.7698258],"bbox":[43.9878597,40.7666509,44.0014681,40.7736582]}
{"name":"Հորբատեղ","other_names":{"name:en":"Horbategh","name:hy":"Հորբատեղ","name:ru":"Орбатех"},"display_name":"Հորբատեղ, Եղեգիս համայնք, Վայոց ձորի մարզ, Հայաստան","address":{"hamlet":"Հորբատեղ","state_district":"Եղեգիս համայնք","state":"Վայոց ձորի մարզ","ISO3166-2-lvl4":"AM-VD","country":"Հայաստան","country_code":"am"},"osm_type":"node","osm_id":10973341911,"type":"hamlet","location":[45.2643773,39.9262717],"bbox":[45.2443773,39.9062717,45.2843773,39.9462717],"border":{"name":"Հորբատեղ","other_names":{"name:en":"Horbategh","name:hy":"Հորբատեղ","name:ru":"Орбатех"},"display_name":"Հորբատեղ, Եղեգիս համայնք, Վայոց ձորի մարզ, Հայաստան","address":{"hamlet":"Հորբատեղ","state_district":"Եղեգիս համայնք","state":"Վայոց ձորի մարզ","ISO3166-2-lvl4":"AM-VD","country":"Հայաստան","country_code":"am"},"osm_type":"way","osm_id":448793044,"type":"hamlet","location":[45.2643773,39.9262717],"bbox":[45.2627985,39.92407,45.2659895,39.9278032]}}
{"name":"Մեծ Այրիդջա","other_names":{"name:en":"Mets Ayridja","name:hy":"Մեծ Այրիդջա","name:ru":"Большая Айреда"},"display_name":"Մեծ Այրիդջա, Մարտունի համայնք, Գեղարքունիքի մարզ, Հայաստան","address":{"hamlet":"Մեծ Այրիդջա","state_district":"Մարտունի համայնք","state":"Գեղարքունիքի մարզ","ISO3166-2-lvl4":"AM-GR","country":"Հայաստան","country_code":"am"},"osm_type":"node","osm_id":5937412336,"type":"hamlet","location":[45.1521134,40.0014022],"bbox":[45.1321134,39.9814022,45.1721134,40.0214022],"border":{"name":"Մեծ Այրիջա","other_names":{"name:en":"Mets Ayridja","name:hy":"Մեծ Այրիջա","name:ru":"Мец Айриджа"},"display_name":"Մեծ Այրիջա, Մարտունի համայնք, Գեղարքունիքի մարզ, Հայաստան","address":{"hamlet":"Մեծ Այրիջա","state_district":"Մարտունի համայնք","state":"Գեղարքունիքի մարզ","ISO3166-2-lvl4":"AM-GR","country":"Հայաստան","country_code":"am"},"osm_type":"way","osm_id":267094399,"type":"hamlet","location":[45.15174304373875,40.0011455],"bbox":[45.1481775,39.9979518,45.1562996,40.0060268]}}
{"name":"Մեծ Գլան","other_names":{"name:en":"Glan","name:hy":"Մեծ Գլան","name:ru":"Глан","old_name":"Գիլանլար","old_name:en":"Gilanlar"},"display_name":"Մեծ Գլան, Արտաշատ համայնք, Արարատի մարզ, Հայաստան","address":{"hamlet":"Մեծ Գլան","state_district":"Արտաշատ համայնք","state":"Արարատի մարզ","ISO3166-2-lvl4":"AM-AR","country":"Հայաստան","country_code":"am"},"osm_type":"node","osm_id":5798073601,"type":"hamlet","location":[44.8108613,40.0972704],"bbox":[44.7908613,40.0772704,44.8308613,40.1172704]}
{"display_name":"Նոյեմբերյան համայնք, Տավուշի մարզ, Հայաստան","address":{"state_district":"Նոյեմբերյան համայնք","state":"Տավուշի մարզ","ISO3166-2-lvl4":"AM-TV","country":"Հայաստան","country_code":"am"},"osm_type":"way","osm_id":353011269,"type":"hamlet","location":[44.81047868265692,40.99881815],"bbox":[44.8064217,40.9962233,44.8160112,41.0015934]}
{"name":"Շողերավան","other_names":{"name:en":"Shogheravan","name:hy":"Շողերավան","name:ru":"Шохераван"},"display_name":"Շողերավան, Վարդենիս համայնք, Գեղարքունիքի մարզ, Հայաստան","address":{"hamlet":"Շողերավան","state_district":"Վարդենիս համայնք","state":"Գեղարքունիքի մարզ","ISO3166-2-lvl4":"AM-GR","country":"Հայաստան","country_code":"am"},"osm_type":"node","osm_id":8012071589,"type":"hamlet","location":[45.8649417,40.0609643],"bbox":[45.8449417,40.0409643,45.8849417,40.0809643],"border":{"name":"Շողերավան","other_names":{"name:en":"Shogheravan","name:hy":"Շողերավան","name:ru":"Шохераван"},"display_name":"Շողերավան, Վարդենիս համայնք, Գեղարքունիքի մարզ, Հայաստան","address":{"hamlet":"Շողերավան","state_district":"Վարդենիս համայնք","state":"Գեղարքունիքի մարզ","ISO3166-2-lvl4":"AM-GR","country":"Հայաստան","country_code":"am"},"osm_type":"way","osm_id":449114961,"type":"hamlet","location":[45.8649417,40.0609643],"bbox":[45.8617401,40.0572493,45.869143,40.0630549]}}
{"name":"Շրամսկ","other_names":{"name:en":"Shramsk","name:hy":"Շրամսկ","name:ru":"Шрамск"},"display_name":"Շրամսկ, Մարտունի համայնք, Գեղարքունիքի մարզ, Հայաստան","address":{"hamlet":"Շրամսկ","state_district":"Մարտունի համայնք","state":"Գեղարքունիքի մարզ","ISO3166-2-lvl4":"AM-GR","country":"Հայաստան","country_code":"am"},"osm_type":"node","osm_id":3979732260,"type":"hamlet","location":[45.410441,40.0531454],"bbox":[45.390441,40.0331454,45.430441,40.0731454],"border":{"name":"Շրամսկ","other_names":{"name:en":"Shramsk","name:hy":"Շրամսկ","name:ru":"Шрамск"},"display_name":"Շրամսկ, Մարտունի համայնք, Գեղարքունիքի մարզ, Հայաստան","address":{"hamlet":"Շրամսկ","state_district":"Մարտունի համայնք","state":"Գեղարքունիքի մարզ","ISO3166-2-lvl4":"AM-GR","country":"Հայաստան","country_code":"am"},"osm_type":"way","osm_id":395088963,"type":"hamlet","location":[45.410441,40.0531454],"bbox":[45.4078306,40.0518581,45.4141075,40.0539471]}}
{"name":"Ուրցաշեն","other_names":{"name:en":"Urtsashen","name:hy":"Ուրցաշեն","name:ru":"Урцашен"},"display_name":"Ուրցաշեն, Վեդի համայնք, Արարատի մարզ, Հայաստան","address":{"hamlet":"Ուրցաշեն","state_district":"Վեդի համայնք","state":"Արարատի մարզ","ISO3166-2-lvl4":"AM-AR","country":"Հայաստան","country_code":"am"},"osm_type":"node","osm_id":8768679402,"type":"hamlet","location":[44.8714701,39.9446708],"bbox":[44.8514701,39.9246708,44.8914701,39.9646708],"border":{"name":"Ուրցաշեն","other_names":{"name:en":"Urtsashen","name:hy":"Ուրցաշեն","name:ru":"Урцашен"},"display_name":"Ուրցաշեն, Վեդի համայնք, Արարատի մարզ, Հայաստան","address":{"hamlet":"Ուրցաշեն","state_district":"Վեդի համայնք","state":"Արարատի մարզ","ISO3166-2-lvl4":"AM-AR","country":"Հայաստան","country_code":"am"},"osm_type":"way","osm_id":916316970,"type":"hamlet","location":[44.8714701,39.9446708],"bbox":[44.8706428,39.9424137,44.8736898,39.9461809]}}
{"name":"Պաղակն","other_names":{"name:en":"Paghakn","name:hy":"Պաղակն","name:ru":"Пахакн"},"display_name":"Պաղակն, Պաղական, Իջևան համայնք, Տավուշի մարզ, Հայաստան","address":{"hamlet":"Պաղակն","village":"Պաղական","state_district":"Իջևան համայնք","state":"Տավուշի մարզ","ISO3166-2-lvl4":"AM-TV","country":"Հայաստան","country_code":"am"},"osm_type":"node","osm_id":8733536925,"type":"hamlet","location":[44.8806636,40.9494853],"bbox":[44.8606636,40.9294853,44.9006636,40.9694853]}
{"name":"Սառնաղբյուր","other_names":{"name:en":"Sarnaghbyur","name:hy":"Սառնաղբյուր","name:ru":"Сарнахбюр"},"display_name":"Սառնաղբյուր, Մարտունի համայնք, Գեղարքունիքի մարզ, Հայաստան","address":{"hamlet":"Սառնաղբյուր","state_district":"Մարտունի համայնք","state":"Գեղարքունիքի մարզ","ISO3166-2-lvl4":"AM-GR","country":"Հայաստան","country_code":"am"},"osm_type":"node","osm_id":5937396859,"type":"hamlet","location":[45.1440701,40.0625226],"bbox":[45.1240701,40.0425226,45.1640701,40.0825226],"border":{"name":"Սառնաղբյուր","other_names":{"name:en":"Sarnaghbyur","name:hy":"Սառնաղբյուր","name:ru":"Сарнахбюр"},"display_name":"Սառնաղբյուր, Մարտունի համայնք, Գեղարքունիքի մարզ, Հայաստան","address":{"hamlet":"Սառնաղբյուր","state_district":"Մարտունի համայնք","state":"Գեղարքունիքի մարզ","ISO3166-2-lvl4":"AM-GR","country":"Հայաստան","country_code":"am"},"osm_type":"way","osm_id":213881663,"type":"hamlet","location":[45.1440701,40.0625226],"bbox":[45.1411185,40.0597761,45.1497923,40.0653709]}}
{"name":"Ստորոտ","other_names":{"name:en":"Storot","name:hy":"Ստորոտ","alt_name:en":"Navcha","alt_name:hy":"Նավչա","alt_name:ru":"Нафча"},"display_name":"Ստորոտ, Կապան համայնք, Սյունիքի մարզ, Հայաստան","address":{"hamlet":"Ստորոտ","state_district":"Կապան համայնք","state":"Սյունիքի մարզ","ISO3166-2-lvl4":"AM-SU","country":"Հայաստան","country_code":"am"},"osm_type":"node","osm_id":3728684798,"type":"hamlet","location":[46.3686385,39.141301],"bbox":[46.3486385,39.121301,46.3886385,39.161301]}
{"name":"Վաղատուր","other_names":{"name:en":"Vaghatur","name:hy":"Վաղատուր","name:ru":"Вагатур"},"display_name":"Վաղատուր, Տեղ համայնք, Սյունիքի մարզ, Հայաստան","address":{"village":"Վաղատուր","state_district":"Տեղ համայնք","state":"Սյունիքի մարզ","ISO3166-2-lvl4":"AM-SU","country":"Հայաստան","country_code":"am"},"population":408,"osm_type":"way","osm_id":498222010,"type":"hamlet","location":[46.3593589,39.6060768],"bbox":[46.3473487,39.6025636,46.3729048,39.6096227]}
{"name":"Վանք","other_names":{"name:en":"Vank","name:hy":"Վանք","name:ru":"Ванк"},"display_name":"Վանք, Մեղրի համայնք, Սյունիքի մարզ, Հայաստան","address":{"hamlet":"Վանք","state_district":"Մեղրի համայնք","state":"Սյունիքի մարզ","ISO3166-2-lvl4":"AM-SU","country":"Հայաստան","country_code":"am"},"osm_type":"node","osm_id":928517004,"type":"hamlet","location":[46.25106,39.048146],"bbox":[46.23106,39.028146,46.27106,39.068146],"border":{"name":"Վանք","other_names":{"name:en":"Vank","name:hy":"Վանք","name:ru":"Ванк"},"display_name":"Վանք, Մեղրի համայնք, Սյունիքի մարզ, Հայաստան","address":{"hamlet":"Վանք","state_district":"Մեղրի համայնք","state":"Սյունիքի մարզ","ISO3166-2-lvl4":"AM-SU","country":"Հայաստան","country_code":"am"},"osm_type":"way","osm_id":369163989,"type":"hamlet","location":[46.25106,39.048146],"bbox":[46.2494016,39.0471236,46.2546441,39.0511048]}}
{"name":"Վարդավան","other_names":{"name:en":"Vardavan","name:hy":"Վարդավան","name:ru":"Вардаван"},"display_name":"Վարդավան, Մարտունի համայնք, Գեղարքունիքի մարզ, Հայաստան","address":{"hamlet":"Վարդավան","state_district":"Մարտունի համայնք","state":"Գեղարքունիքի մարզ","ISO3166-2-lvl4":"AM-GR","country":"Հայաստան","country_code":"am"},"osm_type":"node","osm_id":2235177591,"type":"hamlet","location":[45.2376511,40.0446667],"bbox":[45.2176511,40.0246667,45.2576511,40.0646667],"border":{"name":"Վարդավան","other_names":{"name:en":"Vardavan","name:hy":"Վարդավան","name:ru":"Вардаван"},"display_name":"Վարդավան, Մարտունի համայնք, Գեղարքունիքի մարզ, Հայաստան","address":{"hamlet":"Վարդավան","state_district":"Մարտունի համայնք","state":"Գեղարքունիքի մարզ","ISO3166-2-lvl4":"AM-GR","country":"Հայաստան","country_code":"am"},"osm_type":"way","osm_id":360233415,"type":"hamlet","location":[45.2376511,40.0446667],"bbox":[45.2339196,40.0405285,45.2396205,40.0479826]}}
{"name":"Ցենտրի Մայլա","display_name":"Ցենտրի Մայլա, Փանիկ, Արթիկ համայնք, Շիրակի մարզ, Հայաստան","address":{"hamlet":"Ցենտրի Մայլա","village":"Փանիկ","state_district":"Արթիկ համայնք","state":"Շիրակի մարզ","ISO3166-2-lvl4":"AM-SH","country":"Հայաստան","country_code":"am"},"osm_type":"way","osm_id":1271564517,"type":"hamlet","location":[43.97025440753482,40.664633300000006],"bbox":[43.9672098,40.662331,43.9775814,40.6669261]}
{"name":"Փոքր Շեն","other_names":{"name:en":"Poqr Shen","name:hy":"Փոքր Շեն","name:ru":"Покр Шен"},"display_name":"Փոքր Շեն, Արտաշատ համայնք, Արարատի մարզ, Հայաստան","address":{"hamlet":"Փոքր Շեն","state_district":"Արտաշատ համայնք","state":"Արարատի մարզ","ISO3166-2-lvl4":"AM-AR","country":"Հայաստան","country_code":"am"},"osm_type":"node","osm_id":8380792406,"type":"hamlet","location":[44.8348544,40.0694352],"bbox":[44.8148544,40.0494352,44.8548544,40.0894352]}
{"name":"Քարաձի","other_names":{"name:en":"Karadzi","name:hy":"Քարաձի","name:ru":"Карадзи"},"display_name":"Քարաձի, Մարտունի համայնք, Գեղարքունիքի մարզ, Հայաստան","address":{"hamlet":"Քարաձի","state_district":"Մարտունի համայնք","state":"Գեղարքունիքի մարզ","ISO3166-2-lvl4":"AM-GR","country":"Հայաստան","country_code":"am"},"osm_type":"node","osm_id":5937403080,"type":"hamlet","location":[45.1845139,40.0305455],"bbox":[45.1645139,40.0105455,45.2045139,40.0505455],"border":{"name":"Քարաձի","other_names":{"name:en":"Karadzi","name:hy":"Քարաձի","name:ru":"Карадзи"},"display_name":"Քարաձի, Մարտունի համայնք, Գեղարքունիքի մարզ, Հայաստան","address":{"hamlet":"Քարաձի","state_district":"Մարտունի համայնք","state":"Գեղարքունիքի մարզ","ISO3166-2-lvl4":"AM-GR","country":"Հայաստան","country_code":"am"},"osm_type":"way","osm_id":213881680,"type":"hamlet","location":[45.1845139,40.0305455],"bbox":[45.1803805,40.0283103,45.1893175,40.0332827]}}
{"name":"Օկոն","other_names":{"name:en":"Okon","name:hy":"Օկոն","old_name:en":"Tala"},"display_name":"Օկոն, Իջևան համայնք, Տավուշի մարզ, Հայաստան","address":{"hamlet":"Օկոն","state_district":"Իջևան համայնք","state":"Տավուշի մարզ","ISO3166-2-lvl4":"AM-TV","country":"Հայաստան","country_code":"am"},"osm_type":"node","osm_id":8114532507,"type":"hamlet","location":[45.0170481,40.8885846],"bbox":[44.9970481,40.8685846,45.0370481,40.9085846]}
