{"name":"Գյումրի","other_names":{"name:af":"Gjoemri","name:ar":"غيومري","name:av":"Комур","name:az":"Gümrü","name:be":"Гюмры","name:bg":"Гюмри","name:ca":"Gyumri","name:ce":"Гюмри","name:cs":"Gjumri","name:cv":"Гюмри","name:da":"Gjumri","name:de":"Gjumri","name:el":"Γκιούμρι","name:en":"Gyumri","name:eo":"Gjumri","name:es":"Guiumri","name:et":"Gjumri","name:eu":"Giumri","name:fa":"گیومری","name:fi":"Gjumri","name:fr":"Gyumri","name:fy":"Gjûmri","name:he":"גיומרי","name:hr":"Gjumri","name:hu":"Gjumri","name:hy":"Գյումրի","name:ia":"Gyumri","name:id":"Gyumri","name:it":"Gyumri","name:ja":"ギュムリ","name:ka":"გიუმრი","name:ko":"귬리","name:ku":"Gumrî","name:ky":"Ленинакан","name:la":"Alexandropolis","name:lt":"Giumris","name:lv":"Gjumri","name:ml":"ഗ്യൂംറി","name:mn":"Гюмри","name:ms":"Gyumri","name:nb":"Kumajri","name:nl":"Gjoemri","name:nn":"Gjumri","name:os":"Гюмри","name:pa":"ਗਯੁਮਰੀ","name:pl":"Giumri","name:pt":"Guiumri","name:ro":"Ghiumri","name:ru":"Гюмри","name:sl":"Gjumri","name:sr":"Гјумри","name:sv":"Gjumri","name:sw":"Gyumri","name:th":"กยูมรี","name:tr":"Gümrü","name:tt":"Гөмре","name:uk":"Ґюмрі","name:ur":"گیومری","name:uz":"Gyumri","name:vi":"Gyumri","name:zh":"久姆里","int_name":"Gyumri","name:ckb":"گیومری","alt_name:es":"Gyumri","old_name:ru":"Кумайри;Александрополь;Ленинакан"},"display_name":"Գյումրի, Գյումրի-Ախուրյան սահման, Շիրակի մարզ, Հայաստան","address":{"city":"Գյումրի","state":"Շիրակի մարզ","ISO3166-2-lvl4":"AM-SH","country":"Հայաստան","country_code":"am"},"population":111138,"osm_type":"node","osm_id":130037434,"type":"city","location":[43.8416095,40.7852085],"bbox":[43.6816095,40.6252085,44.0016095,40.9452085]}
{"name":"Երևան","other_names":{"name:ab":"Ереван","name:af":"Jerewan","name:am":"ዬሬቫን","name:an":"Erevan","name:ar":"يريفان","name:av":"Ереван","name:az":"İrəvan","name:ba":"Ереван","name:be":"Ерэван","name:bg":"Ереван","name:bn":"ইয়েরেভান","name:bo":"ཡེ་རེ་ཝན།","name:br":"Yerevan","name:bs":"Erevan","name:ca":"Erevan","name:ce":"Ереван","name:cs":"Jerevan","name:cv":"Ереван","name:cy":"Yerevan","name:da":"Jerevan","name:de":"Eriwan","name:el":"Γιερεβάν","name:en":"Yerevan","name:eo":"Erevano","name:es":"Ereván","name:et":"Jerevan","name:eu":"Erevan","name:fa":"ایروان","name:ff":"Yerevan","name:fi":"Jerevan","name:fo":"Jerevan","name:fr":"Erevan","name:fy":"Jerevan","name:ga":"Eireaván","name:gd":"Yerevan","name:gl":"Iereván - Երևան","name:gv":"Yerevan","name:ha":"Yerevan","name:he":"ירוואן","name:hi":"येरवान","name:hr":"Erevan","name:ht":"Erevàn","name:hu":"Jereván","name:hy":"Երևան","name:ia":"Yerevan","name:id":"Yerevan","name:ie":"Jerevan","name:io":"Yerevan","name:is":"Jerevan","name:it":"Yerevan","name:ja":"エレバン","name:jv":"Yerevan","name:ka":"ერევანი","name:kk":"Ереван","name:kn":"ಯೆರೆವಾನ್","name:ko":"예레반","name:ku":"Yêrêvan","name:kv":"Ереван","name:ky":"Ереван","name:la":"Erevanum","name:lb":"Eriwan","name:li":"Jerevan","name:lt":"Jerevanas","name:lv":"Erevāna","name:mg":"Yerevan","name:mi":"Yerevan","name:mk":"Ереван","name:ml":"യെറിവാൻ","name:mn":"Ереван","name:mr":"येरेव्हान","name:ms":"Yerevan","name:mt":"Yerevan","name:nb":"Jerevan","name:ne":"येरवान प्रान्त","name:nl":"Jerevan","name:nn":"Jerevan","name:no":"Jerevan","name:nv":"Hókʼą́ą́sʼání","name:ny":"Yerevan","name:oc":"Erevan","name:os":"Ереван","name:pa":"ਯੇਰਵਾਨ","name:pl":"Erywań","name:pt":"Erevan","name:qu":"Yiriwan","name:ro":"Erevan","name:ru":"Ереван","name:rw":"Yerevan","name:sa":"येरेवान","name:sc":"Erevan","name:sd":"يريوان","name:sh":"Erevan","name:sk":"Jerevan","name:sl":"Erevan","name:sn":"Yerevan","name:sq":"Jerevani","name:sr":"Јереван","name:su":"Yérévan","name:sv":"Jerevan","name:sw":"Yerevan","name:ta":"யெரெவான்","name:te":"యెరెవాన్","name:tg":"Ереван","name:th":"เยเรวาน","name:tk":"Ýerewan","name:tl":"Yerevan","name:tr":"Erivan","name:tt":"Ереван","name:tw":"Eεrεwan","name:ug":"يېرېۋان","name:uk":"Єреван","name:ur":"یریوان","name:uz":"Yerevan","name:vi":"Yerevan","name:vo":"Yerevan","name:yi":"יערעוואן","name:yo":"Yerevan","name:zh":"埃里溫","int_name":"Yerevan","name:ckb":"یەریڤان","name:diq":"Yerêvan","name:frp":"Yèrèvan","name:gag":"Erivan","name:hsb":"Jerjewan","name:ilo":"Yerevan","name:kab":"Erevan","name:lad":"Djerevan","name:lez":"Ереван","name:lij":"Erevan","name:lmo":"Erevan","name:mdf":"Ереван","name:mhr":"Ереван","name:myv":"Ереван","name:mzn":"ایروان","name:nah":"Erevan","name:nov":"Yerevan","name:pms":"Erevan","name:pnb":"یریوان","name:sah":"Ереван","name:scn":"Erevan","name:sco":"Yerevan","name:udm":"Ереван","name:vec":"Èrevan","name:vep":"Jerevan","name:vro":"Jerevan","name:war":"Yerevan","name:xmf":"ერევანი","name:zea":"Jerevan","alt_name:vi":"Erevan","name:simple":"Yerevan","name:be-tarask":"Ерэван"},"display_name":"Երևան, Հայաստան","address":{"city":"Երևան","ISO3166-2-lvl4":"AM-ER","country":"Հայաստան","country_code":"am"},"population":1129300,"osm_type":"node","osm_id":130040361,"type":"city","location":[44.5126233,40.1777112],"bbox":[44.3526233,40.0177112,44.6726233,40.3377112],"border":{"name":"Երևան","other_names":{"name:ab":"Ереван","name:af":"Jerewan","name:ak":"Erevan","name:am":"ዬሬቫን","name:an":"Erevan","name:ar":"يريفان","name:av":"Ереван","name:az":"İrəvan","name:ba":"Ереван","name:be":"Ерэван","name:bg":"Ереван","name:bn":"ইয়েরেভান","name:bo":"ཡེ་རེ་ཝན།","name:br":"Yerevan","name:bs":"Erevan","name:ca":"Erevan","name:ce":"Ереван","name:cs":"Jerevan","name:cv":"Ереван","name:cy":"Yerevan","name:da":"Jerevan","name:de":"Jerewan","name:el":"Γιερεβάν","name:en":"Yerevan","name:eo":"Erevano","name:es":"Ereván","name:et":"Jerevan","name:eu":"Erevan","name:fa":"ایروان","name:ff":"Yerevan","name:fi":"Jerevan","name:fr":"Erevan","name:fy":"Jerevan","name:ga":"Eireaván","name:gd":"Yerevan","name:gl":"Iereván - Երեվան","name:gv":"Yerevan","name:he":"ירוואן","name:hi":"येरवान","name:hr":"Erevan","name:ht":"Erevàn","name:hu":"Jereván","name:hy":"Երևան","name:ia":"Yerevan","name:id":"Yerevan","name:ie":"Jerevan","name:io":"Yerevan","name:is":"Jerevan","name:it":"Yerevan","name:ja":"エレバン","name:jv":"Yerevan","name:ka":"ერევანი","name:kk":"Ереван","name:kn":"ಯೆರೆವಾನ್","name:ko":"예레반","name:ku":"Êrîvan","name:kv":"Ереван","name:ky":"Ереван","name:la":"Erevanum","name:lb":"Eriwan","name:li":"Jerevan","name:lt":"Jerevanas","name:lv":"Erevāna","name:mg":"Yerevan","name:mi":"Yerevan","name:mk":"Ереван","name:ml":"യെറിവാൻ","name:mn":"Ереван","name:mr":"येरेव्हान","name:ms":"Yerevan","name:ne":"येरवान प्रान्त","name:nl":"Jerevan","name:nn":"Jerevan","name:no":"Jerevan","name:ny":"Yerevan","name:oc":"Erevan","name:os":"Ереван","name:pa":"ਯੇਰਵਾਨ","name:pl":"Erywań","name:pt":"Erevan","name:qu":"Yiriwan","name:ro":"Erevan","name:ru":"Ереван","name:rw":"Yerevan","name:sa":"येरेवान","name:sc":"Erevan","name:sd":"يريوان","name:sh":"Erevan","name:sk":"Jerevan","name:sl":"Erevan","name:sn":"Yerevan","name:sq":"Jerevani","name:sr":"Јереван","name:su":"Yérévan","name:sv":"Jerevan","name:sw":"Yerevan","name:ta":"யெரெவான்","name:te":"యెరెవాన్","name:tg":"Ереван","name:th":"เยเรวาน","name:tk":"Ýerewan","name:tl":"Yerevan","name:tr":"Erivan","name:tt":"Ереван","name:tw":"Eεrεwan","name:ug":"يېرېۋان","name:uk":"Єреван","name:ur":"یریوان","name:uz":"Yerevan","name:vi":"Yerevan","name:vo":"Yerevan","name:yi":"יערעוואן","name:yo":"Yerevan","name:zh":"葉里溫","int_name":"Yerevan","name:ady":"Ереван","name:arz":"يريفيان","name:ast":"Yereván","name:avk":"Yerevan","name:awa":"येरेवन","name:azb":"ایروان","name:ban":"Yerevan","name:bcl":"Yerevan","name:bxr":"Ереван","name:cdo":"Yerevan","name:ceb":"Yerevan","name:ckb":"یەریڤان","name:crh":"Yerevan","name:diq":"Yerêvan","name:frp":"Yèrèvan","name:gag":"Erivan","name:haw":"Helewan","name:hif":"Yerevan","name:hsb":"Jerjewan","name:hyw":"Երեւան","name:ilo":"Yerevan","name:kaa":"Erevan","name:kab":"Erevan","name:lad":"Djerevan","name:lez":"Ереван","name:lij":"Erevan","name:lmo":"Erevan","name:lzh":"埃里溫","name:mdf":"Ереван ошсь","name:mhr":"Ереван","name:mni":"ꯌꯦꯔꯦꯚꯥꯟ","name:myv":"Ереван ош","name:mzn":"ایروان","name:nah":"Erevan","name:nan":"Yerevan","name:nov":"Yerevan","name:pap":"Yerevan","name:pih":"Yerevan","name:pms":"Erevan","name:pnb":"یریوان","name:sah":"Ереван","name:sat":"ᱭᱮᱨᱮᱵᱷᱟᱱ","name:scn":"Erevan","name:sco":"Yerevan","name:szl":"Erywań","name:udm":"Ереван","name:vec":"Èrevan","name:vep":"Jerevan","name:vls":"Yerevan","name:vro":"Jerevan","name:war":"Yerevan","name:wuu":"埃里温","name:xmf":"ერევანი","name:yue":"埃里溫","name:zea":"Jerevan","ISO3166-2":"AM-ER","name:simple":"Yerevan","name:bat-smg":"Jerevans","name:fo":"Jerevan","name:ha":"Yerevan","name:mt":"Yerevan","name:nb":"Jerevan","name:nv":"Hókʼą́ą́sʼání","name:be-tarask":"Ерэван","alt_name:vi":"Erevan","alt:de":"Eriwan","alt:gl":"Iereván - Երևան","alt:ku":"Yêrêvan","alt:zh":"埃里溫","alt:mdf":"Ереван","alt:myv":"Ереван"},"display_name":"Երևան, Հայաստան","address":{"city":"Երևան","ISO3166-2-lvl4":"AM-ER","country":"Հայաստան","country_code":"am"},"population":1129300,"osm_type":"relation","osm_id":364087,"type":"administrative","location":[44.5126233,40.1777112],"bbox":[44.362107,40.0658518,44.6217689,40.2417737]}}
{"name":"Վանաձոր","other_names":{"name:de":"Wanadsor","name:el":"Βανατζόρ","name:en":"Vanadzor","name:fr":"Vanadzor","name:hr":"Vanadzor","name:hy":"Վանաձոր","name:it":"Vanadzor","name:ja":"ヴァナゾル","name:ka":"ვანაძორი","name:ml":"വനാഡ്സോർ","name:ru":"Ванадзор","name:tr":"Karakilise","name:uk":"Ванадзор","int_name":"Vanadzor","name:ckb":"ڤانادزۆر","old_name":"Gharakilisa, Kirovakan","old_name:ru":"Караклис;Каракилисе;Кировакан"},"display_name":"Վանաձոր, Վանաձոր համայնք, Լոռու մարզ, Հայաստան","address":{"city":"Վանաձոր","state_district":"Վանաձոր համայնք","state":"Լոռու մարզ","ISO3166-2-lvl4":"AM-LO","country":"Հայաստան","country_code":"am"},"population":76220,"osm_type":"node","osm_id":208853190,"type":"city","location":[44.4851821,40.8112384],"bbox":[44.3251821,40.6512384,44.6451821,40.9712384],"border":[{"name":"Վանաձոր","other_names":{"name:en":"Vanadzor","name:hy":"Վանաձոր","name:ru":"Ванадзор","name:de":"Wanadsor","name:el":"Βανατζόρ","name:fr":"Vanadzor","name:hr":"Vanadzor","name:it":"Vanadzor","name:ja":"ヴァナゾル","name:ka":"ვანაძორი","name:ml":"വനാഡ്സോർ","name:tr":"Karakilise","name:uk":"Ванадзор","int_name":"Vanadzor","name:ckb":"ڤانادزۆر","old_name":"Gharakilisa, Kirovakan","old_name:ru":"Караклис;Каракилисе;Кировакан"},"display_name":"Վանաձոր, Վանաձոր համայնք, Լոռու մարզ, Հայաստան","address":{"city":"Վանաձոր","state_district":"Վանաձոր համայնք","state":"Լոռու մարզ","ISO3166-2-lvl4":"AM-LO","country":"Հայաստան","country_code":"am"},"population":76220,"osm_type":"way","osm_id":75526658,"type":"administrative","location":[44.4851821,40.8112384],"bbox":[44.4199857,40.7783561,44.5538541,40.8487868]},{"name":"Վանաձոր","other_names":{"name:de":"Wanadsor","name:en":"Vanadzor","name:fr":"Vanadzor","name:hy":"Վանաձոր","name:it":"Vanadzor","name:ka":"ვანაძორი","name:ko":"바나조르","name:lt":"Vanadzoras","name:ru":"Ванадзор","name:tr":"Vanadzor","old_name":"Gharakilisa;Kirovakan","old_name:ru":"Караклис;Каракилисе;Кировакан","name:el":"Βανατζόρ","name:hr":"Vanadzor","name:ja":"ヴァナゾル","name:ml":"വനാഡ്സോർ","name:uk":"Ванадзор","int_name":"Vanadzor","name:ckb":"ڤانادزۆر","_place_old_name":"Gharakilisa, Kirovakan","alt:tr":"Karakilise"},"display_name":"Վանաձոր, Վանաձոր համայնք, Լոռու մարզ, Հայաստան","address":{"city":"Վանաձոր","state_district":"Վանաձոր համայնք","state":"Լոռու մարզ","ISO3166-2-lvl4":"AM-LO","country":"Հայաստան","country_code":"am"},"population":82200,"osm_type":"relation","osm_id":7825883,"type":"administrative","location":[44.4851821,40.8112384],"bbox":[44.4199857,40.7783561,44.5538541,40.8487868]}]}
