{"name":"Աբովյան","other_names":{"name:el":"Αμποβιάν","name:en":"Abovyan","name:hy":"Աբովյան","name:ka":"აბოვიანი","name:ku":"Abovyan","name:lt":"Abovianas","name:ml":"അബോവ്യാൻ","name:ro":"Abovyan","name:ru":"Абовян","name:ckb":"ئابۆڤیان","nat_name":"Աբովյան"},"display_name":"Աբովյան, Աբովյան համայնք, Կոտայքի մարզ, Հայաստան","address":{"town":"Աբովյան","state_district":"Աբովյան համայնք","state":"Կոտայքի մարզ","ISO3166-2-lvl4":"AM-KT","country":"Հայաստան","country_code":"am"},"population":45025,"osm_type":"node","osm_id":210098272,"type":"town","location":[44.6333951,40.2714761],"bbox":[44.5933951,40.2314761,44.6733951,40.3114761],"border":[{"name":"Աբովյան","other_names":{"name:en":"Abovyan","name:hy":"Աբովյան","name:ru":"Абовян"},"display_name":"Աբովյան, Աբովյան համայնք, Կոտայքի մարզ, Հայաստան","address":{"town":"Աբովյան","state_district":"Աբովյան համայնք","state":"Կոտայքի մարզ","ISO3166-2-lvl4":"AM-KT","country":"Հայաստան","country_code":"am"},"osm_type":"way","osm_id":1005778222,"type":"town","location":[44.633642317265554,40.2762142],"bbox":[44.6109936,40.2548003,44.6542185,40.3004042]},{"name":"Աբովյան","other_names":{"name:ar":"أبوفيان (أرارات)","name:bg":"Абовян","name:de":"Abowjan","name:en":"Abovyan","name:eo":"Abovjan","name:es":"Abovyan","name:fa":"آبوویان","name:fr":"Abovyan","name:hr":"Abovjan","name:hy":"Աբովյան","name:id":"Abovyan","name:it":"Abovyan","name:ka":"აბოვიანი","name:ko":"아보비안","name:lt":"Abovianas","name:ms":"Abovyan","name:nl":"Abovjan (Kotajk)","name:pl":"Abowian","name:pt":"Abovyan","name:ro":"Abovian","name:ru":"Абовян","name:sr":"Абовјан","name:sw":"Abovyan","name:tr":"Abovyan","name:uk":"Абовян (місто)","name:vi":"Abovyan","name:zh":"阿博維揚 (亞美尼亞)","name:el":"Αμποβιάν","name:ku":"Abovyan","name:ml":"അബോവ്യാൻ","name:ckb":"ئابۆڤیان","nat_name":"Աբովյան","alt:ro":"Abovyan"},"display_name":"Աբովյան, Աբովյան համայնք, Կոտայքի մարզ, Հայաստան","address":{"town":"Աբովյան","state_district":"Աբովյան համայնք","state":"Կոտայքի մարզ","ISO3166-2-lvl4":"AM-KT","country":"Հայաստան","country_code":"am"},"population":60000,"osm_type":"relation","osm_id":7846009,"type":"administrative","location":[44.6333951,40.2714761],"bbox":[44.6086929,40.2506536,44.656952,40.300497]}]}
{"name":"Ագարակ","other_names":{"name:de":"Agarak","name:en":"Agarak","name:fa":"آگاراک","name:hr":"Agarak","name:hy":"Ագարակ","name:ja":"アガラク","name:ku":"Agarak","name:ml":"ആഗാറാക്ക്","name:ro":"Agarak","name:ru":"Агарак","name:sr":"Агарак","name:ckb":"ئاگاراک","nat_name":"Ագարակ"},"display_name":"Ագարակ, Մեղրի համայնք, Սյունիքի մարզ, 3403, Հայաստան","address":{"town":"Ագարակ","state_district":"Մեղրի համայնք","state":"Սյունիքի մարզ","ISO3166-2-lvl4":"AM-SU","postcode":"3403","country":"Հայաստան","country_code":"am"},"population":3952,"osm_type":"node","osm_id":210260007,"type":"town","location":[46.195697,38.8654085],"bbox":[46.155697,38.8254085,46.235697,38.9054085]}
{"display_name":"Ալավերդի համայնք, Լոռու մարզ, Հայաստան","address":{"state_district":"Ալավերդի համայնք","state":"Լոռու մարզ","ISO3166-2-lvl4":"AM-LO","country":"Հայաստան","country_code":"am"},"osm_type":"way","osm_id":1312728827,"type":"town","location":[44.77812000565882,41.150057700000005],"bbox":[44.7596922,41.1404673,44.803223,41.160493]}
{"name":"Ալավերդի","other_names":{"name:el":"Αλαβερντί","name:en":"Alaverdi","name:hy":"Ալավերդի","name:ka":"ალავერდი","name:ku":"Alavêrdî","name:ml":"അലവെർഡി","name:ru":"Алаверди","name:ckb":"ئالاڤێردی","nat_name":"Ալավերդի"},"display_name":"Ալավերդի, Ալավերդի համայնք, Լոռու մարզ, Հայաստան","address":{"town":"Ալավերդի","state_district":"Ալավերդի համայնք","state":"Լոռու մարզ","ISO3166-2-lvl4":"AM-LO","country":"Հայաստան","country_code":"am"},"population":12238,"osm_type":"node","osm_id":209777766,"type":"town","location":[44.6460913,41.0981441],"bbox":[44.6060913,41.0581441,44.6860913,41.1381441],"border":{"name":"Ալավերդի","other_names":{"name:en":"Alaverdi","name:hy":"Ալավերդի","name:ru":"Алаверди","name:el":"Αλαβερντί","name:ka":"ალავერდი","name:ku":"Alavêrdî","name:ml":"അലവെർഡി","name:ckb":"ئالاڤێردی","nat_name":"Ալավերդի"},"display_name":"Ալավերդի, Ալավերդի համայնք, Լոռու մարզ, Հայաստան","address":{"town":"Ալավերդի","state_district":"Ալավերդի համայնք","state":"Լոռու մարզ","ISO3166-2-lvl4":"AM-LO","country":"Հայաստան","country_code":"am"},"population":12238,"osm_type":"way","osm_id":177131866,"type":"town","location":[44.6460913,41.0981441],"bbox":[44.6099682,41.064179,44.6807843,41.1065714]}}
{"name":"Ախթալա","other_names":{"name:bg":"Ахтала","name:ce":"Ахтала","name:el":"Αχτάλα","name:en":"Akhtala","name:eo":"Aĥtala","name:et":"Ahthala","name:fa":"آختالا","name:hy":"Ախթալա","name:ka":"ახტალა","name:lt":"Achtala","name:ml":"അഖ്ടാല","name:nl":"Achtala","name:pl":"Achtala","name:ro":"Ahtala","name:ru":"Ахтала","name:uk":"Ахтала"},"display_name":"Ախթալա, Ալավերդի համայնք, Լոռու մարզ, Հայաստան","address":{"town":"Ախթալա","state_district":"Ալավերդի համայնք","state":"Լոռու մարզ","ISO3166-2-lvl4":"AM-LO","country":"Հայաստան","country_code":"am"},"population":1931,"osm_type":"node","osm_id":1477894183,"type":"town","location":[44.7698018,41.1481619],"bbox":[44.7298018,41.1081619,44.8098018,41.1881619]}
{"name":"Այրում","other_names":{"name:el":"Αϊρούμ","name:en":"Ayrum","name:hy":"Այրում","name:ml":"അയ്‌റം","name:ru":"Айрум"},"display_name":"Այրում, Նոյեմբերյան համայնք, Տավուշի մարզ, Հայաստան","address":{"town":"Այրում","state_district":"Նոյեմբերյան համայնք","state":"Տավուշի մարզ","ISO3166-2-lvl4":"AM-TV","country":"Հայաստան","country_code":"am"},"population":1746,"osm_type":"node","osm_id":1477889216,"type":"town","location":[44.9020486,41.1880997],"bbox":[44.8620486,41.1480997,44.9420486,41.2280997],"border":{"name":"Այրում","other_names":{"name:en":"Ayrum","name:hy":"Այրում","name:ru":"Айрум","name:el":"Αϊρούμ","name:ml":"അയ്‌റം"},"display_name":"Այրում, Նոյեմբերյան համայնք, Տավուշի մարզ, Հայաստան","address":{"town":"Այրում","state_district":"Նոյեմբերյան համայնք","state":"Տավուշի մարզ","ISO3166-2-lvl4":"AM-TV","country":"Հայաստան","country_code":"am"},"population":1746,"osm_type":"relation","osm_id":11694370,"type":"administrative","location":[44.9020486,41.1880997],"bbox":[44.8695508,41.1803578,44.9116838,41.2432188]}}
{"name":"Աշտարակ","other_names":{"name:de":"Aschtarak","name:el":"Ασταράκ","name:en":"Ashtarak","name:fr":"Achtarak","name:hy":"Աշտարակ","name:ka":"აშტარაკი","name:ko":"아슈타라크","name:ku":"Aştarak","name:ml":"ആഷ്ടാറാക്ക്","name:pl":"Asztarak","name:ru":"Аштарак","name:uk":"Аштарак","name:ckb":"ئاشتاراک"},"display_name":"Աշտարակ, Աշտարակ համայնք, Արագածոտնի մարզ, Հայաստան","address":{"town":"Աշտարակ","state_district":"Աշտարակ համայնք","state":"Արագածոտնի մարզ","ISO3166-2-lvl4":"AM-AG","country":"Հայաստան","country_code":"am"},"population":16630,"osm_type":"node","osm_id":4019886919,"type":"town","location":[44.3613061,40.2886849],"bbox":[44.3213061,40.2486849,44.4013061,40.3286849],"border":[{"name":"Աշտարակ","other_names":{"name:el":"Ασταρακ","name:en":"Ashtarak","name:fr":"Achtarak","name:hy":"Աշտարակ","name:ja":"アシュタラク","name:ru":"Аштарак"},"display_name":"Աշտարակ, Աշտարակ համայնք, Արագածոտնի մարզ, Հայաստան","address":{"town":"Աշտարակ","state_district":"Աշտարակ համայնք","state":"Արագածոտնի մարզ","ISO3166-2-lvl4":"AM-AG","country":"Հայաստան","country_code":"am"},"osm_type":"way","osm_id":177922252,"type":"town","location":[44.3579708584705,40.29129245],"bbox":[44.3359926,40.2652106,44.385527,40.3172976]},{"name":"Աշտարակ","other_names":{"name:en":"Ashtarak","name:hy":"Աշտարակ","name:ru":"Аштарак","name:de":"Aschtarak","name:el":"Ασταράκ","name:fr":"Achtarak","name:ka":"აშტარაკი","name:ko":"아슈타라크","name:ku":"Aştarak","name:ml":"ആഷ്ടാറാക്ക്","name:pl":"Asztarak","name:uk":"Аштарак","name:ckb":"ئاشتاراک"},"display_name":"Աշտարակ, Աշտարակ համայնք, Արագածոտնի մարզ, Հայաստան","address":{"town":"Աշտարակ","state_district":"Աշտարակ համայնք","state":"Արագածոտնի մարզ","ISO3166-2-lvl4":"AM-AG","country":"Հայաստան","country_code":"am"},"population":16630,"osm_type":"relation","osm_id":16175158,"type":"administrative","location":[44.3613061,40.2886849],"bbox":[44.314984,40.2524746,44.435801,40.3295306]}]}
{"name":"Ապարան","other_names":{"name:el":"Απαράν","name:en":"Aparan","name:fr":"Aparan","name:hy":"Ապարան","name:ku":"Aparan","name:lt":"Aparanas","name:ml":"ആപാറാൻ","name:ru":"Апаран","name:uk":"Апаран","name:ckb":"ئاپاران","old_name":"Bash Aparan, Aparanbol, Aparan Verin, Aparanpol, Abaran Verin, P’araznavert, K’asakh, Kasagh, K’asagh"},"display_name":"Ապարան, Ապարան համայնք, Արագածոտնի մարզ, 0301, Հայաստան","address":{"town":"Ապարան","state_district":"Ապարան համայնք","state":"Արագածոտնի մարզ","ISO3166-2-lvl4":"AM-AG","postcode":"0301","country":"Հայաստան","country_code":"am"},"population":5873,"osm_type":"node","osm_id":130039585,"type":"town","location":[44.3570829,40.5908411],"bbox":[44.3170829,40.5508411,44.3970829,40.6308411],"border":{"name":"Ապարան","other_names":{"name:en":"Aparan","name:fr":"Aparan","name:hy":"Ապարան","name:lt":"Aparanas","name:ru":"Апаран","int_name":"Aparan","old_name":"Bash Aparan, Aparanbol, Aparan Verin, Aparanpol, Abaran Verin, P’araznavert, K’asakh, Kasagh, K’asagh","name:el":"Απαράν","name:ku":"Aparan","name:ml":"ആപാറാൻ","name:uk":"Апаран","name:ckb":"ئاپاران"},"display_name":"Ապարան, Ապարան համայնք, Արագածոտնի մարզ, 0301, Հայաստան","address":{"town":"Ապարան","state_district":"Ապարան համայնք","state":"Արագածոտնի մարզ","ISO3166-2-lvl4":"AM-AG","postcode":"0301","country":"Հայաստան","country_code":"am"},"population":5873,"osm_type":"way","osm_id":181873156,"type":"town","location":[44.3570829,40.5908411],"bbox":[44.3447339,40.5703559,44.3755432,40.6042518]}}
{"name":"Արագածավան","other_names":{"name:az":"Araqatsavan","name:en":"Aragatsavan","name:fa":"آراگاتساوان","name:hy":"Արագածավան","name:ru":"Арагацаван","name:azb":"اراقاتساوان"},"display_name":"Արագածավան, Թալին համայնք, Արագածոտնի մարզ, Հայաստան","address":{"town":"Արագածավան","state_district":"Թալին համայնք","state":"Արագածոտնի մարզ","ISO3166-2-lvl4":"AM-AG","country":"Հայաստան","country_code":"am"},"population":6220,"osm_type":"node","osm_id":1381640006,"type":"town","location":[43.6634102,40.3190651],"bbox":[43.6234102,40.2790651,43.7034102,40.3590651]}
{"name":"Արարատ","other_names":{"name:el":"Αραράτ","name:en":"Ararat","name:hy":"Արարատ","name:ku":"Ararat","name:lt":"Araratas","name:ml":"അറാറാത്ത്","name:ru":"Арарат","name:ckb":"ئارارات"},"display_name":"Արարատ, Արարատ համայնք, Արարատի մարզ, 0602, Հայաստան","address":{"town":"Արարատ","state_district":"Արարատ համայնք","state":"Արարատի մարզ","ISO3166-2-lvl4":"AM-AR","postcode":"0602","country":"Հայաստան","country_code":"am"},"population":20385,"osm_type":"node","osm_id":955219312,"type":"town","location":[44.6943793,39.8553329],"bbox":[44.6543793,39.8153329,44.7343793,39.8953329],"border":{"name":"Արարատ","other_names":{"name:en":"Ararat","name:hy":"Արարատ","name:lt":"Araratas","name:ru":"Арарат","name:el":"Αραράτ","name:ku":"Ararat","name:ml":"അറാറാത്ത്","name:ckb":"ئارارات"},"display_name":"Արարատ, Արարատ համայնք, Արարատի մարզ, 0602, Հայաստան","address":{"town":"Արարատ","state_district":"Արարատ համայնք","state":"Արարատի մարզ","ISO3166-2-lvl4":"AM-AR","postcode":"0602","country":"Հայաստան","country_code":"am"},"population":20385,"osm_type":"way","osm_id":108360028,"type":"town","location":[44.6943793,39.8553329],"bbox":[44.6848987,39.8402756,44.7108992,39.8615386]}}
{"name":"Արթիկ","other_names":{"name:el":"Αρτίκ","name:en":"Artik","name:hy":"Արթիկ","name:ku":"Artîk","name:ml":"അർട്ടിക്","name:ru":"Артик","name:ckb":"ئارتیک"},"display_name":"Արթիկ, Արթիկ համայնք, Շիրակի մարզ, 3004, Հայաստան","address":{"town":"Արթիկ","state_district":"Արթիկ համայնք","state":"Շիրակի մարզ","ISO3166-2-lvl4":"AM-SH","postcode":"3004","country":"Հայաստան","country_code":"am"},"population":17601,"osm_type":"node","osm_id":130038029,"type":"town","location":[43.9707866,40.6198428],"bbox":[43.9307866,40.5798428,44.0107866,40.6598428],"border":{"name":"Արթիկ","other_names":{"name:en":"Artik","name:hy":"Արթիկ","name:ru":"Артик","name:el":"Αρτίκ","name:ku":"Artîk","name:ml":"അർട്ടിക്","name:ckb":"ئارتیک"},"display_name":"Արթիկ, Արթիկ համայնք, Շիրակի մարզ, Հայաստան","address":{"town":"Արթիկ","state_district":"Արթիկ համայնք","state":"Շիրակի մարզ","ISO3166-2-lvl4":"AM-SH","country":"Հայաստան","country_code":"am"},"population":17601,"osm_type":"way","osm_id":237951935,"type":"town","location":[43.9707866,40.6198428],"bbox":[43.9478894,40.6054611,43.9958078,40.6403303]}}
{"name":"Արմավիր","other_names":{"name:bg":"Октемберян","name:de":"Armawir","name:el":"Αρμαβίρ","name:en":"Armavir","name:hy":"Արմավիր","name:ja":"アルマヴィル","name:ku":"Armavîr","name:lt":"Armaviras","name:ml":"അർമാവിർ","name:pl":"Armawir","name:ru":"Армавир","name:ckb":"ئارماڤیر","nat_name":"Արմավիր"},"display_name":"Արմավիր, Արմավիր համայնք, Արմավիրի մարզ, Հայաստան","address":{"town":"Արմավիր","state_district":"Արմավիր համայնք","state":"Արմավիրի մարզ","ISO3166-2-lvl4":"AM-AV","country":"Հայաստան","country_code":"am"},"population":33800,"osm_type":"node","osm_id":130042336,"type":"town","location":[44.0387565,40.1555485],"bbox":[43.9987565,40.1155485,44.0787565,40.1955485],"border":{"name":"Արմավիր","other_names":{"name:bg":"Октемберян","name:de":"Armawir","name:el":"Αρμαβίρ","name:en":"Armavir","name:hy":"Արմավիր","name:ru":"Армавир","name:ja":"アルマヴィル","name:ku":"Armavîr","name:lt":"Armaviras","name:ml":"അർമാവിർ","name:pl":"Armawir","name:ckb":"ئارماڤیر","nat_name":"Արմավիր"},"display_name":"Արմավիր, Արմավիր համայնք, Արմավիրի մարզ, Հայաստան","address":{"town":"Արմավիր","state_district":"Արմավիր համայնք","state":"Արմավիրի մարզ","ISO3166-2-lvl4":"AM-AV","country":"Հայաստան","country_code":"am"},"population":33800,"osm_type":"way","osm_id":148508807,"type":"town","location":[44.0387565,40.1555485],"bbox":[44.0126118,40.1383488,44.0796074,40.1737129]}}
{"name":"Արտաշատ","other_names":{"name:de":"Artaschat","name:el":"Αρτασάτ","name:en":"Artashat","name:hy":"Արտաշատ","name:ja":"アララト","name:ku":"Artaşat","name:lt":"Artašatas","name:ml":"ആർട്ടാഷാട്ട്","name:ru":"Арташат","name:zh":"阿尔塔沙特","int_name":"Artashat","name:ckb":"ئارتاشات"},"display_name":"Արտաշատ, Արտաշատ համայնք, Արարատի մարզ, Հայաստան","address":{"town":"Արտաշատ","state_district":"Արտաշատ համայնք","state":"Արարատի մարզ","ISO3166-2-lvl4":"AM-AR","country":"Հայաստան","country_code":"am"},"population":19083,"osm_type":"node","osm_id":210362834,"type":"town","location":[44.5471007,39.9566633],"bbox":[44.5071007,39.9166633,44.5871007,39.9966633],"border":[{"name":"Արտաշատ","other_names":{"name:en":"Artashat","name:hy":"Արտաշատ","name:ku":"Artaşat","name:lt":"Artašatas","name:ru":"Арташат"},"display_name":"Արտաշատ, Արտաշատ համայնք, Արարատի մարզ, 0703, Հայաստան","address":{"town":"Արտաշատ","state_district":"Արտաշատ համայնք","state":"Արարատի մարզ","ISO3166-2-lvl4":"AM-AR","postcode":"0703","country":"Հայաստան","country_code":"am"},"osm_type":"way","osm_id":74370996,"type":"town","location":[44.543217903468864,39.95727155],"bbox":[44.5271291,39.9403426,44.5667377,39.9740648]},{"name":"Արտաշատ","other_names":{"name:en":"Artashat","name:hy":"Արտաշատ","name:ru":"Арташат","name:de":"Artaschat","name:el":"Αρτασάτ","name:ja":"アララト","name:ku":"Artaşat","name:lt":"Artašatas","name:ml":"ആർട്ടാഷാട്ട്","name:zh":"阿尔塔沙特","int_name":"Artashat","name:ckb":"ئارتاشات"},"display_name":"Արտաշատ, Արտաշատ համայնք, Արարատի մարզ, 0703, Հայաստան","address":{"town":"Արտաշատ","state_district":"Արտաշատ համայնք","state":"Արարատի մարզ","ISO3166-2-lvl4":"AM-AR","postcode":"0703","country":"Հայաստան","country_code":"am"},"population":19083,"osm_type":"relation","osm_id":15092044,"type":"administrative","location":[44.5471007,39.9566633],"bbox":[44.5018534,39.9197209,44.581741,39.9931056]}]}
{"name":"Բերդ","other_names":{"name:el":"Μπερντ","name:en":"Berd","name:hy":"Բերդ","name:ml":"ബെർഡ്","name:ru":"Берд","name:ckb":"بێرد"},"display_name":"Բերդ, Բերդ համայնք, Տավուշի մարզ, 4201, Հայաստան","address":{"town":"Բերդ","state_district":"Բերդ համայնք","state":"Տավուշի մարզ","ISO3166-2-lvl4":"AM-TV","postcode":"4201","country":"Հայաստան","country_code":"am"},"population":6990,"osm_type":"node","osm_id":209727388,"type":"town","location":[45.3923321,40.8837828],"bbox":[45.3523321,40.8437828,45.4323321,40.9237828],"border":{"name":"Բերդ","other_names":{"name:en":"Berd","name:hy":"Բերդ","name:ru":"Берд","name:el":"Μπερντ","name:ml":"ബെർഡ്","name:ckb":"بێرد"},"display_name":"Բերդ, Բերդ համայնք, Տավուշի մարզ, 4201, Հայաստան","address":{"town":"Բերդ","state_district":"Բերդ համայնք","state":"Տավուշի մարզ","ISO3166-2-lvl4":"AM-TV","postcode":"4201","country":"Հայաստան","country_code":"am"},"population":6990,"osm_type":"way","osm_id":177131869,"type":"town","location":[45.3923321,40.8837828],"bbox":[45.3758439,40.8714185,45.4082951,40.8936933]}}
{"name":"Բյուրեղավան","other_names":{"name:el":"Μπιουρεγκαβάν","name:en":"Byureghavan","name:hy":"Բյուրեղավան","name:ku":"Biyurêxavan","name:ml":"ബ്യൂരേഘവാൻ","name:ru":"Бюрегаван","name:ckb":"بیورێغاڤان"},"display_name":"Բյուրեղավան, Բյուրեղավան համայնք, Կոտայքի մարզ, Հայաստան","address":{"town":"Բյուրեղավան","state_district":"Բյուրեղավան համայնք","state":"Կոտայքի մարզ","ISO3166-2-lvl4":"AM-KT","country":"Հայաստան","country_code":"am"},"population":9142,"osm_type":"node","osm_id":1872982710,"type":"town","location":[44.5977663,40.3127937],"bbox":[44.5577663,40.2727937,44.6377663,40.3527937],"border":{"name":"Բյուրեղավան","other_names":{"name:en":"Byureghavan","name:hy":"Բյուրեղավան","name:ru":"Бюрехаван","name:el":"Μπιουρεγκαβάν","name:ku":"Biyurêxavan","name:ml":"ബ്യൂരേഘവാൻ","name:ckb":"بیورێغاڤان","alt:ru":"Бюрегаван"},"display_name":"Բյուրեղավան, Բյուրեղավան համայնք, Կոտայքի մարզ, Հայաստան","address":{"town":"Բյուրեղավան","state_district":"Բյուրեղավան համայնք","state":"Կոտայքի մարզ","ISO3166-2-lvl4":"AM-KT","country":"Հայաստան","country_code":"am"},"population":9142,"osm_type":"way","osm_id":899099722,"type":"town","location":[44.5977663,40.3127937],"bbox":[44.5882105,40.3064988,44.6092794,40.3380581]}}
{"name":"Գավառ","other_names":{"name:en":"Gavar","name:hy":"Գավառ","name:ku":"Gavar","name:ml":"ഗവർ","name:ru":"Гавар","name:uk":"Ґавар","name:ckb":"گاڤار"},"display_name":"Գավառ, Գավառ համայնք, Գեղարքունիքի մարզ, Հայաստան","address":{"town":"Գավառ","county":"Գավառ","state_district":"Գավառ համայնք","state":"Գեղարքունիքի մարզ","ISO3166-2-lvl4":"AM-GR","country":"Հայաստան","country_code":"am"},"population":17830,"osm_type":"node","osm_id":6123773911,"type":"town","location":[45.1273162,40.3513976],"bbox":[45.0873162,40.3113976,45.1673162,40.3913976],"border":[{"name":"Գավառ","other_names":{"name:en":"Gavar boundary","name:hy":"Գավառ","name:ru":"Гавар"},"display_name":"Գավառ, Գավառ համայնք, Գեղարքունիքի մարզ, 1201, Հայաստան","address":{"county":"Գավառ","state_district":"Գավառ համայնք","state":"Գեղարքունիքի մարզ","ISO3166-2-lvl4":"AM-GR","postcode":"1201","country":"Հայաստան","country_code":"am"},"osm_type":"way","osm_id":177106778,"type":"administrative","location":[45.13134729280446,40.3565276],"bbox":[45.1032799,40.3371971,45.1575958,40.37672]},{"name":"Գավառ","other_names":{"name:de":"Gawar","name:el":"Γκαβάρ","name:en":"Gavar","name:fr":"Gavar","name:hy":"Գավառ","name:it":"Gavar","name:ja":"ガバル (アルメニア)","name:ka":"გავარი (სომხეთი)","name:ko":"가바르","name:lt":"Gavaras (miestas)","name:ru":"Гавар","alt_name":"Kyavar","old_name":"Nor Bayezet","name:ku":"Gavar","name:ml":"ഗവർ","name:uk":"Ґавар","name:ckb":"گاڤار"},"display_name":"Գավառ, Գավառ համայնք, Գեղարքունիքի մարզ, 1201, Հայաստան","address":{"town":"Գավառ","county":"Գավառ","state_district":"Գավառ համայնք","state":"Գեղարքունիքի մարզ","ISO3166-2-lvl4":"AM-GR","postcode":"1201","country":"Հայաստան","country_code":"am"},"population":17830,"osm_type":"relation","osm_id":8896914,"type":"administrative","location":[45.1273162,40.3513976],"bbox":[45.1032799,40.3371971,45.1575958,40.37672]}]}
{"name":"Գյումրի","other_names":{"name:en":"Gyumri","name:hy":"Գյումրի","name:ru":"Гюмри"},"display_name":"Գյումրի, Շիրակի մարզ, Հայաստան","address":{"town":"Գյումրի","state":"Շիրակի մարզ","ISO3166-2-lvl4":"AM-SH","country":"Հայաստան","country_code":"am"},"osm_type":"way","osm_id":1030286064,"type":"town","location":[43.84966562868027,40.797285599999995],"bbox":[43.8074375,40.7603095,43.8834882,40.8330391],"border":[{"name":"Գյումրի","other_names":{"name:ar":"غيومري","name:de":"Gjumri","name:en":"Gyumri","name:es":"Guiumri","name:eu":"Giumri","name:fr":"Gyumri","name:hy":"Գյումրի","name:ja":"ギュムリ","name:ka":"გიუმრი","name:ko":"귬리","name:ku":"Gumrî","name:lt":"Giumris","name:nl":"Gjoemri","name:pl":"Giumri","name:ru":"Гюмри","name:uk":"Ґюмрі","name:zh":"久姆里","name:af":"Gjoemri","name:av":"Комур","name:az":"Gümrü","name:be":"Гюмры","name:bg":"Гюмри","name:ca":"Gyumri","name:ce":"Гюмри","name:cs":"Gjumri","name:cv":"Гюмри","name:da":"Gjumri","name:el":"Γκιούμρι","name:eo":"Gjumri","name:et":"Gjumri","name:fa":"گیومری","name:fi":"Gjumri","name:fy":"Gjûmri","name:he":"גיומרי","name:hr":"Gjumri","name:hu":"Gjumri","name:ia":"Gyumri","name:id":"Gyumri","name:it":"Gyumri","name:ky":"Ленинакан","name:la":"Alexandropolis","name:lv":"Gjumri","name:ml":"ഗ്യൂംറി","name:mn":"Гюмри","name:ms":"Gyumri","name:nb":"Kumajri","name:nn":"Gjumri","name:os":"Гюмри","name:pa":"ਗਯੁਮਰੀ","name:pt":"Guiumri","name:ro":"Ghiumri","name:sl":"Gjumri","name:sr":"Гјумри","name:sv":"Gjumri","name:sw":"Gyumri","name:th":"กยูมรี","name:tr":"Gümrü","name:tt":"Гөмре","name:ur":"گیومری","name:uz":"Gyumri","name:vi":"Gyumri","int_name":"Gyumri","name:ckb":"گیومری","alt_name:es":"Gyumri","old_name:ru":"Кумайри;Александрополь;Ленинакан"},"display_name":"Գյումրի, Շիրակի մարզ, Հայաստան","address":{"city":"Գյումրի","state":"Շիրակի մարզ","ISO3166-2-lvl4":"AM-SH","country":"Հայաստան","country_code":"am"},"population":111138,"osm_type":"relation","osm_id":7814501,"type":"administrative","location":[43.8416095,40.7852085],"bbox":[43.7833714,40.7283418,43.8836695,40.8414926]},{"name":"Գյումրի-Ախուրյան սահման","other_names":{"name:en":"Border Gyumri-Akhuryan","name:hy":"Գյումրի-Ախուրյան սահման","name:ru":"Граница Гюмри-Ахурян","name:uk":"Ґюмрі","name:af":"Gjoemri","name:ar":"غيومري","name:av":"Комур","name:az":"Gümrü","name:be":"Гюмры","name:bg":"Гюмри","name:ca":"Gyumri","name:ce":"Гюмри","name:cs":"Gjumri","name:cv":"Гюмри","name:da":"Gjumri","name:de":"Gjumri","name:el":"Γκιούμρι","name:eo":"Gjumri","name:es":"Guiumri","name:et":"Gjumri","name:eu":"Giumri","name:fa":"گیومری","name:fi":"Gjumri","name:fr":"Gyumri","name:fy":"Gjûmri","name:he":"גיומרי","name:hr":"Gjumri","name:hu":"Gjumri","name:ia":"Gyumri","name:id":"Gyumri","name:it":"Gyumri","name:ja":"ギュムリ","name:ka":"გიუმრი","name:ko":"귬리","name:ku":"Gumrî","name:ky":"Ленинакан","name:la":"Alexandropolis","name:lt":"Giumris","name:lv":"Gjumri","name:ml":"ഗ്യൂംറി","name:mn":"Гюмри","name:ms":"Gyumri","name:nb":"Kumajri","name:nl":"Gjoemri","name:nn":"Gjumri","name:os":"Гюмри","name:pa":"ਗਯੁਮਰੀ","name:pl":"Giumri","name:pt":"Guiumri","name:ro":"Ghiumri","name:sl":"Gjumri","name:sr":"Гјумри","name:sv":"Gjumri","name:sw":"Gyumri","name:th":"กยูมรี","name:tr":"Gümrü","name:tt":"Гөмре","name:ur":"گیومری","name:uz":"Gyumri","name:vi":"Gyumri","name:zh":"久姆里","int_name":"Gyumri","name:ckb":"گیومری","alt_name:es":"Gyumri","old_name:ru":"Кумайри;Александрополь;Ленинакан","alt":"Գյումրի","alt:en":"Gyumri","alt:hy":"Գյումրի","alt:ru":"Гюмри"},"display_name":"Գյումրի-Ախուրյան սահման, Շիրակի մարզ, Հայաստան","address":{"city":"Գյումրի-Ախուրյան սահման","state":"Շիրակի մարզ","ISO3166-2-lvl4":"AM-SH","country":"Հայաստան","country_code":"am"},"population":111138,"osm_type":"way","osm_id":177198942,"type":"administrative","location":[43.8416095,40.7852085],"bbox":[43.7833714,40.7283418,43.8836695,40.8414926]}]}
{"name":"Գորիս","other_names":{"name:az":"Gorus","name:cs":"Goris","name:de":"Goris","name:en":"Goris","name:fa":"گوریس","name:hi":"गोरिस","name:hr":"Goris","name:hy":"Գորիս","name:ja":"ゴリス","name:ku":"Gorîs","name:lt":"Gorisas","name:ml":"ഗോറിസ്","name:pl":"Goris","name:ru":"Горис","name:sr":"Горис","name:tr":"Goris","name:uk":"Ґоріс","name:ckb":"گۆریس","nat_name":"Գորիս"},"display_name":"Գորիս, Գորիս համայնք, Սյունիքի մարզ, Հայաստան","address":{"town":"Գորիս","state_district":"Գորիս համայնք","state":"Սյունիքի մարզ","ISO3166-2-lvl4":"AM-SU","country":"Հայաստան","country_code":"am"},"population":19664,"osm_type":"node","osm_id":210290488,"type":"town","location":[46.3442334,39.5052419],"bbox":[46.3042334,39.4652419,46.3842334,39.5452419],"border":{"name":"Գորիս","other_names":{"name:cs":"Goris","name:de":"Goris","name:en":"Goris","name:fa":"گوریس","name:hy":"Գորիս","name:it":"Gorisas","name:ja":"ゴリス","name:pl":"Goris","name:ru":"Горис","name:tr":"Gorus şehri","name:uk":"Ґоріс","name:az":"Gorus","name:hi":"गोरिस","name:hr":"Goris","name:ku":"Gorîs","name:lt":"Gorisas","name:ml":"ഗോറിസ്","name:sr":"Горис","name:ckb":"گۆریس","nat_name":"Գորիս","alt:tr":"Goris"},"display_name":"Գորիս, Գորիս համայնք, Սյունիքի մարզ, Հայաստան","address":{"town":"Գորիս","state_district":"Գորիս համայնք","state":"Սյունիքի մարզ","ISO3166-2-lvl4":"AM-SU","country":"Հայաստան","country_code":"am"},"population":20591,"osm_type":"relation","osm_id":10248346,"type":"administrative","location":[46.3442334,39.5052419],"bbox":[46.3132471,39.4919533,46.3531986,39.5297893]}}
{"name":"Դիլիջան","other_names":{"name:el":"Ντιλιτζάν","name:en":"Dilijan","name:hi":"डिलिजान","name:hy":"Դիլիջան","name:ku":"Dîlîcan","name:ml":"ഡിലിജാൻ","name:ru":"Дилижан","name:ckb":"دیلیجان","nat_name":"Դիլիջան"},"display_name":"Դիլիջան, Դիլիջան համայնք, Տավուշի մարզ, 3901, Հայաստան","address":{"town":"Դիլիջան","state_district":"Դիլիջան համայնք","state":"Տավուշի մարզ","ISO3166-2-lvl4":"AM-TV","postcode":"3901","country":"Հայաստան","country_code":"am"},"population":17045,"osm_type":"node","osm_id":208845055,"type":"town","location":[44.872221,40.7417126],"bbox":[44.832221,40.7017126,44.912221,40.7817126],"border":{"name":"Դիլիջան","other_names":{"name:en":"Dilijan","name:hy":"Դիլիջան","name:ru":"Дилижан","name:el":"Ντιλιτζάν","name:hi":"डिलिजान","name:ku":"Dîlîcan","name:ml":"ഡിലിജാൻ","name:ckb":"دیلیجان","nat_name":"Դիլիջան"},"display_name":"Դիլիջան, Դիլիջան համայնք, Տավուշի մարզ, Հայաստան","address":{"town":"Դիլիջան","state_district":"Դիլիջան համայնք","state":"Տավուշի մարզ","ISO3166-2-lvl4":"AM-TV","country":"Հայաստան","country_code":"am"},"population":20000,"osm_type":"way","osm_id":177131875,"type":"town","location":[44.872221,40.7417126],"bbox":[44.8053633,40.6942405,44.9336229,40.7675242]}}
{"name":"Եղեգնաձոր","other_names":{"name:de":"Jeghegnadsor","name:el":"Γεγεγκναντζόρ","name:en":"Yeghegnadzor","name:fa":"یغگنادزور","name:fr":"Eghegnazor","name:hr":"Jehegnadzor","name:hy":"Եղեգնաձոր","name:ja":"イェゲグナゾル","name:ka":"ეღეგნაძორი","name:ku":"Yêxêgnadzor","name:lt":"Jeghegnadzoras","name:ml":"യെഗെഗ്നാഡ്സോർ","name:pl":"Jeghegnadzor","name:ru":"Ехегнадзор","name:tr":"Yeğegnadzor","name:uk":"Єгеґнадзор","int_name":"Yeghegnadzor","name:ckb":"یێغێگنادزۆر","nat_name":"Եղեգնաձոր"},"display_name":"Եղեգնաձոր, Եղեգնաձոր համայնք, Վայոց ձորի մարզ, Հայաստան","address":{"town":"Եղեգնաձոր","state_district":"Եղեգնաձոր համայնք","state":"Վայոց ձորի մարզ","ISO3166-2-lvl4":"AM-VD","country":"Հայաստան","country_code":"am"},"population":7040,"osm_type":"node","osm_id":210178763,"type":"town","location":[45.3302273,39.7601008],"bbox":[45.2902273,39.7201008,45.3702273,39.8001008],"border":{"name":"Եղեգնաձոր","other_names":{"name:de":"Jeghegnadsor","name:en":"Yeghegnadzor","name:hy":"Եղեգնաձոր","name:it":"Jeghegnadzoras","name:ja":"イェゲグナゾル","name:pl":"Jeghegnadzor","name:ru":"Ехегнадзор","name:uk":"Єгеґнадзор","name:el":"Γεγεγκναντζόρ","name:fa":"یغگنادزور","name:fr":"Eghegnazor","name:hr":"Jehegnadzor","name:ka":"ეღეგნაძორი","name:ku":"Yêxêgnadzor","name:lt":"Jeghegnadzoras","name:ml":"യെഗെഗ്നാഡ്സോർ","name:tr":"Yeğegnadzor","int_name":"Yeghegnadzor","name:ckb":"یێغێگنادزۆر","nat_name":"Եղեգնաձոր"},"display_name":"Եղեգնաձոր, Եղեգնաձոր համայնք, Վայոց ձորի մարզ, 3601, Հայաստան","address":{"town":"Եղեգնաձոր","state_district":"Եղեգնաձոր համայնք","state":"Վայոց ձորի մարզ","ISO3166-2-lvl4":"AM-VD","postcode":"3601","country":"Հայաստան","country_code":"am"},"population":7944,"osm_type":"relation","osm_id":10255555,"type":"administrative","location":[45.3302273,39.7601008],"bbox":[45.2895163,39.7081077,45.3762783,39.7782035]}}
{"name":"Եղվարդ","other_names":{"name:el":"Γιέγκβαρντ","name:en":"Yeghvard","name:hy":"Եղվարդ","name:ku":"Yêxvard","name:ml":"യെഘ്വാർഡ്","name:ru":"Егвард","name:ckb":"یێغڤارد"},"display_name":"Եղվարդ, Նաիրի համայնք, Կոտայքի մարզ, Հայաստան","address":{"town":"Եղվարդ","state_district":"Նաիրի համայնք","state":"Կոտայքի մարզ","ISO3166-2-lvl4":"AM-KT","country":"Հայաստան","country_code":"am"},"population":12106,"osm_type":"node","osm_id":210085218,"type":"town","location":[44.4813889,40.3214049],"bbox":[44.4413889,40.2814049,44.5213889,40.3614049],"border":[{"name":"Եղվարդ","other_names":{"name:en":"Yeghvard","name:hy":"Եղվարդ","name:ru":"Егвард"},"display_name":"Եղվարդ, Նաիրի համայնք, Կոտայքի մարզ, 2401, Հայաստան","address":{"town":"Եղվարդ","state_district":"Նաիրի համայնք","state":"Կոտայքի մարզ","ISO3166-2-lvl4":"AM-KT","postcode":"2401","country":"Հայաստան","country_code":"am"},"osm_type":"way","osm_id":177841996,"type":"town","location":[44.48163310360876,40.319790749999996],"bbox":[44.4637791,40.3009296,44.501726,40.3390283]},{"name":"Եղվարդ","other_names":{"name:en":"Yeghvard","name:hy":"Եղվարդ","name:ru":"Егвард","name:el":"Γιέγκβαρντ","name:ku":"Yêxvard","name:ml":"യെഘ്വാർഡ്","name:ckb":"یێغڤارد"},"display_name":"Եղվարդ, Նաիրի համայնք, Կոտայքի մարզ, 2401, Հայաստան","address":{"town":"Եղվարդ","state_district":"Նաիրի համայնք","state":"Կոտայքի մարզ","ISO3166-2-lvl4":"AM-KT","postcode":"2401","country":"Հայաստան","country_code":"am"},"population":12106,"osm_type":"relation","osm_id":16179400,"type":"administrative","location":[44.4813889,40.3214049],"bbox":[44.3775231,40.2556567,44.537765,40.368735]}]}
{"name":"Թալին","other_names":{"name:el":"Τάλιν","name:en":"Talin","name:hy":"Թալին","name:ku":"Talîn","name:ml":"താലിൻ","name:ru":"Талин","name:ckb":"تالین"},"display_name":"Թալին, Թալին համայնք, Արագածոտնի մարզ, Հայաստան","address":{"town":"Թալին","state_district":"Թալին համայնք","state":"Արագածոտնի մարզ","ISO3166-2-lvl4":"AM-AG","country":"Հայաստան","country_code":"am"},"population":4042,"osm_type":"node","osm_id":150679750,"type":"town","location":[43.8735993,40.3837069],"bbox":[43.8335993,40.3437069,43.9135993,40.4237069],"border":{"name":"Թալին","other_names":{"name:en":"Talin","name:hy":"Թալին","name:ru":"Талин","name:el":"Τάλιν","name:ku":"Talîn","name:ml":"താലിൻ","name:ckb":"تالین"},"display_name":"Թալին, Թալին համայնք, Արագածոտնի մարզ, 0501, Հայաստան","address":{"town":"Թալին","state_district":"Թալին համայնք","state":"Արագածոտնի մարզ","ISO3166-2-lvl4":"AM-AG","postcode":"0501","country":"Հայաստան","country_code":"am"},"population":4042,"osm_type":"way","osm_id":177841997,"type":"town","location":[43.8735993,40.3837069],"bbox":[43.8591419,40.3674446,43.8987312,40.3968785]}}
{"name":"Թումանյան","other_names":{"name:el":"Τουμανιάν","name:en":"Tumanyan","name:hy":"Թումանյան","name:ku":"Tumanyan","name:ml":"ടൂമാന്യാൻ","name:ru":"Туманян","name:ckb":"تومانیان","nat_name":"Թումանյան"},"display_name":"Թումանյան, Թումանյան համայնք, Լոռու մարզ, 1712, Հայաստան","address":{"town":"Թումանյան","state_district":"Թումանյան համայնք","state":"Լոռու մարզ","ISO3166-2-lvl4":"AM-LO","postcode":"1712","country":"Հայաստան","country_code":"am"},"population":1442,"osm_type":"node","osm_id":5937466970,"type":"town","location":[44.6508659,41.0016486],"bbox":[44.6108659,40.9616486,44.6908659,41.0416486],"border":{"name":"Թումանյան","other_names":{"name:en":"Tumanyan","name:hy":"Թումանյան","name:ru":"Туманян","name:el":"Τουμανιάν","name:ku":"Tumanyan","name:ml":"ടൂമാന്യാൻ","name:ckb":"تومانیان","nat_name":"Թումանյան"},"display_name":"Թումանյան, Թումանյան համայնք, Լոռու մարզ, 1712, Հայաստան","address":{"town":"Թումանյան","state_district":"Թումանյան համայնք","state":"Լոռու մարզ","ISO3166-2-lvl4":"AM-LO","postcode":"1712","country":"Հայաստան","country_code":"am"},"population":1300,"osm_type":"way","osm_id":589111181,"type":"town","location":[44.6508659,41.0016486],"bbox":[44.6432233,40.9849217,44.6683288,41.0068076]}}
{"name":"Իջևան","other_names":{"name:cs":"Tavuš","name:de":"Idschewan","name:el":"Ιντζεβάν","name:en":"Ijevan","name:hy":"Իջևան","name:ja":"イジェヴァン","name:ka":"იჯევანი","name:ku":"Îcêvan","name:ml":"ഇജേവാൻ","name:pl":"Idżewan","name:ru":"Иджеван","name:uk":"Іджеван","name:ckb":"ئیجێڤان","nat_name":"Իջևան"},"display_name":"Իջևան, Իջևան համայնք, Տավուշի մարզ, Հայաստան","address":{"town":"Իջևան","state_district":"Իջևան համայնք","state":"Տավուշի մարզ","ISO3166-2-lvl4":"AM-TV","country":"Հայաստան","country_code":"am"},"population":19773,"osm_type":"node","osm_id":208840062,"type":"town","location":[45.1437542,40.8779943],"bbox":[45.1037542,40.8379943,45.1837542,40.9179943],"border":{"name":"Իջևան","other_names":{"name:de":"Idschewan","name:el":"Ιντζεβάν","name:en":"Ijevan","name:hy":"Իջևան","name:ka":"იჯევანი","name:pl":"Idżewan","name:ru":"Иджеван","int_name":"Ijevan","nat_name":"Իջևան","name:cs":"Tavuš","name:ja":"イジェヴァン","name:ku":"Îcêvan","name:ml":"ഇജേവാൻ","name:uk":"Іджеван","name:ckb":"ئیجێڤان"},"display_name":"Իջևան, Իջևան համայնք, Տավուշի մարզ, 4001, Հայաստան","address":{"town":"Իջևան","state_district":"Իջևան համայնք","state":"Տավուշի մարզ","ISO3166-2-lvl4":"AM-TV","postcode":"4001","country":"Հայաստան","country_code":"am"},"population":20500,"osm_type":"way","osm_id":177856553,"type":"town","location":[45.1437542,40.8779943],"bbox":[45.1332216,40.8657784,45.167612,40.9030374]}}
{"name":"Ծաղկա‎ձոր","other_names":{"name:el":"Τσαχκαντζόρ","name:en":"Tsakhkadzor","name:hy":"Ծաղկա‎ձոր","name:ru":"Цахкадзор","name:ckb":"تساغکادزۆر"},"display_name":"Ծաղկա‎ձոր, Ծաղկաձոր համայնք, Կոտայքի մարզ, Հայաստան","address":{"town":"Ծաղկա‎ձոր","county":"Ծաղկա‎ձոր","state_district":"Ծաղկաձոր համայնք","state":"Կոտայքի մարզ","ISO3166-2-lvl4":"AM-KT","country":"Հայաստան","country_code":"am"},"population":1165,"osm_type":"node","osm_id":210071730,"type":"town","location":[44.7201571,40.5335474],"bbox":[44.6801571,40.4935474,44.7601571,40.5735474],"border":[{"name":"Ծաղկա‎ձոր","other_names":{"name:en":"Border Tsakhkadzor","name:hy":"Ծաղկա‎ձոր","name:ru":"Цахкадзор","int_name":"Tsakhkadzor","nat_name":"Ծաղկա‎ձոր"},"display_name":"Ծաղկա‎ձոր, Ծաղկաձոր համայնք, Կոտայքի մարզ, 2310, Հայաստան","address":{"county":"Ծաղկա‎ձոր","state_district":"Ծաղկաձոր համայնք","state":"Կոտայքի մարզ","ISO3166-2-lvl4":"AM-KT","postcode":"2310","country":"Հայաստան","country_code":"am"},"osm_type":"way","osm_id":222831568,"type":"administrative","location":[44.71842344049496,40.53210155],"bbox":[44.6932369,40.5222433,44.7526658,40.5426255]},{"name":"Ծաղկա‎ձոր","other_names":{"name:el":"Τσαχκαντζόρ","name:en":"Tsakhkadzor","name:hy":"Ծաղկա‎ձոր","name:ru":"Цахкадзор","int_name":"Tsakhkadzor","nat_name":"Ծաղկա‎ձոր","name:ckb":"تساغکادزۆر"},"display_name":"Ծաղկա‎ձոր, Ծաղկաձոր համայնք, Կոտայքի մարզ, 2310, Հայաստան","address":{"town":"Ծաղկա‎ձոր","county":"Ծաղկա‎ձոր","state_district":"Ծաղկաձոր համայնք","state":"Կոտայքի մարզ","ISO3166-2-lvl4":"AM-KT","postcode":"2310","country":"Հայաստան","country_code":"am"},"population":1620,"osm_type":"relation","osm_id":7843731,"type":"administrative","location":[44.7201571,40.5335474],"bbox":[44.6932369,40.5222433,44.7526658,40.5426255]}]}
{"name":"Կապան","other_names":{"name:az":"Qafan","name:de":"Kapan","name:el":"Καπάν","name:en":"Kapan","name:fa":"کاپان","name:hi":"कापान","name:hr":"Kapan","name:hy":"Կապան","name:ja":"カパン","name:ka":"კაპანი","name:ku":"Kapan","name:lt":"Kapanas","name:ml":"കാപ്പാൻ","name:ru":"Капан","name:sr":"Капан","name:tr":"Kapan","name:uk":"Капан","name:ckb":"کاپان","nat_name":"Կապան"},"display_name":"Կապան, Կապան համայնք, Սյունիքի մարզ, Հայաստան","address":{"town":"Կապան","state_district":"Կապան համայնք","state":"Սյունիքի մարզ","ISO3166-2-lvl4":"AM-SU","country":"Հայաստան","country_code":"am"},"population":41512,"osm_type":"node","osm_id":210231290,"type":"town","location":[46.4049281,39.2075659],"bbox":[46.3649281,39.1675659,46.4449281,39.2475659],"border":[{"name":"Կապան","other_names":{"name:az":"Qafan şəhəri","name:en":"Kapan","name:hy":"Կապան","name:ru":"Капан"},"display_name":"Կապան, Կապան համայնք, Սյունիքի մարզ, Հայաստան","address":{"town":"Կապան","state_district":"Կապան համայնք","state":"Սյունիքի մարզ","ISO3166-2-lvl4":"AM-SU","country":"Հայաստան","country_code":"am"},"osm_type":"way","osm_id":1005798007,"type":"town","location":[46.39896958076664,39.212705150000005],"bbox":[46.3280559,39.1767475,46.467206,39.2486157]},{"name":"Կապան","other_names":{"name:az":"Qafan şəhəri","name:en":"Kapan","name:fa":"کاپان","name:fr":"Kapan","name:hy":"Կապան","name:ja":"カパン","name:ko":"카판","name:lt":"Kapanas","name:ru":"Капан","name:uk":"Капан","name:de":"Kapan","name:el":"Καπάν","name:hi":"कापान","name:hr":"Kapan","name:ka":"კაპანი","name:ku":"Kapan","name:ml":"കാപ്പാൻ","name:sr":"Капан","name:tr":"Kapan","name:ckb":"کاپان","nat_name":"Կապան","alt:az":"Qafan"},"display_name":"Կապան, Կապան համայնք, Սյունիքի մարզ, Հայաստան","address":{"town":"Կապան","state_district":"Կապան համայնք","state":"Սյունիքի մարզ","ISO3166-2-lvl4":"AM-SU","country":"Հայաստան","country_code":"am"},"population":41512,"osm_type":"relation","osm_id":7745403,"type":"administrative","location":[46.4049281,39.2075659],"bbox":[46.3279983,39.1766565,46.467206,39.2487205]}]}
{"name":"Հրազդան","other_names":{"name:de":"Hrasdan","name:el":"Χραζντάν","name:en":"Hrazdan","name:hi":"ह्रज़दान","name:hy":"Հրազդան","name:ja":"フラズダン","name:lt":"Hrazdanas","name:ml":"ഹ്രാസ്ഡാൻ","name:ru":"Раздан","name:tr":"Hrazdan","name:ckb":"ھرازدان","old_name":"Akhta"},"display_name":"Հրազդան, Հրազդան համայնք, Կոտայքի մարզ, Հայաստան","address":{"town":"Հրազդան","county":"Հրազդան","state_district":"Հրազդան համայնք","state":"Կոտայքի մարզ","ISO3166-2-lvl4":"AM-KT","country":"Հայաստան","country_code":"am"},"population":39957,"osm_type":"node","osm_id":210063748,"type":"town","location":[44.7500706,40.5196871],"bbox":[44.7100706,40.4796871,44.7900706,40.5596871],"border":[{"name":"Հրազդան","other_names":{"name:en":"Hrazdan","name:hy":"Հրազդան","name:ru":"Раздан"},"display_name":"Հրազդան, Հրազդան համայնք, Կոտայքի մարզ, Հայաստան","address":{"town":"Հրազդան","county":"Հրազդան","state_district":"Հրազդան համայնք","state":"Կոտայքի մարզ","ISO3166-2-lvl4":"AM-KT","country":"Հայաստան","country_code":"am"},"osm_type":"way","osm_id":911419477,"type":"town","location":[44.75565214540304,40.52103285],"bbox":[44.7001283,40.4800902,44.7961154,40.5618482]},{"name":"Հրազդան","other_names":{"name:de":"Hrasdan","name:en":"Hrazdan","name:hy":"Հրազդան","name:lt":"Hrazdanas","name:ru":"Раздан","int_name":"Hrazdan","nat_name":"Հրազդան","old_name":"Akhta"},"display_name":"Հրազդան, Հրազդան համայնք, Կոտայքի մարզ, Հայաստան","address":{"county":"Հրազդան","state_district":"Հրազդան համայնք","state":"Կոտայքի մարզ","ISO3166-2-lvl4":"AM-KT","country":"Հայաստան","country_code":"am"},"osm_type":"way","osm_id":177922253,"type":"administrative","location":[44.7538149949132,40.51849005],"bbox":[44.7000872,40.4795026,44.7964451,40.5620077]},{"name":"Հրազդան","other_names":{"name:de":"Hrasdan","name:en":"Hrazdan","name:hy":"Հրազդան","name:lt":"Hrazdanas","name:ru":"Раздан","name:el":"Χραζντάν","name:hi":"ह्रज़दान","name:ja":"フラズダン","name:ml":"ഹ്രാസ്ഡാൻ","name:tr":"Hrazdan","name:ckb":"ھرازدان","old_name":"Akhta"},"display_name":"Հրազդան, Հրազդան համայնք, Կոտայքի մարզ, Հայաստան","address":{"town":"Հրազդան","county":"Հրազդան","state_district":"Հրազդան համայնք","state":"Կոտայքի մարզ","ISO3166-2-lvl4":"AM-KT","country":"Հայաստան","country_code":"am"},"population":42000,"osm_type":"relation","osm_id":9084333,"type":"administrative","location":[44.7500706,40.5196871],"bbox":[44.7000872,40.4795026,44.7964451,40.5620077]}]}
{"name":"Ճամբարակ","other_names":{"name:az":"Çəmbərək","name:el":"Τσαμπαράκ","name:en":"Chambarak","name:hy":"Ճամբարակ","name:ku":"Çambarak","name:ml":"ചാംബറക്ക്","name:ru":"Чамбарак","name:ckb":"چامباراک"},"display_name":"Ճամբարակ, Ճամբարակ համայնք, Գեղարքունիքի մարզ, Հայաստան","address":{"town":"Ճամբարակ","state_district":"Ճամբարակ համայնք","state":"Գեղարքունիքի մարզ","ISO3166-2-lvl4":"AM-GR","country":"Հայաստան","country_code":"am"},"population":1115,"osm_type":"node","osm_id":210172791,"type":"town","location":[45.35495,40.5973015],"bbox":[45.31495,40.5573015,45.39495,40.6373015],"border":{"name":"Ճամբարակ","other_names":{"name:az":"Çəmbərək","name:en":"Chambarak","name:hy":"Ճամբարակ","name:ru":"Чамбарак","name:el":"Τσαμπαράκ","name:ku":"Çambarak","name:ml":"ചാംബറക്ക്","name:ckb":"چامباراک"},"display_name":"Ճամբարակ, Ճամբարակ համայնք, Գեղարքունիքի մարզ, Հայաստան","address":{"town":"Ճամբարակ","state_district":"Ճամբարակ համայնք","state":"Գեղարքունիքի մարզ","ISO3166-2-lvl4":"AM-GR","country":"Հայաստան","country_code":"am"},"population":1115,"osm_type":"way","osm_id":177131878,"type":"town","location":[45.35495,40.5973015],"bbox":[45.3323329,40.5803728,45.3793072,40.6295735]}}
{"name":"Մասիս","other_names":{"name:ar":"ماسيس","name:az":"Masis","name:bg":"Масис","name:el":"Μάσις","name:en":"Masis","name:fa":"ماسیس","name:fr":"Masis","name:hy":"Մասիս","name:id":"Masis","name:it":"Masis","name:ka":"მასისი","name:ku":"Masîs","name:lt":"Masisas","name:ml":"മാസീസ്","name:ms":"Masis","name:pl":"Masis","name:ru":"Масис","name:sw":"Masis","name:uk":"Масіс","int_name":"Masis","name:azb":"ماسیس","name:ckb":"ماسیس","name:mzn":"ماسیس"},"display_name":"Մասիս, Մասիս համայնք, Արարատի մարզ, Հայաստան","address":{"town":"Մասիս","state_district":"Մասիս համայնք","state":"Արարատի մարզ","ISO3166-2-lvl4":"AM-AR","country":"Հայաստան","country_code":"am"},"population":20702,"osm_type":"node","osm_id":958710338,"type":"town","location":[44.4427915,40.0617279],"bbox":[44.4027915,40.0217279,44.4827915,40.1017279],"border":[{"name":"Մասիս","other_names":{"name:en":"Masis","name:hy":"Մասիս","name:ru":"Масис"},"display_name":"Մասիս, Մասիս համայնք, Արարատի մարզ, Հայաստան","address":{"town":"Մասիս","state_district":"Մասիս համայնք","state":"Արարատի մարզ","ISO3166-2-lvl4":"AM-AR","country":"Հայաստան","country_code":"am"},"population":21000,"osm_type":"way","osm_id":109017583,"type":"town","location":[44.426171533704554,40.06652035],"bbox":[44.3952022,40.0539773,44.4572809,40.0790457]},{"name":"Մասիս","other_names":{"name:en":"Masis","name:hy":"Մասիս","name:ru":"Масис","name:ar":"ماسيس","name:az":"Masis","name:bg":"Масис","name:el":"Μάσις","name:fa":"ماسیس","name:fr":"Masis","name:id":"Masis","name:it":"Masis","name:ka":"მასისი","name:ku":"Masîs","name:lt":"Masisas","name:ml":"മാസീസ്","name:ms":"Masis","name:pl":"Masis","name:sw":"Masis","name:uk":"Масіс","int_name":"Masis","name:azb":"ماسیس","name:ckb":"ماسیس","name:mzn":"ماسیس"},"display_name":"Մասիս, Մասիս համայնք, Արարատի մարզ, Հայաստան","address":{"town":"Մասիս","state_district":"Մասիս համայնք","state":"Արարատի մարզ","ISO3166-2-lvl4":"AM-AR","country":"Հայաստան","country_code":"am"},"population":20702,"osm_type":"relation","osm_id":14441909,"type":"administrative","location":[44.4427915,40.0617279],"bbox":[44.3950488,40.0363166,44.4575562,40.0997453]}]}
{"name":"Մարալիկ","other_names":{"name:el":"Μαραλίκ","name:en":"Maralik","name:hy":"Մարալիկ","name:ku":"Maralîk","name:ru":"Маралик","name:ckb":"مارالیک","nat_name":"Մարալիկ"},"display_name":"Մարալիկ, Անի համայնք, Շիրակի մարզ, 2901, Հայաստան","address":{"town":"Մարալիկ","state_district":"Անի համայնք","state":"Շիրակի մարզ","ISO3166-2-lvl4":"AM-SH","postcode":"2901","country":"Հայաստան","country_code":"am"},"population":5335,"osm_type":"node","osm_id":130037318,"type":"town","location":[43.8697647,40.5796511],"bbox":[43.8297647,40.5396511,43.9097647,40.6196511],"border":{"name":"Մարալիկ","other_names":{"name:de":"Maralik","name:en":"Maralik","name:hy":"Մարալիկ","name:ru":"Маралик","nat_name":"Մարալիկ","name:el":"Μαραλίκ","name:ku":"Maralîk","name:ckb":"مارالیک"},"display_name":"Մարալիկ, Անի համայնք, Շիրակի մարզ, 2901, Հայաստան","address":{"town":"Մարալիկ","state_district":"Անի համայնք","state":"Շիրակի մարզ","ISO3166-2-lvl4":"AM-SH","postcode":"2901","country":"Հայաստան","country_code":"am"},"population":5335,"osm_type":"way","osm_id":177922254,"type":"town","location":[43.8697647,40.5796511],"bbox":[43.8601678,40.5689615,43.8855551,40.5967673]}}
{"name":"Մարտունի","other_names":{"name:az":"Aşağı Qaranlıq","name:el":"Μαρτούνι","name:en":"Martuni","name:fr":"Martouni","name:hy":"Մարտունի","name:ja":"マルトゥニ","name:ku":"Martunî","name:ml":"മാർട്ടൂണി","name:ru":"Мартуни","name:sk":"Martuni","name:uk":"Мартуні","int_name":"Martuni","name:ckb":"مارتونی","nat_name":"Մարտունի"},"display_name":"Մարտունի, Մարտունի համայնք, Գեղարքունիքի մարզ, Հայաստան","address":{"town":"Մարտունի","state_district":"Մարտունի համայնք","state":"Գեղարքունիքի մարզ","ISO3166-2-lvl4":"AM-GR","country":"Հայաստան","country_code":"am"},"population":11399,"osm_type":"node","osm_id":210119692,"type":"town","location":[45.3054735,40.1390478],"bbox":[45.2654735,40.0990478,45.3454735,40.1790478],"border":[{"name":"Մարտունի","other_names":{"name:az":"Aşağı Qaranlıq","name:en":"Martuni","name:hy":"Մարտունի","name:ru":"Мартуни"},"display_name":"Մարտունի, Մարտունի համայնք, Գեղարքունիքի մարզ, Հայաստան","address":{"town":"Մարտունի","state_district":"Մարտունի համայնք","state":"Գեղարքունիքի մարզ","ISO3166-2-lvl4":"AM-GR","country":"Հայաստան","country_code":"am"},"osm_type":"way","osm_id":177856555,"type":"town","location":[45.30398673734395,40.138224699999995],"bbox":[45.2870392,40.1236736,45.3208733,40.15317]},{"name":"Մարտունի","other_names":{"name:el":"Μαρτούνι","name:en":"Martuni","name:fr":"Martouni","name:hy":"Մարտունի","name:ja":"マルトゥニ","name:ru":"Мартуни","old_name:ru":"Гегаркуник","name:az":"Aşağı Qaranlıq","name:ku":"Martunî","name:ml":"മാർട്ടൂണി","name:sk":"Martuni","name:uk":"Мартуні","int_name":"Martuni","name:ckb":"مارتونی","nat_name":"Մարտունի"},"display_name":"Մարտունի, Մարտունի համայնք, Գեղարքունիքի մարզ, Հայաստան","address":{"town":"Մարտունի","state_district":"Մարտունի համայնք","state":"Գեղարքունիքի մարզ","ISO3166-2-lvl4":"AM-GR","country":"Հայաստան","country_code":"am"},"population":11399,"osm_type":"relation","osm_id":7868352,"type":"administrative","location":[45.3054735,40.1390478],"bbox":[45.2870392,40.1236736,45.3208733,40.15317]}]}
{"name":"Մեծամոր","other_names":{"name:de":"Mezamor","name:el":"Μετσαμόρ","name:en":"Metsamor","name:hy":"Մեծամոր","name:ku":"Mêtsamor","name:ml":"മെട്സമോർ","name:ru":"Мецамор","name:ckb":"مێتسامۆر"},"display_name":"Մեծամոր, Մեծամոր համայնք, Արմավիրի մարզ, Հայաստան","address":{"town":"Մեծամոր","state_district":"Մեծամոր համայնք","state":"Արմավիրի մարզ","ISO3166-2-lvl4":"AM-AV","country":"Հայաստան","country_code":"am"},"population":8453,"osm_type":"node","osm_id":1240285509,"type":"town","location":[44.1192082,40.1443582],"bbox":[44.0792082,40.1043582,44.1592082,40.1843582],"border":[{"name":"Մեծամոր","other_names":{"name:en":"Metsamor","name:hy":"Մեծամոր","name:ru":"Мецамор"},"display_name":"Մեծամոր, Մեծամոր համայնք, Արմավիրի մարզ, Հայաստան","address":{"town":"Մեծամոր","state_district":"Մեծամոր համայնք","state":"Արմավիրի մարզ","ISO3166-2-lvl4":"AM-AV","country":"Հայաստան","country_code":"am"},"osm_type":"way","osm_id":177841998,"type":"town","location":[44.121746202198025,40.145878800000006],"bbox":[44.1038549,40.1392837,44.1418072,40.1523169]},{"name":"Մեծամոր","other_names":{"name:en":"Metsamor","name:hy":"Մեծամոր","name:ru":"Мецамор","name:de":"Mezamor","name:el":"Μετσαμόρ","name:ku":"Mêtsamor","name:ml":"മെട്സമോർ","name:ckb":"مێتسامۆر"},"display_name":"Մեծամոր, Մեծամոր համայնք, Արմավիրի մարզ, Հայաստան","address":{"town":"Մեծամոր","state_district":"Մեծամոր համայնք","state":"Արմավիրի մարզ","ISO3166-2-lvl4":"AM-AV","country":"Հայաստան","country_code":"am"},"population":8453,"osm_type":"relation","osm_id":16242094,"type":"administrative","location":[44.1192082,40.1443582],"bbox":[44.1008689,40.1202558,44.1538603,40.152663]}]}
{"name":"Մեղրի","other_names":{"name:az":"Meğri / Mığrı","name:de":"Meghri","name:en":"Meghri","name:fa":"مغری","name:hr":"Megri","name:hy":"Մեղրի","name:ja":"メグリ","name:ku":"Mêxrî","name:ml":"മെഗ്രി","name:pl":"Meghri","name:ru":"Мегри","name:sr":"Мегри","int_name":"Meghri","name:ckb":"مێغری","nat_name":"Մեղրի"},"display_name":"Մեղրի, Մեղրի համայնք, Սյունիքի մարզ, 3401, Հայաստան","address":{"town":"Մեղրի","state_district":"Մեղրի համայնք","state":"Սյունիքի մարզ","ISO3166-2-lvl4":"AM-SU","postcode":"3401","country":"Հայաստան","country_code":"am"},"population":4193,"osm_type":"node","osm_id":210261629,"type":"town","location":[46.2459121,38.9013004],"bbox":[46.2059121,38.8613004,46.2859121,38.9413004],"border":{"name":"Մեղրի","other_names":{"name:az":"Meğri / Mığrı","name:en":"Meghri","name:es":"Meghri","name:fa":"مغری","name:hy":"Մեղրի","name:ru":"Мегри","int_name":"Meghri","nat_name":"Մեղրի","name:de":"Meghri","name:hr":"Megri","name:ja":"メグリ","name:ku":"Mêxrî","name:ml":"മെഗ്രി","name:pl":"Meghri","name:sr":"Мегри","name:ckb":"مێغری"},"display_name":"Մեղրի, Մեղրի համայնք, Սյունիքի մարզ, 3401, Հայաստան","address":{"town":"Մեղրի","state_district":"Մեղրի համայնք","state":"Սյունիքի մարզ","ISO3166-2-lvl4":"AM-SU","postcode":"3401","country":"Հայաստան","country_code":"am"},"population":4193,"osm_type":"way","osm_id":177856557,"type":"town","location":[46.2459121,38.9013004],"bbox":[46.2317991,38.8903815,46.2583571,38.9203545]}}
{"name":"Նոյեմբերյան","other_names":{"name:el":"Νογιεμπεριάν","name:en":"Noyemberian","name:hu":"Nojemberián","name:hy":"Նոյեմբերյան","name:ku":"Noyêmbêryan","name:ml":"നോയെംബെര്യാൻ","name:ru":"Ноемберян","name:ckb":"نۆیێمبێریان"},"display_name":"Նոյեմբերյան, Նոյեմբերյան համայնք, Տավուշի մարզ, Հայաստան","address":{"town":"Նոյեմբերյան","state_district":"Նոյեմբերյան համայնք","state":"Տավուշի մարզ","ISO3166-2-lvl4":"AM-TV","country":"Հայաստան","country_code":"am"},"population":4373,"osm_type":"node","osm_id":467023413,"type":"town","location":[44.9965125,41.1719613],"bbox":[44.9565125,41.1319613,45.0365125,41.2119613],"border":{"name":"Նոյեմբերյան","other_names":{"name:en":"Noyemberyan","name:hy":"Նոյեմբերյան","name:ru":"Ноемберян","name:el":"Νογιεμπεριάν","name:hu":"Nojemberián","name:ku":"Noyêmbêryan","name:ml":"നോയെംബെര്യാൻ","name:ckb":"نۆیێمبێریان","alt:en":"Noyemberian"},"display_name":"Նոյեմբերյան, Նոյեմբերյան համայնք, Տավուշի մարզ, 4101, Հայաստան","address":{"town":"Նոյեմբերյան","state_district":"Նոյեմբերյան համայնք","state":"Տավուշի մարզ","ISO3166-2-lvl4":"AM-TV","postcode":"4101","country":"Հայաստան","country_code":"am"},"population":4373,"osm_type":"way","osm_id":177856558,"type":"town","location":[44.9965125,41.1719613],"bbox":[44.988462,41.1565919,45.0108466,41.1892432]}}
{"name":"Նոր Հաճն","other_names":{"name:el":"Νορ Χάτσιν","name:en":"Nor Hachin","name:hy":"Նոր Հաճն","name:ku":"Nor Haçin","name:ml":"നോർ ഹച്ചിൻ","name:ru":"Нор Ачин","name:ckb":"نۆر ھاچن"},"display_name":"Նոր Հաճն, Նոր Հաճն համայնք, Կոտայքի մարզ, Հայաստան","address":{"town":"Նոր Հաճն","state_district":"Նոր Հաճն համայնք","state":"Կոտայքի մարզ","ISO3166-2-lvl4":"AM-KT","country":"Հայաստան","country_code":"am"},"population":9197,"osm_type":"node","osm_id":925355442,"type":"town","location":[44.5803502,40.3006902],"bbox":[44.5403502,40.2606902,44.6203502,40.3406902],"border":[{"name":"Նոր Հաճն","other_names":{"name:en":"Nor Hachin","name:hy":"Նոր Հաճն","name:ru":"Нор Ачин","name:el":"Νορ Χάτσιν","name:ku":"Nor Haçin","name:ml":"നോർ ഹച്ചിൻ","name:ckb":"نۆر ھاچن"},"display_name":"Նոր Հաճն, Նոր Հաճն համայնք, Կոտայքի մարզ, 2412, Հայաստան","address":{"town":"Նոր Հաճն","state_district":"Նոր Հաճն համայնք","state":"Կոտայքի մարզ","ISO3166-2-lvl4":"AM-KT","postcode":"2412","country":"Հայաստան","country_code":"am"},"population":9197,"osm_type":"way","osm_id":542714852,"type":"town","location":[44.5803502,40.3006902],"bbox":[44.5764416,40.2895802,44.5892465,40.3062854]},{"name":"Նոր Հաճն","other_names":{"name:el":"Νορ Χάτσιν","name:en":"Nor Hachin","name:hy":"Նոր Հաճն","name:ru":"Нор Ачин"},"display_name":"Նոր Հաճն, Նոր Հաճն համայնք, Կոտայքի մարզ, 2412, Հայաստան","address":{"administrative":"Նոր Հաճն","state_district":"Նոր Հաճն համայնք","state":"Կոտայքի մարզ","ISO3166-2-lvl4":"AM-KT","postcode":"2412","country":"Հայաստան","country_code":"am"},"osm_type":"relation","osm_id":16230750,"type":"administrative","location":[44.58282639456026,40.2965879],"bbox":[44.5753771,40.2870406,44.5911577,40.3063434]}]}
{"name":"Չարենցավան","other_names":{"name:de":"Tscharenzawan","name:el":"Τσαρεντσαβάν","name:en":"Charentsavan","name:hy":"Չարենցավան","name:lt":"Čarencavanas","name:ml":"ചാരൻസവാൻ","name:ru":"Чаренцаван"},"display_name":"Չարենցավան, Չարենցավան համայնք, Կոտայքի մարզ, Հայաստան","address":{"town":"Չարենցավան","state_district":"Չարենցավան համայնք","state":"Կոտայքի մարզ","ISO3166-2-lvl4":"AM-KT","country":"Հայաստան","country_code":"am"},"population":20368,"osm_type":"node","osm_id":210065207,"type":"town","location":[44.6469349,40.4029877],"bbox":[44.6069349,40.3629877,44.6869349,40.4429877],"border":[{"name":"Չարենցավան","other_names":{"name:en":"Charentsavan","name:hy":"Չարենցավան","name:ru":"Чаренцаван"},"display_name":"Չարենցավան, Չարենցավան համայնք, Կոտայքի մարզ, Հայաստան","address":{"town":"Չարենցավան","state_district":"Չարենցավան համայնք","state":"Կոտայքի մարզ","ISO3166-2-lvl4":"AM-KT","country":"Հայաստան","country_code":"am"},"osm_type":"way","osm_id":177131879,"type":"town","location":[44.64585428259356,40.4094705],"bbox":[44.6290055,40.3928173,44.660066,40.4216733]},{"name":"Չարենցավան","other_names":{"name:en":"Charentsavan","name:hy":"Չարենցավան","name:it":"Čarencavanas","name:ru":"Чаренцаван","name:de":"Tscharenzawan","name:el":"Τσαρεντσαβάν","name:lt":"Čarencavanas","name:ml":"ചാരൻസവാൻ"},"display_name":"Չարենցավան, Չարենցավան համայնք, Կոտայքի մարզ, Հայաստան","address":{"town":"Չարենցավան","state_district":"Չարենցավան համայնք","state":"Կոտայքի մարզ","ISO3166-2-lvl4":"AM-KT","country":"Հայաստան","country_code":"am"},"population":25100,"osm_type":"relation","osm_id":10288147,"type":"administrative","location":[44.6469349,40.4029877],"bbox":[44.6290055,40.3928173,44.660066,40.4216733]}]}
{"name":"Ջերմուկ","other_names":{"name:cs":"Džermuk","name:de":"Dschermuk","name:el":"Τζερμούκ","name:en":"Jermuk","name:fa":"جرموک","name:fr":"Djermouk","name:hr":"Džermuk","name:hy":"Ջերմուկ","name:ka":"ჯერმუკი","name:ku":"Cêrmûk","name:ml":"ജെർമുക്ക്","name:pl":"Dżermuk","name:ru":"Джермук","name:sr":"Џермук","name:uk":"Джермук","int_name":"Jermuk","name:ckb":"جێرمووک"},"display_name":"Ջերմուկ, Ջերմուկ համայնք, Վայոց ձորի մարզ, 3701, Հայաստան","address":{"town":"Ջերմուկ","state_district":"Ջերմուկ համայնք","state":"Վայոց ձորի մարզ","ISO3166-2-lvl4":"AM-VD","postcode":"3701","country":"Հայաստան","country_code":"am"},"population":3902,"osm_type":"node","osm_id":210212587,"type":"town","location":[45.6712635,39.8388185],"bbox":[45.6312635,39.7988185,45.7112635,39.8788185],"border":{"name":"Ջերմուկ","other_names":{"name:az":"İstisu şəhəri","name:cs":"Džermuk","name:en":"Jermuk","name:hy":"Ջերմուկ","name:pl":"Jermuk","name:ru":"Джермук","alt_name:en":"Dzhermuk","name:de":"Dschermuk","name:el":"Τζερμούκ","name:fa":"جرموک","name:fr":"Djermouk","name:hr":"Džermuk","name:ka":"ჯერმუკი","name:ku":"Cêrmûk","name:ml":"ജെർമുക്ക്","name:sr":"Џермук","name:uk":"Джермук","int_name":"Jermuk","name:ckb":"جێرمووک","alt:pl":"Dżermuk"},"display_name":"Ջերմուկ, Ջերմուկ համայնք, Վայոց ձորի մարզ, 3701, Հայաստան","address":{"town":"Ջերմուկ","state_district":"Ջերմուկ համայնք","state":"Վայոց ձորի մարզ","ISO3166-2-lvl4":"AM-VD","postcode":"3701","country":"Հայաստան","country_code":"am"},"population":3902,"osm_type":"way","osm_id":177199402,"type":"town","location":[45.6712635,39.8388185],"bbox":[45.6583367,39.8098112,45.6904852,39.8555961]}}
{"name":"Սևան","other_names":{"name:de":"Sewan","name:el":"Σεβάν","name:en":"Sevan","name:es":"Sevan","name:hy":"Սևան","name:ku":"Sêvan","name:lt":"Sevanas","name:ml":"സെവാൻ","name:ru":"Севан","name:ckb":"سێڤان"},"display_name":"Սևան, Սևան համայնք, Գեղարքունիքի մարզ, Հայաստան","address":{"town":"Սևան","state_district":"Սևան համայնք","state":"Գեղարքունիքի մարզ","ISO3166-2-lvl4":"AM-GR","country":"Հայաստան","country_code":"am"},"population":18870,"osm_type":"node","osm_id":208818390,"type":"town","location":[44.957243,40.5485209],"bbox":[44.917243,40.5085209,44.997243,40.5885209],"border":[{"name":"Սևան","other_names":{"name:de":"Sewan (Stadt)","name:en":"Sevan","name:es":"Sevan","name:fr":"Sevan","name:hy":"Սևան","name:lt":"Sevanas (miestas)","name:ru":"Севан","name:el":"Σεβάν","name:ku":"Sêvan","name:ml":"സെവാൻ","name:ckb":"سێڤان","alt:de":"Sewan","alt:lt":"Sevanas"},"display_name":"Սևան, Սևան համայնք, Գեղարքունիքի մարզ, Հայաստան","address":{"town":"Սևան","state_district":"Սևան համայնք","state":"Գեղարքունիքի մարզ","ISO3166-2-lvl4":"AM-GR","country":"Հայաստան","country_code":"am"},"population":23200,"osm_type":"relation","osm_id":8404520,"type":"administrative","location":[44.957243,40.5485209],"bbox":[44.9232366,40.5310565,45.0196798,40.5677945]},{"name":"Սևան","other_names":{"name:en":"Sevan town","name:hy":"Սևան","name:ru":"Севан"},"display_name":"Սևան, Սևան համայնք, Գեղարքունիքի մարզ, Հայաստան","address":{"county":"Սևան","state_district":"Սևան համայնք","state":"Գեղարքունիքի մարզ","ISO3166-2-lvl4":"AM-GR","country":"Հայաստան","country_code":"am"},"osm_type":"way","osm_id":177922375,"type":"administrative","location":[44.95063541679542,40.5426446],"bbox":[44.9232366,40.5310565,44.9812541,40.5536374]}]}
{"name":"Սիսիան","other_names":{"name:de":"Sissian","name:en":"Sisian","name:hr":"Sisijan","name:hy":"Սիսիան","name:ja":"シシアン","name:ku":"Sîsyan","name:ml":"സിസിയാൻ","name:ru":"Сисиан","name:sr":"Сисијан","name:ckb":"سیسیان"},"display_name":"Սիսիան, Սիսիան համայնք, Սյունիքի մարզ, 3501, Հայաստան","address":{"town":"Սիսիան","state_district":"Սիսիան համայնք","state":"Սյունիքի մարզ","ISO3166-2-lvl4":"AM-SU","postcode":"3501","country":"Հայաստան","country_code":"am"},"population":14297,"osm_type":"node","osm_id":210222626,"type":"town","location":[46.0235784,39.5235435],"bbox":[45.9835784,39.4835435,46.0635784,39.5635435],"border":{"name":"Սիսիան","other_names":{"name:az":"Qarakilsə şəhəri","name:en":"Sisian","name:hy":"Սիսիան","name:ru":"Сисиан","name:tr":"Garakilse şehri","name:de":"Sissian","name:hr":"Sisijan","name:ja":"シシアン","name:ku":"Sîsyan","name:ml":"സിസിയാൻ","name:sr":"Сисијан","name:ckb":"سیسیان"},"display_name":"Սիսիան, Սիսիան համայնք, Սյունիքի մարզ, Հայաստան","address":{"town":"Սիսիան","state_district":"Սիսիան համայնք","state":"Սյունիքի մարզ","ISO3166-2-lvl4":"AM-SU","country":"Հայաստան","country_code":"am"},"population":14297,"osm_type":"way","osm_id":882465531,"type":"town","location":[46.0235784,39.5235435],"bbox":[45.9970012,39.5089588,46.0491569,39.5433839]}}
{"name":"Սպիտակ","other_names":{"name:el":"Σπιτάκ","name:en":"Spitak","name:fr":"Spitak","name:hy":"Սպիտակ","name:ka":"სპიტაკი","name:ku":"Spîtak","name:lt":"Spitakas","name:ml":"സ്പിറ്റാക്ക്","name:ru":"Спитак","name:uk":"Спітак","name:ckb":"سپیتاک","old_name":"Amamth, Hamamlu"},"display_name":"Սպիտակ, Սպիտակ համայնք, Լոռու մարզ, Հայաստան","address":{"town":"Սպիտակ","state_district":"Սպիտակ համայնք","state":"Լոռու մարզ","ISO3166-2-lvl4":"AM-LO","country":"Հայաստան","country_code":"am"},"population":12662,"osm_type":"node","osm_id":209739151,"type":"town","location":[44.2647711,40.8343352],"bbox":[44.2247711,40.7943352,44.3047711,40.8743352],"border":{"name":"Սպիտակ","other_names":{"name:en":"Spitak","name:fr":"Spitak","name:hy":"Սպիտակ","name:ka":"სპიტაკი","name:lt":"Spitakas","name:ru":"Спитак","name:el":"Σπιτάκ","name:ku":"Spîtak","name:ml":"സ്പിറ്റാക്ക്","name:uk":"Спітак","name:ckb":"سپیتاک","old_name":"Amamth, Hamamlu"},"display_name":"Սպիտակ, Սպիտակ համայնք, Լոռու մարզ, Հայաստան","address":{"town":"Սպիտակ","state_district":"Սպիտակ համայնք","state":"Լոռու մարզ","ISO3166-2-lvl4":"AM-LO","country":"Հայաստան","country_code":"am"},"population":12662,"osm_type":"way","osm_id":179180211,"type":"administrative","location":[44.2647711,40.8343352],"bbox":[44.2090218,40.8006185,44.3038641,40.848264]}}
{"name":"Ստեփանավան","other_names":{"name:el":"Στεπαναβάν","name:en":"Stepanavan","name:et":"Stephanavan","name:hy":"Ստեփանավան","name:ka":"სტეფანავანი","name:ku":"Stêpanavan","name:lt":"Stepanavanas","name:ml":"സ്റ്റെപാനാവാൻ","name:ru":"Степанаван","name:uk":"Степанаван","name:ckb":"ستێپاناڤان"},"display_name":"Ստեփանավան, Ստեփանավան համայնք, Լոռու մարզ, Հայաստան","address":{"town":"Ստեփանավան","state_district":"Ստեփանավան համայնք","state":"Լոռու մարզ","ISO3166-2-lvl4":"AM-LO","country":"Հայաստան","country_code":"am"},"population":12151,"osm_type":"node","osm_id":209793390,"type":"town","location":[44.3845119,41.0112004],"bbox":[44.3445119,40.9712004,44.4245119,41.0512004],"border":[{"name":"Ստեփանավան","other_names":{"name:en":"Stepanavan","name:hy":"Ստեփանավան","name:ru":"Степанаван"},"display_name":"Ստեփանավան, Ստեփանավան համայնք, Լոռու մարզ, 1902, Հայաստան","address":{"town":"Ստեփանավան","state_district":"Ստեփանավան համայնք","state":"Լոռու մարզ","ISO3166-2-lvl4":"AM-LO","postcode":"1902","country":"Հայաստան","country_code":"am"},"osm_type":"way","osm_id":75525301,"type":"town","location":[44.38874986119359,41.00899315],"bbox":[44.367513,40.9867401,44.4101179,41.0304561]},{"name":"Ստեփանավան","other_names":{"name:en":"Stepanavan","name:hy":"Ստեփանավան","name:ru":"Степанаван","name:el":"Στεπαναβάν","name:et":"Stephanavan","name:ka":"სტეფანავანი","name:ku":"Stêpanavan","name:lt":"Stepanavanas","name:ml":"സ്റ്റെപാനാവാൻ","name:uk":"Степанаван","name:ckb":"ستێپاناڤان"},"display_name":"Ստեփանավան, Ստեփանավան համայնք, Լոռու մարզ, 1902, Հայաստան","address":{"town":"Ստեփանավան","state_district":"Ստեփանավան համայնք","state":"Լոռու մարզ","ISO3166-2-lvl4":"AM-LO","postcode":"1902","country":"Հայաստան","country_code":"am"},"population":12151,"osm_type":"relation","osm_id":10329801,"type":"administrative","location":[44.3845119,41.0112004],"bbox":[44.367513,40.9867401,44.4101179,41.0304561]}]}
{"name":"Վաղարշապատ","other_names":{"name:ar":"فاغارشابات","name:de":"Wagharschapat","name:en":"Vagharshapat","name:et":"Vagharšapat","name:hy":"Վաղարշապատ","name:ku":"Vaxarşapat","name:lt":"Vaharšapatas","name:ml":"വാഘാർഷപ്പാത്","name:ru":"Вагаршапат","name:uk":"Вагаршапат","name:ckb":"ڤاغارشاپات","old_name":"Էջմիածին","old_name:de":"Etschmiadsin","old_name:fr":"Etchmiadzin","old_name:hy":"Էջմիածին","old_name:ru":"Эчмиадзин"},"display_name":"Վաղարշապատ, Վաղարշապատ համայնք, Արմավիրի մարզ, Հայաստան","address":{"town":"Վաղարշապատ","state_district":"Վաղարշապատ համայնք","state":"Արմավիրի մարզ","ISO3166-2-lvl4":"AM-AV","country":"Հայաստան","country_code":"am"},"population":46356,"osm_type":"node","osm_id":130042088,"type":"town","location":[44.2931665,40.1627757],"bbox":[44.2531665,40.1227757,44.3331665,40.2027757],"border":{"name":"Վաղարշապատ","other_names":{"name:de":"Wagharschapat","name:en":"Vagharshapat","name:fr":"Vagharchapat","name:hy":"Վաղարշապատ","name:ru":"Вагаршапат","old_name":"Էջմիածին","old_name:de":"Etschmiadsin","old_name:fr":"Etchmiadzin","old_name:hy":"Էջմիածին","old_name:ru":"Эчмиадзин","name:ar":"فاغارشابات","name:et":"Vagharšapat","name:ku":"Vaxarşapat","name:lt":"Vaharšapatas","name:ml":"വാഘാർഷപ്പാത്","name:uk":"Вагаршапат","name:ckb":"ڤاغارشاپات"},"display_name":"Վաղարշապատ, Վաղարշապատ համայնք, Արմավիրի մարզ, Հայաստան","address":{"town":"Վաղարշապատ","state_district":"Վաղարշապատ համայնք","state":"Արմավիրի մարզ","ISO3166-2-lvl4":"AM-AV","country":"Հայաստան","country_code":"am"},"population":46356,"osm_type":"relation","osm_id":7772201,"type":"administrative","location":[44.2931665,40.1627757],"bbox":[44.2713623,40.1031814,44.3535174,40.2040423]}}
{"name":"Վայք","other_names":{"name:de":"Wajk","name:el":"Βάικ","name:en":"Vayk","name:fa":"وایک","name:fr":"Vayk","name:hr":"Vajk","name:hy":"Վայք","name:ka":"ვაიქი","name:ml":"വായ്ക്","name:pl":"Wajk","name:ru":"Вайк","name:sr":"Вајк","name:tr":"Vayk","name:uk":"Вайк","name:ckb":"ڤایک"},"display_name":"Վայք, Վայք համայնք, Վայոց ձորի մարզ, Հայաստան","address":{"town":"Վայք","state_district":"Վայք համայնք","state":"Վայոց ձորի մարզ","ISO3166-2-lvl4":"AM-VD","country":"Հայաստան","country_code":"am"},"population":5349,"osm_type":"node","osm_id":5659042507,"type":"town","location":[45.4551172,39.6954487],"bbox":[45.4151172,39.6554487,45.4951172,39.7354487],"border":[{"name":"Վայք","other_names":{"name:en":"Vayk","name:hy":"Վայք","name:ru":"Вайк"},"display_name":"Վայք, Վայք համայնք, Վայոց ձորի մարզ, 3801, Հայաստան","address":{"town":"Վայք","state_district":"Վայք համայնք","state":"Վայոց ձորի մարզ","ISO3166-2-lvl4":"AM-VD","postcode":"3801","country":"Հայաստան","country_code":"am"},"osm_type":"way","osm_id":1149150245,"type":"town","location":[45.4567255046649,39.694542049999995],"bbox":[45.4388919,39.6857074,45.478457,39.7035256]},{"name":"Վայք","other_names":{"name:en":"Vayk","name:hy":"Վայք","name:ru":"Вайк","name:de":"Wajk","name:el":"Βάικ","name:fa":"وایک","name:fr":"Vayk","name:hr":"Vajk","name:ka":"ვაიქი","name:ml":"വായ്ക്","name:pl":"Wajk","name:sr":"Вајк","name:tr":"Vayk","name:uk":"Вайк","name:ckb":"ڤایک"},"display_name":"Վայք, Վայք համայնք, Վայոց ձորի մարզ, 3801, Հայաստան","address":{"town":"Վայք","state_district":"Վայք համայնք","state":"Վայոց ձորի մարզ","ISO3166-2-lvl4":"AM-VD","postcode":"3801","country":"Հայաստան","country_code":"am"},"population":5877,"osm_type":"relation","osm_id":10255503,"type":"administrative","location":[45.4551172,39.6954487],"bbox":[45.4359325,39.6844418,45.481058,39.7064603]}]}
{"name":"Վարդենիս","other_names":{"name:az":"Basarkeçər","name:de":"Wardenis","name:el":"Βαρντένις","name:en":"Vardenis","name:fr":"Vardenis","name:hy":"Վարդենիս","name:ku":"Vardênîs","name:ml":"വാർഡെനിസ്","name:ru":"Варденис","name:zh":"瓦尔代尼斯/瓦爾代尼斯","name:ckb":"ڤاردێنیس","name:zh-Hans":"瓦尔代尼斯","name:zh-Hant":"瓦爾代尼斯"},"display_name":"Վարդենիս, Վարդենիս համայնք, Գեղարքունիքի մարզ, 1602, Հայաստան","address":{"town":"Վարդենիս","state_district":"Վարդենիս համայնք","state":"Գեղարքունիքի մարզ","ISO3166-2-lvl4":"AM-GR","postcode":"1602","country":"Հայաստան","country_code":"am"},"population":12322,"osm_type":"node","osm_id":210146870,"type":"town","location":[45.7269788,40.184574],"bbox":[45.6869788,40.144574,45.7669788,40.224574],"border":{"name":"Վարդենիս","other_names":{"name:en":"Vardenis","name:hy":"Վարդենիս","name:ru":"Варденис","name:az":"Basarkeçər","name:de":"Wardenis","name:el":"Βαρντένις","name:fr":"Vardenis","name:ku":"Vardênîs","name:ml":"വാർഡെനിസ്","name:zh":"瓦尔代尼斯/瓦爾代尼斯","name:ckb":"ڤاردێنیس","name:zh-Hans":"瓦尔代尼斯","name:zh-Hant":"瓦爾代尼斯"},"display_name":"Վարդենիս, Վարդենիս համայնք, Գեղարքունիքի մարզ, Հայաստան","address":{"town":"Վարդենիս","state_district":"Վարդենիս համայնք","state":"Գեղարքունիքի մարզ","ISO3166-2-lvl4":"AM-GR","country":"Հայաստան","country_code":"am"},"population":12322,"osm_type":"way","osm_id":177199862,"type":"town","location":[45.7269788,40.184574],"bbox":[45.7100249,40.1597235,45.7575939,40.1935817]}}
{"name":"Վեդի","other_names":{"name:el":"Βέντι","name:en":"Vedi","name:hy":"Վեդի","name:ku":"Vêdî","name:lt":"Vedis","name:ml":"വെഡി","name:ru":"Веди","name:ckb":"ڤێدی"},"display_name":"Վեդի, Վեդի համայնք, Արարատի մարզ, Հայաստան","address":{"town":"Վեդի","state_district":"Վեդի համայնք","state":"Արարատի մարզ","ISO3166-2-lvl4":"AM-AR","country":"Հայաստան","country_code":"am"},"population":11799,"osm_type":"node","osm_id":1868259819,"type":"town","location":[44.7224953,39.9138481],"bbox":[44.6824953,39.8738481,44.7624953,39.9538481],"border":[{"name":"Վեդի","other_names":{"name:en":"Vedi","name:hy":"Վեդի","name:ru":"Веди"},"display_name":"Վեդի, Վեդի համայնք, Արարատի մարզ, 0601, Հայաստան","address":{"town":"Վեդի","state_district":"Վեդի համայնք","state":"Արարատի մարզ","ISO3166-2-lvl4":"AM-AR","postcode":"0601","country":"Հայաստան","country_code":"am"},"population":11809,"osm_type":"way","osm_id":1248888886,"type":"town","location":[44.70384042121216,39.914775899999995],"bbox":[44.6663957,39.8923175,44.7488878,39.9377543]},{"name":"Վեդի","other_names":{"name:en":"Vedi","name:hy":"Վեդի","name:ru":"Веди","name:el":"Βέντι","name:ku":"Vêdî","name:lt":"Vedis","name:ml":"വെഡി","name:ckb":"ڤێدی"},"display_name":"Վեդի, Վեդի համայնք, Արարատի մարզ, 0601, Հայաստան","address":{"town":"Վեդի","state_district":"Վեդի համայնք","state":"Արարատի մարզ","ISO3166-2-lvl4":"AM-AR","postcode":"0601","country":"Հայաստան","country_code":"am"},"population":11799,"osm_type":"relation","osm_id":9330351,"type":"administrative","location":[44.7224953,39.9138481],"bbox":[44.6978506,39.9017937,44.7427594,39.9255473]}]}
{"name":"Տաշիր","other_names":{"name:de":"Taschir","name:el":"Τασίρ","name:en":"Tashir","name:fr":"Tachir","name:hy":"Տաշիր","name:ka":"ტაშირი","name:ku":"Taşîr","name:ml":"ടാഷിർ","name:ru":"Ташир","name:ckb":"تاشیر","nat_name":"Տաշիր","old_name":"Vorontsovka, Kalinino, Kaliniko, Kalinin"},"display_name":"Տաշիր, Տաշիր համայնք, Լոռու մարզ, Հայաստան","address":{"town":"Տաշիր","state_district":"Տաշիր համայնք","state":"Լոռու մարզ","ISO3166-2-lvl4":"AM-LO","country":"Հայաստան","country_code":"am"},"population":7232,"osm_type":"node","osm_id":209803279,"type":"town","location":[44.2841667,41.1213636],"bbox":[44.2441667,41.0813636,44.3241667,41.1613636],"border":{"name":"Տաշիր","other_names":{"name:de":"Taschir","name:en":"Tashir","name:fr":"Tachir","name:hy":"Տաշիր","name:ka":"ტაშირი","name:ru":"Ташир","name:el":"Τασίρ","name:ku":"Taşîr","name:ml":"ടാഷിർ","name:ckb":"تاشیر","nat_name":"Տաշիր","old_name":"Vorontsovka, Kalinino, Kaliniko, Kalinin"},"display_name":"Տաշիր, Տաշիր համայնք, Լոռու մարզ, Հայաստան","address":{"town":"Տաշիր","state_district":"Տաշիր համայնք","state":"Լոռու մարզ","ISO3166-2-lvl4":"AM-LO","country":"Հայաստան","country_code":"am"},"population":7500,"osm_type":"relation","osm_id":10259397,"type":"administrative","location":[44.2841667,41.1213636],"bbox":[44.270891,41.0944039,44.3091317,41.1400679]}}
{"name":"Քաջարան","other_names":{"name:az":"Qacaran kəndi","name:de":"Kadscharan","name:en":"Kajaran","name:fa":"کاجاران","name:hr":"Kadžaran","name:hy":"Քաջարան","name:ja":"カジャラン","name:ku":"Kacaran","name:lt":"Kadžaranas","name:ml":"കാജറാൻ","name:ru":"Каджаран","name:sr":"Каџаран","name:uk":"Каджаран","alt_name":"Kajaran;K’ajaran;Qacaran;Kadjaran;Kadzharan;Gajaran","int_name":"Kajaran","name:ckb":"کاجاران","nat_name":"Քաջարան"},"display_name":"Քաջարան, Քաջարան համայնք, Սյունիքի մարզ, 3309, Հայաստան","address":{"town":"Քաջարան","state_district":"Քաջարան համայնք","state":"Սյունիքի մարզ","ISO3166-2-lvl4":"AM-SU","postcode":"3309","country":"Հայաստան","country_code":"am"},"population":6810,"osm_type":"node","osm_id":210281886,"type":"town","location":[46.1554005,39.1510126],"bbox":[46.1154005,39.1110126,46.1954005,39.1910126],"border":{"name":"Քաջարան","other_names":{"name:az":"Qacaran kəndi","name:en":"Kajaran","name:fa":"کاجاران","name:hy":"Քաջարան","name:ru":"Каджаран","name:de":"Kadscharan","name:hr":"Kadžaran","name:ja":"カジャラン","name:ku":"Kacaran","name:lt":"Kadžaranas","name:ml":"കാജറാൻ","name:sr":"Каџаран","name:uk":"Каджаран","alt_name":"Kajaran;K’ajaran;Qacaran;Kadjaran;Kadzharan;Gajaran","int_name":"Kajaran","name:ckb":"کاجاران","nat_name":"Քաջարան"},"display_name":"Քաջարան, Քաջարան համայնք, Սյունիքի մարզ, 3309, Հայաստան","address":{"town":"Քաջարան","state_district":"Քաջարան համայնք","state":"Սյունիքի մարզ","ISO3166-2-lvl4":"AM-SU","postcode":"3309","country":"Հայաստան","country_code":"am"},"population":6810,"osm_type":"way","osm_id":177199863,"type":"town","location":[46.1554005,39.1510126],"bbox":[46.1363719,39.1478129,46.1730918,39.1622527]}}
