{"name":"Schaan","other_names":{"name:de":"Schaan","name:fr":"Schaan","name:mk":"Шан","name:ru":"Шан","name:uk":"Шан","name:zh":"沙恩","loc_name":"Schaa","loc_name:de":"Schaa"},"display_name":"Schaan, Oberland, 9494, Liechtenstein","address":{"town":"Schaan","ISO3166-2-lvl8":"LI-07","county":"Oberland","postcode":"9494","country":"Liechtenstein","country_code":"li"},"population":6002,"osm_type":"node","osm_id":240079149,"type":"town","location":[9.510312,47.1663397],"bbox":[9.470312,47.1263397,9.550312,47.2063397],"border":{"name":"Schaan","other_names":{"name:de":"Schaan","ISO3166-2":"LI-07","name:fr":"Schaan","name:mk":"Шан","name:ru":"Шан","name:uk":"Шан","name:zh":"沙恩","loc_name":"Schaa","loc_name:de":"Schaa"},"display_name":"Schaan, Oberland, 9494, Liechtenstein","address":{"town":"Schaan","ISO3166-2-lvl8":"LI-07","county":"Oberland","postcode":"9494","country":"Liechtenstein","country_code":"li"},"population":6002,"osm_type":"relation","osm_id":1155952,"type":"administrative","location":[9.510312,47.1663397],"bbox":[9.4858412,47.0607574,9.6247232,47.1942267]}}
{"name":"Vaduz","other_names":{"name:am":"ፋዱጽ","name:ar":"فادوز","name:az":"Vaduts","name:be":"Вадуц","name:bg":"Вадуц","name:bn":"ফাডুৎস","name:bo":"བ་དུ་ཛི།","name:ca":"Vaduz","name:cv":"Вадуц","name:de":"Vaduz","name:el":"Βαντούζ","name:en":"Vaduz","name:eo":"Vaduzo","name:es":"Vaduz","name:fa":"فادوتس","name:fr":"Vaduz","name:he":"ואדוץ","name:ht":"Vadouz","name:hu":"Vaduz","name:hy":"Վադուց","name:it":"Vaduz","name:ja":"ファドゥーツ","name:ka":"ვადუცი","name:ko":"파두츠","name:ky":"Вадуц","name:la":"Dulcis Vallis","name:lt":"Vaducas","name:lv":"Vaduca","name:mk":"Вадуц","name:mr":"फाडुट्स","name:no":"Vaduz","name:os":"Вадуц","name:pa":"ਫ਼ਾਦੁਤਸ","name:pl":"Vaduz","name:ro":"Vaduz","name:ru":"Вадуц","name:sr":"Вадуц","name:ta":"வாதூசு","name:tg":"Вадутс","name:th":"วาดุซ","name:tr":"Vaduz","name:ug":"ۋادۇز","name:uk":"Вадуц","name:ur":"فادوتس","name:wo":"Wadus","name:zh":"瓦杜茲","name:ckb":"ڤادوز","name:grc":"Ἡδεῖα Κοιλάς","name:lij":"Vadus","name:nds":"Vaduz","name:pnb":"وادوس","name:sah":"Вадуц","name:udm":"Вадуц","name:vep":"Vaduc","name:be-tarask":"Вадуц"},"display_name":"Vaduz, Oberland, 9490, Liechtenstein","address":{"town":"Vaduz","ISO3166-2-lvl8":"LI-11","county":"Oberland","postcode":"9490","country":"Liechtenstein","country_code":"li"},"population":5229,"osm_type":"node","osm_id":1932181216,"type":"town","location":[9.5227962,47.1392862],"bbox":[9.4827962,47.0992862,9.5627962,47.1792862],"border":{"name":"Vaduz","other_names":{"name:de":"Vaduz","name:el":"Βαντούζ","name:fr":"Vaduz","name:it":"Vaduz","name:pa":"ਫ਼ਾਦੁਤਸ","name:sr":"Вадуц","name:ur":"فادوتس","name:grc":"Ἡδεῖα Κοιλάς","ISO3166-2":"LI-11","name:am":"ፋዱጽ","name:ar":"فادوز","name:az":"Vaduts","name:be":"Вадуц","name:bg":"Вадуц","name:bn":"ফাডুৎস","name:bo":"བ་དུ་ཛི།","name:ca":"Vaduz","name:cv":"Вадуц","name:en":"Vaduz","name:eo":"Vaduzo","name:es":"Vaduz","name:fa":"فادوتس","name:he":"ואדוץ","name:ht":"Vadouz","name:hu":"Vaduz","name:hy":"Վադուց","name:ja":"ファドゥーツ","name:ka":"ვადუცი","name:ko":"파두츠","name:ky":"Вадуц","name:la":"Dulcis Vallis","name:lt":"Vaducas","name:lv":"Vaduca","name:mk":"Вадуц","name:mr":"फाडुट्स","name:no":"Vaduz","name:os":"Вадуц","name:pl":"Vaduz","name:ro":"Vaduz","name:ru":"Вадуц","name:ta":"வாதூசு","name:tg":"Вадутс","name:th":"วาดุซ","name:tr":"Vaduz","name:ug":"ۋادۇز","name:uk":"Вадуц","name:wo":"Wadus","name:zh":"瓦杜茲","name:ckb":"ڤادوز","name:lij":"Vadus","name:nds":"Vaduz","name:pnb":"وادوس","name:sah":"Вадуц","name:udm":"Вадуц","name:vep":"Vaduc","name:be-tarask":"Вадуц"},"display_name":"Vaduz, Oberland, 9490, Liechtenstein","address":{"town":"Vaduz","ISO3166-2-lvl8":"LI-11","county":"Oberland","postcode":"9490","country":"Liechtenstein","country_code":"li"},"population":5229,"osm_type":"relation","osm_id":1155956,"type":"administrative","location":[9.5227962,47.1392862],"bbox":[9.4950763,47.0870567,9.6116778,47.1940393]}}
