{"name":"Balzers","other_names":{"name:de":"Balzers","name:fr":"Balzers","name:mk":"Балцерс","name:ru":"Бальцерс","name:uk":"Бальцерс","name:zh":"巴尔采斯","loc_name":"Baltsers","loc_name:de":"Baltsers"},"display_name":"Balzers, Oberland, 9496, Liechtenstein","address":{"village":"Balzers","ISO3166-2-lvl8":"LI-01","county":"Oberland","postcode":"9496","country":"Liechtenstein","country_code":"li"},"population":4608,"osm_type":"node","osm_id":240100249,"type":"village","location":[9.506159,47.0688822],"bbox":[9.486159,47.0488822,9.526159,47.0888822],"border":{"name":"Balzers","other_names":{"name:de":"Balzers","loc_name":"Baltsers","ISO3166-2":"LI-01","name:fr":"Balzers","name:mk":"Балцерс","name:ru":"Бальцерс","name:uk":"Бальцерс","name:zh":"巴尔采斯","loc_name:de":"Baltsers"},"display_name":"Balzers, Oberland, 9496, Liechtenstein","address":{"village":"Balzers","ISO3166-2-lvl8":"LI-01","county":"Oberland","postcode":"9496","country":"Liechtenstein","country_code":"li"},"population":4608,"osm_type":"relation","osm_id":1155953,"type":"administrative","location":[9.506159,47.0688822],"bbox":[9.4715658,47.0490919,9.6350038,47.164571]}}
{"name":"Bendern","other_names":{"name:de":"Bendern","name:el":"Μπέντερν","name:fr":"Bendern","name:ru":"Бендерн","name:uk":"Бендерн"},"display_name":"Bendern, Gamprin, Unterland, 9487, Liechtenstein","address":{"village":"Bendern","ISO3166-2-lvl8":"LI-03","county":"Unterland","postcode":"9487","country":"Liechtenstein","country_code":"li"},"osm_type":"node","osm_id":240070712,"type":"village","location":[9.5062136,47.2122144],"bbox":[9.4862136,47.1922144,9.5262136,47.2322144]}
{"name":"Ebenholz","display_name":"Ebenholz, Vaduz, Oberland, 9490, Liechtenstein","address":{"village":"Ebenholz","town":"Vaduz","ISO3166-2-lvl8":"LI-11","county":"Oberland","postcode":"9490","country":"Liechtenstein","country_code":"li"},"osm_type":"node","osm_id":3577169505,"type":"village","location":[9.5137953,47.1499909],"bbox":[9.4937953,47.1299909,9.5337953,47.1699909]}
{"name":"Eschen","other_names":{"name:de":"Eschen","name:el":"Έσεν","name:fr":"Eschen","name:mk":"Ешен","name:ru":"Э́шен","name:uk":"Ешен","name:zh":"埃申","loc_name":"Escha","loc_name:de":"Escha"},"display_name":"Eschen, Unterland, 9492, Liechtenstein","address":{"village":"Eschen","ISO3166-2-lvl8":"LI-02","county":"Unterland","postcode":"9492","country":"Liechtenstein","country_code":"li"},"population":4407,"osm_type":"node","osm_id":3022807519,"type":"village","location":[9.5233202,47.2126274],"bbox":[9.5033202,47.1926274,9.5433202,47.2326274],"border":{"name":"Eschen","other_names":{"name:de":"Eschen","ISO3166-2":"LI-02","name:el":"Έσεν","name:fr":"Eschen","name:mk":"Ешен","name:ru":"Э́шен","name:uk":"Ешен","name:zh":"埃申","loc_name":"Escha","loc_name:de":"Escha"},"display_name":"Eschen, Unterland, Liechtenstein","address":{"village":"Eschen","ISO3166-2-lvl8":"LI-02","county":"Unterland","country":"Liechtenstein","country_code":"li"},"population":4407,"osm_type":"relation","osm_id":1155949,"type":"administrative","location":[9.5233202,47.2126274],"bbox":[9.4878765,47.1868278,9.579003,47.2292154]}}
{"name":"Gamprin","other_names":{"name:de":"Gamprin","name:el":"Γκαμπρίν","name:fr":"Gamprin","name:mk":"Гамприн","name:ru":"Гамприн","name:uk":"Гампрін","name:zh":"甘普林","loc_name":"Gamprii","loc_name:de":"Gamprii"},"display_name":"Gamprin, Unterland, 9487, Liechtenstein","address":{"village":"Gamprin","ISO3166-2-lvl8":"LI-03","county":"Unterland","postcode":"9487","country":"Liechtenstein","country_code":"li"},"population":1654,"osm_type":"node","osm_id":240080206,"type":"village","location":[9.5102476,47.2190937],"bbox":[9.4902476,47.1990937,9.5302476,47.2390937],"border":{"name":"Gamprin","other_names":{"name:de":"Gamprin","ISO3166-2":"LI-03","name:el":"Γκαμπρίν","name:fr":"Gamprin","name:mk":"Гамприн","name:ru":"Гамприн","name:uk":"Гампрін","name:zh":"甘普林","loc_name":"Gamprii","loc_name:de":"Gamprii"},"display_name":"Gamprin, Unterland, 9487, Liechtenstein","address":{"village":"Gamprin","ISO3166-2-lvl8":"LI-03","county":"Unterland","postcode":"9487","country":"Liechtenstein","country_code":"li"},"population":1654,"osm_type":"relation","osm_id":1155947,"type":"administrative","location":[9.5102476,47.2190937],"bbox":[9.4922287,47.1871201,9.5651924,47.2333868]}}
{"name":"Malbun","other_names":{"name:de":"Malbun","name:uk":"Мальбун","name:zh":"马尔邦"},"display_name":"Malbun, Triesenberg, Oberland, Liechtenstein","address":{"village":"Malbun","ISO3166-2-lvl8":"LI-10","county":"Oberland","country":"Liechtenstein","country_code":"li"},"osm_type":"node","osm_id":347290636,"type":"village","location":[9.6083069,47.102619],"bbox":[9.5883069,47.082619,9.6283069,47.122619]}
{"name":"Mäls","display_name":"Mäls, Balzers, Oberland, 9496, Liechtenstein","address":{"village":"Mäls","ISO3166-2-lvl8":"LI-01","county":"Oberland","postcode":"9496","country":"Liechtenstein","country_code":"li"},"population":1532,"osm_type":"node","osm_id":6388202794,"type":"village","location":[9.4945105,47.0622171],"bbox":[9.4745105,47.0422171,9.5145105,47.0822171]}
{"name":"Masescha","display_name":"Masescha, Triesenberg, Oberland, 9497, Liechtenstein","address":{"village":"Masescha","ISO3166-2-lvl8":"LI-10","county":"Oberland","postcode":"9497","country":"Liechtenstein","country_code":"li"},"osm_type":"node","osm_id":4458494629,"type":"village","location":[9.5434979,47.132505],"bbox":[9.5234979,47.112505,9.5634979,47.152505]}
{"name":"Mauren","other_names":{"name:de":"Mauren","name:el":"Μάουρεν","name:mk":"Маурен","name:ru":"Маурен","name:uk":"Маурен","name:zh":"毛伦","loc_name":"Mura","loc_name:de":"Mura"},"display_name":"Mauren, Unterland, 9493, Liechtenstein","address":{"village":"Mauren","ISO3166-2-lvl8":"LI-04","county":"Unterland","postcode":"9493","country":"Liechtenstein","country_code":"li"},"population":4138,"osm_type":"node","osm_id":3022807520,"type":"village","location":[9.5418065,47.2196512],"bbox":[9.5218065,47.1996512,9.5618065,47.2396512],"border":{"name":"Mauren","other_names":{"name:de":"Mauren","ISO3166-2":"LI-04","name:el":"Μάουρεν","name:mk":"Маурен","name:ru":"Маурен","name:uk":"Маурен","name:zh":"毛伦","loc_name":"Mura","loc_name:de":"Mura"},"display_name":"Mauren, Unterland, Liechtenstein","address":{"village":"Mauren","ISO3166-2-lvl8":"LI-04","county":"Unterland","country":"Liechtenstein","country_code":"li"},"population":4138,"osm_type":"relation","osm_id":1155951,"type":"administrative","location":[9.5418065,47.2196512],"bbox":[9.5293256,47.1952079,9.5848953,47.2314552]}}
{"name":"Mühleholz","display_name":"Mühleholz, Vaduz, Oberland, 9494, Liechtenstein","address":{"village":"Mühleholz","town":"Vaduz","ISO3166-2-lvl8":"LI-11","county":"Oberland","postcode":"9494","country":"Liechtenstein","country_code":"li"},"osm_type":"node","osm_id":4740289308,"type":"village","location":[9.5115769,47.155566],"bbox":[9.4915769,47.135566,9.5315769,47.175566]}
{"name":"Nendeln","other_names":{"name:de":"Nendeln","name:el":"Νέντελν","name:ru":"Нендельн","name:uk":"Не́ндельн"},"display_name":"Nendeln, Eschen, Unterland, 9485, Liechtenstein","address":{"village":"Nendeln","ISO3166-2-lvl8":"LI-02","county":"Unterland","postcode":"9485","country":"Liechtenstein","country_code":"li"},"population":1357,"osm_type":"node","osm_id":240046176,"type":"village","location":[9.5430689,47.1973842],"bbox":[9.5230689,47.1773842,9.5630689,47.2173842]}
{"name":"Planken","other_names":{"name:de":"Planken","name:mk":"Планкен","name:ru":"Планкен","name:uk":"Планкен","name:zh":"普兰肯","loc_name":"Planka","loc_name:de":"Planka"},"display_name":"Planken, Oberland, 9498, Liechtenstein","address":{"village":"Planken","ISO3166-2-lvl8":"LI-05","county":"Oberland","postcode":"9498","country":"Liechtenstein","country_code":"li"},"population":445,"osm_type":"node","osm_id":32011242,"type":"village","location":[9.5452211,47.1858848],"bbox":[9.5252211,47.1658848,9.5652211,47.2058848],"border":{"name":"Planken","other_names":{"name:de":"Planken","ISO3166-2":"LI-05","name:mk":"Планкен","name:ru":"Планкен","name:uk":"Планкен","name:zh":"普兰肯","loc_name":"Planka","loc_name:de":"Planka"},"display_name":"Planken, Oberland, 9498, Liechtenstein","address":{"village":"Planken","ISO3166-2-lvl8":"LI-05","county":"Oberland","postcode":"9498","country":"Liechtenstein","country_code":"li"},"population":445,"osm_type":"relation","osm_id":1155954,"type":"administrative","location":[9.5452211,47.1858848],"bbox":[9.524455,47.1560628,9.5914268,47.1925027]}}
{"name":"Rotenboden","other_names":{"name:de":"Rotenboden","name:ru":"Ротенбоден"},"display_name":"Rotenboden, Triesenberg, Oberland, 9495, Liechtenstein","address":{"village":"Rotenboden","ISO3166-2-lvl8":"LI-10","county":"Oberland","postcode":"9495","country":"Liechtenstein","country_code":"li"},"osm_type":"node","osm_id":935278226,"type":"village","location":[9.5387175,47.1275781],"bbox":[9.5187175,47.1075781,9.5587175,47.1475781]}
{"name":"Ruggell","other_names":{"name:de":"Ruggell","name:el":"Ρούγκελ","name:mk":"Ругел","name:ru":"Руггелль","name:uk":"Руґґель","name:zh":"儒格尔","loc_name":"Ruggäll"},"display_name":"Ruggell, Unterland, 9491, Liechtenstein","address":{"village":"Ruggell","ISO3166-2-lvl8":"LI-06","county":"Unterland","postcode":"9491","country":"Liechtenstein","country_code":"li"},"population":2065,"osm_type":"node","osm_id":240120066,"type":"village","location":[9.5262871,47.2397575],"bbox":[9.5062871,47.2197575,9.5462871,47.2597575],"border":{"name":"Ruggell","other_names":{"name:de":"Ruggell","ISO3166-2":"LI-06","name:el":"Ρούγκελ","name:mk":"Ругел","name:ru":"Руггелль","name:uk":"Руґґель","name:zh":"儒格尔","loc_name":"Ruggäll"},"display_name":"Ruggell, Unterland, 9491, Liechtenstein","address":{"village":"Ruggell","ISO3166-2-lvl8":"LI-06","county":"Unterland","postcode":"9491","country":"Liechtenstein","country_code":"li"},"population":2065,"osm_type":"relation","osm_id":1155950,"type":"administrative","location":[9.5262871,47.2397575],"bbox":[9.5103331,47.2258092,9.5579,47.270581]}}
{"name":"Schaanwald","other_names":{"name:de":"Schaanwald","name:el":"Σάανβαλντ","name:ru":"Шанвальд"},"display_name":"Schaanwald, Mauren, Unterland, 9486, Liechtenstein","address":{"village":"Schaanwald","ISO3166-2-lvl8":"LI-04","county":"Unterland","postcode":"9486","country":"Liechtenstein","country_code":"li"},"osm_type":"node","osm_id":240060684,"type":"village","location":[9.5700026,47.2165446],"bbox":[9.5500026,47.1965446,9.5900026,47.2365446]}
{"name":"Schellenberg","other_names":{"name:de":"Schellenberg","name:el":"Σέλενμπεργκ","name:mk":"Шеленберг","name:ru":"Шелленберг","name:uk":"Шеллєнберг","name:zh":"施伦贝格","loc_name":"Schällabärg","loc_name:de":"Schällabärg"},"display_name":"Schellenberg, Unterland, 9488, Liechtenstein","address":{"village":"Schellenberg","ISO3166-2-lvl8":"LI-08","county":"Unterland","postcode":"9488","country":"Liechtenstein","country_code":"li"},"population":1037,"osm_type":"node","osm_id":240077147,"type":"village","location":[9.5458021,47.2312022],"bbox":[9.5258021,47.2112022,9.5658021,47.2512022],"border":{"name":"Schellenberg","other_names":{"name:de":"Schellenberg","ISO3166-2":"LI-08","name:el":"Σέλενμπεργκ","name:mk":"Шеленберг","name:ru":"Шелленберг","name:uk":"Шеллєнберг","name:zh":"施伦贝格","loc_name":"Schällabärg","loc_name:de":"Schällabärg"},"display_name":"Schellenberg, Unterland, 9488, Liechtenstein","address":{"village":"Schellenberg","ISO3166-2-lvl8":"LI-08","county":"Unterland","postcode":"9488","country":"Liechtenstein","country_code":"li"},"population":1037,"osm_type":"relation","osm_id":1155946,"type":"administrative","location":[9.5458021,47.2312022],"bbox":[9.5284564,47.2240972,9.5674105,47.25247]}}
{"name":"Steg","other_names":{"name:de":"Steg","name:fr":"Steg","name:ru":"Штег"},"display_name":"Steg, Triesenberg, Oberland, 9497, Liechtenstein","address":{"village":"Steg","ISO3166-2-lvl8":"LI-10","county":"Oberland","postcode":"9497","country":"Liechtenstein","country_code":"li"},"osm_type":"node","osm_id":1796218506,"type":"village","location":[9.576657,47.1125814],"bbox":[9.556657,47.0925814,9.596657,47.1325814]}
{"name":"Triesen","other_names":{"name:de":"Triesen","name:fr":"Triesen","name:mk":"Тризен","name:ru":"Тризен","name:uk":"Трізен","name:zh":"特里森","loc_name":"Tresa","loc_name:de":"Tresa"},"display_name":"Triesen, Oberland, 9495, Liechtenstein","address":{"village":"Triesen","ISO3166-2-lvl8":"LI-09","county":"Oberland","postcode":"9495","country":"Liechtenstein","country_code":"li"},"population":5050,"osm_type":"node","osm_id":240092661,"type":"village","location":[9.5274876,47.106994],"bbox":[9.5074876,47.086994,9.5474876,47.126994],"border":{"name":"Triesen","other_names":{"name:de":"Triesen","name:nl":"Triesen","ISO3166-2":"LI-09","name:fr":"Triesen","name:mk":"Тризен","name:ru":"Тризен","name:uk":"Трізен","name:zh":"特里森","loc_name":"Tresa","loc_name:de":"Tresa"},"display_name":"Triesen, Oberland, 9495, Liechtenstein","address":{"village":"Triesen","ISO3166-2-lvl8":"LI-09","county":"Oberland","postcode":"9495","country":"Liechtenstein","country_code":"li"},"population":5050,"osm_type":"relation","osm_id":1155945,"type":"administrative","location":[9.5274876,47.106994],"bbox":[9.5127623,47.0484291,9.603472,47.1244719]}}
{"name":"Triesenberg","other_names":{"name:de":"Triesenberg","name:mk":"Тризенберг","name:ru":"Тризенберг","name:uk":"Трізенберг","name:zh":"特里森贝格","loc_name":"Trisabäärg","loc_name:de":"Trisabäärg"},"display_name":"Triesenberg, Oberland, 9497, Liechtenstein","address":{"village":"Triesenberg","ISO3166-2-lvl8":"LI-10","county":"Oberland","postcode":"9497","country":"Liechtenstein","country_code":"li"},"population":2634,"osm_type":"node","osm_id":240106262,"type":"village","location":[9.5433663,47.1186181],"bbox":[9.5233663,47.0986181,9.5633663,47.1386181],"border":{"name":"Triesenberg","other_names":{"name:de":"Triesenberg","ISO3166-2":"LI-10","name:mk":"Тризенберг","name:ru":"Тризенберг","name:uk":"Трізенберг","name:zh":"特里森贝格","loc_name":"Trisabäärg","loc_name:de":"Trisabäärg"},"display_name":"Triesenberg, Oberland, 9497, Liechtenstein","address":{"village":"Triesenberg","ISO3166-2-lvl8":"LI-10","county":"Oberland","postcode":"9497","country":"Liechtenstein","country_code":"li"},"population":2634,"osm_type":"relation","osm_id":1155948,"type":"administrative","location":[9.5433663,47.1186181],"bbox":[9.5304765,47.0781382,9.6357143,47.1665343]}}
