{"name":"Adi Ahdiderom","display_name":"Adi Ahdiderom, ዞባ ማእከል Maekel zone المنطقة المركزية, ኤርትራ Eritrea إرتريا","address":{"city":"Adi Ahdiderom","state":"ዞባ ማእከል Maekel zone المنطقة المركزية","ISO3166-2-lvl4":"ER-MA","country":"ኤርትራ Eritrea إرتريا","country_code":"er"},"osm_type":"way","osm_id":1260528050,"type":"city","location":[38.96428152366549,15.189830749999999],"bbox":[38.9596745,15.1853492,38.9674683,15.1941743]}
{"name":"Adi Ahiderom","display_name":"Adi Ahiderom, ዞባ ማእከል Maekel zone المنطقة المركزية, ኤርትራ Eritrea إرتريا","address":{"city":"Adi Ahiderom","state":"ዞባ ማእከል Maekel zone المنطقة المركزية","ISO3166-2-lvl4":"ER-MA","country":"ኤርትራ Eritrea إرتريا","country_code":"er"},"osm_type":"node","osm_id":11716120766,"type":"city","location":[38.9660998,15.1937046],"bbox":[38.8060998,15.0337046,39.1260998,15.3537046]}
{"name":"ኣስመራ Asmara أسمرة","other_names":{"name:af":"Asmara","name:am":"አስመራ","name:an":"Asmara","name:ar":"أسمرة","name:az":"Əsməra","name:be":"Асмара","name:bg":"Асмара","name:bn":"আসমারা","name:bo":"ཨཱ་སི་མི་ར།","name:br":"Asmara","name:bs":"Asmara","name:ca":"Asmara","name:ce":"Асмэра","name:cs":"Asmara","name:cu":"Асмєра","name:cv":"Асмэра","name:cy":"Asmara","name:da":"Asmara","name:de":"Asmara","name:el":"Ασμάρα","name:en":"Asmara","name:eo":"Asmaro","name:es":"Asmara","name:et":"Asmara","name:eu":"Asmara","name:fa":"اسمره","name:fi":"Asmara","name:fr":"Asmara","name:fy":"Asmara","name:ga":"Asmara","name:gd":"Asmara","name:gl":"Asmara","name:ha":"Asmara","name:he":"אסמרה","name:hi":"अस्मारा","name:hr":"Asmera","name:ht":"Asmara","name:hu":"Aszmara","name:hy":"Ասմարա","name:ia":"Asmara","name:id":"Asmara","name:ie":"Asmara","name:io":"Asmara","name:is":"Asmara","name:it":"Asmara","name:ja":"アスマラ","name:jv":"Asmara","name:ka":"ასმერა","name:kg":"Asmara","name:kk":"Асмэра","name:kn":"ಅಸ್ಮಾರಾ","name:ko":"아스마라","name:ks":"اسمارا","name:ku":"Asmara","name:kw":"Asmara","name:ky":"Асмара","name:la":"Asmara","name:lb":"Asmara","name:lt":"Asmara","name:lv":"Asmera","name:mg":"Asmara","name:mk":"Асмара","name:ml":"അസ്മാറ","name:mn":"Асмара","name:mr":"अस्मारा","name:ms":"Asmara","name:mt":"Asmara","name:nb":"Asmara","name:nl":"Asmara","name:nn":"Asmara","name:no":"Asmara","name:oc":"Asmara","name:os":"Асмэрæ","name:pa":"ਅਸਮਾਰਾ","name:pl":"Asmara","name:ps":"اسمره","name:pt":"Asmara","name:qu":"Asmara","name:ro":"Asmara","name:ru":"Асмэра","name:rw":"Asmara","name:sc":"Asmara","name:sd":"اسمارا","name:sk":"Asmara","name:sl":"Asmara","name:sn":"Asmara","name:so":"Asmara","name:sq":"Asmara","name:sr":"Асмара","name:sv":"Asmara","name:sw":"Asmara","name:ta":"அஸ்மாரா","name:tg":"Асмэра","name:th":"แอสมารา","name:ti":"አስመራ","name:tl":"Asmara","name:tr":"Asmara","name:uk":"Асмара","name:ur":"اسمارا","name:uz":"Asmera","name:vi":"Asmara","name:wo":"Asmara","name:yo":"Asmara","name:zh":"阿斯馬拉","name:zu":"Asmara","name:azb":"اسمره","name:ckb":"ئاسمارا","name:gez":"ኣሥመራ","name:grc":"Ἀσμάρα","name:kab":"Asmara","name:kmr":"ئاسمارا","name:mrj":"Асмэра","name:pnb":"اسمارا","name:udm":"Асмэра","name:az-Arab":"اسمره","name:kk-Arab":"اسمەرا","name:kab-Arab":"أسمرة"},"display_name":"ኣስመራ Asmara أسمرة, ዞባ ማእከል Maekel zone المنطقة المركزية, ኤርትራ Eritrea إرتريا","address":{"city":"ኣስመራ Asmara أسمرة","state":"ዞባ ማእከል Maekel zone المنطقة المركزية","ISO3166-2-lvl4":"ER-MA","country":"ኤርትራ Eritrea إرتريا","country_code":"er"},"population":579000,"osm_type":"node","osm_id":5621920820,"type":"city","location":[38.9326763,15.3389667],"bbox":[38.7726763,15.1789667,39.0926763,15.4989667]}
{"name":"ከረን Keren كرن","other_names":{"name:ar":"كرن","name:de":"Keren","name:en":"Keren","name:es":"Keren","name:fa":"کرن","name:fr":"Keren","name:it":"Cheren","name:ko":"케렌","name:ks":"کرن","name:ru":"Керен","name:ti":"ከረን","name:uk":"Керен","name:ur":"کرن","name:azb":"کرن"},"display_name":"ከረን Keren كرن, ዞባ ዓንሰባ Anseba عنسبا, ኤርትራ Eritrea إرتريا","address":{"city":"ከረን Keren كرن","state":"ዞባ ዓንሰባ Anseba عنسبا","ISO3166-2-lvl4":"ER-AN","country":"ኤርትራ Eritrea إرتريا","country_code":"er"},"population":86438,"osm_type":"node","osm_id":317162067,"type":"city","location":[38.453606,15.780477],"bbox":[38.293606,15.620477,38.613606,15.940477]}
{"name":"ዓሰብ Assab عصب","other_names":{"name:ar":"عصب","name:be":"Асэб","name:ca":"Assab","name:cs":"Assab","name:da":"Assab","name:de":"Assab","name:el":"Άσσαμπ","name:en":"Assab","name:es":"Asab","name:et":"Assab","name:eu":"Assab","name:fa":"عصب","name:fi":"Assab","name:fr":"Assab","name:gl":"Assab","name:he":"אסאב","name:hr":"Assab","name:it":"Assab","name:ja":"アッサブ","name:ka":"ასები","name:ko":"아사브","name:ks":"عصب","name:la":"Avalites","name:lt":"Asebas","name:ml":"അസ്സബ്","name:ms":"Assab","name:nb":"Assab","name:nl":"Assab","name:nn":"Assab","name:pl":"Asab","name:pt":"Assab","name:ro":"Aseb","name:ru":"Асэб","name:so":"Casab","name:sv":"Assab","name:sw":"Assab","name:ti":"ዓሰብ","name:tr":"Assab","name:uk":"Ассаб","name:ur":"عصب","name:uz":"Aseb","name:vi":"Assab","name:zh":"阿萨布","name:zu":"Assab","name:azb":"عصب","alt_name:ti":"ዓሰብ"},"display_name":"ዓሰብ Assab عصب, ዞባ ደቡባዊ ቀይሕ ባሕሪ جنوب البحر الأحمر, ኤርትራ Eritrea إرتريا","address":{"city":"ዓሰብ Assab عصب","state":"ዞባ ደቡባዊ ቀይሕ ባሕሪ جنوب البحر الأحمر","ISO3166-2-lvl4":"ER-DK","country":"ኤርትራ Eritrea إرتريا","country_code":"er"},"population":74405,"osm_type":"node","osm_id":321263589,"type":"city","location":[42.7444596,13.0091289],"bbox":[42.5844596,12.8491289,42.9044596,13.1691289]}
