{"name":"/ قلاس / Glass","other_names":{"name:ar":"قلاس","name:en":"Glass","name:fr":"Glass","alt_name":"Qlas;جلاس"},"display_name":"/ قلاس / Glass, ዞባ ዓንሰባ Anseba عنسبا, ኤርትራ Eritrea إرتريا","address":{"town":"/ قلاس / Glass","state":"ዞባ ዓንሰባ Anseba عنسبا","ISO3166-2-lvl4":"ER-AN","country":"ኤርትራ Eritrea إرتريا","country_code":"er"},"osm_type":"way","osm_id":325804041,"type":"town","location":[38.314998768563214,15.7225794],"bbox":[38.3089684,15.7171781,38.318517,15.7269893]}
{"name":"Adi Quala ዓዲ ዃላ عدي خوالا","other_names":{"name:ar":"عدي خوالا","name:de":"Adi Kwala","name:en":"Adi Quala","name:es":"Adi Quala","name:fa":"ادی کوالا","name:fi":"Adi Quala","name:fr":"Adi Quala","name:hr":"Adi Quala","name:it":"Adi Quala","name:nb":"Adi Quala","name:nl":"Adi Kwala","name:pl":"Addi Kuala","name:ru":"Ади-Куала","name:ti":"ዓዲ ዃላ","name:uk":"Аді-Квала","name:ur":"ادی قوالا","name:zh":"阿迪夸拉","name:zu":"Adi Quala","alt_name:ar":"عدي كوالا","alt_name:en":"Adi Quala"},"display_name":"Adi Quala ዓዲ ዃላ عدي خوالا, ዞባ ደቡብ Debub منطقة الجنوب, ኤርትራ Eritrea إرتريا","address":{"town":"Adi Quala ዓዲ ዃላ عدي خوالا","state":"ዞባ ደቡብ Debub منطقة الجنوب","ISO3166-2-lvl4":"ER-DU","country":"ኤርትራ Eritrea إرتريا","country_code":"er"},"population":14000,"osm_type":"node","osm_id":321258615,"type":"town","location":[38.833557,14.633798],"bbox":[38.793557,14.593798,38.873557,14.673798]}
{"name":"Adi Tekelezan ዓዲ ተከሌዛን عدي تكليزان","other_names":{"name:ar":"عدي تكليزان","name:en":"Adi Tekelezan","name:fa":"ادی تکلزان","name:fr":"Adi Tekelezan","name:it":"Adi Teclesan","name:ja":"アディ・テケレザン","name:nb":"Adi Tekelezan","name:pl":"Addi Tekelezan","name:sv":"Ādī-Teklezan","name:ti":"Adi Tekelezan ዓዲ ተከሌዛን","name:zu":"Adi Tekelezan","alt_name:ar":"عدي تيكلزان"},"display_name":"Adi Tekelezan ዓዲ ተከሌዛን عدي تكليزان, ዞባ ዓንሰባ Anseba عنسبا, ኤርትራ Eritrea إرتريا","address":{"town":"Adi Tekelezan ዓዲ ተከሌዛን عدي تكليزان","state":"ዞባ ዓንሰባ Anseba عنسبا","ISO3166-2-lvl4":"ER-AN","country":"ኤርትራ Eritrea إرتريا","country_code":"er"},"osm_type":"node","osm_id":321211793,"type":"town","location":[38.7775987,15.5652836],"bbox":[38.7375987,15.5252836,38.8175987,15.6052836]}
{"name":"Badme ባድመ بادمة","other_names":{"name:ar":"بادمة","name:ca":"Badme","name:de":"Badme","name:en":"Badme","name:es":"Badme","name:fa":"بادمه","name:fi":"Badme","name:fr":"Badmé","name:id":"Badme","name:it":"Badme","name:ja":"バドメ","name:nb":"Badme","name:ro":"Badme","name:sv":"Badme","name:ti":"ባድመ","name:tr":"Badme","name:zh":"巴德梅","name:zu":"Badme","name:azb":"بادمه","alt_name:ar":"بادم"},"display_name":"Badme ባድመ بادمة, ጋሽ-ባርካ Gash-Barka القاش وبركة, ኤርትራ Eritrea إرتريا","address":{"town":"Badme ባድመ بادمة","state":"ጋሽ-ባርካ Gash-Barka القاش وبركة","ISO3166-2-lvl4":"ER-GB","country":"ኤርትራ Eritrea إرتريا","country_code":"er"},"population":1600,"osm_type":"node","osm_id":2304527878,"type":"town","location":[37.804595,14.726079],"bbox":[37.764595,14.686079,37.844595,14.766079]}
{"name":"Dedda ዴዳ ددا","other_names":{"name:ar":"ددا","name:en":"Dedda","name:fr":"Dedda","name:ti":"ዴዳ"},"display_name":"Dedda ዴዳ ددا, ጋሽ-ባርካ Gash-Barka القاش وبركة, ኤርትራ Eritrea إرتريا","address":{"town":"Dedda ዴዳ ددا","state":"ጋሽ-ባርካ Gash-Barka القاش وبركة","ISO3166-2-lvl4":"ER-GB","country":"ኤርትራ Eritrea إرتريا","country_code":"er"},"osm_type":"node","osm_id":4527256046,"type":"town","location":[37.6467846,15.3147313],"bbox":[37.6067846,15.2747313,37.6867846,15.3547313]}
{"name":"Dekemhare ደቀምሓረ دقمحري","other_names":{"name:ar":"دقمحري","name:da":"Dekemhare","name:de":"Dekemhare","name:en":"Dekemhare","name:es":"Dekemhare","name:fa":"دکمهاره","name:fi":"Dekemhare","name:fr":"Dekemhare","name:hr":"Dekemhare","name:it":"Decamerè","name:lt":"Dekemharė","name:nb":"Dekemhare","name:nl":"Dekemhare","name:pl":"Dekemhare","name:ru":"Дэкэмхаре","name:sn":"Dekemhare","name:sv":"Dek'emhāre","name:ti":"ደቀምሓረ","name:uk":"Декемгаре","name:ur":"دیکیمہارے","name:zh":"德克姆哈雷","name:zu":"Dekemhare","alt_name:ti":"ደቀምሓረ"},"display_name":"Dekemhare ደቀምሓረ دقمحري, ዞባ ደቡብ Debub منطقة الجنوب, ኤርትራ Eritrea إرتريا","address":{"town":"Dekemhare ደቀምሓረ دقمحري","state":"ዞባ ደቡብ Debub منطقة الجنوب","ISO3166-2-lvl4":"ER-DU","country":"ኤርትራ Eritrea إرتريا","country_code":"er"},"population":30000,"osm_type":"node","osm_id":4266676795,"type":"town","location":[39.0481692,15.0683207],"bbox":[39.0081692,15.0283207,39.0881692,15.1083207]}
{"name":"Emahmime ام همميمي","other_names":{"name:ar":"ام همميمي","name:en":"Emahmime","name:fr":"Emahmime","name:sv":"Emahmime"},"display_name":"Emahmime ام همميمي, ዞባ ሰሜናዊ ቀይሕ ባሕሪ Northern Red Sea شمال البحر الأحمر, ኤርትራ Eritrea إرتريا","address":{"town":"Emahmime ام همميمي","state":"ዞባ ሰሜናዊ ቀይሕ ባሕሪ Northern Red Sea شمال البحر الأحمر","ISO3166-2-lvl4":"ER-SK","country":"ኤርትራ Eritrea إرتريا","country_code":"er"},"osm_type":"node","osm_id":2050650183,"type":"town","location":[38.5486458,17.3826198],"bbox":[38.5086458,17.3426198,38.5886458,17.4226198]}
{"name":"Gahtelay ጋሕቴላይ قحتلاي","other_names":{"name:ar":"قحتلاي","name:en":"Gahtelay","name:fr":"Gahtielay","name:ti":"ጋሕተላይ","alt_name:ar":"غاهتلي;قهتيلي"},"display_name":"Gahtelay ጋሕቴላይ قحتلاي, ዞባ ሰሜናዊ ቀይሕ ባሕሪ Northern Red Sea شمال البحر الأحمر, ኤርትራ Eritrea إرتريا","address":{"town":"Gahtelay ጋሕቴላይ قحتلاي","state":"ዞባ ሰሜናዊ ቀይሕ ባሕሪ Northern Red Sea شمال البحر الأحمر","ISO3166-2-lvl4":"ER-SK","country":"ኤርትራ Eritrea إرتريا","country_code":"er"},"osm_type":"node","osm_id":312821690,"type":"town","location":[39.1495165,15.5249264],"bbox":[39.1095165,15.4849264,39.1895165,15.5649264]}
{"name":"Gheleb ገለብ خلب","other_names":{"name:ar":"خلب","name:en":"Gheleb","name:fr":"Gheleb","name:ti":"ገለብ"},"display_name":"Gheleb ገለብ خلب, ዞባ ዓንሰባ Anseba عنسبا, ኤርትራ Eritrea إرتريا","address":{"town":"Gheleb ገለብ خلب","state":"ዞባ ዓንሰባ Anseba عنسبا","ISO3166-2-lvl4":"ER-AN","country":"ኤርትራ Eritrea إرتريا","country_code":"er"},"osm_type":"node","osm_id":4449365186,"type":"town","location":[38.7542432,15.8329846],"bbox":[38.7142432,15.7929846,38.7942432,15.8729846]}
{"name":"Ghinda ጊንዳዕ جندع","other_names":{"name:ar":"جندع","name:de":"Ghinda","name:en":"Ghinda","name:es":"Ghinda","name:fr":"Ghinda","name:it":"Ghinda","name:ja":"ギンダ","name:nb":"Ghinda","name:pl":"Ghinda","name:ru":"Гинда","name:sv":"Ghinda'e","name:ti":"ጊንዳዕ","name:tr":"Ghinda","name:ur":"گہیندا","name:zh":"京達","name:zu":"Ghinda","alt_name:ti":"ጊንዳዕ"},"display_name":"Ghinda ጊንዳዕ جندع, ዞባ ሰሜናዊ ቀይሕ ባሕሪ Northern Red Sea شمال البحر الأحمر, ኤርትራ Eritrea إرتريا","address":{"town":"Ghinda ጊንዳዕ جندع","state":"ዞባ ሰሜናዊ ቀይሕ ባሕሪ Northern Red Sea شمال البحر الأحمر","ISO3166-2-lvl4":"ER-SK","country":"ኤርትራ Eritrea إرتريا","country_code":"er"},"osm_type":"node","osm_id":315105529,"type":"town","location":[39.0907406,15.4453151],"bbox":[39.0507406,15.4053151,39.1307406,15.4853151],"border":{"name":"Ghinda ጊንዳዕ جندع","other_names":{"name:ar":"جندع","name:de":"Ghinda","name:en":"Ghinda","name:es":"Ghinda","name:fr":"Ghinda","name:it":"Ghinda","name:ja":"ギンダ","name:nb":"Ghinda","name:pl":"Ghinda","name:ru":"Гинда","name:sv":"Ghinda'e","name:ti":"ጊንዳዕ","name:tr":"Ghinda","name:ur":"گہیندا","name:zh":"京達","name:zu":"Ghinda","alt_name:ti":"ጊንዳዕ"},"display_name":"Ghinda ጊንዳዕ جندع, ዞባ ሰሜናዊ ቀይሕ ባሕሪ Northern Red Sea شمال البحر الأحمر, ኤርትራ Eritrea إرتريا","address":{"town":"Ghinda ጊንዳዕ جندع","state":"ዞባ ሰሜናዊ ቀይሕ ባሕሪ Northern Red Sea شمال البحر الأحمر","ISO3166-2-lvl4":"ER-SK","country":"ኤርትራ Eritrea إرتريا","country_code":"er"},"population":14323,"osm_type":"way","osm_id":427460523,"type":"town","location":[39.0907406,15.4453151],"bbox":[39.0831341,15.4312216,39.1051042,15.4559319]}}
{"name":"Gogne ጐኘ جوني","other_names":{"name:ar":"جوني","name:en":"Gogne","name:fr":"Gogne","name:ti":"ጐኘ"},"display_name":"Gogne ጐኘ جوني, ጋሽ-ባርካ Gash-Barka القاش وبركة, ኤርትራ Eritrea إرتريا","address":{"town":"Gogne ጐኘ جوني","state":"ጋሽ-ባርካ Gash-Barka القاش وبركة","ISO3166-2-lvl4":"ER-GB","country":"ኤርትራ Eritrea إرتريا","country_code":"er"},"osm_type":"node","osm_id":7340552237,"type":"town","location":[37.3382083,15.1203479],"bbox":[37.2982083,15.0803479,37.3782083,15.1603479]}
{"name":"Golij ጐልጅ غلج","other_names":{"name:ar":"غلج","name:en":"Golij","name:fr":"Golij","name:ti":"ጐልጅ","alt_name:ar":"غلوج","alt_name:en":"Gulij"},"display_name":"Golij ጐልጅ غلج, ጋሽ-ባርካ Gash-Barka القاش وبركة, ኤርትራ Eritrea إرتريا","address":{"town":"Golij ጐልጅ غلج","state":"ጋሽ-ባርካ Gash-Barka القاش وبركة","ISO3166-2-lvl4":"ER-GB","country":"ኤርትራ Eritrea إرتريا","country_code":"er"},"osm_type":"node","osm_id":317151407,"type":"town","location":[36.7222612,14.7408216],"bbox":[36.6822612,14.7008216,36.7622612,14.7808216]}
{"name":"Hagaz ሓጋዝ حقاز","other_names":{"name:ar":"حقاز","name:en":"Hagaz","name:fr":"Hagaz","name:pl":"Hageza","name:ti":"ሓጋዝ","alt_name:ti":"ሓጋዝ"},"display_name":"Hagaz ሓጋዝ حقاز, ዞባ ዓንሰባ Anseba عنسبا, ኤርትራ Eritrea إرتريا","address":{"town":"Hagaz ሓጋዝ حقاز","state":"ዞባ ዓንሰባ Anseba عنسبا","ISO3166-2-lvl4":"ER-AN","country":"ኤርትራ Eritrea إرتريا","country_code":"er"},"osm_type":"node","osm_id":4311111471,"type":"town","location":[38.271432,15.703189],"bbox":[38.231432,15.663189,38.311432,15.743189]}
{"name":"Jurna جورنا","other_names":{"name:ar":"جورنا","name:en":"Jurna","name:fr":"Jurna","name:it":"Jurna"},"display_name":"Jurna جورنا, ጋሽ-ባርካ Gash-Barka القاش وبركة, ኤርትራ Eritrea إرتريا","address":{"town":"Jurna جورنا","state":"ጋሽ-ባርካ Gash-Barka القاش وبركة","ISO3166-2-lvl4":"ER-GB","country":"ኤርትራ Eritrea إرتريا","country_code":"er"},"osm_type":"node","osm_id":4230919498,"type":"town","location":[37.9162958,14.9514922],"bbox":[37.8762958,14.9114922,37.9562958,14.9914922]}
{"name":"Maydima ማይድማ ماء ديما","other_names":{"name:ar":"ماء ديما","name:en":"Maydima","name:fr":"Maydima","name:ti":"ማይድማ","alt_name:ar":"مي ديما"},"display_name":"Maydima ማይድማ ماء ديما, ዞባ ደቡብ Debub منطقة الجنوب, ኤርትራ Eritrea إرتريا","address":{"town":"Maydima ማይድማ ماء ديما","state":"ዞባ ደቡብ Debub منطقة الجنوب","ISO3166-2-lvl4":"ER-DU","country":"ኤርትራ Eritrea إرتريا","country_code":"er"},"population":20000,"osm_type":"node","osm_id":2304484690,"type":"town","location":[38.4622645,14.8981107],"bbox":[38.4222645,14.8581107,38.5022645,14.9381107]}
{"name":"Mogolo موغولو","other_names":{"name:ar":"موغولو","name:en":"Mogolo","name:fr":"Mogolo"},"display_name":"Mogolo موغولو, ጋሽ-ባርካ Gash-Barka القاش وبركة, ኤርትራ Eritrea إرتريا","address":{"town":"Mogolo موغولو","state":"ጋሽ-ባርካ Gash-Barka القاش وبركة","ISO3166-2-lvl4":"ER-GB","country":"ኤርትራ Eritrea إرتريا","country_code":"er"},"osm_type":"node","osm_id":7721071276,"type":"town","location":[37.667848,15.2544071],"bbox":[37.627848,15.2144071,37.707848,15.2944071]}
{"name":"Omhajer أم هاجر","other_names":{"name:ar":"أم هاجر","name:en":"Omhajer","name:fr":"Om Ager","name:it":"Om Ager","name:pl":"Om Hajer","name:zu":"Omhajer"},"display_name":"Omhajer أم هاجر, ጋሽ-ባርካ Gash-Barka القاش وبركة, ኤርትራ Eritrea إرتريا","address":{"town":"Omhajer أم هاجر","state":"ጋሽ-ባርካ Gash-Barka القاش وبركة","ISO3166-2-lvl4":"ER-GB","country":"ኤርትራ Eritrea إرتريا","country_code":"er"},"osm_type":"node","osm_id":313799319,"type":"town","location":[36.6526755,14.3230481],"bbox":[36.6126755,14.2830481,36.6926755,14.3630481]}
{"name":"Segeneiti ሰገነይቲ سغنيتي","other_names":{"name:ar":"سغنيتي","name:de":"Segheneytī","name:en":"Segeneiti","name:es":"Segeneiti","name:fa":"سگنیتی","name:fr":"Segeneiti","name:it":"Saganèiti","name:ja":"セゲネイティ","name:nb":"Segeneiti","name:pl":"Segeneiti","name:sv":"Segheneytī","name:ti":"ሰገነይቲ","name:ur":"سیگینیتی","name:zu":"Segeneiti","name:azb":"سقنیتی","alt_name:ar":"سجنيتي","alt_name:en":"Segenetti;Seganatti","alt_name:ti":"ሰገነይቲ"},"display_name":"Segeneiti ሰገነይቲ سغنيتي, ዞባ ደቡብ Debub منطقة الجنوب, ኤርትራ Eritrea إرتريا","address":{"town":"Segeneiti ሰገነይቲ سغنيتي","state":"ዞባ ደቡብ Debub منطقة الجنوب","ISO3166-2-lvl4":"ER-DU","country":"ኤርትራ Eritrea إرتريا","country_code":"er"},"osm_type":"node","osm_id":1950935923,"type":"town","location":[39.1890955,15.0531349],"bbox":[39.1490955,15.0131349,39.2290955,15.0931349]}
{"name":"Teraemni ተራእምኒ ترائمني","other_names":{"name:ar":"ترائمني","name:en":"Teraemni","name:fr":"Tera-Emni","name:ti":"ተራእምኒ","alt_name:ar":"تيرامني"},"display_name":"Teraemni ተራእምኒ ترائمني, ዞባ ደቡብ Debub منطقة الجنوب, ኤርትራ Eritrea إرتريا","address":{"town":"Teraemni ተራእምኒ ترائمني","state":"ዞባ ደቡብ Debub منطقة الجنوب","ISO3166-2-lvl4":"ER-DU","country":"ኤርትራ Eritrea إرتريا","country_code":"er"},"osm_type":"node","osm_id":7229008596,"type":"town","location":[38.8267244,15.0100156],"bbox":[38.7867244,14.9700156,38.8667244,15.0500156]}
{"name":"Tiyo ጢዖ طيعوا","other_names":{"name:ar":"طيعوا","name:de":"Tio","name:en":"Tiyo","name:fr":"Thio","name:ja":"ティヨ","name:nb":"Ti'o","name:no":"Ti'o","name:ti":"ጢዖ","name:uk":"Тійо","alt_name:ti":"ጢዖ"},"display_name":"Tiyo ጢዖ طيعوا, ዞባ ደቡባዊ ቀይሕ ባሕሪ جنوب البحر الأحمر, ኤርትራ Eritrea إرتريا","address":{"town":"Tiyo ጢዖ طيعوا","state":"ዞባ ደቡባዊ ቀይሕ ባሕሪ جنوب البحر الأحمر","ISO3166-2-lvl4":"ER-DK","country":"ኤርትራ Eritrea إرتريا","country_code":"er"},"osm_type":"node","osm_id":321265083,"type":"town","location":[40.9594327,14.688479],"bbox":[40.9194327,14.648479,40.9994327,14.728479]}
{"name":"Tocombia ቶኾምብያ توخومبيا","other_names":{"name:ar":"توخومبيا","name:en":"Tocombia","name:fr":"Tokombiya","name:ti":"ቶኾምብያ"},"display_name":"Tocombia ቶኾምብያ توخومبيا, ጋሽ-ባርካ Gash-Barka القاش وبركة, ኤርትራ Eritrea إرتريا","address":{"town":"Tocombia ቶኾምብያ توخومبيا","state":"ጋሽ-ባርካ Gash-Barka القاش وبركة","ISO3166-2-lvl4":"ER-GB","country":"ኤርትራ Eritrea إرتريا","country_code":"er"},"population":6689,"osm_type":"node","osm_id":2304600111,"type":"town","location":[37.4716562,14.7847234],"bbox":[37.4316562,14.7447234,37.5116562,14.8247234]}
{"name":"Tsazega ጸዓዘጋ صعازغا","other_names":{"name:ar":"صعازغا","name:en":"Tsazega","name:fr":"Tse'azega","name:it":"Zazzega","name:ti":"ጻዓዘጋ","name:zu":"Tsazega","alt_name:ti":"ጻዓዘጋ"},"display_name":"Tsazega ጸዓዘጋ صعازغا, ዞባ ማእከል Maekel zone المنطقة المركزية, ኤርትራ Eritrea إرتريا","address":{"town":"Tsazega ጸዓዘጋ صعازغا","state":"ዞባ ማእከል Maekel zone المنطقة المركزية","ISO3166-2-lvl4":"ER-MA","country":"ኤርትራ Eritrea إرتريا","country_code":"er"},"osm_type":"node","osm_id":321210711,"type":"town","location":[38.8007376,15.3512912],"bbox":[38.7607376,15.3112912,38.8407376,15.3912912]}
{"name":"Tzada Christian ጻዕዳ ክርስትያን صعدا كرستيان","other_names":{"name:ar":"صعدا كرستيان","name:en":"Tzada Christian","name:fr":"Tzada-Cristian","name:ti":"ጻዕዳ ክርስትያን","alt_name:ti":"ጻዕዳ ክርስትያን"},"display_name":"Tzada Christian ጻዕዳ ክርስትያን صعدا كرستيان, ዞባ ማእከል Maekel zone المنطقة المركزية, ኤርትራ Eritrea إرتريا","address":{"town":"Tzada Christian ጻዕዳ ክርስትያን صعدا كرستيان","state":"ዞባ ማእከል Maekel zone المنطقة المركزية","ISO3166-2-lvl4":"ER-MA","country":"ኤርትራ Eritrea إرتريا","country_code":"er"},"osm_type":"node","osm_id":354475940,"type":"town","location":[38.8495062,15.3316017],"bbox":[38.8095062,15.2916017,38.8895062,15.3716017]}
{"name":"መንደፈራ Mendefera مندفرا","other_names":{"name:ar":"مندفرا","name:da":"Mendefera","name:de":"Mendefera","name:el":"Μεντεφέρα","name:en":"Mendefera","name:es":"Mendefera","name:fa":"مندفرا","name:fi":"Mendefera","name:fr":"Mendefera","name:fy":"Mendefera","name:hr":"Mendefera","name:it":"Mendefera","name:ja":"メンデフェラ","name:ka":"მენდეფერა","name:ko":"멘데페라","name:lt":"Mendefera","name:nb":"Mendefera","name:nl":"Mendefera","name:pl":"Mendefera","name:ro":"Mendefera","name:ru":"Мэндэфэра","name:sv":"Mendefera","name:ti":"መንደፈራ","name:uk":"Мендефера","name:ur":"مندیفیرا","name:zh":"門德費拉","name:zu":"Mendefera","name:azb":"مندفرا","alt_name:ar":"منديفيرا","alt_name:ti":"መንደፈራ","old_name:ar":"عدي أوغري","old_name:en":"Adi Ugri","old_name:ti":"ዓዲ ወግዒ"},"display_name":"መንደፈራ Mendefera مندفرا, ዞባ ደቡብ Debub منطقة الجنوب, ኤርትራ Eritrea إرتريا","address":{"town":"መንደፈራ Mendefera مندفرا","state":"ዞባ ደቡብ Debub منطقة الجنوب","ISO3166-2-lvl4":"ER-DU","country":"ኤርትራ Eritrea إرتريا","country_code":"er"},"population":30000,"osm_type":"node","osm_id":312691689,"type":"town","location":[38.8129433,14.8841153],"bbox":[38.7729433,14.8441153,38.8529433,14.9241153]}
{"name":"መጠራ","other_names":{"name:ar":"مطرا","name:en":"Metera","name:fr":"Matara","name:ti":"መጠራ"},"display_name":"መጠራ, ዞባ ደቡብ Debub منطقة الجنوب, ኤርትራ Eritrea إرتريا","address":{"town":"መጠራ","state":"ዞባ ደቡብ Debub منطقة الجنوب","ISO3166-2-lvl4":"ER-DU","country":"ኤርትራ Eritrea إرتريا","country_code":"er"},"osm_type":"node","osm_id":6083931157,"type":"town","location":[39.4186288,14.687676],"bbox":[39.3786288,14.647676,39.4586288,14.727676]}
{"name":"ማይ ምነ Mai Mine ماء منه","other_names":{"name:ar":"ماء منه","name:en":"Mai Mine","name:fr":"Mai-Mine","name:ti":"ማይ ምነ","alt_name:ar":"ماي منه;مي مني"},"display_name":"ማይ ምነ Mai Mine ماء منه, ዞባ ደቡብ Debub منطقة الجنوب, ኤርትራ Eritrea إرتريا","address":{"town":"ማይ ምነ Mai Mine ماء منه","state":"ዞባ ደቡብ Debub منطقة الجنوب","ISO3166-2-lvl4":"ER-DU","country":"ኤርትራ Eritrea إرتريا","country_code":"er"},"osm_type":"node","osm_id":7094671310,"type":"town","location":[38.5020356,14.554469],"bbox":[38.4620356,14.514469,38.5420356,14.594469]}
{"name":"ምጽዋዕ Massawa مصوع","other_names":{"name:am":"ምጽዋ","name:ar":"مصوع","name:ca":"Massaua","name:cy":"Massawa","name:da":"Massaua","name:de":"Massaua","name:el":"Μασάουα","name:en":"Massawa","name:es":"Massawa","name:eu":"Massawa","name:fa":"مصوع","name:fi":"Massawa","name:fr":"Massaoua","name:fy":"Massawa","name:ga":"Massawa","name:gl":"Massaua","name:he":"מאסאווה","name:hr":"Massawa","name:id":"Massaua","name:it":"Massaua","name:ja":"マッサワ","name:ka":"მასაუა","name:ko":"마사와","name:ks":"مصوع","name:la":"Massaua","name:lt":"Masava","name:mr":"मासावा","name:nb":"Massawa","name:nl":"Massawa","name:nn":"Massawa","name:pl":"Massaua","name:pt":"Maçuá","name:ro":"Massawa","name:ru":"Массауа","name:sn":"Massawa","name:sv":"Massawa","name:ti":"ምጽዋዕ","name:tr":"Massava","name:uk":"Массауа","name:ur":"مصوع","name:yi":"מאסאווע","name:zh":"马萨瓦","name:zu":"Massawa","name:azb":"مصوع","alt_name:ar":"باضع;رأس مدر","alt_name:en":"Mitsiwa;Batsi';Badi"},"display_name":"ምጽዋዕ Massawa مصوع, ዞባ ሰሜናዊ ቀይሕ ባሕሪ Northern Red Sea شمال البحر الأحمر, ኤርትራ Eritrea إرتريا","address":{"town":"ምጽዋዕ Massawa مصوع","state":"ዞባ ሰሜናዊ ቀይሕ ባሕሪ Northern Red Sea شمال البحر الأحمر","ISO3166-2-lvl4":"ER-SK","country":"ኤርትራ Eritrea إرتريا","country_code":"er"},"population":45975,"osm_type":"node","osm_id":288517213,"type":"town","location":[39.4636974,15.6031828],"bbox":[39.4236974,15.5631828,39.5036974,15.6431828]}
{"name":"ሰንዓፈ Senafe صنعفي","other_names":{"name:am":"ሰናፌ","name:ar":"صنعفي","name:de":"Senafe","name:en":"Senafe","name:es":"Senafe","name:fa":"سنافه","name:fr":"Senafé","name:it":"Senafè","name:nb":"Senafe","name:pl":"Senafe","name:ru":"Сэнафе","name:sv":"Senafe","name:ti":"ሰንዓፈ","name:uk":"Сенафе","name:ur":"سینافے","name:zh":"瑟納費","name:zu":"Senafe","alt_name:en":"Saanafé;Hakir","alt_name:ti":"ሰንዓፈ"},"display_name":"ሰንዓፈ Senafe صنعفي, ዞባ ደቡብ Debub منطقة الجنوب, ኤርትራ Eritrea إرتريا","address":{"town":"ሰንዓፈ Senafe صنعفي","state":"ዞባ ደቡብ Debub منطقة الجنوب","ISO3166-2-lvl4":"ER-DU","country":"ኤርትራ Eritrea إرتريا","country_code":"er"},"osm_type":"node","osm_id":321223133,"type":"town","location":[39.424382,14.701755],"bbox":[39.384382,14.661755,39.464382,14.741755]}
{"name":"ሻምብቆ Shambiko شامبيكو","other_names":{"name:ar":"شامبيكو","name:en":"Shambiko","name:fr":"Shambiko","name:ti":"ሻምብቆ"},"display_name":"ሻምብቆ Shambiko شامبيكو, ጋሽ-ባርካ Gash-Barka القاش وبركة, ኤርትራ Eritrea إرتريا","address":{"town":"ሻምብቆ Shambiko شامبيكو","state":"ጋሽ-ባርካ Gash-Barka القاش وبركة","ISO3166-2-lvl4":"ER-GB","country":"ኤርትራ Eritrea إرتريا","country_code":"er"},"population":2600,"osm_type":"node","osm_id":321218257,"type":"town","location":[37.8355578,14.9182528],"bbox":[37.7955578,14.8782528,37.8755578,14.9582528]}
{"name":"ባረንቱ Barentu بارنتو","other_names":{"name:ar":"بارنتو","name:de":"Barentu","name:en":"Barentu","name:fi":"Barentu","name:fr":"Barentu","name:it":"Barentù","name:ja":"バレンツ (エリトリア)","name:ka":"ბარენტუ","name:ko":"바렌투","name:lb":"Barentu","name:lt":"Barentu","name:nb":"Barentu","name:nl":"Barentu","name:pl":"Barentu","name:pt":"Barentu","name:ro":"Barentu","name:ru":"Баренту","name:sv":"Barentu","name:ti":"ባረንቱ","name:uk":"Баренту","name:ur":"بارینتو، ارتریا","name:zh":"巴倫圖","name:zu":"Barentu, Eritrea"},"display_name":"ባረንቱ Barentu بارنتو, ጋሽ-ባርካ Gash-Barka القاش وبركة, ኤርትራ Eritrea إرتريا","address":{"town":"ባረንቱ Barentu بارنتو","state":"ጋሽ-ባርካ Gash-Barka القاش وبركة","ISO3166-2-lvl4":"ER-GB","country":"ኤርትራ Eritrea إرتريا","country_code":"er"},"population":18500,"osm_type":"node","osm_id":317148383,"type":"town","location":[37.5888782,15.1056714],"bbox":[37.5488782,15.0656714,37.6288782,15.1456714]}
{"name":"ተሰነይ Teseney تسني","other_names":{"name:ar":"تسني","name:da":"Tesseney","name:de":"Tesseney","name:el":"Τεσενέι","name:en":"Teseney","name:es":"Teseney","name:fa":"تسنی","name:fi":"Teseney","name:fr":"Tesseney","name:he":"טסניי","name:hr":"Teseney","name:it":"Tessenei","name:nb":"Tesseney","name:pl":"Tesenej","name:ru":"Тэсэнэй","name:sv":"Teseney","name:ti":"ተሰነይ","name:ur":"تسنی","name:zh":"特瑟內","name:zu":"Teseney","alt_name:ti":"ተሰነይ"},"display_name":"ተሰነይ Teseney تسني, ጋሽ-ባርካ Gash-Barka القاش وبركة, ኤርትራ Eritrea إرتريا","address":{"town":"ተሰነይ Teseney تسني","state":"ጋሽ-ባርካ Gash-Barka القاش وبركة","ISO3166-2-lvl4":"ER-GB","country":"ኤርትራ Eritrea إرتريا","country_code":"er"},"population":18000,"osm_type":"node","osm_id":313795917,"type":"town","location":[36.660338,15.109466],"bbox":[36.620338,15.069466,36.700338,15.149466]}
{"name":"ናቕፋ Nakfa نقفا","other_names":{"name:ar":"نقفا","name:da":"Nakfa (by)","name:de":"Nakfa (Stadt)","name:en":"Nakfa","name:fa":"ناکفا","name:fi":"Nakfa","name:fr":"Nakfa","name:it":"Nacfa","name:ka":"ნაკფა","name:ko":"낙파 (도시)","name:nb":"Nakfa (by)","name:pl":"Nakfa (miasto)","name:ru":"Накфа","name:ti":"ናቕፋ","name:tr":"Nakfa (kent)","name:uk":"Накфа","name:ur":"ناخفا، ارتریا","name:zh":"納克法 (厄立特里亞)","name:zu":"Nakfa, Eritrea"},"display_name":"ናቕፋ Nakfa نقفا, ዞባ ሰሜናዊ ቀይሕ ባሕሪ Northern Red Sea شمال البحر الأحمر, ኤርትራ Eritrea إرتريا","address":{"town":"ናቕፋ Nakfa نقفا","state":"ዞባ ሰሜናዊ ቀይሕ ባሕሪ Northern Red Sea شمال البحر الأحمر","ISO3166-2-lvl4":"ER-SK","country":"ኤርትራ Eritrea إرتريا","country_code":"er"},"osm_type":"node","osm_id":2050342291,"type":"town","location":[38.4768068,16.6655773],"bbox":[38.4368068,16.6255773,38.5168068,16.7055773]}
{"name":"ኣቑርደት Akordat أغوردات","other_names":{"name:ar":"أغوردات","name:da":"Agordat","name:de":"Agordat","name:en":"Agordat","name:es":"Agordat","name:et":"Agordat","name:fa":"آگوردات","name:fi":"Akordat","name:fr":"Agordat","name:hr":"Agordat","name:it":"Agordat","name:ja":"アゴルダト","name:lt":"Agordatas","name:nb":"Agordat","name:pl":"Akordat","name:pt":"Agordat","name:ru":"Агордат","name:sn":"Agordat","name:sv":"Ak'ordat","name:ti":"ኣቑርደት","name:uk":"Агордат","name:ur":"اگوردات","name:zh":"阿科達特","name:zu":"Agordat","alt_name":"Āk'ordat;Agordat;Akordat;Akurdet;Adirdat;Akwirdet;Akirdat;Figordat","name:azb":"آقوردات"},"display_name":"ኣቑርደት Akordat أغوردات, ጋሽ-ባርካ Gash-Barka القاش وبركة, ኤርትራ Eritrea إرتريا","address":{"town":"ኣቑርደት Akordat أغوردات","state":"ጋሽ-ባርካ Gash-Barka القاش وبركة","ISO3166-2-lvl4":"ER-GB","country":"ኤርትራ Eritrea إرتريا","country_code":"er"},"population":30000,"osm_type":"node","osm_id":321209318,"type":"town","location":[37.8863302,15.5499995],"bbox":[37.8463302,15.5099995,37.9263302,15.5899995],"border":{"name":"Akordat ኣቑርደት أغوردات","other_names":{"name:ar":"أغوردات","name:en":"Akordat","name:fa":"آگوردات","name:fr":"Agordat","name:ti":"አቑርደት","name:ur":"اگوردات","name:azb":"آقوردات"},"display_name":"Akordat ኣቑርደት أغوردات, ጋሽ-ባርካ Gash-Barka القاش وبركة, ኤርትራ Eritrea إرتريا","address":{"town":"Akordat ኣቑርደት أغوردات","state":"ጋሽ-ባርካ Gash-Barka القاش وبركة","ISO3166-2-lvl4":"ER-GB","country":"ኤርትራ Eritrea إرتريا","country_code":"er"},"osm_type":"way","osm_id":325547255,"type":"town","location":[37.88269439037376,15.54460015],"bbox":[37.8694838,15.531585,37.8968417,15.557826]}}
{"name":"ኣፍዓበት أفعبت Af'abet","other_names":{"name:ar":"أفعبت","name:de":"Af'abet","name:en":"Af'abet","name:fi":"Afabet","name:fr":"Afabet","name:it":"Afabet","name:ja":"アファベト","name:nb":"Afabet","name:pl":"Afabet","name:ru":"Афабет","name:uk":"Афабет","name:zu":"Afabet","name:ar1":"أفابت"},"display_name":"ኣፍዓበት أفعبت Af'abet, ዞባ ሰሜናዊ ቀይሕ ባሕሪ Northern Red Sea شمال البحر الأحمر, ኤርትራ Eritrea إرتريا","address":{"town":"ኣፍዓበት أفعبت Af'abet","state":"ዞባ ሰሜናዊ ቀይሕ ባሕሪ Northern Red Sea شمال البحر الأحمر","ISO3166-2-lvl4":"ER-SK","country":"ኤርትራ Eritrea إرتريا","country_code":"er"},"osm_type":"node","osm_id":3858638211,"type":"town","location":[38.6890592,16.1888841],"bbox":[38.6490592,16.1488841,38.7290592,16.2288841]}
{"name":"እምባ ደርሆ Emba Derho إمبا درهو","other_names":{"name:ar":"إمبا درهو","name:en":"Emba Derho","name:fr":"Emba Derho","alt_name:ti":"እምባ ደርሆ"},"display_name":"እምባ ደርሆ Emba Derho إمبا درهو, ዞባ ማእከል Maekel zone المنطقة المركزية, ኤርትራ Eritrea إرتريا","address":{"town":"እምባ ደርሆ Emba Derho إمبا درهو","state":"ዞባ ማእከል Maekel zone المنطقة المركزية","ISO3166-2-lvl4":"ER-MA","country":"ኤርትራ Eritrea إرتريا","country_code":"er"},"osm_type":"node","osm_id":2828477178,"type":"town","location":[38.8963241,15.4322012],"bbox":[38.8563241,15.3922012,38.9363241,15.4722012]}
{"name":"እንዳገርግስ Enda Giorgis إندا جرجس","other_names":{"name:ar":"إندا جرجس","name:en":"Enda Giorgis","name:fr":"Enda Giorgis","name:ti":"እንዳገርግስ"},"display_name":"እንዳገርግስ Enda Giorgis إندا جرجس, ዞባ ደቡብ Debub منطقة الجنوب, ኤርትራ Eritrea إرتريا","address":{"town":"እንዳገርግስ Enda Giorgis إندا جرجس","state":"ዞባ ደቡብ Debub منطقة الجنوب","ISO3166-2-lvl4":"ER-DU","country":"ኤርትራ Eritrea إرتريا","country_code":"er"},"osm_type":"node","osm_id":7230017947,"type":"town","location":[38.7562624,14.5592626],"bbox":[38.7162624,14.5192626,38.7962624,14.5992626]}
{"name":"ዓሰብ Assab عصب","other_names":{"name:ar":"عصب","name:be":"Асэб","name:ca":"Assab","name:cs":"Assab","name:da":"Assab","name:de":"Assab","name:en":"Assab","name:es":"Asab","name:eu":"Assab","name:fa":"عصب","name:fi":"Aseb","name:fr":"Assab","name:gl":"Assab","name:he":"אסאב","name:hr":"Assab","name:it":"Assab","name:ja":"アッサブ","name:ka":"ასები (ქალაქი)","name:ko":"아사브","name:ks":"عصب","name:lt":"Asebas","name:nb":"Assab","name:nl":"Assab","name:pl":"Asab","name:ps":"عصب","name:pt":"Assab","name:ro":"Aseb","name:ru":"Асэб","name:so":"Casab","name:sv":"Assab","name:ti":"ዓሰብ","name:tr":"Assab","name:uk":"Ассеб","name:ur":"عصب","name:uz":"Aseb","name:vi":"Assab","name:zh":"阿萨布","name:zu":"Assab","name:azb":"عصب","name:ota":"عصب","name:pnb":"عصب","name:el":"Άσσαμπ","name:et":"Assab","name:la":"Avalites","name:ml":"അസ്സബ്","name:ms":"Assab","name:nn":"Assab","name:sw":"Assab","alt_name:ti":"ዓሰብ","alt:fi":"Assab","alt:ka":"ასები","alt:uk":"Ассаб"},"display_name":"ዓሰብ Assab عصب, ዞባ ደቡባዊ ቀይሕ ባሕሪ جنوب البحر الأحمر, ኤርትራ Eritrea إرتريا","address":{"city":"ዓሰብ Assab عصب","state":"ዞባ ደቡባዊ ቀይሕ ባሕሪ جنوب البحر الأحمر","ISO3166-2-lvl4":"ER-DK","country":"ኤርትራ Eritrea إرتريا","country_code":"er"},"population":74405,"osm_type":"way","osm_id":421568625,"type":"town","location":[42.7444596,13.0091289],"bbox":[42.7232892,13.0020811,42.7488416,13.0349103]}
{"name":"ዓዲ ቐይሕ Adi Keyh عدي قيح","other_names":{"name:ar":"عدي قيح","name:de":"Adi Keyh","name:en":"Adi Keyh","name:es":"Adi Keyh","name:fa":"ادی کیه","name:fi":"Adi Keyh","name:fr":"Adi Keyh","name:it":"Adi Keyh","name:ja":"アディ・ケイ","name:lt":"Adi Keihas","name:nb":"Adi Keyh","name:nl":"Adi Keyh","name:pl":"Adi Kejh","name:ru":"Адди-Кэйих","name:sv":"Adi Keyh","name:ti":"ዓዲ ቐይሕ","name:uk":"Аді-Кеїх","name:ur":"ادی کیہ","name:zh":"阿迪克伊赫","name:zu":"Adi Keyh","alt_name:ti":"ዓዲ ቐይሕ"},"display_name":"ዓዲ ቐይሕ Adi Keyh عدي قيح, ዞባ ደቡብ Debub منطقة الجنوب, ኤርትራ Eritrea إرتريا","address":{"town":"ዓዲ ቐይሕ Adi Keyh عدي قيح","state":"ዞባ ደቡብ Debub منطقة الجنوب","ISO3166-2-lvl4":"ER-DU","country":"ኤርትራ Eritrea إرتريا","country_code":"er"},"osm_type":"node","osm_id":321262577,"type":"town","location":[39.372487,14.847566],"bbox":[39.332487,14.807566,39.412487,14.887566]}
{"name":"ዙላ Zula زولا","other_names":{"name:ar":"زولا","name:en":"Zula","name:es":"Zula","name:fr":"Zula","name:it":"Zula","name:ja":"ズラ","name:ko":"줄라","name:ru":"Зула","name:sv":"Zula","name:ti":"ዙላ","name:zh":"祖拉","name:zu":"Zula, Eritrea"},"display_name":"ዙላ Zula زولا, ዞባ ሰሜናዊ ቀይሕ ባሕሪ Northern Red Sea شمال البحر الأحمر, ኤርትራ Eritrea إرتريا","address":{"town":"ዙላ Zula زولا","state":"ዞባ ሰሜናዊ ቀይሕ ባሕሪ Northern Red Sea شمال البحر الأحمر","ISO3166-2-lvl4":"ER-SK","country":"ኤርትራ Eritrea إرتريا","country_code":"er"},"osm_type":"node","osm_id":4266181303,"type":"town","location":[39.670627,15.245677],"bbox":[39.630627,15.205677,39.710627,15.285677]}
{"display_name":"ዞባ ማእከል Maekel zone المنطقة المركزية, ኤርትራ Eritrea إرتريا","address":{"state":"ዞባ ማእከል Maekel zone المنطقة المركزية","ISO3166-2-lvl4":"ER-MA","country":"ኤርትራ Eritrea إرتريا","country_code":"er"},"osm_type":"node","osm_id":11867313509,"type":"town","location":[38.862253,15.4310251],"bbox":[38.822253,15.3910251,38.902253,15.4710251]}
{"display_name":"ዞባ ማእከል Maekel zone المنطقة المركزية, ኤርትራ Eritrea إرتريا","address":{"state":"ዞባ ማእከል Maekel zone المنطقة المركزية","ISO3166-2-lvl4":"ER-MA","country":"ኤርትራ Eritrea إرتريا","country_code":"er"},"osm_type":"node","osm_id":321210744,"type":"town","location":[38.8318252,15.3601044],"bbox":[38.7918252,15.3201044,38.8718252,15.4001044]}
{"display_name":"ዞባ ሰሜናዊ ቀይሕ ባሕሪ Northern Red Sea شمال البحر الأحمر, ኤርትራ Eritrea إرتريا","address":{"state":"ዞባ ሰሜናዊ ቀይሕ ባሕሪ Northern Red Sea شمال البحر الأحمر","ISO3166-2-lvl4":"ER-SK","country":"ኤርትራ Eritrea إرتريا","country_code":"er"},"osm_type":"node","osm_id":321221554,"type":"town","location":[39.7334233,15.0684839],"bbox":[39.6934233,15.0284839,39.7734233,15.1084839]}
{"name":"ድባርዋ Debarwa دباروا","other_names":{"name:ar":"دباروا","name:de":"Debarwa","name:en":"Debarwa","name:es":"Debarwa","name:fr":"Dbarwa","name:nb":"Debarwa","name:sv":"Debarwa","name:ti":"ድባርዋ","name:uk":"Дбарва","alt_name:ti":"ድባርዋ"},"display_name":"ድባርዋ Debarwa دباروا, ዞባ ደቡብ Debub منطقة الجنوب, ኤርትራ Eritrea إرتريا","address":{"town":"ድባርዋ Debarwa دباروا","state":"ዞባ ደቡብ Debub منطقة الجنوب","ISO3166-2-lvl4":"ER-DU","country":"ኤርትራ Eritrea إرتريا","country_code":"er"},"osm_type":"node","osm_id":4303551374,"type":"town","location":[38.8341185,15.0899869],"bbox":[38.7941185,15.0499869,38.8741185,15.1299869]}
{"name":"ጾሮና","other_names":{"name:ar":"صورونا","name:en":"Tsorona","name:fr":"Tserona","name:ti":"ጸሮና"},"display_name":"ጾሮና, ዞባ ደቡብ Debub منطقة الجنوب, ኤርትራ Eritrea إرتريا","address":{"town":"ጾሮና","state":"ዞባ ደቡብ Debub منطقة الجنوب","ISO3166-2-lvl4":"ER-DU","country":"ኤርትራ Eritrea إرتريا","country_code":"er"},"osm_type":"node","osm_id":2330208432,"type":"town","location":[39.1969904,14.6245525],"bbox":[39.1569904,14.5845525,39.2369904,14.6645525]}
{"name":"ፎሮ Foro فورو","other_names":{"name:ar":"فورو","name:en":"Foro","name:es":"Foro (Eritrea)","name:fr":"Foro","name:ja":"フォロ","name:pt":"Foro (Eritreia)","name:ru":"Форо","name:ti":"ፎሮ"},"display_name":"ፎሮ Foro فورو, ዞባ ሰሜናዊ ቀይሕ ባሕሪ Northern Red Sea شمال البحر الأحمر, ኤርትራ Eritrea إرتريا","address":{"town":"ፎሮ Foro فورو","state":"ዞባ ሰሜናዊ ቀይሕ ባሕሪ Northern Red Sea شمال البحر الأحمر","ISO3166-2-lvl4":"ER-SK","country":"ኤርትራ Eritrea إرتريا","country_code":"er"},"osm_type":"node","osm_id":4266181449,"type":"town","location":[39.622385,15.263033],"bbox":[39.582385,15.223033,39.662385,15.303033]}
