{"name":"Ādaži","other_names":{"name:de":"Neuermühlen","name:lt":"Adažai","name:lv":"Ādaži","name:ru":"Адажи"},"display_name":"Ādaži, Ādažu novads, LV-2164, Latvija","address":{"town":"Ādaži","city":"Ādaži","municipality":"Ādažu novads","ISO3166-2-lvl5":"LV-011","postcode":"LV-2164","country":"Latvija","country_code":"lv"},"population":4610,"osm_type":"node","osm_id":26745589,"type":"town","location":[24.3243287,57.0819829],"bbox":[24.2843287,57.0419829,24.3643287,57.1219829],"border":{"name":"Ādaži","display_name":"Ādaži, Ādažu novads, LV-2164, Latvija","address":{"city":"Ādaži","municipality":"Ādažu novads","ISO3166-2-lvl5":"LV-011","postcode":"LV-2164","country":"Latvija","country_code":"lv"},"osm_type":"relation","osm_id":2674570,"type":"administrative","location":[24.319579718079563,57.0874671],"bbox":[24.3121525,57.054551,24.3765853,57.1198904]}}
{"name":"Ainaži","other_names":{"name:de":"Haynasch","name:et":"Heinaste","name:lt":"Ainažiai","name:lv":"Ainaži","name:ru":"Айнажи","name:uk":"Айнажі","alt_name:de":"Hainasch"},"display_name":"Ainaži, Limbažu novads, Latvija","address":{"town":"Ainaži","municipality":"Limbažu novads","ISO3166-2-lvl5":"LV-054","country":"Latvija","country_code":"lv"},"population":994,"osm_type":"node","osm_id":29525419,"type":"town","location":[24.3586456,57.8636569],"bbox":[24.3186456,57.8236569,24.3986456,57.9036569],"border":{"name":"Ainaži","other_names":{"name:de":"Haynasch","name:et":"Heinaste","name:lt":"Ainažiai","name:lv":"Ainaži","name:ru":"Айнажи","alt_name:de":"Hainasch","name:uk":"Айнажі"},"display_name":"Ainaži, Limbažu novads, Latvija","address":{"town":"Ainaži","municipality":"Limbažu novads","ISO3166-2-lvl5":"LV-054","country":"Latvija","country_code":"lv"},"population":994,"osm_type":"relation","osm_id":1979179,"type":"administrative","location":[24.3586456,57.8636569],"bbox":[24.3359416,57.8279891,24.3811024,57.8767985]}}
{"name":"Aizkraukle","other_names":{"name:ar":"آيزاكراوكل","name:az":"Ayzkraukle","name:be":"Айзкраўклэ","name:bg":"Айзкраукле","name:de":"Ascheraden","name:fa":"آیزکراوکل","name:he":"אייזקראוקלה","name:hy":"Այզկրաուկլե","name:ka":"აიზკრაუკლე","name:ko":"아이스크라우클레","name:lt":"Aizkrauklė","name:lv":"Aizkraukle","name:nl":"Aizkraukle","name:pa":"ਏਜਕਰੌਕਲ","name:ru":"Айзкраукле","name:sr":"Ајзкраукле","name:tg":"Айзкраукле","name:uk":"Айзкраукле","name:ur":"آئزکراوکلے","name:zh":"艾茲克勞克萊"},"display_name":"Aizkraukle, Aizkraukles novads, LV-5101, Latvija","address":{"town":"Aizkraukle","city":"Aizkraukle","municipality":"Aizkraukles novads","ISO3166-2-lvl5":"LV-002","postcode":"LV-5101","country":"Latvija","country_code":"lv"},"population":8403,"osm_type":"node","osm_id":250832635,"type":"town","location":[25.2542544,56.6010778],"bbox":[25.2142544,56.5610778,25.2942544,56.6410778],"border":{"name":"Aizkraukle","other_names":{"name:de":"Ascheraden","name:lv":"Aizkraukle"},"display_name":"Aizkraukle, Aizkraukles novads, Latvija","address":{"city":"Aizkraukle","municipality":"Aizkraukles novads","ISO3166-2-lvl5":"LV-002","country":"Latvija","country_code":"lv"},"osm_type":"relation","osm_id":10373164,"type":"administrative","location":[25.255796760120244,56.595479850000004],"bbox":[25.2066593,56.5697371,25.2797489,56.6215511]}}
{"name":"Aizpute","other_names":{"name:de":"Hasenpot","name:lt":"Aizputė","name:lv":"Aizpute","name:pl":"Hazenpot","name:ru":"Айзпуте","alt_name:de":"Hasenpoth"},"display_name":"Aizpute, Dienvidkurzemes novads, Latvija","address":{"town":"Aizpute","municipality":"Dienvidkurzemes novads","ISO3166-2-lvl5":"LV-112","country":"Latvija","country_code":"lv"},"population":4983,"osm_type":"node","osm_id":29488931,"type":"town","location":[21.6067429,56.7226275],"bbox":[21.5667429,56.6826275,21.6467429,56.7626275],"border":{"name":"Aizpute","other_names":{"ref":"100003300","name:de":"Hasenpoth","name:lt":"Aizputė","name:lv":"Aizpute","name:pl":"Hazenpot","name:ru":"Айзпуте","alt_name:de":"Hasenpoth","alt:de":"Hasenpot"},"display_name":"Aizpute, Dienvidkurzemes novads, LV-3456, Latvija","address":{"town":"Aizpute","municipality":"Dienvidkurzemes novads","ISO3166-2-lvl5":"LV-112","postcode":"LV-3456","country":"Latvija","country_code":"lv"},"population":4983,"osm_type":"relation","osm_id":6649087,"type":"administrative","location":[21.6067429,56.7226275],"bbox":[21.5735853,56.701682,21.6370013,56.7296873]}}
{"name":"Aknīste","other_names":{"name:de":"Oknist","name:lt":"Aknystė","name:lv":"Aknīste","name:pl":"Oknista","name:ru":"Акнисте","alt_name:lt":"Aknysta"},"display_name":"Aknīste, Jēkabpils novads, Latvija","address":{"town":"Aknīste","municipality":"Jēkabpils novads","ISO3166-2-lvl5":"LV-042","country":"Latvija","country_code":"lv"},"population":1210,"osm_type":"node","osm_id":360624803,"type":"town","location":[25.7483539,56.1614742],"bbox":[25.7083539,56.1214742,25.7883539,56.2014742],"border":{"name":"Aknīste","other_names":{"name:de":"Oknist","name:lt":"Aknystė","name:lv":"Aknīste","name:pl":"Oknista","name:ru":"Акнисте","alt_name:lt":"Aknysta"},"display_name":"Aknīste, Jēkabpils novads, LV-5208, Latvija","address":{"town":"Aknīste","municipality":"Jēkabpils novads","ISO3166-2-lvl5":"LV-042","postcode":"LV-5208","country":"Latvija","country_code":"lv"},"population":1210,"osm_type":"relation","osm_id":6881375,"type":"administrative","location":[25.7483539,56.1614742],"bbox":[25.7227355,56.1499309,25.7664844,56.1719955]}}
{"name":"Aloja","other_names":{"name:de":"Allendorf","name:lt":"Aluoja","name:lv":"Aloja","name:ru":"Алоя"},"display_name":"Aloja, Limbažu novads, Latvija","address":{"town":"Aloja","municipality":"Limbažu novads","ISO3166-2-lvl5":"LV-054","country":"Latvija","country_code":"lv"},"population":1346,"osm_type":"node","osm_id":29525420,"type":"town","location":[24.876095,57.7701621],"bbox":[24.836095,57.7301621,24.916095,57.8101621],"border":{"name":"Aloja","other_names":{"name:lv":"Aloja","name:ru":"Алоя","name:de":"Allendorf","name:lt":"Aluoja"},"display_name":"Aloja, Limbažu novads, LV-4064, Latvija","address":{"town":"Aloja","municipality":"Limbažu novads","ISO3166-2-lvl5":"LV-054","postcode":"LV-4064","country":"Latvija","country_code":"lv"},"population":1346,"osm_type":"relation","osm_id":6687978,"type":"administrative","location":[24.876095,57.7701621],"bbox":[24.8617634,57.7588515,24.8927888,57.77762]}}
{"name":"Alūksne","other_names":{"name:de":"Marienburg","name:he":"אלוקסנה","name:lt":"Alūksnė","name:lv":"Alūksne","name:ru":"Алуксне","name:uk":"Алуксне","name:ltg":"Olyuksna"},"display_name":"Alūksne, Alūksnes novads, LV-4301, Latvija","address":{"town":"Alūksne","city":"Alūksne","municipality":"Alūksnes novads","ISO3166-2-lvl5":"LV-007","postcode":"LV-4301","country":"Latvija","country_code":"lv"},"population":8653,"osm_type":"node","osm_id":180310845,"type":"town","location":[27.0505075,57.4204759],"bbox":[27.0105075,57.3804759,27.0905075,57.4604759],"border":{"name":"Alūksne","other_names":{"name:de":"Marienburg","name:lt":"Alūksnė","name:lv":"Alūksne","name:ru":"Алуксне","name:ltg":"Olyuksna"},"display_name":"Alūksne, Alūksnes novads, LV-4301, Latvija","address":{"city":"Alūksne","municipality":"Alūksnes novads","ISO3166-2-lvl5":"LV-007","postcode":"LV-4301","country":"Latvija","country_code":"lv"},"osm_type":"relation","osm_id":1973255,"type":"administrative","location":[27.069374886249058,57.42249685],"bbox":[27.0200394,57.4028985,27.1232342,57.4420637]}}
{"name":"Ape","other_names":{"name:de":"Hoppenhof","name:en":"Ape","name:et":"Hopa","name:lt":"Apė","name:lv":"Ape","name:ru":"Апе","name:uk":"Апе"},"display_name":"Ape, Smiltenes novads, Latvija","address":{"town":"Ape","municipality":"Smiltenes novads","ISO3166-2-lvl5":"LV-094","country":"Latvija","country_code":"lv"},"population":1043,"osm_type":"node","osm_id":560248969,"type":"town","location":[26.6904607,57.5404485],"bbox":[26.6504607,57.5004485,26.7304607,57.5804485],"border":{"name":"Ape","other_names":{"name:de":"Hoppenhof","name:et":"Hopa","name:lt":"Apė","name:lv":"Ape","name:ru":"Апе","name:en":"Ape","name:uk":"Апе"},"display_name":"Ape, Smiltenes novads, LV-4337, Latvija","address":{"town":"Ape","municipality":"Smiltenes novads","ISO3166-2-lvl5":"LV-094","postcode":"LV-4337","country":"Latvija","country_code":"lv"},"population":1043,"osm_type":"relation","osm_id":1898581,"type":"administrative","location":[26.6904607,57.5404485],"bbox":[26.6812835,57.5322369,26.7268982,57.5465494]}}
{"name":"Auce","other_names":{"name:de":"Alt-Autz","name:lt":"Aucė","name:lv":"Auce","name:ru":"Ауце","name:uk":"Ауце","old_name":"Vecauce"},"display_name":"Auce, Dobeles novads, Latvija","address":{"town":"Auce","municipality":"Dobeles novads","ISO3166-2-lvl5":"LV-026","country":"Latvija","country_code":"lv"},"population":2981,"osm_type":"node","osm_id":278826695,"type":"town","location":[22.8960281,56.4652968],"bbox":[22.8560281,56.4252968,22.9360281,56.5052968],"border":[{"name":"Auce","other_names":{"ref":"100003204","name:lv":"Auce","name:ru":"Ауце","name:de":"Alt-Autz","name:lt":"Aucė","name:uk":"Ауце","old_name":"Vecauce"},"display_name":"Auce, Dobeles novads, LV-3708, Latvija","address":{"town":"Auce","municipality":"Dobeles novads","ISO3166-2-lvl5":"LV-026","postcode":"LV-3708","country":"Latvija","country_code":"lv"},"population":2981,"osm_type":"relation","osm_id":5246546,"type":"administrative","location":[22.8960281,56.4652968],"bbox":[22.8839909,56.4487291,22.9272145,56.4707211]},{"name":"Vecauce","other_names":{"ref":"100124516","name:lv":"Vecauce"},"display_name":"Vecauce, Vecauces pagasts, Dobeles novads, Latvija","address":{"city_district":"Vecauce","city":"Vecauces pagasts","municipality":"Dobeles novads","ISO3166-2-lvl5":"LV-026","country":"Latvija","country_code":"lv"},"osm_type":"relation","osm_id":15507676,"type":"administrative","location":[22.891909027949243,56.46727075],"bbox":[22.8818026,56.4594166,22.8966331,56.4754708]}]}
{"name":"Baldone","other_names":{"name:de":"Baldohn","name:lt":"Balduonė","name:lv":"Baldone","name:pl":"Baldona","name:ru":"Балдоне","name:uk":"Балдоне"},"display_name":"Baldone, Ķekavas novads, Latvija","address":{"town":"Baldone","municipality":"Ķekavas novads","ISO3166-2-lvl5":"LV-052","country":"Latvija","country_code":"lv"},"population":3996,"osm_type":"node","osm_id":41214309,"type":"town","location":[24.3939847,56.7403058],"bbox":[24.3539847,56.7003058,24.4339847,56.7803058],"border":{"name":"Baldone","other_names":{"name:de":"Baldohn","name:lt":"Balduonė","name:lv":"Baldone","name:pl":"Baldona","name:ru":"Балдоне","name:uk":"Балдоне"},"display_name":"Baldone, Ķekavas novads, LV-2125, Latvija","address":{"town":"Baldone","municipality":"Ķekavas novads","ISO3166-2-lvl5":"LV-052","postcode":"LV-2125","country":"Latvija","country_code":"lv"},"population":3996,"osm_type":"relation","osm_id":1801821,"type":"administrative","location":[24.3939847,56.7403058],"bbox":[24.3522717,56.7266347,24.4416147,56.7545978]}}
{"name":"Baloži","other_names":{"name:de":"Rollbusch","name:lt":"Baluožiai","name:lv":"Baloži","name:ru":"Баложи","name:uk":"Баложі"},"display_name":"Baloži, Ķekavas novads, Latvija","address":{"town":"Baloži","municipality":"Ķekavas novads","ISO3166-2-lvl5":"LV-052","country":"Latvija","country_code":"lv"},"population":6780,"osm_type":"node","osm_id":28448871,"type":"town","location":[24.1179447,56.8763194],"bbox":[24.0779447,56.8363194,24.1579447,56.9163194],"border":{"name":"Baloži","other_names":{"name:de":"Rollbusch","name:lt":"Baluožiai","name:lv":"Baloži","name:ru":"Баложи","name:uk":"Баложі"},"display_name":"Baloži, Ķekavas novads, Latvija","address":{"town":"Baloži","municipality":"Ķekavas novads","ISO3166-2-lvl5":"LV-052","country":"Latvija","country_code":"lv"},"population":6780,"osm_type":"relation","osm_id":300033,"type":"administrative","location":[24.1179447,56.8763194],"bbox":[24.0996891,56.8553856,24.1601637,56.8850581]}}
{"name":"Balvi","other_names":{"name:bg":"Балви","name:de":"Bolwen","name:he":"בלבי","name:lt":"Balvai","name:lv":"Balvi","name:pl":"Balvi","name:ru":"Балви","name:uk":"Балві","name:ltg":"Bolvi","old_name:pl":"Bołowsk"},"display_name":"Balvi, Balvu novads, Latvija","address":{"town":"Balvi","municipality":"Balvu novads","ISO3166-2-lvl5":"LV-015","country":"Latvija","country_code":"lv"},"population":7738,"osm_type":"node","osm_id":29512141,"type":"town","location":[27.2650194,57.1330207],"bbox":[27.2250194,57.0930207,27.3050194,57.1730207],"border":{"name":"Balvi","other_names":{"name:lt":"Balvai","name:lv":"Balvi","name:ru":"Балви","name:ltg":"Bolvi","name:bg":"Балви","name:de":"Bolwen","name:he":"בלבי","name:pl":"Balvi","name:uk":"Балві","old_name:pl":"Bołowsk"},"display_name":"Balvi, Balvu novads, LV-4501, Latvija","address":{"town":"Balvi","municipality":"Balvu novads","ISO3166-2-lvl5":"LV-015","postcode":"LV-4501","country":"Latvija","country_code":"lv"},"population":7738,"osm_type":"relation","osm_id":1898589,"type":"administrative","location":[27.2650194,57.1330207],"bbox":[27.2277436,57.1199068,27.2881405,57.1466863]}}
{"name":"Bauska","other_names":{"name:be":"Баўска","name:de":"Bauske","name:lt":"Bauskė","name:lv":"Bauska","name:pl":"Bowsk","name:ru":"Бауска","alt_name:de":"Marienland"},"display_name":"Bauska, Bauskas novads, Latvija","address":{"town":"Bauska","municipality":"Bauskas novads","ISO3166-2-lvl5":"LV-016","country":"Latvija","country_code":"lv"},"population":9796,"osm_type":"node","osm_id":343697069,"type":"town","location":[24.1876674,56.4082863],"bbox":[24.1476674,56.3682863,24.2276674,56.4482863],"border":{"name":"Bauska","other_names":{"name:be":"Баўска","name:lt":"Bauskė","name:lv":"Bauska","name:pl":"Bowsk","name:ru":"Бауска","name:de":"Bauske","alt_name:de":"Marienland"},"display_name":"Bauska, Bauskas novads, LV-3901, Latvija","address":{"town":"Bauska","municipality":"Bauskas novads","ISO3166-2-lvl5":"LV-016","postcode":"LV-3901","country":"Latvija","country_code":"lv"},"population":9796,"osm_type":"relation","osm_id":2217655,"type":"administrative","location":[24.1876674,56.4082863],"bbox":[24.1568568,56.3913515,24.2442462,56.4241513]}}
{"name":"Brocēni","other_names":{"name:de":"Berghof","name:lt":"Bruocėnai","name:lv":"Brocēni","name:ru":"Броцены","name:uk":"Броцени"},"display_name":"Brocēni, Saldus novads, Latvija","address":{"town":"Brocēni","municipality":"Saldus novads","ISO3166-2-lvl5":"LV-088","country":"Latvija","country_code":"lv"},"population":3376,"osm_type":"node","osm_id":457015340,"type":"town","location":[22.5664558,56.6845332],"bbox":[22.5264558,56.6445332,22.6064558,56.7245332],"border":{"name":"Brocēni","other_names":{"name:lv":"Brocēni","name:ru":"Броцени","name:de":"Berghof","name:lt":"Bruocėnai","name:uk":"Броцени","alt:ru":"Броцены"},"display_name":"Brocēni, Saldus novads, Latvija","address":{"town":"Brocēni","municipality":"Saldus novads","ISO3166-2-lvl5":"LV-088","country":"Latvija","country_code":"lv"},"population":3376,"osm_type":"relation","osm_id":7892621,"type":"administrative","location":[22.5664558,56.6845332],"bbox":[22.5440273,56.6544938,22.6030198,56.7008101]}}
{"name":"Cēsis","other_names":{"name:de":"Wenden","name:et":"Cēsis","name:he":"צסיס","name:lt":"Cėsys","name:lv":"Cēsis","name:pl":"Kieś","name:ru":"Цесис","name:uk":"Цесіс","alt_name:et":"Võnnu","old_name:ru":"Венден,Кесь"},"display_name":"Cēsis, Cēsu novads, Latvija","address":{"town":"Cēsis","municipality":"Cēsu novads","ISO3166-2-lvl5":"LV-022","country":"Latvija","country_code":"lv"},"population":17673,"osm_type":"node","osm_id":29512403,"type":"town","location":[25.2748551,57.3131712],"bbox":[25.2348551,57.2731712,25.3148551,57.3531712],"border":{"name":"Cēsis","other_names":{"name:de":"Wenden","name:et":"Cēsis","name:lt":"Cėsys","name:lv":"Cēsis","name:pl":"Kieś","name:ru":"Цесис","name:he":"צסיס","name:uk":"Цесіс","alt_name:et":"Võnnu","old_name:ru":"Венден,Кесь"},"display_name":"Cēsis, Cēsu novads, LV-4101, Latvija","address":{"town":"Cēsis","municipality":"Cēsu novads","ISO3166-2-lvl5":"LV-022","postcode":"LV-4101","country":"Latvija","country_code":"lv"},"population":17673,"osm_type":"relation","osm_id":1801823,"type":"administrative","location":[25.2748551,57.3131712],"bbox":[25.2133947,57.2880236,25.3196875,57.3383039]}}
{"name":"Cesvaine","other_names":{"name:ar":"سيسفين","name:de":"Seßwegen","name:lt":"Cesvainė","name:lv":"Cesvaine","name:ru":"Цесвайне","name:uk":"Цесвайне"},"display_name":"Cesvaine, Madonas novads, Latvija","address":{"town":"Cesvaine","municipality":"Madonas novads","ISO3166-2-lvl5":"LV-059","country":"Latvija","country_code":"lv"},"population":1637,"osm_type":"node","osm_id":266279182,"type":"town","location":[26.3089758,56.9657879],"bbox":[26.2689758,56.9257879,26.3489758,57.0057879],"border":{"name":"Cesvaine","other_names":{"name:de":"Seßwegen","name:lt":"Cesvainė","name:lv":"Cesvaine","name:ru":"Цесвайне","name:ar":"سيسفين","name:uk":"Цесвайне"},"display_name":"Cesvaine, Madonas novads, Latvija","address":{"town":"Cesvaine","municipality":"Madonas novads","ISO3166-2-lvl5":"LV-059","country":"Latvija","country_code":"lv"},"population":1637,"osm_type":"relation","osm_id":1859648,"type":"administrative","location":[26.3089758,56.9657879],"bbox":[26.2855354,56.9528722,26.3363779,56.9762287]}}
{"name":"Dagda","other_names":{"name:be":"Дагда","name:de":"Dageten","name:lt":"Dagda","name:lv":"Dagda","name:ru":"Дагда","name:uk":"Дагда"},"display_name":"Dagda, Krāslavas novads, Latvija","address":{"town":"Dagda","municipality":"Krāslavas novads","ISO3166-2-lvl5":"LV-047","country":"Latvija","country_code":"lv"},"population":2447,"osm_type":"node","osm_id":119253538,"type":"town","location":[27.5374136,56.0948815],"bbox":[27.4974136,56.0548815,27.5774136,56.1348815],"border":{"name":"Dagda","other_names":{"name:lt":"Dagda","name:lv":"Dagda","name:ru":"Дагда","name:ltg":"Dagda","name:be":"Дагда","name:de":"Dageten","name:uk":"Дагда"},"display_name":"Dagda, Krāslavas novads, LV-5674, Latvija","address":{"town":"Dagda","municipality":"Krāslavas novads","ISO3166-2-lvl5":"LV-047","postcode":"LV-5674","country":"Latvija","country_code":"lv"},"population":2447,"osm_type":"relation","osm_id":1992869,"type":"administrative","location":[27.5374136,56.0948815],"bbox":[27.5185661,56.0850232,27.5481353,56.1101477]}}
{"name":"Dobele","other_names":{"name:de":"Doblen","name:he":"דובלה","name:lt":"Duobelė","name:lv":"Dobele","name:ru":"Добеле","name:uk":"Добеле"},"display_name":"Dobele, Dobeles novads, Latvija","address":{"town":"Dobele","municipality":"Dobeles novads","ISO3166-2-lvl5":"LV-026","country":"Latvija","country_code":"lv"},"population":10895,"osm_type":"node","osm_id":29488309,"type":"town","location":[23.277275,56.6257485],"bbox":[23.237275,56.5857485,23.317275,56.6657485],"border":{"name":"Dobele","other_names":{"name:de":"Doblen","name:lv":"Dobele","name:ru":"Добеле","name:he":"דובלה","name:lt":"Duobelė","name:uk":"Добеле"},"display_name":"Dobele, Dobeles novads, Latvija","address":{"town":"Dobele","municipality":"Dobeles novads","ISO3166-2-lvl5":"LV-026","country":"Latvija","country_code":"lv"},"population":10895,"osm_type":"relation","osm_id":1858166,"type":"administrative","location":[23.277275,56.6257485],"bbox":[23.2536552,56.6007687,23.3121823,56.6452888]}}
{"name":"Durbe","other_names":{"name:de":"Durben","name:lt":"Durbė","name:lv":"Durbe","name:pl":"Durbe","name:ru":"Дурбе","name:uk":"Дурбе"},"display_name":"Durbe, Dienvidkurzemes novads, Latvija","address":{"town":"Durbe","municipality":"Dienvidkurzemes novads","ISO3166-2-lvl5":"LV-112","country":"Latvija","country_code":"lv"},"population":612,"osm_type":"node","osm_id":29488934,"type":"town","location":[21.3726593,56.5860468],"bbox":[21.3326593,56.5460468,21.4126593,56.6260468],"border":{"name":"Durbe","other_names":{"ref":"100003317","name:de":"Durben","name:lt":"Durbė","name:lv":"Durbe","name:ru":"Дурбе","name:pl":"Durbe","name:uk":"Дурбе"},"display_name":"Durbe, Dienvidkurzemes novads, LV-3440, Latvija","address":{"town":"Durbe","municipality":"Dienvidkurzemes novads","ISO3166-2-lvl5":"LV-112","postcode":"LV-3440","country":"Latvija","country_code":"lv"},"population":612,"osm_type":"relation","osm_id":1941840,"type":"administrative","location":[21.3726593,56.5860468],"bbox":[21.3570083,56.5782366,21.3977251,56.5916788]}}
{"name":"Grobiņa","other_names":{"name:de":"Grobin","name:lt":"Gruobinia","name:lv":"Grobiņa","name:ru":"Гробиня","name:uk":"Гробіня"},"display_name":"Grobiņa, Dienvidkurzemes novads, Latvija","address":{"town":"Grobiņa","municipality":"Dienvidkurzemes novads","ISO3166-2-lvl5":"LV-112","country":"Latvija","country_code":"lv"},"population":4184,"osm_type":"node","osm_id":281102424,"type":"town","location":[21.1676042,56.5368569],"bbox":[21.1276042,56.4968569,21.2076042,56.5768569],"border":{"name":"Grobiņa","other_names":{"name:de":"Grobin","name:lt":"Gruobinia","name:lv":"Grobiņa","name:pl":"Grobin","name:ru":"Гробиня","name:uk":"Гробіня"},"display_name":"Grobiņa, Dienvidkurzemes novads, LV-3430, Latvija","address":{"town":"Grobiņa","municipality":"Dienvidkurzemes novads","ISO3166-2-lvl5":"LV-112","postcode":"LV-3430","country":"Latvija","country_code":"lv"},"population":4184,"osm_type":"relation","osm_id":1793628,"type":"administrative","location":[21.1676042,56.5368569],"bbox":[21.1373864,56.525618,21.1970684,56.5598892]}}
{"name":"Gulbene","other_names":{"name:de":"Schwanenburg","name:lt":"Gulbenė","name:lv":"Gulbene","name:ru":"Гулбене","name:uk":"Гулбене"},"display_name":"Gulbene, Gulbenes novads, Latvija","address":{"town":"Gulbene","municipality":"Gulbenes novads","ISO3166-2-lvl5":"LV-033","country":"Latvija","country_code":"lv"},"population":8588,"osm_type":"node","osm_id":29525428,"type":"town","location":[26.7514713,57.1759721],"bbox":[26.7114713,57.1359721,26.7914713,57.2159721],"border":{"name":"Gulbene","other_names":{"name:de":"Schwanenburg","name:lt":"Gulbenė","name:lv":"Gulbene","name:ru":"Гулбене","name:uk":"Гулбене"},"display_name":"Gulbene, Gulbenes novads, LV-4401, Latvija","address":{"town":"Gulbene","municipality":"Gulbenes novads","ISO3166-2-lvl5":"LV-033","postcode":"LV-4401","country":"Latvija","country_code":"lv"},"population":8588,"osm_type":"relation","osm_id":1823773,"type":"administrative","location":[26.7514713,57.1759721],"bbox":[26.6912967,57.1552616,26.7947277,57.190713]}}
{"name":"Iecava","other_names":{"name:de":"Eckau","name:lt":"Iecava","name:lv":"Iecava","name:pl":"Ekawa","name:ru":"Иецава","old_name:de":"Groß Ekau"},"display_name":"Iecava, Bauskas novads, Latvija","address":{"town":"Iecava","municipality":"Bauskas novads","ISO3166-2-lvl5":"LV-016","country":"Latvija","country_code":"lv"},"population":5343,"osm_type":"node","osm_id":27221368,"type":"town","location":[24.198738,56.5975778],"bbox":[24.158738,56.5575778,24.238738,56.6375778],"border":{"name":"Iecava","other_names":{"name:de":"Eckau","name:lv":"Iecava","name:pl":"Ekawa","name:lt":"Iecava","name:ru":"Иецава","old_name:de":"Groß Ekau"},"display_name":"Iecava, Bauskas novads, LV-3913, Latvija","address":{"town":"Iecava","municipality":"Bauskas novads","ISO3166-2-lvl5":"LV-016","postcode":"LV-3913","country":"Latvija","country_code":"lv"},"population":5343,"osm_type":"relation","osm_id":1837853,"type":"administrative","location":[24.198738,56.5975778],"bbox":[24.175794,56.5778167,24.249288,56.6234336]}}
{"name":"Ikšķile","other_names":{"name:de":"Uexküll","name:fi":"Ykskylä","name:lt":"Ikškilė","name:lv":"Ikšķile","name:ru":"Икшкиле","name:uk":"Ікшкіле"},"display_name":"Ikšķile, Ogres novads, Latvija","address":{"town":"Ikšķile","municipality":"Ogres novads","ISO3166-2-lvl5":"LV-067","country":"Latvija","country_code":"lv"},"population":4022,"osm_type":"node","osm_id":29532674,"type":"town","location":[24.4975204,56.8375098],"bbox":[24.4575204,56.7975098,24.5375204,56.8775098],"border":{"name":"Ikšķile","other_names":{"name:de":"Uexküll","name:fi":"Ykskylä","name:lt":"Ikškilė","name:lv":"Ikšķile","name:ru":"Икшкиле","name:uk":"Ікшкіле"},"display_name":"Ikšķile, Ogres novads, LV-5052, Latvija","address":{"town":"Ikšķile","municipality":"Ogres novads","ISO3166-2-lvl5":"LV-067","postcode":"LV-5052","country":"Latvija","country_code":"lv"},"population":4022,"osm_type":"relation","osm_id":1402869,"type":"administrative","location":[24.4975204,56.8375098],"bbox":[24.4595959,56.8136112,24.5407893,56.8518119]}}
{"name":"Ilūkste","other_names":{"name:de":"Illuxt","name:lt":"Alūksta","name:lv":"Ilūkste","name:pl":"Iłukszta","name:ru":"Илуксте","name:uk":"Ілуксте","old_name:pl":"Iłłukszta"},"display_name":"Ilūkste, Augšdaugavas novads, LV-5447, Latvija","address":{"town":"Ilūkste","city":"Ilūkste","municipality":"Augšdaugavas novads","ISO3166-2-lvl5":"LV-111","postcode":"LV-5447","country":"Latvija","country_code":"lv"},"population":2809,"osm_type":"node","osm_id":257028555,"type":"town","location":[26.2973333,55.9766951],"bbox":[26.2573333,55.9366951,26.3373333,56.0166951],"border":{"name":"Ilūkste","other_names":{"name:lt":"Alūksta","name:lv":"Ilūkste","name:ru":"Илуксте"},"display_name":"Ilūkste, Augšdaugavas novads, LV-5447, Latvija","address":{"city":"Ilūkste","municipality":"Augšdaugavas novads","ISO3166-2-lvl5":"LV-111","postcode":"LV-5447","country":"Latvija","country_code":"lv"},"osm_type":"relation","osm_id":2683097,"type":"administrative","location":[26.30128253536969,55.9771434],"bbox":[26.2778482,55.9582131,26.369912,55.9965627]}}
{"name":"Jaunjelgava","other_names":{"name:ar":"جاونيلغافا","name:be":"Яўн’елгава","name:bg":"Яунелгава","name:de":"Friedrichstadt","name:fa":"یاونیلگاوا","name:hy":"Յաունելգավա","name:ko":"야우넬가바","name:lt":"Jaunjelgava","name:lv":"Jaunjelgava","name:pl":"Frydrychsztat","name:ru":"Яунелгава","name:tg":"Яунелгава","name:uk":"Яунєлгава","name:ur":"یاونیئلگاوا","name:zh":"新葉爾加瓦"},"display_name":"Jaunjelgava, Aizkraukles novads, Latvija","address":{"town":"Jaunjelgava","municipality":"Aizkraukles novads","ISO3166-2-lvl5":"LV-002","country":"Latvija","country_code":"lv"},"population":2221,"osm_type":"node","osm_id":60616322,"type":"town","location":[25.0797322,56.6159987],"bbox":[25.0397322,56.5759987,25.1197322,56.6559987],"border":{"name":"Jaunjelgava","other_names":{"name:de":"Friedrichstadt","name:lt":"Jaunjelgava","name:lv":"Jaunjelgava","name:pl":"Frydrychsztat","name:ru":"Яунелгава","name:ar":"جاونيلغافا","name:be":"Яўн’елгава","name:bg":"Яунелгава","name:fa":"یاونیلگاوا","name:hy":"Յաունելգավա","name:ko":"야우넬가바","name:tg":"Яунелгава","name:uk":"Яунєлгава","name:ur":"یاونیئلگاوا","name:zh":"新葉爾加瓦"},"display_name":"Jaunjelgava, Aizkraukles novads, LV-5134, Latvija","address":{"town":"Jaunjelgava","municipality":"Aizkraukles novads","ISO3166-2-lvl5":"LV-002","postcode":"LV-5134","country":"Latvija","country_code":"lv"},"population":2221,"osm_type":"relation","osm_id":1906732,"type":"administrative","location":[25.0797322,56.6159987],"bbox":[25.0485015,56.6008036,25.1086825,56.6226209]}}
{"name":"Kandava","other_names":{"name:de":"Kandau","name:lt":"Kandava","name:lv":"Kandava","name:pl":"Kandawa","name:ru":"Кандава","name:uk":"Кандава"},"display_name":"Kandava, Tukuma novads, Latvija","address":{"town":"Kandava","municipality":"Tukuma novads","ISO3166-2-lvl5":"LV-099","country":"Latvija","country_code":"lv"},"population":4202,"osm_type":"node","osm_id":29488827,"type":"town","location":[22.777147,57.0374924],"bbox":[22.737147,56.9974924,22.817147,57.0774924],"border":{"name":"Kandava","other_names":{"ref":"100003688","name:de":"Kandau","name:lt":"Kandava","name:lv":"Kandava","name:ru":"Кандава","name:pl":"Kandawa","name:uk":"Кандава"},"display_name":"Kandava, Tukuma novads, LV-3120, Latvija","address":{"town":"Kandava","municipality":"Tukuma novads","ISO3166-2-lvl5":"LV-099","postcode":"LV-3120","country":"Latvija","country_code":"lv"},"population":4202,"osm_type":"relation","osm_id":1811492,"type":"administrative","location":[22.777147,57.0374924],"bbox":[22.747246,57.0193782,22.8102056,57.057783]}}
{"name":"Kārsava","other_names":{"name:de":"Karsau","name:lt":"Karsava","name:lv":"Kārsava","name:pl":"Korsówka","name:ru":"Карсава","name:ltg":"Kuorsova","old_name:ru":"Корсовка"},"display_name":"Kārsava, Ludzas novads, Latvija","address":{"town":"Kārsava","municipality":"Ludzas novads","ISO3166-2-lvl5":"LV-058","country":"Latvija","country_code":"lv"},"population":2386,"osm_type":"node","osm_id":157344234,"type":"town","location":[27.6733754,56.7874531],"bbox":[27.6333754,56.7474531,27.7133754,56.8274531],"border":{"name":"Kārsava","other_names":{"name:de":"Karsau","name:lt":"Karsava","name:lv":"Kārsava","name:pl":"Korsówka","name:ru":"Карсава","name:ltg":"Kuorsova","old_name:ru":"Корсовка"},"display_name":"Kārsava, Ludzas novads, Latvija","address":{"town":"Kārsava","municipality":"Ludzas novads","ISO3166-2-lvl5":"LV-058","country":"Latvija","country_code":"lv"},"population":2386,"osm_type":"relation","osm_id":6881377,"type":"administrative","location":[27.6733754,56.7874531],"bbox":[27.6587023,56.7705975,27.7055521,56.8001319]}}
{"name":"Ķegums","other_names":{"name:de":"Keggum","name:lt":"Kegumas","name:lv":"Ķegums","name:ru":"Кегумс"},"display_name":"Ķegums, Ogres novads, Latvija","address":{"town":"Ķegums","municipality":"Ogres novads","ISO3166-2-lvl5":"LV-067","country":"Latvija","country_code":"lv"},"population":2433,"osm_type":"node","osm_id":29532675,"type":"town","location":[24.7249454,56.7470635],"bbox":[24.6849454,56.7070635,24.7649454,56.7870635],"border":{"name":"Ķegums","other_names":{"name:de":"Keggum","name:lt":"Kegumas","name:lv":"Ķegums","name:ru":"Кегумс"},"display_name":"Ķegums, Ogres novads, Latvija","address":{"town":"Ķegums","municipality":"Ogres novads","ISO3166-2-lvl5":"LV-067","country":"Latvija","country_code":"lv"},"population":2433,"osm_type":"relation","osm_id":1872678,"type":"administrative","location":[24.7249454,56.7470635],"bbox":[24.6918666,56.725326,24.7438067,56.7545957]}}
{"name":"Ķekava","other_names":{"name:de":"Keckau","name:lv":"Ķekava","name:ru":"Кекава"},"display_name":"Ķekava, Ķekavas novads, LV-2123, Latvija","address":{"town":"Ķekava","city":"Ķekava","municipality":"Ķekavas novads","ISO3166-2-lvl5":"LV-052","postcode":"LV-2123","country":"Latvija","country_code":"lv"},"population":20945,"osm_type":"node","osm_id":27221363,"type":"town","location":[24.233653,56.8261827],"bbox":[24.193653,56.7861827,24.273653,56.8661827],"border":{"name":"Ķekava","other_names":{"name:lv":"Ķekava","name:ru":"Кекава"},"display_name":"Ķekava, Ķekavas novads, Latvija","address":{"city":"Ķekava","municipality":"Ķekavas novads","ISO3166-2-lvl5":"LV-052","country":"Latvija","country_code":"lv"},"osm_type":"relation","osm_id":2690904,"type":"administrative","location":[24.22081277795505,56.8258465],"bbox":[24.1844143,56.8095822,24.2574488,56.8421547]}}
{"name":"Koknese","other_names":{"name:be":"Кокнэсэ","name:de":"Kokenhusen","name:fa":"کوکنس","name:lt":"Koknesė","name:lv":"Koknese","name:pl":"Kokenhuza","name:ru":"Кокнесе","name:uk":"Кокнесе"},"display_name":"Koknese, Aizkraukles novads, Latvija","address":{"town":"Koknese","municipality":"Aizkraukles novads","ISO3166-2-lvl5":"LV-002","country":"Latvija","country_code":"lv"},"population":2906,"osm_type":"node","osm_id":266286945,"type":"town","location":[25.4368636,56.6494318],"bbox":[25.3968636,56.6094318,25.4768636,56.6894318],"border":{"name":"Koknese","other_names":{"name:lv":"Koknese","name:be":"Кокнэсэ","name:de":"Kokenhusen","name:fa":"کوکنس","name:lt":"Koknesė","name:pl":"Kokenhuza","name:ru":"Кокнесе","name:uk":"Кокнесе"},"display_name":"Koknese, Aizkraukles novads, LV-5113, Latvija","address":{"town":"Koknese","municipality":"Aizkraukles novads","ISO3166-2-lvl5":"LV-002","postcode":"LV-5113","country":"Latvija","country_code":"lv"},"population":2906,"osm_type":"relation","osm_id":12953713,"type":"administrative","location":[25.4368636,56.6494318],"bbox":[25.40484,56.6377766,25.4587662,56.6640623]}}
{"name":"Krāslava","other_names":{"name:be":"Краслава","name:de":"Kreslau","name:en":"Kraslava","name:lt":"Kraslava","name:lv":"Krāslava","name:pl":"Krasław","name:ru":"Краслава","int_name":"Kraslava","old_name:ru":"Краславка;Креславка;Креславль"},"display_name":"Krāslava, Krāslavas novads, Latvija","address":{"town":"Krāslava","municipality":"Krāslavas novads","ISO3166-2-lvl5":"LV-047","country":"Latvija","country_code":"lv"},"population":9114,"osm_type":"node","osm_id":119246280,"type":"town","location":[27.1619304,55.895206],"bbox":[27.1219304,55.855206,27.2019304,55.935206],"border":{"name":"Krāslava","other_names":{"name:be":"Краслаўка","name:de":"Kraslau","name:en":"Krāslava","name:lt":"Kraslava","name:lv":"Krāslava","name:pl":"Krasław","name:ru":"Краслава","name:uk":"Краслава","name:ltg":"Kruoslova","alt_name:be":"Краслава","old_name:de":"Kreslau","old_name:lt":"Krėslaukis","int_name":"Kraslava","old_name:ru":"Краславка;Креславка;Креславль","alt:be":"Краслава","alt:de":"Kreslau","alt:en":"Kraslava"},"display_name":"Krāslava, Krāslavas novads, LV-5601, Latvija","address":{"town":"Krāslava","municipality":"Krāslavas novads","ISO3166-2-lvl5":"LV-047","postcode":"LV-5601","country":"Latvija","country_code":"lv"},"population":9114,"osm_type":"relation","osm_id":1815336,"type":"administrative","location":[27.1619304,55.895206],"bbox":[27.1265415,55.8800027,27.1983323,55.9176402]}}
{"name":"Kuldīga","other_names":{"name:de":"Goldingen","name:en":"Kuldīga","name:lt":"Kuldyga","name:lv":"Kuldīga","name:pl":"Kuldyga","name:ru":"Кулдига","name:uk":"Кулдига","old_name":"Goldingen","alt_name:pl":"Goldynga"},"display_name":"Kuldīga, Kuldīgas novads, Latvija","address":{"town":"Kuldīga","municipality":"Kuldīgas novads","ISO3166-2-lvl5":"LV-050","country":"Latvija","country_code":"lv"},"population":12494,"osm_type":"node","osm_id":29488312,"type":"town","location":[21.960778,56.9685757],"bbox":[21.920778,56.9285757,22.000778,57.0085757],"border":{"name":"Kuldīga","other_names":{"ref":"100003286","name:lt":"Kuldyga","name:lv":"Kuldīga","name:pl":"Kuldyga","name:ru":"Кулдига","alt_name:pl":"Goldynga","name:de":"Goldingen","name:en":"Kuldīga","name:uk":"Кулдига","old_name":"Goldingen"},"display_name":"Kuldīga, Kuldīgas novads, LV-3301, Latvija","address":{"town":"Kuldīga","municipality":"Kuldīgas novads","ISO3166-2-lvl5":"LV-050","postcode":"LV-3301","country":"Latvija","country_code":"lv"},"population":12494,"osm_type":"relation","osm_id":1837722,"type":"administrative","location":[21.960778,56.9685757],"bbox":[21.9185837,56.9453373,22.0066472,56.9960577]}}
{"name":"Lielvārde","other_names":{"name:de":"Lennewarden","name:lt":"Lielvardė","name:lv":"Lielvārde","name:ru":"Лиелварде","name:uk":"Лієлварде","old_name":"Rembate"},"display_name":"Lielvārde, Ogres novads, Latvija","address":{"town":"Lielvārde","municipality":"Ogres novads","ISO3166-2-lvl5":"LV-067","country":"Latvija","country_code":"lv"},"population":6666,"osm_type":"node","osm_id":29532672,"type":"town","location":[24.795892,56.7263693],"bbox":[24.755892,56.6863693,24.835892,56.7663693],"border":{"name":"Lielvārde","other_names":{"name:de":"Lennewarden","name:lt":"Lielvardė","name:lv":"Lielvārde","name:ru":"Лиелварде","name:uk":"Лієлварде","old_name":"Rembate"},"display_name":"Lielvārde, Ogres novads, Latvija","address":{"town":"Lielvārde","municipality":"Ogres novads","ISO3166-2-lvl5":"LV-067","country":"Latvija","country_code":"lv"},"population":6666,"osm_type":"relation","osm_id":1877520,"type":"administrative","location":[24.795892,56.7263693],"bbox":[24.7708847,56.7036971,24.8646931,56.7359442]}}
{"name":"Līgatne","other_names":{"name:de":"Ligat","name:lt":"Lygatnė","name:lv":"Līgatne","name:ru":"Лигатне","name:uk":"Лигатне","alt_name":"Lejaslīgatne"},"display_name":"Līgatne, Cēsu novads, LV-4110, Latvija","address":{"town":"Līgatne","city":"Līgatne","municipality":"Cēsu novads","ISO3166-2-lvl5":"LV-022","postcode":"LV-4110","country":"Latvija","country_code":"lv"},"population":1212,"osm_type":"node","osm_id":29457482,"type":"town","location":[25.0397886,57.2331358],"bbox":[24.9997886,57.1931358,25.0797886,57.2731358],"border":{"name":"Līgatne","display_name":"Līgatne, Cēsu novads, LV-4110, Latvija","address":{"city":"Līgatne","municipality":"Cēsu novads","ISO3166-2-lvl5":"LV-022","postcode":"LV-4110","country":"Latvija","country_code":"lv"},"osm_type":"relation","osm_id":13101558,"type":"administrative","location":[25.0411469249781,57.23648205],"bbox":[25.0131936,57.2179849,25.064175,57.2551791]}}
{"name":"Limbaži","other_names":{"name:lt":"Limbažiai","name:lv":"Limbaži","name:ru":"Лимбажи","name:uk":"Лімбажі","alt_name:et":"Lemsalu","old_name:de":"Lemsal"},"display_name":"Limbaži, Limbažu novads, Latvija","address":{"town":"Limbaži","municipality":"Limbažu novads","ISO3166-2-lvl5":"LV-054","country":"Latvija","country_code":"lv"},"population":8290,"osm_type":"node","osm_id":29525414,"type":"town","location":[24.7131536,57.5146586],"bbox":[24.6731536,57.4746586,24.7531536,57.5546586],"border":{"name":"Limbaži","other_names":{"name:de":"Lemsal","name:lt":"Limbažiai","name:lv":"Limbaži","name:ru":"Лимбажи","name:uk":"Лимбажі","alt_name:et":"Lemsalu","old_name:de":"Lemsal","alt:uk":"Лімбажі"},"display_name":"Limbaži, Limbažu novads, LV-4001, Latvija","address":{"town":"Limbaži","municipality":"Limbažu novads","ISO3166-2-lvl5":"LV-054","postcode":"LV-4001","country":"Latvija","country_code":"lv"},"population":8290,"osm_type":"relation","osm_id":1889540,"type":"administrative","location":[24.7131536,57.5146586],"bbox":[24.6841809,57.4866404,24.7612566,57.5336085]}}
{"name":"Līvāni","other_names":{"name:de":"Lievenhof","name:lt":"Lyvanai","name:lv":"Līvāni","name:ru":"Ливаны"},"display_name":"Līvāni, Līvānu novads, Latvija","address":{"town":"Līvāni","municipality":"Līvānu novads","ISO3166-2-lvl5":"LV-056","country":"Latvija","country_code":"lv"},"population":8589,"osm_type":"node","osm_id":2298737778,"type":"town","location":[26.177657,56.3531859],"bbox":[26.137657,56.3131859,26.217657,56.3931859],"border":{"name":"Līvāni","other_names":{"name:de":"Lievenhof","name:lt":"Lyvanai","name:lv":"Līvāni","name:ru":"Ливаны","name:ltg":"Leivuons"},"display_name":"Līvāni, Līvānu novads, Latvija","address":{"town":"Līvāni","municipality":"Līvānu novads","ISO3166-2-lvl5":"LV-056","country":"Latvija","country_code":"lv"},"population":8589,"osm_type":"relation","osm_id":1872697,"type":"administrative","location":[26.177657,56.3531859],"bbox":[26.1541878,56.332739,26.2155682,56.3772568]}}
{"name":"Lubāna","other_names":{"name:be":"Лубана","name:de":"Lubahn","name:lt":"Lubana","name:lv":"Lubāna","name:pl":"Łubań","name:ru":"Лубана","name:uk":"Лубана","alt_name:pl":"Lubań"},"display_name":"Lubāna, Madonas novads, Latvija","address":{"town":"Lubāna","municipality":"Madonas novads","ISO3166-2-lvl5":"LV-059","country":"Latvija","country_code":"lv"},"population":1851,"osm_type":"node","osm_id":252953801,"type":"town","location":[26.7181189,56.9041243],"bbox":[26.6781189,56.8641243,26.7581189,56.9441243],"border":{"name":"Lubāna","other_names":{"name:be":"Лубана","name:de":"Lubahn","name:lt":"Lubana","name:lv":"Lubāna","name:pl":"Łubań","name:ru":"Лубана","alt_name:pl":"Lubań","name:uk":"Лубана"},"display_name":"Lubāna, Madonas novads, LV-4830, Latvija","address":{"town":"Lubāna","municipality":"Madonas novads","ISO3166-2-lvl5":"LV-059","postcode":"LV-4830","country":"Latvija","country_code":"lv"},"population":1851,"osm_type":"relation","osm_id":2688469,"type":"administrative","location":[26.7181189,56.9041243],"bbox":[26.6968053,56.8811345,26.7431895,56.9106738]}}
{"name":"Ludza","other_names":{"name:ar":"لودزا","name:be":"Люцын","name:bg":"Лудза","name:de":"Ludsen","name:el":"Λούτζα","name:et":"Ludza","name:fa":"لودزا","name:he":"לודזה","name:ko":"루자","name:lt":"Ludza","name:lv":"Ludza","name:pl":"Lucyn","name:ru":"Лудза","name:sr":"Лудза","name:uk":"Лудза","name:zh":"盧扎","name:ltg":"Ludza","name:vro":"Lutsi","alt_name:et":"Lutsi"},"display_name":"Ludza, Ludzas novads, Latvija","address":{"town":"Ludza","municipality":"Ludzas novads","ISO3166-2-lvl5":"LV-058","country":"Latvija","country_code":"lv"},"population":9380,"osm_type":"node","osm_id":27083904,"type":"town","location":[27.7242092,56.5477177],"bbox":[27.6842092,56.5077177,27.7642092,56.5877177],"border":{"name":"Ludza","other_names":{"name:be":"Люцын","name:de":"Ludsen","name:el":"Λούτζα","name:et":"Ludza","name:fa":"لودزا","name:he":"לודזה","name:ko":"루자","name:lt":"Ludza","name:lv":"Ludza","name:pl":"Lucyn","name:ru":"Лудза","name:uk":"Лудза","name:zh":"盧扎","name:ltg":"Ludza","name:vro":"Lutsi","alt_name:et":"Lutsi","name:ar":"لودزا","name:bg":"Лудза","name:sr":"Лудза"},"display_name":"Ludza, Ludzas novads, LV-5701, Latvija","address":{"town":"Ludza","municipality":"Ludzas novads","ISO3166-2-lvl5":"LV-058","postcode":"LV-5701","country":"Latvija","country_code":"lv"},"population":9380,"osm_type":"relation","osm_id":1808852,"type":"administrative","location":[27.7242092,56.5477177],"bbox":[27.6788532,56.5205866,27.7459798,56.5659256]}}
{"name":"Madona","other_names":{"name:de":"Madohn","name:lt":"Maduona","name:lv":"Madona","name:ru":"Мадона","name:uk":"Мадона","name:ltg":"Modyune"},"display_name":"Madona, Madonas novads, Latvija","address":{"town":"Madona","municipality":"Madonas novads","ISO3166-2-lvl5":"LV-059","country":"Latvija","country_code":"lv"},"population":8653,"osm_type":"node","osm_id":29512126,"type":"town","location":[26.2184769,56.8517467],"bbox":[26.1784769,56.8117467,26.2584769,56.8917467],"border":{"name":"Madona","other_names":{"name:de":"Madohn","name:lt":"Maduona","name:lv":"Madona","name:ru":"Мадона","name:ltg":"Modyune","name:uk":"Мадона"},"display_name":"Madona, Madonas novads, LV-4801, Latvija","address":{"town":"Madona","municipality":"Madonas novads","ISO3166-2-lvl5":"LV-059","postcode":"LV-4801","country":"Latvija","country_code":"lv"},"population":8653,"osm_type":"relation","osm_id":1817041,"type":"administrative","location":[26.2184769,56.8517467],"bbox":[26.1936626,56.8363717,26.2567743,56.8706012]}}
{"name":"Mārupe","other_names":{"name:de":"Marienbach","name:lt":"Marupė","name:lv":"Mārupe","name:ru":"Марупе"},"display_name":"Mārupe, Mārupes pagasts, Mārupes novads, LV-2167, Latvija","address":{"town":"Mārupe","city":"Mārupes pagasts","municipality":"Mārupes novads","ISO3166-2-lvl5":"LV-062","postcode":"LV-2167","country":"Latvija","country_code":"lv"},"population":7754,"osm_type":"node","osm_id":28913929,"type":"town","location":[24.043818,56.9048817],"bbox":[24.003818,56.8648817,24.083818,56.9448817],"border":{"name":"Mārupe","other_names":{"name:de":"Marienbach","name:lv":"Mārupe"},"display_name":"Mārupe, Mārupes novads, LV-2167, Latvija","address":{"city":"Mārupe","municipality":"Mārupes novads","ISO3166-2-lvl5":"LV-062","postcode":"LV-2167","country":"Latvija","country_code":"lv"},"osm_type":"relation","osm_id":300035,"type":"administrative","location":[24.037297252607022,56.9034219],"bbox":[23.9827592,56.8779,24.0820762,56.9287722]}}
{"name":"Mazsalaca","other_names":{"name:de":"Salisburg","name:et":"Mazsalaca","name:lt":"Mazsalaca","name:lv":"Mazsalaca","name:ru":"Мазсалаца","name:uk":"Мазсалаца","alt_name:et":"Väike-Salatsi"},"display_name":"Mazsalaca, Valmieras novads, LV-4215, Latvija","address":{"town":"Mazsalaca","city":"Mazsalaca","municipality":"Valmieras novads","ISO3166-2-lvl5":"LV-113","postcode":"LV-4215","country":"Latvija","country_code":"lv"},"population":1427,"osm_type":"node","osm_id":29525418,"type":"town","location":[25.051106,57.8660745],"bbox":[25.011106,57.8260745,25.091106,57.9060745],"border":{"name":"Mazsalaca","display_name":"Mazsalaca, Valmieras novads, LV-4215, Latvija","address":{"city":"Mazsalaca","municipality":"Valmieras novads","ISO3166-2-lvl5":"LV-113","postcode":"LV-4215","country":"Latvija","country_code":"lv"},"osm_type":"relation","osm_id":13048880,"type":"administrative","location":[25.04371696663752,57.8629194],"bbox":[25.0217986,57.8526401,25.0754496,57.8731207]}}
{"name":"Olaine","other_names":{"name:de":"Olai","name:en":"Olaine","name:lt":"Uolainė","name:lv":"Olaine","name:ru":"Олайне"},"display_name":"Olaine, Olaines novads, Latvija","address":{"town":"Olaine","municipality":"Olaines novads","ISO3166-2-lvl5":"LV-068","country":"Latvija","country_code":"lv"},"population":11910,"osm_type":"node","osm_id":431037548,"type":"town","location":[23.9331981,56.7905906],"bbox":[23.8931981,56.7505906,23.9731981,56.8305906],"border":{"name":"Olaine","other_names":{"name:de":"Olai","name:lv":"Olaine","name:ru":"Олайне","name:en":"Olaine","name:lt":"Uolainė"},"display_name":"Olaine, Olaines novads, LV-2114, Latvija","address":{"town":"Olaine","municipality":"Olaines novads","ISO3166-2-lvl5":"LV-068","postcode":"LV-2114","country":"Latvija","country_code":"lv"},"population":11910,"osm_type":"relation","osm_id":2019219,"type":"administrative","location":[23.9331981,56.7905906],"bbox":[23.8983767,56.7754779,23.9604151,56.8058571]}}
{"name":"Pāvilosta","other_names":{"name:de":"Paulshafen","name:lt":"Paviluosta","name:lv":"Pāvilosta","name:ru":"Павилоста"},"display_name":"Pāvilosta, Dienvidkurzemes novads, Latvija","address":{"town":"Pāvilosta","municipality":"Dienvidkurzemes novads","ISO3166-2-lvl5":"LV-112","country":"Latvija","country_code":"lv"},"population":1127,"osm_type":"node","osm_id":183167063,"type":"town","location":[21.1825221,56.8888663],"bbox":[21.1425221,56.8488663,21.2225221,56.9288663],"border":{"name":"Pāvilosta","other_names":{"name:de":"Paulshafen","name:lt":"Paviluosta","name:lv":"Pāvilosta","name:ru":"Павилоста"},"display_name":"Pāvilosta, Dienvidkurzemes novads, LV-3466, Latvija","address":{"town":"Pāvilosta","municipality":"Dienvidkurzemes novads","ISO3166-2-lvl5":"LV-112","postcode":"LV-3466","country":"Latvija","country_code":"lv"},"population":1127,"osm_type":"relation","osm_id":2530667,"type":"administrative","location":[21.1825221,56.8888663],"bbox":[21.1597344,56.8689212,21.2282267,56.8946798]}}
{"name":"Piltene","other_names":{"name:de":"Pilten","name:lt":"Piltenė","name:lv":"Piltene","name:pl":"Piltyń","name:ru":"Пилтене"},"display_name":"Piltene, Ventspils novads, Latvija","address":{"town":"Piltene","municipality":"Ventspils novads","ISO3166-2-lvl5":"LV-106","country":"Latvija","country_code":"lv"},"population":973,"osm_type":"node","osm_id":416933700,"type":"town","location":[21.6727721,57.2259625],"bbox":[21.6327721,57.1859625,21.7127721,57.2659625],"border":{"name":"Piltene","other_names":{"name:lt":"Piltenė","name:lv":"Piltene","name:pl":"Piltyń","name:ru":"Пилтене","name:de":"Pilten"},"display_name":"Piltene, Ventspils novads, Latvija","address":{"town":"Piltene","municipality":"Ventspils novads","ISO3166-2-lvl5":"LV-106","country":"Latvija","country_code":"lv"},"population":973,"osm_type":"relation","osm_id":4640490,"type":"administrative","location":[21.6727721,57.2259625],"bbox":[21.6615596,57.2158475,21.7547889,57.2364829]}}
{"name":"Pļaviņas","other_names":{"name:ar":"بلافيناس","name:be":"Плявіняс","name:bg":"Плявиняс","name:de":"Stockmannshof","name:fa":"پلاویناس","name:lt":"Pliavinios","name:lv":"Pļaviņas","name:ru":"Плявиняс","name:uk":"Плявіняс","name:zh":"普拉維納斯"},"display_name":"Pļaviņas, Aizkraukles novads, Latvija","address":{"town":"Pļaviņas","municipality":"Aizkraukles novads","ISO3166-2-lvl5":"LV-002","country":"Latvija","country_code":"lv"},"population":3619,"osm_type":"node","osm_id":246824618,"type":"town","location":[25.7403324,56.6194037],"bbox":[25.7003324,56.5794037,25.7803324,56.6594037],"border":{"name":"Pļaviņas","other_names":{"name:lt":"Pliavinios","name:lv":"Pļaviņas","name:ru":"Плявиняс","name:ar":"بلافيناس","name:be":"Плявіняс","name:bg":"Плявиняс","name:de":"Stockmannshof","name:fa":"پلاویناس","name:uk":"Плявіняс","name:zh":"普拉維納斯"},"display_name":"Pļaviņas, Aizkraukles novads, LV-5120, Latvija","address":{"town":"Pļaviņas","municipality":"Aizkraukles novads","ISO3166-2-lvl5":"LV-002","postcode":"LV-5120","country":"Latvija","country_code":"lv"},"population":3619,"osm_type":"relation","osm_id":2688483,"type":"administrative","location":[25.7403324,56.6194037],"bbox":[25.6662545,56.5990856,25.7842255,56.6286725]}}
{"name":"Preiļi","other_names":{"name:lt":"Preiliai","name:lv":"Preiļi","name:pl":"Prele","name:ru":"Прейли","name:uk":"Прейлі","name:ltg":"Preili"},"display_name":"Preiļi, Preiļu novads, Latvija","address":{"town":"Preiļi","municipality":"Preiļu novads","ISO3166-2-lvl5":"LV-073","country":"Latvija","country_code":"lv"},"population":7734,"osm_type":"node","osm_id":129965572,"type":"town","location":[26.7266734,56.2937366],"bbox":[26.6866734,56.2537366,26.7666734,56.3337366],"border":{"name":"Preiļi","other_names":{"name:be":"Прэйлі","name:lt":"Preiliai","name:lv":"Preiļi","name:pl":"Prele","name:ru":"Прейли","name:uk":"Прейлі","name:ltg":"Preili"},"display_name":"Preiļi, Preiļu novads, LV-5301, Latvija","address":{"town":"Preiļi","municipality":"Preiļu novads","ISO3166-2-lvl5":"LV-073","postcode":"LV-5301","country":"Latvija","country_code":"lv"},"population":7734,"osm_type":"relation","osm_id":1865465,"type":"administrative","location":[26.7266734,56.2937366],"bbox":[26.7001661,56.275245,26.7436787,56.3071328]}}
{"name":"Priekule","other_names":{"name:de":"Preekuln","name:lt":"Priekulė","name:lv":"Priekule","name:pl":"Priekule","name:ru":"Приекуле"},"display_name":"Priekule, Dienvidkurzemes novads, Latvija","address":{"town":"Priekule","municipality":"Dienvidkurzemes novads","ISO3166-2-lvl5":"LV-112","country":"Latvija","country_code":"lv"},"population":2377,"osm_type":"node","osm_id":561313673,"type":"town","location":[21.6006939,56.4494915],"bbox":[21.5606939,56.4094915,21.6406939,56.4894915],"border":{"name":"Priekule","other_names":{"ref":"100003341","name:de":"Preekuln","name:lt":"Priekulė","name:lv":"Priekule","name:ru":"Приекуле","name:pl":"Priekule"},"display_name":"Priekule, Dienvidkurzemes novads, LV-3434, Latvija","address":{"town":"Priekule","municipality":"Dienvidkurzemes novads","ISO3166-2-lvl5":"LV-112","postcode":"LV-3434","country":"Latvija","country_code":"lv"},"population":2377,"osm_type":"relation","osm_id":1898604,"type":"administrative","location":[21.6006939,56.4494915],"bbox":[21.5742483,56.4337076,21.6260272,56.4589071]}}
{"name":"Rūjiena","other_names":{"name:de":"Rujen","name:et":"Ruhja","name:lt":"Rūjiena","name:lv":"Rūjiena","name:ru":"Руйиена","name:uk":"Руїена"},"display_name":"Rūjiena, Valmieras novads, Latvija","address":{"town":"Rūjiena","municipality":"Valmieras novads","ISO3166-2-lvl5":"LV-113","country":"Latvija","country_code":"lv"},"population":3342,"osm_type":"node","osm_id":29525424,"type":"town","location":[25.3261273,57.8973517],"bbox":[25.2861273,57.8573517,25.3661273,57.9373517],"border":{"name":"Rūjiena","other_names":{"name:de":"Rujen","name:et":"Ruhja","name:lt":"Rūjiena","name:lv":"Rūjiena","name:ru":"Руйиена","name:uk":"Руїена"},"display_name":"Rūjiena, Valmieras novads, LV-4240, Latvija","address":{"town":"Rūjiena","municipality":"Valmieras novads","ISO3166-2-lvl5":"LV-113","postcode":"LV-4240","country":"Latvija","country_code":"lv"},"population":3342,"osm_type":"relation","osm_id":1898706,"type":"administrative","location":[25.3261273,57.8973517],"bbox":[25.2994831,57.8799128,25.3796449,57.9086192]}}
{"name":"Sabile","other_names":{"name:de":"Zabeln","name:lt":"Sabilė","name:lv":"Sabile","name:ru":"Сабиле","name:uk":"Сабіле"},"display_name":"Sabile, Talsu novads, Latvija","address":{"town":"Sabile","municipality":"Talsu novads","ISO3166-2-lvl5":"LV-097","country":"Latvija","country_code":"lv"},"population":1402,"osm_type":"node","osm_id":29488828,"type":"town","location":[22.5710898,57.0482993],"bbox":[22.5310898,57.0082993,22.6110898,57.0882993],"border":{"name":"Sabile","other_names":{"ref":"100003647","name:de":"Zabeln","name:lt":"Sabilė","name:lv":"Sabile","name:ru":"Сабиле","name:uk":"Сабіле"},"display_name":"Sabile, Talsu novads, LV-3294, Latvija","address":{"town":"Sabile","municipality":"Talsu novads","ISO3166-2-lvl5":"LV-097","postcode":"LV-3294","country":"Latvija","country_code":"lv"},"population":1402,"osm_type":"relation","osm_id":1984210,"type":"administrative","location":[22.5710898,57.0482993],"bbox":[22.5440707,57.0283699,22.5939178,57.0610813]}}
{"name":"Salacgrīva","other_names":{"name:de":"Salismünde","name:et":"Salatsi","name:fi":"Salatsi","name:lt":"Salacgryva","name:lv":"Salacgrīva","name:pl":"Salis","name:ru":"Салацгрива","name:uk":"Салацгріва"},"display_name":"Salacgrīva, Limbažu novads, LV-4033, Latvija","address":{"town":"Salacgrīva","city":"Salacgrīva","municipality":"Limbažu novads","ISO3166-2-lvl5":"LV-054","postcode":"LV-4033","country":"Latvija","country_code":"lv"},"population":3205,"osm_type":"node","osm_id":60142603,"type":"town","location":[24.3570447,57.7567573],"bbox":[24.3170447,57.7167573,24.3970447,57.7967573],"border":{"name":"Salacgrīva","display_name":"Salacgrīva, Limbažu novads, LV-4033, Latvija","address":{"city":"Salacgrīva","municipality":"Limbažu novads","ISO3166-2-lvl5":"LV-054","postcode":"LV-4033","country":"Latvija","country_code":"lv"},"osm_type":"relation","osm_id":13048890,"type":"administrative","location":[24.367500128587718,57.7641791],"bbox":[24.3387666,57.7256452,24.3874672,57.8030474]}}
{"name":"Salaspils","other_names":{"name:ar":"سالاسبليس","name:be":"Саласпілс","name:bg":"Саласпилс","name:ce":"Саласпилс","name:de":"Kirchholm","name:fa":"سالاسپیلس","name:kk":"Саласпилс","name:ko":"살라스필스","name:lt":"Salaspilis","name:lv":"Salaspils","name:ru":"Саласпилс","name:sr":"Саласпилс","name:uk":"Саласпілс","name:zh":"薩拉斯皮爾斯"},"display_name":"Salaspils, Salaspils novads, Latvija","address":{"town":"Salaspils","municipality":"Salaspils novads","ISO3166-2-lvl5":"LV-087","country":"Latvija","country_code":"lv"},"population":18039,"osm_type":"node","osm_id":29488307,"type":"town","location":[24.3545214,56.8634541],"bbox":[24.3145214,56.8234541,24.3945214,56.9034541],"border":{"name":"Salaspils","other_names":{"name:de":"Kirchholm","name:lt":"Salaspilis","name:lv":"Salaspils","name:ru":"Саласпилс","name:ar":"سالاسبليس","name:be":"Саласпілс","name:bg":"Саласпилс","name:ce":"Саласпилс","name:fa":"سالاسپیلس","name:kk":"Саласпилс","name:ko":"살라스필스","name:sr":"Саласпилс","name:uk":"Саласпілс","name:zh":"薩拉斯皮爾斯"},"display_name":"Salaspils, Salaspils novads, LV-2169, Latvija","address":{"town":"Salaspils","municipality":"Salaspils novads","ISO3166-2-lvl5":"LV-087","postcode":"LV-2169","country":"Latvija","country_code":"lv"},"population":18039,"osm_type":"relation","osm_id":1837827,"type":"administrative","location":[24.3545214,56.8634541],"bbox":[24.3075381,56.8469893,24.4051104,56.8923933]}}
{"name":"Saldus","other_names":{"name:de":"Frauenburg","name:lt":"Saldus","name:lv":"Saldus","name:pl":"Saldus","name:ru":"Салдус","name:uk":"Салдус","name:zh":"薩爾杜斯"},"display_name":"Saldus, Saldus novads, Latvija","address":{"town":"Saldus","municipality":"Saldus novads","ISO3166-2-lvl5":"LV-088","country":"Latvija","country_code":"lv"},"population":12085,"osm_type":"node","osm_id":27157270,"type":"town","location":[22.4936222,56.6659281],"bbox":[22.4536222,56.6259281,22.5336222,56.7059281],"border":{"name":"Saldus","other_names":{"ref":"100003614","name:de":"Frauenburg","name:lt":"Saldus","name:lv":"Saldus","name:ru":"Салдус","name:pl":"Saldus","name:uk":"Салдус","name:zh":"薩爾杜斯"},"display_name":"Saldus, Saldus novads, LV-3801, Latvija","address":{"town":"Saldus","municipality":"Saldus novads","ISO3166-2-lvl5":"LV-088","postcode":"LV-3801","country":"Latvija","country_code":"lv"},"population":12085,"osm_type":"relation","osm_id":1818974,"type":"administrative","location":[22.4936222,56.6659281],"bbox":[22.4596491,56.6456901,22.5250571,56.685716]}}
{"name":"Saulkrasti","other_names":{"name:de":"Neubad","name:lt":"Saulkrastai","name:lv":"Saulkrasti","name:ru":"Саулкрасты","name:uk":"Саулкрасти"},"display_name":"Saulkrasti, Saulkrastu novads, Latvija","address":{"town":"Saulkrasti","municipality":"Saulkrastu novads","ISO3166-2-lvl5":"LV-089","country":"Latvija","country_code":"lv"},"population":3298,"osm_type":"node","osm_id":26745085,"type":"town","location":[24.415245,57.263391],"bbox":[24.375245,57.223391,24.455245,57.303391],"border":{"name":"Saulkrasti","other_names":{"name:de":"Neubad","name:lt":"Saulkrastai","name:lv":"Saulkrasti","name:ru":"Саулкрасты","name:uk":"Саулкрасти"},"display_name":"Saulkrasti, Saulkrastu novads, Latvija","address":{"town":"Saulkrasti","municipality":"Saulkrastu novads","ISO3166-2-lvl5":"LV-089","country":"Latvija","country_code":"lv"},"population":3298,"osm_type":"relation","osm_id":2096866,"type":"administrative","location":[24.415245,57.263391],"bbox":[24.3878551,57.2284834,24.4429285,57.2898813]}}
{"name":"Seda","other_names":{"name:de":"Sedde","name:lt":"Seda","name:lv":"Seda","name:pl":"Seda","name:ru":"Седа","name:uk":"Седа"},"display_name":"Seda, Valmieras novads, LV-4728, Latvija","address":{"town":"Seda","city":"Seda","municipality":"Valmieras novads","ISO3166-2-lvl5":"LV-113","postcode":"LV-4728","country":"Latvija","country_code":"lv"},"population":1519,"osm_type":"node","osm_id":471564472,"type":"town","location":[25.7509504,57.6502886],"bbox":[25.7109504,57.6102886,25.7909504,57.6902886],"border":{"name":"Seda","display_name":"Seda, Valmieras novads, LV-4728, Latvija","address":{"city":"Seda","municipality":"Valmieras novads","ISO3166-2-lvl5":"LV-113","postcode":"LV-4728","country":"Latvija","country_code":"lv"},"osm_type":"relation","osm_id":13048877,"type":"administrative","location":[25.752938995019154,57.6547104],"bbox":[25.7272054,57.6462169,25.7639397,57.6624345]}}
{"name":"Sigulda","other_names":{"name:de":"Segewold","name:he":"סיגולדה","name:ja":"スィグルダ","name:ka":"სიგულდა","name:ko":"시굴다","name:lt":"Sigulda","name:lv":"Sigulda","name:ml":"സിഗുൽഡ","name:pl":"Zygwold","name:ru":"Сигулда","name:uk":"Сігулда","name:zh":"錫古爾達","alt_name":"Zēgevolde"},"display_name":"Sigulda, Siguldas novads, Latvija","address":{"town":"Sigulda","municipality":"Siguldas novads","ISO3166-2-lvl5":"LV-091","country":"Latvija","country_code":"lv"},"population":11368,"osm_type":"node","osm_id":29457480,"type":"town","location":[24.8567141,57.1540561],"bbox":[24.8167141,57.1140561,24.8967141,57.1940561],"border":{"name":"Sigulda","other_names":{"name:de":"Segewold","name:lt":"Sigulda","name:lv":"Sigulda","name:pl":"Zygwold","name:ru":"Сигулда","name:he":"סיגולדה","name:ja":"スィグルダ","name:ka":"სიგულდა","name:ko":"시굴다","name:ml":"സിഗുൽഡ","name:uk":"Сігулда","name:zh":"錫古爾達","alt_name":"Zēgevolde"},"display_name":"Sigulda, Siguldas novads, LV-2150, Latvija","address":{"town":"Sigulda","municipality":"Siguldas novads","ISO3166-2-lvl5":"LV-091","postcode":"LV-2150","country":"Latvija","country_code":"lv"},"population":11368,"osm_type":"relation","osm_id":1792254,"type":"administrative","location":[24.8567141,57.1540561],"bbox":[24.7853086,57.1330047,24.9028577,57.1890902]}}
{"name":"Skrunda","other_names":{"name:de":"Schrunden","name:lt":"Skrunda","name:lv":"Skrunda","name:ru":"Скрунда","name:uk":"Скрунда"},"display_name":"Skrunda, Kuldīgas novads, LV-3326, Latvija","address":{"town":"Skrunda","city":"Skrunda","municipality":"Kuldīgas novads","ISO3166-2-lvl5":"LV-050","postcode":"LV-3326","country":"Latvija","country_code":"lv"},"population":2415,"osm_type":"node","osm_id":29012444,"type":"town","location":[22.0156057,56.6768396],"bbox":[21.9756057,56.6368396,22.0556057,56.7168396],"border":{"name":"Skrunda","other_names":{"ref":"100003294","name:de":"Schrunden","name:lt":"Skrunda","name:lv":"Skrunda","name:ru":"Скрунда"},"display_name":"Skrunda, Kuldīgas novads, LV-3326, Latvija","address":{"city":"Skrunda","municipality":"Kuldīgas novads","ISO3166-2-lvl5":"LV-050","postcode":"LV-3326","country":"Latvija","country_code":"lv"},"osm_type":"relation","osm_id":6649088,"type":"administrative","location":[22.007609122039874,56.6729546],"bbox":[21.9883169,56.6595244,22.0389541,56.685887]}}
{"name":"Smiltene","other_names":{"name:de":"Smilten","name:lt":"Smiltenė","name:lv":"Smiltene","name:ru":"Смилтене"},"display_name":"Smiltene, Smiltenes novads, Latvija","address":{"town":"Smiltene","municipality":"Smiltenes novads","ISO3166-2-lvl5":"LV-094","country":"Latvija","country_code":"lv"},"population":5786,"osm_type":"node","osm_id":4033428059,"type":"town","location":[25.9045413,57.4243197],"bbox":[25.8645413,57.3843197,25.9445413,57.4643197],"border":{"name":"Smiltene","other_names":{"name:de":"Smilten","name:lt":"Smiltenė","name:lv":"Smiltene","name:ru":"Смилтене"},"display_name":"Smiltene, Smiltenes novads, LV-4729, Latvija","address":{"town":"Smiltene","municipality":"Smiltenes novads","ISO3166-2-lvl5":"LV-094","postcode":"LV-4729","country":"Latvija","country_code":"lv"},"population":5786,"osm_type":"relation","osm_id":1898764,"type":"administrative","location":[25.9045413,57.4243197],"bbox":[25.866882,57.4080214,25.9358253,57.4384411]}}
{"name":"Staicele","other_names":{"name:de":"Staizel","name:lt":"Staicelė","name:lv":"Staicele","name:ru":"Стайцеле"},"display_name":"Staicele, Limbažu novads, Latvija","address":{"town":"Staicele","municipality":"Limbažu novads","ISO3166-2-lvl5":"LV-054","country":"Latvija","country_code":"lv"},"population":1149,"osm_type":"node","osm_id":834663689,"type":"town","location":[24.7476708,57.8341258],"bbox":[24.7076708,57.7941258,24.7876708,57.8741258],"border":{"name":"Staicele","other_names":{"name:lv":"Staicele","name:ru":"Стайцеле","name:de":"Staizel","name:lt":"Staicelė"},"display_name":"Staicele, Limbažu novads, Latvija","address":{"town":"Staicele","municipality":"Limbažu novads","ISO3166-2-lvl5":"LV-054","country":"Latvija","country_code":"lv"},"population":1149,"osm_type":"relation","osm_id":7898268,"type":"administrative","location":[24.7476708,57.8341258],"bbox":[24.7315158,57.8223051,24.7879544,57.8459959]}}
{"name":"Stende","other_names":{"name:de":"Stenden","name:lt":"Stendė","name:lv":"Stende","name:ru":"Стенде","name:uk":"Стенде"},"display_name":"Stende, Talsu novads, Latvija","address":{"town":"Stende","municipality":"Talsu novads","ISO3166-2-lvl5":"LV-097","country":"Latvija","country_code":"lv"},"population":1871,"osm_type":"node","osm_id":29488826,"type":"town","location":[22.5336563,57.1429254],"bbox":[22.4936563,57.1029254,22.5736563,57.1829254],"border":{"name":"Stende","other_names":{"ref":"100003655","name:de":"Stenden","name:lv":"Stende","name:ru":"Стенде","name:lt":"Stendė","name:uk":"Стенде"},"display_name":"Stende, Talsu novads, LV-3257, Latvija","address":{"town":"Stende","municipality":"Talsu novads","ISO3166-2-lvl5":"LV-097","postcode":"LV-3257","country":"Latvija","country_code":"lv"},"population":1871,"osm_type":"relation","osm_id":7833412,"type":"administrative","location":[22.5336563,57.1429254],"bbox":[22.5122243,57.1267351,22.5610433,57.1549706]}}
{"name":"Strenči","other_names":{"name:de":"Stackeln","name:lt":"Strenčiai","name:lv":"Strenči","name:ru":"Стренчи","name:uk":"Стренчі"},"display_name":"Strenči, Valmieras novads, LV-4730, Latvija","address":{"town":"Strenči","city":"Strenči","municipality":"Valmieras novads","ISO3166-2-lvl5":"LV-113","postcode":"LV-4730","country":"Latvija","country_code":"lv"},"population":1372,"osm_type":"node","osm_id":29525425,"type":"town","location":[25.6859132,57.6278347],"bbox":[25.6459132,57.5878347,25.7259132,57.6678347],"border":{"name":"Strenči","other_names":{"name:de":"Stackeln","name:lt":"Strenčiai","name:lv":"Strenči","name:ru":"Стренчи"},"display_name":"Strenči, Valmieras novads, LV-4730, Latvija","address":{"city":"Strenči","municipality":"Valmieras novads","ISO3166-2-lvl5":"LV-113","postcode":"LV-4730","country":"Latvija","country_code":"lv"},"osm_type":"relation","osm_id":1858188,"type":"administrative","location":[25.698715722666343,57.62634985],"bbox":[25.6546857,57.6145269,25.7299372,57.6384835]}}
{"name":"Subate","other_names":{"name:de":"Subbath","name:lt":"Subatė","name:lv":"Subate","name:pl":"Subata","name:ru":"Субате","alt_name:pl":"Subaty","old_name:lt":"Subačius"},"display_name":"Subate, Augšdaugavas novads, Latvija","address":{"town":"Subate","municipality":"Augšdaugavas novads","ISO3166-2-lvl5":"LV-111","country":"Latvija","country_code":"lv"},"population":739,"osm_type":"node","osm_id":257030735,"type":"town","location":[25.9062903,56.0055185],"bbox":[25.8662903,55.9655185,25.9462903,56.0455185],"border":{"name":"Subate","other_names":{"name:lt":"Subatė","name:lv":"Subate","name:pl":"Subata","name:ru":"Субате","alt_name:pl":"Subaty","name:de":"Subbath","old_name:lt":"Subačius"},"display_name":"Subate, Augšdaugavas novads, LV-5471, Latvija","address":{"town":"Subate","municipality":"Augšdaugavas novads","ISO3166-2-lvl5":"LV-111","postcode":"LV-5471","country":"Latvija","country_code":"lv"},"population":739,"osm_type":"relation","osm_id":2692551,"type":"administrative","location":[25.9062903,56.0055185],"bbox":[25.8796992,55.996926,25.9431033,56.0217047]}}
{"name":"Talsi","other_names":{"name:de":"Talsen","name:lt":"Talsai","name:lv":"Talsi","name:pl":"Talsi","name:ru":"Талси","name:uk":"Талсі","name:liv":"Tālsa"},"display_name":"Talsi, Talsu novads, Latvija","address":{"town":"Talsi","municipality":"Talsu novads","ISO3166-2-lvl5":"LV-097","country":"Latvija","country_code":"lv"},"population":10962,"osm_type":"node","osm_id":29488825,"type":"town","location":[22.5903003,57.2451926],"bbox":[22.5503003,57.2051926,22.6303003,57.2851926],"border":{"name":"Talsi","other_names":{"ref":"100003630","name:de":"Talsen","name:lt":"Talsai","name:lv":"Talsi","name:ru":"Талси","name:pl":"Talsi","name:uk":"Талсі","name:liv":"Tālsa"},"display_name":"Talsi, Talsu novads, LV-3201, Latvija","address":{"town":"Talsi","municipality":"Talsu novads","ISO3166-2-lvl5":"LV-097","postcode":"LV-3201","country":"Latvija","country_code":"lv"},"population":10962,"osm_type":"relation","osm_id":1898744,"type":"administrative","location":[22.5903003,57.2451926],"bbox":[22.5537504,57.2279235,22.621799,57.2648714]}}
{"name":"Tukums","other_names":{"name:de":"Tuckum","name:lt":"Tukumas","name:lv":"Tukums","name:pl":"Tukum","name:ru":"Тукумс","name:uk":"Тукумс"},"display_name":"Tukums, Tukuma novads, LV-3101, Latvija","address":{"town":"Tukums","city":"Tukums","municipality":"Tukuma novads","ISO3166-2-lvl5":"LV-099","postcode":"LV-3101","country":"Latvija","country_code":"lv"},"population":19729,"osm_type":"node","osm_id":27193473,"type":"town","location":[23.1524528,56.9669816],"bbox":[23.1124528,56.9269816,23.1924528,57.0069816],"border":{"name":"Tukums","other_names":{"name:de":"Tuckum","name:lt":"Tukumas","name:lv":"Tukums","name:pl":"Tukum","name:ru":"Тукумс"},"display_name":"Tukums, Tukuma novads, Latvija","address":{"city":"Tukums","municipality":"Tukuma novads","ISO3166-2-lvl5":"LV-099","country":"Latvija","country_code":"lv"},"osm_type":"relation","osm_id":1837754,"type":"administrative","location":[23.157984199397667,56.9687962],"bbox":[23.101447,56.9495208,23.2056036,56.9880613]}}
{"name":"Valdemārpils","other_names":{"name:lt":"Valdemarpilis","name:lv":"Valdemārpils","name:ru":"Валдемарпилс","old_name":"Sasmaka","old_name:de":"Saßmacken"},"display_name":"Valdemārpils, Talsu novads, Latvija","address":{"town":"Valdemārpils","municipality":"Talsu novads","ISO3166-2-lvl5":"LV-097","country":"Latvija","country_code":"lv"},"population":1365,"osm_type":"node","osm_id":444735701,"type":"town","location":[22.5895069,57.369306],"bbox":[22.5495069,57.329306,22.6295069,57.409306],"border":{"name":"Valdemārpils","other_names":{"ref":"100003663","name:lv":"Valdemārpils","name:ru":"Валдемарпилс","name:lt":"Valdemarpilis","old_name":"Sasmaka","old_name:de":"Saßmacken"},"display_name":"Valdemārpils, Talsu novads, Latvija","address":{"town":"Valdemārpils","municipality":"Talsu novads","ISO3166-2-lvl5":"LV-097","country":"Latvija","country_code":"lv"},"population":1365,"osm_type":"relation","osm_id":6678727,"type":"administrative","location":[22.5895069,57.369306],"bbox":[22.5739524,57.3569458,22.609335,57.3873334]}}
{"name":"Valka","other_names":{"name:de":"Walk","name:el":"Βάλκα","name:lt":"Valka","name:lv":"Valka","name:pl":"Wałk","name:ru":"Валка","name:uk":"Валка"},"display_name":"Valka, Valkas novads, Latvija","address":{"town":"Valka","municipality":"Valkas novads","ISO3166-2-lvl5":"LV-101","country":"Latvija","country_code":"lv"},"population":5891,"osm_type":"node","osm_id":462007984,"type":"town","location":[26.0160341,57.7729106],"bbox":[25.9760341,57.7329106,26.0560341,57.8129106],"border":{"name":"Valka","other_names":{"name:de":"Walk","name:lt":"Valka","name:lv":"Valka","name:pl":"Wałk","name:ru":"Валка","name:el":"Βάλκα","name:uk":"Валка"},"display_name":"Valka, Valkas novads, LV-4701, Latvija","address":{"town":"Valka","municipality":"Valkas novads","ISO3166-2-lvl5":"LV-101","postcode":"LV-4701","country":"Latvija","country_code":"lv"},"population":5891,"osm_type":"relation","osm_id":1898515,"type":"administrative","location":[26.0160341,57.7729106],"bbox":[25.9509996,57.7550621,26.054931,57.7992492]}}
{"name":"Vangaži","other_names":{"name:de":"Wangasch","name:lt":"Vangažiai","name:lv":"Vangaži","name:ru":"Вангажи"},"display_name":"Vangaži, Ropažu novads, Latvija","address":{"town":"Vangaži","municipality":"Ropažu novads","ISO3166-2-lvl5":"LV-080","country":"Latvija","country_code":"lv"},"population":3958,"osm_type":"node","osm_id":1536214278,"type":"town","location":[24.5446193,57.09222],"bbox":[24.5046193,57.05222,24.5846193,57.13222],"border":{"name":"Vangaži","other_names":{"name:de":"Wangasch","name:lt":"Vangažiai","name:lv":"Vangaži","name:ru":"Вангажи"},"display_name":"Vangaži, Ropažu novads, Latvija","address":{"town":"Vangaži","municipality":"Ropažu novads","ISO3166-2-lvl5":"LV-080","country":"Latvija","country_code":"lv"},"population":3958,"osm_type":"relation","osm_id":1898415,"type":"administrative","location":[24.5446193,57.09222],"bbox":[24.5045485,57.0774375,24.5643709,57.1056492]}}
{"name":"Varakļāni","other_names":{"name:be":"Варакляны","name:de":"Warkelen","name:lt":"Varaklianai","name:lv":"Varakļāni","name:pl":"Warklany","name:ru":"Варакляны","name:uk":"Варакляни","name:ltg":"Varakļuoni","alt_name:de":"Warkland","name:bat-smg":"Varaklenē"},"display_name":"Varakļāni, Varakļānu novads, Latvija","address":{"town":"Varakļāni","municipality":"Varakļānu novads","ISO3166-2-lvl5":"LV-102","country":"Latvija","country_code":"lv"},"population":2083,"osm_type":"node","osm_id":157088773,"type":"town","location":[26.7539093,56.6088743],"bbox":[26.7139093,56.5688743,26.7939093,56.6488743],"border":{"name":"Varakļāni","other_names":{"name:be":"Варакляны","name:lt":"Varaklianai","name:lv":"Varakļāni","name:pl":"Warklany","name:ru":"Варакляны","name:ltg":"Varakļuoni","name:bat-smg":"Varaklenē","name:de":"Warkelen","name:uk":"Варакляни","alt_name:de":"Warkland"},"display_name":"Varakļāni, Varakļānu novads, LV-4838, Latvija","address":{"town":"Varakļāni","municipality":"Varakļānu novads","ISO3166-2-lvl5":"LV-102","postcode":"LV-4838","country":"Latvija","country_code":"lv"},"population":2083,"osm_type":"relation","osm_id":1871228,"type":"administrative","location":[26.7539093,56.6088743],"bbox":[26.7272355,56.5894074,26.7918548,56.6170497]}}
{"name":"Viesīte","other_names":{"name:de":"Eckengrafen","name:lt":"Viesytė","name:lv":"Viesīte","name:ru":"Виесите","name:uk":"Вієсіте"},"display_name":"Viesīte, Jēkabpils novads, Latvija","address":{"town":"Viesīte","municipality":"Jēkabpils novads","ISO3166-2-lvl5":"LV-042","country":"Latvija","country_code":"lv"},"population":1836,"osm_type":"node","osm_id":257061739,"type":"town","location":[25.5571515,56.3456802],"bbox":[25.5171515,56.3056802,25.5971515,56.3856802],"border":{"name":"Viesīte","other_names":{"name:de":"Eckengrafen","name:lt":"Viesytė","name:lv":"Viesīte","name:ru":"Виесите","name:uk":"Вієсіте"},"display_name":"Viesīte, Jēkabpils novads, LV-5237, Latvija","address":{"town":"Viesīte","municipality":"Jēkabpils novads","ISO3166-2-lvl5":"LV-042","postcode":"LV-5237","country":"Latvija","country_code":"lv"},"population":1836,"osm_type":"relation","osm_id":1898750,"type":"administrative","location":[25.5571515,56.3456802],"bbox":[25.5432717,56.3358767,25.5773192,56.3533657]}}
{"name":"Viļaka","other_names":{"name:de":"Marienhausen","name:lt":"Viliaka","name:lv":"Viļaka","name:pl":"Marjenhuza","name:ru":"Виляка","name:uk":"Віляка"},"display_name":"Viļaka, Balvu novads, Latvija","address":{"town":"Viļaka","municipality":"Balvu novads","ISO3166-2-lvl5":"LV-015","country":"Latvija","country_code":"lv"},"population":1519,"osm_type":"node","osm_id":29512146,"type":"town","location":[27.674161,57.1849442],"bbox":[27.634161,57.1449442,27.714161,57.2249442],"border":{"name":"Viļaka","other_names":{"name:de":"Marienhausen","name:lv":"Viļaka","name:ru":"Виляка","name:ltg":"Vileks","name:lt":"Viliaka","name:pl":"Marjenhuza","name:uk":"Віляка"},"display_name":"Viļaka, Balvu novads, LV-4583, Latvija","address":{"town":"Viļaka","municipality":"Balvu novads","ISO3166-2-lvl5":"LV-015","postcode":"LV-4583","country":"Latvija","country_code":"lv"},"population":1519,"osm_type":"relation","osm_id":5188923,"type":"administrative","location":[27.674161,57.1849442],"bbox":[27.6585786,57.1702545,27.7101865,57.2044804]}}
{"name":"Viļāni","other_names":{"name:be":"Віляны","name:de":"Welonen","name:lt":"Vilianai","name:lv":"Viļāni","name:pl":"Wielony","name:ru":"Виляны","name:uk":"Віляни"},"display_name":"Viļāni, Rēzeknes novads, Latvija","address":{"town":"Viļāni","municipality":"Rēzeknes novads","ISO3166-2-lvl5":"LV-077","country":"Latvija","country_code":"lv"},"population":3360,"osm_type":"node","osm_id":59772550,"type":"town","location":[26.9288591,56.5549602],"bbox":[26.8888591,56.5149602,26.9688591,56.5949602],"border":{"name":"Viļāni","other_names":{"name:lt":"Vilianai","name:lv":"Viļāni","name:pl":"Wielony","name:ru":"Виляны","name:ltg":"Viļāni","name:be":"Віляны","name:de":"Welonen","name:uk":"Віляни"},"display_name":"Viļāni, Rēzeknes novads, LV-4650, Latvija","address":{"town":"Viļāni","municipality":"Rēzeknes novads","ISO3166-2-lvl5":"LV-077","postcode":"LV-4650","country":"Latvija","country_code":"lv"},"population":3360,"osm_type":"relation","osm_id":1872698,"type":"administrative","location":[26.9288591,56.5549602],"bbox":[26.9075853,56.5292274,26.946213,56.5674062]}}
{"name":"Zilupe","other_names":{"name:ar":"زيلوب","name:be":"Зілупэ","name:bg":"Зилупе","name:de":"Rosenau","name:fa":"زیلوپ","name:he":"זילופה","name:hy":"Զիլուպե","name:lt":"Zilupė","name:lv":"Zilupe","name:mk":"Зилупе","name:ru":"Зилупе","name:uk":"Зілупе","name:zh":"濟盧佩","name:ltg":"Sīnuoja","old_name":"Sīnupe"},"display_name":"Zilupe, Ludzas novads, Latvija","address":{"town":"Zilupe","municipality":"Ludzas novads","ISO3166-2-lvl5":"LV-058","country":"Latvija","country_code":"lv"},"population":1730,"osm_type":"node","osm_id":148149352,"type":"town","location":[28.121471,56.3864345],"bbox":[28.081471,56.3464345,28.161471,56.4264345],"border":{"name":"Zilupe","other_names":{"name:lv":"Zilupe","name:ru":"Зилупе","name:uk":"Зилупе","name:ltg":"Sīnuoja","name:ar":"زيلوب","name:be":"Зілупэ","name:bg":"Зилупе","name:de":"Rosenau","name:fa":"زیلوپ","name:he":"זילופה","name:hy":"Զիլուպե","name:lt":"Zilupė","name:mk":"Зилупе","name:zh":"濟盧佩","old_name":"Sīnupe","alt:uk":"Зілупе"},"display_name":"Zilupe, Ludzas novads, LV-5751, Latvija","address":{"town":"Zilupe","municipality":"Ludzas novads","ISO3166-2-lvl5":"LV-058","postcode":"LV-5751","country":"Latvija","country_code":"lv"},"population":1730,"osm_type":"relation","osm_id":6881376,"type":"administrative","location":[28.121471,56.3864345],"bbox":[28.09899,56.3773764,28.1436982,56.4087897]}}
