{"name":"Abavas pagasts","other_names":{"ref":"100013922","name:lv":"Abavas pagasts"},"display_name":"Abavas pagasts, Talsu novads, Latvija","address":{"city":"Abavas pagasts","municipality":"Talsu novads","ISO3166-2-lvl5":"LV-097","country":"Latvija","country_code":"lv"},"osm_type":"relation","osm_id":15416652,"type":"administrative","location":[22.506508983473324,57.0689487],"bbox":[22.3557144,57.0038375,22.6554209,57.1347206],"inferred_type":"city"}
{"name":"Aizputes pagasts","other_names":{"ref":"100012205","name:lv":"Aizputes pagasts"},"display_name":"Aizputes pagasts, Dienvidkurzemes novads, Latvija","address":{"city":"Aizputes pagasts","municipality":"Dienvidkurzemes novads","ISO3166-2-lvl5":"LV-112","country":"Latvija","country_code":"lv"},"osm_type":"relation","osm_id":14893296,"type":"administrative","location":[21.523869679144806,56.696298850000005],"bbox":[21.4169034,56.6441045,21.6214628,56.7484682],"inferred_type":"city"}
{"name":"Alsungas pagasts","other_names":{"ref":"100016702","name:lv":"Alsungas pagasts"},"display_name":"Alsungas pagasts, Kuldīgas novads, LV-3306, Latvija","address":{"city":"Alsungas pagasts","municipality":"Kuldīgas novads","ISO3166-2-lvl5":"LV-050","postcode":"LV-3306","country":"Latvija","country_code":"lv"},"osm_type":"relation","osm_id":13048777,"type":"administrative","location":[21.581089598639462,56.98425425],"bbox":[21.3942288,56.8917785,21.7009862,57.0766985],"inferred_type":"city"}
{"name":"Ances pagasts","other_names":{"ref":"100015130","name:lv":"Ances pagasts"},"display_name":"Ances pagasts, Ventspils novads, LV-3612, Latvija","address":{"city":"Ances pagasts","municipality":"Ventspils novads","ISO3166-2-lvl5":"LV-106","postcode":"LV-3612","country":"Latvija","country_code":"lv"},"osm_type":"relation","osm_id":2067228,"type":"administrative","location":[22.017031247473675,57.52389135],"bbox":[21.7380559,57.4245297,22.2819781,57.6229839],"inferred_type":"city"}
{"name":"Ārlavas pagasts","other_names":{"ref":"100013914","name:lv":"Ārlavas pagasts"},"display_name":"Ārlavas pagasts, Talsu novads, LV-3260, Latvija","address":{"city":"Ārlavas pagasts","municipality":"Talsu novads","ISO3166-2-lvl5":"LV-097","postcode":"LV-3260","country":"Latvija","country_code":"lv"},"osm_type":"relation","osm_id":15416651,"type":"administrative","location":[22.679337905680192,57.38995505],"bbox":[22.5230849,57.3228742,22.8314833,57.4548151],"inferred_type":"city"}
{"name":"Augstkalnes pagasts","other_names":{"ref":"100011180","name:lv":"Augstkalnes pagasts"},"display_name":"Augstkalnes pagasts, Dobeles novads, LV-3709, Latvija","address":{"city":"Augstkalnes pagasts","municipality":"Dobeles novads","ISO3166-2-lvl5":"LV-026","postcode":"LV-3709","country":"Latvija","country_code":"lv"},"osm_type":"relation","osm_id":15513982,"type":"administrative","location":[23.387212190950116,56.41775355],"bbox":[23.2466987,56.3708411,23.4733492,56.4647854],"inferred_type":"city"}
{"name":"Balgales pagasts","other_names":{"ref":"100013930","name:lv":"Balgales pagasts"},"display_name":"Balgales pagasts, Talsu novads, LV-3287, Latvija","address":{"city":"Balgales pagasts","municipality":"Talsu novads","ISO3166-2-lvl5":"LV-097","postcode":"LV-3287","country":"Latvija","country_code":"lv"},"osm_type":"relation","osm_id":15416650,"type":"administrative","location":[22.88263416377066,57.18281375],"bbox":[22.7787902,57.1304078,22.9697176,57.235211],"inferred_type":"city"}
{"name":"Bārtas pagasts","other_names":{"ref":"100012213","name:lv":"Bārtas pagasts"},"display_name":"Bārtas pagasts, Dienvidkurzemes novads, LV-3482, Latvija","address":{"city":"Bārtas pagasts","municipality":"Dienvidkurzemes novads","ISO3166-2-lvl5":"LV-112","postcode":"LV-3482","country":"Latvija","country_code":"lv"},"osm_type":"relation","osm_id":14889364,"type":"administrative","location":[21.331001035967002,56.37570755],"bbox":[21.2216827,56.3261286,21.4458027,56.42511],"inferred_type":"city"}
{"name":"Bēnes pagasts","other_names":{"ref":"100011203","name:lv":"Bēnes pagasts"},"display_name":"Bēnes pagasts, Dobeles novads, LV-3711, Latvija","address":{"city":"Bēnes pagasts","municipality":"Dobeles novads","ISO3166-2-lvl5":"LV-026","postcode":"LV-3711","country":"Latvija","country_code":"lv"},"osm_type":"relation","osm_id":15507679,"type":"administrative","location":[23.081512881930195,56.462241399999996],"bbox":[22.9852234,56.3988484,23.1690703,56.5256255],"inferred_type":"city"}
{"name":"Blīdenes pagasts","other_names":{"ref":"100013746","name:lv":"Blīdenes pagasts"},"display_name":"Blīdenes pagasts, Saldus novads, LV-3852, Latvija","address":{"city":"Blīdenes pagasts","municipality":"Saldus novads","ISO3166-2-lvl5":"LV-088","postcode":"LV-3852","country":"Latvija","country_code":"lv"},"osm_type":"relation","osm_id":15507678,"type":"administrative","location":[22.737947009957466,56.6314626],"bbox":[22.6271509,56.5565087,22.8659898,56.7063686],"inferred_type":"city"}
{"name":"Bukaišu pagasts","other_names":{"ref":"100011236","name:lv":"Bukaišu pagasts"},"display_name":"Bukaišu pagasts, Dobeles novads, LV-3714, Latvija","address":{"city":"Bukaišu pagasts","municipality":"Dobeles novads","ISO3166-2-lvl5":"LV-026","postcode":"LV-3714","country":"Latvija","country_code":"lv"},"osm_type":"relation","osm_id":15513986,"type":"administrative","location":[23.220445722711855,56.4145936],"bbox":[23.1293798,56.3689943,23.3361647,56.4602444],"inferred_type":"city"}
{"name":"Bunkas pagasts","other_names":{"ref":"100012221","name:lv":"Bunkas pagasts"},"display_name":"Bunkas pagasts, Dienvidkurzemes novads, Latvija","address":{"city":"Bunkas pagasts","municipality":"Dienvidkurzemes novads","ISO3166-2-lvl5":"LV-112","country":"Latvija","country_code":"lv"},"osm_type":"relation","osm_id":14889360,"type":"administrative","location":[21.581055689036127,56.5250863],"bbox":[21.3509716,56.4751656,21.6896408,56.5749931],"inferred_type":"city"}
{"name":"Cēres pagasts","other_names":{"ref":"100014104","name:lv":"Cēres pagasts"},"display_name":"Cēres pagasts, Tukuma novads, LV-3122, Latvija","address":{"city":"Cēres pagasts","municipality":"Tukuma novads","ISO3166-2-lvl5":"LV-099","postcode":"LV-3122","country":"Latvija","country_code":"lv"},"osm_type":"relation","osm_id":14885390,"type":"administrative","location":[22.84543415417482,57.11147055],"bbox":[22.7566128,57.0773831,22.9432502,57.1455235],"inferred_type":"city"}
{"name":"Cieceres pagasts","other_names":{"ref":"100013738","name:lv":"Cieceres pagasts"},"display_name":"Cieceres pagasts, Saldus novads, LV-3851, Latvija","address":{"city":"Cieceres pagasts","municipality":"Saldus novads","ISO3166-2-lvl5":"LV-088","postcode":"LV-3851","country":"Latvija","country_code":"lv"},"osm_type":"relation","osm_id":15507672,"type":"administrative","location":[22.612582889238666,56.66348415],"bbox":[22.5025714,56.5850333,22.6725021,56.7419036],"inferred_type":"city"}
{"name":"Cīravas pagasts","other_names":{"ref":"100012238","name:lv":"Cīravas pagasts"},"display_name":"Cīravas pagasts, Dienvidkurzemes novads, LV-3453, Latvija","address":{"city":"Cīravas pagasts","municipality":"Dienvidkurzemes novads","ISO3166-2-lvl5":"LV-112","postcode":"LV-3453","country":"Latvija","country_code":"lv"},"osm_type":"relation","osm_id":14893299,"type":"administrative","location":[21.41180935342326,56.74523415],"bbox":[21.2886853,56.6646634,21.527384,56.8260438],"inferred_type":"city"}
{"name":"Daugavpils","other_names":{"name:ar":"دوغفبلس","name:az":"Dauqavpils","name:ba":"Даугавпилс","name:be":"Даўгаўпілс","name:bg":"Даугавпилс","name:ce":"Даугавпилс","name:cv":"Даугавпилс","name:de":"Dünaburg","name:el":"Ντάουγκαβπιλς","name:en":"Daugavpils","name:es":"Daugavpils","name:fa":"دوگوپیلس","name:fi":"Väinänlinna","name:fr":"Daugavpils","name:he":"דאוגבפילס","name:hy":"Դաուգավպիլս","name:ja":"ダウガフピルス","name:ka":"დაუგავპილსი","name:ko":"다우가프필스","name:kv":"Даугавпилс","name:la":"Duneburgum","name:lt":"Daugpilis","name:lv":"Daugavpils","name:mk":"Даугавпилс","name:ml":"ഡൗഗാവ്പിൽസ്","name:mr":"दौगौपिल्स","name:os":"Даугавпилс","name:pl":"Dyneburg","name:pt":"Dunaburgo","name:ru":"Даугавпилс","name:sr":"Даугавпилс","name:th":"เดาเกาปิลส์","name:tt":"Даугавпилс","name:uk":"Даугавпілс","name:ur":"داوگاوپلس","name:yi":"דינעבורג","name:zh":"陶格夫匹尔斯","int_name":"Daugavpils","alt_name:be":"Дзьвінск","old_name:hr":"Dvina","old_name:pl":"Dźwińsk","name:be-tarask":"Дзьвінск"},"display_name":"Daugavpils, Latvija","address":{"city":"Daugavpils","ISO3166-2-lvl5":"LV-DGV","country":"Latvija","country_code":"lv"},"population":101057,"osm_type":"node","osm_id":30391426,"type":"city","location":[26.5159337,55.8712267],"bbox":[26.3559337,55.7112267,26.6759337,56.0312267],"border":{"name":"Daugavpils","other_names":{"name:lv":"Daugavpils","ISO3166-2":"LV-DGV","name:ar":"دوغفبلس","name:az":"Dauqavpils","name:ba":"Даугавпилс","name:be":"Даўгаўпілс","name:bg":"Даугавпилс","name:ce":"Даугавпилс","name:cv":"Даугавпилс","name:de":"Dünaburg","name:el":"Ντάουγκαβπιλς","name:en":"Daugavpils","name:es":"Daugavpils","name:fa":"دوگوپیلس","name:fi":"Väinänlinna","name:fr":"Daugavpils","name:he":"דאוגבפילס","name:hy":"Դաուգավպիլս","name:ja":"ダウガフピルス","name:ka":"დაუგავპილსი","name:ko":"다우가프필스","name:kv":"Даугавпилс","name:la":"Duneburgum","name:lt":"Daugpilis","name:mk":"Даугавпилс","name:ml":"ഡൗഗാവ്പിൽസ്","name:mr":"दौगौपिल्स","name:os":"Даугавпилс","name:pl":"Dyneburg","name:pt":"Dunaburgo","name:ru":"Даугавпилс","name:sr":"Даугавпилс","name:th":"เดาเกาปิลส์","name:tt":"Даугавпилс","name:uk":"Даугавпілс","name:ur":"داوگاوپلس","name:yi":"דינעבורג","name:zh":"陶格夫匹尔斯","int_name":"Daugavpils","alt_name:be":"Дзьвінск","old_name:hr":"Dvina","old_name:pl":"Dźwińsk","name:be-tarask":"Дзьвінск"},"display_name":"Daugavpils, Latvija","address":{"city":"Daugavpils","ISO3166-2-lvl5":"LV-DGV","country":"Latvija","country_code":"lv"},"population":101057,"osm_type":"relation","osm_id":13048683,"type":"administrative","location":[26.5159337,55.8712267],"bbox":[26.4379987,55.8347517,26.6323405,55.9575853]}}
{"name":"Dunalkas pagasts","other_names":{"ref":"100012246","name:lv":"Dunalkas pagasts"},"display_name":"Dunalkas pagasts, Dienvidkurzemes novads, LV-3452, Latvija","address":{"city":"Dunalkas pagasts","municipality":"Dienvidkurzemes novads","ISO3166-2-lvl5":"LV-112","postcode":"LV-3452","country":"Latvija","country_code":"lv"},"osm_type":"relation","osm_id":14893302,"type":"administrative","location":[21.330379063328735,56.6817983],"bbox":[21.2365005,56.6174858,21.4601699,56.7470499],"inferred_type":"city"}
{"name":"Dundagas pagasts","other_names":{"ref":"100013947","name:lv":"Dundagas pagasts"},"display_name":"Dundagas pagasts, Talsu novads, LV-3270, Latvija","address":{"city":"Dundagas pagasts","municipality":"Talsu novads","ISO3166-2-lvl5":"LV-097","postcode":"LV-3270","country":"Latvija","country_code":"lv"},"osm_type":"relation","osm_id":15416648,"type":"administrative","location":[22.434924886543975,57.540534449999996],"bbox":[22.0765726,57.3951504,22.6160337,57.6845023],"inferred_type":"city"}
{"name":"Dunikas pagasts","other_names":{"ref":"100014924","name:lv":"Dunikas pagasts"},"display_name":"Dunikas pagasts, Dienvidkurzemes novads, LV-3480, Latvija","address":{"city":"Dunikas pagasts","municipality":"Dienvidkurzemes novads","ISO3166-2-lvl5":"LV-112","postcode":"LV-3480","country":"Latvija","country_code":"lv"},"osm_type":"relation","osm_id":14888723,"type":"administrative","location":[21.324726541215824,56.27798085],"bbox":[21.1704896,56.1930498,21.49162,56.3643153],"inferred_type":"city"}
{"name":"Durbes pagasts","other_names":{"ref":"100012190","name:lv":"Durbes pagasts"},"display_name":"Durbes pagasts, Dienvidkurzemes novads, LV-3445, Latvija","address":{"city":"Durbes pagasts","municipality":"Dienvidkurzemes novads","ISO3166-2-lvl5":"LV-112","postcode":"LV-3445","country":"Latvija","country_code":"lv"},"osm_type":"relation","osm_id":14893298,"type":"administrative","location":[21.437915193160237,56.57400225],"bbox":[21.3501475,56.5168303,21.5277609,56.6307771],"inferred_type":"city"}
{"name":"Ēdoles pagasts","other_names":{"ref":"100012037","name:lv":"Ēdoles pagasts"},"display_name":"Ēdoles pagasts, Kuldīgas novads, LV-3310, Latvija","address":{"city":"Ēdoles pagasts","municipality":"Kuldīgas novads","ISO3166-2-lvl5":"LV-050","postcode":"LV-3310","country":"Latvija","country_code":"lv"},"osm_type":"relation","osm_id":14905480,"type":"administrative","location":[21.697551403379116,57.04001595],"bbox":[21.5380622,56.9571162,21.7978351,57.1227785],"inferred_type":"city"}
{"name":"Embūtes pagasts","other_names":{"ref":"100012254","name:lv":"Embūtes pagasts"},"display_name":"Embūtes pagasts, Dienvidkurzemes novads, LV-3436, Latvija","address":{"city":"Embūtes pagasts","municipality":"Dienvidkurzemes novads","ISO3166-2-lvl5":"LV-112","postcode":"LV-3436","country":"Latvija","country_code":"lv"},"osm_type":"relation","osm_id":14893291,"type":"administrative","location":[21.810313492003772,56.5126817],"bbox":[21.7047527,56.4508055,21.9698432,56.5745516],"inferred_type":"city"}
{"name":"Ezeres pagasts","other_names":{"ref":"100013754","name:lv":"Ezeres pagasts"},"display_name":"Ezeres pagasts, Saldus novads, Latvija","address":{"city":"Ezeres pagasts","municipality":"Saldus novads","ISO3166-2-lvl5":"LV-088","country":"Latvija","country_code":"lv"},"osm_type":"relation","osm_id":14898116,"type":"administrative","location":[22.332498486203963,56.43287945],"bbox":[22.1812179,56.3938166,22.4865844,56.4721237],"inferred_type":"city"}
{"name":"Gaiķu pagasts","other_names":{"ref":"100013762","name:lv":"Gaiķu pagasts"},"display_name":"Gaiķu pagasts, Saldus novads, LV-3873, Latvija","address":{"city":"Gaiķu pagasts","municipality":"Saldus novads","ISO3166-2-lvl5":"LV-088","postcode":"LV-3873","country":"Latvija","country_code":"lv"},"osm_type":"relation","osm_id":15507677,"type":"administrative","location":[22.539964580132946,56.793273299999996],"bbox":[22.4454371,56.7316191,22.6470275,56.8549618],"inferred_type":"city"}
{"name":"Gaviezes pagasts","other_names":{"ref":"100012262","name:lv":"Gaviezes pagasts"},"display_name":"Gaviezes pagasts, Dienvidkurzemes novads, LV-3431, Latvija","address":{"city":"Gaviezes pagasts","municipality":"Dienvidkurzemes novads","ISO3166-2-lvl5":"LV-112","postcode":"LV-3431","country":"Latvija","country_code":"lv"},"osm_type":"relation","osm_id":14889367,"type":"administrative","location":[21.298841159441352,56.476927399999994],"bbox":[21.2067166,56.4100652,21.4438956,56.5438448],"inferred_type":"city"}
{"name":"Ģibuļu pagasts","other_names":{"ref":"100013955","name:lv":"Ģibuļu pagasts"},"display_name":"Ģibuļu pagasts, Talsu novads, Latvija","address":{"city":"Ģibuļu pagasts","municipality":"Talsu novads","ISO3166-2-lvl5":"LV-097","country":"Latvija","country_code":"lv"},"osm_type":"relation","osm_id":15416646,"type":"administrative","location":[22.315256777870545,57.19672575],"bbox":[22.1788628,57.0761084,22.5860815,57.3173022],"inferred_type":"city"}
{"name":"Gošivs","other_names":{"name:lv":"Gošivs","addr:housename":"Lejasmauriņi"},"display_name":"Gošivs, Mauriņu iela, Valgunde, Valgundes pagasts, Jelgavas novads, LV-3017, Latvija","address":{"leisure":"Gošivs","road":"Mauriņu iela","city_district":"Valgunde","city":"Valgundes pagasts","municipality":"Jelgavas novads","ISO3166-2-lvl5":"LV-041","postcode":"LV-3017","country":"Latvija","country_code":"lv"},"osm_type":"node","osm_id":759295924,"type":"fishing","location":[23.6871309,56.7413421],"bbox":[23.6870809,56.7412921,23.6871809,56.7413921]}
{"name":"Gramzdas pagasts","other_names":{"ref":"100012270","name:lv":"Gramzdas pagasts"},"display_name":"Gramzdas pagasts, Dienvidkurzemes novads, Latvija","address":{"city":"Gramzdas pagasts","municipality":"Dienvidkurzemes novads","ISO3166-2-lvl5":"LV-112","country":"Latvija","country_code":"lv"},"osm_type":"relation","osm_id":14889361,"type":"administrative","location":[21.6516302535616,56.36023555],"bbox":[21.5358154,56.3113305,21.769554,56.4089767],"inferred_type":"city"}
{"name":"Grobiņas pagasts","other_names":{"ref":"100014932","name:lv":"Grobiņas pagasts"},"display_name":"Grobiņas pagasts, Dienvidkurzemes novads, LV-3438, Latvija","address":{"city":"Grobiņas pagasts","municipality":"Dienvidkurzemes novads","ISO3166-2-lvl5":"LV-112","postcode":"LV-3438","country":"Latvija","country_code":"lv"},"osm_type":"relation","osm_id":14889369,"type":"administrative","location":[21.146121921303536,56.499757599999995],"bbox":[21.0466064,56.4122613,21.2676122,56.5873207],"inferred_type":"city"}
{"name":"Gudenieku pagasts","other_names":{"ref":"100012045","name:lv":"Gudenieku pagasts"},"display_name":"Gudenieku pagasts, Kuldīgas novads, LV-3312, Latvija","address":{"city":"Gudenieku pagasts","municipality":"Kuldīgas novads","ISO3166-2-lvl5":"LV-050","postcode":"LV-3312","country":"Latvija","country_code":"lv"},"osm_type":"relation","osm_id":14905488,"type":"administrative","location":[21.60671263290837,56.889419849999996],"bbox":[21.4372737,56.8376957,21.7455688,56.9410787],"inferred_type":"city"}
{"name":"Iecavas pagasts","other_names":{"name:de":"Eckauen Landkreis","name:lt":"Iecavas savivaldybė","name:lv":"Iecavas pagasts","name:ru":"Иецавская волость"},"display_name":"Iecavas pagasts, Bauskas novads, Latvija","address":{"city":"Iecavas pagasts","municipality":"Bauskas novads","ISO3166-2-lvl5":"LV-016","country":"Latvija","country_code":"lv"},"osm_type":"relation","osm_id":1811623,"type":"administrative","location":[24.125427928747207,56.6102168],"bbox":[24.0010365,56.507748,24.4018159,56.7127864],"inferred_type":"city"}
{"name":"Irlavas pagasts","other_names":{"ref":"100014145","name:lv":"Irlavas pagasts"},"display_name":"Irlavas pagasts, Tukuma novads, LV-3137, Latvija","address":{"city":"Irlavas pagasts","municipality":"Tukuma novads","ISO3166-2-lvl5":"LV-099","postcode":"LV-3137","country":"Latvija","country_code":"lv"},"osm_type":"relation","osm_id":15513993,"type":"administrative","location":[23.01886879529673,56.85967775],"bbox":[22.8856736,56.7925023,23.1072252,56.9269777],"inferred_type":"city"}
{"name":"Īvandes pagasts","other_names":{"ref":"100012053","name:lv":"Īvandes pagasts"},"display_name":"Īvandes pagasts, Kuldīgas novads, LV-3313, Latvija","address":{"city":"Īvandes pagasts","municipality":"Kuldīgas novads","ISO3166-2-lvl5":"LV-050","postcode":"LV-3313","country":"Latvija","country_code":"lv"},"osm_type":"relation","osm_id":14905477,"type":"administrative","location":[21.78554675665986,56.97820515],"bbox":[21.6963702,56.9180083,21.8907978,57.0383642],"inferred_type":"city"}
{"name":"Īves pagasts","other_names":{"ref":"100013963","name:lv":"Īves pagasts"},"display_name":"Īves pagasts, Talsu novads, LV-3261, Latvija","address":{"city":"Īves pagasts","municipality":"Talsu novads","ISO3166-2-lvl5":"LV-097","postcode":"LV-3261","country":"Latvija","country_code":"lv"},"osm_type":"relation","osm_id":15416644,"type":"administrative","location":[22.510597841791046,57.43794615],"bbox":[22.4375463,57.3670606,22.5934418,57.508761],"inferred_type":"city"}
{"name":"Jaunauces pagasts","other_names":{"ref":"100015075","name:lv":"Jaunauces pagasts"},"display_name":"Jaunauces pagasts, Saldus novads, LV-3893, Latvija","address":{"city":"Jaunauces pagasts","municipality":"Saldus novads","ISO3166-2-lvl5":"LV-088","postcode":"LV-3893","country":"Latvija","country_code":"lv"},"osm_type":"relation","osm_id":14898129,"type":"administrative","location":[22.657936489475265,56.459049050000004],"bbox":[22.5480213,56.4140459,22.7554406,56.5040951],"inferred_type":"city"}
{"name":"Jaunjelgavas pagasts","other_names":{"name:lv":"Jaunjelgavas pagasts","name:pl":"parafia Frydrychsztat"},"display_name":"Jaunjelgavas pagasts, Aizkraukles novads, Latvija","address":{"city":"Jaunjelgavas pagasts","municipality":"Aizkraukles novads","ISO3166-2-lvl5":"LV-002","country":"Latvija","country_code":"lv"},"osm_type":"relation","osm_id":8201663,"type":"administrative","location":[25.07400226639535,56.5945765],"bbox":[25.0464547,56.5842372,25.0998376,56.6049644],"inferred_type":"city"}
{"name":"Jaunlutriņu pagasts","other_names":{"ref":"100013770","name:lv":"Jaunlutriņu pagasts"},"display_name":"Jaunlutriņu pagasts, Saldus novads, LV-3876, Latvija","address":{"city":"Jaunlutriņu pagasts","municipality":"Saldus novads","ISO3166-2-lvl5":"LV-088","postcode":"LV-3876","country":"Latvija","country_code":"lv"},"osm_type":"relation","osm_id":14898123,"type":"administrative","location":[22.348306962284397,56.8043665],"bbox":[22.2226391,56.754798,22.4841654,56.8540935],"inferred_type":"city"}
{"name":"Jaunpils pagasts","other_names":{"ref":"100014153","name:lv":"Jaunpils pagasts"},"display_name":"Jaunpils pagasts, Tukuma novads, LV-3145, Latvija","address":{"city":"Jaunpils pagasts","municipality":"Tukuma novads","ISO3166-2-lvl5":"LV-099","postcode":"LV-3145","country":"Latvija","country_code":"lv"},"osm_type":"relation","osm_id":14885572,"type":"administrative","location":[22.95188155978788,56.7494892],"bbox":[22.8094492,56.6885501,23.1306477,56.8099432],"inferred_type":"city"}
{"name":"Jaunsātu pagasts","other_names":{"ref":"100015083","name:lv":"Jaunsātu pagasts"},"display_name":"Jaunsātu pagasts, Tukuma novads, LV-3128, Latvija","address":{"city":"Jaunsātu pagasts","municipality":"Tukuma novads","ISO3166-2-lvl5":"LV-099","postcode":"LV-3128","country":"Latvija","country_code":"lv"},"osm_type":"relation","osm_id":15513992,"type":"administrative","location":[22.91128238643261,56.96061295],"bbox":[22.8059494,56.9118833,23.0348623,57.0090835],"inferred_type":"city"}
{"name":"Jēkabpils","other_names":{"name:ar":"يكابيلس","name:az":"Yekabpils","name:be":"Якубава","name:bg":"Йекабпилс","name:de":"Jakobstadt","name:el":"Γιέκαμππιλς","name:fa":"یکابپیلس","name:he":"יקבפילס","name:hu":"Jēkabpils","name:hy":"Եկաբպիլս","name:ja":"イェーカブピルス","name:ka":"იეკაბპილსი","name:ko":"예캅필스","name:lt":"Jekabpilis","name:lv":"Jēkabpils","name:mk":"Јекабпилс","name:ml":"യേക്കബ്പിൽസ്","name:pl":"Jakubowo","name:ru":"Екабпилс","name:sr":"Јекабпилс","name:tt":"Екабпилс","name:uk":"Єкабпілс","name:ur":"یاکاپلس","name:zh":"葉卡布皮爾斯","name:ltg":"Jākubmīsts","alt_name:be":"Екабпілс","old_name:pl":"Jakubów"},"display_name":"Jēkabpils, Jēkabpils novads, Latvija","address":{"city":"Jēkabpils","municipality":"Jēkabpils novads","ISO3166-2-lvl5":"LV-042","country":"Latvija","country_code":"lv"},"population":2588,"osm_type":"node","osm_id":27132074,"type":"city","location":[25.8687747,56.4958638],"bbox":[25.7087747,56.3358638,26.0287747,56.6558638],"border":{"name":"Jēkabpils","other_names":{"name:lv":"Jēkabpils","name:ar":"يكابيلس","name:az":"Yekabpils","name:be":"Якубава","name:bg":"Йекабпилс","name:de":"Jakobstadt","name:el":"Γιέκαμππιλς","name:fa":"یکابپیلس","name:he":"יקבפילס","name:hu":"Jēkabpils","name:hy":"Եկաբպիլս","name:ja":"イェーカブピルス","name:ka":"იეკაბპილსი","name:ko":"예캅필스","name:lt":"Jekabpilis","name:mk":"Јекабпилс","name:ml":"യേക്കബ്പിൽസ്","name:pl":"Jakubowo","name:ru":"Екабпилс","name:sr":"Јекабпилс","name:tt":"Екабпилс","name:uk":"Єкабпілс","name:ur":"یاکاپلس","name:zh":"葉卡布皮爾斯","name:ltg":"Jākubmīsts","alt_name:be":"Екабпілс","old_name:pl":"Jakubów"},"display_name":"Jēkabpils, Jēkabpils novads, Latvija","address":{"city":"Jēkabpils","municipality":"Jēkabpils novads","ISO3166-2-lvl5":"LV-042","country":"Latvija","country_code":"lv"},"population":2588,"osm_type":"relation","osm_id":13048681,"type":"administrative","location":[25.8687747,56.4958638],"bbox":[25.8239773,56.4699907,25.9339146,56.53132]}}
{"name":"Jelgava","other_names":{"name:be":"Елгава","name:bg":"Йелгава","name:de":"Mitau","name:fi":"Jelgava","name:hu":"Jelgava","name:lt":"Jelgava","name:lv":"Jelgava","name:ml":"യെൽഗാവ","name:pl":"Jełgawa","name:ru":"Елгава","name:uk":"Єлгава","old_name:hr":"Mitava","old_name:pl":"Mitawa"},"display_name":"Jelgava, Latvija","address":{"city":"Jelgava","ISO3166-2-lvl5":"LV-JEL","country":"Latvija","country_code":"lv"},"population":63534,"osm_type":"node","osm_id":26707263,"type":"city","location":[23.7339143,56.6514394],"bbox":[23.5739143,56.4914394,23.8939143,56.8114394],"border":{"name":"Jelgava","other_names":{"name:lv":"Jelgava","ISO3166-2":"LV-JEL","name:be":"Елгава","name:bg":"Йелгава","name:de":"Mitau","name:fi":"Jelgava","name:hu":"Jelgava","name:lt":"Jelgava","name:ml":"യെൽഗാവ","name:pl":"Jełgawa","name:ru":"Елгава","name:uk":"Єлгава","old_name:hr":"Mitava","old_name:pl":"Mitawa"},"display_name":"Jelgava, Latvija","address":{"city":"Jelgava","ISO3166-2-lvl5":"LV-JEL","country":"Latvija","country_code":"lv"},"population":63534,"osm_type":"relation","osm_id":13048684,"type":"administrative","location":[23.7339143,56.6514394],"bbox":[23.6234995,56.5968687,23.7995681,56.6918352]}}
{"name":"Jūrkalnes pagasts","other_names":{"ref":"100014676","name:lv":"Jūrkalnes pagasts"},"display_name":"Jūrkalnes pagasts, Ventspils novads, LV-3626, Latvija","address":{"city":"Jūrkalnes pagasts","municipality":"Ventspils novads","ISO3166-2-lvl5":"LV-106","postcode":"LV-3626","country":"Latvija","country_code":"lv"},"osm_type":"relation","osm_id":13324899,"type":"administrative","location":[21.444817026328224,57.0295196],"bbox":[21.3338323,56.9388385,21.5132486,57.1201827],"inferred_type":"city"}
{"name":"Jūrmala","other_names":{"name:de":"Rigaer Strand","name:fi":"Jūrmala","name:lt":"Jūrmala","name:lv":"Jūrmala","name:pl":"Jurmała","name:ru":"Юрмала","name:uk":"Юрмала","old_name":"Rīgas Jūrmala","name:zh-Hans":"尤尔马拉","name:zh-Hant":"尤爾馬拉"},"display_name":"Jūrmala, Latvija","address":{"city":"Jūrmala","ISO3166-2-lvl5":"LV-JUR","country":"Latvija","country_code":"lv"},"population":57671,"osm_type":"node","osm_id":1262375112,"type":"city","location":[23.7886979,56.9727164],"bbox":[23.6286979,56.8127164,23.9486979,57.1327164],"border":{"name":"Jūrmala","other_names":{"name:be":"Юрмала","name:lv":"Jūrmala","name:ru":"Юрмала","ISO3166-2":"LV-JUR","name:de":"Rigaer Strand","name:fi":"Jūrmala","name:lt":"Jūrmala","name:pl":"Jurmała","name:uk":"Юрмала","old_name":"Rīgas Jūrmala","name:zh-Hans":"尤尔马拉","name:zh-Hant":"尤爾馬拉"},"display_name":"Jūrmala, Latvija","address":{"city":"Jūrmala","ISO3166-2-lvl5":"LV-JUR","country":"Latvija","country_code":"lv"},"population":57671,"osm_type":"relation","osm_id":13048687,"type":"administrative","location":[23.7886979,56.9727164],"bbox":[23.4733924,56.9238081,23.970957,57.0087886]}}
{"name":"Kabiles pagasts","other_names":{"ref":"100012061","name:lv":"Kabiles pagasts"},"display_name":"Kabiles pagasts, Kuldīgas novads, LV-3314, Latvija","address":{"city":"Kabiles pagasts","municipality":"Kuldīgas novads","ISO3166-2-lvl5":"LV-050","postcode":"LV-3314","country":"Latvija","country_code":"lv"},"osm_type":"relation","osm_id":14905478,"type":"administrative","location":[22.337313183217724,56.948460499999996],"bbox":[22.1955114,56.8754144,22.5043413,57.021939],"inferred_type":"city"}
{"name":"Kalētu pagasts","other_names":{"ref":"100012287","name:lv":"Kalētu pagasts"},"display_name":"Kalētu pagasts, Dienvidkurzemes novads, LV-3484, Latvija","address":{"city":"Kalētu pagasts","municipality":"Dienvidkurzemes novads","ISO3166-2-lvl5":"LV-112","postcode":"LV-3484","country":"Latvija","country_code":"lv"},"osm_type":"relation","osm_id":14889362,"type":"administrative","location":[21.493150526104365,56.3346162],"bbox":[21.3844705,56.2888541,21.5996002,56.3803806],"inferred_type":"city"}
{"name":"Kalvenes pagasts","other_names":{"ref":"100012295","name:lv":"Kalvenes pagasts"},"display_name":"Kalvenes pagasts, Dienvidkurzemes novads, Latvija","address":{"city":"Kalvenes pagasts","municipality":"Dienvidkurzemes novads","ISO3166-2-lvl5":"LV-112","country":"Latvija","country_code":"lv"},"osm_type":"relation","osm_id":14893293,"type":"administrative","location":[21.69215645328512,56.610984349999995],"bbox":[21.5749692,56.5509571,21.8346808,56.6708872],"inferred_type":"city"}
{"name":"Kandavas pagasts","other_names":{"ref":"100014161","name:lv":"Kandavas pagasts"},"display_name":"Kandavas pagasts, Tukuma novads, Latvija","address":{"city":"Kandavas pagasts","municipality":"Tukuma novads","ISO3166-2-lvl5":"LV-099","country":"Latvija","country_code":"lv"},"osm_type":"relation","osm_id":14885395,"type":"administrative","location":[22.706439118016675,57.03194714999999],"bbox":[22.6301367,56.9509036,22.8773587,57.1126939],"inferred_type":"city"}
{"name":"Kazdangas pagasts","other_names":{"ref":"100012301","name:lv":"Kazdangas pagasts"},"display_name":"Kazdangas pagasts, Dienvidkurzemes novads, LV-3457, Latvija","address":{"city":"Kazdangas pagasts","municipality":"Dienvidkurzemes novads","ISO3166-2-lvl5":"LV-112","postcode":"LV-3457","country":"Latvija","country_code":"lv"},"osm_type":"relation","osm_id":14893295,"type":"administrative","location":[21.705130201281744,56.7106587],"bbox":[21.6044426,56.6301915,21.8270927,56.7912592],"inferred_type":"city"}
{"name":"Kolkas pagasts","other_names":{"ref":"100013971","name:lv":"Kolkas pagasts"},"display_name":"Kolkas pagasts, Talsu novads, LV-3275, Latvija","address":{"city":"Kolkas pagasts","municipality":"Talsu novads","ISO3166-2-lvl5":"LV-097","postcode":"LV-3275","country":"Latvija","country_code":"lv"},"osm_type":"relation","osm_id":15416641,"type":"administrative","location":[22.439105270412604,57.6870336],"bbox":[22.195872,57.6151141,22.606187,57.7589927],"inferred_type":"city"}
{"name":"Ķūļciema pagasts","other_names":{"ref":"100013988","name:lv":"Ķūļciema pagasts"},"display_name":"Ķūļciema pagasts, Talsu novads, LV-3283, Latvija","address":{"city":"Ķūļciema pagasts","municipality":"Talsu novads","ISO3166-2-lvl5":"LV-097","postcode":"LV-3283","country":"Latvija","country_code":"lv"},"osm_type":"relation","osm_id":15416639,"type":"administrative","location":[23.022739569422328,57.239682099999996],"bbox":[22.9418431,57.1785122,23.0886079,57.300546],"inferred_type":"city"}
{"name":"Kurmāles pagasts","other_names":{"ref":"100012078","name:lv":"Kurmāles pagasts"},"display_name":"Kurmāles pagasts, Kuldīgas novads, LV-3332, Latvija","address":{"city":"Kurmāles pagasts","municipality":"Kuldīgas novads","ISO3166-2-lvl5":"LV-050","postcode":"LV-3332","country":"Latvija","country_code":"lv"},"osm_type":"relation","osm_id":14905474,"type":"administrative","location":[21.836750572254786,56.915193349999996],"bbox":[21.7392302,56.8391777,21.9695916,56.990725],"inferred_type":"city"}
{"name":"Kursīšu pagasts","other_names":{"ref":"100013787","name:lv":"Kursīšu pagasts"},"display_name":"Kursīšu pagasts, Saldus novads, LV-3890, Latvija","address":{"city":"Kursīšu pagasts","municipality":"Saldus novads","ISO3166-2-lvl5":"LV-088","postcode":"LV-3890","country":"Latvija","country_code":"lv"},"osm_type":"relation","osm_id":13137463,"type":"administrative","location":[22.37676746717159,56.51798585],"bbox":[22.2462815,56.4536179,22.5542552,56.5824936],"inferred_type":"city"}
{"name":"Laidu pagasts","other_names":{"ref":"100012086","name:lv":"Laidu pagasts"},"display_name":"Laidu pagasts, Kuldīgas novads, Latvija","address":{"city":"Laidu pagasts","municipality":"Kuldīgas novads","ISO3166-2-lvl5":"LV-050","country":"Latvija","country_code":"lv"},"osm_type":"relation","osm_id":14905484,"type":"administrative","location":[21.858777848719924,56.75141315],"bbox":[21.6786729,56.6860441,21.9673342,56.8167856],"inferred_type":"city"}
{"name":"Laidzes pagasts","other_names":{"ref":"100013996","name:lv":"Laidzes pagasts"},"display_name":"Laidzes pagasts, Talsu novads, LV-3280, Latvija","address":{"city":"Laidzes pagasts","municipality":"Talsu novads","ISO3166-2-lvl5":"LV-097","postcode":"LV-3280","country":"Latvija","country_code":"lv"},"osm_type":"relation","osm_id":15416637,"type":"administrative","location":[22.6381075087314,57.2920491],"bbox":[22.5372341,57.2390551,22.7206923,57.3450138],"inferred_type":"city"}
{"name":"Laucienes pagasts","other_names":{"ref":"100014008","name:lv":"Laucienes pagasts"},"display_name":"Laucienes pagasts, Talsu novads, LV-3285, Latvija","address":{"city":"Laucienes pagasts","municipality":"Talsu novads","ISO3166-2-lvl5":"LV-097","postcode":"LV-3285","country":"Latvija","country_code":"lv"},"osm_type":"relation","osm_id":15416636,"type":"administrative","location":[22.827277773831653,57.2491249],"bbox":[22.6291203,57.1611592,22.9792159,57.3370917],"inferred_type":"city"}
{"name":"Lažas pagasts","other_names":{"ref":"100012318","name:lv":"Lažas pagasts"},"display_name":"Lažas pagasts, Dienvidkurzemes novads, LV-3455, Latvija","address":{"city":"Lažas pagasts","municipality":"Dienvidkurzemes novads","ISO3166-2-lvl5":"LV-112","postcode":"LV-3455","country":"Latvija","country_code":"lv"},"osm_type":"relation","osm_id":14893297,"type":"administrative","location":[21.508641269633987,56.79985495],"bbox":[21.3766631,56.6802426,21.683106,56.873674],"inferred_type":"city"}
{"name":"Lībagu pagasts","other_names":{"ref":"100014016","name:lv":"Lībagu pagasts"},"display_name":"Lībagu pagasts, Talsu novads, LV-3258, Latvija","address":{"city":"Lībagu pagasts","municipality":"Talsu novads","ISO3166-2-lvl5":"LV-097","postcode":"LV-3258","country":"Latvija","country_code":"lv"},"osm_type":"relation","osm_id":15416635,"type":"administrative","location":[22.58508850167084,57.1790019],"bbox":[22.4010465,57.1117285,22.7348748,57.2441112],"inferred_type":"city"}
{"name":"Lielauces pagasts","other_names":{"ref":"100011285","name:lv":"Lielauces pagasts"},"display_name":"Lielauces pagasts, Dobeles novads, LV-3723, Latvija","address":{"city":"Lielauces pagasts","municipality":"Dobeles novads","ISO3166-2-lvl5":"LV-026","postcode":"LV-3723","country":"Latvija","country_code":"lv"},"osm_type":"relation","osm_id":15507675,"type":"administrative","location":[22.84323332648843,56.5261625],"bbox":[22.7359639,56.4842446,22.9842988,56.5680697],"inferred_type":"city"}
{"name":"Liepāja","other_names":{"name:be":"Лібава","name:de":"Libau","name:en":"Liepaja","name:fi":"Liepāja","name:he":"לייפאיה","name:hu":"Liepāja","name:lt":"Liepoja","name:lv":"Liepāja","name:ml":"ലിയേപ്പായ","name:pl":"Lipawa","name:ru":"Лиепая","name:uk":"Лієпая","alt_name:be":"Ліепая","old_name:hr":"Libava","old_name:pl":"Libawa","old_name:ru":"Либава"},"display_name":"Liepāja, Latvija","address":{"city":"Liepāja","ISO3166-2-lvl5":"LV-LPX","country":"Latvija","country_code":"lv"},"population":78787,"osm_type":"node","osm_id":27155834,"type":"city","location":[21.0070903,56.5048435],"bbox":[20.8470903,56.3448435,21.1670903,56.6648435],"border":{"name":"Liepāja","other_names":{"ref":"100003044","name:lv":"Liepāja","ISO3166-2":"LV-LPX","name:be":"Лібава","name:de":"Libau","name:en":"Liepaja","name:fi":"Liepāja","name:he":"לייפאיה","name:hu":"Liepāja","name:lt":"Liepoja","name:ml":"ലിയേപ്പായ","name:pl":"Lipawa","name:ru":"Лиепая","name:uk":"Лієпая","alt_name:be":"Ліепая","old_name:hr":"Libava","old_name:pl":"Libawa","old_name:ru":"Либава"},"display_name":"Liepāja, Latvija","address":{"city":"Liepāja","ISO3166-2-lvl5":"LV-LPX","country":"Latvija","country_code":"lv"},"population":78787,"osm_type":"relation","osm_id":13048685,"type":"administrative","location":[21.0070903,56.5048435],"bbox":[20.9621193,56.4653111,21.1057404,56.6090517]}}
{"name":"Lubes pagasts","other_names":{"ref":"100014024","name:lv":"Lubes pagasts"},"display_name":"Lubes pagasts, Talsu novads, LV-3262, Latvija","address":{"city":"Lubes pagasts","municipality":"Talsu novads","ISO3166-2-lvl5":"LV-097","postcode":"LV-3262","country":"Latvija","country_code":"lv"},"osm_type":"relation","osm_id":15416634,"type":"administrative","location":[22.615053037949735,57.453460199999995],"bbox":[22.5487867,57.3969132,22.7559039,57.5099607],"inferred_type":"city"}
{"name":"Lutriņu pagasts","other_names":{"ref":"100013795","name:lv":"Lutriņu pagasts"},"display_name":"Lutriņu pagasts, Saldus novads, LV-3861, Latvija","address":{"city":"Lutriņu pagasts","municipality":"Saldus novads","ISO3166-2-lvl5":"LV-088","postcode":"LV-3861","country":"Latvija","country_code":"lv"},"osm_type":"relation","osm_id":10589386,"type":"administrative","location":[22.336690374052054,56.73784465],"bbox":[22.2124423,56.6955919,22.4799081,56.7798706],"inferred_type":"city"}
{"name":"Matkules pagasts","other_names":{"ref":"100015091","name:lv":"Matkules pagasts"},"display_name":"Matkules pagasts, Tukuma novads, LV-3132, Latvija","address":{"city":"Matkules pagasts","municipality":"Tukuma novads","ISO3166-2-lvl5":"LV-099","postcode":"LV-3132","country":"Latvija","country_code":"lv"},"osm_type":"relation","osm_id":14885394,"type":"administrative","location":[22.55296207427402,56.97907625],"bbox":[22.4427026,56.9303848,22.6561477,57.0276937],"inferred_type":"city"}
{"name":"Mērsraga pagasts","other_names":{"ref":"100016413","name:lv":"Mērsraga pagasts"},"display_name":"Mērsraga pagasts, Talsu novads, LV-3284, Latvija","address":{"city":"Mērsraga pagasts","municipality":"Talsu novads","ISO3166-2-lvl5":"LV-097","postcode":"LV-3284","country":"Latvija","country_code":"lv"},"osm_type":"relation","osm_id":13048773,"type":"administrative","location":[23.026212311317636,57.313317850000004],"bbox":[22.9084901,57.2304727,23.1469977,57.396324],"inferred_type":"city"}
{"name":"Nīcas pagasts","other_names":{"ref":"100012326","name:lv":"Nīcas pagasts"},"display_name":"Nīcas pagasts, Dienvidkurzemes novads, LV-3476, Latvija","address":{"city":"Nīcas pagasts","municipality":"Dienvidkurzemes novads","ISO3166-2-lvl5":"LV-112","postcode":"LV-3476","country":"Latvija","country_code":"lv"},"osm_type":"relation","osm_id":14888724,"type":"administrative","location":[21.08112796799208,56.32133535],"bbox":[20.9711557,56.1591275,21.1970329,56.4835294],"inferred_type":"city"}
{"name":"Nīgrandes pagasts","other_names":{"ref":"100013801","name:lv":"Nīgrandes pagasts"},"display_name":"Nīgrandes pagasts, Saldus novads, Latvija","address":{"city":"Nīgrandes pagasts","municipality":"Saldus novads","ISO3166-2-lvl5":"LV-088","country":"Latvija","country_code":"lv"},"osm_type":"relation","osm_id":14898122,"type":"administrative","location":[22.073991910938126,56.455068],"bbox":[21.9321033,56.3953169,22.2079758,56.5142009],"inferred_type":"city"}
{"name":"Nīkrāces pagasts","other_names":{"ref":"100012094","name:lv":"Nīkrāces pagasts"},"display_name":"Nīkrāces pagasts, Kuldīgas novads, LV-3320, Latvija","address":{"city":"Nīkrāces pagasts","municipality":"Kuldīgas novads","ISO3166-2-lvl5":"LV-050","postcode":"LV-3320","country":"Latvija","country_code":"lv"},"osm_type":"relation","osm_id":14905475,"type":"administrative","location":[21.894164140976876,56.568285700000004],"bbox":[21.7882494,56.4975996,22.0657532,56.6388954],"inferred_type":"city"}
{"name":"Novadnieku pagasts","other_names":{"ref":"100013818","name:lv":"Novadnieku pagasts"},"display_name":"Novadnieku pagasts, Saldus novads, LV-3880, Latvija","address":{"city":"Novadnieku pagasts","municipality":"Saldus novads","ISO3166-2-lvl5":"LV-088","postcode":"LV-3880","country":"Latvija","country_code":"lv"},"osm_type":"relation","osm_id":14898115,"type":"administrative","location":[22.40255838474224,56.60742785],"bbox":[22.2613429,56.5557646,22.5685018,56.6590865],"inferred_type":"city"}
{"name":"Ogre","other_names":{"name:af":"Ogre","name:ar":"أوغره","name:az":"Oqre","name:be":"Огрэ","name:bg":"Огре","name:ca":"Ogre","name:cs":"Ogre","name:de":"Oger","name:el":"Όγκρε","name:en":"Ogre","name:es":"Ogre","name:fa":"اوگره","name:fi":"Ogre","name:fr":"Ogre","name:hu":"Ogre","name:hy":"Օգրե","name:id":"Ogre","name:it":"Ogre","name:ko":"오그레","name:lt":"Uogrė","name:lv":"Ogre","name:mk":"Огре","name:ml":"ഒഗ്രേ","name:nl":"Ogre","name:pa":"ਓਗਰੇ","name:pl":"Ogre","name:ru":"Огре","name:sk":"Ogre","name:sr":"Огре","name:th":"อัวเกร","name:tr":"Ogre","name:tt":"Огре","name:uk":"Огре","name:zh":"奧格雷"},"display_name":"Ogre, Ogres novads, Latvija","address":{"city":"Ogre","municipality":"Ogres novads","ISO3166-2-lvl5":"LV-067","country":"Latvija","country_code":"lv"},"population":26579,"osm_type":"node","osm_id":29532673,"type":"city","location":[24.6074393,56.8192045],"bbox":[24.4474393,56.6592045,24.7674393,56.9792045],"border":{"name":"Ogre","other_names":{"name:de":"Oger Galle","name:lt":"Uogrė","name:lv":"Ogre","name:ru":"Огре","name:af":"Ogre","name:ar":"أوغره","name:az":"Oqre","name:be":"Огрэ","name:bg":"Огре","name:ca":"Ogre","name:cs":"Ogre","name:el":"Όγκρε","name:en":"Ogre","name:es":"Ogre","name:fa":"اوگره","name:fi":"Ogre","name:fr":"Ogre","name:hu":"Ogre","name:hy":"Օգրե","name:id":"Ogre","name:it":"Ogre","name:ko":"오그레","name:mk":"Огре","name:ml":"ഒഗ്രേ","name:nl":"Ogre","name:pa":"ਓਗਰੇ","name:pl":"Ogre","name:sk":"Ogre","name:sr":"Огре","name:th":"อัวเกร","name:tr":"Ogre","name:tt":"Огре","name:uk":"Огре","name:zh":"奧格雷","alt:de":"Oger"},"display_name":"Ogre, Ogres novads, LV-5001, Latvija","address":{"city":"Ogre","municipality":"Ogres novads","ISO3166-2-lvl5":"LV-067","postcode":"LV-5001","country":"Latvija","country_code":"lv"},"population":26579,"osm_type":"relation","osm_id":1801818,"type":"administrative","location":[24.6074393,56.8192045],"bbox":[24.5557191,56.7894897,24.6654805,56.8324247]}}
{"name":"Otaņķu pagasts","other_names":{"ref":"100012334","name:lv":"Otaņķu pagasts"},"display_name":"Otaņķu pagasts, Dienvidkurzemes novads, Latvija","address":{"city":"Otaņķu pagasts","municipality":"Dienvidkurzemes novads","ISO3166-2-lvl5":"LV-112","country":"Latvija","country_code":"lv"},"osm_type":"relation","osm_id":14888820,"type":"administrative","location":[21.139066978063404,56.4214865],"bbox":[21.027738,56.3489805,21.2412154,56.4939512],"inferred_type":"city"}
{"name":"Padures pagasts","other_names":{"ref":"100012100","name:lv":"Padures pagasts"},"display_name":"Padures pagasts, Kuldīgas novads, LV-3321, Latvija","address":{"city":"Padures pagasts","municipality":"Kuldīgas novads","ISO3166-2-lvl5":"LV-050","postcode":"LV-3321","country":"Latvija","country_code":"lv"},"osm_type":"relation","osm_id":14905485,"type":"administrative","location":[21.875241239663154,57.035733199999996],"bbox":[21.7368494,56.9681512,21.9784014,57.1029067],"inferred_type":"city"}
{"name":"Pampāļu pagasts","other_names":{"ref":"100013826","name:lv":"Pampāļu pagasts"},"display_name":"Pampāļu pagasts, Saldus novads, Latvija","address":{"city":"Pampāļu pagasts","municipality":"Saldus novads","ISO3166-2-lvl5":"LV-088","country":"Latvija","country_code":"lv"},"osm_type":"relation","osm_id":14898127,"type":"administrative","location":[22.177932678809746,56.56087065],"bbox":[22.0089674,56.4950912,22.2769377,56.6270176],"inferred_type":"city"}
{"name":"Pelču pagasts","other_names":{"ref":"100012117","name:lv":"Pelču pagasts"},"display_name":"Pelču pagasts, Kuldīgas novads, LV-3322, Latvija","address":{"city":"Pelču pagasts","municipality":"Kuldīgas novads","ISO3166-2-lvl5":"LV-050","postcode":"LV-3322","country":"Latvija","country_code":"lv"},"osm_type":"relation","osm_id":9472491,"type":"administrative","location":[21.998335911470733,56.9074885],"bbox":[21.9322536,56.8641194,22.0753404,56.9509489],"inferred_type":"city"}
{"name":"Piltenes pagasts","other_names":{"ref":"100014668","name:lv":"Piltenes pagasts"},"display_name":"Piltenes pagasts, Ventspils novads, LV-3620, Latvija","address":{"city":"Piltenes pagasts","municipality":"Ventspils novads","ISO3166-2-lvl5":"LV-106","postcode":"LV-3620","country":"Latvija","country_code":"lv"},"osm_type":"relation","osm_id":14923484,"type":"administrative","location":[21.756628771517022,57.2356966],"bbox":[21.5722725,57.1549002,21.9020639,57.3164375],"inferred_type":"city"}
{"name":"Popes pagasts","other_names":{"ref":"100014684","name:lv":"Popes pagasts"},"display_name":"Popes pagasts, Ventspils novads, LV-3614, Latvija","address":{"city":"Popes pagasts","municipality":"Ventspils novads","ISO3166-2-lvl5":"LV-106","postcode":"LV-3614","country":"Latvija","country_code":"lv"},"osm_type":"relation","osm_id":14923482,"type":"administrative","location":[21.883366651414722,57.43674935],"bbox":[21.7725766,57.3584442,21.9947767,57.5148821],"inferred_type":"city"}
{"name":"Priekules pagasts","other_names":{"ref":"100012342","name:lv":"Priekules pagasts"},"display_name":"Priekules pagasts, Dienvidkurzemes novads, Latvija","address":{"city":"Priekules pagasts","municipality":"Dienvidkurzemes novads","ISO3166-2-lvl5":"LV-112","country":"Latvija","country_code":"lv"},"osm_type":"relation","osm_id":14889366,"type":"administrative","location":[21.57981978788237,56.46434845],"bbox":[21.4781551,56.3653947,21.7504641,56.5631355],"inferred_type":"city"}
{"name":"Pūres pagasts","other_names":{"ref":"100014194","name:lv":"Pūres pagasts"},"display_name":"Pūres pagasts, Tukuma novads, LV-3124, Latvija","address":{"city":"Pūres pagasts","municipality":"Tukuma novads","ISO3166-2-lvl5":"LV-099","postcode":"LV-3124","country":"Latvija","country_code":"lv"},"osm_type":"relation","osm_id":15513991,"type":"administrative","location":[22.91716817394935,57.0424556],"bbox":[22.8249102,56.9746758,23.0299697,57.1102641],"inferred_type":"city"}
{"name":"Puzes pagasts","other_names":{"ref":"100014692","name:lv":"Puzes pagasts"},"display_name":"Puzes pagasts, Ventspils novads, LV-3613, Latvija","address":{"city":"Puzes pagasts","municipality":"Ventspils novads","ISO3166-2-lvl5":"LV-106","postcode":"LV-3613","country":"Latvija","country_code":"lv"},"osm_type":"relation","osm_id":14923486,"type":"administrative","location":[22.137801342911168,57.36946385],"bbox":[21.9401598,57.2880043,22.3097178,57.450365],"inferred_type":"city"}
{"name":"Raņķu pagasts","other_names":{"ref":"100012125","name:lv":"Raņķu pagasts"},"display_name":"Raņķu pagasts, Kuldīgas novads, LV-3323, Latvija","address":{"city":"Raņķu pagasts","municipality":"Kuldīgas novads","ISO3166-2-lvl5":"LV-050","postcode":"LV-3323","country":"Latvija","country_code":"lv"},"osm_type":"relation","osm_id":14905482,"type":"administrative","location":[21.968339648030334,56.75686455],"bbox":[21.9350658,56.6850232,22.0303965,56.8293084],"inferred_type":"city"}
{"name":"Remtes pagasts","other_names":{"ref":"100013834","name:lv":"Remtes pagasts"},"display_name":"Remtes pagasts, Saldus novads, LV-3871, Latvija","address":{"city":"Remtes pagasts","municipality":"Saldus novads","ISO3166-2-lvl5":"LV-088","postcode":"LV-3871","country":"Latvija","country_code":"lv"},"osm_type":"relation","osm_id":15507671,"type":"administrative","location":[22.708324984066877,56.7531898],"bbox":[22.5825085,56.6932855,22.8368113,56.8132901],"inferred_type":"city"}
{"name":"Rendas pagasts","other_names":{"ref":"100012133","name:lv":"Rendas pagasts"},"display_name":"Rendas pagasts, Kuldīgas novads, LV-3319, Latvija","address":{"city":"Rendas pagasts","municipality":"Kuldīgas novads","ISO3166-2-lvl5":"LV-050","postcode":"LV-3319","country":"Latvija","country_code":"lv"},"osm_type":"relation","osm_id":14905489,"type":"administrative","location":[22.220791076534262,57.07533975],"bbox":[22.0634419,56.9632126,22.3835,57.1859838],"inferred_type":"city"}
{"name":"Rēzekne","other_names":{"name:ar":"ريزكني","name:az":"Rezekne","name:be":"Рэзэкнэ","name:bg":"Резекне","name:de":"Rositten","name:el":"Ρέζεκνε","name:en":"Rezekne","name:fa":"رزکنه","name:fi":"Rēzekne","name:he":"רזקנה","name:hy":"Ռեզեկնե","name:ja":"レーゼクネ","name:ka":"რეზეკნე","name:ko":"레제크네","name:lt":"Rėzeknė","name:lv":"Rēzekne","name:mk":"Резекне","name:ml":"റെസെക്നെ","name:os":"Резекне","name:pa":"ਰੀਜਿਕਨ","name:pl":"Rzeżyca","name:ru":"Резекне","name:sr":"Резекне","name:tt":"Резекне","name:uk":"Rezekne","name:ur":"ریزکنے","name:uz":"Rezekne","name:zh":"雷澤克內","old_name:ru":"Режица;Розиттен"},"display_name":"Rēzekne, Latvija","address":{"city":"Rēzekne","ISO3166-2-lvl5":"LV-REZ","country":"Latvija","country_code":"lv"},"population":33936,"osm_type":"node","osm_id":58422785,"type":"city","location":[27.3306623,56.506281],"bbox":[27.1706623,56.346281,27.4906623,56.666281],"border":{"name":"Rēzekne","other_names":{"name:lv":"Rēzekne","ISO3166-2":"LV-REZ","name:ar":"ريزكني","name:az":"Rezekne","name:be":"Рэзэкнэ","name:bg":"Резекне","name:de":"Rositten","name:el":"Ρέζεκνε","name:en":"Rezekne","name:fa":"رزکنه","name:fi":"Rēzekne","name:he":"רזקנה","name:hy":"Ռեզեկնե","name:ja":"レーゼクネ","name:ka":"რეზეკნე","name:ko":"레제크네","name:lt":"Rėzeknė","name:mk":"Резекне","name:ml":"റെസെക്നെ","name:os":"Резекне","name:pa":"ਰੀਜਿਕਨ","name:pl":"Rzeżyca","name:ru":"Резекне","name:sr":"Резекне","name:tt":"Резекне","name:uk":"Rezekne","name:ur":"ریزکنے","name:uz":"Rezekne","name:zh":"雷澤克內","old_name:ru":"Режица;Розиттен"},"display_name":"Rēzekne, LV-4601, Latvija","address":{"city":"Rēzekne","ISO3166-2-lvl5":"LV-REZ","postcode":"LV-4601","country":"Latvija","country_code":"lv"},"population":33936,"osm_type":"relation","osm_id":13048682,"type":"administrative","location":[27.3306623,56.506281],"bbox":[27.3032227,56.4777296,27.3795433,56.538088]}}
{"name":"Rīga","other_names":{"name:af":"Riga","name:am":"ሪጋ","name:an":"Riga","name:ar":"ريغا","name:ay":"Riga","name:az":"Riqa","name:ba":"Рига","name:be":"Рыга","name:bg":"Рига","name:bi":"Riga","name:bn":"রিগা","name:bo":"རི་ག","name:br":"Riga","name:bs":"Riga","name:ca":"Riga","name:ce":"Рига","name:cs":"Riga","name:cu":"Рига","name:cv":"Рига","name:cy":"Riga","name:da":"Riga","name:de":"Riga","name:ee":"Riga","name:el":"Ρίγα","name:en":"Riga","name:eo":"Rigo","name:es":"Riga","name:et":"Riia","name:eu":"Riga","name:fa":"ریگا","name:fi":"Riika","name:fo":"Riga","name:fr":"Riga","name:fy":"Riga","name:ga":"Ríge","name:gd":"Riga","name:gl":"Riga","name:gv":"Rīga","name:ha":"Riga","name:he":"ריגה","name:hi":"रीगा","name:hr":"Riga","name:ht":"Riga","name:hu":"Riga","name:hy":"Ռիգա","name:ia":"Riga","name:id":"Riga","name:ie":"Riga","name:io":"Riga","name:is":"Ríga","name:it":"Riga","name:ja":"リガ","name:jv":"Riga","name:ka":"რიგა","name:kk":"Рига","name:kl":"Riga","name:ko":"리가","name:ku":"Rîga","name:kv":"Рига","name:kw":"Rīga","name:ky":"Рига","name:la":"Riga","name:lb":"Rīga","name:lg":"Riga","name:li":"Riga","name:ln":"Riga","name:lt":"Ryga","name:lv":"Rīga","name:mg":"Riga","name:mi":"Riga","name:mk":"Рига","name:ml":"റീഗ","name:mn":"Рига","name:mr":"रिगा","name:ms":"Riga","name:mt":"Riga","name:my":"ရီဂါမြို့","name:na":"Riga","name:nb":"Riga","name:nl":"Riga","name:nn":"Riga","name:no":"Riga","name:nv":"Wiiga","name:oc":"Riga","name:os":"Ригæ","name:pa":"ਰੀਗਾ","name:pl":"Ryga","name:ps":"ریګا","name:pt":"Riga","name:qu":"Riga","name:rm":"Riga","name:ro":"Riga","name:ru":"Рига","name:rw":"Riga","name:sc":"Riga","name:sd":"ريگا","name:se":"Riga","name:sk":"Riga","name:sl":"Riga","name:sn":"Riga","name:sq":"Riga","name:sr":"Рига","name:st":"Riga","name:sv":"Riga","name:sw":"Riga","name:ta":"ரீகா","name:tg":"Рига","name:th":"รีกา","name:tk":"Riga","name:tl":"Riga","name:tr":"Riga","name:tt":"Рига","name:tw":"Riga","name:ug":"رىگا","name:uk":"Рига","name:ur":"ریگا","name:uz":"Riga","name:vi":"Riga","name:vo":"Rīga","name:wo":"Riga","name:yi":"ריגע","name:yo":"Riga","name:zh":"里加","name:zu":"IRiga","alt_name":"Riiga","int_name":"Rīga","name:arz":"ريجا","name:ast":"Riga","name:azb":"ریقا","name:ckb":"ڕیگا","name:grc":"Ῥῖγα","name:kab":"Riga","name:koi":"Рига","name:lez":"Рига","name:liv":"Rīgõ","name:ltg":"Reiga","name:mdf":"Рига","name:mhr":"Рига","name:mrj":"Рига","name:nah":"Rīga","name:nds":"Riga","name:pih":"Riigaa","name:pnb":"ریگا","name:rue":"Ріґа","name:sah":"Рига","name:szl":"Ryga","name:udm":"Рига","name:vep":"Rig","name:vro":"Riia","name:bat-smg":"Rīga","name:zh-Hans":"里加","name:zh-Hant":"裏加","name:be-tarask":"Рыга"},"display_name":"Rīga, Latvija","address":{"city":"Rīga","ISO3166-2-lvl5":"LV-RIX","country":"Latvija","country_code":"lv"},"population":660187,"osm_type":"node","osm_id":26707967,"type":"city","location":[24.1051846,56.9493977],"bbox":[23.9451846,56.7893977,24.2651846,57.1093977],"border":{"name":"Rīga","other_names":{"name:az":"Riqa","name:de":"Riga","name:fr":"Riga","name:lv":"Rīga","name:pa":"ਰੀਗਾ","name:sk":"Riga","name:sr":"Рига","name:ur":"ریگا","name:azb":"ریقا","name:grc":"Ῥῖγα","ISO3166-2":"LV-RIX","name:af":"Riga","name:am":"ሪጋ","name:an":"Riga","name:ar":"ريغا","name:ay":"Riga","name:ba":"Рига","name:be":"Рыга","name:bg":"Рига","name:bi":"Riga","name:bn":"রিগা","name:bo":"རི་ག","name:br":"Riga","name:bs":"Riga","name:ca":"Riga","name:ce":"Рига","name:cs":"Riga","name:cu":"Рига","name:cv":"Рига","name:cy":"Riga","name:da":"Riga","name:ee":"Riga","name:el":"Ρίγα","name:en":"Riga","name:eo":"Rigo","name:es":"Riga","name:et":"Riia","name:eu":"Riga","name:fa":"ریگا","name:fi":"Riika","name:fo":"Riga","name:fy":"Riga","name:ga":"Ríge","name:gd":"Riga","name:gl":"Riga","name:gv":"Rīga","name:ha":"Riga","name:he":"ריגה","name:hi":"रीगा","name:hr":"Riga","name:ht":"Riga","name:hu":"Riga","name:hy":"Ռիգա","name:ia":"Riga","name:id":"Riga","name:ie":"Riga","name:io":"Riga","name:is":"Ríga","name:it":"Riga","name:ja":"リガ","name:jv":"Riga","name:ka":"რიგა","name:kk":"Рига","name:kl":"Riga","name:ko":"리가","name:ku":"Rîga","name:kv":"Рига","name:kw":"Rīga","name:ky":"Рига","name:la":"Riga","name:lb":"Rīga","name:lg":"Riga","name:li":"Riga","name:ln":"Riga","name:lt":"Ryga","name:mg":"Riga","name:mi":"Riga","name:mk":"Рига","name:ml":"റീഗ","name:mn":"Рига","name:mr":"रिगा","name:ms":"Riga","name:mt":"Riga","name:my":"ရီဂါမြို့","name:na":"Riga","name:nb":"Riga","name:nl":"Riga","name:nn":"Riga","name:no":"Riga","name:nv":"Wiiga","name:oc":"Riga","name:os":"Ригæ","name:pl":"Ryga","name:ps":"ریګا","name:pt":"Riga","name:qu":"Riga","name:rm":"Riga","name:ro":"Riga","name:ru":"Рига","name:rw":"Riga","name:sc":"Riga","name:sd":"ريگا","name:se":"Riga","name:sl":"Riga","name:sn":"Riga","name:sq":"Riga","name:st":"Riga","name:sv":"Riga","name:sw":"Riga","name:ta":"ரீகா","name:tg":"Рига","name:th":"รีกา","name:tk":"Riga","name:tl":"Riga","name:tr":"Riga","name:tt":"Рига","name:tw":"Riga","name:ug":"رىگا","name:uk":"Рига","name:uz":"Riga","name:vi":"Riga","name:vo":"Rīga","name:wo":"Riga","name:yi":"ריגע","name:yo":"Riga","name:zh":"里加","name:zu":"IRiga","alt_name":"Riiga","int_name":"Rīga","name:arz":"ريجا","name:ast":"Riga","name:ckb":"ڕیگا","name:kab":"Riga","name:koi":"Рига","name:lez":"Рига","name:liv":"Rīgõ","name:ltg":"Reiga","name:mdf":"Рига","name:mhr":"Рига","name:mrj":"Рига","name:nah":"Rīga","name:nds":"Riga","name:pih":"Riigaa","name:pnb":"ریگا","name:rue":"Ріґа","name:sah":"Рига","name:szl":"Ryga","name:udm":"Рига","name:vep":"Rig","name:vro":"Riia","name:bat-smg":"Rīga","name:zh-Hans":"里加","name:zh-Hant":"裏加","name:be-tarask":"Рыга"},"display_name":"Rīga, Latvija","address":{"city":"Rīga","ISO3166-2-lvl5":"LV-RIX","country":"Latvija","country_code":"lv"},"population":660187,"osm_type":"relation","osm_id":13048688,"type":"administrative","location":[24.1051846,56.9493977],"bbox":[23.9325504,56.8573462,24.3245042,57.0861068]}}
{"name":"Rojas pagasts","other_names":{"ref":"100016405","name:lv":"Rojas pagasts"},"display_name":"Rojas pagasts, Talsu novads, LV-3264, Latvija","address":{"city":"Rojas pagasts","municipality":"Talsu novads","ISO3166-2-lvl5":"LV-097","postcode":"LV-3264","country":"Latvija","country_code":"lv"},"osm_type":"relation","osm_id":13048772,"type":"administrative","location":[22.685533378148612,57.5239915],"bbox":[22.5360224,57.3716436,23.0012453,57.6765289],"inferred_type":"city"}
{"name":"Rubas pagasts","other_names":{"ref":"100013842","name:lv":"Rubas pagasts"},"display_name":"Rubas pagasts, Saldus novads, Latvija","address":{"city":"Rubas pagasts","municipality":"Saldus novads","ISO3166-2-lvl5":"LV-088","country":"Latvija","country_code":"lv"},"osm_type":"relation","osm_id":14898120,"type":"administrative","location":[22.55311460810593,56.41407795],"bbox":[22.4429928,56.3515832,22.6930036,56.4771572],"inferred_type":"city"}
{"name":"Rucavas pagasts","other_names":{"ref":"100012350","name:lv":"Rucavas pagasts"},"display_name":"Rucavas pagasts, Dienvidkurzemes novads, LV-3477, Latvija","address":{"city":"Rucavas pagasts","municipality":"Dienvidkurzemes novads","ISO3166-2-lvl5":"LV-112","postcode":"LV-3477","country":"Latvija","country_code":"lv"},"osm_type":"relation","osm_id":14888719,"type":"administrative","location":[21.181449591617266,56.16626545],"bbox":[20.9801697,56.0691822,21.3004033,56.2633585],"inferred_type":"city"}
{"name":"Rudbāržu pagasts","other_names":{"ref":"100012141","name:lv":"Rudbāržu pagasts"},"display_name":"Rudbāržu pagasts, Kuldīgas novads, Latvija","address":{"city":"Rudbāržu pagasts","municipality":"Kuldīgas novads","ISO3166-2-lvl5":"LV-050","country":"Latvija","country_code":"lv"},"osm_type":"relation","osm_id":14905479,"type":"administrative","location":[21.894431241844984,56.649948550000005],"bbox":[21.7760317,56.5729465,21.9764321,56.7267796],"inferred_type":"city"}
{"name":"Rumbas pagasts","other_names":{"ref":"100012158","name:lv":"Rumbas pagasts"},"display_name":"Rumbas pagasts, Kuldīgas novads, LV-3309, Latvija","address":{"city":"Rumbas pagasts","municipality":"Kuldīgas novads","ISO3166-2-lvl5":"LV-050","postcode":"LV-3309","country":"Latvija","country_code":"lv"},"osm_type":"relation","osm_id":14905487,"type":"administrative","location":[22.0203033713027,56.9937319],"bbox":[21.8922345,56.8699851,22.2530569,57.1174305],"inferred_type":"city"}
{"name":"Saldus pagasts","other_names":{"ref":"100013850","name:lv":"Saldus pagasts"},"display_name":"Saldus pagasts, Saldus novads, LV-3862, Latvija","address":{"city":"Saldus pagasts","municipality":"Saldus novads","ISO3166-2-lvl5":"LV-088","postcode":"LV-3862","country":"Latvija","country_code":"lv"},"osm_type":"relation","osm_id":14898114,"type":"administrative","location":[22.43321777468965,56.704346],"bbox":[22.3495365,56.6639504,22.5193943,56.7446387],"inferred_type":"city"}
{"name":"Sēmes pagasts","other_names":{"ref":"100014200","name:lv":"Sēmes pagasts"},"display_name":"Sēmes pagasts, Tukuma novads, LV-3110, Latvija","address":{"city":"Sēmes pagasts","municipality":"Tukuma novads","ISO3166-2-lvl5":"LV-099","postcode":"LV-3110","country":"Latvija","country_code":"lv"},"osm_type":"relation","osm_id":15513989,"type":"administrative","location":[23.124819217587763,57.072148150000004],"bbox":[22.9472071,56.9913781,23.245951,57.152923],"inferred_type":"city"}
{"name":"Šķēdes pagasts","other_names":{"ref":"100013867","name:lv":"Šķēdes pagasts"},"display_name":"Šķēdes pagasts, Saldus novads, LV-3875, Latvija","address":{"city":"Šķēdes pagasts","municipality":"Saldus novads","ISO3166-2-lvl5":"LV-088","postcode":"LV-3875","country":"Latvija","country_code":"lv"},"osm_type":"relation","osm_id":14898124,"type":"administrative","location":[22.45990911110635,56.87740805],"bbox":[22.2624459,56.8267338,22.5383875,56.9279472],"inferred_type":"city"}
{"name":"Skrudalienas pagasts","other_names":{"name:lv":"Skrudalienas pagasts","name:pl":"parafia Skrudelino"},"display_name":"Skrudalienas pagasts, Augšdaugavas novads, LV-5470, Latvija","address":{"city":"Skrudalienas pagasts","municipality":"Augšdaugavas novads","ISO3166-2-lvl5":"LV-111","postcode":"LV-5470","country":"Latvija","country_code":"lv"},"osm_type":"relation","osm_id":7804164,"type":"administrative","location":[26.7568782281303,55.7537741],"bbox":[26.6133412,55.6777862,26.8741825,55.8297007],"inferred_type":"city"}
{"name":"Skrundas pagasts","other_names":{"ref":"100012012","name:lv":"Skrundas pagasts"},"display_name":"Skrundas pagasts, Kuldīgas novads, LV-3307, Latvija","address":{"city":"Skrundas pagasts","municipality":"Kuldīgas novads","ISO3166-2-lvl5":"LV-050","postcode":"LV-3307","country":"Latvija","country_code":"lv"},"osm_type":"relation","osm_id":14905476,"type":"administrative","location":[22.084372946803086,56.6945463],"bbox":[21.930675,56.5549643,22.195217,56.8341588],"inferred_type":"city"}
{"name":"Snēpeles pagasts","other_names":{"ref":"100012166","name:lv":"Snēpeles pagasts"},"display_name":"Snēpeles pagasts, Kuldīgas novads, LV-3328, Latvija","address":{"city":"Snēpeles pagasts","municipality":"Kuldīgas novads","ISO3166-2-lvl5":"LV-050","postcode":"LV-3328","country":"Latvija","country_code":"lv"},"osm_type":"relation","osm_id":14905486,"type":"administrative","location":[21.94429182140741,56.8450057],"bbox":[21.8437874,56.7875385,22.0428959,56.9019668],"inferred_type":"city"}
{"name":"Stopiņu pagasts","other_names":{"name:lv":"Stopiņu pagasts","loc_name":"Stopiņi"},"display_name":"Stopiņu pagasts, Ropažu novads, LV-2130, Latvija","address":{"city":"Stopiņu pagasts","municipality":"Ropažu novads","ISO3166-2-lvl5":"LV-080","postcode":"LV-2130","country":"Latvija","country_code":"lv"},"osm_type":"relation","osm_id":13048711,"type":"administrative","location":[24.3603635704088,56.91944555],"bbox":[24.227986,56.8702418,24.4382181,56.9685312],"inferred_type":"city"}
{"name":"Strazdes pagasts","other_names":{"ref":"100014057","name:lv":"Strazdes pagasts"},"display_name":"Strazdes pagasts, Talsu novads, LV-3291, Latvija","address":{"city":"Strazdes pagasts","municipality":"Talsu novads","ISO3166-2-lvl5":"LV-097","postcode":"LV-3291","country":"Latvija","country_code":"lv"},"osm_type":"relation","osm_id":15416623,"type":"administrative","location":[22.7490474968739,57.137562700000004],"bbox":[22.675348,57.101859,22.8365937,57.1732619],"inferred_type":"city"}
{"name":"Tadaiķu pagasts","other_names":{"ref":"100012367","name:lv":"Tadaiķu pagasts"},"display_name":"Tadaiķu pagasts, Dienvidkurzemes novads, LV-3447, Latvija","address":{"city":"Tadaiķu pagasts","municipality":"Dienvidkurzemes novads","ISO3166-2-lvl5":"LV-112","postcode":"LV-3447","country":"Latvija","country_code":"lv"},"osm_type":"relation","osm_id":14893301,"type":"administrative","location":[21.305168227246707,56.5879645],"bbox":[21.2460721,56.518825,21.403501,56.6570828],"inferred_type":"city"}
{"name":"Tārgales pagasts","other_names":{"ref":"100014707","name:lv":"Tārgales pagasts"},"display_name":"Tārgales pagasts, Ventspils novads, LV-3621, Latvija","address":{"city":"Tārgales pagasts","municipality":"Ventspils novads","ISO3166-2-lvl5":"LV-106","postcode":"LV-3621","country":"Latvija","country_code":"lv"},"osm_type":"relation","osm_id":14923480,"type":"administrative","location":[21.706605966146483,57.47255945],"bbox":[21.5644299,57.2880543,22.2344106,57.6570804],"inferred_type":"city"}
{"name":"Tērvetes pagasts","other_names":{"ref":"100011308","name:lv":"Tērvetes pagasts"},"display_name":"Tērvetes pagasts, Dobeles novads, LV-3730, Latvija","address":{"city":"Tērvetes pagasts","municipality":"Dobeles novads","ISO3166-2-lvl5":"LV-026","postcode":"LV-3730","country":"Latvija","country_code":"lv"},"osm_type":"relation","osm_id":15513983,"type":"administrative","location":[23.352660049412783,56.4851048],"bbox":[23.2054757,56.4166393,23.4413854,56.553509],"inferred_type":"city"}
{"name":"Tumes pagasts","other_names":{"ref":"100015106","name:lv":"Tumes pagasts"},"display_name":"Tumes pagasts, Tukuma novads, LV-3139, Latvija","address":{"city":"Tumes pagasts","municipality":"Tukuma novads","ISO3166-2-lvl5":"LV-099","postcode":"LV-3139","country":"Latvija","country_code":"lv"},"osm_type":"relation","osm_id":15513988,"type":"administrative","location":[23.05944756625896,56.952783100000005],"bbox":[22.9735897,56.870478,23.1587784,57.0350637],"inferred_type":"city"}
{"name":"Turlavas pagasts","other_names":{"ref":"100012174","name:lv":"Turlavas pagasts"},"display_name":"Turlavas pagasts, Kuldīgas novads, LV-3329, Latvija","address":{"city":"Turlavas pagasts","municipality":"Kuldīgas novads","ISO3166-2-lvl5":"LV-050","postcode":"LV-3329","country":"Latvija","country_code":"lv"},"osm_type":"relation","osm_id":14905472,"type":"administrative","location":[21.747918537568857,56.83291095],"bbox":[21.5979616,56.7708421,21.8911512,56.8944628],"inferred_type":"city"}
{"name":"Ugāles pagasts","other_names":{"ref":"100015147","name:lv":"Ugāles pagasts"},"display_name":"Ugāles pagasts, Ventspils novads, LV-3615, Latvija","address":{"city":"Ugāles pagasts","municipality":"Ventspils novads","ISO3166-2-lvl5":"LV-106","postcode":"LV-3615","country":"Latvija","country_code":"lv"},"osm_type":"relation","osm_id":14923473,"type":"administrative","location":[21.964557920111023,57.23158445],"bbox":[21.8016443,57.0996164,22.1342879,57.3635704],"inferred_type":"city"}
{"name":"Ukru pagasts","other_names":{"ref":"100011316","name:lv":"Ukru pagasts"},"display_name":"Ukru pagasts, Dobeles novads, LV-3729, Latvija","address":{"city":"Ukru pagasts","municipality":"Dobeles novads","ISO3166-2-lvl5":"LV-026","postcode":"LV-3729","country":"Latvija","country_code":"lv"},"osm_type":"relation","osm_id":15507680,"type":"administrative","location":[23.094405885870252,56.35980815],"bbox":[22.9992541,56.3046383,23.1965945,56.4138261],"inferred_type":"city"}
{"name":"Usmas pagasts","other_names":{"ref":"100014715","name:lv":"Usmas pagasts"},"display_name":"Usmas pagasts, Ventspils novads, LV-3619, Latvija","address":{"city":"Usmas pagasts","municipality":"Ventspils novads","ISO3166-2-lvl5":"LV-106","postcode":"LV-3619","country":"Latvija","country_code":"lv"},"osm_type":"relation","osm_id":14923477,"type":"administrative","location":[22.137046188903867,57.217647400000004],"bbox":[22.0521588,57.0991932,22.3200483,57.33607],"inferred_type":"city"}
{"name":"Užavas pagasts","other_names":{"ref":"100014723","name:lv":"Užavas pagasts"},"display_name":"Užavas pagasts, Ventspils novads, LV-3627, Latvija","address":{"city":"Užavas pagasts","municipality":"Ventspils novads","ISO3166-2-lvl5":"LV-106","postcode":"LV-3627","country":"Latvija","country_code":"lv"},"osm_type":"relation","osm_id":93911,"type":"administrative","location":[21.473878122045168,57.17893745000001],"bbox":[21.4063723,57.0653377,21.5604548,57.2926793],"inferred_type":"city"}
{"name":"Vadakstes pagasts","other_names":{"ref":"100013875","name:lv":"Vadakstes pagasts"},"display_name":"Vadakstes pagasts, Saldus novads, LV-3895, Latvija","address":{"city":"Vadakstes pagasts","municipality":"Saldus novads","ISO3166-2-lvl5":"LV-088","postcode":"LV-3895","country":"Latvija","country_code":"lv"},"osm_type":"relation","osm_id":14898121,"type":"administrative","location":[22.80358346163547,56.389035750000005],"bbox":[22.6513043,56.3530332,22.9286135,56.4248911],"inferred_type":"city"}
{"name":"Vaiņodes pagasts","other_names":{"ref":"100012375","name:lv":"Vaiņodes pagasts"},"display_name":"Vaiņodes pagasts, Dienvidkurzemes novads, LV-3435, Latvija","address":{"city":"Vaiņodes pagasts","municipality":"Dienvidkurzemes novads","ISO3166-2-lvl5":"LV-112","postcode":"LV-3435","country":"Latvija","country_code":"lv"},"osm_type":"relation","osm_id":14893292,"type":"administrative","location":[21.83307595286849,56.40719265],"bbox":[21.6657847,56.3369522,22.0116437,56.477453],"inferred_type":"city"}
{"name":"Valdgales pagasts","other_names":{"ref":"100014065","name:lv":"Valdgales pagasts"},"display_name":"Valdgales pagasts, Talsu novads, LV-3253, Latvija","address":{"city":"Valdgales pagasts","municipality":"Talsu novads","ISO3166-2-lvl5":"LV-097","postcode":"LV-3253","country":"Latvija","country_code":"lv"},"osm_type":"relation","osm_id":15416612,"type":"administrative","location":[22.41957083419865,57.3492856],"bbox":[22.2341087,57.2628403,22.5914913,57.4363643],"inferred_type":"city"}
{"name":"Valmiera","other_names":{"name:ar":"فالميرا","name:ba":"Валмиера","name:be":"Валміера","name:bg":"Валмиера","name:de":"Wolmar","name:el":"Βάλμιερα","name:fa":"والمیرا","name:fi":"Valmiera","name:he":"ולמירה","name:hu":"Valmiera","name:hy":"Վալմիերա","name:ja":"ヴァルミエラ","name:ka":"ვალმიერა","name:ko":"발미에라","name:lt":"Valmiera","name:lv":"Valmiera","name:mk":"Валмиера","name:ml":"വാൽമിയേറ","name:os":"Валмиерæ","name:pa":"ਵਾਲਮੀਰਾ","name:pl":"Valmiera","name:ru":"Валмиера","name:sr":"Валмијера","name:tt":"Валмиера","name:uk":"Валміера","name:ur":"والمیرا","name:zh":"瓦爾米耶拉","alt_name:et":"Volmari","old_name:pl":"Wolmar","old_name:ru":"Вольмар"},"display_name":"Valmiera, Valmieras novads, Latvija","address":{"city":"Valmiera","municipality":"Valmieras novads","ISO3166-2-lvl5":"LV-113","country":"Latvija","country_code":"lv"},"population":26674,"osm_type":"node","osm_id":26804967,"type":"city","location":[25.4261688,57.5389148],"bbox":[25.2661688,57.3789148,25.5861688,57.6989148],"border":{"name":"Valmiera","other_names":{"name:lv":"Valmiera","name:ar":"فالميرا","name:ba":"Валмиера","name:be":"Валміера","name:bg":"Валмиера","name:de":"Wolmar","name:el":"Βάλμιερα","name:fa":"والمیرا","name:fi":"Valmiera","name:he":"ולמירה","name:hu":"Valmiera","name:hy":"Վալմիերա","name:ja":"ヴァルミエラ","name:ka":"ვალმიერა","name:ko":"발미에라","name:lt":"Valmiera","name:mk":"Валмиера","name:ml":"വാൽമിയേറ","name:os":"Валмиерæ","name:pa":"ਵਾਲਮੀਰਾ","name:pl":"Valmiera","name:ru":"Валмиера","name:sr":"Валмијера","name:tt":"Валмиера","name:uk":"Валміера","name:ur":"والمیرا","name:zh":"瓦爾米耶拉","alt_name:et":"Volmari","old_name:pl":"Wolmar","old_name:ru":"Вольмар"},"display_name":"Valmiera, Valmieras novads, Latvija","address":{"city":"Valmiera","municipality":"Valmieras novads","ISO3166-2-lvl5":"LV-113","country":"Latvija","country_code":"lv"},"population":26674,"osm_type":"relation","osm_id":13048680,"type":"administrative","location":[25.4261688,57.5389148],"bbox":[25.3746416,57.4974929,25.467758,57.5551153]}}
{"name":"Vandzenes pagasts","other_names":{"ref":"100014073","name:lv":"Vandzenes pagasts"},"display_name":"Vandzenes pagasts, Talsu novads, LV-3281, Latvija","address":{"city":"Vandzenes pagasts","municipality":"Talsu novads","ISO3166-2-lvl5":"LV-097","postcode":"LV-3281","country":"Latvija","country_code":"lv"},"osm_type":"relation","osm_id":15416611,"type":"administrative","location":[22.79453446396421,57.3305341],"bbox":[22.6821702,57.2546764,23.0204863,57.4067995],"inferred_type":"city"}
{"name":"Vānes pagasts","other_names":{"ref":"100014233","name:lv":"Vānes pagasts"},"display_name":"Vānes pagasts, Tukuma novads, LV-3131, Latvija","address":{"city":"Vānes pagasts","municipality":"Tukuma novads","ISO3166-2-lvl5":"LV-099","postcode":"LV-3131","country":"Latvija","country_code":"lv"},"osm_type":"relation","osm_id":14885393,"type":"administrative","location":[22.59755092329152,56.9045888],"bbox":[22.4467912,56.8230996,22.7544889,56.9860601],"inferred_type":"city"}
{"name":"Vārmes pagasts","other_names":{"ref":"100012182","name:lv":"Vārmes pagasts"},"display_name":"Vārmes pagasts, Kuldīgas novads, LV-3333, Latvija","address":{"city":"Vārmes pagasts","municipality":"Kuldīgas novads","ISO3166-2-lvl5":"LV-050","postcode":"LV-3333","country":"Latvija","country_code":"lv"},"osm_type":"relation","osm_id":14905473,"type":"administrative","location":[22.19427918646526,56.85849295],"bbox":[22.0378482,56.7933381,22.3520344,56.9221817],"inferred_type":"city"}
{"name":"Vārves pagasts","other_names":{"ref":"100014731","name:lv":"Vārves pagasts"},"display_name":"Vārves pagasts, Ventspils novads, LV-3623, Latvija","address":{"city":"Vārves pagasts","municipality":"Ventspils novads","ISO3166-2-lvl5":"LV-106","postcode":"LV-3623","country":"Latvija","country_code":"lv"},"osm_type":"relation","osm_id":93908,"type":"administrative","location":[21.520891715099424,57.283264349999996],"bbox":[21.4193183,57.1878115,21.6457224,57.3788265],"inferred_type":"city"}
{"name":"Vecauces pagasts","other_names":{"ref":"100011164","name:lv":"Vecauces pagasts"},"display_name":"Vecauces pagasts, Dobeles novads, Latvija","address":{"city":"Vecauces pagasts","municipality":"Dobeles novads","ISO3166-2-lvl5":"LV-026","country":"Latvija","country_code":"lv"},"osm_type":"relation","osm_id":15507674,"type":"administrative","location":[22.937838465962752,56.480577749999995],"bbox":[22.8589882,56.4506885,23.0306183,56.5106452],"inferred_type":"city"}
{"name":"Vecpils pagasts","other_names":{"ref":"100012383","name:lv":"Vecpils pagasts"},"display_name":"Vecpils pagasts, Dienvidkurzemes novads, LV-3441, Latvija","address":{"city":"Vecpils pagasts","municipality":"Dienvidkurzemes novads","ISO3166-2-lvl5":"LV-112","postcode":"LV-3441","country":"Latvija","country_code":"lv"},"osm_type":"relation","osm_id":14893300,"type":"administrative","location":[21.5367056934219,56.6148312],"bbox":[21.4274148,56.565482,21.6242534,56.6641718],"inferred_type":"city"}
{"name":"Ventspils","other_names":{"name:be":"Віндава","name:de":"Windau","name:et":"Ventspils","name:fi":"Ventspils","name:lt":"Ventspilis","name:lv":"Ventspils","name:ml":"വെൻ്റ്സ്പിൽസ്","name:pl":"Windawa","name:ru":"Вентспилс","name:uk":"Вентспілс","name:liv":"Vǟnta","name:ltg":"Ventspiļs","name:sgs":"Vėntspėlis","alt_name:be":"Вентспілс","old_name:et":"Vindavi","old_name:hr":"Vindava","old_name:ru":"Виндава"},"display_name":"Ventspils, Latvija","address":{"city":"Ventspils","ISO3166-2-lvl5":"LV-VEN","country":"Latvija","country_code":"lv"},"population":41998,"osm_type":"node","osm_id":29488313,"type":"city","location":[21.5635991,57.3903918],"bbox":[21.4035991,57.2303918,21.7235991,57.5503918],"border":{"name":"Ventspils","other_names":{"ref":"100003060","name:be":"Віндава","name:de":"Windau","name:et":"Ventspils","name:lt":"Ventspilis","name:lv":"Ventspils","name:pl":"Windawa","name:ru":"Вентспилс","name:ltg":"Ventspiļs","name:sgs":"Vėntspėlis","ISO3166-2":"LV-VEN","alt_name:be":"Вэнтспілс","old_name:et":"Vindavi","old_name:ru":"Виндава","name:fi":"Ventspils","name:ml":"വെൻ്റ്സ്പിൽസ്","name:uk":"Вентспілс","name:liv":"Vǟnta","_place_alt_name:be":"Вентспілс","old_name:hr":"Vindava"},"display_name":"Ventspils, Latvija","address":{"city":"Ventspils","ISO3166-2-lvl5":"LV-VEN","country":"Latvija","country_code":"lv"},"population":41998,"osm_type":"relation","osm_id":13048686,"type":"administrative","location":[21.5635991,57.3903918],"bbox":[21.5172711,57.3479878,21.6734738,57.4705813]}}
{"name":"Viesatu pagasts","other_names":{"ref":"100014241","name:lv":"Viesatu pagasts"},"display_name":"Viesatu pagasts, Tukuma novads, LV-3142, Latvija","address":{"city":"Viesatu pagasts","municipality":"Tukuma novads","ISO3166-2-lvl5":"LV-099","postcode":"LV-3142","country":"Latvija","country_code":"lv"},"osm_type":"relation","osm_id":14885571,"type":"administrative","location":[22.86198863805462,56.81587115],"bbox":[22.7841268,56.7712407,22.9488305,56.8604249],"inferred_type":"city"}
{"name":"Virbu pagasts","other_names":{"ref":"100014081","name:lv":"Virbu pagasts"},"display_name":"Virbu pagasts, Talsu novads, LV-3292, Latvija","address":{"city":"Virbu pagasts","municipality":"Talsu novads","ISO3166-2-lvl5":"LV-097","postcode":"LV-3292","country":"Latvija","country_code":"lv"},"osm_type":"relation","osm_id":15416609,"type":"administrative","location":[22.632020465764032,57.12816415],"bbox":[22.5510113,57.095207,22.6988569,57.1611425],"inferred_type":"city"}
{"name":"Virgas pagasts","other_names":{"ref":"100012406","name:lv":"Virgas pagasts"},"display_name":"Virgas pagasts, Dienvidkurzemes novads, Latvija","address":{"city":"Virgas pagasts","municipality":"Dienvidkurzemes novads","ISO3166-2-lvl5":"LV-112","country":"Latvija","country_code":"lv"},"osm_type":"relation","osm_id":14889365,"type":"administrative","location":[21.47187226004083,56.43828575],"bbox":[21.3839769,56.3662968,21.5613495,56.5102153],"inferred_type":"city"}
{"name":"Vītiņu pagasts","other_names":{"ref":"100014844","name:lv":"Vītiņu pagasts"},"display_name":"Vītiņu pagasts, Dobeles novads, LV-3721, Latvija","address":{"city":"Vītiņu pagasts","municipality":"Dobeles novads","ISO3166-2-lvl5":"LV-026","postcode":"LV-3721","country":"Latvija","country_code":"lv"},"osm_type":"relation","osm_id":15507673,"type":"administrative","location":[22.80642202562146,56.46030005],"bbox":[22.7105774,56.3911657,23.023296,56.5289953],"inferred_type":"city"}
{"name":"Zaņas pagasts","other_names":{"ref":"100013883","name:lv":"Zaņas pagasts"},"display_name":"Zaņas pagasts, Saldus novads, Latvija","address":{"city":"Zaņas pagasts","municipality":"Saldus novads","ISO3166-2-lvl5":"LV-088","country":"Latvija","country_code":"lv"},"osm_type":"relation","osm_id":9095006,"type":"administrative","location":[22.201674912855935,56.482474100000005],"bbox":[22.0852364,56.4303871,22.3418699,56.5342478],"inferred_type":"city"}
{"name":"Zantes pagasts","other_names":{"ref":"100014258","name:lv":"Zantes pagasts"},"display_name":"Zantes pagasts, Tukuma novads, LV-3134, Latvija","address":{"city":"Zantes pagasts","municipality":"Tukuma novads","ISO3166-2-lvl5":"LV-099","postcode":"LV-3134","country":"Latvija","country_code":"lv"},"osm_type":"relation","osm_id":14885392,"type":"administrative","location":[22.742434646710972,56.857597850000005],"bbox":[22.6319413,56.7967253,22.8416224,56.9183204],"inferred_type":"city"}
{"name":"Zemītes pagasts","other_names":{"ref":"100014266","name:lv":"Zemītes pagasts"},"display_name":"Zemītes pagasts, Tukuma novads, LV-3135, Latvija","address":{"city":"Zemītes pagasts","municipality":"Tukuma novads","ISO3166-2-lvl5":"LV-099","postcode":"LV-3135","country":"Latvija","country_code":"lv"},"osm_type":"relation","osm_id":14885391,"type":"administrative","location":[22.810998738712286,56.90740705],"bbox":[22.7107039,56.8508915,22.9385781,56.9636619],"inferred_type":"city"}
{"name":"Zentenes pagasts","other_names":{"ref":"100015114","name:lv":"Zentenes pagasts"},"display_name":"Zentenes pagasts, Tukuma novads, LV-3123, Latvija","address":{"city":"Zentenes pagasts","municipality":"Tukuma novads","ISO3166-2-lvl5":"LV-099","postcode":"LV-3123","country":"Latvija","country_code":"lv"},"osm_type":"relation","osm_id":15513987,"type":"administrative","location":[23.032298056088862,57.1689421],"bbox":[22.9216554,57.0851876,23.1448985,57.2522854],"inferred_type":"city"}
{"name":"Zirņu pagasts","other_names":{"ref":"100013891","name:lv":"Zirņu pagasts"},"display_name":"Zirņu pagasts, Saldus novads, LV-3853, Latvija","address":{"city":"Zirņu pagasts","municipality":"Saldus novads","ISO3166-2-lvl5":"LV-088","postcode":"LV-3853","country":"Latvija","country_code":"lv"},"osm_type":"relation","osm_id":14898128,"type":"administrative","location":[22.214652798971798,56.701961749999995],"bbox":[22.0879528,56.5991522,22.4761056,56.8046631],"inferred_type":"city"}
{"name":"Ziru pagasts","other_names":{"ref":"100015155","name:lv":"Ziru pagasts"},"display_name":"Ziru pagasts, Ventspils novads, LV-3624, Latvija","address":{"city":"Ziru pagasts","municipality":"Ventspils novads","ISO3166-2-lvl5":"LV-106","postcode":"LV-3624","country":"Latvija","country_code":"lv"},"osm_type":"relation","osm_id":14923475,"type":"administrative","location":[21.620875433896956,57.1351933],"bbox":[21.4802227,57.0691096,21.7710561,57.2009685],"inferred_type":"city"}
{"name":"Zlēku pagasts","other_names":{"ref":"100014748","name:lv":"Zlēku pagasts"},"display_name":"Zlēku pagasts, Ventspils novads, LV-3617, Latvija","address":{"city":"Zlēku pagasts","municipality":"Ventspils novads","ISO3166-2-lvl5":"LV-106","postcode":"LV-3617","country":"Latvija","country_code":"lv"},"osm_type":"relation","osm_id":14923479,"type":"administrative","location":[21.852526371509782,57.13429825],"bbox":[21.7414234,57.0808964,22.0018098,57.1880305],"inferred_type":"city"}
{"name":"Zvārdes pagasts","other_names":{"ref":"100013906","name:lv":"Zvārdes pagasts"},"display_name":"Zvārdes pagasts, Saldus novads, LV-3883, Latvija","address":{"city":"Zvārdes pagasts","municipality":"Saldus novads","ISO3166-2-lvl5":"LV-088","postcode":"LV-3883","country":"Latvija","country_code":"lv"},"osm_type":"relation","osm_id":14898119,"type":"administrative","location":[22.60982548452602,56.54598755],"bbox":[22.4498855,56.4631655,22.7467398,56.6284578],"inferred_type":"city"}
