{"name":"Gibraltar","other_names":{"name:am":"ጅብራልታር","name:an":"Chibraltar","name:ar":"جبل طارق","name:az":"Cəbəllüttariq","name:ba":"Гибралтар","name:be":"Гібралтар","name:bg":"Гибралтар","name:bn":"জিব্রাল্টার","name:br":"Jibraltar","name:ca":"Gibraltar","name:cs":"Gibraltár","name:cv":"Гибралтар","name:dv":"ޖަބަލްޠާރިޤު","name:el":"Γιβραλτάρ","name:en":"Gibraltar","name:eo":"Ĝibraltaro","name:fa":"جبل‌الطارق","name:fr":"Gibraltar","name:ga":"Giobráltar","name:gd":"Giobraltair","name:gl":"Xibraltar","name:gu":"જિબ્રાલ્ટર","name:gv":"Gibraaltar","name:he":"גיברלטר","name:hi":"जिब्राल्टर","name:hu":"Gibraltár","name:hy":"Ջիբրալթար","name:is":"Gíbraltar","name:it":"Gibilterra","name:ja":"ジブラルタル","name:ka":"გიბრალტარი","name:kk":"Гибралтар","name:kn":"ಜಿಬ್ರಾಲ್ಟರ್","name:ko":"지브롤터","name:ku":"Cîbraltar","name:kw":"Jibraltar","name:ky":"Гибралтар","name:la":"Gibraltaria","name:lo":"ກິບຣາທາ","name:lt":"Gibraltaras","name:lv":"Gibraltārs","name:mg":"Gibraltara","name:mi":"Kāmaka","name:mk":"Гибралтар","name:ml":"ജിബ്രാൾട്ടർ","name:mn":"Гибралтар","name:mr":"जिब्राल्टर","name:mt":"Ġibiltà","name:my":"ဂျီဘရော်လ်တာ","name:ne":"जिब्राल्टार","name:oc":"Gibartar","name:or":"ଜିବ୍ରାଲ୍ଟର","name:os":"Гибралтар","name:pa":"ਜਿਬਰਾਲਟਰ","name:ps":"جبل الطارق","name:ro":"Gibraltar","name:ru":"Гибралтар","name:rw":"Giburalitari","name:sd":"جبل الطارق","name:si":"ජිබ්‍රෝල්ටාව","name:sk":"Gibraltár","name:so":"Jibraltaar","name:sq":"Gjibraltari","name:sr":"Гибралтар","name:ta":"ஜிப்ரால்ட்டர்","name:te":"జిబ్రాల్టర్","name:tg":"Ҷабалутториқ","name:th":"ยิบรอลตาร์","name:tr":"Cebelitarık","name:tt":"Гибралтар","name:uk":"Гібралтар","name:ur":"جبل‌الطارق","name:wa":"Djibraltar","name:wo":"Jibraltaar","name:xh":"Gilbhraltha","name:yi":"גיבראלטאר","name:zh":"直布罗陀 / 直布羅陀","int_name":"Gibraltar","name:ang":"Calpis","name:arz":"جيبرالتار","name:ast":"Xibraltar","name:zh-Hans":"直布罗陀","name:zh-Hant":"直布羅陀"},"display_name":"Gibraltar","address":{"city":"Gibraltar","country":"Gibraltar","country_code":"gi"},"population":32577,"osm_type":"node","osm_id":267933614,"type":"city","location":[-5.3541295,36.140807],"bbox":[-5.5141295,35.980807,-5.1941295,36.300807],"border":{"name":"Gibraltar","other_names":{"name:en":"Gibraltar","name:lt":"Gibraltaras","name:sk":"Gibraltár","name:am":"ጅብራልታር","name:an":"Chibraltar","name:ar":"جبل طارق","name:az":"Cəbəllüttariq","name:ba":"Гибралтар","name:be":"Гібралтар","name:bg":"Гибралтар","name:bn":"জিব্রাল্টার","name:br":"Jibraltar","name:ca":"Gibraltar","name:cs":"Gibraltár","name:cv":"Гибралтар","name:dv":"ޖަބަލްޠާރިޤު","name:el":"Γιβραλτάρ","name:eo":"Ĝibraltaro","name:fa":"جبل‌الطارق","name:fr":"Gibraltar","name:ga":"Giobráltar","name:gd":"Giobraltair","name:gl":"Xibraltar","name:gu":"જિબ્રાલ્ટર","name:gv":"Gibraaltar","name:he":"גיברלטר","name:hi":"जिब्राल्टर","name:hu":"Gibraltár","name:hy":"Ջիբրալթար","name:is":"Gíbraltar","name:it":"Gibilterra","name:ja":"ジブラルタル","name:ka":"გიბრალტარი","name:kk":"Гибралтар","name:kn":"ಜಿಬ್ರಾಲ್ಟರ್","name:ko":"지브롤터","name:ku":"Cîbraltar","name:kw":"Jibraltar","name:ky":"Гибралтар","name:la":"Gibraltaria","name:lo":"ກິບຣາທາ","name:lv":"Gibraltārs","name:mg":"Gibraltara","name:mi":"Kāmaka","name:mk":"Гибралтар","name:ml":"ജിബ്രാൾട്ടർ","name:mn":"Гибралтар","name:mr":"जिब्राल्टर","name:mt":"Ġibiltà","name:my":"ဂျီဘရော်လ်တာ","name:ne":"जिब्राल्टार","name:oc":"Gibartar","name:or":"ଜିବ୍ରାଲ୍ଟର","name:os":"Гибралтар","name:pa":"ਜਿਬਰਾਲਟਰ","name:ps":"جبل الطارق","name:ro":"Gibraltar","name:ru":"Гибралтар","name:rw":"Giburalitari","name:sd":"جبل الطارق","name:si":"ජිබ්‍රෝල්ටාව","name:so":"Jibraltaar","name:sq":"Gjibraltari","name:sr":"Гибралтар","name:ta":"ஜிப்ரால்ட்டர்","name:te":"జిబ్రాల్టర్","name:tg":"Ҷабалутториқ","name:th":"ยิบรอลตาร์","name:tr":"Cebelitarık","name:tt":"Гибралтар","name:uk":"Гібралтар","name:ur":"جبل‌الطارق","name:wa":"Djibraltar","name:wo":"Jibraltaar","name:xh":"Gilbhraltha","name:yi":"גיבראלטאר","name:zh":"直布罗陀 / 直布羅陀","int_name":"Gibraltar","name:ang":"Calpis","name:arz":"جيبرالتار","name:ast":"Xibraltar","name:zh-Hans":"直布罗陀","name:zh-Hant":"直布羅陀"},"display_name":"Gibraltar","address":{"city":"Gibraltar","country":"Gibraltar","country_code":"gi"},"population":32577,"osm_type":"relation","osm_id":6358272,"type":"administrative","location":[-5.3541295,36.140807],"bbox":[-5.3674151,36.1088517,-5.337642,36.1550376]}}
