{"name":"Adelaide","other_names":{"name:ar":"أديليد","name:be":"Адэлаіда","name:bn":"অ্যাডিলেইড","name:de":"Adelaide","name:en":"Adelaide","name:eo":"Adelajdo","name:es":"Adelaida","name:fr":"Adélaïde","name:he":"אדלייד","name:id":"Adelaide","name:is":"Adelaide","name:ja":"アデレード","name:kn":"ಅಡಿಲೇಡ್","name:lt":"Adelaidė","name:mk":"Аделаида","name:mr":"आडेलेड","name:pt":"Adelaide","name:ru":"Аделаида","name:sr":"Аделејд","name:sv":"Adelaide","name:tt":"Әделайд","name:uk":"Аделаїда","name:zh":"阿德莱德","name:zku":"Tarntanya"},"display_name":"Adelaide, Adelaide City Council, South Australia, Australia","address":{"city":"Adelaide","county":"Adelaide City Council","state":"South Australia","ISO3166-2-lvl4":"AU-SA","country":"Australia","country_code":"au"},"population":1245011,"osm_type":"node","osm_id":941125358,"type":"city","location":[138.5999312,-34.9281805],"bbox":[138.4399312,-35.0881805,138.7599312,-34.7681805],"border":[{"name":"Adelaide City Council","other_names":{"name:en":"Adelaide City Council","short_name":"Adelaide"},"display_name":"Adelaide City Council, South Australia, Australia","address":{"county":"Adelaide City Council","state":"South Australia","ISO3166-2-lvl4":"AU-SA","country":"Australia","country_code":"au"},"osm_type":"relation","osm_id":3093825,"type":"administrative","location":[138.5972624509971,-34.92110194999999],"bbox":[138.5772193,-34.941979,138.6242167,-34.8987775]},{"name":"Adelaide","other_names":{"name:en":"Adelaide","name:ar":"أديليد","name:be":"Адэлаіда","name:bn":"অ্যাডিলেইড","name:de":"Adelaide","name:eo":"Adelajdo","name:es":"Adelaida","name:fr":"Adélaïde","name:he":"אדלייד","name:id":"Adelaide","name:is":"Adelaide","name:ja":"アデレード","name:kn":"ಅಡಿಲೇಡ್","name:lt":"Adelaidė","name:mk":"Аделаида","name:mr":"आडेलेड","name:pt":"Adelaide","name:ru":"Аделаида","name:sr":"Аделејд","name:sv":"Adelaide","name:tt":"Әделайд","name:uk":"Аделаїда","name:zh":"阿德莱德","name:zku":"Tarntanya"},"display_name":"Adelaide, Adelaide City Council, South Australia, Australia","address":{"city":"Adelaide","county":"Adelaide City Council","state":"South Australia","ISO3166-2-lvl4":"AU-SA","country":"Australia","country_code":"au"},"population":1245011,"osm_type":"relation","osm_id":11381689,"type":"administrative","location":[138.5999312,-34.9281805],"bbox":[138.4281386,-35.350296,138.8479091,-34.572242]},{"name":"Adelaide","display_name":"Adelaide, Adelaide City Council, South Australia, 5000, Australia","address":{"suburb":"Adelaide","city":"Adelaide","county":"Adelaide City Council","state":"South Australia","ISO3166-2-lvl4":"AU-SA","postcode":"5000","country":"Australia","country_code":"au"},"osm_type":"relation","osm_id":3114051,"type":"administrative","location":[138.6006231426997,-34.9261502],"bbox":[138.5770603,-34.9421608,138.6244769,-34.9091218]}]}
{"name":"Albany","other_names":{"name:bn":"আলবানি","name:en":"Albany","name:ja":"アルバニー","name:ru":"Олбани","name:uk":"Албані","name:nys":"Kinjarling"},"display_name":"Albany, City Of Albany, Western Australia, 6330, Australia","address":{"city":"Albany","municipality":"City Of Albany","state":"Western Australia","ISO3166-2-lvl4":"AU-WA","postcode":"6330","country":"Australia","country_code":"au"},"population":31128,"osm_type":"node","osm_id":1939438483,"type":"city","location":[117.883608,-35.0247822],"bbox":[117.723608,-35.1847822,118.043608,-34.8647822],"border":[{"name":"City Of Albany","other_names":{"name:en":"City Of Albany","short_name":"Albany"},"display_name":"City Of Albany, Western Australia, Australia","address":{"municipality":"City Of Albany","state":"Western Australia","ISO3166-2-lvl4":"AU-WA","country":"Australia","country_code":"au"},"osm_type":"relation","osm_id":11690341,"type":"administrative","location":[118.2434056346728,-34.7634122],"bbox":[117.331667,-35.2418503,118.9758222,-34.284925]},{"name":"Albany","other_names":{"name:en":"Albany","name:nys":"Kinjarling"},"display_name":"Albany, City Of Albany, Western Australia, 6330, Australia","address":{"city_district":"Albany","municipality":"City Of Albany","state":"Western Australia","ISO3166-2-lvl4":"AU-WA","postcode":"6330","country":"Australia","country_code":"au"},"osm_type":"relation","osm_id":11690359,"type":"administrative","location":[117.88419162258197,-35.028019],"bbox":[117.871732,-35.037746,117.896632,-35.018388]}]}
{"name":"Albury","other_names":{"name:en":"Albury","name:ja":"オルベリー","name:ru":"Олбери"},"display_name":"Albury, Albury City Council, New South Wales, 2640, Australia","address":{"city":"Albury","municipality":"Albury City Council","state":"New South Wales","ISO3166-2-lvl4":"AU-NSW","postcode":"2640","country":"Australia","country_code":"au"},"population":53677,"osm_type":"node","osm_id":2293318943,"type":"city","location":[146.9162795,-36.0804766],"bbox":[146.7562795,-36.2404766,147.0762795,-35.9204766],"border":[{"name":"Albury City Council","other_names":{"name:en":"Albury City Council","alt_name":"Albury City Council","short_name":"Albury"},"display_name":"Albury City Council, New South Wales, Australia","address":{"municipality":"Albury City Council","state":"New South Wales","ISO3166-2-lvl4":"AU-NSW","country":"Australia","country_code":"au"},"population":47810,"osm_type":"relation","osm_id":3487773,"type":"administrative","location":[146.98217147745441,-36.014806199999995],"bbox":[146.8125559,-36.1159508,147.099917,-35.913832]},{"name":"Albury","display_name":"Albury, Albury City Council, New South Wales, 2640, Australia","address":{"suburb":"Albury","municipality":"Albury City Council","state":"New South Wales","ISO3166-2-lvl4":"AU-NSW","postcode":"2640","country":"Australia","country_code":"au"},"osm_type":"relation","osm_id":5901440,"type":"administrative","location":[146.9135265,-36.0737734],"bbox":[146.8979343,-36.0860023,146.9340211,-36.0608845]}]}
{"name":"Alice Springs","other_names":{"name:en":"Alice Springs","name:ja":"アリススプリングス","name:mk":"Алис Спрингс","name:ru":"Алис-Спрингс","name:uk":"Аліс-Спрінгс","name:zh":"艾利斯斯普林斯","alt_name:zh":"爱丽斯泉","alt_name:aer":"Mparntwe"},"display_name":"Alice Springs, Town of Alice Springs, Northern Territory, Australia","address":{"city":"Alice Springs","county":"Town of Alice Springs","territory":"Northern Territory","ISO3166-2-lvl4":"AU-NT","country":"Australia","country_code":"au"},"population":24855,"osm_type":"node","osm_id":29341070,"type":"city","location":[133.8812885,-23.6983884],"bbox":[133.7212885,-23.8583884,134.0412885,-23.5383884],"border":[{"name":"Town of Alice Springs","other_names":{"name:en":"Town of Alice Springs","name:aer":"Mparntwe"},"display_name":"Town of Alice Springs, Northern Territory, Australia","address":{"county":"Town of Alice Springs","territory":"Northern Territory","ISO3166-2-lvl4":"AU-NT","country":"Australia","country_code":"au"},"osm_type":"relation","osm_id":9045378,"type":"administrative","location":[133.85538050461815,-23.729368],"bbox":[133.725976,-23.831499,133.940458,-23.630506]},{"name":"Alice Springs","other_names":{"name:en":"Alice Springs","name:ja":"アリススプリングス","name:mk":"Алис Спрингс","name:ru":"Алис-Спрингс","name:uk":"Аліс-Спрінгс","name:zh":"艾利斯斯普林斯","alt_name:zh":"爱丽斯泉","alt_name:aer":"Mparntwe"},"display_name":"Alice Springs, Town of Alice Springs, Northern Territory, 0870, Australia","address":{"city":"Alice Springs","county":"Town of Alice Springs","territory":"Northern Territory","ISO3166-2-lvl4":"AU-NT","postcode":"0870","country":"Australia","country_code":"au"},"population":24855,"osm_type":"relation","osm_id":11716659,"type":"administrative","location":[133.8812885,-23.6983884],"bbox":[133.874263,-23.707093,133.885997,-23.691614]}]}
{"name":"Armidale","other_names":{"name:en":"Armidale","name:ja":"アーミデイル","name:ru":"Армидейл","name:uk":"Армідейл"},"display_name":"Armidale, Armidale Regional Council, New South Wales, Australia","address":{"city":"Armidale","municipality":"Armidale Regional Council","state":"New South Wales","ISO3166-2-lvl4":"AU-NSW","country":"Australia","country_code":"au"},"population":21312,"osm_type":"node","osm_id":59851594,"type":"city","location":[151.6656564,-30.5144881],"bbox":[151.5056564,-30.6744881,151.8256564,-30.3544881],"border":[{"name":"Armidale Regional Council","other_names":{"name:en":"Armidale Regional Council","alt_name":"Armidale Regional Council","short_name":"Armidale"},"display_name":"Armidale Regional Council, New South Wales, Australia","address":{"municipality":"Armidale Regional Council","state":"New South Wales","ISO3166-2-lvl4":"AU-NSW","country":"Australia","country_code":"au"},"osm_type":"relation","osm_id":6165969,"type":"administrative","location":[151.954008563248,-30.435526199999998],"bbox":[151.2545437,-30.9310882,152.4280784,-29.9399438]},{"name":"Armidale","other_names":{"name:en":"Armidale","name:ja":"アーミデイル","name:ru":"Армидейл","name:uk":"Армідейл"},"display_name":"Armidale, Armidale Regional Council, New South Wales, 2350, Australia","address":{"city":"Armidale","municipality":"Armidale Regional Council","state":"New South Wales","ISO3166-2-lvl4":"AU-NSW","postcode":"2350","country":"Australia","country_code":"au"},"population":21312,"osm_type":"relation","osm_id":6063353,"type":"administrative","location":[151.6656564,-30.5144881],"bbox":[151.5591816,-30.5839663,151.7755931,-30.4172103]}]}
{"name":"Ballarat","other_names":{"name:el":"Μπαλαράτ","name:en":"Ballarat","name:he":"בלאראט","name:ja":"バララット","name:pt":"Ballarat","name:ru":"Балларат","name:zh":"巴拉瑞特"},"display_name":"Ballarat, City of Ballarat, Victoria, 3350, Australia","address":{"city":"Ballarat","municipality":"City of Ballarat","state":"Victoria","ISO3166-2-lvl4":"AU-VIC","postcode":"3350","country":"Australia","country_code":"au"},"population":105348,"osm_type":"node","osm_id":189820294,"type":"city","location":[143.8605645,-37.5623013],"bbox":[143.7005645,-37.7223013,144.0205645,-37.4023013]}
{"name":"Bathurst","other_names":{"name:en":"Bathurst","name:ja":"バサースト"},"display_name":"Bathurst, Bathurst Regional Council, New South Wales, 2795, Australia","address":{"city":"Bathurst","municipality":"Bathurst Regional Council","state":"New South Wales","ISO3166-2-lvl4":"AU-NSW","postcode":"2795","country":"Australia","country_code":"au"},"population":36230,"osm_type":"node","osm_id":172987017,"type":"city","location":[149.5804943,-33.4166378],"bbox":[149.4204943,-33.5766378,149.7404943,-33.2566378],"border":[{"name":"Bathurst Regional Council","other_names":{"name:en":"Bathurst Regional Council","alt_name":"Bathurst Regional Council","short_name":"Bathurst"},"display_name":"Bathurst Regional Council, New South Wales, 2795, Australia","address":{"municipality":"Bathurst Regional Council","state":"New South Wales","ISO3166-2-lvl4":"AU-NSW","postcode":"2795","country":"Australia","country_code":"au"},"osm_type":"relation","osm_id":6330866,"type":"administrative","location":[149.6413196511403,-33.4747071],"bbox":[149.1172255,-33.9976261,149.9221834,-32.9486157]},{"name":"Bathurst","display_name":"Bathurst, Bathurst Regional Council, New South Wales, 2795, Australia","address":{"suburb":"Bathurst","municipality":"Bathurst Regional Council","state":"New South Wales","ISO3166-2-lvl4":"AU-NSW","postcode":"2795","country":"Australia","country_code":"au"},"osm_type":"relation","osm_id":6044558,"type":"administrative","location":[149.5774657,-33.419295],"bbox":[149.5617662,-33.4342571,149.5946534,-33.4036918]}]}
{"name":"Bendigo","other_names":{"name:en":"Bendigo","name:ja":"ベンディゴ","name:ru":"Бендиго","name:zh":"本迪戈"},"display_name":"Bendigo, City of Greater Bendigo, Victoria, 3550, Australia","address":{"city":"Bendigo","municipality":"City of Greater Bendigo","state":"Victoria","ISO3166-2-lvl4":"AU-VIC","postcode":"3550","country":"Australia","country_code":"au"},"population":100649,"osm_type":"node","osm_id":30917754,"type":"city","location":[144.2826718,-36.7590183],"bbox":[144.1226718,-36.9190183,144.4426718,-36.5990183],"border":{"name":"Bendigo","display_name":"Bendigo, City of Greater Bendigo, Victoria, 3550, Australia","address":{"city_district":"Bendigo","municipality":"City of Greater Bendigo","state":"Victoria","ISO3166-2-lvl4":"AU-VIC","postcode":"3550","country":"Australia","country_code":"au"},"population":5512,"osm_type":"relation","osm_id":3079195,"type":"administrative","location":[144.28084504434702,-36.75540025],"bbox":[144.262136,-36.770576,144.298167,-36.741784]}}
{"name":"Brisbane","other_names":{"name:ab":"Брисбен","name:am":"ብርዝበን","name:ar":"بريزبان","name:az":"Brisben","name:be":"Брысбэн","name:bg":"Брисбейн","name:bh":"ब्रिस्बेन","name:bn":"ব্রিসবেন","name:ce":"Брисбен","name:de":"Brisbane","name:el":"Μπρίσμπεϊν","name:en":"Brisbane","name:eo":"Brisbano","name:es":"Brisbane","name:fa":"بریزبن","name:fj":"Birisibeni","name:fr":"Brisbane","name:he":"בריסביין","name:hi":"ब्रिस्बेन","name:hy":"Բրիսբեն","name:is":"Brisbane","name:ja":"ブリスベン","name:ka":"ბრიზბენი","name:kk":"Брисбен","name:kn":"ಬ್ರಿಸ್ಬೇನ್","name:ko":"브리즈번","name:ky":"Брисбен","name:lt":"Brisbenas","name:lv":"Brisbena","name:mi":"Piripane","name:mk":"Бризбејн","name:ml":"ബ്രിസ്ബെയ്ൻ","name:mn":"Брисбэн","name:mr":"ब्रिसबेन","name:my":"ဘရစ်စဘိန်းမြို့","name:ne":"ब्रिसबेन","name:oc":"Brisbane","name:os":"Брисбен","name:pa":"ਬ੍ਰਿਜ਼ਬਨ","name:ps":"بریزبن","name:pt":"Brisbane","name:ru":"Брисбен","name:sa":"ब्रिस्बेन","name:sd":"برسبين","name:si":"බ්‍රිස්බන්","name:sm":"Perisipeni","name:sr":"Бризбејн","name:sv":"Brisbane","name:ta":"பிரிஸ்பேன்","name:tg":"Брисбен","name:th":"บริสเบน","name:to":"Pilisipeini","name:tt":"Брисбен","name:ug":"برىسبان","name:uk":"Брісбен","name:ur":"برسبین","name:uz":"Brisben","name:yi":"בריזבן","name:zh":"布里斯班","loc_name":"Brissie;Brissy","name:yxg":"Meanjin","name:pronunciation":"ˈbɹɪzbən"},"display_name":"Brisbane, City of Brisbane, Queensland, Australia","address":{"city":"Brisbane","municipality":"City of Brisbane","state":"Queensland","ISO3166-2-lvl4":"AU-QLD","country":"Australia","country_code":"au"},"population":2287896,"osm_type":"node","osm_id":1546628274,"type":"city","location":[153.0235009,-27.4689623],"bbox":[152.8635009,-27.6289623,153.1835009,-27.3089623],"border":{"name":"City of Brisbane","other_names":{"name:en":"City of Brisbane","short_name":"Brisbane","name:ab":"Брисбен","name:am":"ብርዝበን","name:ar":"بريزبان","name:az":"Brisben","name:be":"Брысбэн","name:bg":"Брисбейн","name:bh":"ब्रिस्बेन","name:bn":"ব্রিসবেন","name:ce":"Брисбен","name:de":"Brisbane","name:el":"Μπρίσμπεϊν","name:eo":"Brisbano","name:es":"Brisbane","name:fa":"بریزبن","name:fj":"Birisibeni","name:fr":"Brisbane","name:he":"בריסביין","name:hi":"ब्रिस्बेन","name:hy":"Բրիսբեն","name:is":"Brisbane","name:ja":"ブリスベン","name:ka":"ბრიზბენი","name:kk":"Брисбен","name:kn":"ಬ್ರಿಸ್ಬೇನ್","name:ko":"브리즈번","name:ky":"Брисбен","name:lt":"Brisbenas","name:lv":"Brisbena","name:mi":"Piripane","name:mk":"Бризбејн","name:ml":"ബ്രിസ്ബെയ്ൻ","name:mn":"Брисбэн","name:mr":"ब्रिसबेन","name:my":"ဘရစ်စဘိန်းမြို့","name:ne":"ब्रिसबेन","name:oc":"Brisbane","name:os":"Брисбен","name:pa":"ਬ੍ਰਿਜ਼ਬਨ","name:ps":"بریزبن","name:pt":"Brisbane","name:ru":"Брисбен","name:sa":"ब्रिस्बेन","name:sd":"برسبين","name:si":"බ්‍රිස්බන්","name:sm":"Perisipeni","name:sr":"Бризбејн","name:sv":"Brisbane","name:ta":"பிரிஸ்பேன்","name:tg":"Брисбен","name:th":"บริสเบน","name:to":"Pilisipeini","name:tt":"Брисбен","name:ug":"برىسبان","name:uk":"Брісбен","name:ur":"برسبین","name:uz":"Brisben","name:yi":"בריזבן","name:zh":"布里斯班","loc_name":"Brissie;Brissy","name:yxg":"Meanjin","name:pronunciation":"ˈbɹɪzbən","alt":"Brisbane","alt:en":"Brisbane"},"display_name":"City of Brisbane, Queensland, Australia","address":{"municipality":"City of Brisbane","state":"Queensland","ISO3166-2-lvl4":"AU-QLD","country":"Australia","country_code":"au"},"population":2287896,"osm_type":"relation","osm_id":11677792,"type":"administrative","location":[153.0235009,-27.4689623],"bbox":[152.679693,-27.660219,153.468275,-27.022014]}}
{"name":"Broken Hill","other_names":{"name:en":"Broken Hill","name:ja":"ブロークンヒル","name:ru":"Брокен-Хилл","name:uk":"Брокен-Гілл"},"display_name":"Broken Hill, Broken Hill City Council, New South Wales, Australia","address":{"city":"Broken Hill","county":"Broken Hill City Council","state":"New South Wales","ISO3166-2-lvl4":"AU-NSW","country":"Australia","country_code":"au"},"population":17456,"osm_type":"node","osm_id":113763535,"type":"city","location":[141.4511111,-31.965],"bbox":[141.2911111,-32.125,141.6111111,-31.805],"border":{"name":"Broken Hill","other_names":{"name:en":"Broken Hill","name:ja":"ブロークンヒル","name:ru":"Брокен-Хилл","name:uk":"Брокен-Гілл"},"display_name":"Broken Hill, Broken Hill City Council, New South Wales, 2880, Australia","address":{"city":"Broken Hill","county":"Broken Hill City Council","state":"New South Wales","ISO3166-2-lvl4":"AU-NSW","postcode":"2880","country":"Australia","country_code":"au"},"population":17456,"osm_type":"relation","osm_id":5731495,"type":"administrative","location":[141.4511111,-31.965],"bbox":[141.0010739,-33.11379,142.2529502,-31.591879]}}
{"name":"Broome","other_names":{"name:en":"Broome","name:ja":"ブルーム","name:ru":"Брум","name:uk":"Брум"},"display_name":"Broome, Shire Of Broome, Western Australia, 6726, Australia","address":{"city":"Broome","municipality":"Shire Of Broome","state":"Western Australia","ISO3166-2-lvl4":"AU-WA","postcode":"6726","country":"Australia","country_code":"au"},"population":14660,"osm_type":"node","osm_id":53919243,"type":"city","location":[122.2240181,-17.9566909],"bbox":[122.0640181,-18.1166909,122.3840181,-17.7966909],"border":[{"name":"Shire Of Broome","other_names":{"name:en":"Shire Of Broome","short_name":"Broome"},"display_name":"Shire Of Broome, Western Australia, Australia","address":{"municipality":"Shire Of Broome","state":"Western Australia","ISO3166-2-lvl4":"AU-WA","country":"Australia","country_code":"au"},"osm_type":"relation","osm_id":11690277,"type":"administrative","location":[122.62870415051847,-18.114939149999998],"bbox":[118.8314249,-20.0702285,123.566303,-13.989991]},{"name":"Broome","display_name":"Broome, Shire Of Broome, Western Australia, 6725, Australia","address":{"city_district":"Broome","municipality":"Shire Of Broome","state":"Western Australia","ISO3166-2-lvl4":"AU-WA","postcode":"6725","country":"Australia","country_code":"au"},"osm_type":"relation","osm_id":11690252,"type":"administrative","location":[122.2350404765642,-17.960005000000002],"bbox":[122.215952,-17.977735,122.2531549,-17.943641]}]}
{"name":"Bunbury","other_names":{"name:en":"Bunbury","name:ja":"バンバリー","name:ru":"Банбери","name:nys":"Goomburrup"},"display_name":"Bunbury, City Of Bunbury, Western Australia, 6230, Australia","address":{"city":"Bunbury","municipality":"City Of Bunbury","state":"Western Australia","ISO3166-2-lvl4":"AU-WA","postcode":"6230","country":"Australia","country_code":"au"},"population":75196,"osm_type":"node","osm_id":32566859,"type":"city","location":[115.636698,-33.3267797],"bbox":[115.476698,-33.4867797,115.796698,-33.1667797],"border":[{"name":"City Of Bunbury","other_names":{"name:en":"City Of Bunbury","short_name":"Bunbury"},"display_name":"City Of Bunbury, Western Australia, Australia","address":{"municipality":"City Of Bunbury","state":"Western Australia","ISO3166-2-lvl4":"AU-WA","country":"Australia","country_code":"au"},"osm_type":"relation","osm_id":11688799,"type":"administrative","location":[115.66628882475946,-33.3547995],"bbox":[115.609202,-33.408529,115.714558,-33.300376]},{"name":"Bunbury","display_name":"Bunbury, City Of Bunbury, Western Australia, 6230, Australia","address":{"city_district":"Bunbury","municipality":"City Of Bunbury","state":"Western Australia","ISO3166-2-lvl4":"AU-WA","postcode":"6230","country":"Australia","country_code":"au"},"osm_type":"relation","osm_id":11688805,"type":"administrative","location":[115.63594463913667,-33.318914],"bbox":[115.625198,-33.337377,115.659218,-33.300376]}]}
{"name":"Bundaberg","other_names":{"name:ar":"بوندابيرج","name:en":"Bundaberg","name:ja":"バンダバーグ","name:ru":"Бундаберг","name:uk":"Бундаберг","name:zh":"班达伯格"},"display_name":"Bundaberg, Bundaberg Region, Queensland, 4670, Australia","address":{"city":"Bundaberg","county":"Bundaberg Region","state":"Queensland","ISO3166-2-lvl4":"AU-QLD","postcode":"4670","country":"Australia","country_code":"au"},"population":52370,"osm_type":"node","osm_id":245122449,"type":"city","location":[152.3516785,-24.8653253],"bbox":[152.1916785,-25.0253253,152.5116785,-24.7053253],"border":{"name":"Bundaberg Central","other_names":{"name:en":"Bundaberg Central","short_name":"Bundaberg"},"display_name":"Bundaberg Central, Bundaberg Region, Queensland, 4670, Australia","address":{"suburb":"Bundaberg Central","county":"Bundaberg Region","state":"Queensland","ISO3166-2-lvl4":"AU-QLD","postcode":"4670","country":"Australia","country_code":"au"},"population":162,"osm_type":"relation","osm_id":5128599,"type":"administrative","location":[152.35112,-24.8677788],"bbox":[152.344106,-24.874068,152.359636,-24.861288]}}
{"name":"Burnie","other_names":{"name:bn":"বার্নি","name:en":"Burnie","name:ja":"バーニー","name:ru":"Берни","name:uk":"Берні"},"display_name":"Burnie, City of Burnie, Tasmania, Australia","address":{"city":"Burnie","municipality":"City of Burnie","state":"Tasmania","ISO3166-2-lvl4":"AU-TAS","country":"Australia","country_code":"au"},"population":20267,"osm_type":"node","osm_id":32748684,"type":"city","location":[145.9064073,-41.0523688],"bbox":[145.7464073,-41.2123688,146.0664073,-40.8923688],"border":[{"name":"City of Burnie","other_names":{"name:en":"City of Burnie","alt_name":"Burnie City Council","alt_name:1":"Burnie Local Government Area","short_name":"Burnie"},"display_name":"City of Burnie, Tasmania, 7320, Australia","address":{"municipality":"City of Burnie","state":"Tasmania","ISO3166-2-lvl4":"AU-TAS","postcode":"7320","country":"Australia","country_code":"au"},"osm_type":"relation","osm_id":10590496,"type":"administrative","location":[145.81299478924734,-41.195902000000004],"bbox":[145.637569,-41.356339,145.987117,-41.035513]},{"name":"Burnie","other_names":{"name:en":"Burnie","name:ja":"バーニー","name:ru":"Берни","name:uk":"Берні","alt_name":"Greater Burnie","name:bn":"বার্নি"},"display_name":"Burnie, City of Burnie, Tasmania, 7320, Australia","address":{"city":"Burnie","municipality":"City of Burnie","state":"Tasmania","ISO3166-2-lvl4":"AU-TAS","postcode":"7320","country":"Australia","country_code":"au"},"population":20267,"osm_type":"relation","osm_id":10632587,"type":"administrative","location":[145.9064073,-41.0523688],"bbox":[145.82192,-41.115018,145.987117,-41.035513]},{"name":"Burnie","other_names":{"name:en":"Burnie","name:ja":"バーニー","name:ru":"Берни","name:uk":"Берні"},"display_name":"Burnie, City of Burnie, Tasmania, 7320, Australia","address":{"suburb":"Burnie","city":"Burnie","municipality":"City of Burnie","state":"Tasmania","ISO3166-2-lvl4":"AU-TAS","postcode":"7320","country":"Australia","country_code":"au"},"osm_type":"relation","osm_id":10590508,"type":"administrative","location":[145.90457019559386,-41.054117500000004],"bbox":[145.897489,-41.061358,145.921412,-41.046853]}]}
{"name":"Caboolture","other_names":{"name:ja":"カブルチャー","name:ru":"Кабулчер","name:zh":"卡布丘"},"display_name":"Caboolture, Greater Brisbane, City of Moreton Bay, Queensland, Australia","address":{"city":"Caboolture","district":"Greater Brisbane","municipality":"City of Moreton Bay","state":"Queensland","ISO3166-2-lvl4":"AU-QLD","country":"Australia","country_code":"au"},"osm_type":"node","osm_id":2506724881,"type":"city","location":[152.9510863,-27.0839336],"bbox":[152.7910863,-27.2439336,153.1110863,-26.9239336],"border":{"name":"Caboolture","other_names":{"name:en":"Caboolture","name:ja":"カブルチャー","name:ru":"Кабулчер","name:zh":"卡布丘"},"display_name":"Caboolture, Greater Brisbane, City of Moreton Bay, Queensland, 4510, Australia","address":{"city":"Caboolture","district":"Greater Brisbane","municipality":"City of Moreton Bay","state":"Queensland","ISO3166-2-lvl4":"AU-QLD","postcode":"4510","country":"Australia","country_code":"au"},"population":29534,"osm_type":"relation","osm_id":11677915,"type":"administrative","location":[152.9510863,-27.0839336],"bbox":[152.897501,-27.105947,153.039794,-27.0250118]}}
{"name":"Cairns","other_names":{"name:bn":"কেয়ার্নস","name:en":"Cairns","name:ja":"ケアンズ","name:ru":"Кэрнс","name:uk":"Кернс","name:zh":"凯恩斯"},"display_name":"Cairns, Cairns Regional, Queensland, 4870, Australia","address":{"city":"Cairns","municipality":"Cairns Regional","state":"Queensland","ISO3166-2-lvl4":"AU-QLD","postcode":"4870","country":"Australia","country_code":"au"},"population":153181,"osm_type":"node","osm_id":29405229,"type":"city","location":[145.7721854,-16.9206657],"bbox":[145.6121854,-17.0806657,145.9321854,-16.7606657],"border":{"name":"Cairns Regional","other_names":{"name:en":"Cairns Regional","short_name":"Cairns"},"display_name":"Cairns Regional, Queensland, Australia","address":{"municipality":"Cairns Regional","state":"Queensland","ISO3166-2-lvl4":"AU-QLD","country":"Australia","country_code":"au"},"osm_type":"relation","osm_id":11677109,"type":"administrative","location":[145.7650465401662,-17.1022281],"bbox":[145.614588,-17.506082,146.3106041,-16.698468]}}
{"name":"Canberra","other_names":{"name:ab":"Канберра","name:am":"ካንበራ","name:ar":"كانبرا","name:az":"Kanberra","name:ba":"Канберра","name:be":"Канбера","name:bg":"Канбера","name:bh":"कैनबरा","name:bn":"ক্যানবেরা","name:bo":"ཁན་པེ་ར།","name:ca":"Canberra","name:ce":"Канберра","name:cu":"Канбєра","name:cv":"Канберра","name:de":"Canberra","name:el":"Καμπέρα","name:en":"Canberra","name:eo":"Kanbero","name:es":"Canberra","name:fa":"کانبرا","name:fj":"Kabera","name:fr":"Canberra","name:fy":"Kanberra","name:gl":"Camberra","name:gn":"Kambérra","name:ha":"Kanberra","name:he":"קנברה","name:hi":"कैनबरा","name:ht":"Kanbera","name:hu":"Canberra","name:hy":"Կանբեռա","name:is":"Canberra","name:ja":"キャンベラ","name:ka":"კანბერა","name:kk":"Канберра","name:kn":"ಕ್ಯಾನ್ಬೆರ","name:ko":"캔버라","name:ks":"کینبرا","name:ku":"Kanberra","name:ky":"Канберра","name:la":"Camberra","name:lt":"Kanbera","name:lv":"Kanbera","name:mi":"Kānapera","name:mk":"Канбера","name:ml":"കാൻബറ","name:mn":"Канберра","name:mr":"कॅनबेरा","name:my":"ကင်ဘာရာမြို့","name:ne":"क्यानबरा","name:oc":"Canberra","name:os":"Канберрæ","name:pa":"ਕੈਨਬਰਾ","name:pl":"Canberra","name:ps":"کانبیرا","name:pt":"Camberra","name:ru":"Канберра","name:sa":"कैन्बेर्रा","name:sd":"ڪينبرا","name:si":"කැන්බරා","name:sm":"Kenepera","name:so":"Kanbera","name:sq":"Kanberra","name:sr":"Канбера","name:sv":"Canberra","name:ta":"கான்பரா","name:tg":"Канберра","name:th":"แคนเบอร์รา","name:to":"Kanipela","name:tt":"Канберра","name:tw":"Kanberra","name:ty":"Kanapera","name:ug":"Kanbérra","name:uk":"Канберра","name:ur":"کینبرا","name:uz":"Kanberra","name:yi":"קאנבערא","name:zh":"堪培拉","name:ckb":"کانبێرا","name:mhr":"Канберра","name:nah":"Camberra","name:pnb":"کینبرا","name:sah":"Канберра","name:tet":"Kamberra","name:tpi":"Kambra","name:vep":"Kanberr","name:wuu":"坎培拉","name:xmf":"ქანბერა","name:yue":"坎培拉","name:bat-smg":"Kanbera","name:be-tarask":"Канбэра","name:ru:word_stress":"Канбе́рра"},"display_name":"Canberra, District of Canberra Central, Australian Capital Territory, 2600, Australia","address":{"city":"Canberra","district":"District of Canberra Central","territory":"Australian Capital Territory","ISO3166-2-lvl4":"AU-ACT","postcode":"2600","country":"Australia","country_code":"au"},"population":466566,"osm_type":"node","osm_id":21674637,"type":"city","location":[149.1012676,-35.2975906],"bbox":[148.9412676,-35.4575906,149.2612676,-35.1375906]}
{"name":"Carnarvon","display_name":"Carnarvon, Shire Of Carnarvon, Western Australia, Australia","address":{"city":"Carnarvon","municipality":"Shire Of Carnarvon","state":"Western Australia","ISO3166-2-lvl4":"AU-WA","country":"Australia","country_code":"au"},"population":4162,"osm_type":"node","osm_id":75377868,"type":"city","location":[113.6570703,-24.883847],"bbox":[113.4970703,-25.043847,113.8170703,-24.723847],"border":[{"name":"Shire Of Carnarvon","other_names":{"name:en":"Shire Of Carnarvon","short_name":"Carnarvon"},"display_name":"Shire Of Carnarvon, Western Australia, 6701, Australia","address":{"municipality":"Shire Of Carnarvon","state":"Western Australia","ISO3166-2-lvl4":"AU-WA","postcode":"6701","country":"Australia","country_code":"au"},"osm_type":"relation","osm_id":11689991,"type":"administrative","location":[114.17114969316594,-24.46627685],"bbox":[112.9723335,-26.1436926,115.604836,-22.790771]},{"name":"Carnarvon","display_name":"Carnarvon, Shire Of Carnarvon, Western Australia, 6701, Australia","address":{"city":"Carnarvon","municipality":"Shire Of Carnarvon","state":"Western Australia","ISO3166-2-lvl4":"AU-WA","postcode":"6701","country":"Australia","country_code":"au"},"population":4162,"osm_type":"relation","osm_id":11689979,"type":"administrative","location":[113.6570703,-24.883847],"bbox":[113.653388,-24.895803,113.684689,-24.867621]}]}
{"name":"Cessnock","other_names":{"name:en":"Cessnock","name:ja":"セスノック"},"display_name":"Cessnock, Cessnock City Council, New South Wales, Australia","address":{"city":"Cessnock","municipality":"Cessnock City Council","state":"New South Wales","ISO3166-2-lvl4":"AU-NSW","country":"Australia","country_code":"au"},"population":23211,"osm_type":"node","osm_id":114176225,"type":"city","location":[151.3511111,-32.8316667],"bbox":[151.1911111,-32.9916667,151.5111111,-32.6716667],"border":[{"name":"Cessnock City Council","other_names":{"name:en":"Cessnock City Council","alt_name":"Cessnock City Council","short_name":"Cessnock"},"display_name":"Cessnock City Council, New South Wales, Australia","address":{"municipality":"Cessnock City Council","state":"New South Wales","ISO3166-2-lvl4":"AU-NSW","country":"Australia","country_code":"au"},"osm_type":"relation","osm_id":6191219,"type":"administrative","location":[151.30146393830057,-32.89403765],"bbox":[150.8012897,-33.1390453,151.62356,-32.6488786]},{"name":"Cessnock","display_name":"Cessnock, Cessnock City Council, New South Wales, 2325, Australia","address":{"locality":"Cessnock","municipality":"Cessnock City Council","state":"New South Wales","ISO3166-2-lvl4":"AU-NSW","postcode":"2325","country":"Australia","country_code":"au"},"osm_type":"relation","osm_id":6058958,"type":"administrative","location":[151.3561111,-32.8333333],"bbox":[151.319831,-32.8704308,151.4143563,-32.7965251]}]}
{"name":"Coffs Harbour","other_names":{"name:en":"Coffs Harbour","name:ja":"コフスハーバー","name:ru":"Кофс-Харбор"},"display_name":"Coffs Harbour, Coffs Harbour City Council, New South Wales, 2450, Australia","address":{"city":"Coffs Harbour","municipality":"Coffs Harbour City Council","state":"New South Wales","ISO3166-2-lvl4":"AU-NSW","postcode":"2450","country":"Australia","country_code":"au"},"population":51069,"osm_type":"node","osm_id":25976250,"type":"city","location":[153.1135293,-30.2962407],"bbox":[152.9535293,-30.4562407,153.2735293,-30.1362407],"border":[{"name":"Coffs Harbour City Council","other_names":{"name:en":"Coffs Harbour City Council","alt_name":"Coffs Harbour City Council","short_name":"Coffs Harbour"},"display_name":"Coffs Harbour City Council, New South Wales, Australia","address":{"municipality":"Coffs Harbour City Council","state":"New South Wales","ISO3166-2-lvl4":"AU-NSW","country":"Australia","country_code":"au"},"osm_type":"relation","osm_id":6165983,"type":"administrative","location":[152.99858758210212,-30.173279700000002],"bbox":[152.7957868,-30.4491449,153.2618418,-29.8974529]},{"name":"Coffs Harbour","display_name":"Coffs Harbour, Coffs Harbour City Council, New South Wales, 2450, Australia","address":{"suburb":"Coffs Harbour","municipality":"Coffs Harbour City Council","state":"New South Wales","ISO3166-2-lvl4":"AU-NSW","postcode":"2450","country":"Australia","country_code":"au"},"osm_type":"relation","osm_id":6063464,"type":"administrative","location":[153.1094116,-30.2985996],"bbox":[153.0598598,-30.3551694,153.154835,-30.2616193]}]}
{"name":"Darwin","other_names":{"name:ar":"داروين","name:bn":"ডারউইন","name:en":"Darwin","name:eo":"Darvino","name:es":"Darwin","name:ja":"ダーウィン","name:kn":"ಡಾರ್ವಿನ್","name:mk":"Дарвин","name:mr":"डार्विन","name:ru":"Дарвин","name:uk":"Дарвін","name:zh":"达尔文市"},"display_name":"Darwin, City of Darwin, Northern Territory, 0800, Australia","address":{"city":"Darwin","county":"City of Darwin","territory":"Northern Territory","ISO3166-2-lvl4":"AU-NT","postcode":"0800","country":"Australia","country_code":"au"},"population":122207,"osm_type":"node","osm_id":1639099539,"type":"city","location":[130.8410469,-12.46044],"bbox":[130.6810469,-12.62044,131.0010469,-12.30044]}
{"name":"Devonport","other_names":{"name:bn":"ডেভনপোর্ট","name:en":"Devonport","name:ja":"デボンポート","name:ru":"Девонпорт","name:uk":"Девонпорт"},"display_name":"Devonport, City of Devonport, Tasmania, Australia","address":{"city":"Devonport","municipality":"City of Devonport","state":"Tasmania","ISO3166-2-lvl4":"AU-TAS","country":"Australia","country_code":"au"},"population":24591,"osm_type":"node","osm_id":27120185,"type":"city","location":[146.3613011,-41.1797561],"bbox":[146.2013011,-41.3397561,146.5213011,-41.0197561],"border":[{"name":"City of Devonport","other_names":{"name:en":"City of Devonport","alt_name":"Devonport City Council","alt_name:1":"Devonport Local Government Area","short_name":"Devonport"},"display_name":"City of Devonport, Tasmania, 7310, Australia","address":{"municipality":"City of Devonport","state":"Tasmania","ISO3166-2-lvl4":"AU-TAS","postcode":"7310","country":"Australia","country_code":"au"},"osm_type":"relation","osm_id":10586315,"type":"administrative","location":[146.31058091091174,-41.2123035],"bbox":[146.24135,-41.271859,146.406851,-41.152717]},{"name":"Devonport","other_names":{"name:en":"Devonport","name:ja":"デボンポート","name:ru":"Девонпорт","name:uk":"Девонпорт","alt_name":"Greater Devonport","name:bn":"ডেভনপোর্ট"},"display_name":"Devonport, City of Devonport, Tasmania, 7310, Australia","address":{"city":"Devonport","municipality":"City of Devonport","state":"Tasmania","ISO3166-2-lvl4":"AU-TAS","postcode":"7310","country":"Australia","country_code":"au"},"population":24591,"osm_type":"relation","osm_id":10632642,"type":"administrative","location":[146.3613011,-41.1797561],"bbox":[146.277017,-41.271051,146.417941,-41.15377]},{"name":"Devonport","other_names":{"name:en":"Devonport","name:ja":"デボンポート","name:ru":"Девонпорт","name:uk":"Девонпорт"},"display_name":"Devonport, City of Devonport, Tasmania, 7310, Australia","address":{"suburb":"Devonport","city":"Devonport","municipality":"City of Devonport","state":"Tasmania","ISO3166-2-lvl4":"AU-TAS","postcode":"7310","country":"Australia","country_code":"au"},"osm_type":"relation","osm_id":10586314,"type":"administrative","location":[146.34307878259744,-41.175454099999996],"bbox":[146.321938,-41.1928149,146.3674253,-41.158043]}]}
{"name":"Dubbo","other_names":{"name:bn":"ডাব্বো","name:en":"Dubbo","name:ja":"ダボ","name:ru":"Даббо","name:uk":"Даббо"},"display_name":"Dubbo, Dubbo Regional Council, New South Wales, Australia","address":{"city":"Dubbo","municipality":"Dubbo Regional Council","state":"New South Wales","ISO3166-2-lvl4":"AU-NSW","country":"Australia","country_code":"au"},"population":38783,"osm_type":"node","osm_id":114370819,"type":"city","location":[148.6026502,-32.2478964],"bbox":[148.4426502,-32.4078964,148.7626502,-32.0878964],"border":{"name":"Dubbo","other_names":{"name:en":"Dubbo","name:bn":"ডাব্বো","name:ja":"ダボ","name:ru":"Даббо","name:uk":"Даббо"},"display_name":"Dubbo, Dubbo Regional Council, New South Wales, 2830, Australia","address":{"city":"Dubbo","municipality":"Dubbo Regional Council","state":"New South Wales","ISO3166-2-lvl4":"AU-NSW","postcode":"2830","country":"Australia","country_code":"au"},"population":38808,"osm_type":"relation","osm_id":5807047,"type":"administrative","location":[148.6026502,-32.2478964],"bbox":[148.3597904,-32.4973472,148.848862,-32.0655193]}}
{"name":"Esperance","other_names":{"name:en":"Esperance","name:ja":"エスペランス","name:ru":"Эсперанс","name:uk":"Есперанс"},"display_name":"Esperance, Shire Of Esperance, Western Australia, Australia","address":{"city":"Esperance","municipality":"Shire Of Esperance","state":"Western Australia","ISO3166-2-lvl4":"AU-WA","country":"Australia","country_code":"au"},"population":10218,"osm_type":"node","osm_id":1918583620,"type":"city","location":[121.8931606,-33.858228],"bbox":[121.7331606,-34.018228,122.0531606,-33.698228],"border":[{"name":"Shire Of Esperance","other_names":{"name:en":"Shire Of Esperance","short_name":"Esperance"},"display_name":"Shire Of Esperance, Western Australia, Australia","address":{"municipality":"Shire Of Esperance","state":"Western Australia","ISO3166-2-lvl4":"AU-WA","country":"Australia","country_code":"au"},"osm_type":"relation","osm_id":11689020,"type":"administrative","location":[122.40543766433427,-33.440355350000004],"bbox":[120.082455,-34.5241758,124.254703,-32.568967]},{"name":"Esperance","display_name":"Esperance, Shire Of Esperance, Western Australia, 6450, Australia","address":{"city_district":"Esperance","municipality":"Shire Of Esperance","state":"Western Australia","ISO3166-2-lvl4":"AU-WA","postcode":"6450","country":"Australia","country_code":"au"},"osm_type":"relation","osm_id":11689016,"type":"administrative","location":[121.88851585854931,-33.861166499999996],"bbox":[121.882077,-33.869865,121.902067,-33.852575]}]}
{"name":"Gawler","other_names":{"name:ja":"ゴーラー"},"display_name":"Gawler, Adelaide, Town of Gawler, South Australia, Australia","address":{"city":"Gawler","municipality":"Town of Gawler","state":"South Australia","ISO3166-2-lvl4":"AU-SA","country":"Australia","country_code":"au"},"population":28562,"osm_type":"node","osm_id":180957547,"type":"city","location":[138.7448933,-34.5973311],"bbox":[138.5848933,-34.7573311,138.9048933,-34.4373311],"border":[{"name":"Town of Gawler","other_names":{"name:en":"Town of Gawler","short_name":"Gawler"},"display_name":"Town of Gawler, South Australia, Australia","address":{"municipality":"Town of Gawler","state":"South Australia","ISO3166-2-lvl4":"AU-SA","country":"Australia","country_code":"au"},"osm_type":"relation","osm_id":9106057,"type":"administrative","location":[138.7203940141601,-34.62101525],"bbox":[138.6800879,-34.6704686,138.7846097,-34.572242]},{"name":"Gawler","other_names":{"name:en":"Gawler","name:ja":"ゴーラー"},"display_name":"Gawler, Adelaide, Town of Gawler, South Australia, 5118, Australia","address":{"city":"Gawler","municipality":"Town of Gawler","state":"South Australia","ISO3166-2-lvl4":"AU-SA","postcode":"5118","country":"Australia","country_code":"au"},"population":28562,"osm_type":"relation","osm_id":6675274,"type":"administrative","location":[138.7448933,-34.5973311],"bbox":[138.7368689,-34.6067523,138.7506818,-34.5904082]}]}
{"name":"Geelong","other_names":{"name:en":"Geelong","name:ja":"ジーロング","name:ru":"Джилонг","name:uk":"Джелонг","name:zh":"吉朗","name:pronunciation":"dʒɪˈlɒŋ"},"display_name":"Geelong, City of Greater Geelong, Victoria, 3220, Australia","address":{"city":"Geelong","municipality":"City of Greater Geelong","state":"Victoria","ISO3166-2-lvl4":"AU-VIC","postcode":"3220","country":"Australia","country_code":"au"},"population":180239,"osm_type":"node","osm_id":36701460,"type":"city","location":[144.3598241,-38.1493248],"bbox":[144.1998241,-38.3093248,144.5198241,-37.9893248],"border":{"name":"Geelong","other_names":{"name:en":"Geelong","alt_name":"Geelong CBD","name:ru":"Джилонг"},"display_name":"Geelong, City of Greater Geelong, Victoria, 3220, Australia","address":{"municipality":"Geelong","state":"Victoria","ISO3166-2-lvl4":"AU-VIC","postcode":"3220","country":"Australia","country_code":"au"},"osm_type":"relation","osm_id":2456176,"type":"administrative","location":[144.3597911,-38.1493167],"bbox":[144.350888,-38.164011,144.374881,-38.132269]}}
{"name":"Geraldton","other_names":{"name:en":"Geraldton","name:ja":"ジェラルトン","name:ru":"Джералдтон","name:uk":"Джеральдтон"},"display_name":"Geraldton, City Of Greater Geraldton, Western Australia, 6530, Australia","address":{"city":"Geraldton","municipality":"City Of Greater Geraldton","state":"Western Australia","ISO3166-2-lvl4":"AU-WA","postcode":"6530","country":"Australia","country_code":"au"},"population":32717,"osm_type":"node","osm_id":35469724,"type":"city","location":[114.6147159,-28.77035],"bbox":[114.4547159,-28.93035,114.7747159,-28.61035],"border":{"name":"Geraldton","display_name":"Geraldton, City Of Greater Geraldton, Western Australia, 6530, Australia","address":{"city_district":"Geraldton","municipality":"City Of Greater Geraldton","state":"Western Australia","ISO3166-2-lvl4":"AU-WA","postcode":"6530","country":"Australia","country_code":"au"},"osm_type":"relation","osm_id":11689881,"type":"administrative","location":[114.61433900116737,-28.775663],"bbox":[114.59626,-28.788633,114.626143,-28.762781]}}
{"name":"Gladstone","other_names":{"name:en":"Gladstone","name:ja":"グラッドストン","name:ru":"Гладстон","name:uk":"Гладстон","name:zh":"格莱斯顿"},"display_name":"Gladstone, Gladstone Regional, Queensland, Australia","address":{"city":"Gladstone","municipality":"Gladstone Regional","state":"Queensland","ISO3166-2-lvl4":"AU-QLD","country":"Australia","country_code":"au"},"population":34703,"osm_type":"node","osm_id":247807315,"type":"city","location":[151.256132,-23.8431724],"bbox":[151.096132,-24.0031724,151.416132,-23.6831724],"border":{"name":"Gladstone Regional","other_names":{"name:en":"Gladstone Regional","short_name":"Gladstone"},"display_name":"Gladstone Regional, Queensland, Australia","address":{"municipality":"Gladstone Regional","state":"Queensland","ISO3166-2-lvl4":"AU-QLD","country":"Australia","country_code":"au"},"osm_type":"relation","osm_id":11676351,"type":"administrative","location":[151.28215919115792,-24.0185575],"bbox":[150.598015,-24.792059,152.7783129,-23.1668096]}}
{"name":"Gold Coast","other_names":{"name:af":"Goudkus","name:ar":"غولد كوست","name:be":"Голд-Кост","name:bg":"Гоулд Коуст","name:bh":"गोल्ड कोस्ट","name:bn":"গোল্ড কোস্ট","name:cy":"Gold Coast","name:da":"Gold Coast","name:de":"Gold Coast","name:en":"Gold Coast","name:eo":"Ora Marbordo","name:es":"Gold Coast","name:fa":"گلد کوست","name:fj":"Tai Koula","name:fy":"Gold Coast","name:gd":"Oirthir Òir","name:he":"גולד קוסט","name:hi":"गोल्ड कोस्ट","name:hy":"Գոլդ Քոստ","name:id":"Gold Coast","name:is":"Gullströnd","name:ja":"ゴールドコースト","name:ka":"გოლდ-კოსტი","name:kk":"Голд-Кост","name:ko":"골드코스트","name:lt":"Gold Kostas","name:lv":"Goldkosta","name:mi":"Te Tai Koura","name:mk":"Голд Коуст","name:mn":"Голд-Кост","name:mr":"गोल्ड कोस्ट","name:ms":"Gold Coast","name:my":"ဂိုးလ်ကို့စ်မြို့","name:nn":"Gold Coast","name:os":"Голд-Кост","name:pt":"Gold Coast","name:ru":"Голд-Кост","name:sk":"Gold Coast","name:sr":"Гоулд Коуст","name:sv":"Gold Coast","name:ta":"கோல்ட் கோஸ்ட்","name:th":"โกลด์โคสต์","name:to":"Matafanga Koula","name:tt":"Голд-Коуст","name:uk":"Голд-Кост","name:ur":"گولڈ کوسٹ، کوئنزلینڈ","name:vi":"Gold Coast","name:zh":"黄金海岸"},"display_name":"Gold Coast, Gold Coast City, Queensland, Australia","address":{"city":"Gold Coast","state":"Queensland","ISO3166-2-lvl4":"AU-QLD","country":"Australia","country_code":"au"},"population":607665,"osm_type":"node","osm_id":145620822,"type":"city","location":[153.4145987,-28.0023731],"bbox":[153.2545987,-28.1623731,153.5745987,-27.8423731],"border":{"name":"Gold Coast City","other_names":{"name:en":"Gold Coast City","short_name":"Gold Coast","name:af":"Goudkus","name:ar":"غولد كوست","name:be":"Голд-Кост","name:bg":"Гоулд Коуст","name:bh":"गोल्ड कोस्ट","name:bn":"গোল্ড কোস্ট","name:cy":"Gold Coast","name:da":"Gold Coast","name:de":"Gold Coast","name:eo":"Ora Marbordo","name:es":"Gold Coast","name:fa":"گلد کوست","name:fj":"Tai Koula","name:fy":"Gold Coast","name:gd":"Oirthir Òir","name:he":"גולד קוסט","name:hi":"गोल्ड कोस्ट","name:hy":"Գոլդ Քոստ","name:id":"Gold Coast","name:is":"Gullströnd","name:ja":"ゴールドコースト","name:ka":"გოლდ-კოსტი","name:kk":"Голд-Кост","name:ko":"골드코스트","name:lt":"Gold Kostas","name:lv":"Goldkosta","name:mi":"Te Tai Koura","name:mk":"Голд Коуст","name:mn":"Голд-Кост","name:mr":"गोल्ड कोस्ट","name:ms":"Gold Coast","name:my":"ဂိုးလ်ကို့စ်မြို့","name:nn":"Gold Coast","name:os":"Голд-Кост","name:pt":"Gold Coast","name:ru":"Голд-Кост","name:sk":"Gold Coast","name:sr":"Гоулд Коуст","name:sv":"Gold Coast","name:ta":"கோல்ட் கோஸ்ட்","name:th":"โกลด์โคสต์","name:to":"Matafanga Koula","name:tt":"Голд-Коуст","name:uk":"Голд-Кост","name:ur":"گولڈ کوسٹ، کوئنزلینڈ","name:vi":"Gold Coast","name:zh":"黄金海岸","alt":"Gold Coast","alt:en":"Gold Coast"},"display_name":"Gold Coast City, Queensland, Australia","address":{"city":"Gold Coast City","state":"Queensland","ISO3166-2-lvl4":"AU-QLD","country":"Australia","country_code":"au"},"population":607665,"osm_type":"relation","osm_id":11675459,"type":"administrative","location":[153.4145987,-28.0023731],"bbox":[153.16891,-28.26511,153.5519459,-27.690395]}}
{"name":"Gosford","other_names":{"name:en":"Gosford","name:ja":"ゴスフォード","name:ru":"Госфорд"},"display_name":"Gosford, Central Coast Council, New South Wales, 2250, Australia","address":{"city":"Gosford","municipality":"Central Coast Council","state":"New South Wales","ISO3166-2-lvl4":"AU-NSW","postcode":"2250","country":"Australia","country_code":"au"},"population":325255,"osm_type":"node","osm_id":116961349,"type":"city","location":[151.3417318,-33.4250175],"bbox":[151.1817318,-33.5850175,151.5017318,-33.2650175],"border":{"name":"Gosford","display_name":"Gosford, Central Coast Council, New South Wales, 2250, Australia","address":{"suburb":"Gosford","municipality":"Central Coast Council","state":"New South Wales","ISO3166-2-lvl4":"AU-NSW","postcode":"2250","country":"Australia","country_code":"au"},"osm_type":"relation","osm_id":6039385,"type":"administrative","location":[151.3411475,-33.4240979],"bbox":[151.3294448,-33.4393731,151.3517875,-33.4084529]}}
{"name":"Grafton","other_names":{"name:en":"Grafton","name:ja":"グラフトン","name:ru":"Графтон","name:uk":"Графтон"},"display_name":"Grafton, Clarence Valley Council, New South Wales, Australia","address":{"city":"Grafton","municipality":"Clarence Valley Council","state":"New South Wales","ISO3166-2-lvl4":"AU-NSW","country":"Australia","country_code":"au"},"population":17155,"osm_type":"node","osm_id":3834031650,"type":"city","location":[152.9333435,-29.69125],"bbox":[152.7733435,-29.85125,153.0933435,-29.53125],"border":{"name":"Grafton","display_name":"Grafton, Clarence Valley Council, New South Wales, 2460, Australia","address":{"suburb":"Grafton","municipality":"Clarence Valley Council","state":"New South Wales","ISO3166-2-lvl4":"AU-NSW","postcode":"2460","country":"Australia","country_code":"au"},"osm_type":"relation","osm_id":6069900,"type":"administrative","location":[152.9336357,-29.6816773],"bbox":[152.9028273,-29.6982108,152.9567149,-29.663754]}}
{"name":"Griffith","other_names":{"name:en":"Griffith","name:ja":"グリフィス","name:ru":"Гриффит","name:uk":"Гріффіт"},"display_name":"Griffith, Griffith City Council, New South Wales, Australia","address":{"city":"Griffith","state":"New South Wales","ISO3166-2-lvl4":"AU-NSW","country":"Australia","country_code":"au"},"population":20799,"osm_type":"node","osm_id":1831538106,"type":"city","location":[146.0551022,-34.2870772],"bbox":[145.8951022,-34.4470772,146.2151022,-34.1270772],"border":[{"name":"Griffith City Council","other_names":{"name:en":"Griffith City Council","alt_name":"Griffith City Council","short_name":"Griffith","name:ja":"グリフィス","name:ru":"Гриффит","name:uk":"Гріффіт","alt":"Griffith","alt:en":"Griffith"},"display_name":"Griffith City Council, New South Wales, Australia","address":{"city":"Griffith City Council","state":"New South Wales","ISO3166-2-lvl4":"AU-NSW","country":"Australia","country_code":"au"},"population":20799,"osm_type":"relation","osm_id":6149251,"type":"administrative","location":[146.0551022,-34.2870772],"bbox":[145.734755,-34.569949,146.311365,-34.0991411]},{"name":"Griffith","other_names":{"name:en":"Griffith","name:ja":"グリフィス","name:ru":"Гриффит","name:uk":"Гріффіт"},"display_name":"Griffith, Griffith City Council, New South Wales, 2680, Australia","address":{"city":"Griffith","state":"New South Wales","ISO3166-2-lvl4":"AU-NSW","postcode":"2680","country":"Australia","country_code":"au"},"population":20799,"osm_type":"relation","osm_id":5823815,"type":"administrative","location":[146.0551022,-34.2870772],"bbox":[145.9918644,-34.3176155,146.0944314,-34.2331683]}]}
{"name":"Gympie","other_names":{"name:ja":"ギンピー","name:ru":"Гимпи","name:zh":"金皮"},"display_name":"Gympie, Gympie Regional, Queensland, Australia","address":{"city":"Gympie","municipality":"Gympie Regional","state":"Queensland","ISO3166-2-lvl4":"AU-QLD","country":"Australia","country_code":"au"},"population":19435,"osm_type":"node","osm_id":1882969315,"type":"city","location":[152.6600256,-26.1900447],"bbox":[152.5000256,-26.3500447,152.8200256,-26.0300447],"border":[{"name":"Gympie Regional","other_names":{"name:en":"Gympie Regional","short_name":"Gympie"},"display_name":"Gympie Regional, Queensland, Australia","address":{"municipality":"Gympie Regional","state":"Queensland","ISO3166-2-lvl4":"AU-QLD","country":"Australia","country_code":"au"},"osm_type":"relation","osm_id":11675079,"type":"administrative","location":[152.4785507268936,-26.1766225],"bbox":[151.75278,-26.597709,153.191507,-25.75695]},{"name":"Gympie","other_names":{"name:en":"Gympie","name:ja":"ギンピー","name:ru":"Гимпи","name:zh":"金皮"},"display_name":"Gympie, Gympie Regional, Queensland, 4570, Australia","address":{"city":"Gympie","municipality":"Gympie Regional","state":"Queensland","ISO3166-2-lvl4":"AU-QLD","postcode":"4570","country":"Australia","country_code":"au"},"population":19435,"osm_type":"relation","osm_id":11676181,"type":"administrative","location":[152.6600256,-26.1900447],"bbox":[152.635598,-26.207433,152.692253,-26.159559]}]}
{"name":"Hervey Bay","other_names":{"name:en":"Hervey Bay","name:ja":"ハービー・ベイ","name:zh":"赫维湾"},"display_name":"Hervey Bay, Fraser Coast Regional, Queensland, 4655, Australia","address":{"city":"Hervey Bay","municipality":"Fraser Coast Regional","state":"Queensland","ISO3166-2-lvl4":"AU-QLD","postcode":"4655","country":"Australia","country_code":"au"},"population":57722,"osm_type":"node","osm_id":68558311,"type":"city","location":[152.8535216,-25.2985784],"bbox":[152.6935216,-25.4585784,153.0135216,-25.1385784]}
{"name":"Hobart","other_names":{"name:am":"ሆባርት","name:ar":"هوبارت","name:be":"Хобарт","name:bg":"Хобарт","name:bh":"होबार्ट","name:bn":"হোবার্ট","name:bo":"ཧོ་སྦར་ཐེ།","name:cv":"Хобарт","name:el":"Χόμπαρτ","name:en":"Hobart","name:eo":"Hobarto","name:es":"Hobart","name:fa":"هوبارت","name:fr":"Hobart","name:fy":"Hobart","name:he":"הובארט","name:hi":"होबार्ट","name:hu":"Hobart","name:hy":"Հոբարթ","name:id":"Hobart","name:is":"Hobart","name:ja":"ホバート","name:ka":"ჰობარტი","name:kk":"Хобарт","name:kn":"ಹೋಬಾರ್ಟ್","name:ko":"호바트","name:la":"Hobartum","name:lt":"Hobartas","name:lv":"Hobārta","name:mi":"Hopatāone","name:mk":"Хобарт","name:ml":"ഹൊബാർട്ട്","name:mn":"Хобарт","name:mr":"होबर्ट","name:ne":"होबार्ट","name:nl":"Hobart","name:os":"Хобарт","name:pa":"ਹੋਬਾਰਟ","name:pl":"Hobart","name:ps":"هوبارټ","name:ru":"Хобарт","name:sa":"होबार्ट","name:si":"හෝබාර්ට්","name:sk":"Hobart","name:sr":"Хобарт","name:sv":"Hobart","name:ta":"ஹோபார்ட்","name:th":"โฮบาร์ต","name:to":"Hopaati","name:tt":"Һобарт","name:uk":"Гобарт","name:ur":"ہوبارٹ","name:uz":"Xobart","name:vo":"Hobart","name:zh":"荷巴特","name:ckb":"هۆبارت"},"display_name":"Hobart, City of Hobart, Tasmania, Australia","address":{"city":"Hobart","municipality":"City of Hobart","state":"Tasmania","ISO3166-2-lvl4":"AU-TAS","country":"Australia","country_code":"au"},"population":197451,"osm_type":"node","osm_id":59149739,"type":"city","location":[147.3281233,-42.8825088],"bbox":[147.1681233,-43.0425088,147.4881233,-42.7225088],"border":[{"name":"City of Hobart","other_names":{"name:en":"City of Hobart","alt_name":"Hobart City Council","alt_name:1":"Hobart Local Government Area","short_name":"Hobart"},"display_name":"City of Hobart, Tasmania, Australia","address":{"municipality":"City of Hobart","state":"Tasmania","ISO3166-2-lvl4":"AU-TAS","country":"Australia","country_code":"au"},"osm_type":"relation","osm_id":10625466,"type":"administrative","location":[147.27208577170381,-42.893851],"bbox":[147.195749,-42.943144,147.362133,-42.844588]},{"name":"Hobart","other_names":{"name:ar":"هوبارت","name:en":"Hobart","name:es":"Hobart","name:fr":"Hobart","name:hu":"Hobart","name:is":"Hobart","name:ja":"ホバート","name:kn":"ಹೋಬಾರ್ಟ್","name:mk":"Хобарт","name:pl":"Hobart","name:ru":"Хобарт","name:sr":"Хобарт","name:sv":"Hobart","name:uk":"Гобарт","name:zh":"荷巴特","alt_name":"Greater Hobart","name:ckb":"هۆبارت","name:am":"ሆባርት","name:be":"Хобарт","name:bg":"Хобарт","name:bh":"होबार्ट","name:bn":"হোবার্ট","name:bo":"ཧོ་སྦར་ཐེ།","name:cv":"Хобарт","name:el":"Χόμπαρτ","name:eo":"Hobarto","name:fa":"هوبارت","name:fy":"Hobart","name:he":"הובארט","name:hi":"होबार्ट","name:hy":"Հոբարթ","name:id":"Hobart","name:ka":"ჰობარტი","name:kk":"Хобарт","name:ko":"호바트","name:la":"Hobartum","name:lt":"Hobartas","name:lv":"Hobārta","name:mi":"Hopatāone","name:ml":"ഹൊബാർട്ട്","name:mn":"Хобарт","name:mr":"होबर्ट","name:ne":"होबार्ट","name:nl":"Hobart","name:os":"Хобарт","name:pa":"ਹੋਬਾਰਟ","name:ps":"هوبارټ","name:sa":"होबार्ट","name:si":"හෝබාර්ට්","name:sk":"Hobart","name:ta":"ஹோபார்ட்","name:th":"โฮบาร์ต","name:to":"Hopaati","name:tt":"Һобарт","name:ur":"ہوبارٹ","name:uz":"Xobart","name:vo":"Hobart"},"display_name":"Hobart, City of Hobart, Tasmania, Australia","address":{"city":"Hobart","municipality":"City of Hobart","state":"Tasmania","ISO3166-2-lvl4":"AU-TAS","country":"Australia","country_code":"au"},"population":197451,"osm_type":"relation","osm_id":10632745,"type":"administrative","location":[147.3281233,-42.8825088],"bbox":[147.091688,-43.103615,147.645588,-42.655376]},{"name":"Hobart","other_names":{"name:ar":"هوبارت","name:en":"Hobart","name:es":"Hobart","name:fr":"Hobart","name:hu":"Hobart","name:is":"Hobart","name:ja":"ホバート","name:kn":"ಹೋಬಾರ್ಟ್","name:mk":"Хобарт","name:pl":"Hobart","name:ru":"Хобарт","name:sr":"Хобарт","name:sv":"Hobart","name:uk":"Гобарт","name:zh":"荷巴特","name:ckb":"هۆبارت"},"display_name":"Hobart, City of Hobart, Tasmania, 7000, Australia","address":{"suburb":"Hobart","city":"Hobart","municipality":"City of Hobart","state":"Tasmania","ISO3166-2-lvl4":"AU-TAS","postcode":"7000","country":"Australia","country_code":"au"},"osm_type":"relation","osm_id":10625465,"type":"administrative","location":[147.3258480859214,-42.88239299999999],"bbox":[147.31561,-42.891635,147.341498,-42.873046]}]}
{"name":"Ipswich","other_names":{"name:ja":"イプスウィッチ","name:zh":"伊普斯威奇"},"display_name":"Ipswich, Ipswich City, Queensland, Australia","address":{"city":"Ipswich","state":"Queensland","ISO3166-2-lvl4":"AU-QLD","country":"Australia","country_code":"au"},"osm_type":"node","osm_id":21477953,"type":"city","location":[152.7608348,-27.6160323],"bbox":[152.6008348,-27.7760323,152.9208348,-27.4560323],"border":[{"name":"Ipswich City","other_names":{"name:en":"Ipswich City","short_name":"Ipswich","name:ja":"イプスウィッチ","name:zh":"伊普斯威奇","alt":"Ipswich"},"display_name":"Ipswich City, Queensland, Australia","address":{"city":"Ipswich City","state":"Queensland","ISO3166-2-lvl4":"AU-QLD","country":"Australia","country_code":"au"},"population":229208,"osm_type":"relation","osm_id":11675604,"type":"administrative","location":[152.7608348,-27.6160323],"bbox":[152.382721,-27.865469,152.940883,-27.490327]},{"name":"Ipswich","other_names":{"name:en":"Ipswich","name:ja":"イプスウィッチ"},"display_name":"Ipswich, Greater Brisbane, Queensland, Australia","address":{"suburb":"Ipswich","district":"Greater Brisbane","state":"Queensland","ISO3166-2-lvl4":"AU-QLD","country":"Australia","country_code":"au"},"osm_type":"relation","osm_id":11675330,"type":"administrative","location":[152.7594638,-27.6234673],"bbox":[152.748408,-27.6364776,152.771589,-27.610239]}]}
{"name":"Kalgoorlie","other_names":{"name:en":"Kalgoorlie","name:ja":"カルグーリー","name:ru":"Калгурли","name:uk":"Калгурлі","alt_name":"Kalgoorlie-Boulder","old_name":"Hannan's Find"},"display_name":"Kalgoorlie, City Of Kalgoorlie-Boulder, Western Australia, 6430, Australia","address":{"city":"Kalgoorlie","municipality":"City Of Kalgoorlie-Boulder","state":"Western Australia","ISO3166-2-lvl4":"AU-WA","postcode":"6430","country":"Australia","country_code":"au"},"population":29068,"osm_type":"node","osm_id":30772411,"type":"city","location":[121.473223,-30.7464139],"bbox":[121.313223,-30.9064139,121.633223,-30.5864139],"border":[{"name":"City Of Kalgoorlie-Boulder","other_names":{"name:en":"City Of Kalgoorlie-Boulder","short_name":"Kalgoorlie-Boulder"},"display_name":"City Of Kalgoorlie-Boulder, Western Australia, Australia","address":{"municipality":"City Of Kalgoorlie-Boulder","state":"Western Australia","ISO3166-2-lvl4":"AU-WA","country":"Australia","country_code":"au"},"osm_type":"relation","osm_id":11690214,"type":"administrative","location":[125.17148885,-30.784484],"bbox":[120.845479,-31.410759,129.0019211,-30.142171]},{"name":"Kalgoorlie","display_name":"Kalgoorlie, City Of Kalgoorlie-Boulder, Western Australia, 6430, Australia","address":{"city_district":"Kalgoorlie","municipality":"City Of Kalgoorlie-Boulder","state":"Western Australia","ISO3166-2-lvl4":"AU-WA","postcode":"6430","country":"Australia","country_code":"au"},"population":3901,"osm_type":"relation","osm_id":11690117,"type":"administrative","location":[121.46824194346473,-30.753429500000003],"bbox":[121.456201,-30.768248,121.481267,-30.735408]}]}
{"name":"Karratha","other_names":{"name:en":"Karratha","name:ja":"カラサ"},"display_name":"Karratha, City Of Karratha, Western Australia, 6714, Australia","address":{"city":"Karratha","municipality":"City Of Karratha","state":"Western Australia","ISO3166-2-lvl4":"AU-WA","postcode":"6714","country":"Australia","country_code":"au"},"population":17013,"osm_type":"node","osm_id":3887250742,"type":"city","location":[116.8478592,-20.7370067],"bbox":[116.6878592,-20.8970067,117.0078592,-20.5770067],"border":[{"name":"City Of Karratha","other_names":{"name:en":"City Of Karratha","short_name":"Karratha"},"display_name":"City Of Karratha, Western Australia, Australia","address":{"municipality":"City Of Karratha","state":"Western Australia","ISO3166-2-lvl4":"AU-WA","country":"Australia","country_code":"au"},"osm_type":"relation","osm_id":11690037,"type":"administrative","location":[116.8303140117983,-21.0129984],"bbox":[115.333333,-21.727518,118.211864,-20.2922816]},{"name":"Karratha","display_name":"Karratha, City Of Karratha, Western Australia, 6714, Australia","address":{"city_district":"Karratha","municipality":"City Of Karratha","state":"Western Australia","ISO3166-2-lvl4":"AU-WA","postcode":"6714","country":"Australia","country_code":"au"},"osm_type":"relation","osm_id":11690020,"type":"administrative","location":[116.84535701505129,-20.7346645],"bbox":[116.840905,-20.738395,116.850769,-20.731358]}]}
{"name":"Launceston","other_names":{"name:ar":"لاونسستون","name:az":"Lonseston","name:ca":"Launceston","name:cy":"Launceston","name:de":"Launceston","name:en":"Launceston","name:es":"Launceston","name:fa":"لانسستون","name:fr":"Launceston","name:ha":"Launceston","name:he":"לונסטון","name:hi":"लाउंसेस्टन","name:id":"Launceston","name:it":"Launceston","name:ja":"ローンセストン","name:ka":"ლონსესტონი","name:ko":"론서스턴","name:lt":"Lonsestonas","name:mi":"Rahetone","name:mk":"Лонсестон","name:nb":"Launceston","name:nl":"Launceston","name:pl":"Launceston","name:pt":"Launceston","name:ru":"Лонсестон","name:sa":"लॉनसेसटन","name:sr":"Лонсестон","name:sv":"Launceston","name:ta":"லான்செசுடன்","name:uk":"Лонсестон","name:ur":"لانسسٹن","name:vi":"Launceston","name:vo":"Launceston","name:zh":"朗塞斯顿"},"display_name":"Launceston, City of Launceston, Tasmania, Australia","address":{"city":"Launceston","municipality":"City of Launceston","state":"Tasmania","ISO3166-2-lvl4":"AU-TAS","country":"Australia","country_code":"au"},"population":80943,"osm_type":"node","osm_id":244646675,"type":"city","location":[147.1373496,-41.4340813],"bbox":[146.9773496,-41.5940813,147.2973496,-41.2740813],"border":[{"name":"City of Launceston","other_names":{"name:en":"City of Launceston","alt_name":"Launceston City Council","alt_name:1":"Launceston Local Government Area","short_name":"Launceston"},"display_name":"City of Launceston, Tasmania, Australia","address":{"municipality":"City of Launceston","state":"Tasmania","ISO3166-2-lvl4":"AU-TAS","country":"Australia","country_code":"au"},"osm_type":"relation","osm_id":10581631,"type":"administrative","location":[147.27312884087405,-41.320994],"bbox":[146.976638,-41.556178,147.648059,-41.085734]},{"name":"Launceston","other_names":{"name:en":"Launceston","name:ja":"ローンセストン","name:mk":"Лонсестон","name:ru":"Лонсестон","name:uk":"Лонсестон","name:zh":"朗塞斯顿","alt_name":"Greater Launceston","name:ar":"لاونسستون","name:az":"Lonseston","name:ca":"Launceston","name:cy":"Launceston","name:de":"Launceston","name:es":"Launceston","name:fa":"لانسستون","name:fr":"Launceston","name:ha":"Launceston","name:he":"לונסטון","name:hi":"लाउंसेस्टन","name:id":"Launceston","name:it":"Launceston","name:ka":"ლონსესტონი","name:ko":"론서스턴","name:lt":"Lonsestonas","name:mi":"Rahetone","name:nb":"Launceston","name:nl":"Launceston","name:pl":"Launceston","name:pt":"Launceston","name:sa":"लॉनसेसटन","name:sr":"Лонсестон","name:sv":"Launceston","name:ta":"லான்செசுடன்","name:ur":"لانسسٹن","name:vi":"Launceston","name:vo":"Launceston"},"display_name":"Launceston, City of Launceston, Tasmania, Australia","address":{"city":"Launceston","municipality":"City of Launceston","state":"Tasmania","ISO3166-2-lvl4":"AU-TAS","country":"Australia","country_code":"au"},"population":80943,"osm_type":"relation","osm_id":10632701,"type":"administrative","location":[147.1373496,-41.4340813],"bbox":[146.972181,-41.526872,147.305245,-41.334565]},{"name":"Launceston","other_names":{"name:en":"Launceston","name:ja":"ローンセストン","name:mk":"Лонсестон","name:ru":"Лонсестон","name:uk":"Лонсестон","name:zh":"朗塞斯顿"},"display_name":"Launceston, City of Launceston, Tasmania, 7250, Australia","address":{"suburb":"Launceston","city":"Launceston","municipality":"City of Launceston","state":"Tasmania","ISO3166-2-lvl4":"AU-TAS","postcode":"7250","country":"Australia","country_code":"au"},"osm_type":"relation","osm_id":10581622,"type":"administrative","location":[147.13926291479868,-41.433389],"bbox":[147.126987,-41.450434,147.160786,-41.416332]}]}
{"name":"Lismore","other_names":{"name:en":"Lismore","name:ja":"リズモー","name:ru":"Лисмор","name:uk":"Лісмор"},"display_name":"Lismore, Lismore City Council, New South Wales, Australia","address":{"city":"Lismore","locality":"Lismore","municipality":"Lismore City Council","state":"New South Wales","ISO3166-2-lvl4":"AU-NSW","country":"Australia","country_code":"au"},"population":27916,"osm_type":"node","osm_id":114651471,"type":"city","location":[153.2791883,-28.8077608],"bbox":[153.1191883,-28.9677608,153.4391883,-28.6477608],"border":[{"name":"Lismore City Council","other_names":{"name:en":"Lismore City Council","alt_name":"Lismore City Council","short_name":"Lismore"},"display_name":"Lismore City Council, New South Wales, 2480, Australia","address":{"municipality":"Lismore City Council","state":"New South Wales","ISO3166-2-lvl4":"AU-NSW","postcode":"2480","country":"Australia","country_code":"au"},"osm_type":"relation","osm_id":6168485,"type":"administrative","location":[153.26712591214815,-28.7936072],"bbox":[153.0736578,-29.0714399,153.450036,-28.5158299]},{"name":"Lismore","other_names":{"name:en":"Lismore","name:ja":"リズモー","name:ru":"Лисмор","name:uk":"Лісмор"},"display_name":"Lismore, Lismore City Council, New South Wales, 2480, Australia","address":{"locality":"Lismore","municipality":"Lismore City Council","state":"New South Wales","ISO3166-2-lvl4":"AU-NSW","postcode":"2480","country":"Australia","country_code":"au"},"population":27916,"osm_type":"relation","osm_id":6069981,"type":"administrative","location":[153.2791883,-28.8077608],"bbox":[153.2692801,-28.8172584,153.3066736,-28.7962146]}]}
{"name":"Logan City","other_names":{"name:bn":"লোগান সিটি","name:ja":"ローガン"},"display_name":"Logan City, Queensland, Australia","address":{"city":"Logan City","state":"Queensland","ISO3166-2-lvl4":"AU-QLD","country":"Australia","country_code":"au"},"osm_type":"node","osm_id":80923927,"type":"city","location":[153.1131037,-27.6424132],"bbox":[152.9531037,-27.8024132,153.2731037,-27.4824132],"border":{"name":"Logan City","other_names":{"name:en":"Logan City","short_name":"Logan","name:bn":"লোগান সিটি","name:ja":"ローガン"},"display_name":"Logan City, Queensland, Australia","address":{"city":"Logan City","state":"Queensland","ISO3166-2-lvl4":"AU-QLD","country":"Australia","country_code":"au"},"population":345098,"osm_type":"relation","osm_id":11675411,"type":"administrative","location":[153.1131037,-27.6424132],"bbox":[152.79948,-27.938605,153.290351,-27.5872464]}}
{"name":"Mackay","other_names":{"name:en":"Mackay","name:ja":"マッカイ","name:ru":"Маккай","name:zh":"麦凯"},"display_name":"Mackay, Mackay Regional, Queensland, 4740, Australia","address":{"city":"Mackay","municipality":"Mackay Regional","state":"Queensland","ISO3166-2-lvl4":"AU-QLD","postcode":"4740","country":"Australia","country_code":"au"},"population":80455,"osm_type":"node","osm_id":1875557678,"type":"city","location":[149.1865149,-21.141956],"bbox":[149.0265149,-21.301956,149.3465149,-20.981956],"border":[{"name":"Mackay Regional","other_names":{"name:en":"Mackay Regional","short_name":"Mackay"},"display_name":"Mackay Regional, Queensland, Australia","address":{"municipality":"Mackay Regional","state":"Queensland","ISO3166-2-lvl4":"AU-QLD","country":"Australia","country_code":"au"},"osm_type":"relation","osm_id":11677563,"type":"administrative","location":[149.15312061647063,-21.0678305],"bbox":[148.149048,-21.771335,152.607265,-20.365104]},{"name":"Mackay","display_name":"Mackay, Mackay Regional, Queensland, 4740, Australia","address":{"city_district":"Mackay","municipality":"Mackay Regional","state":"Queensland","ISO3166-2-lvl4":"AU-QLD","postcode":"4740","country":"Australia","country_code":"au"},"osm_type":"relation","osm_id":11677503,"type":"administrative","location":[149.18555876670752,-21.1426885],"bbox":[149.165979,-21.152353,149.198921,-21.133052]}]}
{"name":"Mandurah","other_names":{"name:en":"Mandurah","name:ja":"マンジュラ","name:ru":"Манджера","name:uk":"Манджера"},"display_name":"Mandurah, City of Mandurah, Western Australia, Australia","address":{"city":"Mandurah","municipality":"City of Mandurah","state":"Western Australia","ISO3166-2-lvl4":"AU-WA","country":"Australia","country_code":"au"},"osm_type":"node","osm_id":32566858,"type":"city","location":[115.7208782,-32.5302495],"bbox":[115.5608782,-32.6902495,115.8808782,-32.3702495],"border":[{"name":"City of Mandurah","other_names":{"name:en":"City of Mandurah","short_name":"Mandurah","name:ja":"マンジュラ","name:ru":"Манджера","name:uk":"Манджера","alt":"Mandurah","alt:en":"Mandurah"},"display_name":"City of Mandurah, Western Australia, Australia","address":{"municipality":"City of Mandurah","state":"Western Australia","ISO3166-2-lvl4":"AU-WA","country":"Australia","country_code":"au"},"osm_type":"relation","osm_id":11690490,"type":"administrative","location":[115.7208782,-32.5302495],"bbox":[115.606344,-32.801883,115.78839,-32.455619]},{"name":"Mandurah","display_name":"Mandurah, City of Mandurah, Western Australia, 6210, Australia","address":{"city_district":"Mandurah","city":"City of Mandurah","state":"Western Australia","ISO3166-2-lvl4":"AU-WA","postcode":"6210","country":"Australia","country_code":"au"},"osm_type":"relation","osm_id":11689126,"type":"administrative","location":[115.72955164606843,-32.522887],"bbox":[115.710508,-32.543667,115.748651,-32.50401]}]}
{"name":"Maryborough","other_names":{"name:en":"Maryborough","name:ja":"マリーボロー","name:ru":"Мэриборо","name:uk":"Меріборо","name:zh":"玛丽巴勒","alt_name":"玛丽伯勒"},"display_name":"Maryborough, Fraser Coast Regional, Queensland, Australia","address":{"city":"Maryborough","municipality":"Fraser Coast Regional","state":"Queensland","ISO3166-2-lvl4":"AU-QLD","country":"Australia","country_code":"au"},"population":22237,"osm_type":"node","osm_id":60976089,"type":"city","location":[152.7019182,-25.537583],"bbox":[152.5419182,-25.697583,152.8619182,-25.377583],"border":{"name":"Maryborough","other_names":{"name:en":"Maryborough","name:ja":"マリーボロー","name:ru":"Мэриборо","name:uk":"Меріборо","name:zh":"玛丽巴勒","alt_name":"玛丽伯勒"},"display_name":"Maryborough, Fraser Coast Regional, Queensland, 4650, Australia","address":{"city":"Maryborough","municipality":"Fraser Coast Regional","state":"Queensland","ISO3166-2-lvl4":"AU-QLD","postcode":"4650","country":"Australia","country_code":"au"},"population":22237,"osm_type":"relation","osm_id":11676136,"type":"administrative","location":[152.7019182,-25.537583],"bbox":[152.666534,-25.56151,152.729464,-25.489256]}}
{"name":"Melbourne","other_names":{"name:ab":"Мельбурн","name:am":"መልበርን","name:ar":"ملبورن","name:az":"Melburn","name:ba":"Мельбурн","name:be":"Мельбурн","name:bg":"Мелбърн","name:bh":"मेलबर्न","name:bi":"Melben","name:bn":"মেলবোর্ন","name:bo":"མེར་བུན","name:ce":"Мельбурн","name:cv":"Мельбурн","name:de":"Melbourne","name:el":"Μελβούρνη","name:en":"Melbourne","name:eo":"Melburno","name:es":"Melbourne","name:fa":"ملبورن","name:fi":"Melbourne","name:fj":"Malevani","name:fr":"Melbourne","name:gu":"મેલબોર્ન","name:he":"מלבורן","name:hi":"मॆल्बोर्न्","name:hr":"Melbourne","name:hu":"Melbourne","name:hy":"Մելբուռն","name:is":"Melbourne","name:ja":"メルボルン","name:ka":"მელბურნი","name:kk":"Мельбурн","name:kn":"ಮೆಲ್ಬೋರ್ನ್","name:ko":"멜버른","name:ky":"Мельбурн","name:la":"Melburnia","name:lo":"ເມລເບີນ","name:lt":"Melburnas","name:lv":"Melburna","name:mi":"Poipiripi","name:mk":"Мелбурн","name:ml":"മെൽബൺ","name:mn":"Мельбурн","name:mr":"मेलबर्न","name:my":"မဲလ်ဘုန်းမြို့","name:ne":"मेलबर्न","name:oc":"Melbourne","name:os":"Мельбурн","name:pa":"ਮੈਲਬਰਨ","name:pl":"Melbourne","name:ru":"Мельбурн","name:sa":"मेलबॉर्न","name:sd":"ميلبورن","name:si":"මෙල්බන්","name:sl":"Melbourne","name:sm":"Melepone","name:sq":"Melburni","name:sr":"Мелбурн","name:sv":"Melbourne","name:ta":"மெல்பேர்ண்","name:te":"మెల్‌బోర్న్","name:tg":"Мелбурн","name:th":"เมลเบิร์น","name:tk":"Melburn","name:to":"Melipoane","name:tt":"Мельбурн","name:ty":"Marapana","name:ug":"Mélburn","name:uk":"Мельбурн","name:ur":"ملبورن","name:uz":"Melburn","name:yi":"מעלבארן","name:zh":"墨爾本/墨尔本","name:wyi":"Naarm","name:zh-Hans":"墨尔本","name:pronunciation":"ˈmɛlbn̩","name:en:pronunciation":"ˈmɛlbn̩"},"display_name":"Melbourne, City of Melbourne, Victoria, Australia","address":{"city":"Melbourne","municipality":"City of Melbourne","state":"Victoria","ISO3166-2-lvl4":"AU-VIC","country":"Australia","country_code":"au"},"population":4585537,"osm_type":"node","osm_id":21579127,"type":"city","location":[144.9631732,-37.8142454],"bbox":[144.8031732,-37.9742454,145.1231732,-37.6542454],"border":[{"name":"City of Melbourne","other_names":{"name:en":"City of Melbourne","name:mk":"Мелбурн","short_name":"Melbourne"},"display_name":"City of Melbourne, Victoria, Australia","address":{"municipality":"City of Melbourne","state":"Victoria","ISO3166-2-lvl4":"AU-VIC","country":"Australia","country_code":"au"},"population":149615,"osm_type":"relation","osm_id":2404870,"type":"administrative","location":[144.94826130377064,-37.8123825],"bbox":[144.896981,-37.850667,144.9913462,-37.775451]},{"name":"Melbourne","other_names":{"name:ar":"ملبورن","name:bg":"Мелбърн","name:de":"Melbourne","name:el":"Μελβούρνη","name:en":"Melbourne","name:eo":"Melburno","name:es":"Melbourne","name:fi":"Melbourne","name:fr":"Melbourne","name:he":"מלבורן","name:hi":"मेलबॉर्न","name:is":"Melbourne","name:it":"Melbourne","name:ja":"メルボルン","name:kn":"ಮೆಲ್ಬೋರ್ನ್","name:ko":"멜버른","name:lt":"Melburnas","name:mi":"Poipiripi","name:mk":"Мелбурн","name:mr":"मेलबर्न","name:oc":"Melbourne","name:pl":"Melbourne","name:pt":"Melbourne","name:ru":"Мельбурн","name:sr":"Мелбурн","name:sv":"Melbourne","name:uk":"Мельбурн","name:zh":"墨爾本","alt_name":"Greater Melbourne","alt_name:en":"Greater Melbourne","name:zh-Hans":"墨尔本","name:zh-Hant":"墨爾本","name:ab":"Мельбурн","name:am":"መልበርን","name:az":"Melburn","name:ba":"Мельбурн","name:be":"Мельбурн","name:bh":"मेलबर्न","name:bi":"Melben","name:bn":"মেলবোর্ন","name:bo":"མེར་བུན","name:ce":"Мельбурн","name:cv":"Мельбурн","name:fa":"ملبورن","name:fj":"Malevani","name:gu":"મેલબોર્ન","name:hr":"Melbourne","name:hu":"Melbourne","name:hy":"Մելբուռն","name:ka":"მელბურნი","name:kk":"Мельбурн","name:ky":"Мельбурн","name:la":"Melburnia","name:lo":"ເມລເບີນ","name:lv":"Melburna","name:ml":"മെൽബൺ","name:mn":"Мельбурн","name:my":"မဲလ်ဘုန်းမြို့","name:ne":"मेलबर्न","name:os":"Мельбурн","name:pa":"ਮੈਲਬਰਨ","name:sa":"मेलबॉर्न","name:sd":"ميلبورن","name:si":"මෙල්බන්","name:sl":"Melbourne","name:sm":"Melepone","name:sq":"Melburni","name:ta":"மெல்பேர்ண்","name:te":"మెల్‌బోర్న్","name:tg":"Мелбурн","name:th":"เมลเบิร์น","name:tk":"Melburn","name:to":"Melipoane","name:tt":"Мельбурн","name:ty":"Marapana","name:ug":"Mélburn","name:ur":"ملبورن","name:uz":"Melburn","name:yi":"מעלבארן","name:wyi":"Naarm","name:pronunciation":"ˈmɛlbən","name:en:pronunciation":"ˈmɛlbn̩","alt:hi":"मॆल्बोर्न्","alt:zh":"墨爾本/墨尔本","alt:pronunciation":"ˈmɛlbn̩"},"display_name":"Melbourne, City of Melbourne, Victoria, Australia","address":{"city":"Melbourne","municipality":"City of Melbourne","state":"Victoria","ISO3166-2-lvl4":"AU-VIC","country":"Australia","country_code":"au"},"population":5031195,"osm_type":"relation","osm_id":4246124,"type":"administrative","location":[144.9631732,-37.8142454],"bbox":[144.44405,-38.49937,146.1925,-37.40175]},{"name":"Melbourne","other_names":{"name:en":"Melbourne","loc_name":"City","short_name":"Melbourne CBD"},"display_name":"Melbourne, City of Melbourne, Victoria, Australia","address":{"suburb":"Melbourne","city":"Melbourne","municipality":"City of Melbourne","state":"Victoria","ISO3166-2-lvl4":"AU-VIC","country":"Australia","country_code":"au"},"population":54941,"osm_type":"relation","osm_id":2383266,"type":"administrative","location":[144.9655616,-37.8141705],"bbox":[144.9514311,-37.855527,144.989097,-37.799446]}]}
{"name":"Mildura","other_names":{"name:en":"Mildura","name:ja":"ミルデューラ","name:ru":"Милдьюра","name:uk":"Мілдьюра"},"display_name":"Mildura, Rural City of Mildura, Victoria, Australia","address":{"city":"Mildura","municipality":"Rural City of Mildura","state":"Victoria","ISO3166-2-lvl4":"AU-VIC","country":"Australia","country_code":"au"},"population":35652,"osm_type":"node","osm_id":30877330,"type":"city","location":[142.1503146,-34.195274],"bbox":[141.9903146,-34.355274,142.3103146,-34.035274],"border":{"name":"Mildura","other_names":{"name:en":"Mildura","name:ja":"ミルデューラ","name:ru":"Милдьюра","name:uk":"Мілдьюра"},"display_name":"Mildura, Rural City of Mildura, Victoria, 3500, Australia","address":{"city":"Mildura","municipality":"Rural City of Mildura","state":"Victoria","ISO3166-2-lvl4":"AU-VIC","postcode":"3500","country":"Australia","country_code":"au"},"population":34565,"osm_type":"relation","osm_id":3116010,"type":"administrative","location":[142.1503146,-34.195274],"bbox":[142.063238,-34.27277,142.2039709,-34.1487118]}}
{"name":"Mount Gambier","other_names":{"name:en":"Mount Gambier","name:ja":"マウントガンビア","name:ru":"Маунт-Гамбир","name:uk":"Маунт Гамб’єр","name:xbg":"Berrin","old_name":"Berrin"},"display_name":"Mount Gambier, City of Mount Gambier, South Australia, Australia","address":{"city":"Mount Gambier","municipality":"City of Mount Gambier","state":"South Australia","ISO3166-2-lvl4":"AU-SA","country":"Australia","country_code":"au"},"population":26734,"osm_type":"node","osm_id":59609477,"type":"city","location":[140.7842627,-37.8301386],"bbox":[140.6242627,-37.9901386,140.9442627,-37.6701386],"border":[{"name":"City of Mount Gambier","other_names":{"name:en":"City of Mount Gambier","short_name":"Mount Gambier"},"display_name":"City of Mount Gambier, South Australia, 5290, Australia","address":{"municipality":"City of Mount Gambier","state":"South Australia","ISO3166-2-lvl4":"AU-SA","postcode":"5290","country":"Australia","country_code":"au"},"osm_type":"relation","osm_id":3395909,"type":"administrative","location":[140.78195963207457,-37.8246698],"bbox":[140.7374821,-37.8550797,140.8261967,-37.7942924]},{"name":"Mount Gambier","other_names":{"name:en":"Mount Gambier","name:ja":"マウントガンビア","name:ru":"Маунт-Гамбир","name:uk":"Маунт Гамб’єр","name:xbg":"Berrin","old_name":"Berrin"},"display_name":"Mount Gambier, City of Mount Gambier, South Australia, 5290, Australia","address":{"city":"Mount Gambier","municipality":"City of Mount Gambier","state":"South Australia","ISO3166-2-lvl4":"AU-SA","postcode":"5290","country":"Australia","country_code":"au"},"population":26734,"osm_type":"relation","osm_id":3801000,"type":"administrative","location":[140.7842627,-37.8301386],"bbox":[140.7376121,-37.8526165,140.8236766,-37.800028]}]}
{"name":"Mount Isa","other_names":{"name:en":"Mount Isa","name:ja":"マウントアイザ","name:ru":"Маунт-Айза","name:uk":"Маунт-Айза"},"display_name":"Mount Isa, Mount Isa City, Queensland, Australia","address":{"city":"Mount Isa","municipality":"Mount Isa City","state":"Queensland","ISO3166-2-lvl4":"AU-QLD","country":"Australia","country_code":"au"},"population":17936,"osm_type":"node","osm_id":247812099,"type":"city","location":[139.4931522,-20.7289898],"bbox":[139.3331522,-20.8889898,139.6531522,-20.5689898],"border":[{"name":"Mount Isa City","other_names":{"name:en":"Mount Isa City","short_name":"Mount Isa"},"display_name":"Mount Isa City, Queensland, Australia","address":{"municipality":"Mount Isa City","state":"Queensland","ISO3166-2-lvl4":"AU-QLD","country":"Australia","country_code":"au"},"osm_type":"relation","osm_id":11677400,"type":"administrative","location":[138.76135255208453,-19.7578776],"bbox":[137.9954296,-21.314979,140.032887,-18.1782955]},{"name":"Mount Isa","display_name":"Mount Isa, Mount Isa City, Queensland, 4825, Australia","address":{"city_district":"Mount Isa","municipality":"Mount Isa City","state":"Queensland","ISO3166-2-lvl4":"AU-QLD","postcode":"4825","country":"Australia","country_code":"au"},"osm_type":"relation","osm_id":11676747,"type":"administrative","location":[139.4079593933401,-20.494362000000002],"bbox":[138.865608,-20.967722,140.032887,-20.022059]}]}
{"name":"Newcastle","other_names":{"name:bn":"নিউক্যাসল","name:en":"Newcastle","name:eo":"Novkastelo","name:ja":"ニューカッスル","name:lt":"Niukaslas","name:ru":"Ньюкасл","name:uk":"Ньюкасл","name:zh":"纽卡斯尔","name:awk":"Mulubinba"},"display_name":"Newcastle, Newcastle-Maitland, City of Newcastle, New South Wales, 2300, Australia","address":{"city":"Newcastle","municipality":"City of Newcastle","state":"New South Wales","ISO3166-2-lvl4":"AU-NSW","postcode":"2300","country":"Australia","country_code":"au"},"population":348539,"osm_type":"node","osm_id":25841904,"type":"city","location":[151.7812534,-32.9272881],"bbox":[151.6212534,-33.0872881,151.9412534,-32.7672881],"border":[{"name":"City of Newcastle","other_names":{"name:en":"City of Newcastle","alt_name":"Newcastle City Council","short_name":"Newcastle"},"display_name":"City of Newcastle, New South Wales, Australia","address":{"municipality":"City of Newcastle","state":"New South Wales","ISO3166-2-lvl4":"AU-NSW","country":"Australia","country_code":"au"},"osm_type":"relation","osm_id":6189831,"type":"administrative","location":[151.7039180212114,-32.87626755],"bbox":[151.606749,-32.9630394,151.8179061,-32.789353]},{"name":"Newcastle","other_names":{"name:en":"Newcastle","name:ja":"ニューカッスル","name:zh":"纽卡斯尔"},"display_name":"Newcastle, Newcastle-Maitland, City of Newcastle, New South Wales, 2300, Australia","address":{"suburb":"Newcastle","city":"Newcastle-Maitland","municipality":"City of Newcastle","state":"New South Wales","ISO3166-2-lvl4":"AU-NSW","postcode":"2300","country":"Australia","country_code":"au"},"osm_type":"relation","osm_id":5989933,"type":"administrative","location":[151.7795348,-32.9192953],"bbox":[151.7596675,-32.937805,151.803932,-32.901482]}]}
{"name":"Orange","other_names":{"name:en":"Orange","name:ja":"オレンジ","name:ru":"Ориндж","name:uk":"Орандж"},"display_name":"Orange, Orange City Council, New South Wales, Australia","address":{"city":"Orange","municipality":"Orange City Council","state":"New South Wales","ISO3166-2-lvl4":"AU-NSW","country":"Australia","country_code":"au"},"population":40127,"osm_type":"node","osm_id":113708138,"type":"city","location":[149.0971567,-33.2820463],"bbox":[148.9371567,-33.4420463,149.2571567,-33.1220463],"border":[{"name":"Orange City Council","other_names":{"name:en":"Orange City Council","alt_name":"Orange City Council","short_name":"Orange"},"display_name":"Orange City Council, New South Wales, Australia","address":{"municipality":"Orange City Council","state":"New South Wales","ISO3166-2-lvl4":"AU-NSW","country":"Australia","country_code":"au"},"osm_type":"relation","osm_id":6427044,"type":"administrative","location":[149.10814660898976,-33.329241749999994],"bbox":[149.0094472,-33.4392455,149.2364535,-33.2173772]},{"name":"Orange","other_names":{"name:en":"Orange","name:ja":"オレンジ","name:ru":"Ориндж","name:uk":"Орандж"},"display_name":"Orange, Orange City Council, New South Wales, 2800, Australia","address":{"city":"Orange","municipality":"Orange City Council","state":"New South Wales","ISO3166-2-lvl4":"AU-NSW","postcode":"2800","country":"Australia","country_code":"au"},"population":40127,"osm_type":"relation","osm_id":6058037,"type":"administrative","location":[149.0971567,-33.2820463],"bbox":[148.9657804,-33.3379135,149.1577538,-33.1641715]}]}
{"name":"Perth","other_names":{"name:am":"ፐርስ፣ አውስትራሊያ","name:ar":"بيرث","name:az":"Pert","name:ba":"Перт","name:be":"Перт","name:bg":"Пърт","name:bh":"पर्थ","name:bn":"পার্থ","name:br":"Perth","name:ce":"Перт","name:cv":"Перт","name:cy":"Perth","name:da":"Perth","name:de":"Perth","name:el":"Περθ","name:en":"Perth","name:eo":"Perto","name:es":"Perth","name:et":"Perth","name:fa":"پرث","name:fi":"Perth","name:fj":"Pefa","name:fr":"Perth","name:gd":"Peairt","name:gn":"Perth","name:gu":"પર્થ","name:he":"פרת","name:hi":"पर्थ","name:hu":"Perth","name:hy":"Փերթ","name:id":"Perth","name:io":"Perth","name:is":"Perth","name:ja":"パース","name:ka":"პერთი","name:kk":"Перт","name:kn":"ಪರ್ತ್","name:ko":"퍼스","name:ku":"Perth","name:ky":"Перт","name:la":"Perthia","name:li":"Perth","name:lt":"Pertas","name:lv":"Pērta","name:mi":"Peraha","name:mk":"Перт","name:ml":"പെർത്ത്","name:mn":"Перт","name:mr":"पर्थ","name:ms":"Perth","name:my":"ပါ့သ်မြို့","name:nb":"Perth","name:ne":"पर्थ","name:nl":"Perth","name:oc":"Perth","name:os":"Перт","name:pa":"ਪਰਥ","name:pl":"Perth","name:ps":"پرت","name:pt":"Perth","name:ru":"Перт","name:sa":"पर्थ","name:sd":"پرٿ","name:si":"පර්ත්","name:sk":"Perth","name:sl":"Perth","name:sm":"Pefa","name:sr":"Перт","name:sv":"Perth","name:ta":"பேர்த்","name:tg":"Перт","name:th":"เพิร์ท","name:to":"Pēfi","name:tr":"Perth","name:tt":"Пөрт","name:uk":"Перт","name:ur":"پرتھ","name:uz":"Pert","name:zh":"珀斯","name:nys":"Boorlo"},"display_name":"Perth, City of Perth, Western Australia, 6000, Australia","address":{"city":"Perth","county":"City of Perth","state":"Western Australia","ISO3166-2-lvl4":"AU-WA","postcode":"6000","country":"Australia","country_code":"au"},"population":2043762,"osm_type":"node","osm_id":29277817,"type":"city","location":[115.8605784,-31.9558967],"bbox":[115.7005784,-32.1158967,116.0205784,-31.7958967],"border":{"name":"Perth","display_name":"Perth, City of Perth, Western Australia, 6000, Australia","address":{"city_district":"Perth","county":"City of Perth","state":"Western Australia","ISO3166-2-lvl4":"AU-WA","postcode":"6000","country":"Australia","country_code":"au"},"osm_type":"relation","osm_id":11689210,"type":"administrative","location":[115.85837364402198,-31.954800499999997],"bbox":[115.827166,-31.973012,115.877911,-31.936494]}}
{"name":"Port Hedland","other_names":{"name:en":"Port Hedland","name:ja":"ポートヘッドランド","name:ru":"Порт-Хедленд","name:uk":"Порт-Гедленд"},"display_name":"Port Hedland, Town Of Port Hedland, Western Australia, Australia","address":{"city":"Port Hedland","municipality":"Town Of Port Hedland","state":"Western Australia","ISO3166-2-lvl4":"AU-WA","country":"Australia","country_code":"au"},"population":15298,"osm_type":"node","osm_id":44776448,"type":"city","location":[118.5801181,-20.3111814],"bbox":[118.4201181,-20.4711814,118.7401181,-20.1511814],"border":[{"name":"Town Of Port Hedland","other_names":{"name:en":"Town Of Port Hedland","short_name":"Port Hedland"},"display_name":"Town Of Port Hedland, Western Australia, Australia","address":{"municipality":"Town Of Port Hedland","state":"Western Australia","ISO3166-2-lvl4":"AU-WA","country":"Australia","country_code":"au"},"osm_type":"relation","osm_id":11690043,"type":"administrative","location":[118.51987683044668,-20.894665],"bbox":[117.7105134,-22.001039,119.5479788,-19.5247643]},{"name":"Port Hedland","other_names":{"name:en":"Port Hedland","name:ja":"ポートヘッドランド","name:ru":"Порт-Хедленд","name:uk":"Порт-Гедленд"},"display_name":"Port Hedland, Town Of Port Hedland, Western Australia, 6721, Australia","address":{"city":"Port Hedland","municipality":"Town Of Port Hedland","state":"Western Australia","ISO3166-2-lvl4":"AU-WA","postcode":"6721","country":"Australia","country_code":"au"},"population":15298,"osm_type":"relation","osm_id":11690181,"type":"administrative","location":[118.5801181,-20.3111814],"bbox":[118.572636,-20.394078,118.686784,-20.278473]}]}
{"name":"Port Macquarie","other_names":{"name:en":"Port Macquarie","name:ja":"ポートマッコリー","name:ru":"Порт-Маккуори","name:uk":"Порт Макарі"},"display_name":"Port Macquarie, Port Macquarie-Hastings Council, New South Wales, Australia","address":{"city":"Port Macquarie","suburb":"Port Macquarie","municipality":"Port Macquarie-Hastings Council","state":"New South Wales","ISO3166-2-lvl4":"AU-NSW","country":"Australia","country_code":"au"},"population":47793,"osm_type":"node","osm_id":21676216,"type":"city","location":[152.9103525,-31.4299499],"bbox":[152.7503525,-31.5899499,153.0703525,-31.2699499],"border":{"name":"Port Macquarie","other_names":{"name:en":"Port Macquarie","name:ja":"ポートマッコリー","name:ru":"Порт-Маккуори","name:uk":"Порт Макарі"},"display_name":"Port Macquarie, Port Macquarie-Hastings Council, New South Wales, 2444, Australia","address":{"suburb":"Port Macquarie","municipality":"Port Macquarie-Hastings Council","state":"New South Wales","ISO3166-2-lvl4":"AU-NSW","postcode":"2444","country":"Australia","country_code":"au"},"population":47793,"osm_type":"relation","osm_id":6063746,"type":"administrative","location":[152.9103525,-31.4299499],"bbox":[152.8489452,-31.5171501,152.9383742,-31.4052772]}}
{"name":"Queanbeyan","other_names":{"name:en":"Queanbeyan","name:ja":"クイーンビーアン","name:ru":"Куинбеян"},"display_name":"Queanbeyan, Queanbeyan-Palerang Regional Council, New South Wales, 2619, Australia","address":{"city":"Queanbeyan","municipality":"Queanbeyan-Palerang Regional Council","state":"New South Wales","ISO3166-2-lvl4":"AU-NSW","postcode":"2619","country":"Australia","country_code":"au"},"population":37511,"osm_type":"node","osm_id":40817809,"type":"city","location":[149.2337634,-35.3524518],"bbox":[149.0737634,-35.5124518,149.3937634,-35.1924518],"border":{"name":"Queanbeyan","display_name":"Queanbeyan, Queanbeyan-Palerang Regional Council, New South Wales, Australia","address":{"suburb":"Queanbeyan","municipality":"Queanbeyan-Palerang Regional Council","state":"New South Wales","ISO3166-2-lvl4":"AU-NSW","country":"Australia","country_code":"au"},"osm_type":"relation","osm_id":6068053,"type":"administrative","location":[149.2308944,-35.3530411],"bbox":[149.2192041,-35.3628807,149.2398556,-35.3418444]}}
{"name":"Redland City","other_names":{"name:en":"Redland City","loc_name":"The Redlands;Redlands"},"display_name":"Redland City, Queensland, Australia","address":{"city":"Redland City","municipality":"Redland City","state":"Queensland","ISO3166-2-lvl4":"AU-QLD","country":"Australia","country_code":"au"},"population":159222,"osm_type":"node","osm_id":12056660868,"type":"city","location":[153.2666582,-27.5263558],"bbox":[153.1066582,-27.6863558,153.4266582,-27.3663558],"border":{"name":"Redland City","other_names":{"name:en":"Redland City","short_name":"Redland","loc_name":"The Redlands;Redlands"},"display_name":"Redland City, Queensland, Australia","address":{"municipality":"Redland City","state":"Queensland","ISO3166-2-lvl4":"AU-QLD","country":"Australia","country_code":"au"},"population":159222,"osm_type":"relation","osm_id":11677885,"type":"administrative","location":[153.2666582,-27.5263558],"bbox":[153.171525,-27.743763,153.546513,-27.388098]}}
{"name":"Rockhampton","other_names":{"name:en":"Rockhampton","name:ja":"ロックハンプトン","name:ru":"Рокгемптон","name:uk":"Рокгемптон","name:zh":"罗克汉普顿"},"display_name":"Rockhampton, Rockhampton Regional, Queensland, 4700, Australia","address":{"city":"Rockhampton","municipality":"Rockhampton Regional","state":"Queensland","ISO3166-2-lvl4":"AU-QLD","postcode":"4700","country":"Australia","country_code":"au"},"population":63151,"osm_type":"node","osm_id":2014326094,"type":"city","location":[150.5134227,-23.3782137],"bbox":[150.3534227,-23.5382137,150.6734227,-23.2182137],"border":{"name":"Rockhampton Regional","other_names":{"name:en":"Rockhampton Regional","short_name":"Rockhampton"},"display_name":"Rockhampton Regional, Queensland, Australia","address":{"municipality":"Rockhampton Regional","state":"Queensland","ISO3166-2-lvl4":"AU-QLD","country":"Australia","country_code":"au"},"osm_type":"relation","osm_id":11676441,"type":"administrative","location":[150.16820942307692,-23.4171785],"bbox":[149.677991,-23.853581,150.913198,-22.980934]}}
{"name":"Shepparton","other_names":{"name:ja":"シェパートン","name:ru":"Шеппартон","name:zh":"谢珀顿"},"display_name":"Shepparton, City of Greater Shepparton, Victoria, Australia","address":{"city":"Shepparton","municipality":"City of Greater Shepparton","state":"Victoria","ISO3166-2-lvl4":"AU-VIC","country":"Australia","country_code":"au"},"population":49862,"osm_type":"node","osm_id":2292243210,"type":"city","location":[145.3988874,-36.3831633],"bbox":[145.2388874,-36.5431633,145.5588874,-36.2231633],"border":{"name":"Shepparton","other_names":{"name:en":"Shepparton","name:ja":"シェパートン","name:ru":"Шеппартон","name:zh":"谢珀顿"},"display_name":"Shepparton, City of Greater Shepparton, Victoria, 3630, Australia","address":{"city":"Shepparton","municipality":"City of Greater Shepparton","state":"Victoria","ISO3166-2-lvl4":"AU-VIC","postcode":"3630","country":"Australia","country_code":"au"},"population":49862,"osm_type":"relation","osm_id":2503027,"type":"administrative","location":[145.3988874,-36.3831633],"bbox":[145.35191,-36.426068,145.431934,-36.32072]}}
{"name":"Sunshine Coast","other_names":{"name:en":"Sunshine Coast","name:ja":"サンシャインコースト","name:ko":"선샤인 코스트","name:mk":"сончев брег","name:ru":"солнечное побережье","name:uk":"сонячний берег","name:zh":"阳光海岸"},"display_name":"Sunshine Coast, Sunshine Coast Regional, Queensland, Australia","address":{"city":"Sunshine Coast","municipality":"Sunshine Coast Regional","state":"Queensland","ISO3166-2-lvl4":"AU-QLD","country":"Australia","country_code":"au"},"population":284131,"osm_type":"node","osm_id":9489623578,"type":"city","location":[153.0933668,-26.6544338],"bbox":[152.9333668,-26.8144338,153.2533668,-26.4944338],"border":{"name":"Sunshine Coast Regional","other_names":{"name:en":"Sunshine Coast Regional","short_name":"Sunshine Coast","name:ja":"サンシャインコースト","name:ko":"선샤인 코스트","name:mk":"сончев брег","name:ru":"солнечное побережье","name:uk":"сонячний берег","name:zh":"阳光海岸","alt":"Sunshine Coast","alt:en":"Sunshine Coast"},"display_name":"Sunshine Coast Regional, Queensland, Australia","address":{"municipality":"Sunshine Coast Regional","state":"Queensland","ISO3166-2-lvl4":"AU-QLD","country":"Australia","country_code":"au"},"population":284131,"osm_type":"relation","osm_id":11675192,"type":"administrative","location":[153.0933668,-26.6544338],"bbox":[152.551107,-26.984787,153.150795,-26.431058]}}
{"name":"Sydney","other_names":{"name:ab":"Сиднеи","name:am":"ሲድኒ","name:ar":"سيدني","name:as":"ছিডনী","name:ay":"Sidni","name:az":"Sidney","name:ba":"Сидней","name:be":"Сіднэй","name:bg":"Сидни","name:bh":"सिडनी","name:bi":"Sidni","name:bn":"সিডনি","name:bo":"སིད་ནེ།","name:ce":"Сидней","name:ch":"Sidni","name:cv":"Сидней","name:de":"Sydney","name:el":"Σίδνεϊ","name:en":"Sydney","name:eo":"Sidnejo","name:es":"Sídney","name:fa":"سیدنی","name:fj":"Serene","name:fr":"Sydney","name:gn":"Sínei","name:gu":"સીડની","name:he":"סידני","name:hi":"सिड्णि","name:ht":"Sidnè","name:hy":"Սիդնեյ","name:is":"Sydney","name:iu":"ᓯᑦᓂ","name:ja":"シドニー","name:ka":"სიდნეი","name:kk":"Сидней","name:km":"ស៊ីដនីយ៏","name:kn":"ಸಿಡ್ಣಿ","name:ko":"시드니","name:ku":"Sîdney","name:la":"Sydneium","name:lt":"Sidnėjus","name:lv":"Sidneja","name:mi":"Poihākena","name:mk":"Сиднеј","name:ml":"സിഡ്നി","name:mn":"Сидней","name:mr":"सिडनी","name:my":"ဆစ်ဒနီမြို့","name:ne":"सिड्नी","name:oc":"Sydney","name:om":"Siidnii","name:os":"Сидней","name:pa":"ਸਿਡਨੀ","name:pl":"Sydney","name:ps":"سیډني","name:ru":"Сидней","name:sa":"सिडनी","name:sd":"سڊني","name:si":"සිඩ්නි","name:sm":"Sini","name:sq":"Sidnej","name:sr":"Сиднеј","name:sv":"Sydney","name:ta":"சிட்னி","name:te":"సిడ్నీ","name:tg":"Сидней","name:th":"ซิดนีย์","name:tk":"Sidneý","name:tl":"Sidney","name:to":"Senē","name:tr":"Sidney","name:tt":"Сидней","name:ty":"Tene","name:ug":"Sidnéy","name:uk":"Сідней","name:ur":"سڈنی","name:uz":"Sidney","name:xh":"Sidni","name:yi":"סידני","name:zh":"悉尼","name:xdk":"Gadigal","alt_name:xdk":"Warrane","name:zh-Hans-CN":"悉尼","name:zh-Hant-TW":"雪梨"},"display_name":"Sydney, Council of the City of Sydney, New South Wales, Australia","address":{"city":"Sydney","municipality":"Council of the City of Sydney","state":"New South Wales","ISO3166-2-lvl4":"AU-NSW","country":"Australia","country_code":"au"},"population":4698656,"osm_type":"node","osm_id":13766899,"type":"city","location":[151.2082848,-33.8698439],"bbox":[151.0482848,-34.0298439,151.3682848,-33.7098439],"border":[{"name":"Council of the City of Sydney","other_names":{"name:en":"Council of the City of Sydney","alt_name":"Sydney City Council","short_name":"Sydney"},"display_name":"Council of the City of Sydney, New South Wales, Australia","address":{"municipality":"Council of the City of Sydney","state":"New South Wales","ISO3166-2-lvl4":"AU-NSW","country":"Australia","country_code":"au"},"population":169505,"osm_type":"relation","osm_id":1251066,"type":"administrative","location":[151.20503966100273,-33.8890382],"bbox":[151.1748638,-33.9243832,151.2330104,-33.8535997]},{"name":"Sydney","other_names":{"name:en":"Sydney","name:eo":"Sidnejo","name:ko":"시드니","name:mi":"Poihākena","name:mk":"Сиднеј","name:ab":"Сиднеи","name:am":"ሲድኒ","name:ar":"سيدني","name:as":"ছিডনী","name:ay":"Sidni","name:az":"Sidney","name:ba":"Сидней","name:be":"Сіднэй","name:bg":"Сидни","name:bh":"सिडनी","name:bi":"Sidni","name:bn":"সিডনি","name:bo":"སིད་ནེ།","name:ce":"Сидней","name:ch":"Sidni","name:cv":"Сидней","name:de":"Sydney","name:el":"Σίδνεϊ","name:es":"Sídney","name:fa":"سیدنی","name:fj":"Serene","name:fr":"Sydney","name:gn":"Sínei","name:gu":"સીડની","name:he":"סידני","name:hi":"सिड्णि","name:ht":"Sidnè","name:hy":"Սիդնեյ","name:is":"Sydney","name:iu":"ᓯᑦᓂ","name:ja":"シドニー","name:ka":"სიდნეი","name:kk":"Сидней","name:km":"ស៊ីដនីយ៏","name:kn":"ಸಿಡ್ಣಿ","name:ku":"Sîdney","name:la":"Sydneium","name:lt":"Sidnėjus","name:lv":"Sidneja","name:ml":"സിഡ്നി","name:mn":"Сидней","name:mr":"सिडनी","name:my":"ဆစ်ဒနီမြို့","name:ne":"सिड्नी","name:oc":"Sydney","name:om":"Siidnii","name:os":"Сидней","name:pa":"ਸਿਡਨੀ","name:pl":"Sydney","name:ps":"سیډني","name:ru":"Сидней","name:sa":"सिडनी","name:sd":"سڊني","name:si":"සිඩ්නි","name:sm":"Sini","name:sq":"Sidnej","name:sr":"Сиднеј","name:sv":"Sydney","name:ta":"சிட்னி","name:te":"సిడ్నీ","name:tg":"Сидней","name:th":"ซิดนีย์","name:tk":"Sidneý","name:tl":"Sidney","name:to":"Senē","name:tr":"Sidney","name:tt":"Сидней","name:ty":"Tene","name:ug":"Sidnéy","name:uk":"Сідней","name:ur":"سڈنی","name:uz":"Sidney","name:xh":"Sidni","name:yi":"סידני","name:zh":"悉尼","name:xdk":"Gadigal","name:zh-Hans-CN":"悉尼","name:zh-Hant-HK":"悉尼","name:zh-Hant-TW":"雪梨","alt_name:xdk":"Warrane"},"display_name":"Sydney, Council of the City of Sydney, New South Wales, Australia","address":{"city":"Sydney","municipality":"Council of the City of Sydney","state":"New South Wales","ISO3166-2-lvl4":"AU-NSW","country":"Australia","country_code":"au"},"population":4840600,"osm_type":"relation","osm_id":5750005,"type":"administrative","location":[151.2082848,-33.8698439],"bbox":[150.260825,-34.1732416,151.343898,-33.3641864]},{"name":"Sydney","other_names":{"name:en":"Sydney","loc_name":"City"},"display_name":"Sydney, Council of the City of Sydney, New South Wales, 2000, Australia","address":{"suburb":"Sydney","city":"Sydney","municipality":"Council of the City of Sydney","state":"New South Wales","ISO3166-2-lvl4":"AU-NSW","postcode":"2000","country":"Australia","country_code":"au"},"osm_type":"relation","osm_id":5729534,"type":"administrative","location":[151.2101348240446,-33.867952599999995],"bbox":[151.1970047,-33.8797755,151.223011,-33.8561096]}]}
{"name":"Tamworth","other_names":{"name:en":"Tamworth","name:ja":"タムワース","name:ru":"Тамуэрт"},"display_name":"Tamworth, Tamworth Regional Council, New South Wales, 2340, Australia","address":{"city":"Tamworth","municipality":"Tamworth Regional Council","state":"New South Wales","ISO3166-2-lvl4":"AU-NSW","postcode":"2340","country":"Australia","country_code":"au"},"population":35415,"osm_type":"node","osm_id":114638747,"type":"city","location":[150.9290159,-31.0900743],"bbox":[150.7690159,-31.2500743,151.0890159,-30.9300743],"border":[{"name":"Tamworth Regional Council","other_names":{"name:en":"Tamworth Regional Council","alt_name":"Tamworth Regional Council","short_name":"Tamworth"},"display_name":"Tamworth Regional Council, New South Wales, Australia","address":{"municipality":"Tamworth Regional Council","state":"New South Wales","ISO3166-2-lvl4":"AU-NSW","country":"Australia","country_code":"au"},"osm_type":"relation","osm_id":6365595,"type":"administrative","location":[150.90985641264137,-30.9220482],"bbox":[150.1454523,-31.6618528,151.4845843,-30.1822332]},{"name":"Tamworth","display_name":"Tamworth, Tamworth Regional Council, New South Wales, 2340, Australia","address":{"locality":"Tamworth","municipality":"Tamworth Regional Council","state":"New South Wales","ISO3166-2-lvl4":"AU-NSW","postcode":"2340","country":"Australia","country_code":"au"},"osm_type":"relation","osm_id":6063806,"type":"administrative","location":[150.9304731,-31.0904396],"bbox":[150.9233098,-31.1019502,150.9413105,-31.0840371]}]}
{"name":"Taree","other_names":{"name:ja":"タリー"},"display_name":"Taree, Mid-Coast Council, New South Wales, Australia","address":{"city":"Taree","municipality":"Mid-Coast Council","state":"New South Wales","ISO3166-2-lvl4":"AU-NSW","country":"Australia","country_code":"au"},"population":18110,"osm_type":"node","osm_id":17150221,"type":"city","location":[152.4608481,-31.912864],"bbox":[152.3008481,-32.072864,152.6208481,-31.752864],"border":{"name":"Taree","other_names":{"name:en":"Taree","name:ja":"タリー"},"display_name":"Taree, Mid-Coast Council, New South Wales, 2430, Australia","address":{"city":"Taree","municipality":"Mid-Coast Council","state":"New South Wales","ISO3166-2-lvl4":"AU-NSW","postcode":"2430","country":"Australia","country_code":"au"},"population":18110,"osm_type":"relation","osm_id":6063808,"type":"administrative","location":[152.4608481,-31.912864],"bbox":[152.3993828,-31.9383293,152.5115372,-31.845005]}}
{"name":"Toowoomba","other_names":{"name:en":"Toowoomba","name:ja":"トゥーンバ","name:ru":"Тувумба","name:zh":"图文巴"},"display_name":"Toowoomba, Toowoomba Regional, Queensland, 4350, Australia","address":{"city":"Toowoomba","municipality":"Toowoomba Regional","state":"Queensland","ISO3166-2-lvl4":"AU-QLD","postcode":"4350","country":"Australia","country_code":"au"},"population":108398,"osm_type":"node","osm_id":19949789,"type":"city","location":[151.953351,-27.5610193],"bbox":[151.793351,-27.7210193,152.113351,-27.4010193],"border":{"name":"Toowoomba Regional","other_names":{"name:en":"Toowoomba Regional","short_name":"Toowoomba"},"display_name":"Toowoomba Regional, Queensland, Australia","address":{"municipality":"Toowoomba Regional","state":"Queensland","ISO3166-2-lvl4":"AU-QLD","country":"Australia","country_code":"au"},"osm_type":"relation","osm_id":11675821,"type":"administrative","location":[151.52054668455162,-27.479261],"bbox":[150.702672,-28.192336,152.26999,-26.766807]}}
{"name":"Townsville","other_names":{"name:en":"Townsville","name:ja":"タウンズビル","name:ru":"Таунсвилл","name:zh":"汤斯维尔"},"display_name":"Townsville, Townsville City, Queensland, 4810, Australia","address":{"city":"Townsville","municipality":"Townsville City","state":"Queensland","ISO3166-2-lvl4":"AU-QLD","postcode":"4810","country":"Australia","country_code":"au"},"population":173724,"osm_type":"node","osm_id":31446304,"type":"city","location":[146.8239537,-19.2569391],"bbox":[146.6639537,-19.4169391,146.9839537,-19.0969391],"border":{"name":"Townsville City","other_names":{"name:en":"Townsville City","short_name":"Townsville"},"display_name":"Townsville City, Queensland, Australia","address":{"municipality":"Townsville City","state":"Queensland","ISO3166-2-lvl4":"AU-QLD","country":"Australia","country_code":"au"},"osm_type":"relation","osm_id":11676862,"type":"administrative","location":[146.80360468522258,-19.3502845],"bbox":[146.144594,-19.784958,147.4753249,-18.915116]}}
{"name":"Traralgon","other_names":{"name:en":"Traralgon","name:ja":"トララルゴン","name:ru":"Траралгон"},"display_name":"Traralgon, City of Latrobe, Victoria, Australia","address":{"city":"Traralgon","municipality":"City of Latrobe","state":"Victoria","ISO3166-2-lvl4":"AU-VIC","country":"Australia","country_code":"au"},"population":27628,"osm_type":"node","osm_id":2324019453,"type":"city","location":[146.5381646,-38.1946636],"bbox":[146.3781646,-38.3546636,146.6981646,-38.0346636],"border":{"name":"Traralgon","other_names":{"name:en":"Traralgon","name:ja":"トララルゴン","name:ru":"Траралгон"},"display_name":"Traralgon, City of Latrobe, Victoria, 3844, Australia","address":{"city":"Traralgon","municipality":"City of Latrobe","state":"Victoria","ISO3166-2-lvl4":"AU-VIC","postcode":"3844","country":"Australia","country_code":"au"},"population":23834,"osm_type":"relation","osm_id":2607974,"type":"administrative","location":[146.5381646,-38.1946636],"bbox":[146.464222,-38.250771,146.564709,-38.153106]}}
{"name":"Wagga Wagga","other_names":{"name:ja":"ウォガウォガ","name:ru":"Уогга-Уогга","name:zh":"沃加沃加"},"display_name":"Wagga Wagga, Wagga Wagga City Council, New South Wales, Australia","address":{"city":"Wagga Wagga","municipality":"Wagga Wagga City Council","state":"New South Wales","ISO3166-2-lvl4":"AU-NSW","country":"Australia","country_code":"au"},"population":49686,"osm_type":"node","osm_id":113724008,"type":"city","location":[147.3677778,-35.115],"bbox":[147.2077778,-35.275,147.5277778,-34.955],"border":[{"name":"Wagga Wagga City Council","other_names":{"name:en":"Wagga Wagga City Council","alt_name":"Wagga Wagga City Council","short_name":"Wagga Wagga","name:ja":"ウォガウォガ","name:ru":"Уогга-Уогга","name:zh":"沃加沃加","alt":"Wagga Wagga"},"display_name":"Wagga Wagga City Council, New South Wales, Australia","address":{"municipality":"Wagga Wagga City Council","state":"New South Wales","ISO3166-2-lvl4":"AU-NSW","country":"Australia","country_code":"au"},"population":49686,"osm_type":"relation","osm_id":6247060,"type":"administrative","location":[147.3677778,-35.115],"bbox":[146.7787801,-35.5636245,147.9314555,-34.8081185]},{"name":"Wagga Wagga","other_names":{"name:en":"Wagga Wagga","name:zh":"沃加沃加"},"display_name":"Wagga Wagga, Wagga Wagga City Council, New South Wales, 2650, Australia","address":{"city":"Wagga Wagga","state":"New South Wales","ISO3166-2-lvl4":"AU-NSW","postcode":"2650","country":"Australia","country_code":"au"},"osm_type":"relation","osm_id":5914430,"type":"administrative","location":[147.3677967,-35.1152627],"bbox":[147.3383759,-35.1252154,147.3828201,-35.0880627]}]}
{"name":"Warrnambool","display_name":"Warrnambool, City of Warrnambool, Victoria, Australia","address":{"city":"Warrnambool","municipality":"City of Warrnambool","state":"Victoria","ISO3166-2-lvl4":"AU-VIC","country":"Australia","country_code":"au"},"population":32894,"osm_type":"node","osm_id":2321683713,"type":"city","location":[142.4814199,-38.3826242],"bbox":[142.3214199,-38.5426242,142.6414199,-38.2226242],"border":{"name":"Warrnambool","display_name":"Warrnambool, City of Warrnambool, Victoria, 3280, Australia","address":{"city":"Warrnambool","municipality":"City of Warrnambool","state":"Victoria","ISO3166-2-lvl4":"AU-VIC","postcode":"3280","country":"Australia","country_code":"au"},"population":29284,"osm_type":"relation","osm_id":3161053,"type":"administrative","location":[142.4814199,-38.3826242],"bbox":[142.436284,-38.413167,142.557256,-38.326496]}}
{"name":"Warwick","other_names":{"name:en":"Warwick","name:ja":"ウォリック","name:ru":"Уорик","name:uk":"Ворік"},"display_name":"Warwick, Southern Downs Regional, Queensland, Australia","address":{"city":"Warwick","municipality":"Southern Downs Regional","state":"Queensland","ISO3166-2-lvl4":"AU-QLD","country":"Australia","country_code":"au"},"population":14110,"osm_type":"node","osm_id":1817489924,"type":"city","location":[152.0327039,-28.2163204],"bbox":[151.8727039,-28.3763204,152.1927039,-28.0563204],"border":{"name":"Warwick","other_names":{"name:en":"Warwick","name:ja":"ウォリック","name:ru":"Уорик","name:uk":"Ворік"},"display_name":"Warwick, Southern Downs Regional, Queensland, 4370, Australia","address":{"city":"Warwick","municipality":"Southern Downs Regional","state":"Queensland","ISO3166-2-lvl4":"AU-QLD","postcode":"4370","country":"Australia","country_code":"au"},"population":14110,"osm_type":"relation","osm_id":11675906,"type":"administrative","location":[152.0327039,-28.2163204],"bbox":[151.986143,-28.241924,152.058207,-28.191465]}}
{"name":"Whyalla","other_names":{"name:en":"Whyalla","name:ja":"ワイアラ","name:ru":"Уайалла","name:uk":"Вайалла"},"display_name":"Whyalla, The Corporation of the City of Whyalla, South Australia, Australia","address":{"city":"Whyalla","municipality":"The Corporation of the City of Whyalla","state":"South Australia","ISO3166-2-lvl4":"AU-SA","country":"Australia","country_code":"au"},"population":20880,"osm_type":"node","osm_id":253010604,"type":"city","location":[137.5843572,-33.0382085],"bbox":[137.4243572,-33.1982085,137.7443572,-32.8782085],"border":[{"name":"The Corporation of the City of Whyalla","other_names":{"name:en":"The Corporation of the City of Whyalla","short_name":"Whyalla"},"display_name":"The Corporation of the City of Whyalla, South Australia, Australia","address":{"municipality":"The Corporation of the City of Whyalla","state":"South Australia","ISO3166-2-lvl4":"AU-SA","country":"Australia","country_code":"au"},"osm_type":"relation","osm_id":9108326,"type":"administrative","location":[137.43236641576323,-33.040891450000004],"bbox":[137.2788042,-33.3259116,137.816129,-32.755601]},{"name":"Whyalla","other_names":{"name:en":"Whyalla","name:ja":"ワイアラ","name:ru":"Уайалла","name:uk":"Вайалла"},"display_name":"Whyalla, The Corporation of the City of Whyalla, South Australia, 5600, Australia","address":{"city":"Whyalla","municipality":"The Corporation of the City of Whyalla","state":"South Australia","ISO3166-2-lvl4":"AU-SA","postcode":"5600","country":"Australia","country_code":"au"},"population":20880,"osm_type":"relation","osm_id":6282052,"type":"administrative","location":[137.5843572,-33.0382085],"bbox":[137.5629333,-33.0762798,137.594691,-33.0245128]}]}
{"name":"Wodonga","other_names":{"name:ja":"ウォドンガ"},"display_name":"Wodonga, City of Wodonga, Victoria, Australia","address":{"city":"Wodonga","municipality":"City of Wodonga","state":"Victoria","ISO3166-2-lvl4":"AU-VIC","country":"Australia","country_code":"au"},"population":37839,"osm_type":"node","osm_id":9941465039,"type":"city","location":[146.8880837,-36.1205539],"bbox":[146.7280837,-36.2805539,147.0480837,-35.9605539],"border":[{"name":"City of Wodonga","other_names":{"name:en":"City of Wodonga","alt_name":"Wodonga City Council","old_name":"Rural City of Wodonga","short_name":"Wodonga"},"display_name":"City of Wodonga, Victoria, 3690, Australia","address":{"municipality":"City of Wodonga","state":"Victoria","ISO3166-2-lvl4":"AU-VIC","postcode":"3690","country":"Australia","country_code":"au"},"population":35519,"osm_type":"relation","osm_id":3365492,"type":"administrative","location":[146.9119086779661,-36.144714],"bbox":[146.686345,-36.259628,147.0744,-36.029766]},{"name":"Wodonga","other_names":{"name:en":"Wodonga","name:ja":"ウォドンガ"},"display_name":"Wodonga, City of Wodonga, Victoria, 3690, Australia","address":{"city":"Wodonga","municipality":"City of Wodonga","state":"Victoria","ISO3166-2-lvl4":"AU-VIC","postcode":"3690","country":"Australia","country_code":"au"},"population":20259,"osm_type":"relation","osm_id":2377502,"type":"administrative","location":[146.8880837,-36.1205539],"bbox":[146.841607,-36.178675,146.923246,-36.0729082]}]}
{"name":"Wollongong","other_names":{"name:bn":"ওলংগং","name:ja":"ウロンゴン","name:lt":"Vulongongas","name:mk":"Волонгонг","name:ru":"Вуллонгонг","name:zh":"卧龙岗","loc_name":"The Gong"},"display_name":"Wollongong, Wollongong City Council, New South Wales, Australia","address":{"city":"Wollongong","municipality":"Wollongong City Council","state":"New South Wales","ISO3166-2-lvl4":"AU-NSW","country":"Australia","country_code":"au"},"population":280153,"osm_type":"node","osm_id":20920968,"type":"city","location":[150.89385,-34.4243941],"bbox":[150.73385,-34.5843941,151.05385,-34.2643941],"border":[{"name":"Wollongong City Council","other_names":{"name:en":"Wollongong City Council","alt_name":"Wollongong City Council","short_name":"Wollongong","name:bn":"ওলংগং","name:ja":"ウロンゴン","name:lt":"Vulongongas","name:mk":"Волонгонг","name:ru":"Вуллонгонг","name:zh":"卧龙岗","loc_name":"The Gong","alt":"Wollongong"},"display_name":"Wollongong City Council, New South Wales, Australia","address":{"municipality":"Wollongong City Council","state":"New South Wales","ISO3166-2-lvl4":"AU-NSW","country":"Australia","country_code":"au"},"population":280153,"osm_type":"relation","osm_id":6303077,"type":"administrative","location":[150.89385,-34.4243941],"bbox":[150.6351001,-34.5537423,151.0665796,-34.1300239]},{"name":"Wollongong","display_name":"Wollongong, Wollongong City Council, New South Wales, 2500, Australia","address":{"suburb":"Wollongong","city":"Wollongong City Council","state":"New South Wales","ISO3166-2-lvl4":"AU-NSW","postcode":"2500","country":"Australia","country_code":"au"},"osm_type":"relation","osm_id":6076763,"type":"administrative","location":[150.893054,-34.4278083],"bbox":[150.8750698,-34.4429563,150.9110471,-34.4135598]}]}
