{"name":"Belize City","other_names":{"name:de":"Belize Stadt","name:es":"Ciudad de Belice","name:fr":"Belize","name:hu":"Belize City","name:lt":"Belizas","name:oc":"Belize","name:uk":"Беліз"},"display_name":"Belize City, Belize District, Belize","address":{"city":"Belize City","state":"Belize District","ISO3166-2-lvl4":"BZ-BZ","country":"Belize","country_code":"bz"},"population":63999,"osm_type":"node","osm_id":282297046,"type":"city","location":[-88.1988737,17.5002768],"bbox":[-88.3588737,17.3402768,-88.0388737,17.6602768],"border":{"name":"Belize City","other_names":{"name:en":"Belize City","name:de":"Belize Stadt","name:es":"Ciudad de Belice","name:fr":"Belize","name:hu":"Belize City","name:lt":"Belizas","name:oc":"Belize","name:uk":"Беліз"},"display_name":"Belize City, Belize District, Belize","address":{"city":"Belize City","state":"Belize District","ISO3166-2-lvl4":"BZ-BZ","country":"Belize","country_code":"bz"},"population":63999,"osm_type":"relation","osm_id":14902774,"type":"administrative","location":[-88.1988737,17.5002768],"bbox":[-88.2858391,17.4514956,-88.1809081,17.5610507]}}
{"name":"Belmopan","other_names":{"name:am":"ቤልሞፓን","name:ar":"بلموبان","name:be":"Бельмапан","name:bg":"Белмопан","name:bo":"པེར་མོ་ཕན།","name:ca":"Belmopan","name:de":"Belmopan","name:el":"Μπελμοπάν","name:en":"Belmopan","name:eo":"Belmopano","name:es":"Belmopán","name:fa":"بلموپان","name:fr":"Belmopan","name:gl":"Belmopán","name:he":"בלמופן","name:hi":"बेल्मोपान","name:ht":"Bèlmopan","name:hu":"Belmopan","name:hy":"Բելմոպան","name:is":"Belmópan","name:ja":"ベルモパン","name:ka":"ბელმოპანი","name:ko":"벨모판","name:ku":"Belmopan","name:la":"Belmopanum","name:lt":"Belmopanas","name:lv":"Belmopana","name:mk":"Белмопан","name:mr":"बेल्मोपान","name:oc":"Belmopán","name:pl":"Belmopan","name:ru":"Бельмопан","name:sr":"Белмопан","name:sv":"Belmopan","name:ta":"பெல்மோப்பான்","name:th":"เบลโมแพน","name:tr":"Belmopán","name:uk":"Бельмопан","name:zh":"贝尔莫潘 / 貝爾墨潘","name:ace":"Bèlmopan","name:ckb":"بێلمۆپان","name:frp":"Bèlmopan","name:sah":"Белмопан","name:zh-Hans":"贝尔莫潘","name:zh-Hant":"貝爾墨潘","name:be-tarask":"Бэльмапан"},"display_name":"Belmopan, Cayo District, Belize","address":{"city":"Belmopan","state":"Cayo District","ISO3166-2-lvl4":"BZ-CY","country":"Belize","country_code":"bz"},"population":20754,"osm_type":"node","osm_id":282294082,"type":"city","location":[-88.770018,17.250199],"bbox":[-88.930018,17.090199,-88.610018,17.410199],"border":{"name":"Belmopan","other_names":{"name:ca":"Belmopan","name:en":"Belmopan","name:zh":"贝尔莫潘 / 貝爾墨潘","name:zh-Hans":"贝尔莫潘","name:zh-Hant":"貝爾墨潘","name:am":"ቤልሞፓን","name:ar":"بلموبان","name:be":"Бельмапан","name:bg":"Белмопан","name:bo":"པེར་མོ་ཕན།","name:de":"Belmopan","name:el":"Μπελμοπάν","name:eo":"Belmopano","name:es":"Belmopán","name:fa":"بلموپان","name:fr":"Belmopan","name:gl":"Belmopán","name:he":"בלמופן","name:hi":"बेल्मोपान","name:ht":"Bèlmopan","name:hu":"Belmopan","name:hy":"Բելմոպան","name:is":"Belmópan","name:ja":"ベルモパン","name:ka":"ბელმოპანი","name:ko":"벨모판","name:ku":"Belmopan","name:la":"Belmopanum","name:lt":"Belmopanas","name:lv":"Belmopana","name:mk":"Белмопан","name:mr":"बेल्मोपान","name:oc":"Belmopán","name:pl":"Belmopan","name:ru":"Бельмопан","name:sr":"Белмопан","name:sv":"Belmopan","name:ta":"பெல்மோப்பான்","name:th":"เบลโมแพน","name:tr":"Belmopán","name:uk":"Бельмопан","name:ace":"Bèlmopan","name:ckb":"بێلمۆپان","name:frp":"Bèlmopan","name:sah":"Белмопан","name:be-tarask":"Бэльмапан"},"display_name":"Belmopan, Cayo District, Belize","address":{"city":"Belmopan","state":"Cayo District","ISO3166-2-lvl4":"BZ-CY","country":"Belize","country_code":"bz"},"population":22,"osm_type":"relation","osm_id":10331791,"type":"administrative","location":[-88.770018,17.250199],"bbox":[-88.7996415,17.2190934,-88.7327618,17.2767753]}}
{"name":"San Ignacio & Santa Elena","other_names":{"alt_name":"Cayo"},"display_name":"San Ignacio & Santa Elena, Cayo District, Belize","address":{"city":"San Ignacio & Santa Elena","state":"Cayo District","ISO3166-2-lvl4":"BZ-CY","country":"Belize","country_code":"bz"},"population":21111,"osm_type":"node","osm_id":9738788310,"type":"city","location":[-89.0681672,17.1582776],"bbox":[-89.2281672,16.9982776,-88.9081672,17.3182776],"border":{"name":"San Ignacio & Santa Elena","other_names":{"name:en":"San Ignacio & Santa Elena","alt_name":"Cayo"},"display_name":"San Ignacio & Santa Elena, Cayo District, Belize","address":{"city":"San Ignacio & Santa Elena","state":"Cayo District","ISO3166-2-lvl4":"BZ-CY","country":"Belize","country_code":"bz"},"population":17878,"osm_type":"relation","osm_id":14097409,"type":"administrative","location":[-89.0681672,17.1582776],"bbox":[-89.1085715,17.1235632,-89.036512,17.1865915]}}
