{"name":"Bandar Seri Begawan","other_names":{"name:am":"ባንዳር ሰሪ ቤጋዋን","name:ar":"بندر سري بكاوان","name:az":"Bandar Seri Begavan","name:be":"Бандар-Серы-Бегаван","name:bg":"Бандар Сери Бегаван","name:bn":"বন্দর সেরি বেগাওয়ান","name:bo":"སི་རི་པེ་ཀ་མཚོ་ཁུགས་གྲོང་ཁྱེར​།","name:ca":"Bandar Seri Begawan","name:de":"Bandar Seri Begawan","name:el":"Μπαντάρ Σερί Μπεγκαβάν","name:en":"Bandar Seri Begawan","name:eo":"Bandar-Seri-Begavano","name:es":"Bandar Seri Begawan","name:eu":"Bandar Seri Begawan","name:fa":"بندر سری بگاوان","name:fr":"Bandar Seri Begawan","name:fy":"Bandar Sery Begawan","name:he":"בנדר סרי בגוואן","name:ht":"Banda Seri","name:hu":"Bandar Seri Begawan","name:hy":"Բանդար Սերի Բեգավան","name:is":"Bandar Seri Begawan","name:ja":"バンダルスリブガワン","name:ka":"ბანდარ-სერი-ბეგავანი","name:ko":"반다르스리브가완","name:ky":"Бандар-Сери-Бегаван","name:lt":"Bandar Seri Begavanas","name:lv":"Bandarseribegavana","name:mk":"Бандар Сери Бегаван","name:mn":"Бандар Сери Бегаван","name:mr":"बंदर स्री बगवान","name:my":"ဘန်ဒါဆရီဘဂါဝမ်မြို့","name:os":"Бандар-Сери-Бегаван","name:pl":"Bandar Seri Begawan","name:ru":"Бандар-Сери-Бегаван","name:sr":"Бандар Сери Бегаван","name:sv":"Bandar Seri Begawan","name:ta":"பண்டர் செரி பெகாவான்","name:tg":"Бандар-Сери-Бегаван","name:th":"บันดาร์เสรีเบกาวัน","name:tr":"Bandar Seri Begavan","name:tt":"Бандар-Сери-Бегаван","name:ug":"باندار سەرى بەگاۋان","name:uk":"Бандар-Сері-Бегаван","name:ur":"بندر سری بگاوان","name:zh":"斯里巴加湾市","name:ckb":"بەندەر سێری بێگاوان","name:kab":"Bandar Seri Begawan","name:pnb":"بندر سری بیگوان","name:zh-Hans":"斯里巴加湾市","name:zh-Hant":"斯里巴加灣市","name:be-tarask":"Бандар-Сэры-Бэгаван"},"display_name":"Bandar Seri Begawan, Mukim Kianggeh, Brunei-Muara, Brunei","address":{"city":"Bandar Seri Begawan","municipality":"Bandar Seri Begawan","subdistrict":"Mukim Kianggeh","district":"Brunei-Muara","ISO3166-2-lvl4":"BN-BM","country":"Brunei","country_code":"bn"},"population":50000,"osm_type":"node","osm_id":1699083598,"type":"city","location":[114.9417574,4.8895453],"bbox":[114.7817574,4.7295453,115.1017574,5.0495453],"border":{"name":"Bandar Seri Begawan","other_names":{"name:ms":"Bandar Seri Begawan","name:am":"ባንዳር ሰሪ ቤጋዋን","name:ar":"بندر سري بكاوان","name:az":"Bandar Seri Begavan","name:be":"Бандар-Серы-Бегаван","name:bg":"Бандар Сери Бегаван","name:bn":"বন্দর সেরি বেগাওয়ান","name:bo":"སི་རི་པེ་ཀ་མཚོ་ཁུགས་གྲོང་ཁྱེར​།","name:ca":"Bandar Seri Begawan","name:de":"Bandar Seri Begawan","name:el":"Μπαντάρ Σερί Μπεγκαβάν","name:en":"Bandar Seri Begawan","name:eo":"Bandar-Seri-Begavano","name:es":"Bandar Seri Begawan","name:eu":"Bandar Seri Begawan","name:fa":"بندر سری بگاوان","name:fr":"Bandar Seri Begawan","name:fy":"Bandar Sery Begawan","name:he":"בנדר סרי בגוואן","name:ht":"Banda Seri","name:hu":"Bandar Seri Begawan","name:hy":"Բանդար Սերի Բեգավան","name:is":"Bandar Seri Begawan","name:ja":"バンダルスリブガワン","name:ka":"ბანდარ-სერი-ბეგავანი","name:ko":"반다르스리브가완","name:ky":"Бандар-Сери-Бегаван","name:lt":"Bandar Seri Begavanas","name:lv":"Bandarseribegavana","name:mk":"Бандар Сери Бегаван","name:mn":"Бандар Сери Бегаван","name:mr":"बंदर स्री बगवान","name:my":"ဘန်ဒါဆရီဘဂါဝမ်မြို့","name:os":"Бандар-Сери-Бегаван","name:pl":"Bandar Seri Begawan","name:ru":"Бандар-Сери-Бегаван","name:sr":"Бандар Сери Бегаван","name:sv":"Bandar Seri Begawan","name:ta":"பண்டர் செரி பெகாவான்","name:tg":"Бандар-Сери-Бегаван","name:th":"บันดาร์เสรีเบกาวัน","name:tr":"Bandar Seri Begavan","name:tt":"Бандар-Сери-Бегаван","name:ug":"باندار سەرى بەگاۋان","name:uk":"Бандар-Сері-Бегаван","name:ur":"بندر سری بگاوان","name:zh":"斯里巴加湾市","name:ckb":"بەندەر سێری بێگاوان","name:kab":"Bandar Seri Begawan","name:pnb":"بندر سری بیگوان","name:zh-Hans":"斯里巴加湾市","name:zh-Hant":"斯里巴加灣市","name:be-tarask":"Бандар-Сэры-Бэгаван"},"display_name":"Bandar Seri Begawan, Mukim Kianggeh, Brunei-Muara, Brunei","address":{"municipality":"Bandar Seri Begawan","subdistrict":"Mukim Kianggeh","district":"Brunei-Muara","ISO3166-2-lvl4":"BN-BM","country":"Brunei","country_code":"bn"},"population":50000,"osm_type":"relation","osm_id":8748136,"type":"administrative","location":[114.9417574,4.8895453],"bbox":[114.8692747,4.842263,115.0047012,4.9684271]}}
