{"name":"BokÃ©","other_names":{"name:fr":"BokÃ©","name:ko":"ë³´ì¼€","name:ru":"Ğ‘Ğ¾ĞºĞµ"},"display_name":"BokÃ©, BokÃ©-Centre, BokÃ©, GuinÃ©e","address":{"city":"BokÃ©","state":"BokÃ©","ISO3166-2-lvl4":"GN-B","country":"GuinÃ©e","country_code":"gn"},"osm_type":"node","osm_id":1847720468,"type":"city","location":[-14.2760635,10.952242],"bbox":[-14.4360635,10.792242,-14.1160635,11.112242]}
{"name":"Conakry","other_names":{"name:ar":"ÙƒÙˆÙ†Ø§ÙƒØ±ÙŠ","name:bn":"à¦•à§‹à¦¨à¦¾à¦•à§à¦°à¦¿","name:bo":"à½€à½¼à¼‹à½“à½€à¼‹à½¢à½²à¼","name:br":"Conakry","name:ca":"Conakry","name:de":"Conakry","name:el":"ÎšÎ¿Î½Î±ÎºÏÎ¯","name:en":"Conakry","name:es":"Conakri","name:fa":"Ú©ÙˆÙ†Ø§Ú©Ø±ÛŒ","name:fr":"Conakry","name:he":"×§×•× ××§×¨×™","name:hu":"Conakry","name:hy":"Ô¿Õ¸Õ¶Õ¡Õ¯Ö€Õ«","name:is":"KÃ³nakrÃ­","name:it":"Conakry","name:ja":"ã‚³ãƒŠã‚¯ãƒª","name:ka":"áƒ™áƒáƒœáƒáƒ™áƒ áƒ˜","name:ko":"ì½”ë‚˜í¬ë¦¬","name:ky":"ĞšĞ¾Ğ½Ğ°ĞºÑ€Ğ¸","name:lt":"Konakris","name:mk":"ĞšĞ¾Ğ½Ğ°ĞºÑ€Ğ¸","name:mr":"à¤•à¥‹à¤¨à¤¾à¤•à¥à¤°à¥€","name:nl":"Conakry","name:no":"Conakry","name:oc":"Conakry","name:pl":"Konakry","name:pt":"Conacri","name:ru":"ĞšĞ¾Ğ½Ğ°ĞºÑ€Ğ¸","name:sk":"Konakry","name:so":"Konakri","name:sq":"Konakri","name:sr":"ĞšĞ¾Ğ½Ğ°ĞºÑ€Ğ¸","name:sv":"Conakry","name:ta":"à®•à¯Šà®©à®¾à®•à¯à®°à®¿","name:tg":"ĞšĞ¾Ğ½Ğ°ĞºÑ€Ğ¸","name:th":"à¹‚à¸à¸™à¸²à¸à¸£à¸µ","name:tr":"Konakri","name:uk":"ĞšĞ¾Ğ½Ğ°ĞºÑ€Ñ–","name:ur":"Ú©ÙˆÙ†Ø§Ú©Ø±ÛŒ","name:zh":"ç§‘ç´å…‹é‡Œ","name:ckb":"Ú©Û†Ù†Ø§Ú©Ø±ÛŒ","name:mrj":"ĞšĞ¾Ğ½Ğ°ĞºÑ€Ğ¸","name:nah":"Conacri","name:nqo":"ßßß£ßŠßß™ßŒß«","name:pnb":"Ú©ÙˆÙ†Ø§Ú©Ø±ÛŒ","name:udm":"ĞšĞ¾Ğ½Ğ°ĞºÑ€Ğ¸","name:ff-Adlm":"ğ¤‘ğ¤®ğ¤²ğ¤¢ğ¥„ğ¤³ğ¤­ğ¤ªğ¤­","name:ff-Latn":"Konaakiri"},"display_name":"Conakry, GuinÃ©e","address":{"city":"Conakry","ISO3166-2-lvl4":"GN-C","country":"GuinÃ©e","country_code":"gn"},"population":1660973,"osm_type":"node","osm_id":27565062,"type":"city","location":[-13.6998434,9.5170602],"bbox":[-13.8598434,9.3570602,-13.5398434,9.6770602],"border":{"name":"Conakry","other_names":{"name:af":"Conakry","name:am":"áŠ®áŠ“áŠ­áˆª","name:an":"Conakry","name:ar":"ÙƒÙˆÙ†Ø§ÙƒØ±ÙŠ","name:az":"Konakri","name:be":"ĞšĞ¾Ğ½Ğ°ĞºÑ€Ñ‹","name:bg":"ĞšĞ¾Ğ½Ğ°ĞºÑ€Ğ¸","name:bm":"KÉ”nakri","name:bn":"à¦•à§‹à¦¨à¦¾à¦•à§à¦°à¦¿","name:bo":"à½€à½¼à¼‹à½“à½€à¼‹à½¢à½²à¼","name:br":"Conakry","name:bs":"Conakry","name:ca":"Conakry","name:ce":"ĞšĞ¾Ğ½Ğ°ĞºÑ€Ğ¸","name:cs":"Konakry","name:cy":"Conakry","name:da":"Conakry","name:de":"Conakry","name:el":"ÎšÎ¿Î½Î±ÎºÏÎ¯","name:en":"Conakry","name:es":"Conakri","name:et":"Conakry","name:eu":"Konakry","name:fa":"Ú©ÙˆÙ†Ø§Ú©Ø±ÛŒ","name:fi":"Conakry","name:fr":"Conakry","name:fy":"Konakry","name:ga":"ConacraÃ­","name:gd":"Conakry","name:gl":"Conakry","name:gn":"Konakri","name:ha":"Conakry","name:he":"×§×•× ××§×¨×™","name:hi":"à¤•à¥‹à¤¨à¤¾à¤•à¥à¤°à¥€","name:hr":"Conakry","name:ht":"Konakri","name:hu":"Conakry","name:hy":"Ô¿Õ¸Õ¶Õ¡Õ¯Ö€Õ«","name:id":"Conakry","name:ie":"Conakry","name:io":"Conakry","name:is":"KÃ³nakrÃ­","name:it":"Conakry","name:ja":"ã‚³ãƒŠã‚¯ãƒª","name:jv":"Conakry","name:ka":"áƒ™áƒáƒœáƒáƒ™áƒ áƒ˜","name:kg":"Conakry","name:ki":"Conakry","name:ko":"ì½”ë‚˜í¬ë¦¬","name:kw":"Conakry","name:ky":"ĞšĞ¾Ğ½Ğ°ĞºÑ€Ğ¸","name:lb":"Conakry","name:lt":"Konakris","name:lv":"Konakri","name:mg":"Conakry","name:mk":"ĞšĞ¾Ğ½Ğ°ĞºÑ€Ğ¸","name:ml":"à´•àµŠà´£à´¾à´•àµà´°à´¿","name:mr":"à¤•à¥‹à¤¨à¤¾à¤•à¥à¤°à¥€","name:ms":"Conakry","name:nl":"Conakry","name:nn":"Conakry","name:no":"Conakry","name:oc":"Conakry","name:os":"ĞšĞ¾Ğ½Ğ°ĞºÑ€Ğ¸","name:pa":"à¨•à©‹à¨¨à¨¾à¨•à¨°à©€","name:pl":"Konakry","name:ps":"Ú©ÙˆÙ†Ø§Ú©Ø±ÛŒ","name:pt":"Conacri","name:ro":"Conakry","name:ru":"ĞšĞ¾Ğ½Ğ°ĞºÑ€Ğ¸","name:sc":"Conakry","name:sh":"Conakry","name:sk":"Konakry","name:sl":"Conakry","name:sn":"Conakry","name:so":"Konakri","name:sq":"Konakri","name:sr":"ĞšĞ¾Ğ½Ğ°ĞºÑ€Ğ¸","name:sv":"Conakry","name:sw":"Conakry","name:ta":"à®•à¯Šà®©à®¾à®•à¯à®°à®¿","name:tg":"ĞšĞ¾Ğ½Ğ°ĞºÑ€Ğ¸","name:th":"à¹‚à¸„à¸™à¸²à¸„à¸£à¸µ","name:tk":"Konakri","name:tl":"Conakry","name:tr":"Konakri","name:uk":"ĞšĞ¾Ğ½Ğ°ĞºÑ€Ñ–","name:ur":"Ú©ÙˆÙ†Ø§Ú©Ø±ÛŒ","name:uz":"Konakri","name:vi":"Conakry","name:wo":"Konakri","name:yi":"×§×× ××§×¨×™","name:yo":"Conakry","name:zh":"ç§‘ç´å…‹é‡Œ","name:arz":"ÙƒÙˆÙ†Ø§ÙƒØ±Ù‰","name:ast":"Conacri","name:avk":"Conakry","name:bcl":"Conakry","name:cdo":"Conakry","name:ceb":"Conakry (ulohang dakbayan sa Gini)","name:ckb":"Ú©Û†Ù†Ø§Ú©Ø±ÛŒ","name:diq":"Conakry","name:frr":"Conakry (Steed)","name:hak":"Conakry","name:hif":"Conakry","name:hsb":"Conakry","name:kab":"Kunakri","name:lfn":"Conakry","name:lij":"Conakry","name:lmo":"Conakry","name:mrj":"ĞšĞ¾Ğ½Ğ°ĞºÑ€Ğ¸","name:nah":"Conacri","name:nan":"Conakry","name:nqo":"ßßß£ßŠßß™ßŒß«","name:pms":"Conakry","name:pnb":"Ú©ÙˆÙ†Ø§Ú©Ø±ÛŒ","name:sco":"Conakry","name:smn":"Conakry","name:szl":"Conakry","name:udm":"ĞšĞ¾Ğ½Ğ°ĞºÑ€Ğ¸","name:vec":"Conakry","name:vep":"Konakri","name:war":"Conakry","name:wuu":"ç§‘çº³å…‹é‡Œ","name:xmf":"áƒ™áƒáƒœáƒáƒ™áƒ áƒ˜","name:yue":"æŸ¯é‚£å…‹é‡Œ","ISO3166-2":"GN-C","name:ff-Adlm":"ğ¤‘ğ¤®ğ¤²ğ¤¢ğ¥„ğ¤³ğ¤­ğ¤ªğ¤­","name:ff-Latn":"Konaakiri","name:be-tarask":"ĞšĞ°Ğ½Ğ°ĞºÑ€Ñ‹","alt:th":"à¹‚à¸à¸™à¸²à¸à¸£à¸µ"},"display_name":"Conakry, GuinÃ©e","address":{"city":"Conakry","ISO3166-2-lvl4":"GN-C","country":"GuinÃ©e","country_code":"gn"},"population":1660973,"osm_type":"relation","osm_id":3731500,"type":"administrative","location":[-13.6998434,9.5170602],"bbox":[-13.8402897,9.4321917,-13.4738187,9.7533673]}}
{"name":"Faranah","other_names":{"name:fr":"Faranah","name:ru":"Ğ¤Ğ°Ñ€Ğ°Ğ½Ğ°"},"display_name":"Faranah, GuinÃ©e","address":{"city":"Faranah","state":"Faranah","ISO3166-2-lvl4":"GN-F","country":"GuinÃ©e","country_code":"gn"},"osm_type":"node","osm_id":1717489366,"type":"city","location":[-10.740824,10.042493],"bbox":[-10.900824,9.882493,-10.580824,10.202493]}
{"name":"Fria","other_names":{"name:ar":"ÙØ±ÙŠØ§","name:fr":"Fria","name:ru":"Ğ¤Ñ€Ğ¸Ñ"},"display_name":"Fria, BokÃ©, GuinÃ©e","address":{"city":"Fria","state":"BokÃ©","ISO3166-2-lvl4":"GN-B","country":"GuinÃ©e","country_code":"gn"},"population":61582,"osm_type":"node","osm_id":321619916,"type":"city","location":[-13.581185,10.363036],"bbox":[-13.741185,10.203036,-13.421185,10.523036]}
{"name":"GuÃ©ckÃ©dou","other_names":{"name:ar":"ØºÙŠÙƒÙŠØ¯Ùˆ","name:fr":"GuÃ©ckÃ©dou","name:ru":"Ğ“ĞµĞºĞµĞ´Ñƒ","name:zh":"ç›–å‡¯æœ","alt_name":"GuÃ©kÃ©dou","alt_name:ar":"Ø¬ÙŠÙƒÙŠØ¯ÙˆØºÙˆ;ØºÙˆÙƒÙŠØ¯Ùˆ"},"display_name":"GuÃ©ckÃ©dou, Gueckedou Centre, GuÃ©ckÃ©dou, NzÃ©rÃ©korÃ©, GuinÃ©e","address":{"city":"GuÃ©ckÃ©dou","town":"Gueckedou Centre","county":"GuÃ©ckÃ©dou","ISO3166-2-lvl6":"GN-GU","state":"NzÃ©rÃ©korÃ©","ISO3166-2-lvl4":"GN-N","country":"GuinÃ©e","country_code":"gn"},"population":221715,"osm_type":"node","osm_id":1864868794,"type":"city","location":[-10.132821,8.561649],"bbox":[-10.292821,8.401649,-9.972821,8.721649],"border":{"name":"GuÃ©ckÃ©dou","other_names":{"name:en":"GuÃ©ckÃ©dou Prefecture","name:fr":"PrÃ©fecture de GuÃ©ckÃ©dou","name:lt":"Guekedu prefektÅ«ra","ISO3166-2":"GN-GU"},"display_name":"GuÃ©ckÃ©dou, NzÃ©rÃ©korÃ©, GuinÃ©e","address":{"county":"GuÃ©ckÃ©dou","ISO3166-2-lvl6":"GN-GU","state":"NzÃ©rÃ©korÃ©","ISO3166-2-lvl4":"GN-N","country":"GuinÃ©e","country_code":"gn"},"osm_type":"relation","osm_id":3401661,"type":"administrative","location":[-10.205367536665838,8.6822458],"bbox":[-10.7018579,8.2801129,-9.8821719,9.0848295]}}
{"name":"Kamsar","other_names":{"name:ar":"ÙƒØ§Ù…Ø³Ø§Ø±","name:ru":"ĞšĞ°Ğ¼ÑĞ°Ñ€"},"display_name":"Kamsar, BokÃ©, GuinÃ©e","address":{"city":"Kamsar","state":"BokÃ©","ISO3166-2-lvl4":"GN-B","country":"GuinÃ©e","country_code":"gn"},"population":88222,"osm_type":"node","osm_id":321593853,"type":"city","location":[-14.5833317,10.6643896],"bbox":[-14.7433317,10.5043896,-14.4233317,10.8243896],"border":{"name":"Kamsar","other_names":{"name:ar":"ÙƒØ§Ù…Ø³Ø§Ø±","name:fr":"Kamsar","name:ru":"ĞšĞ°Ğ¼ÑĞ°Ñ€"},"display_name":"Kamsar, BokÃ©, GuinÃ©e","address":{"city":"Kamsar","state":"BokÃ©","ISO3166-2-lvl4":"GN-B","country":"GuinÃ©e","country_code":"gn"},"population":88222,"osm_type":"relation","osm_id":9275304,"type":"administrative","location":[-14.5833317,10.6643896],"bbox":[-14.6675634,10.4501233,-14.4301665,10.7713489]}}
{"name":"Kankan","other_names":{"name:ar":"ÙƒØ§Ù†ÙƒØ§Ù†","name:en":"Kankan","name:fr":"Kankan","name:ru":"ĞšĞ°Ğ½ĞºĞ°Ğ½","name:ur":"Ú©Ø§Ù†Ú©Ø§Ù†"},"display_name":"Kankan, Kankan-Centre, Kankan, GuinÃ©e","address":{"city":"Kankan","state":"Kankan","ISO3166-2-lvl4":"GN-K","country":"GuinÃ©e","country_code":"gn"},"population":190772,"osm_type":"node","osm_id":5724319639,"type":"city","location":[-9.3069354,10.3835169],"bbox":[-9.4669354,10.2235169,-9.1469354,10.5435169]}
{"name":"Kindia","other_names":{"name:fr":"Kindia","name:ko":"í‚¨ë””ì•„","name:ru":"ĞšĞ¸Ğ½Ğ´Ğ¸Ñ","name:uk":"ĞšÑ–Ğ½Ğ´Ñ–Ñ"},"display_name":"Kindia, GuinÃ©e","address":{"city":"Kindia","state":"Kindia","ISO3166-2-lvl4":"GN-D","country":"GuinÃ©e","country_code":"gn"},"population":181126,"osm_type":"node","osm_id":1979210557,"type":"city","location":[-12.8260215,10.0368],"bbox":[-12.9860215,9.8768,-12.6660215,10.1968]}
{"name":"Kissidougou","other_names":{"name:ar":"ÙƒÙŠØ³ÙŠØ¯ÙˆØºÙˆ","name:bg":"ĞšĞ¸ÑĞ¸Ğ´ÑƒĞ³Ñƒ","name:de":"Kissidougou","name:fr":"Kissidougou","name:he":"×§×™×¡×™×“×•×’×•","name:ja":"ã‚­ã‚·ãƒ‰ã‚¥ã‚°","name:ko":"í‚¤ì‹œë‘êµ¬","name:ru":"ĞšĞ¸ÑĞ¸Ğ´ÑƒĞ³Ñƒ","name:zh":"åŸºè¥¿æœå¤","alt_name":"Kissedougou","name:fuf":"Kissidougou","name:kqs":"Kissidougou","name:man":"Kissidougou","name:sus":"Kissidougou"},"display_name":"Kissidougou, Faranah, GuinÃ©e","address":{"city":"Kissidougou","county":"Kissidougou","state":"Faranah","ISO3166-2-lvl4":"GN-F","country":"GuinÃ©e","country_code":"gn"},"population":283778,"osm_type":"node","osm_id":2742050596,"type":"city","location":[-10.098269,9.192389],"bbox":[-10.258269,9.032389,-9.938269,9.352389]}
{"name":"LabÃ©","other_names":{"name:ar":"Ù„Ø§Ø¨ÙŠ","name:en":"LabÃ©","name:fr":"LabÃ©","name:ko":"ë¼ë² ","name:ru":"Ğ›Ğ°Ğ±Ğµ"},"display_name":"LabÃ©, LabÃ©-Centre, PrÃ©fecture de LabÃ©, LabÃ©, GuinÃ©e","address":{"city":"LabÃ©","county":"PrÃ©fecture de LabÃ©","ISO3166-2-lvl6":"GN-LA","state":"LabÃ©","ISO3166-2-lvl4":"GN-L","country":"GuinÃ©e","country_code":"gn"},"population":58649,"osm_type":"node","osm_id":2944568131,"type":"city","location":[-12.282253,11.3230033],"bbox":[-12.442253,11.1630033,-12.122253,11.4830033]}
{"name":"Macenta","other_names":{"name:ar":"Ù…Ø§Ø³Ù†ØªØ§","name:fr":"Macenta","name:ko":"ë§ˆì„¼íƒ€","name:ru":"ĞœĞ°ÑĞµĞ½Ñ‚Ğ°","alt_name:ar":"Ù…Ø§ÙƒÙ†ØªØ§"},"display_name":"Macenta, NzÃ©rÃ©korÃ©, GuinÃ©e","address":{"city":"Macenta","county":"Macenta","ISO3166-2-lvl6":"GN-MC","state":"NzÃ©rÃ©korÃ©","ISO3166-2-lvl4":"GN-N","country":"GuinÃ©e","country_code":"gn"},"population":43900,"osm_type":"node","osm_id":2574288470,"type":"city","location":[-9.46792,8.545846],"bbox":[-9.62792,8.385846,-9.30792,8.705846],"border":{"name":"Macenta","other_names":{"name:en":"Macenta Prefecture","name:fr":"PrÃ©fecture de Macenta","ISO3166-2":"GN-MC"},"display_name":"Macenta, NzÃ©rÃ©korÃ©, GuinÃ©e","address":{"county":"Macenta","ISO3166-2-lvl6":"GN-MC","state":"NzÃ©rÃ©korÃ©","ISO3166-2-lvl4":"GN-N","country":"GuinÃ©e","country_code":"gn"},"osm_type":"relation","osm_id":3401335,"type":"administrative","location":[-9.209446285065466,8.294829199999999],"bbox":[-9.9458289,7.7413837,-8.8735089,8.8473844]}}
{"name":"Mamou","other_names":{"name:fr":"Mamou","name:ko":"ë§ˆë¬´","name:ru":"ĞœĞ°Ğ¼Ñƒ"},"display_name":"Mamou, GuinÃ©e","address":{"city":"Mamou","state":"Mamou","ISO3166-2-lvl4":"GN-M","country":"GuinÃ©e","country_code":"gn"},"osm_type":"node","osm_id":2173041746,"type":"city","location":[-12.08356,10.374074],"bbox":[-12.24356,10.214074,-11.92356,10.534074]}
{"name":"N'ZÃ©rÃ©korÃ©","other_names":{"name:ar":"Ø§Ù†Ø²ÙŠØ±ÙŠÙƒØ±ÙŠ","name:fr":"N'ZÃ©rÃ©korÃ©","name:ko":"ì€ì œë ˆì½”ë ˆ","name:ru":"ĞĞ·ĞµÑ€ĞµĞºĞ¾Ñ€Ğµ","name:ur":"Ù†Ø²ÛŒØ±ÛŒÚ©ÙˆØ±Û’","int_name":"NzÃ©rÃ©korÃ©","alt_name:ar":"Ù†Ø²ÙŠØ±ÙŠÙƒÙˆØ±ÙŠ"},"display_name":"N'ZÃ©rÃ©korÃ©, N'ZÃ©rÃ©korÃ©-Centre, NzÃ©rÃ©korÃ©, GuinÃ©e","address":{"city":"N'ZÃ©rÃ©korÃ©","county":"NzÃ©rÃ©korÃ©","ISO3166-2-lvl6":"GN-NZ","state":"NzÃ©rÃ©korÃ©","ISO3166-2-lvl4":"GN-N","country":"GuinÃ©e","country_code":"gn"},"population":280256,"osm_type":"node","osm_id":321543441,"type":"city","location":[-8.8160001,7.7589949],"bbox":[-8.9760001,7.5989949,-8.6560001,7.9189949],"border":[{"name":"NzÃ©rÃ©korÃ©","other_names":{"name:ar":"Ø§Ù†Ø²ÙŠØ±ÙŠÙƒØ±ÙŠ","name:en":"NzÃ©rÃ©korÃ© Prefecture","name:fr":"PrÃ©fecture de NzÃ©rÃ©korÃ©","name:ur":"Ù†Ø²ÛŒØ±ÛŒÚ©ÙˆØ±Û’","ISO3166-2":"GN-NZ","alt_name:ar":"Ù†Ø²ÙŠØ±ÙŠÙƒÙˆØ±ÙŠ"},"display_name":"NzÃ©rÃ©korÃ©, GuinÃ©e","address":{"county":"NzÃ©rÃ©korÃ©","ISO3166-2-lvl6":"GN-NZ","state":"NzÃ©rÃ©korÃ©","ISO3166-2-lvl4":"GN-N","country":"GuinÃ©e","country_code":"gn"},"osm_type":"relation","osm_id":3402448,"type":"administrative","location":[-8.881292184093752,7.893288350000001],"bbox":[-9.2123193,7.4041814,-8.4391479,8.3817709]},{"name":"N'ZÃ©rÃ©korÃ©-Centre","other_names":{"name:fr":"N'ZÃ©rÃ©korÃ©-Centre","alt_name":"N'ZÃ©rÃ©korÃ©"},"display_name":"N'ZÃ©rÃ©korÃ©-Centre, NzÃ©rÃ©korÃ©, GuinÃ©e","address":{"city":"N'ZÃ©rÃ©korÃ©-Centre","county":"NzÃ©rÃ©korÃ©","ISO3166-2-lvl6":"GN-NZ","state":"NzÃ©rÃ©korÃ©","ISO3166-2-lvl4":"GN-N","country":"GuinÃ©e","country_code":"gn"},"osm_type":"relation","osm_id":5579276,"type":"administrative","location":[-8.813790370577848,7.7519472],"bbox":[-8.8469722,7.7162331,-8.7814444,7.7852218]}]}
{"name":"Pita","other_names":{"name:ar":"Ø¨ÙŠØªØ§","name:fr":"Pita","name:ru":"ĞŸĞ¸Ñ‚Ğ°"},"display_name":"Pita, PrÃ©fecture de Pita, Mamou, GuinÃ©e","address":{"city":"Pita","county":"PrÃ©fecture de Pita","ISO3166-2-lvl6":"GN-PI","state":"Mamou","ISO3166-2-lvl4":"GN-M","country":"GuinÃ©e","country_code":"gn"},"population":266000,"osm_type":"node","osm_id":321619934,"type":"city","location":[-12.3950499,11.0564638],"bbox":[-12.5550499,10.8964638,-12.2350499,11.2164638]}
{"name":"Siguiri","other_names":{"name:fr":"Siguiri","name:ru":"Ğ¡Ğ¸Ğ³Ğ¸Ñ€Ğ¸"},"display_name":"Siguiri, Kankan, GuinÃ©e","address":{"city":"Siguiri","state":"Kankan","ISO3166-2-lvl4":"GN-K","country":"GuinÃ©e","country_code":"gn"},"population":196308,"osm_type":"node","osm_id":1717506744,"type":"city","location":[-9.1751513,11.4195265],"bbox":[-9.3351513,11.2595265,-9.0151513,11.5795265]}
