{"name":"Antigua Guatemala","other_names":{"name:de":"Alt-Guatemala","alt_name":"Muy Noble y Muy Leal Ciudad de Santiago de los Caballeros de Guatemala","short_name":"Antigua"},"display_name":"Antigua Guatemala, Sacatepéquez, Guatemala","address":{"city":"Antigua Guatemala","state":"Sacatepéquez","ISO3166-2-lvl4":"GT-03","country":"Guatemala","country_code":"gt"},"population":46054,"osm_type":"node","osm_id":602914594,"type":"city","location":[-90.7337346,14.5567814],"bbox":[-90.8937346,14.3967814,-90.5737346,14.7167814],"border":{"name":"Antigua Guatemala","other_names":{"name:es":"Antigua Guatemala","name:de":"Alt-Guatemala","alt_name":"Muy Noble y Muy Leal Ciudad de Santiago de los Caballeros de Guatemala","short_name":"Antigua"},"display_name":"Antigua Guatemala, Sacatepéquez, Guatemala","address":{"city":"Antigua Guatemala","state":"Sacatepéquez","ISO3166-2-lvl4":"GT-03","country":"Guatemala","country_code":"gt"},"population":46054,"osm_type":"relation","osm_id":374549,"type":"administrative","location":[-90.7337346,14.5567814],"bbox":[-90.7813265,14.4660708,-90.6826246,14.6124462]}}
{"name":"Chimaltenango","display_name":"Chimaltenango, Municipio de Chimaltenango, Chimaltenango, Guatemala","address":{"city":"Chimaltenango","state":"Chimaltenango","ISO3166-2-lvl4":"GT-04","country":"Guatemala","country_code":"gt"},"population":20891,"osm_type":"node","osm_id":2482943247,"type":"city","location":[-90.8193493,14.6613043],"bbox":[-90.9793493,14.5013043,-90.6593493,14.8213043],"border":{"name":"Municipio de Chimaltenango","other_names":{"name:es":"Municipio de Chimaltenango","alt":"Chimaltenango"},"display_name":"Municipio de Chimaltenango, Chimaltenango, 04016, Guatemala","address":{"city":"Municipio de Chimaltenango","state":"Chimaltenango","ISO3166-2-lvl4":"GT-04","postcode":"04016","country":"Guatemala","country_code":"gt"},"population":43900,"osm_type":"relation","osm_id":4487249,"type":"administrative","location":[-90.8193493,14.6613043],"bbox":[-90.8660174,14.6214846,-90.7501051,14.7485408]}}
{"name":"Chiquimula","other_names":{"name:hu":"Chiquimula"},"display_name":"Chiquimula, Municipio de Chiquimula, Chiquimula, Guatemala","address":{"city":"Chiquimula","state":"Chiquimula","ISO3166-2-lvl4":"GT-20","country":"Guatemala","country_code":"gt"},"population":31808,"osm_type":"node","osm_id":2177844104,"type":"city","location":[-89.5459173,14.8005709],"bbox":[-89.7059173,14.6405709,-89.3859173,14.9605709],"border":{"name":"Municipio de Chiquimula","other_names":{"name:es":"Municipio de Chiquimula","name:hu":"Chiquimula","alt":"Chiquimula"},"display_name":"Municipio de Chiquimula, Chiquimula, Guatemala","address":{"city":"Municipio de Chiquimula","state":"Chiquimula","ISO3166-2-lvl4":"GT-20","country":"Guatemala","country_code":"gt"},"population":79815,"osm_type":"relation","osm_id":4492344,"type":"administrative","location":[-89.5459173,14.8005709],"bbox":[-89.7204002,14.7032743,-89.4376757,14.8780865]}}
{"name":"Ciudad de Guatemala","other_names":{"name:af":"Guatemala-stad","name:ar":"مدينة غواتيمالا","name:ay":"Watimala marka","name:az":"Qvatemala","name:be":"Гватэмала","name:bg":"Гватемала","name:bn":"গুয়াতেমালা সিটি","name:bo":"གུ་ཝེ་ཐི་མ་ལ་གྲོང་ཁྱེར།","name:br":"Ciudad de Guatemala","name:bs":"Guatemala City","name:ca":"Ciutat de Guatemala","name:cs":"Ciudad de Guatemala","name:cy":"Dinas Guatemala","name:da":"Guatamala City","name:de":"Guatemala-Stadt","name:el":"Πόλη της Γουατεμάλας","name:en":"Guatemala City","name:eo":"Gvatemalurbo","name:es":"Ciudad de Guatemala","name:et":"Guatemala","name:eu":"Guatemalako Hiria","name:fa":"گواتمالاسیتی","name:fi":"Guatemala","name:fr":"Guatemala","name:fy":"Gûatemala-Stêd","name:gd":"Baile Guatemala","name:gl":"Cidade de Guatemala - Ciudad de Guatemala","name:he":"גואטמלה סיטי","name:hi":"ग्वाटेमाला नगर","name:hr":"Guatemala","name:ht":"Siwdad","name:hu":"Guatemalaváros","name:id":"Kota Guatemala","name:ie":"Guatemala Cité","name:io":"Guatemala-Urbo","name:is":"Gvatemalaborg","name:it":"Città del Guatemala","name:ja":"グアテマラシティ","name:ka":"გვატემალა","name:ko":"과테말라","name:ku":"Guatemala","name:lt":"Gvatemala","name:lv":"Gvatemala","name:mk":"Гватемала","name:mr":"ग्वातेमाला सिटी","name:nl":"Guatemala-Stad","name:nn":"Guatemala by","name:no":"Guatemala by","name:oc":"Ciutat de Guatemala","name:os":"Гватемалæ","name:pl":"Gwatemala","name:pt":"Cidade da Guatemala","name:qu":"Watimala llaqta","name:ro":"Ciudad de Guatemala","name:ru":"Гватемала","name:se":"Ciudad de Guatemala","name:sk":"Guatemala","name:sl":"Ciudad Guatemala","name:sr":"Град Гватемала","name:sv":"Guatemala City","name:sw":"Guatemala City","name:ta":"குவாத்தமாலா நகரம்","name:th":"กัวเตมาลาซิตี","name:tl":"Lungsod ng Guwatemala","name:tr":"Guatemala","name:ug":"گۋاتېمالا شەھىرى","name:uk":"Гватемала","name:ur":"گوئٹے مالا شہر","name:vi":"Thành phố Guatemala","name:vo":"Ciudad de Guatemala","name:yo":"Ìlú Guatẹmálà","name:zh":"危地马拉城","name:ace":"Banda Guatemala","name:hif":"Guatemala City","name:lmo":"Cità del Guatemala","name:nah":"Āltepētl Cuauhtēmallān","name:nan":"Guatemala Chhī","name:nov":"Guatemala Urbe","name:pap":"Siudad di Guatemala","name:pms":"Sità ëd Guatemala","name:sah":"Гуатемала","name:sco":"Guatemala Ceety","name:udm":"Гватемала","name:war":"Syudad han Guatemala","short_name":"Guate","name:roa-rup":"Guatemala casaba","name:zh-Hans":"危地马拉城","name:zh-Hant":"瓜地馬拉城/危地馬拉城","official_name":"Nueva Guatemala de la Asunción","name:zh-Hant-CN":"危地馬拉城","name:zh-Hant-HK":"危地馬拉城","name:zh-Hant-TW":"瓜地馬拉城"},"display_name":"Ciudad de Guatemala, Zona 1, Departamento de Guatemala, 01001, Guatemala","address":{"city":"Ciudad de Guatemala","district":"Zona 1","state":"Departamento de Guatemala","ISO3166-2-lvl4":"GT-01","postcode":"01001","country":"Guatemala","country_code":"gt"},"population":2450212,"osm_type":"node","osm_id":472114145,"type":"city","location":[-90.5132836,14.6416142],"bbox":[-90.6732836,14.4816142,-90.3532836,14.8016142]}
{"name":"Coatepeque","display_name":"Coatepeque, Quetzaltenango, Guatemala","address":{"city":"Coatepeque","state":"Quetzaltenango","ISO3166-2-lvl4":"GT-09","country":"Guatemala","country_code":"gt"},"population":27500,"osm_type":"node","osm_id":3345765093,"type":"city","location":[-91.8656361,14.7026327],"bbox":[-92.0256361,14.5426327,-91.7056361,14.8626327],"border":{"name":"Coatepeque","display_name":"Coatepeque, Quetzaltenango, 09020, Guatemala","address":{"city":"Coatepeque","state":"Quetzaltenango","ISO3166-2-lvl4":"GT-09","postcode":"09020","country":"Guatemala","country_code":"gt"},"population":27500,"osm_type":"relation","osm_id":4476223,"type":"administrative","location":[-91.8656361,14.7026327],"bbox":[-92.1384984,14.5367332,-91.8033066,14.7302745]}}
{"name":"Cobán","other_names":{"name:en":"Cobán","name:hu":"Cobán","name:ru":"Кобан","name:uk":"Кобан"},"display_name":"Cobán, Alta Verapaz, Guatemala","address":{"city":"Cobán","state":"Alta Verapaz","ISO3166-2-lvl4":"GT-16","country":"Guatemala","country_code":"gt"},"population":30748,"osm_type":"node","osm_id":2523418507,"type":"city","location":[-90.3735065,15.4702001],"bbox":[-90.5335065,15.3102001,-90.2135065,15.6302001],"border":{"name":"Cobán","other_names":{"name:es":"Cobán","name:en":"Cobán","name:hu":"Cobán","name:ru":"Кобан","name:uk":"Кобан"},"display_name":"Cobán, Alta Verapaz, Guatemala","address":{"city":"Cobán","state":"Alta Verapaz","ISO3166-2-lvl4":"GT-16","country":"Guatemala","country_code":"gt"},"population":250675,"osm_type":"relation","osm_id":4557541,"type":"administrative","location":[-90.3735065,15.4702001],"bbox":[-90.8206943,15.335791,-90.2817836,16.0417642]}}
{"name":"Cuilapa","other_names":{"name:ru":"Куилапа"},"display_name":"Cuilapa, Santa Rosa, Guatemala","address":{"city":"Cuilapa","state":"Santa Rosa","ISO3166-2-lvl4":"GT-06","country":"Guatemala","country_code":"gt"},"population":11716,"osm_type":"node","osm_id":1039836076,"type":"city","location":[-90.2989113,14.276824],"bbox":[-90.4589113,14.116824,-90.1389113,14.436824],"border":{"name":"Cuilapa","other_names":{"name:es":"Cuilapa","name:ru":"Куилапа"},"display_name":"Cuilapa, Santa Rosa, Guatemala","address":{"city":"Cuilapa","state":"Santa Rosa","ISO3166-2-lvl4":"GT-06","country":"Guatemala","country_code":"gt"},"population":30951,"osm_type":"relation","osm_id":4470194,"type":"administrative","location":[-90.2989113,14.276824],"bbox":[-90.3913955,14.1660852,-90.1986086,14.3309473]}}
{"name":"Escuintla","other_names":{"name:hu":"Escuintla"},"display_name":"Escuintla, Municipio de Escuintla, Escuintla, Guatemala","address":{"city":"Escuintla","state":"Escuintla","ISO3166-2-lvl4":"GT-05","country":"Guatemala","country_code":"gt"},"population":13878,"osm_type":"node","osm_id":3250608947,"type":"city","location":[-90.7866243,14.3022857],"bbox":[-90.9466243,14.1422857,-90.6266243,14.4622857],"border":{"name":"Municipio de Escuintla","other_names":{"name:es":"Municipio de Escuintla","name:hu":"Escuintla","alt":"Escuintla"},"display_name":"Municipio de Escuintla, Escuintla, 05001, Guatemala","address":{"city":"Municipio de Escuintla","state":"Escuintla","ISO3166-2-lvl4":"GT-05","postcode":"05001","country":"Guatemala","country_code":"gt"},"population":68000,"osm_type":"relation","osm_id":4469376,"type":"administrative","location":[-90.7866243,14.3022857],"bbox":[-90.9612425,14.1553783,-90.6671985,14.4746199]}}
{"name":"Flores","other_names":{"name:ru":"Флорес","alt_name":"Noh Petén","alt_name_1":"Nojpetén"},"display_name":"Flores, Petén, Guatemala","address":{"city":"Flores","state":"Petén","ISO3166-2-lvl4":"GT-17","country":"Guatemala","country_code":"gt"},"population":1235,"osm_type":"node","osm_id":2633365359,"type":"city","location":[-89.8914817,16.9298524],"bbox":[-90.0514817,16.7698524,-89.7314817,17.0898524],"border":{"name":"Flores","other_names":{"name:es":"Flores","name:ru":"Флорес","alt_name":"Noh Petén","alt_name_1":"Nojpetén"},"display_name":"Flores, Petén, Guatemala","address":{"city":"Flores","state":"Petén","ISO3166-2-lvl4":"GT-17","country":"Guatemala","country_code":"gt"},"population":144932,"osm_type":"relation","osm_id":2614837,"type":"administrative","location":[-89.8914817,16.9298524],"bbox":[-89.9209207,16.8568365,-89.3236438,17.8154997]}}
{"name":"Guastatoya","display_name":"Guastatoya, El Progreso, Guatemala","address":{"city":"Guastatoya","county":"Guastatoya","state":"El Progreso","ISO3166-2-lvl4":"GT-02","country":"Guatemala","country_code":"gt"},"population":7240,"osm_type":"node","osm_id":1039836415,"type":"city","location":[-90.068724,14.854668],"bbox":[-90.228724,14.694668,-89.908724,15.014668],"border":{"name":"Guastatoya","display_name":"Guastatoya, El Progreso, Guatemala","address":{"county":"Guastatoya","state":"El Progreso","ISO3166-2-lvl4":"GT-02","country":"Guatemala","country_code":"gt"},"population":20050,"osm_type":"relation","osm_id":4559552,"type":"administrative","location":[-90.08597618783097,14.8514688],"bbox":[-90.1764411,14.7872893,-89.9113766,14.9180365]}}
{"name":"Huehuetenango","display_name":"Huehuetenango, Municipio de Huenuetenango, Huehuetenango, 13001, Guatemala","address":{"city":"Huehuetenango","county":"Municipio de Huenuetenango","state":"Huehuetenango","ISO3166-2-lvl4":"GT-13","postcode":"13001","country":"Guatemala","country_code":"gt"},"population":21864,"osm_type":"node","osm_id":5439050511,"type":"city","location":[-91.4723295,15.3184301],"bbox":[-91.6323295,15.1584301,-91.3123295,15.4784301]}
{"name":"Jalapa","display_name":"Jalapa, Municipio de Jalapa, Jalapa, Guatemala","address":{"city":"Jalapa","state":"Jalapa","ISO3166-2-lvl4":"GT-21","country":"Guatemala","country_code":"gt"},"population":30408,"osm_type":"node","osm_id":472114148,"type":"city","location":[-89.9897996,14.6344164],"bbox":[-90.1497996,14.4744164,-89.8297996,14.7944164],"border":{"name":"Municipio de Jalapa","other_names":{"name:es":"Municipio de Jalapa","alt":"Jalapa"},"display_name":"Municipio de Jalapa, Jalapa, Guatemala","address":{"city":"Municipio de Jalapa","state":"Jalapa","ISO3166-2-lvl4":"GT-21","country":"Guatemala","country_code":"gt"},"population":30408,"osm_type":"relation","osm_id":4490158,"type":"administrative","location":[-89.9897996,14.6344164],"bbox":[-90.1934488,14.4298783,-89.9213256,14.7981783]}}
{"name":"Jutiapa","other_names":{"name:ru":"Хутьяпа"},"display_name":"Jutiapa, Municipio de Jutiapa, Jutiapa, Guatemala","address":{"city":"Jutiapa","state":"Jutiapa","ISO3166-2-lvl4":"GT-22","country":"Guatemala","country_code":"gt"},"population":13590,"osm_type":"node","osm_id":2131375958,"type":"city","location":[-89.8935346,14.2881737],"bbox":[-90.0535346,14.1281737,-89.7335346,14.4481737],"border":{"name":"Municipio de Jutiapa","other_names":{"name:es":"Municipio de Jutiapa","name:ru":"Хутьяпа","alt":"Jutiapa"},"display_name":"Municipio de Jutiapa, Jutiapa, Guatemala","address":{"city":"Municipio de Jutiapa","state":"Jutiapa","ISO3166-2-lvl4":"GT-22","country":"Guatemala","country_code":"gt"},"population":13590,"osm_type":"relation","osm_id":4470340,"type":"administrative","location":[-89.8935346,14.2881737],"bbox":[-90.0614626,14.1589638,-89.7685466,14.4630933]}}
{"name":"Mazatenango","display_name":"Mazatenango, Suchitepéquez, Guatemala","address":{"city":"Mazatenango","state":"Suchitepéquez","ISO3166-2-lvl4":"GT-10","country":"Guatemala","country_code":"gt"},"population":23567,"osm_type":"node","osm_id":343238071,"type":"city","location":[-91.5060031,14.533149],"bbox":[-91.6660031,14.373149,-91.3460031,14.693149],"border":{"name":"Mazatenango","display_name":"Mazatenango, Suchitepéquez, 10001, Guatemala","address":{"city":"Mazatenango","state":"Suchitepéquez","ISO3166-2-lvl4":"GT-10","postcode":"10001","country":"Guatemala","country_code":"gt"},"population":23567,"osm_type":"relation","osm_id":4473023,"type":"administrative","location":[-91.5060031,14.533149],"bbox":[-91.5569822,14.4171544,-91.4683077,14.5975846]}}
{"name":"Mixco","other_names":{"name:hu":"Villa De Mixco"},"display_name":"Mixco, Departamento de Guatemala, Guatemala","address":{"city":"Mixco","state":"Departamento de Guatemala","ISO3166-2-lvl4":"GT-01","country":"Guatemala","country_code":"gt"},"population":507549,"osm_type":"node","osm_id":1377302130,"type":"city","location":[-90.6061595,14.6307175],"bbox":[-90.7661595,14.4707175,-90.4461595,14.7907175],"border":{"name":"Mixco","other_names":{"name:es":"Mixco","name:hu":"Villa De Mixco"},"display_name":"Mixco, Departamento de Guatemala, Guatemala","address":{"city":"Mixco","state":"Departamento de Guatemala","ISO3166-2-lvl4":"GT-01","country":"Guatemala","country_code":"gt"},"population":688124,"osm_type":"relation","osm_id":3143538,"type":"administrative","location":[-90.6061595,14.6307175],"bbox":[-90.6401481,14.5769533,-90.5184022,14.7144116]}}
{"name":"Puerto Barrios","other_names":{"name:hu":"Puerto Barrios","name:ru":"Пуэрто-Барриос"},"display_name":"Puerto Barrios, Izabal, Guatemala","address":{"city":"Puerto Barrios","state":"Izabal","ISO3166-2-lvl4":"GT-18","country":"Guatemala","country_code":"gt"},"population":27652,"osm_type":"node","osm_id":472115002,"type":"city","location":[-88.5952506,15.7275154],"bbox":[-88.7552506,15.5675154,-88.4352506,15.8875154],"border":{"name":"Puerto Barrios","other_names":{"name:es":"Puerto Barrios","name:hu":"Puerto Barrios","name:ru":"Пуэрто-Барриос"},"display_name":"Puerto Barrios, Izabal, Guatemala","address":{"city":"Puerto Barrios","state":"Izabal","ISO3166-2-lvl4":"GT-18","country":"Guatemala","country_code":"gt"},"population":27652,"osm_type":"relation","osm_id":4559501,"type":"administrative","location":[-88.5952506,15.7275154],"bbox":[-88.7459226,15.5017651,-88.2134425,16.0723558]}}
{"name":"Quetzaltenango","other_names":{"name:hu":"Quetzaltenango","name:ru":"Кецальтенанго","alt_name":"Xela","old_name":"Xelajú"},"display_name":"Quetzaltenango, Municipio de Quetzaltenango, Quetzaltenango, Guatemala","address":{"city":"Quetzaltenango","state":"Quetzaltenango","ISO3166-2-lvl4":"GT-09","country":"Guatemala","country_code":"gt"},"population":180706,"osm_type":"node","osm_id":1073096792,"type":"city","location":[-91.5194208,14.8464612],"bbox":[-91.6794208,14.6864612,-91.3594208,15.0064612],"border":{"name":"Municipio de Quetzaltenango","other_names":{"name:es":"Municipio de Quetzaltenango","name:hu":"Quetzaltenango","name:ru":"Кецальтенанго","alt_name":"Xela","old_name":"Xelajú","alt":"Quetzaltenango"},"display_name":"Municipio de Quetzaltenango, Quetzaltenango, Guatemala","address":{"city":"Municipio de Quetzaltenango","state":"Quetzaltenango","ISO3166-2-lvl4":"GT-09","country":"Guatemala","country_code":"gt"},"population":500000,"osm_type":"relation","osm_id":4476252,"type":"administrative","location":[-91.5194208,14.8464612],"bbox":[-91.5885395,14.7320433,-91.4580767,14.8787674]}}
{"name":"Retalhuleu","other_names":{"name:es":"Retalhuleu","name:ru":"Реталулеу"},"display_name":"Retalhuleu, Municipio de Retalhuleu, Retalhuleu, Guatemala","address":{"city":"Retalhuleu","state":"Retalhuleu","ISO3166-2-lvl4":"GT-11","country":"Guatemala","country_code":"gt"},"population":32644,"osm_type":"node","osm_id":1073097030,"type":"city","location":[-91.6780651,14.5359621],"bbox":[-91.8380651,14.3759621,-91.5180651,14.6959621],"border":{"name":"Municipio de Retalhuleu","other_names":{"name:es":"Municipio de Retalhuleu","name:ru":"Реталулеу","alt":"Retalhuleu","alt:es":"Retalhuleu"},"display_name":"Municipio de Retalhuleu, Retalhuleu, Guatemala","address":{"city":"Municipio de Retalhuleu","state":"Retalhuleu","ISO3166-2-lvl4":"GT-11","country":"Guatemala","country_code":"gt"},"population":40000,"osm_type":"relation","osm_id":4476184,"type":"administrative","location":[-91.6780651,14.5359621],"bbox":[-92.1629897,14.1902457,-91.6548348,14.5894113]}}
{"name":"Salamá","display_name":"Salamá, Baja Verapaz, Guatemala","address":{"city":"Salamá","state":"Baja Verapaz","ISO3166-2-lvl4":"GT-15","country":"Guatemala","country_code":"gt"},"population":14667,"osm_type":"node","osm_id":430956963,"type":"city","location":[-90.3145505,15.1021016],"bbox":[-90.4745505,14.9421016,-90.1545505,15.2621016],"border":{"name":"Salamá","display_name":"Salamá, Baja Verapaz, 15001, Guatemala","address":{"city":"Salamá","state":"Baja Verapaz","ISO3166-2-lvl4":"GT-15","postcode":"15001","country":"Guatemala","country_code":"gt"},"population":14667,"osm_type":"relation","osm_id":13485951,"type":"administrative","location":[-90.3145505,15.1021016],"bbox":[-90.4507977,14.8715708,-89.9982672,15.2408237]}}
{"name":"San Marcos","display_name":"San Marcos, Municipio de San Marcos, San Marcos, Guatemala","address":{"city":"San Marcos","state":"San Marcos","ISO3166-2-lvl4":"GT-12","country":"Guatemala","country_code":"gt"},"population":11973,"osm_type":"node","osm_id":4981120964,"type":"city","location":[-91.7943267,14.9643813],"bbox":[-91.9543267,14.8043813,-91.6343267,15.1243813],"border":{"name":"Municipio de San Marcos","other_names":{"name:es":"Municipio de San Marcos","alt":"San Marcos"},"display_name":"Municipio de San Marcos, San Marcos, Guatemala","address":{"city":"Municipio de San Marcos","state":"San Marcos","ISO3166-2-lvl4":"GT-12","country":"Guatemala","country_code":"gt"},"population":48913,"osm_type":"relation","osm_id":4478062,"type":"administrative","location":[-91.7943267,14.9643813],"bbox":[-91.9029766,14.8988066,-91.7649203,15.0759693]}}
{"name":"Santa Cruz del Quiché","display_name":"Santa Cruz del Quiché, Quiché, 14001, Guatemala","address":{"city":"Santa Cruz del Quiché","county":"Santa Cruz del Quiché","state":"Quiché","ISO3166-2-lvl4":"GT-14","postcode":"14001","country":"Guatemala","country_code":"gt"},"population":19327,"osm_type":"node","osm_id":1039835176,"type":"city","location":[-91.1496179,15.0295098],"bbox":[-91.3096179,14.8695098,-90.9896179,15.1895098],"border":{"name":"Santa Cruz del Quiché","display_name":"Santa Cruz del Quiché, Quiché, 14001, Guatemala","address":{"county":"Santa Cruz del Quiché","state":"Quiché","ISO3166-2-lvl4":"GT-14","postcode":"14001","country":"Guatemala","country_code":"gt"},"osm_type":"relation","osm_id":377427,"type":"administrative","location":[-91.12737171146854,15.02328735],"bbox":[-91.1624446,14.9402302,-91.0614016,15.1076953]}}
{"name":"Sololá","other_names":{"name:es":"Sololá","alt_name":"Tz'olöj Ya'"},"display_name":"Sololá, Sololá - Tz'olöj Ya', Sololá, 07010, Guatemala","address":{"city":"Sololá","county":"Sololá - Tz'olöj Ya'","state":"Sololá","ISO3166-2-lvl4":"GT-07","postcode":"07010","country":"Guatemala","country_code":"gt"},"population":10040,"osm_type":"node","osm_id":3286573967,"type":"city","location":[-91.1833175,14.7722369],"bbox":[-91.3433175,14.6122369,-91.0233175,14.9322369]}
{"name":"Totonicapán","other_names":{"name:ru":"Тотоникапан"},"display_name":"Totonicapán, Municipio de Totonicapán, Totonicapán, Guatemala","address":{"city":"Totonicapán","state":"Totonicapán","ISO3166-2-lvl4":"GT-08","country":"Guatemala","country_code":"gt"},"population":8793,"osm_type":"node","osm_id":2160053457,"type":"city","location":[-91.3599703,14.911838],"bbox":[-91.5199703,14.751838,-91.1999703,15.071838],"border":{"name":"Municipio de Totonicapán","other_names":{"name:es":"Municipio de Totonicapán","name:ru":"Тотоникапан","alt":"Totonicapán"},"display_name":"Municipio de Totonicapán, Totonicapán, 08001, Guatemala","address":{"city":"Municipio de Totonicapán","state":"Totonicapán","ISO3166-2-lvl4":"GT-08","postcode":"08001","country":"Guatemala","country_code":"gt"},"population":8793,"osm_type":"relation","osm_id":4484757,"type":"administrative","location":[-91.3599703,14.911838],"bbox":[-91.4377512,14.8234812,-91.1753156,14.9611053]}}
{"name":"Villa Nueva","other_names":{"name:ar":"فيلا نويفا","name:de":"Villa Nueva","name:en":"Villa Nueva","name:fr":"Villa Nueva","name:ja":"ビジャ・ヌエバ","name:ru":"Вилья Нуэва","name:ur":"ویا نویوا، گواتیمالا","name:zh":"比亞努埃瓦","short_name":"VN","alt_name:en":"Villa Nueva City","official_name":"Villa Nueva"},"display_name":"Villa Nueva, Departamento de Guatemala, Guatemala","address":{"city":"Villa Nueva","state":"Departamento de Guatemala","ISO3166-2-lvl4":"GT-01","country":"Guatemala","country_code":"gt"},"population":618397,"osm_type":"node","osm_id":6481581224,"type":"city","location":[-90.5963325,14.5308826],"bbox":[-90.7563325,14.3708826,-90.4363325,14.6908826],"border":{"name":"Villa Nueva","other_names":{"name:es":"Villa Nueva","alt_name":"Villa Nueva","short_name":"VN","name:ar":"فيلا نويفا","name:de":"Villa Nueva","name:en":"Villa Nueva","name:fr":"Villa Nueva","name:ja":"ビジャ・ヌエバ","name:ru":"Вилья Нуэва","name:ur":"ویا نویوا، گواتیمالا","name:zh":"比亞努埃瓦","alt_name:en":"Villa Nueva City","official_name":"Villa Nueva"},"display_name":"Villa Nueva, Departamento de Guatemala, 01064, Guatemala","address":{"city":"Villa Nueva","state":"Departamento de Guatemala","ISO3166-2-lvl4":"GT-01","postcode":"01064","country":"Guatemala","country_code":"gt"},"population":618397,"osm_type":"relation","osm_id":9599315,"type":"administrative","location":[-90.5963325,14.5308826],"bbox":[-90.663641,14.4758249,-90.5512503,14.5889122]}}
{"name":"Zacapa","other_names":{"name:hu":"Zacapa"},"display_name":"Zacapa, Municipio de Zacapa, Zacapa, Guatemala","address":{"city":"Zacapa","state":"Zacapa","ISO3166-2-lvl4":"GT-19","country":"Guatemala","country_code":"gt"},"population":19611,"osm_type":"node","osm_id":3250731081,"type":"city","location":[-89.5297411,14.9707219],"bbox":[-89.6897411,14.8107219,-89.3697411,15.1307219],"border":{"name":"Municipio de Zacapa","other_names":{"name:es":"Municipio de Zacapa","name:hu":"Zacapa","alt":"Zacapa"},"display_name":"Municipio de Zacapa, Zacapa, 19001, Guatemala","address":{"city":"Municipio de Zacapa","state":"Zacapa","ISO3166-2-lvl4":"GT-19","postcode":"19001","country":"Guatemala","country_code":"gt"},"population":59089,"osm_type":"relation","osm_id":4559589,"type":"administrative","location":[-89.5297411,14.9707219],"bbox":[-89.6493968,14.8573369,-89.3168865,15.0842692]}}
