{"name":"Andreas","other_names":{"name:be":"Андрэас","name:en":"Andreas","name:gv":"Andreas","name:ru":"Андреас","name:uk":"Андреас","alt_name":"Kirk Andreas"},"display_name":"Andreas, Ayre, Isle of Man","address":{"village":"Andreas","county":"Ayre","country":"Isle of Man","country_code":"im"},"population":1428,"osm_type":"node","osm_id":5712582248,"type":"village","location":[-4.4444608,54.3672437],"bbox":[-4.4644608,54.3472437,-4.4244608,54.3872437],"border":[{"name":"Andreas","other_names":{"name:en":"Andreas","name:gv":"Andreas"},"display_name":"Andreas, Ayre, Isle of Man","address":{"village":"Andreas","county":"Ayre","country":"Isle of Man","country_code":"im"},"osm_type":"way","osm_id":83352983,"type":"village","location":[-4.444528090305354,54.36920845],"bbox":[-4.4533279,54.3642473,-4.4372821,54.3741914]},{"name":"Andreas","other_names":{"name:en":"Andreas","name:be":"Андрэас","name:gv":"Andreas","name:ru":"Андреас","name:uk":"Андреас","alt_name":"Kirk Andreas"},"display_name":"Andreas, Ayre, Isle of Man","address":{"village":"Andreas","county":"Ayre","country":"Isle of Man","country_code":"im"},"population":1428,"osm_type":"relation","osm_id":1061131,"type":"administrative","location":[-4.4444608,54.3672437],"bbox":[-4.5007925,54.332263,-4.4037775,54.4036888]}]}
{"name":"Baldrine","display_name":"Baldrine, Lonan, Garff, IM4 6DU, Isle of Man","address":{"village":"Baldrine","city":"Lonan","county":"Garff","postcode":"IM4 6DU","country":"Isle of Man","country_code":"im"},"osm_type":"node","osm_id":475394412,"type":"village","location":[-4.4077582,54.2034406],"bbox":[-4.4277582,54.1834406,-4.3877582,54.2234406]}
{"name":"Ballasalla","other_names":{"name:en":"Ballasalla","name:gd":"Balley Salagh","name:gv":"Balley Sallagh","alt_name:gd":"Baile Salach"},"display_name":"Ballasalla, Malew, Rushen, IM9 3DA, Isle of Man","address":{"village":"Ballasalla","city":"Malew","county":"Rushen","postcode":"IM9 3DA","country":"Isle of Man","country_code":"im"},"osm_type":"node","osm_id":1287831031,"type":"village","location":[-4.6316184,54.0977846],"bbox":[-4.6516184,54.0777846,-4.6116184,54.1177846],"border":{"name":"Ballasalla","other_names":{"name:en":"Ballasalla","name:gv":"Balley Sallagh","name:gd":"Balley Salagh","alt_name:gd":"Baile Salach"},"display_name":"Ballasalla, Malew, Rushen, Isle of Man","address":{"village":"Ballasalla","city":"Malew","county":"Rushen","country":"Isle of Man","country_code":"im"},"osm_type":"relation","osm_id":14716437,"type":"village","location":[-4.6316184,54.0977846],"bbox":[-4.6387832,54.0934422,-4.6177825,54.1052777]}}
{"name":"Ballaugh","other_names":{"name:gv":"Balley ny Loughey"},"display_name":"Ballaugh, Michael, Isle of Man","address":{"village":"Ballaugh","county":"Michael","country":"Isle of Man","country_code":"im"},"osm_type":"node","osm_id":6948740313,"type":"village","location":[-4.5430536,54.3119375],"bbox":[-4.5630536,54.2919375,-4.5230536,54.3319375],"border":[{"name":"Ballaugh","other_names":{"name:en":"Ballaugh","name:gv":"Balley ny Loghey"},"display_name":"Ballaugh, Michael, Isle of Man","address":{"village":"Ballaugh","county":"Michael","country":"Isle of Man","country_code":"im"},"osm_type":"way","osm_id":83354912,"type":"village","location":[-4.542891158387038,54.31168995],"bbox":[-4.5484882,54.3085757,-4.5361629,54.3153268]},{"name":"Ballaugh","other_names":{"name:en":"Ballaugh","name:gv":"Balley ny Loughey"},"display_name":"Ballaugh, Michael, Isle of Man","address":{"village":"Ballaugh","county":"Michael","country":"Isle of Man","country_code":"im"},"osm_type":"relation","osm_id":1028023,"type":"administrative","location":[-4.5430536,54.3119375],"bbox":[-4.5763837,54.2693744,-4.5010568,54.343119]}]}
{"name":"Bride","other_names":{"name:en":"Bride","name:gd":"Vreeshey","name:gv":"Vreeshey","alt_name:gd":"Brìghde"},"display_name":"Bride, Ayre, Isle of Man","address":{"village":"Bride","county":"Ayre","country":"Isle of Man","country_code":"im"},"osm_type":"node","osm_id":9306730399,"type":"village","location":[-4.3888574,54.3820769],"bbox":[-4.4088574,54.3620769,-4.3688574,54.4020769],"border":[{"name":"Bride","other_names":{"name:en":"Bride","name:gd":"Vreeshey","name:gv":"Vreeshey","alt_name:gd":"Brìghde"},"display_name":"Bride, Ayre, Isle of Man","address":{"village":"Bride","county":"Ayre","country":"Isle of Man","country_code":"im"},"osm_type":"way","osm_id":81765835,"type":"village","location":[-4.388527499429443,54.382087299999995],"bbox":[-4.3921177,54.3799524,-4.3842684,54.3841135]},{"name":"Bride","other_names":{"name:en":"Bride","name:gd":"Vreeshey","name:gv":"Vreeshey","alt_name:gd":"Brìghde"},"display_name":"Bride, Ayre, Isle of Man","address":{"village":"Bride","county":"Ayre","country":"Isle of Man","country_code":"im"},"osm_type":"relation","osm_id":1061141,"type":"administrative","location":[-4.3888574,54.3820769],"bbox":[-4.4291005,54.3482123,-4.3611083,54.4179892]}]}
{"name":"Colby","other_names":{"name:en":"Colby","name:gd":"Colby","name:gv":"Colby","alt_name:gd":"Colbaidh, Gualbaidh, Colbee","alt_name:gv":"Colbee"},"display_name":"Colby, Rushen, IM9 4NW, Isle of Man","address":{"village":"Colby","county":"Rushen","postcode":"IM9 4NW","country":"Isle of Man","country_code":"im"},"osm_type":"node","osm_id":1287831033,"type":"village","location":[-4.7046335,54.0966024],"bbox":[-4.7246335,54.0766024,-4.6846335,54.1166024],"border":{"name":"Colby","other_names":{"name:en":"Colby","name:gd":"Colby","name:gv":"Colby","alt_name:gd":"Colbaidh, Gualbaidh, Colbee","alt_name:gv":"Colbee"},"display_name":"Colby, Rushen, Isle of Man","address":{"village":"Colby","county":"Rushen","country":"Isle of Man","country_code":"im"},"osm_type":"way","osm_id":60499872,"type":"village","location":[-4.7046335,54.0966024],"bbox":[-4.7098638,54.0943192,-4.6953788,54.1026794]}}
{"name":"Crosby","other_names":{"name:en":"Crosby","name:gd":"Balley ny Croshey","name:gv":"Balley ny Croshey","alt_name:gd":"Baile na Croise"},"display_name":"Crosby, Marown, Middle, IM4 2DB, Isle of Man","address":{"village":"Crosby","city":"Marown","county":"Middle","postcode":"IM4 2DB","country":"Isle of Man","country_code":"im"},"osm_type":"node","osm_id":1773962836,"type":"village","location":[-4.5663605,54.1843735],"bbox":[-4.5863605,54.1643735,-4.5463605,54.2043735],"border":{"name":"Crosby","other_names":{"name:en":"Crosby","name:gd":"Balley ny Croshey","name:gv":"Balley ny Croshey","alt_name:gd":"Baile na Croise"},"display_name":"Crosby, Marown, Middle, Isle of Man","address":{"village":"Crosby","city":"Marown","county":"Middle","country":"Isle of Man","country_code":"im"},"osm_type":"relation","osm_id":15524161,"type":"village","location":[-4.5663605,54.1843735],"bbox":[-4.5725526,54.1821898,-4.5609482,54.1873324]}}
{"name":"Dreemskerry","display_name":"Dreemskerry, Maughold, Garff, IM7 1AZ, Isle of Man","address":{"village":"Dreemskerry","county":"Garff","postcode":"IM7 1AZ","country":"Isle of Man","country_code":"im"},"osm_type":"node","osm_id":283509321,"type":"village","location":[-4.3364175,54.2924486],"bbox":[-4.3564175,54.2724486,-4.3164175,54.3124486]}
{"name":"Foxdale","other_names":{"name:en":"Foxdale","name:gv":"Forsdal"},"display_name":"Foxdale, Patrick, Glenfaba, IM4 3HW, Isle of Man","address":{"village":"Foxdale","county":"Glenfaba","postcode":"IM4 3HW","country":"Isle of Man","country_code":"im"},"osm_type":"node","osm_id":6948694189,"type":"village","location":[-4.6349243,54.1695338],"bbox":[-4.6549243,54.1495338,-4.6149243,54.1895338],"border":{"name":"Foxdale","other_names":{"name:en":"Foxdale","name:gd":"Forsdal","name:gv":"Forsdal"},"display_name":"Foxdale, Patrick, Glenfaba, Isle of Man","address":{"village":"Foxdale","county":"Glenfaba","country":"Isle of Man","country_code":"im"},"osm_type":"way","osm_id":83376253,"type":"village","location":[-4.6349243,54.1695338],"bbox":[-4.6410293,54.1678042,-4.6284954,54.172676]}}
{"name":"Glen Maye","other_names":{"name:en":"Glen Maye","name:gv":"Glion Meay","alt_name":"Glenmaye"},"display_name":"Glen Maye, Patrick, Glenfaba, IM5 3BB, Isle of Man","address":{"village":"Glen Maye","county":"Glenfaba","postcode":"IM5 3BB","country":"Isle of Man","country_code":"im"},"osm_type":"node","osm_id":283479392,"type":"village","location":[-4.7030596,54.1846582],"bbox":[-4.7230596,54.1646582,-4.6830596,54.2046582]}
{"name":"Glen Vine","other_names":{"name:en":"Glen Vine","name:gv":"Glion Vian"},"display_name":"Glen Vine, Marown, Middle, IM4 4BA, Isle of Man","address":{"village":"Glen Vine","city":"Marown","county":"Middle","postcode":"IM4 4BA","country":"Isle of Man","country_code":"im"},"osm_type":"node","osm_id":1773962837,"type":"village","location":[-4.5529841,54.1769461],"bbox":[-4.5729841,54.1569461,-4.5329841,54.1969461],"border":{"name":"Glen Vine","other_names":{"name:en":"Glen Vine","name:gv":"Glion Vian"},"display_name":"Glen Vine, Marown, Middle, Isle of Man","address":{"village":"Glen Vine","city":"Marown","county":"Middle","country":"Isle of Man","country_code":"im"},"osm_type":"way","osm_id":38336588,"type":"village","location":[-4.5529841,54.1769461],"bbox":[-4.5584918,54.1731172,-4.5436189,54.1832606]}}
{"name":"Jurby","other_names":{"name:gv":"Jorby"},"display_name":"Jurby, Michael, Isle of Man","address":{"village":"Jurby","county":"Michael","country":"Isle of Man","country_code":"im"},"osm_type":"node","osm_id":4498568404,"type":"village","location":[-4.5191932,54.3600908],"bbox":[-4.5391932,54.3400908,-4.4991932,54.3800908],"border":{"name":"Jurby","other_names":{"name:en":"Jurby","name:gv":"Jorby"},"display_name":"Jurby, Michael, Isle of Man","address":{"village":"Jurby","county":"Michael","country":"Isle of Man","country_code":"im"},"osm_type":"relation","osm_id":1061143,"type":"administrative","location":[-4.5191932,54.3600908],"bbox":[-4.5541585,54.3338967,-4.4709242,54.3837673]}}
{"name":"Kirk Michael","other_names":{"name:en":"Kirk Michael","name:gd":"Balley Keeil Vaayl","name:gv":"Balley Keeill Vaayl","alt_name:gd":"Baile Cill Mhìcheil"},"display_name":"Kirk Michael, Michael, IM6 1AF, Isle of Man","address":{"village":"Kirk Michael","city":"Michael","county":"Michael","postcode":"IM6 1AF","country":"Isle of Man","country_code":"im"},"osm_type":"node","osm_id":283505157,"type":"village","location":[-4.5881535,54.2847452],"bbox":[-4.6081535,54.2647452,-4.5681535,54.3047452],"border":{"name":"Kirk Michael","other_names":{"name:en":"Kirk Michael","name:gd":"Balley Keeil Vaayl","name:gv":"Balley Keeill Vaayl","alt_name:gd":"Baile Cill Mhìcheil"},"display_name":"Kirk Michael, Michael, Isle of Man","address":{"village":"Kirk Michael","city":"Michael","county":"Michael","country":"Isle of Man","country_code":"im"},"osm_type":"way","osm_id":114185354,"type":"village","location":[-4.5881535,54.2847452],"bbox":[-4.5955901,54.2776791,-4.5794537,54.2902303]}}
{"name":"Laxey","other_names":{"name:be":"Лаксі","name:en":"Laxey","name:gd":"Laksaa","name:gv":"Laksaa","alt_name:gd":"Lacsà, Bàgh nam Bradan","alt_name:gv":"Baie ny Mraddan"},"display_name":"Laxey, Garff, Isle of Man","address":{"village":"Laxey","county":"Garff","country":"Isle of Man","country_code":"im"},"osm_type":"node","osm_id":410291638,"type":"village","location":[-4.4002383,54.2301076],"bbox":[-4.4202383,54.2101076,-4.3802383,54.2501076],"border":{"name":"Laxey","other_names":{"name:en":"Laxey","name:gv":"Laksaa","name:nl":"Laxey","name:be":"Лаксі","name:gd":"Laksaa","alt_name:gd":"Lacsà, Bàgh nam Bradan","alt_name:gv":"Baie ny Mraddan"},"display_name":"Laxey, Garff, Isle of Man","address":{"village":"Laxey","county":"Garff","country":"Isle of Man","country_code":"im"},"osm_type":"relation","osm_id":1061137,"type":"administrative","location":[-4.4002383,54.2301076],"bbox":[-4.4149036,54.2198569,-4.3829237,54.2400406]}}
{"name":"Maughold","other_names":{"name:be":"Магольд","name:en":"Maughold","name:ru":"Могольд","name:uk":"Могольд"},"display_name":"Maughold, Garff, Isle of Man","address":{"village":"Maughold","county":"Garff","country":"Isle of Man","country_code":"im"},"osm_type":"node","osm_id":283504480,"type":"village","location":[-4.3182991,54.2986783],"bbox":[-4.3382991,54.2786783,-4.2982991,54.3186783],"border":{"name":"Maughold","other_names":{"name:en":"Maughold","name:be":"Магольд","name:ru":"Могольд","name:uk":"Могольд"},"display_name":"Maughold, Garff, Isle of Man","address":{"village":"Maughold","county":"Garff","country":"Isle of Man","country_code":"im"},"osm_type":"relation","osm_id":1061140,"type":"administrative","location":[-4.3182991,54.2986783],"bbox":[-4.4455069,54.2448927,-4.3078354,54.318424]}}
{"name":"Onchan","other_names":{"name:be":"Онкан","name:en":"Onchan","name:gd":"Kione Droghad","name:gv":"Kione Droghad","alt_name:gd":"Ceann Drochaide"},"display_name":"Onchan, Middle, Isle of Man","address":{"village":"Onchan","town":"Onchan","county":"Middle","country":"Isle of Man","country_code":"im"},"osm_type":"node","osm_id":4013424280,"type":"village","location":[-4.4554497,54.1749257],"bbox":[-4.4754497,54.1549257,-4.4354497,54.1949257],"border":{"name":"Onchan","other_names":{"name:en":"Onchan","name:gd":"Kione Droghad","name:gv":"Kione Droghad","alt_name:gd":"Ceann Drochaide","name:be":"Онкан"},"display_name":"Onchan, Middle, Isle of Man","address":{"town":"Onchan","county":"Middle","country":"Isle of Man","country_code":"im"},"osm_type":"relation","osm_id":1061142,"type":"administrative","location":[-4.4554497,54.1749257],"bbox":[-4.51337,54.165698,-4.4205626,54.230739]}}
{"name":"Patrick","display_name":"Patrick, Glenfaba, Isle of Man","address":{"village":"Patrick","county":"Glenfaba","country":"Isle of Man","country_code":"im"},"osm_type":"node","osm_id":475393292,"type":"village","location":[-4.6955465,54.2064202],"bbox":[-4.7155465,54.1864202,-4.6755465,54.2264202],"border":{"name":"Patrick","display_name":"Patrick, Glenfaba, Isle of Man","address":{"village":"Patrick","county":"Glenfaba","country":"Isle of Man","country_code":"im"},"osm_type":"relation","osm_id":1029648,"type":"administrative","location":[-4.6955465,54.2064202],"bbox":[-4.7442287,54.134342,-4.603835,54.2215848]}}
{"name":"Port Erin","other_names":{"name:be":"Порт Эрын","name:en":"Port Erin","name:gv":"Purt Çhiarn","name:ru":"Порт Эрин","name:uk":"Порт Ерін","alt_name:gd":"Port Tighearna"},"display_name":"Port Erin, Rushen, Isle of Man","address":{"village":"Port Erin","county":"Rushen","country":"Isle of Man","country_code":"im"},"osm_type":"node","osm_id":1287831029,"type":"village","location":[-4.7568003,54.086017],"bbox":[-4.7768003,54.066017,-4.7368003,54.106017],"border":{"name":"Port Erin","other_names":{"name:en":"Port Erin","name:gd":"Purt Çhiarn","name:gv":"Purt Chiarn","name:ru":"Порт-Эрин","alt_name:gd":"Port Tighearna","name:be":"Порт Эрын","name:uk":"Порт Ерін","alt:gv":"Purt Çhiarn","alt:ru":"Порт Эрин"},"display_name":"Port Erin, Rushen, Isle of Man","address":{"village":"Port Erin","county":"Rushen","country":"Isle of Man","country_code":"im"},"osm_type":"relation","osm_id":1032811,"type":"administrative","location":[-4.7568003,54.086017],"bbox":[-4.7797875,54.0795027,-4.7446553,54.1007486]}}
{"name":"Port Saint Mary","other_names":{"name:en":"Port Saint Mary","name:gd":"Purt le Moirrey","name:gv":"Purt le Moirrey","name:ru":"Порт-Сент-Мэри","alt_name:gd":"Port le Moire"},"display_name":"Port Saint Mary, Rushen, Isle of Man","address":{"village":"Port Saint Mary","county":"Rushen","country":"Isle of Man","country_code":"im"},"osm_type":"node","osm_id":1287831044,"type":"village","location":[-4.7391371,54.077268],"bbox":[-4.7591371,54.057268,-4.7191371,54.097268],"border":{"name":"Port Saint Mary","other_names":{"name:en":"Port Saint Mary","name:gd":"Purt le Moirrey","name:gv":"Purt le Moirrey","name:ru":"Порт-Сент-Мэри","alt_name:gd":"Port le Moire"},"display_name":"Port Saint Mary, Rushen, Isle of Man","address":{"village":"Port Saint Mary","county":"Rushen","country":"Isle of Man","country_code":"im"},"osm_type":"relation","osm_id":1034178,"type":"administrative","location":[-4.7391371,54.077268],"bbox":[-4.7523599,54.0671594,-4.7282612,54.0849044]}}
{"name":"St Johns","other_names":{"name:en":"St Johns","name:gd":"Balley Keeill Eoin","name:gv":"Balley Keeill Eoin","alt_name:gd":"Baile Cill Eòin"},"display_name":"St Johns, German, Glenfaba, IM4 3NA, Isle of Man","address":{"village":"St Johns","city":"German","county":"Glenfaba","postcode":"IM4 3NA","country":"Isle of Man","country_code":"im"},"osm_type":"node","osm_id":283504450,"type":"village","location":[-4.6420438,54.2024332],"bbox":[-4.6620438,54.1824332,-4.6220438,54.2224332]}
{"name":"Strang","display_name":"Strang, Braddan, Middle, Isle of Man","address":{"village":"Strang","city":"Braddan","county":"Middle","country":"Isle of Man","country_code":"im"},"osm_type":"node","osm_id":1773962838,"type":"village","location":[-4.513393,54.1722897],"bbox":[-4.533393,54.1522897,-4.493393,54.1922897],"border":{"name":"Strang","display_name":"Strang, Braddan, Middle, Isle of Man","address":{"village":"Strang","city":"Braddan","county":"Middle","country":"Isle of Man","country_code":"im"},"osm_type":"way","osm_id":79240231,"type":"village","location":[-4.513393,54.1722897],"bbox":[-4.5152373,54.1686195,-4.5092459,54.1748681]}}
{"name":"Sulby","other_names":{"name:en":"Sulby","name:gd":"Sulby","alt_name:gd":"Sulbaidh"},"display_name":"Sulby, Lezayre, Ayre, IM7 2HP, Isle of Man","address":{"village":"Sulby","city":"Lezayre","county":"Ayre","postcode":"IM7 2HP","country":"Isle of Man","country_code":"im"},"osm_type":"node","osm_id":967364100,"type":"village","location":[-4.4895805,54.3197288],"bbox":[-4.5095805,54.2997288,-4.4695805,54.3397288]}
{"name":"Tromode","display_name":"Tromode, Onchan, Middle, IM2 5NT, Isle of Man","address":{"village":"Tromode","county":"Middle","postcode":"IM2 5NT","country":"Isle of Man","country_code":"im"},"osm_type":"node","osm_id":11193059835,"type":"village","location":[-4.4951824,54.1692796],"bbox":[-4.5151824,54.1492796,-4.4751824,54.1892796]}
{"name":"Union Mills","other_names":{"name:en":"Union Mills","name:gd":"Mwyllin Doo Aah","name:gv":"Mwyllin Doo Aah","alt_name:gd":"Muileann Dubh Àtha"},"display_name":"Union Mills, Middle, IM4 4AD, Isle of Man","address":{"village":"Union Mills","county":"Middle","postcode":"IM4 4AD","country":"Isle of Man","country_code":"im"},"osm_type":"node","osm_id":1773962839,"type":"village","location":[-4.522811,54.1697696],"bbox":[-4.542811,54.1497696,-4.502811,54.1897696],"border":{"name":"Union Mills","other_names":{"name:en":"Union Mills","name:gd":"Mwyllin Doo Aah","name:gv":"Mwyllin Doo Aah","alt_name:gd":"Muileann Dubh Àtha"},"display_name":"Union Mills, Middle, Isle of Man","address":{"village":"Union Mills","county":"Middle","country":"Isle of Man","country_code":"im"},"osm_type":"way","osm_id":79240227,"type":"village","location":[-4.522811,54.1697696],"bbox":[-4.5312719,54.1657112,-4.5158934,54.1735431]}}
