{"name":"Castletown","other_names":{"name:be":"Каслтаун","name:en":"Castletown","name:gd":"Balley Chashtal","name:gv":"Balley Chashtal","name:mk":"Каслтаун","name:ru":"Каслтаун","name:uk":"Каслтаун","alt_name:gd":"Baile Chaisteil"},"display_name":"Castletown, Rushen, Isle of Man","address":{"town":"Castletown","county":"Rushen","country":"Isle of Man","country_code":"im"},"osm_type":"node","osm_id":10131472250,"type":"town","location":[-4.653157,54.0733926],"bbox":[-4.693157,54.0333926,-4.613157,54.1133926],"border":{"name":"Castletown","other_names":{"name:en":"Castletown","name:gd":"Balley Chashtal","name:gv":"Balley Chashtal","name:mk":"Каслтаун","name:ru":"Каслтаун","alt_name:gd":"Baile a' Chaisteil","name:be":"Каслтаун","name:uk":"Каслтаун","_place_alt_name:gd":"Baile Chaisteil"},"display_name":"Castletown, Rushen, Isle of Man","address":{"town":"Castletown","county":"Rushen","country":"Isle of Man","country_code":"im"},"population":3109,"osm_type":"relation","osm_id":1031319,"type":"administrative","location":[-4.653157,54.0733926],"bbox":[-4.6745893,54.069538,-4.6327849,54.0847495]}}
{"name":"Peel","other_names":{"name:be":"Піл","name:en":"Peel","name:gd":"Purt ny h-Inshey","name:gv":"Purt ny h-Inshey","name:mk":"Пил","name:ru":"Пил","name:te":"పేల్","name:uk":"Піл","alt_name:gd":"Port na h-Innse"},"display_name":"Peel, Glenfaba, Isle of Man","address":{"town":"Peel","city":"Peel","county":"Glenfaba","country":"Isle of Man","country_code":"im"},"osm_type":"node","osm_id":4013424282,"type":"town","location":[-4.6957105,54.2229326],"bbox":[-4.7357105,54.1829326,-4.6557105,54.2629326],"border":{"name":"Peel","other_names":{"name:en":"Peel","name:gd":"Purt ny h-Inshey","name:gv":"Purt ny h-Inshey","name:ru":"Пил","name:te":"పేల్","alt_name:gd":"Port na h-Innse","name:be":"Піл","name:mk":"Пил","name:uk":"Піл"},"display_name":"Peel, Glenfaba, Isle of Man","address":{"city":"Peel","county":"Glenfaba","country":"Isle of Man","country_code":"im"},"population":5093,"osm_type":"relation","osm_id":1061133,"type":"administrative","location":[-4.6957105,54.2229326],"bbox":[-4.7067018,54.2130798,-4.6735891,54.2308224]}}
{"name":"Ramsey","other_names":{"name:be":"Рэмзі","name:en":"Ramsey","name:gd":"Rhumsaa","name:gv":"Rhumsaa","name:mk":"Рамзи","name:ru":"Рэмси","name:uk":"Рамзі","alt_name:gd":"Ramsà"},"display_name":"Ramsey, Garff, Isle of Man","address":{"town":"Ramsey","county":"Garff","country":"Isle of Man","country_code":"im"},"osm_type":"node","osm_id":2199688012,"type":"town","location":[-4.38252,54.3216912],"bbox":[-4.42252,54.2816912,-4.34252,54.3616912],"border":{"name":"Ramsey","other_names":{"name:be":"Рэмсі","name:cs":"Ramsey","name:en":"Ramsey","name:gd":"Rhumsaa","name:gv":"Rhumsaa","name:ru":"Рамси","name:non":"Hrams-á","alt_name:gd":"Ramsà","name:mk":"Рамзи","name:uk":"Рамзі","alt:be":"Рэмзі","alt:ru":"Рэмси"},"display_name":"Ramsey, Garff, IM8, Isle of Man","address":{"town":"Ramsey","county":"Garff","postcode":"IM8","country":"Isle of Man","country_code":"im"},"population":7309,"osm_type":"relation","osm_id":1061132,"type":"administrative","location":[-4.38252,54.3216912],"bbox":[-4.4093076,54.3127101,-4.3654574,54.3383447]}}
