{"name":"Artemisa","other_names":{"name:ru":"Артемиса","name:uk":"Артеміса"},"display_name":"Artemisa, Cuba","address":{"city":"Artemisa","state":"Artemisa","ISO3166-2-lvl4":"CU-15","country":"Cuba","country_code":"cu"},"population":48897,"osm_type":"node","osm_id":259846349,"type":"city","location":[-82.7630555,22.8127715],"bbox":[-82.9230555,22.6527715,-82.6030555,22.9727715],"border":{"name":"Artemisa","other_names":{"name:es":"Artemisa","name:ru":"Артемиса","name:uk":"Артеміса"},"display_name":"Artemisa, Cuba","address":{"city":"Artemisa","state":"Artemisa","ISO3166-2-lvl4":"CU-15","country":"Cuba","country_code":"cu"},"population":48897,"osm_type":"relation","osm_id":2576646,"type":"administrative","location":[-82.7630555,22.8127715],"bbox":[-82.9833932,22.5995553,-82.6572339,22.9326462]}}
{"name":"Banes","other_names":{"name:ru":"Банес","name:uk":"Банес"},"display_name":"Banes, Holguín, Cuba","address":{"city":"Banes","state":"Holguín","ISO3166-2-lvl4":"CU-11","country":"Cuba","country_code":"cu"},"population":35316,"osm_type":"node","osm_id":259846373,"type":"city","location":[-75.722894,20.9617915],"bbox":[-75.882894,20.8017915,-75.562894,21.1217915],"border":{"name":"Banes","other_names":{"name:es":"Banes","name:ru":"Банес","name:uk":"Банес"},"display_name":"Banes, Holguín, Cuba","address":{"city":"Banes","state":"Holguín","ISO3166-2-lvl4":"CU-11","country":"Cuba","country_code":"cu"},"population":35316,"osm_type":"relation","osm_id":5904269,"type":"administrative","location":[-75.722894,20.9617915],"bbox":[-75.9159434,20.7516099,-75.5732412,21.1344172]}}
{"name":"Baracoa","other_names":{"name:hu":"Baracoa","name:ru":"Баракоа","old_name":"Nuestra Señora de la Asunción de Baracoa"},"display_name":"Baracoa, Guantánamo, Cuba","address":{"city":"Baracoa","state":"Guantánamo","ISO3166-2-lvl4":"CU-14","country":"Cuba","country_code":"cu"},"population":43062,"osm_type":"node","osm_id":259846377,"type":"city","location":[-74.4968647,20.3477869],"bbox":[-74.6568647,20.1877869,-74.3368647,20.5077869],"border":{"name":"Baracoa","other_names":{"name:es":"Baracoa","name:hu":"Baracoa","name:ru":"Баракоа","old_name":"Nuestra Señora de la Asunción de Baracoa"},"display_name":"Baracoa, Guantánamo, 97310, Cuba","address":{"city":"Baracoa","state":"Guantánamo","ISO3166-2-lvl4":"CU-14","postcode":"97310","country":"Cuba","country_code":"cu"},"population":43062,"osm_type":"relation","osm_id":5927810,"type":"administrative","location":[-74.4968647,20.3477869],"bbox":[-74.791832,20.1657771,-74.2863635,20.5540443]}}
{"name":"Bayamo","other_names":{"name:hu":"Bayamo","name:ru":"Баямо","name:uk":"Баямо"},"display_name":"Bayamo, Granma, Cuba","address":{"city":"Bayamo","state":"Granma","ISO3166-2-lvl4":"CU-12","country":"Cuba","country_code":"cu"},"population":225567,"osm_type":"node","osm_id":259846381,"type":"city","location":[-76.6494244,20.3734145],"bbox":[-76.8094244,20.2134145,-76.4894244,20.5334145],"border":{"name":"Bayamo","other_names":{"name:es":"Bayamo","name:hu":"Bayamo","name:ru":"Баямо","name:uk":"Баямо"},"display_name":"Bayamo, Granma, Cuba","address":{"city":"Bayamo","state":"Granma","ISO3166-2-lvl4":"CU-12","country":"Cuba","country_code":"cu"},"population":225567,"osm_type":"relation","osm_id":5915221,"type":"administrative","location":[-76.6494244,20.3734145],"bbox":[-76.8723307,20.2177844,-76.5125884,20.5910151]}}
{"name":"Caibarién","other_names":{"name:hu":"Caibarién","name:ru":"Кайбарьен"},"display_name":"Caibarién, Villa Clara, Cuba","address":{"city":"Caibarién","state":"Villa Clara","ISO3166-2-lvl4":"CU-05","country":"Cuba","country_code":"cu"},"population":33683,"osm_type":"node","osm_id":259846353,"type":"city","location":[-79.4719441,22.5243036],"bbox":[-79.6319441,22.3643036,-79.3119441,22.6843036],"border":{"name":"Caibarién","other_names":{"name:es":"Caibarién","name:hu":"Caibarién","name:ru":"Кайбарьен"},"display_name":"Caibarién, Villa Clara, Cuba","address":{"city":"Caibarién","state":"Villa Clara","ISO3166-2-lvl4":"CU-05","country":"Cuba","country_code":"cu"},"population":33683,"osm_type":"relation","osm_id":5884787,"type":"administrative","location":[-79.4719441,22.5243036],"bbox":[-79.742497,22.4030936,-78.9576351,22.9061394]}}
{"name":"Camagüey","other_names":{"name:en":"Camagüey","name:hu":"Camagüey","name:ru":"Камагуэй","name:uk":"Камагуей","old_name":"Santa María del Puerto del Príncipe"},"display_name":"Camagüey, Cuba","address":{"city":"Camagüey","state":"Camagüey","ISO3166-2-lvl4":"CU-09","country":"Cuba","country_code":"cu"},"population":306186,"osm_type":"node","osm_id":259846368,"type":"city","location":[-77.9183681,21.3791765],"bbox":[-78.0783681,21.2191765,-77.7583681,21.5391765],"border":{"name":"Camagüey","other_names":{"name:es":"Camagüey","name:en":"Camagüey","name:hu":"Camagüey","name:ru":"Камагуэй","name:uk":"Камагуей","old_name":"Santa María del Puerto del Príncipe"},"display_name":"Camagüey, Cuba","address":{"city":"Camagüey","state":"Camagüey","ISO3166-2-lvl4":"CU-09","country":"Cuba","country_code":"cu"},"population":306186,"osm_type":"relation","osm_id":5892220,"type":"administrative","location":[-77.9183681,21.3791765],"bbox":[-78.1465488,21.2031519,-77.6600147,21.6260322]}}
{"name":"Cárdenas","other_names":{"name:ru":"Карденас"},"display_name":"Cárdenas, Matanzas, Cuba","address":{"city":"Cárdenas","state":"Matanzas","ISO3166-2-lvl4":"CU-04","country":"Cuba","country_code":"cu"},"population":88987,"osm_type":"node","osm_id":259846345,"type":"city","location":[-81.2027158,23.0372705],"bbox":[-81.3627158,22.8772705,-81.0427158,23.1972705],"border":{"name":"Cárdenas","other_names":{"name:es":"Cárdenas","name:ru":"Карденас"},"display_name":"Cárdenas, Matanzas, Cuba","address":{"city":"Cárdenas","state":"Matanzas","ISO3166-2-lvl4":"CU-04","country":"Cuba","country_code":"cu"},"population":88987,"osm_type":"relation","osm_id":5875948,"type":"administrative","location":[-81.2027158,23.0372705],"bbox":[-81.4416276,22.8339642,-81.0560569,23.205366]}}
{"name":"Ciego de Ávila","other_names":{"name:es":"Ciego de Ávila","name:ru":"Сьего-де-Авила"},"display_name":"Ciego de Ávila, Marcial Gómez, Barrio Central, Centro de la Ciudad, Ciudad de Ciego de Ávila, Ciego de Ávila, 65200, Cuba","address":{"historic":"Ciego de Ávila","road":"Marcial Gómez","neighbourhood":"Barrio Central","suburb":"Centro de la Ciudad","city_district":"Ciudad de Ciego de Ávila","city":"Ciego de Ávila","state":"Ciego de Ávila","ISO3166-2-lvl4":"CU-08","postcode":"65200","country":"Cuba","country_code":"cu"},"population":119394,"osm_type":"node","osm_id":1928895764,"type":"monument","location":[-78.7599682,21.8420472],"bbox":[-78.7600182,21.8419972,-78.7599182,21.8420972],"border":{"name":"Ciego de Ávila","other_names":{"name:es":"Ciego de Ávila","name:ru":"Сьего-де-Авила"},"display_name":"Ciego de Ávila, Cuba","address":{"city":"Ciego de Ávila","state":"Ciego de Ávila","ISO3166-2-lvl4":"CU-08","country":"Cuba","country_code":"cu"},"population":119394,"osm_type":"relation","osm_id":5887667,"type":"administrative","location":[-78.7599682,21.8420472],"bbox":[-78.896751,21.7617871,-78.6250045,21.9947411]}}
{"name":"Cienfuegos","other_names":{"name:da":"Cienfuegos","name:de":"Cienfuegos","name:es":"Cienfuegos","name:fr":"Cienfuegos","name:hu":"Cienfuegos","name:it":"Cienfuegos","name:nl":"Cienfuegos","name:no":"Cienfuegos","name:pl":"Cienfuegos","name:pt":"Cienfuegos","name:ro":"Cienfuegos","name:ru":"Сьенфуэгос","name:sr":"Сјенфуегос","name:tr":"Cienfuegos","name:uk":"Сьєнфуегос","name:zh":"西恩富戈斯"},"display_name":"Cienfuegos, Cuba","address":{"city":"Cienfuegos","state":"Cienfuegos","ISO3166-2-lvl4":"CU-06","country":"Cuba","country_code":"cu"},"population":150404,"osm_type":"node","osm_id":259846360,"type":"city","location":[-80.4530775,22.1459864],"bbox":[-80.6130775,21.9859864,-80.2930775,22.3059864],"border":{"name":"Cienfuegos","other_names":{"name:es":"Cienfuegos","name:da":"Cienfuegos","name:de":"Cienfuegos","name:fr":"Cienfuegos","name:hu":"Cienfuegos","name:it":"Cienfuegos","name:nl":"Cienfuegos","name:no":"Cienfuegos","name:pl":"Cienfuegos","name:pt":"Cienfuegos","name:ro":"Cienfuegos","name:ru":"Сьенфуэгос","name:sr":"Сјенфуегос","name:tr":"Cienfuegos","name:uk":"Сьєнфуегос","name:zh":"西恩富戈斯"},"display_name":"Cienfuegos, Cuba","address":{"city":"Cienfuegos","state":"Cienfuegos","ISO3166-2-lvl4":"CU-06","country":"Cuba","country_code":"cu"},"population":150404,"osm_type":"relation","osm_id":5884789,"type":"administrative","location":[-80.4530775,22.1459864],"bbox":[-80.5646629,22.0204133,-80.2702139,22.2277726]}}
{"name":"Colón","other_names":{"name:ru":"Колон","name:uk":"Колон"},"display_name":"Colón, Matanzas, Cuba","address":{"city":"Colón","state":"Matanzas","ISO3166-2-lvl4":"CU-04","country":"Cuba","country_code":"cu"},"population":44520,"osm_type":"node","osm_id":4855758731,"type":"city","location":[-80.9052014,22.7162013],"bbox":[-81.0652014,22.5562013,-80.7452014,22.8762013],"border":{"name":"Colón","other_names":{"name:es":"Colón","name:ru":"Колон","name:uk":"Колон"},"display_name":"Colón, Matanzas, 42400, Cuba","address":{"city":"Colón","state":"Matanzas","ISO3166-2-lvl4":"CU-04","postcode":"42400","country":"Cuba","country_code":"cu"},"population":44520,"osm_type":"relation","osm_id":5875947,"type":"administrative","location":[-80.9052014,22.7162013],"bbox":[-81.0546009,22.614853,-80.6974125,22.8996542]}}
{"name":"Contramaestre","other_names":{"name:ru":"Контрамаэстре"},"display_name":"Contramaestre, Santiago de Cuba, 92100, Cuba","address":{"city":"Contramaestre","state":"Santiago de Cuba","ISO3166-2-lvl4":"CU-13","postcode":"92100","country":"Cuba","country_code":"cu"},"population":47132,"osm_type":"node","osm_id":482602195,"type":"city","location":[-76.2441035,20.2996013],"bbox":[-76.4041035,20.1396013,-76.0841035,20.4596013],"border":{"name":"Contramaestre","other_names":{"name:es":"Contramaestre","name:ru":"Контрамаэстре"},"display_name":"Contramaestre, Santiago de Cuba, 92100, Cuba","address":{"city":"Contramaestre","state":"Santiago de Cuba","ISO3166-2-lvl4":"CU-13","postcode":"92100","country":"Cuba","country_code":"cu"},"population":47132,"osm_type":"relation","osm_id":5919047,"type":"administrative","location":[-76.2441035,20.2996013],"bbox":[-76.39459,20.1652502,-76.0758823,20.493743]}}
{"name":"Florida","other_names":{"name:de":"Florida","name:en":"Florida","name:fr":"Floride","name:hu":"Florida","name:it":"Florida","name:ru":"Флорида","name:zh":"弗洛里達"},"display_name":"Florida, Camagüey, Cuba","address":{"city":"Florida","state":"Camagüey","ISO3166-2-lvl4":"CU-09","country":"Cuba","country_code":"cu"},"population":53200,"osm_type":"node","osm_id":3408169817,"type":"city","location":[-78.2258106,21.5268861],"bbox":[-78.3858106,21.3668861,-78.0658106,21.6868861],"border":{"name":"Florida","other_names":{"name:es":"Florida","name:de":"Florida","name:en":"Florida","name:fr":"Floride","name:hu":"Florida","name:it":"Florida","name:ru":"Флорида","name:zh":"弗洛里達"},"display_name":"Florida, Camagüey, Cuba","address":{"city":"Florida","state":"Camagüey","ISO3166-2-lvl4":"CU-09","country":"Cuba","country_code":"cu"},"population":53200,"osm_type":"relation","osm_id":5892223,"type":"administrative","location":[-78.2258106,21.5268861],"bbox":[-78.6502874,21.2748329,-77.9651018,21.7157331]}}
{"name":"Guantánamo","other_names":{"name:da":"Guantanamo","name:en":"Guantanamo","name:hu":"Guantánamo","name:ru":"Гуантанамо","name:uk":"Ґуантанамо"},"display_name":"Guantánamo, Cuba","address":{"city":"Guantánamo","state":"Guantánamo","ISO3166-2-lvl4":"CU-14","country":"Cuba","country_code":"cu"},"population":216609,"osm_type":"node","osm_id":5520636453,"type":"city","location":[-75.2034783,20.1431797],"bbox":[-75.3634783,19.9831797,-75.0434783,20.3031797],"border":{"name":"Guantánamo","other_names":{"name:es":"Guantánamo","name:da":"Guantanamo","name:en":"Guantanamo","name:hu":"Guantánamo","name:ru":"Гуантанамо","name:uk":"Ґуантанамо"},"display_name":"Guantánamo, Cuba","address":{"city":"Guantánamo","state":"Guantánamo","ISO3166-2-lvl4":"CU-14","country":"Cuba","country_code":"cu"},"population":216609,"osm_type":"relation","osm_id":5927813,"type":"administrative","location":[-75.2034783,20.1431797],"bbox":[-75.2553498,20.0124968,-75.048422,20.2083581]}}
{"name":"Güines","other_names":{"name:ru":"Гвинес"},"display_name":"Güines, Mayabeque, Cuba","address":{"city":"Güines","state":"Mayabeque","ISO3166-2-lvl4":"CU-16","country":"Cuba","country_code":"cu"},"population":40855,"osm_type":"node","osm_id":3268535679,"type":"city","location":[-82.0284846,22.8371132],"bbox":[-82.1884846,22.6771132,-81.8684846,22.9971132],"border":{"name":"Güines","other_names":{"name:es":"Güines","name:ru":"Гвинес"},"display_name":"Güines, Mayabeque, 33900, Cuba","address":{"city":"Güines","state":"Mayabeque","ISO3166-2-lvl4":"CU-16","postcode":"33900","country":"Cuba","country_code":"cu"},"population":40855,"osm_type":"relation","osm_id":5539165,"type":"administrative","location":[-82.0284846,22.8371132],"bbox":[-82.1378777,22.6560913,-81.8567861,22.9420086]}}
{"name":"Holguín","other_names":{"name:en":"Holguín","name:hu":"Holguín","name:ru":"Ольгин","name:uk":"Ольгін"},"display_name":"Holguín, Cuba","address":{"city":"Holguín","state":"Holguín","ISO3166-2-lvl4":"CU-11","country":"Cuba","country_code":"cu"},"population":294002,"osm_type":"node","osm_id":259846376,"type":"city","location":[-76.2591995,20.8869704],"bbox":[-76.4191995,20.7269704,-76.0991995,21.0469704],"border":{"name":"Holguín","other_names":{"name:es":"Holguín","name:en":"Holguín","name:hu":"Holguín","name:ru":"Ольгин","name:uk":"Ольгін"},"display_name":"Holguín, Cuba","address":{"city":"Holguín","state":"Holguín","ISO3166-2-lvl4":"CU-11","country":"Cuba","country_code":"cu"},"population":294002,"osm_type":"relation","osm_id":5904276,"type":"administrative","location":[-76.2591995,20.8869704],"bbox":[-76.5158974,20.7611887,-76.0985677,21.0329899]}}
{"name":"La Habana","other_names":{"name:af":"Havana","name:am":"ሀቫና","name:an":"L'Habana","name:ar":"هافانا","name:az":"Havana","name:ba":"Гавана","name:be":"Гавана","name:bg":"Хавана","name:bn":"হাভানা","name:bo":"ཧ་ཝན","name:br":"La Habana","name:bs":"Havana","name:ca":"l'Havana","name:ce":"Гавана","name:cs":"Havana","name:cv":"Гавана","name:cy":"La Habana","name:da":"Havana","name:de":"Havanna","name:el":"Αβάνα","name:en":"Havana","name:eo":"Havano","name:es":"La Habana","name:et":"Havanna","name:eu":"Habana","name:fa":"هاوانا","name:fi":"Havanna","name:fo":"Havanna","name:fr":"La Havane","name:fy":"Havana","name:gd":"Havana","name:gl":"A Habana","name:gn":"Avána","name:ha":"Havana","name:he":"הוואנה","name:hi":"हवाना","name:hr":"Havana","name:ht":"La Avàn","name:hu":"Havanna","name:hy":"Հավանա","name:ia":"Havana","name:id":"Havana","name:ie":"Havana","name:io":"Havana","name:is":"Havana","name:it":"L'Avana","name:ja":"ハバナ","name:ka":"ჰავანა","name:ki":"Havana","name:kk":"Гавана","name:kn":"ಲಾ ಹಬನ","name:ko":"아바나","name:ku":"Havana","name:kw":"La Habana","name:ky":"Гавана","name:la":"Havana","name:lb":"Havanna","name:lo":"ຮາວານາ","name:lt":"Havana","name:lv":"Havana","name:mk":"Хавана","name:ml":"ഹവാന","name:mn":"Хавана","name:mr":"हवाना","name:ms":"Havana","name:mt":"Ħavana","name:my":"ဟာဗားနားမြို့","name:nb":"Havanna","name:nl":"Havana","name:nn":"Havanna","name:oc":"L'Avana","name:or":"ହାଭାନା","name:os":"Гаванæ","name:pa":"ਹਵਾਨਾ","name:pl":"Hawana","name:ps":"هاوانا","name:pt":"Havana","name:qu":"La Habana","name:ro":"Havana","name:ru":"Гавана","name:rw":"Havana","name:sc":"S'Avana","name:sd":"هوانا","name:sh":"Havana","name:si":"හවානා","name:sk":"Havana","name:sl":"Havana","name:sn":"Havana","name:sq":"Havana","name:sr":"Хавана","name:sv":"Havanna","name:sw":"Havana","name:ta":"அவானா","name:tg":"Ҳавана","name:th":"ฮาวานา","name:tl":"Havana","name:to":"Havana","name:tr":"Havana","name:tt":"Һавана","name:uk":"Гавана","name:ur":"ہوانا","name:uz":"Gavana","name:vi":"La Habana","name:vo":"La Habana","name:yi":"האוואנע","name:yo":"Havana","name:za":"Havana","name:zh":"哈瓦那","name:ace":"Havana","name:ang":"Hafana","name:ast":"L'Habana","name:bcl":"Habana","name:ceb":"La Habana","name:diq":"Havana","name:ext":"L'Avana","name:hif":"Havana","name:lij":"L'Avann-a","name:lmo":"L'Avana","name:nah":"La Ahuana","name:nan":"La Habana","name:nov":"Havana","name:pap":"Havana","name:pms":"L'Avan-a","name:pnb":"ہوانا","name:rmy":"La Habana","name:sah":"Хавана","name:scn":"L'Avana","name:sco":"Havana","name:srn":"Havana","name:vec":"Ł'Avana","name:war":"La Habana","name:yue":"夏灣拿","old_name":"San Cristóbal de La Habana","name:roa-rup":"La Habana","name:zh-Hans":"哈瓦那","name:zh-Hant":"哈瓦那","name:be-tarask":"Гавана"},"display_name":"La Habana, La Habana Vieja, La Habana, 10000, Cuba","address":{"city":"La Habana","county":"La Habana Vieja","state":"La Habana","ISO3166-2-lvl4":"CU-03","postcode":"10000","country":"Cuba","country_code":"cu"},"population":2141993,"osm_type":"node","osm_id":26396457,"type":"city","location":[-82.3589631,23.135305],"bbox":[-82.5189631,22.975305,-82.1989631,23.295305]}
{"name":"Las Tunas","other_names":{"name:hu":"Las Tunas","name:ru":"Лас-Тунас","name:uk":"Лас-Тунас"},"display_name":"Las Tunas, Cuba","address":{"city":"Las Tunas","state":"Las Tunas","ISO3166-2-lvl4":"CU-10","country":"Cuba","country_code":"cu"},"population":168645,"osm_type":"node","osm_id":259846374,"type":"city","location":[-76.9537242,20.9568858],"bbox":[-77.1137242,20.7968858,-76.7937242,21.1168858],"border":{"name":"Las Tunas","other_names":{"name:es":"Las Tunas","name:hu":"Las Tunas","name:ru":"Лас-Тунас","name:uk":"Лас-Тунас"},"display_name":"Las Tunas, Cuba","address":{"city":"Las Tunas","state":"Las Tunas","ISO3166-2-lvl4":"CU-10","country":"Cuba","country_code":"cu"},"population":168645,"osm_type":"relation","osm_id":5901299,"type":"administrative","location":[-76.9537242,20.9568858],"bbox":[-77.3016045,20.7183888,-76.8368561,21.17938]}}
{"name":"Manzanillo","other_names":{"name:hu":"Manzanillo","name:ru":"Мансанильо","name:uk":"Мансанільо"},"display_name":"Manzanillo, Granma, 87510, Cuba","address":{"city":"Manzanillo","state":"Granma","ISO3166-2-lvl4":"CU-12","postcode":"87510","country":"Cuba","country_code":"cu"},"population":117474,"osm_type":"node","osm_id":259846378,"type":"city","location":[-77.1201225,20.3454054],"bbox":[-77.2801225,20.1854054,-76.9601225,20.5054054],"border":{"name":"Manzanillo","other_names":{"name:es":"Manzanillo","name:hu":"Manzanillo","name:ru":"Мансанильо","name:uk":"Мансанільо"},"display_name":"Manzanillo, Granma, Cuba","address":{"city":"Manzanillo","state":"Granma","ISO3166-2-lvl4":"CU-12","country":"Cuba","country_code":"cu"},"population":117474,"osm_type":"relation","osm_id":5915227,"type":"administrative","location":[-77.1201225,20.3454054],"bbox":[-77.2468747,20.0574875,-76.9647626,20.4172097]}}
{"name":"Matanzas","other_names":{"name:hu":"Matanzas","name:ru":"Матансас","name:uk":"Матансас","loc_name":"La Ciudad de los Puentes","nat_name":"La Atenas de Cuba","old_name":"San Carlos y San Severino de Matanzas"},"display_name":"Matanzas, Cuba","address":{"city":"Matanzas","state":"Matanzas","ISO3166-2-lvl4":"CU-04","country":"Cuba","country_code":"cu"},"population":140107,"osm_type":"node","osm_id":259846344,"type":"city","location":[-81.5783032,23.0469236],"bbox":[-81.7383032,22.8869236,-81.4183032,23.2069236],"border":[{"name":"Matanzas","other_names":{"name:es":"Matanzas","name:hu":"Matanzas","name:ru":"Матансас","name:uk":"Матансас","loc_name":"La Ciudad de los Puentes","nat_name":"La Atenas de Cuba","old_name":"San Carlos y San Severino de Matanzas"},"display_name":"Matanzas, Cuba","address":{"city":"Matanzas","state":"Matanzas","ISO3166-2-lvl4":"CU-04","country":"Cuba","country_code":"cu"},"population":140107,"osm_type":"relation","osm_id":5875983,"type":"administrative","location":[-81.5783032,23.0469236],"bbox":[-81.7508273,22.95191,-81.4064287,23.1535688]},{"name":"Ciudad de Matanzas","other_names":{"name:es":"Ciudad de Matanzas","name:ru":"Матансас"},"display_name":"Ciudad de Matanzas, Matanzas, Cuba","address":{"city_district":"Ciudad de Matanzas","city":"Matanzas","state":"Matanzas","ISO3166-2-lvl4":"CU-04","country":"Cuba","country_code":"cu"},"osm_type":"relation","osm_id":11348462,"type":"administrative","location":[-81.58890641388291,23.0534389],"bbox":[-81.6206342,23.0019196,-81.4851169,23.1049315]}]}
{"name":"Moa","other_names":{"name:ru":"Моа"},"display_name":"Moa, Holguín, Cuba","address":{"city":"Moa","state":"Holguín","ISO3166-2-lvl4":"CU-11","country":"Cuba","country_code":"cu"},"population":60310,"osm_type":"node","osm_id":6062070833,"type":"city","location":[-74.9430494,20.6559593],"bbox":[-75.1030494,20.4959593,-74.7830494,20.8159593],"border":{"name":"Moa","other_names":{"name:es":"Moa","name:ru":"Моа"},"display_name":"Moa, Holguín, Cuba","address":{"city":"Moa","state":"Holguín","ISO3166-2-lvl4":"CU-11","country":"Cuba","country_code":"cu"},"population":60310,"osm_type":"relation","osm_id":5904287,"type":"administrative","location":[-74.9430494,20.6559593],"bbox":[-75.0967588,20.4051939,-74.7138655,20.7002027]}}
{"name":"Morón","other_names":{"name:es":"Morón","name:ru":"Морон","name:uk":"Морон"},"display_name":"Morón, Ciego de Ávila, Cuba","address":{"city":"Morón","state":"Ciego de Ávila","ISO3166-2-lvl4":"CU-08","country":"Cuba","country_code":"cu"},"population":59371,"osm_type":"node","osm_id":259846359,"type":"city","location":[-78.6269737,22.1067153],"bbox":[-78.7869737,21.9467153,-78.4669737,22.2667153],"border":{"name":"Morón","other_names":{"name:es":"Morón","name:ru":"Морон","name:uk":"Морон"},"display_name":"Morón, Ciego de Ávila, Cuba","address":{"city":"Morón","state":"Ciego de Ávila","ISO3166-2-lvl4":"CU-08","country":"Cuba","country_code":"cu"},"population":59371,"osm_type":"relation","osm_id":5887680,"type":"administrative","location":[-78.6269737,22.1067153],"bbox":[-78.7411313,21.9945626,-78.0640429,22.6154391]}}
{"name":"Nueva Gerona","other_names":{"name:es":"Nueva Gerona","name:hu":"Nueva Gerona","name:ru":"Нуэва-Херона","name:uk":"Нуева-Херона"},"display_name":"Nueva Gerona, Ciudad de Nueva Gerona, Isla de la Juventud, 25300, Cuba","address":{"city":"Nueva Gerona","island":"Isla de la Juventud","state":"Isla de la Juventud","ISO3166-2-lvl4":"CU-99","postcode":"25300","country":"Cuba","country_code":"cu"},"population":46264,"osm_type":"node","osm_id":259846365,"type":"city","location":[-82.8038411,21.884696],"bbox":[-82.9638411,21.724696,-82.6438411,22.044696]}
{"name":"Nuevitas","other_names":{"name:ru":"Нуэвитас","alt_name":"Nuevitas La Bella","old_name":"San Fernando de Nuevitas"},"display_name":"Nuevitas, Camagüey, Cuba","address":{"city":"Nuevitas","state":"Camagüey","ISO3166-2-lvl4":"CU-09","country":"Cuba","country_code":"cu"},"population":38207,"osm_type":"node","osm_id":1252740872,"type":"city","location":[-77.2636267,21.5465273],"bbox":[-77.4236267,21.3865273,-77.1036267,21.7065273],"border":{"name":"Nuevitas","other_names":{"name:es":"Nuevitas","name:ru":"Нуэвитас","alt_name":"Nuevitas La Bella","old_name":"San Fernando de Nuevitas"},"display_name":"Nuevitas, Camagüey, Cuba","address":{"city":"Nuevitas","state":"Camagüey","ISO3166-2-lvl4":"CU-09","country":"Cuba","country_code":"cu"},"population":38207,"osm_type":"relation","osm_id":5892228,"type":"administrative","location":[-77.2636267,21.5465273],"bbox":[-77.6186754,21.2969249,-76.9496056,21.9255459]}}
{"name":"Palma Soriano","other_names":{"name:ru":"Пальма-Сорьяно"},"display_name":"Palma Soriano, Santiago de Cuba, Cuba","address":{"city":"Palma Soriano","state":"Santiago de Cuba","ISO3166-2-lvl4":"CU-13","country":"Cuba","country_code":"cu"},"population":74930,"osm_type":"node","osm_id":482604917,"type":"city","location":[-75.9973941,20.2126686],"bbox":[-76.1573941,20.0526686,-75.8373941,20.3726686],"border":{"name":"Palma Soriano","other_names":{"name:es":"Palma Soriano","name:ru":"Пальма-Сорьяно"},"display_name":"Palma Soriano, Santiago de Cuba, 92610, Cuba","address":{"city":"Palma Soriano","state":"Santiago de Cuba","ISO3166-2-lvl4":"CU-13","postcode":"92610","country":"Cuba","country_code":"cu"},"population":74930,"osm_type":"relation","osm_id":5919051,"type":"administrative","location":[-75.9973941,20.2126686],"bbox":[-76.2150725,20.0242432,-75.8917422,20.449917]}}
{"name":"Pinar del Río","other_names":{"name:en":"Pinar del Rio","name:hu":"Pinar del Río","name:ru":"Пинар-дель-Рио"},"display_name":"Pinar del Río, Cuba","address":{"city":"Pinar del Río","state":"Pinar del Río","ISO3166-2-lvl4":"CU-01","country":"Cuba","country_code":"cu"},"population":142967,"osm_type":"node","osm_id":26527255,"type":"city","location":[-83.7002582,22.4167422],"bbox":[-83.8602582,22.2567422,-83.5402582,22.5767422],"border":{"name":"Pinar del Río","other_names":{"name:es":"Pinar del Río","name:en":"Pinar del Rio","name:hu":"Pinar del Río","name:ru":"Пинар-дель-Рио"},"display_name":"Pinar del Río, Cuba","address":{"city":"Pinar del Río","state":"Pinar del Río","ISO3166-2-lvl4":"CU-01","country":"Cuba","country_code":"cu"},"population":142967,"osm_type":"relation","osm_id":2575071,"type":"administrative","location":[-83.7002582,22.4167422],"bbox":[-83.8265312,22.1697381,-83.4441287,22.5373434]}}
{"name":"Puerto Padre","other_names":{"name:ru":"Пуерто Падре"},"display_name":"Puerto Padre, Las Tunas, Cuba","address":{"city":"Puerto Padre","state":"Las Tunas","ISO3166-2-lvl4":"CU-10","country":"Cuba","country_code":"cu"},"population":34086,"osm_type":"node","osm_id":482557202,"type":"city","location":[-76.6018039,21.197504],"bbox":[-76.7618039,21.037504,-76.4418039,21.357504],"border":{"name":"Puerto Padre","other_names":{"name:es":"Puerto Padre","name:ru":"Пуерто Падре"},"display_name":"Puerto Padre, Las Tunas, 77210, Cuba","address":{"city":"Puerto Padre","state":"Las Tunas","ISO3166-2-lvl4":"CU-10","postcode":"77210","country":"Cuba","country_code":"cu"},"population":34086,"osm_type":"relation","osm_id":5901302,"type":"administrative","location":[-76.6018039,21.197504],"bbox":[-76.8982029,20.9892507,-76.4693441,21.3913712]}}
{"name":"Sagua la Grande","other_names":{"name:ru":"Сагуа-ла-Гранде","name:uk":"Сагуа-ла-Гранде"},"display_name":"Sagua la Grande, Villa Clara, Cuba","address":{"city":"Sagua la Grande","state":"Villa Clara","ISO3166-2-lvl4":"CU-05","country":"Cuba","country_code":"cu"},"population":37713,"osm_type":"node","osm_id":259846350,"type":"city","location":[-80.0720021,22.8059845],"bbox":[-80.2320021,22.6459845,-79.9120021,22.9659845],"border":{"name":"Sagua la Grande","other_names":{"name:es":"Sagua la Grande","name:ru":"Сагуа-ла-Гранде","name:uk":"Сагуа-ла-Гранде"},"display_name":"Sagua la Grande, Villa Clara, Cuba","address":{"city":"Sagua la Grande","state":"Villa Clara","ISO3166-2-lvl4":"CU-05","country":"Cuba","country_code":"cu"},"population":37713,"osm_type":"relation","osm_id":5884802,"type":"administrative","location":[-80.0720021,22.8059845],"bbox":[-80.3329861,22.6772665,-79.811554,23.1460695]}}
{"name":"San José de las Lajas","other_names":{"name:ru":"Сан-Хосе-де-Лас-Лахас"},"display_name":"San José de las Lajas, Mayabeque, Cuba","address":{"city":"San José de las Lajas","state":"Mayabeque","ISO3166-2-lvl4":"CU-16","country":"Cuba","country_code":"cu"},"population":40524,"osm_type":"node","osm_id":3647917681,"type":"city","location":[-82.1518012,22.9613562],"bbox":[-82.3118012,22.8013562,-81.9918012,23.1213562],"border":{"name":"San José de las Lajas","other_names":{"name:es":"San José de las Lajas","name:ru":"Сан-Хосе-де-Лас-Лахас"},"display_name":"San José de las Lajas, Mayabeque, Cuba","address":{"city":"San José de las Lajas","state":"Mayabeque","ISO3166-2-lvl4":"CU-16","country":"Cuba","country_code":"cu"},"population":40524,"osm_type":"relation","osm_id":5539171,"type":"administrative","location":[-82.1518012,22.9613562],"bbox":[-82.3072049,22.8059007,-81.9654459,23.0808643]}}
{"name":"Sancti Spíritus","other_names":{"name:en":"Sancti Spiritus","name:hu":"Sancti Spiritus","name:ru":"Санкти-Спиритус"},"display_name":"Sancti Spíritus, Cuba","address":{"city":"Sancti Spíritus","state":"Sancti Spíritus","ISO3166-2-lvl4":"CU-07","country":"Cuba","country_code":"cu"},"population":108127,"osm_type":"node","osm_id":259846361,"type":"city","location":[-79.443211,21.9275667],"bbox":[-79.603211,21.7675667,-79.283211,22.0875667],"border":{"name":"Sancti Spíritus","other_names":{"name:es":"Sancti Spíritus","name:en":"Sancti Spiritus","name:hu":"Sancti Spiritus","name:ru":"Санкти-Спиритус"},"display_name":"Sancti Spíritus, Cuba","address":{"city":"Sancti Spíritus","state":"Sancti Spíritus","ISO3166-2-lvl4":"CU-07","country":"Cuba","country_code":"cu"},"population":108127,"osm_type":"relation","osm_id":5884866,"type":"administrative","location":[-79.443211,21.9275667],"bbox":[-79.7166713,21.6157415,-79.2543919,22.0225316]}}
{"name":"Santa Clara","other_names":{"name:hu":"Santa Clara","name:ru":"Санта-Клара"},"display_name":"Santa Clara, Villa Clara, 50100, Cuba","address":{"city":"Santa Clara","state":"Villa Clara","ISO3166-2-lvl4":"CU-05","postcode":"50100","country":"Cuba","country_code":"cu"},"population":216056,"osm_type":"node","osm_id":26671739,"type":"city","location":[-79.9651013,22.406628],"bbox":[-80.1251013,22.246628,-79.8051013,22.566628],"border":{"name":"Santa Clara","other_names":{"name:es":"Santa Clara","name:hu":"Santa Clara","name:ru":"Санта-Клара"},"display_name":"Santa Clara, Villa Clara, Cuba","address":{"city":"Santa Clara","state":"Villa Clara","ISO3166-2-lvl4":"CU-05","country":"Cuba","country_code":"cu"},"population":216056,"osm_type":"relation","osm_id":5884803,"type":"administrative","location":[-79.9651013,22.406628],"bbox":[-80.0811585,22.2635174,-79.7639293,22.5622827]}}
{"name":"Santiago de Cuba","other_names":{"name:en":"Santiago de Cuba","name:hu":"Santiago de Cuba","name:mi":"Tatiāko","name:ru":"Сантьяго-де-Куба","name:uk":"Сантьяго-де-Куба"},"display_name":"Santiago de Cuba, Cuba","address":{"city":"Santiago de Cuba","state":"Santiago de Cuba","ISO3166-2-lvl4":"CU-13","country":"Cuba","country_code":"cu"},"population":433099,"osm_type":"node","osm_id":259846383,"type":"city","location":[-75.8294928,20.0214263],"bbox":[-75.9894928,19.8614263,-75.6694928,20.1814263],"border":{"name":"Santiago de Cuba","other_names":{"name:es":"Santiago de Cuba","name:en":"Santiago de Cuba","name:hu":"Santiago de Cuba","name:mi":"Tatiāko","name:ru":"Сантьяго-де-Куба","name:uk":"Сантьяго-де-Куба"},"display_name":"Santiago de Cuba, Cuba","address":{"city":"Santiago de Cuba","state":"Santiago de Cuba","ISO3166-2-lvl4":"CU-13","country":"Cuba","country_code":"cu"},"population":433099,"osm_type":"relation","osm_id":5919053,"type":"administrative","location":[-75.8294928,20.0214263],"bbox":[-76.0700919,19.8829899,-75.3778404,20.137598]}}
{"name":"Trinidad","other_names":{"name:hu":"Trinidad","name:ru":"Тринидад"},"display_name":"Trinidad, Sancti Spíritus, Cuba","address":{"city":"Trinidad","state":"Sancti Spíritus","ISO3166-2-lvl4":"CU-07","country":"Cuba","country_code":"cu"},"population":45041,"osm_type":"node","osm_id":469905820,"type":"city","location":[-79.9845797,21.8052055],"bbox":[-80.1445797,21.6452055,-79.8245797,21.9652055],"border":{"name":"Trinidad","other_names":{"name:es":"Trinidad","name:hu":"Trinidad","name:ru":"Тринидад"},"display_name":"Trinidad, Sancti Spíritus, Cuba","address":{"city":"Trinidad","state":"Sancti Spíritus","ISO3166-2-lvl4":"CU-07","country":"Cuba","country_code":"cu"},"population":45041,"osm_type":"relation","osm_id":5884868,"type":"administrative","location":[-79.9845797,21.8052055],"bbox":[-80.1136559,21.6665817,-79.6048042,22.0211307]}}
{"name":"Varadero","other_names":{"name:en":"Varadero","name:ru":"Варадеро","name:zh":"巴拉德罗"},"display_name":"Varadero, Matanzas, Cuba","address":{"city":"Varadero","state":"Matanzas","ISO3166-2-lvl4":"CU-04","country":"Cuba","country_code":"cu"},"population":27170,"osm_type":"node","osm_id":299133497,"type":"city","location":[-81.260025,23.149578],"bbox":[-81.420025,22.989578,-81.100025,23.309578],"border":{"name":"Varadero","other_names":{"name:es":"Varadero","name:ru":"Варадеро","name:en":"Varadero","name:zh":"巴拉德罗"},"display_name":"Varadero, Matanzas, Cuba","address":{"city":"Varadero","state":"Matanzas","ISO3166-2-lvl4":"CU-04","country":"Cuba","country_code":"cu"},"population":27170,"osm_type":"relation","osm_id":11281805,"type":"administrative","location":[-81.260025,23.149578],"bbox":[-81.3208973,23.1281907,-81.1118763,23.205366]}}
