{"name":"أغونيت","other_names":{"name:ar":"أغونيت","name:de":"Aghwinit","name:en":"Aghwinit","name:es":"Agüenit","name:fa":"اغوانیت","name:fr":"Aghouinite","name:ks":"اغوانیت","name:ur":"اغوانیت","alt_name":"أڭونيت","name:azb":"اغوانیت","name:ber":"ⴰⵖⵡⴰⵏⵉⵜ","name:zgh":"ⴰⵖⵡⴰⵏⵉⵜ","alt_name:ar":"أغوانيت;أغوينيت"},"display_name":"أغونيت, Aghouinite ⴰⵖⵡⵉⵏⵉⵜ أغونيت, caïdat d'Aghouinite قيادة أغونيت, Cercle d'Aousserd دائرة أوسرد, República Árabe Saharaui Democrática الجمهورية العربية الصحراوية الديمقراطية","address":{"town":"أغونيت","city":"Aghouinite ⴰⵖⵡⵉⵏⵉⵜ أغونيت","municipality":"caïdat d'Aghouinite قيادة أغونيت","county":"Cercle d'Aousserd دائرة أوسرد","country":"República Árabe Saharaui Democrática الجمهورية العربية الصحراوية الديمقراطية","country_code":"eh"},"osm_type":"node","osm_id":4057098042,"type":"town","location":[-13.1393725,22.1841843],"bbox":[-13.1793725,22.1441843,-13.0993725,22.2241843],"border":{"name":"Aghouinite ⴰⵖⵡⵉⵏⵉⵜ أغونيت","other_names":{"name:ar":"أغونيت","name:fr":"Aghouinite","alt_name":"أڭونيت","name:ber":"ⴰⵖⵡⵉⵏⵉⵜ","name:zgh":"ⴰⵖⵡⵉⵏⵉⵜ","alt_name:ar":"أغوانيت;أغوينيت","alt_name:fr":"Agüenit;Aguanit;Agwenit;Aghoueinit;Aghounit;Agounit;Agwanit;Agueinit"},"display_name":"Aghouinite ⴰⵖⵡⵉⵏⵉⵜ أغونيت, caïdat d'Aghouinite قيادة أغونيت, Cercle d'Aousserd دائرة أوسرد, República Árabe Saharaui Democrática الجمهورية العربية الصحراوية الديمقراطية","address":{"city":"Aghouinite ⴰⵖⵡⵉⵏⵉⵜ أغونيت","municipality":"caïdat d'Aghouinite قيادة أغونيت","county":"Cercle d'Aousserd دائرة أوسرد","country":"República Árabe Saharaui Democrática الجمهورية العربية الصحراوية الديمقراطية","country_code":"eh"},"osm_type":"relation","osm_id":6054151,"type":"administrative","location":[-13.514550229422483,22.4690501],"bbox":[-14.439983,21.7079495,-13.0251602,23.236873]}}
{"name":"الكويرة","other_names":{"name:ar":"الكويرة","name:ca":"Güera","name:cs":"Al-Kuvíra","name:de":"La Gouira","name:en":"La Güera","name:es":"La Güera","name:fi":"La Güera","name:fr":"Lagouira","name:id":"La Güera","name:it":"La Guera","name:kk":"Агуэра","name:lt":"La Guera","name:nl":"La Gouèra","name:pl":"Al-Kuwajra","name:pt":"Lagouira","name:ru":"Агуэра","name:sv":"Lagouira","name:uk":"Агуера","name:ur":"لا گویرا","name:wa":"El Gwira","name:zh":"拉圭拉","alt_name":"الڭويرة;الگويرة;گويرة;لگويرة","name:ber":"ⵍⴳⵡⵉⵔⴰ","name:kab":"Tagwirt","name:zgh":"ⵍⴳⵡⵉⵔⴰ","alt_name:ar":"الاكوارة;اكوارة","alt_name:es":"La Agüera"},"display_name":"الكويرة, باشوية الكويرة, República Árabe Saharaui Democrática الجمهورية العربية الصحراوية الديمقراطية","address":{"town":"الكويرة","county":"باشوية الكويرة","country":"República Árabe Saharaui Democrática الجمهورية العربية الصحراوية الديمقراطية","country_code":"eh"},"population":3127,"osm_type":"node","osm_id":469179926,"type":"town","location":[-17.089121,20.833322],"bbox":[-17.129121,20.793322,-17.049121,20.873322],"border":{"name":"الكويرة","other_names":{"name:ar":"الكويرة","name:ca":"Güera","name:cs":"Al-Kuvíra","name:de":"La Gouira","name:en":"La Güera","name:es":"La Güera","name:fi":"La Güera","name:fr":"Lagouira","name:id":"La Güera","name:it":"La Guera","name:kk":"Агуэра","name:lt":"La Guera","name:nl":"La Gouèra","name:pl":"Al-Kuwajra","name:pt":"Lagouira","name:ru":"Агуэра","name:sv":"Lagouira","name:uk":"Агуера","name:ur":"لا گویرا","name:wa":"El Gwira","name:zh":"拉圭拉","name:ber":"ⵍⴳⵡⵉⵔⴰ","name:kab":"lgwira","name:zgh":"ⵍⴳⵡⵉⵔⴰ","alt_name":"الڭويرة;الگويرة;گويرة;لگويرة","alt_name:ar":"الاكوارة;اكوارة","alt_name:es":"La Agüera","alt:kab":"Tagwirt"},"display_name":"الكويرة, باشوية الكويرة, República Árabe Saharaui Democrática الجمهورية العربية الصحراوية الديمقراطية","address":{"town":"الكويرة","county":"باشوية الكويرة","country":"República Árabe Saharaui Democrática الجمهورية العربية الصحراوية الديمقراطية","country_code":"eh"},"population":3127,"osm_type":"relation","osm_id":6182716,"type":"administrative","location":[-17.089121,20.833322],"bbox":[-17.1046266,20.7699004,-16.9599452,21.2955222]}}
{"name":"بئر لحلو","other_names":{"name:ar":"بئر الحلوة","name:de":"Bi'r al-Hulwa","name:en":"Bir Lehlou","name:es":"Bir Lehlu","name:fa":"بئر لحلو","name:fr":"Bir Lehlou","name:hu":"Bir Lehlou","name:ru":"Бир-Лелу","name:zh":"比鄂-雷楼","alt_name":"بئر لحلو;بير لحلو;البئر الحلو","name:azb":"بئر لحلو","name:ber":"ⴱⵉⵔ ⵍⵃⵍⵓ","name:zgh":"ⴱⵉⵔ ⵍⵃⵍⵓ","alt_name:ar":"بئر لحلو;بير لحلو;البئر الحلو"},"display_name":"بئر لحلو, caïdat de Tifariti قيادة تفاريتي, Laâyoune-Sakia El Hamra ⵍⵄⵢⵓⵏ-ⵙⴰⵇⵢⴰ ⵍⵃⴰⵎⵔⴰ العيون الساقية الحمراء, República Árabe Saharaui Democrática الجمهورية العربية الصحراوية الديمقراطية","address":{"town":"بئر لحلو","region":"Laâyoune-Sakia El Hamra ⵍⵄⵢⵓⵏ-ⵙⴰⵇⵢⴰ ⵍⵃⴰⵎⵔⴰ العيون الساقية الحمراء","ISO3166-2-lvl4":"MA-11","country":"República Árabe Saharaui Democrática الجمهورية العربية الصحراوية الديمقراطية","country_code":"eh"},"osm_type":"node","osm_id":2000314674,"type":"town","location":[-9.57651,26.349372],"bbox":[-9.61651,26.309372,-9.53651,26.389372]}
{"name":"تفاريتي","other_names":{"name:ar":"تفاريتي","name:ca":"Tifariti","name:de":"Tifariti","name:en":"Tifariti","name:es":"Tifariti","name:fa":"تیفاریتی","name:fr":"Tifariti","name:ks":"تیفاریتی","name:pl":"Tifariti","name:ur":"تیفاریتی","name:zh":"提法里提","alt_name":"تيفاريتي","name:azb":"تیفاریتی","name:ber":"ⵜⵉⴼⴰⵔⵉⵜⵉ","name:ckb":"تیفاریتی","name:zgh":"ⵜⵉⴼⴰⵔⵉⵜⵉ","alt_name:ar":"تيفاريتي"},"display_name":"تفاريتي, caïdat de Tifariti قيادة تفاريتي, Laâyoune-Sakia El Hamra ⵍⵄⵢⵓⵏ-ⵙⴰⵇⵢⴰ ⵍⵃⴰⵎⵔⴰ العيون الساقية الحمراء, República Árabe Saharaui Democrática الجمهورية العربية الصحراوية الديمقراطية","address":{"town":"تفاريتي","region":"Laâyoune-Sakia El Hamra ⵍⵄⵢⵓⵏ-ⵙⴰⵇⵢⴰ ⵍⵃⴰⵎⵔⴰ العيون الساقية الحمراء","ISO3166-2-lvl4":"MA-11","country":"República Árabe Saharaui Democrática الجمهورية العربية الصحراوية الديمقراطية","country_code":"eh"},"population":3000,"osm_type":"node","osm_id":2420942708,"type":"town","location":[-10.558991,26.159504],"bbox":[-10.598991,26.119504,-10.518991,26.199504],"border":[{"name":"Tifariti ⵜⵉⴼⴰⵔⵉⵜⵉ تفاريتي","other_names":{"name:ar":"تفاريتي","name:de":"Tifariti","name:en":"Tifariti","name:es":"Tifariti","name:fa":"تفاریتی","name:fr":"Tifariti","name:ks":"تفاریتی","name:ur":"تفاریتی","name:azb":"تفاریتی","name:zgh":"ⵜⵉⴼⴰⵔⵉⵜⵉ","alt_name:ar":"تيفاريتي;بلدية تيفاريتي","name:az-Arab":"تفاریتی","official_name":"بلدية تفاريتي","official_name:ar":"بلدية تفاريتي","official_name:es":"Municipio de Tifariti"},"display_name":"Tifariti ⵜⵉⴼⴰⵔⵉⵜⵉ تفاريتي, caïdat de Tifariti قيادة تفاريتي, Laâyoune-Sakia El Hamra ⵍⵄⵢⵓⵏ-ⵙⴰⵇⵢⴰ ⵍⵃⴰⵎⵔⴰ العيون الساقية الحمراء, República Árabe Saharaui Democrática الجمهورية العربية الصحراوية الديمقراطية","address":{"city_district":"Tifariti ⵜⵉⴼⴰⵔⵉⵜⵉ تفاريتي","town":"caïdat de Tifariti قيادة تفاريتي","region":"Laâyoune-Sakia El Hamra ⵍⵄⵢⵓⵏ-ⵙⴰⵇⵢⴰ ⵍⵃⴰⵎⵔⴰ العيون الساقية الحمراء","ISO3166-2-lvl4":"MA-11","country":"República Árabe Saharaui Democrática الجمهورية العربية الصحراوية الديمقراطية","country_code":"eh"},"osm_type":"relation","osm_id":6054811,"type":"administrative","location":[-9.75648778039127,26.5023402],"bbox":[-10.9128094,25.999444,-8.666389,26.9136734]},{"name":"caïdat de Tifariti قيادة تفاريتي","other_names":{"name:ar":"قيادة تفاريتي","name:es":"Caidat de Tifariti","name:fr":"caïdat de Tifariti","name:ca":"Tifariti","name:de":"Tifariti","name:en":"Tifariti","name:fa":"تیفاریتی","name:ks":"تیفاریتی","name:pl":"Tifariti","name:ur":"تیفاریتی","name:zh":"提法里提","alt_name":"تيفاريتي","name:azb":"تیفاریتی","name:ber":"ⵜⵉⴼⴰⵔⵉⵜⵉ","name:ckb":"تیفاریتی","name:zgh":"ⵜⵉⴼⴰⵔⵉⵜⵉ","alt_name:ar":"تيفاريتي","alt":"تفاريتي","alt:ar":"تفاريتي","alt:es":"Tifariti","alt:fr":"Tifariti"},"display_name":"caïdat de Tifariti قيادة تفاريتي, Laâyoune-Sakia El Hamra ⵍⵄⵢⵓⵏ-ⵙⴰⵇⵢⴰ ⵍⵃⴰⵎⵔⴰ العيون الساقية الحمراء, República Árabe Saharaui Democrática الجمهورية العربية الصحراوية الديمقراطية","address":{"town":"caïdat de Tifariti قيادة تفاريتي","region":"Laâyoune-Sakia El Hamra ⵍⵄⵢⵓⵏ-ⵙⴰⵇⵢⴰ ⵍⵃⴰⵎⵔⴰ العيون الساقية الحمراء","ISO3166-2-lvl4":"MA-11","country":"República Árabe Saharaui Democrática الجمهورية العربية الصحراوية الديمقراطية","country_code":"eh"},"population":3000,"osm_type":"relation","osm_id":6054943,"type":"administrative","location":[-10.558991,26.159504],"bbox":[-10.9128094,25.999444,-8.666389,26.9136734]}]}
