{"name":"Gleibat El Foula ⴳⵍⵉⴱⴰⵜ ⵍⴼⵓⵍⴰ اكليبات الفولة","other_names":{"name:ar":"اكليبات الفولة","name:fr":"Gleibat El Foula","name:ber":"ⴳⵍⵉⴱⴰⵜ ⵍⴼⵓⵍⴰ","name:zgh":"ⴳⵍⵉⴱⴰⵜ ⵍⴼⵓⵍⴰ","name:en":"Gleibat El Foula","alt":"ⴳⵍⵉⴱⴰⵜ ⵍⴼⵓⵍⴰ Gleibat El Foula"},"display_name":"Gleibat El Foula ⴳⵍⵉⴱⴰⵜ ⵍⴼⵓⵍⴰ اكليبات الفولة, Caïdat de Gleibat El Foula قيادة اكليبات الفولة, Cercle de Bir Anzarane دائرة بئر إنزران, Province d'Oued Ed-Dahab إقليم وادي الذهب, República Árabe Saharaui Democrática الجمهورية العربية الصحراوية الديمقراطية","address":{"village":"Gleibat El Foula ⴳⵍⵉⴱⴰⵜ ⵍⴼⵓⵍⴰ اكليبات الفولة","municipality":"Caïdat de Gleibat El Foula قيادة اكليبات الفولة","county":"Cercle de Bir Anzarane دائرة بئر إنزران","state_district":"Province d'Oued Ed-Dahab إقليم وادي الذهب","ISO3166-2-lvl5":"MA-OUD","country":"República Árabe Saharaui Democrática الجمهورية العربية الصحراوية الديمقراطية","country_code":"eh"},"population":2190,"osm_type":"relation","osm_id":5199595,"type":"administrative","location":[-14.2050606,23.5165517],"bbox":[-14.6560174,22.7575125,-12.8727721,23.9590049],"inferred_type":"village"}
{"display_name":"Laâyoune-Sakia El Hamra ⵍⵄⵢⵓⵏ-ⵙⴰⵇⵢⴰ ⵍⵃⴰⵎⵔⴰ العيون الساقية الحمراء, República Árabe Saharaui Democrática الجمهورية العربية الصحراوية الديمقراطية","address":{"region":"Laâyoune-Sakia El Hamra ⵍⵄⵢⵓⵏ-ⵙⴰⵇⵢⴰ ⵍⵃⴰⵎⵔⴰ العيون الساقية الحمراء","ISO3166-2-lvl4":"MA-11","country":"República Árabe Saharaui Democrática الجمهورية العربية الصحراوية الديمقراطية","country_code":"eh"},"osm_type":"node","osm_id":4060194055,"type":"village","location":[-11.1209186,26.0649843],"bbox":[-11.1409186,26.0449843,-11.1009186,26.0849843]}
{"display_name":"Mijik ⵎⵉⵊⵉⴽ مجيك, caïdat de Mijik قيادة مجيك, Cercle de Bir Anzarane دائرة بئر إنزران, Province d'Oued Ed-Dahab إقليم وادي الذهب, República Árabe Saharaui Democrática الجمهورية العربية الصحراوية الديمقراطية","address":{"village":"Mijik ⵎⵉⵊⵉⴽ مجيك","municipality":"caïdat de Mijik قيادة مجيك","county":"Cercle de Bir Anzarane دائرة بئر إنزران","state_district":"Province d'Oued Ed-Dahab إقليم وادي الذهب","ISO3166-2-lvl5":"MA-OUD","country":"República Árabe Saharaui Democrática الجمهورية العربية الصحراوية الديمقراطية","country_code":"eh"},"osm_type":"node","osm_id":5217818384,"type":"village","location":[-12.9720855,23.8508997],"bbox":[-12.9920855,23.8308997,-12.9520855,23.8708997]}
{"name":"امهيريز","other_names":{"name:ar":"امهيريز","name:en":"Meharrize","name:es":"Meharrize","name:fr":"Mehaires","alt_name":"مهيريز;محيرس","name:ber":"ⵎⵀⵉⵔⵉⵣ","name:zgh":"ⵎⵀⵉⵔⵉⵣ","alt_name:ar":"مهيريز;محيرس","alt_name:es":"Mheiriz;Mehaires;Meheiris"},"display_name":"امهيريز, Laâyoune-Sakia El Hamra ⵍⵄⵢⵓⵏ-ⵙⴰⵇⵢⴰ ⵍⵃⴰⵎⵔⴰ العيون الساقية الحمراء, República Árabe Saharaui Democrática الجمهورية العربية الصحراوية الديمقراطية","address":{"village":"امهيريز","region":"Laâyoune-Sakia El Hamra ⵍⵄⵢⵓⵏ-ⵙⴰⵇⵢⴰ ⵍⵃⴰⵎⵔⴰ العيون الساقية الحمراء","ISO3166-2-lvl4":"MA-11","country":"República Árabe Saharaui Democrática الجمهورية العربية الصحراوية الديمقراطية","country_code":"eh"},"osm_type":"node","osm_id":4057109756,"type":"village","location":[-11.0691899,26.1476922],"bbox":[-11.0891899,26.1276922,-11.0491899,26.1676922]}
{"name":"بئر تيغیسیت","other_names":{"name:ar":"بئر تيغیسیت","name:de":"Bir Tiguisit","name:en":"Bir Tiguisit","name:es":"Bir Tiguisit","name:fa":"بیر تیغیسیت","name:fr":"Bir Tiguisit","name:arz":"بئر تيجیسیت","name:ber":"ⴱⵉⵔ ⵜⵉⵖⵉⵙⵙⵉⵜ","name:zgh":"ⴱⵉⵔ ⵜⵉⵖⵉⵙⵙⵉⵜ","alt_name:ar":"بير تيغیسیت","alt_name:fr":"Bir Tighissit;Bir Tighessit"},"display_name":"بئر تيغیسیت, caïdat de Tifariti قيادة تفاريتي, Laâyoune-Sakia El Hamra ⵍⵄⵢⵓⵏ-ⵙⴰⵇⵢⴰ ⵍⵃⴰⵎⵔⴰ العيون الساقية الحمراء, República Árabe Saharaui Democrática الجمهورية العربية الصحراوية الديمقراطية","address":{"village":"بئر تيغیسیت","town":"caïdat de Tifariti قيادة تفاريتي","region":"Laâyoune-Sakia El Hamra ⵍⵄⵢⵓⵏ-ⵙⴰⵇⵢⴰ ⵍⵃⴰⵎⵔⴰ العيون الساقية الحمراء","ISO3166-2-lvl4":"MA-11","country":"República Árabe Saharaui Democrática الجمهورية العربية الصحراوية الديمقراطية","country_code":"eh"},"osm_type":"node","osm_id":2420942706,"type":"village","location":[-10.4957612,26.0342605],"bbox":[-10.5157612,26.0142605,-10.4757612,26.0542605]}
{"name":"دوكاج","other_names":{"name:ar":"دوكاج","name:en":"Dougaj","name:es":"Duguech","name:fr":"Dougaj","name:ber":"ⴷⵓⴳⴰⵊ","name:kab":"دوگاج","name:zgh":"ⴷⵓⴳⴰⵊ"},"display_name":"دوكاج, Aghouinite ⴰⵖⵡⵉⵏⵉⵜ أغونيت, caïdat d'Aghouinite قيادة أغونيت, Cercle d'Aousserd دائرة أوسرد, República Árabe Saharaui Democrática الجمهورية العربية الصحراوية الديمقراطية","address":{"village":"دوكاج","city":"Aghouinite ⴰⵖⵡⵉⵏⵉⵜ أغونيت","municipality":"caïdat d'Aghouinite قيادة أغونيت","county":"Cercle d'Aousserd دائرة أوسرد","country":"República Árabe Saharaui Democrática الجمهورية العربية الصحراوية الديمقراطية","country_code":"eh"},"osm_type":"node","osm_id":4057121154,"type":"village","location":[-13.553134,22.055317],"bbox":[-13.573134,22.035317,-13.533134,22.075317]}
{"name":"مجيك","other_names":{"name:ar":"مجيك","name:de":"Midschik","name:en":"Mijik","name:es":"Miyec","name:fa":"میجک","name:fr":"Mijik","alt_name":"ميجيك;ميجك","name:azb":"میجک","name:ber":"ⵎⵉⵊⵉⴽ","name:zgh":"ⵎⵉⵊⵉⴽ","alt_name:ar":"ميجيك;ميجك"},"display_name":"مجيك, Mijik ⵎⵉⵊⵉⴽ مجيك, caïdat de Mijik قيادة مجيك, Cercle de Bir Anzarane دائرة بئر إنزران, Province d'Oued Ed-Dahab إقليم وادي الذهب, República Árabe Saharaui Democrática الجمهورية العربية الصحراوية الديمقراطية","address":{"village":"مجيك","municipality":"caïdat de Mijik قيادة مجيك","county":"Cercle de Bir Anzarane دائرة بئر إنزران","state_district":"Province d'Oued Ed-Dahab إقليم وادي الذهب","ISO3166-2-lvl5":"MA-OUD","country":"República Árabe Saharaui Democrática الجمهورية العربية الصحراوية الديمقراطية","country_code":"eh"},"osm_type":"node","osm_id":2812432577,"type":"village","location":[-12.8254976,23.4472382],"bbox":[-12.8454976,23.4272382,-12.8054976,23.4672382],"border":{"name":"Mijik ⵎⵉⵊⵉⴽ مجيك","other_names":{"name:ar":"ميجيك","name:es":"Miyec","name:fr":"Mijik","name:ber":"ⵎⵉⵊⵉⴽ","name:zgh":"ⵎⵉⵊⵉⴽ","alt_name:ar":"ميجيك;ميجك","name:de":"Midschik","name:en":"Mijik","name:fa":"میجک","alt_name":"ميجيك;ميجك","name:azb":"میجک","alt":"مجيك","alt:ar":"مجيك"},"display_name":"Mijik ⵎⵉⵊⵉⴽ مجيك, caïdat de Mijik قيادة مجيك, Cercle de Bir Anzarane دائرة بئر إنزران, Province d'Oued Ed-Dahab إقليم وادي الذهب, República Árabe Saharaui Democrática الجمهورية العربية الصحراوية الديمقراطية","address":{"village":"Mijik ⵎⵉⵊⵉⴽ مجيك","municipality":"caïdat de Mijik قيادة مجيك","county":"Cercle de Bir Anzarane دائرة بئر إنزران","state_district":"Province d'Oued Ed-Dahab إقليم وادي الذهب","ISO3166-2-lvl5":"MA-OUD","country":"República Árabe Saharaui Democrática الجمهورية العربية الصحراوية الديمقراطية","country_code":"eh"},"osm_type":"relation","osm_id":6054435,"type":"administrative","location":[-12.8254976,23.4472382],"bbox":[-13.3930036,23.1028362,-12,24.4385383]}}
