{"name":"Aabenraa","other_names":{"name:da":"Aabenraa","name:de":"Apenrade","name:es":"Abenrá","name:et":"Åbenrå","name:fr":"Åbenrå","name:fy":"Apenrua","name:hr":"Aabenraa","name:ja":"オーベンロー","name:ko":"오벤로","name:lt":"Obenro","name:nl":"Aabenraa","name:pt":"Åbenrå","name:ru":"Обенро","name:sk":"Åbenrå","name:sr":"Обенро","name:sv":"Åbenrå","name:zh":"奥本罗","alt_name":"Åbenrå"},"display_name":"Aabenraa, Aabenraa Kommune, Region Syddanmark, 6200, Danmark","address":{"town":"Aabenraa","municipality":"Aabenraa Kommune","state":"Region Syddanmark","ISO3166-2-lvl4":"DK-83","postcode":"6200","country":"Danmark","country_code":"dk"},"population":16274,"osm_type":"node","osm_id":25425345,"type":"town","location":[9.4209667,55.0446228],"bbox":[9.3809667,55.0046228,9.4609667,55.0846228]}
{"name":"Aars","other_names":{"name:da":"Aars","name:de":"Aars","name:ja":"アース (デンマーク)","name:nl":"Aars","name:nn":"Års","name:ru":"Орс","name:sv":"Års"},"display_name":"Aars, Vesthimmerlands Kommune, Region Nordjylland, 9600, Danmark","address":{"town":"Aars","municipality":"Vesthimmerlands Kommune","state":"Region Nordjylland","ISO3166-2-lvl4":"DK-81","postcode":"9600","country":"Danmark","country_code":"dk"},"population":8301,"osm_type":"node","osm_id":2259729134,"type":"town","location":[9.5168986,56.8033777],"bbox":[9.4768986,56.7633777,9.5568986,56.8433777]}
{"name":"Aarup","other_names":{"name:da":"Aarup","alt_name":"Årup"},"display_name":"Aarup, Assens Kommune, Region Syddanmark, 5560, Danmark","address":{"town":"Aarup","municipality":"Assens Kommune","state":"Region Syddanmark","ISO3166-2-lvl4":"DK-83","postcode":"5560","country":"Danmark","country_code":"dk"},"population":3259,"osm_type":"node","osm_id":4916331946,"type":"town","location":[10.0510648,55.3763248],"bbox":[10.0110648,55.3363248,10.0910648,55.4163248]}
{"name":"Ballerup","other_names":{"name:da":"Ballerup","name:de":"Ballerup","name:fa":"لیدل","name:ka":"ბალერუპი","name:ru":"Баллеруп"},"display_name":"Ballerup, Ballerup Kommune, Region Hovedstaden, 2750, Danmark","address":{"town":"Ballerup","municipality":"Ballerup Kommune","state":"Region Hovedstaden","ISO3166-2-lvl4":"DK-84","postcode":"2750","country":"Danmark","country_code":"dk"},"population":39087,"osm_type":"node","osm_id":21770219,"type":"town","location":[12.3612313,55.7303589],"bbox":[12.3212313,55.6903589,12.4012313,55.7703589]}
{"name":"Beder-Malling","display_name":"Beder-Malling, Aarhus Kommune, Region Midtjylland, 8340, Danmark","address":{"town":"Beder-Malling","municipality":"Aarhus Kommune","state":"Region Midtjylland","ISO3166-2-lvl4":"DK-82","postcode":"8340","country":"Danmark","country_code":"dk"},"population":8387,"osm_type":"node","osm_id":2601651305,"type":"town","location":[10.2017147,56.0494063],"bbox":[10.1617147,56.0094063,10.2417147,56.0894063]}
{"name":"Billund","other_names":{"name:da":"Billund","name:de":"Billund","name:en":"Billund","name:ka":"ბილუნდი","name:lt":"Bilundas","name:nl":"Billund (plaats)","name:ru":"Биллунн"},"display_name":"Billund, Billund Kommune, Region Syddanmark, 7190, Danmark","address":{"town":"Billund","municipality":"Billund Kommune","state":"Region Syddanmark","ISO3166-2-lvl4":"DK-83","postcode":"7190","country":"Danmark","country_code":"dk"},"population":6451,"osm_type":"node","osm_id":26559022,"type":"town","location":[9.1195835,55.7247018],"bbox":[9.0795835,55.6847018,9.1595835,55.7647018]}
{"name":"Birkerød","other_names":{"name:da":"Birkerød","name:de":"Birkeröd","name:ru":"Биркерёд"},"display_name":"Birkerød, Rudersdal Kommune, Region Hovedstaden, 3460, Danmark","address":{"town":"Birkerød","municipality":"Rudersdal Kommune","state":"Region Hovedstaden","ISO3166-2-lvl4":"DK-84","postcode":"3460","country":"Danmark","country_code":"dk"},"population":20539,"osm_type":"node","osm_id":26559045,"type":"town","location":[12.4287796,55.8403369],"bbox":[12.3887796,55.8003369,12.4687796,55.8803369]}
{"name":"Bjerringbro","display_name":"Bjerringbro, Viborg Kommune, Region Midtjylland, 8850, Danmark","address":{"town":"Bjerringbro","municipality":"Viborg Kommune","state":"Region Midtjylland","ISO3166-2-lvl4":"DK-82","postcode":"8850","country":"Danmark","country_code":"dk"},"population":7477,"osm_type":"node","osm_id":2278043434,"type":"town","location":[9.656576,56.3758414],"bbox":[9.616576,56.3358414,9.696576,56.4158414]}
{"name":"Brande","display_name":"Brande, Ikast-Brande Kommune, Region Midtjylland, 7330, Danmark","address":{"town":"Brande","municipality":"Ikast-Brande Kommune","state":"Region Midtjylland","ISO3166-2-lvl4":"DK-82","postcode":"7330","country":"Danmark","country_code":"dk"},"population":7207,"osm_type":"node","osm_id":9491986787,"type":"town","location":[9.1282868,55.9445468],"bbox":[9.0882868,55.9045468,9.1682868,55.9845468]}
{"name":"Bredsten","other_names":{"name:da":"Bredsten","name:ru":"Брестен"},"display_name":"Bredsten, Vejle Kommune, Region Syddanmark, 7182, Danmark","address":{"town":"Bredsten","municipality":"Vejle Kommune","state":"Region Syddanmark","ISO3166-2-lvl4":"DK-83","postcode":"7182","country":"Danmark","country_code":"dk"},"population":1694,"osm_type":"node","osm_id":8247355512,"type":"town","location":[9.3848026,55.7025335],"bbox":[9.3448026,55.6625335,9.4248026,55.7425335]}
{"name":"Brønderslev","other_names":{"name:da":"Brønderslev","name:de":"Brönderslev","name:nl":"Brønderslev","name:ru":"Брённерслев","name:sr":"Брендерслев"},"display_name":"Brønderslev, Brønderslev Kommune, Region Nordjylland, 9700, Danmark","address":{"town":"Brønderslev","municipality":"Brønderslev Kommune","state":"Region Nordjylland","ISO3166-2-lvl4":"DK-81","postcode":"9700","country":"Danmark","country_code":"dk"},"population":12598,"osm_type":"node","osm_id":2237916793,"type":"town","location":[9.9448631,57.2700129],"bbox":[9.9048631,57.2300129,9.9848631,57.3100129]}
{"name":"Dragør","other_names":{"name:da":"Dragør","name:de":"Dragör","name:ru":"Драгёр"},"display_name":"Dragør, Dragør Kommune, Region Hovedstaden, 2791, Danmark","address":{"town":"Dragør","municipality":"Dragør Kommune","state":"Region Hovedstaden","ISO3166-2-lvl4":"DK-84","postcode":"2791","country":"Danmark","country_code":"dk"},"population":12085,"osm_type":"node","osm_id":160744272,"type":"town","location":[12.6719953,55.592487],"bbox":[12.6319953,55.552487,12.7119953,55.632487]}
{"name":"Ebeltoft","other_names":{"name:da":"Ebeltoft","name:de":"Ebeltoft"},"display_name":"Ebeltoft, Syddjurs Kommune, Region Midtjylland, 8400, Danmark","address":{"town":"Ebeltoft","municipality":"Syddjurs Kommune","state":"Region Midtjylland","ISO3166-2-lvl4":"DK-82","postcode":"8400","country":"Danmark","country_code":"dk"},"population":5888,"osm_type":"node","osm_id":10741049852,"type":"town","location":[10.6770909,56.1988382],"bbox":[10.6370909,56.1588382,10.7170909,56.2388382]}
{"name":"Faaborg","other_names":{"name:da":"Faaborg","name:fr":"Faaborg","name:id":"Faaborg","name:ru":"Фоборг","name:sv":"Fåborg","alt_name":"Fåborg"},"display_name":"Faaborg, Faaborg-Midtfyn Kommune, Region Syddanmark, 5600, Danmark","address":{"town":"Faaborg","municipality":"Faaborg-Midtfyn Kommune","state":"Region Syddanmark","ISO3166-2-lvl4":"DK-83","postcode":"5600","country":"Danmark","country_code":"dk"},"population":7065,"osm_type":"node","osm_id":26559278,"type":"town","location":[10.2428246,55.097087],"bbox":[10.2028246,55.057087,10.2828246,55.137087]}
{"name":"Farum","other_names":{"name:da":"Farum","name:de":"Farum","name:el":"Φάρουμ","name:lt":"Farumas","name:ru":"Фарум","name:zh":"法鲁姆"},"display_name":"Farum, Furesø Kommune, Region Hovedstaden, 3520, Danmark","address":{"town":"Farum","municipality":"Furesø Kommune","state":"Region Hovedstaden","ISO3166-2-lvl4":"DK-84","postcode":"3520","country":"Danmark","country_code":"dk"},"population":20302,"osm_type":"node","osm_id":26559262,"type":"town","location":[12.3702505,55.8101232],"bbox":[12.3302505,55.7701232,12.4102505,55.8501232]}
{"name":"Faxe","other_names":{"name:da":"Faxe","name:de":"Faxe (Ort)","name:nl":"Fakse (plaats)","old_name":"Fakse"},"display_name":"Faxe, Faxe Kommune, Region Sjælland, 4640, Danmark","address":{"town":"Faxe","municipality":"Faxe Kommune","state":"Region Sjælland","ISO3166-2-lvl4":"DK-85","postcode":"4640","country":"Danmark","country_code":"dk"},"population":3828,"osm_type":"node","osm_id":9105385739,"type":"town","location":[12.1142399,55.2521203],"bbox":[12.0742399,55.2121203,12.1542399,55.2921203]}
{"name":"Fredensborg","display_name":"Fredensborg, Fredensborg Kommune, Region Hovedstaden, 3480, Danmark","address":{"town":"Fredensborg","municipality":"Fredensborg Kommune","state":"Region Hovedstaden","ISO3166-2-lvl4":"DK-84","postcode":"3480","country":"Danmark","country_code":"dk"},"population":8611,"osm_type":"node","osm_id":26559063,"type":"town","location":[12.4050622,55.9740003],"bbox":[12.3650622,55.9340003,12.4450622,56.0140003]}
{"name":"Fredericia","other_names":{"name:da":"Fredericia","name:de":"Fredericia","name:ja":"フレゼリシア","name:ka":"ფრედერისია","name:kk":"Фредерисия","name:ko":"프레데리시아","name:lt":"Frederisija","name:mk":"Фредериција","name:nl":"Fredericia","name:ru":"Фредерисия","name:sr":"Фредерикија","alt_name":"Fæstningsbyen","old_name:de":"Friedericia"},"display_name":"Fredericia, Fredericia Kommune, Region Syddanmark, 7000, Danmark","address":{"town":"Fredericia","municipality":"Fredericia Kommune","state":"Region Syddanmark","ISO3166-2-lvl4":"DK-83","postcode":"7000","country":"Danmark","country_code":"dk"},"population":41044,"osm_type":"node","osm_id":26559058,"type":"town","location":[9.7562169,55.565268],"bbox":[9.7162169,55.525268,9.7962169,55.605268],"border":{"name":"Fredericia Kommune","other_names":{"ref":"607","name:ca":"Municipi de Fredericia","name:da":"Fredericia Kommune","name:en":"Fredericia Municipality","name:fi":"Frederician kunta","name:fo":"Fredericia kommuna","name:hr":"Fredericia","name:hu":"Fredericia község","name:id":"Munisipalitas Fredericia","name:nn":"Fredericia kommune","name:no":"Fredericia kommune","name:pl":"Gmina Fredericia","name:sv":"Fredericia kommun","name:frr":"Fredericia Komuun","name:nds":"Kommun Fredericia"},"display_name":"Fredericia Kommune, Region Syddanmark, 7000, Danmark","address":{"municipality":"Fredericia Kommune","state":"Region Syddanmark","ISO3166-2-lvl4":"DK-83","postcode":"7000","country":"Danmark","country_code":"dk"},"osm_type":"relation","osm_id":1799261,"type":"administrative","location":[9.669423609247236,55.56863795],"bbox":[9.5577114,55.5090714,9.8596783,55.6282579]}}
{"name":"Frederiksberg","display_name":"Frederiksberg, Frederiksberg Kommune, Region Hovedstaden, 1861, Danmark","address":{"town":"Frederiksberg","municipality":"Frederiksberg Kommune","state":"Region Hovedstaden","ISO3166-2-lvl4":"DK-84","postcode":"1861","country":"Danmark","country_code":"dk"},"osm_type":"node","osm_id":25389641,"type":"town","location":[12.5326186,55.678016],"bbox":[12.4926186,55.638016,12.5726186,55.718016]}
{"name":"Frederikshavn","other_names":{"name:da":"Frederikshavn","name:de":"Frederikshavn","name:is":"Friðrikshöfn","name:ja":"フレゼリクスハウン","name:ka":"ფრედერიქსჰავნი","name:ko":"프레데릭스하운","name:lt":"Frederikshaunas","name:mk":"Фредериксхавн","name:nl":"Frederikshavn","name:ru":"Фредериксхавн","name:sr":"Фредериксхавн","name:sv":"Fredrikshavn","name:zh":"腓特烈港","alt_name:sv":"Frederikshamn"},"display_name":"Frederikshavn, Frederikshavn Kommune, Region Nordjylland, 9900, Danmark","address":{"town":"Frederikshavn","municipality":"Frederikshavn Kommune","state":"Region Nordjylland","ISO3166-2-lvl4":"DK-81","postcode":"9900","country":"Danmark","country_code":"dk"},"population":23423,"osm_type":"node","osm_id":2211312681,"type":"town","location":[10.5336225,57.4412134],"bbox":[10.4936225,57.4012134,10.5736225,57.4812134]}
{"name":"Frederikssund","other_names":{"name:da":"Frederikssund","name:de":"Frederikssund","name:nl":"Frederikssund","name:no":"Frederikssund (by)","name:ru":"Фредерикссунн","name:sr":"Фредериксунд"},"display_name":"Frederikssund, Frederikssund Kommune, Region Hovedstaden, 3600, Danmark","address":{"town":"Frederikssund","municipality":"Frederikssund Kommune","state":"Region Hovedstaden","ISO3166-2-lvl4":"DK-84","postcode":"3600","country":"Danmark","country_code":"dk"},"population":16254,"osm_type":"node","osm_id":25435368,"type":"town","location":[12.063595,55.8417752],"bbox":[12.023595,55.8017752,12.103595,55.8817752]}
{"name":"Frederiksværk","other_names":{"name:da":"Frederiksværk","name:de":"Frederiksvärk","name:ru":"Фредериксверк"},"display_name":"Frederiksværk, Halsnæs Kommune, Region Hovedstaden, 3300, Danmark","address":{"town":"Frederiksværk","municipality":"Halsnæs Kommune","state":"Region Hovedstaden","ISO3166-2-lvl4":"DK-84","postcode":"3300","country":"Danmark","country_code":"dk"},"population":12864,"osm_type":"node","osm_id":26559074,"type":"town","location":[12.0174311,55.9719082],"bbox":[11.9774311,55.9319082,12.0574311,56.0119082]}
{"name":"Glostrup","other_names":{"name:da":"Glostrup","name:de":"Glostrup"},"display_name":"Glostrup, Glostrup Kommune, Region Hovedstaden, 2600, Danmark","address":{"town":"Glostrup","municipality":"Glostrup Kommune","state":"Region Hovedstaden","ISO3166-2-lvl4":"DK-84","postcode":"2600","country":"Danmark","country_code":"dk"},"population":21805,"osm_type":"node","osm_id":288670546,"type":"town","location":[12.3959521,55.6692478],"bbox":[12.3559521,55.6292478,12.4359521,55.7092478],"border":{"name":"Glostrup Kommune","other_names":{"ref":"161","name:ca":"Municipi de Glostrup","name:da":"Glostrup Kommune","name:en":"Glostrup Municipality","name:fi":"Glostrupin kunta","name:fo":"Glostrup kommuna","name:fr":"Glostrup","name:hu":"Glostrup község","name:id":"Munisipalitas Glostrup","name:nn":"Glostrup kommune","name:no":"Glostrup kommune","name:pl":"Gmina Glostrup","name:sv":"Glostrups kommun","name:frr":"Glostrup Komuun","name:nds":"Kommun Glostrup"},"display_name":"Glostrup Kommune, Region Hovedstaden, 2600, Danmark","address":{"municipality":"Glostrup Kommune","state":"Region Hovedstaden","ISO3166-2-lvl4":"DK-84","postcode":"2600","country":"Danmark","country_code":"dk"},"osm_type":"relation","osm_id":2190423,"type":"administrative","location":[12.412926193799077,55.68391205],"bbox":[12.3678074,55.6579528,12.432371,55.7094784]}}
{"name":"Grenaa","other_names":{"name:da":"Grenaa","name:de":"Grenaa","name:ru":"Грено","alt_name":"Grenå"},"display_name":"Grenaa, Norddjurs Kommune, Region Midtjylland, 8500, Danmark","address":{"town":"Grenaa","municipality":"Norddjurs Kommune","state":"Region Midtjylland","ISO3166-2-lvl4":"DK-82","postcode":"8500","country":"Danmark","country_code":"dk"},"population":14856,"osm_type":"node","osm_id":7447416109,"type":"town","location":[10.8793137,56.4134419],"bbox":[10.8393137,56.3734419,10.9193137,56.4534419]}
{"name":"Greve Strand","other_names":{"name:da":"Greve Strand","name:de":"Greve","name:ka":"გრავე-სტრანი","name:ru":"Греве Странн"},"display_name":"Greve Strand, Greve Kommune, Region Sjælland, 2670, Danmark","address":{"town":"Greve Strand","municipality":"Greve Kommune","state":"Region Sjælland","ISO3166-2-lvl4":"DK-85","postcode":"2670","country":"Danmark","country_code":"dk"},"population":42824,"osm_type":"node","osm_id":26559293,"type":"town","location":[12.2999286,55.5833746],"bbox":[12.2599286,55.5433746,12.3399286,55.6233746]}
{"name":"Grindsted","other_names":{"name:da":"Grindsted","name:de":"Grindsted"},"display_name":"Grindsted, Billund Kommune, Region Syddanmark, 7200, Danmark","address":{"town":"Grindsted","municipality":"Billund Kommune","state":"Region Syddanmark","ISO3166-2-lvl4":"DK-83","postcode":"7200","country":"Danmark","country_code":"dk"},"population":9745,"osm_type":"node","osm_id":26559287,"type":"town","location":[8.9277576,55.7570833],"bbox":[8.8877576,55.7170833,8.9677576,55.7970833]}
{"name":"Haderslev","other_names":{"name:da":"Haderslev","name:de":"Hadersleben","name:en":"Haderslev","name:eo":"Haderslevo","name:ka":"ჰადერსლევი","name:lt":"Haderslevas","name:mk":"Хадерслев","name:nl":"Haderslev","name:ru":"Хадерслев","name:sr":"Хадерслев","int_name":"Haderslev"},"display_name":"Haderslev, Haderslev Kommune, Region Syddanmark, 6100, Danmark","address":{"town":"Haderslev","municipality":"Haderslev Kommune","state":"Region Syddanmark","ISO3166-2-lvl4":"DK-83","postcode":"6100","country":"Danmark","country_code":"dk"},"population":21973,"osm_type":"node","osm_id":26559209,"type":"town","location":[9.4997871,55.2500715],"bbox":[9.4597871,55.2100715,9.5397871,55.2900715]}
{"name":"Hadsten","other_names":{"name:da":"Hadsten","name:de":"Hadsten","name:ru":"Хастен"},"display_name":"Hadsten, Favrskov Kommune, Region Midtjylland, 8370, Danmark","address":{"town":"Hadsten","municipality":"Favrskov Kommune","state":"Region Midtjylland","ISO3166-2-lvl4":"DK-82","postcode":"8370","country":"Danmark","country_code":"dk"},"population":8086,"osm_type":"node","osm_id":26559218,"type":"town","location":[10.0523863,56.3290887],"bbox":[10.0123863,56.2890887,10.0923863,56.3690887]}
{"name":"Hadsund","other_names":{"name:da":"Hadsund","name:de":"Hadsund","name:ka":"ჰადსუნი","name:kk":"Хадсунн","name:lt":"Hadsundas","name:mk":"Хадсунн","name:nl":"Hadsund","name:ru":"Хадсунн","name:sr":"Хадсунд","name:zh":"乞信","name:yue":"乞信"},"display_name":"Hadsund, Mariagerfjord Kommune, Region Nordjylland, Danmark","address":{"town":"Hadsund","municipality":"Mariagerfjord Kommune","state":"Region Nordjylland","ISO3166-2-lvl4":"DK-81","country":"Danmark","country_code":"dk"},"population":5003,"osm_type":"node","osm_id":2264161478,"type":"town","location":[10.1151108,56.7193519],"bbox":[10.0751108,56.6793519,10.1551108,56.7593519]}
{"name":"Haslev","other_names":{"name:da":"Haslev","name:de":"Haslev","name:ru":"Хаслев","name:sr":"Хаслев"},"display_name":"Haslev, Faxe Kommune, Region Sjælland, 4690, Danmark","address":{"town":"Haslev","municipality":"Faxe Kommune","state":"Region Sjælland","ISO3166-2-lvl4":"DK-85","postcode":"4690","country":"Danmark","country_code":"dk"},"population":11880,"osm_type":"node","osm_id":26559092,"type":"town","location":[11.9567297,55.3271115],"bbox":[11.9167297,55.2871115,11.9967297,55.3671115]}
{"name":"Hedehusene","other_names":{"name:da":"Hedehusene","name:de":"Hedehusene"},"display_name":"Hedehusene, Høje-Taastrup Kommune, Region Hovedstaden, 2640, Danmark","address":{"town":"Hedehusene","municipality":"Høje-Taastrup Kommune","state":"Region Hovedstaden","ISO3166-2-lvl4":"DK-84","postcode":"2640","country":"Danmark","country_code":"dk"},"population":11990,"osm_type":"node","osm_id":291733919,"type":"town","location":[12.1968926,55.6480127],"bbox":[12.1568926,55.6080127,12.2368926,55.6880127]}
{"name":"Hedensted","other_names":{"name:da":"Hedensted","name:de":"Hedensted","name:nl":"Hedensted","name:ru":"Хеденстед","name:sr":"Хеденстед"},"display_name":"Hedensted, Hedensted Kommune, Region Midtjylland, 8722, Danmark","address":{"town":"Hedensted","municipality":"Hedensted Kommune","state":"Region Midtjylland","ISO3166-2-lvl4":"DK-82","postcode":"8722","country":"Danmark","country_code":"dk"},"population":11835,"osm_type":"node","osm_id":26559047,"type":"town","location":[9.6994255,55.7705233],"bbox":[9.6594255,55.7305233,9.7394255,55.8105233]}
{"name":"Helsinge","other_names":{"name:da":"Helsinge","name:de":"Helsinge","name:pl":"Gmina Helsinge","name:ru":"Хельсинге"},"display_name":"Helsinge, Gribskov Kommune, Region Hovedstaden, 3200, Danmark","address":{"town":"Helsinge","municipality":"Gribskov Kommune","state":"Region Hovedstaden","ISO3166-2-lvl4":"DK-84","postcode":"3200","country":"Danmark","country_code":"dk"},"population":8229,"osm_type":"node","osm_id":26559025,"type":"town","location":[12.1951087,56.0211073],"bbox":[12.1551087,55.9811073,12.2351087,56.0611073]}
{"name":"Helsingør","other_names":{"name:da":"Helsingør","name:de":"Helsingör","name:en":"Elsinore","name:es":"Elsinor","name:fr":"Elseneur","name:ia":"Elsinor","name:is":"Helsingjaeyri","name:it":"Elsinore","name:ja":"ヘルシンゲル","name:ka":"ჰელსინგერი","name:ko":"헬싱외르","name:lt":"Helsingioras","name:mk":"Хелсингер","name:pt":"Helsingor","name:ru":"Хельсингёр","name:sr":"Хелсингер","name:sv":"Helsingör","name:th":"เฮลซิงเงอร์","name:uk":"Гельсінгер","name:zh":"赫爾辛格","name:lmo":"Elsinör","name:yue":"希星加","old_name:nl":"Elseneur"},"display_name":"Helsingør, Helsingør Kommune, Region Hovedstaden, 3000, Danmark","address":{"town":"Helsingør","municipality":"Helsingør Kommune","state":"Region Hovedstaden","ISO3166-2-lvl4":"DK-84","postcode":"3000","country":"Danmark","country_code":"dk"},"population":47364,"osm_type":"node","osm_id":21040320,"type":"town","location":[12.6130073,56.0348739],"bbox":[12.5730073,55.9948739,12.6530073,56.0748739]}
{"name":"Herlev","other_names":{"name:da":"Herlev","name:de":"Herlev","name:ka":"ჰერლევი"},"display_name":"Herlev, Herlev Kommune, Region Hovedstaden, 2730, Danmark","address":{"town":"Herlev","municipality":"Herlev Kommune","state":"Region Hovedstaden","ISO3166-2-lvl4":"DK-84","postcode":"2730","country":"Danmark","country_code":"dk"},"population":26890,"osm_type":"node","osm_id":25274027,"type":"town","location":[12.4377222,55.7248173],"bbox":[12.3977222,55.6848173,12.4777222,55.7648173],"border":{"name":"Herlev Kommune","other_names":{"ref":"163","name:ca":"Municipi de Herlev","name:da":"Herlev Kommune","name:en":"Herlev Municipality","name:fi":"Herlevin kunta","name:fo":"Herlev kommuna","name:hu":"Herlev község","name:id":"Munisipalitas Herlev","name:ka":"ჰერლევი","name:nn":"Herlev kommune","name:no":"Herlev kommune","name:pl":"Gmina Herlev","name:sv":"Herlevs kommun","name:zh":"海萊烏自治市","alt_name":"Herlev","name:frr":"Herlev Komuun","name:nds":"Kommun Herlev"},"display_name":"Herlev Kommune, Region Hovedstaden, 2730, Danmark","address":{"municipality":"Herlev Kommune","state":"Region Hovedstaden","ISO3166-2-lvl4":"DK-84","postcode":"2730","country":"Danmark","country_code":"dk"},"population":28406,"osm_type":"relation","osm_id":2191207,"type":"administrative","location":[12.429448594707353,55.733752800000005],"bbox":[12.3933734,55.7075897,12.4587304,55.7598634]}}
{"name":"Herning","other_names":{"name:da":"Herning","name:de":"Herning","name:id":"Munisipalitas Herning","name:ja":"ヘアニング","name:ka":"ჰერნინგი","name:kk":"Хернинг","name:lt":"Herningas","name:mk":"Хернинг","name:ms":"Munisipaliti Herning","name:nl":"Herning","name:ru":"Хернинг","name:sr":"Хернинг","name:uk":"Гернінг","name:zh":"海宁 (丹麦)"},"display_name":"Herning, Herning Kommune, Region Midtjylland, 7400, Danmark","address":{"town":"Herning","municipality":"Herning Kommune","state":"Region Midtjylland","ISO3166-2-lvl4":"DK-82","postcode":"7400","country":"Danmark","country_code":"dk"},"population":44557,"osm_type":"node","osm_id":26559007,"type":"town","location":[8.9746623,56.1379757],"bbox":[8.9346623,56.0979757,9.0146623,56.1779757]}
{"name":"Hillerød","other_names":{"name:ar":"هيليرود","name:da":"Hillerød","name:de":"Hilleröd","name:he":"הילרוד","name:id":"Munisipalitas Hillerød","name:ja":"ヒレレズ","name:ka":"ჰილერედი","name:ko":"힐레뢰드","name:lt":"Hileriodas","name:mk":"Хилеред","name:nl":"Hillerød","name:ru":"Хиллерёд","name:sq":"Hillerod","name:sr":"Хилеред","name:zh":"希勒勒","alt_name":"Frederiksborg"},"display_name":"Hillerød, Hillerød Kommune, Region Hovedstaden, 3400, Danmark","address":{"town":"Hillerød","municipality":"Hillerød Kommune","state":"Region Hovedstaden","ISO3166-2-lvl4":"DK-84","postcode":"3400","country":"Danmark","country_code":"dk"},"population":32698,"osm_type":"node","osm_id":26559288,"type":"town","location":[12.3063909,55.9285735],"bbox":[12.2663909,55.8885735,12.3463909,55.9685735]}
{"name":"Hinnerup","other_names":{"name:da":"Hinnerup","name:ru":"Хиннеруп"},"display_name":"Hinnerup, Favrskov Kommune, Region Midtjylland, 8382, Danmark","address":{"town":"Hinnerup","municipality":"Favrskov Kommune","state":"Region Midtjylland","ISO3166-2-lvl4":"DK-82","postcode":"8382","country":"Danmark","country_code":"dk"},"population":7808,"osm_type":"node","osm_id":6121109293,"type":"town","location":[10.0688688,56.2678199],"bbox":[10.0288688,56.2278199,10.1088688,56.3078199]}
{"name":"Hjørring","other_names":{"name:da":"Hjørring","name:de":"Hjörring","name:ka":"იერინგი","name:mk":"Јеринг","name:nl":"Hjørring","name:ru":"Йёрринг","name:sr":"Јеринг","name:sv":"Hjörring"},"display_name":"Hjørring, Hjørring Kommune, Region Nordjylland, 9800, Danmark","address":{"town":"Hjørring","municipality":"Hjørring Kommune","state":"Region Nordjylland","ISO3166-2-lvl4":"DK-81","postcode":"9800","country":"Danmark","country_code":"dk"},"population":25994,"osm_type":"node","osm_id":2222367820,"type":"town","location":[9.9855998,57.457183],"bbox":[9.9455998,57.417183,10.0255998,57.497183]}
{"name":"Hobro","other_names":{"name:da":"Hobro","name:de":"Hobro","name:ru":"Хобро","name:sr":"Хобро","reg_name":"Hobro"},"display_name":"Hobro, Mariagerfjord Kommune, Region Nordjylland, 9500, Danmark","address":{"town":"Hobro","municipality":"Mariagerfjord Kommune","state":"Region Nordjylland","ISO3166-2-lvl4":"DK-81","postcode":"9500","country":"Danmark","country_code":"dk"},"population":12032,"osm_type":"node","osm_id":2262438016,"type":"town","location":[9.7939799,56.6371753],"bbox":[9.7539799,56.5971753,9.8339799,56.6771753]}
{"name":"Holbæk","other_names":{"name:da":"Holbæk","name:de":"Holbäk","name:ka":"ჰოლბეკი","name:lt":"Holbekas","name:mk":"Холбек","name:nl":"Holbæk","name:ru":"Хольбек","name:sr":"Холбек"},"display_name":"Holbæk, Holbæk Kommune, Region Sjælland, 4300, Danmark","address":{"town":"Holbæk","municipality":"Holbæk Kommune","state":"Region Sjælland","ISO3166-2-lvl4":"DK-85","postcode":"4300","country":"Danmark","country_code":"dk"},"population":28264,"osm_type":"node","osm_id":21686564,"type":"town","location":[11.7135474,55.7186117],"bbox":[11.6735474,55.6786117,11.7535474,55.7586117]}
{"name":"Holstebro","other_names":{"name:da":"Holstebro","name:de":"Holstebro","name:fo":"Holstebro kommuna","name:ka":"ჰოლსტებრო","name:lt":"Holstebro","name:mk":"Холтесбро","name:nl":"Holstebro","name:pl":"Gmina Holstebro","name:ru":"Хольстебро","name:sr":"Холстебро","name:zh":"霍爾斯特布羅"},"display_name":"Holstebro, Holstebro Kommune, Region Midtjylland, 7500, Danmark","address":{"town":"Holstebro","municipality":"Holstebro Kommune","state":"Region Midtjylland","ISO3166-2-lvl4":"DK-82","postcode":"7500","country":"Danmark","country_code":"dk"},"population":36199,"osm_type":"node","osm_id":2379841729,"type":"town","location":[8.6159188,56.3590324],"bbox":[8.5759188,56.3190324,8.6559188,56.3990324],"border":{"name":"Holstebro Kommune","other_names":{"ref":"661","name:ca":"Municipi de Holstebro","name:da":"Holstebro Kommune","name:en":"Holstebro Municipality","name:es":"Holstebro","name:fi":"Holstebron kunta","name:id":"Munisipalitas Holstebro","name:nl":"Holstebro","name:nn":"Holstebro kommune","name:no":"Holstebro kommune","name:ru":"Хольстебро","name:se":"Holstebro","name:sv":"Holstebro kommun","name:zh":"霍爾斯特布羅自治市","name:frr":"Holstebro Komuun","name:nds":"Kommun Holstebro"},"display_name":"Holstebro Kommune, Region Midtjylland, Danmark","address":{"municipality":"Holstebro Kommune","state":"Region Midtjylland","ISO3166-2-lvl4":"DK-82","country":"Danmark","country_code":"dk"},"osm_type":"relation","osm_id":1927494,"type":"administrative","location":[8.709862231255695,56.396663849999996],"bbox":[8.1137399,56.2271114,9.0026786,56.5661758]}}
{"name":"Høng","display_name":"Høng, Kalundborg Kommune, Region Sjælland, 4270, Danmark","address":{"town":"Høng","municipality":"Kalundborg Kommune","state":"Region Sjælland","ISO3166-2-lvl4":"DK-85","postcode":"4270","country":"Danmark","country_code":"dk"},"population":4272,"osm_type":"node","osm_id":26559167,"type":"town","location":[11.2927612,55.5084661],"bbox":[11.2527612,55.4684661,11.3327612,55.5484661]}
{"name":"Hørsholm","other_names":{"name:da":"Hørsholm","name:de":"Hirschholm","name:ka":"ჰერსჰოლმი","name:lt":"Hiorsholmas","name:ru":"Хёрсхольм"},"display_name":"Hørsholm, Hørsholm Kommune, Region Hovedstaden, 2970, Danmark","address":{"town":"Hørsholm","municipality":"Hørsholm Kommune","state":"Region Hovedstaden","ISO3166-2-lvl4":"DK-84","postcode":"2970","country":"Danmark","country_code":"dk"},"population":47489,"osm_type":"node","osm_id":26559159,"type":"town","location":[12.5000112,55.8832986],"bbox":[12.4600112,55.8432986,12.5400112,55.9232986]}
{"name":"Humlebæk","display_name":"Humlebæk, Fredensborg Kommune, Region Hovedstaden, 3050, Danmark","address":{"town":"Humlebæk","municipality":"Fredensborg Kommune","state":"Region Hovedstaden","ISO3166-2-lvl4":"DK-84","postcode":"3050","country":"Danmark","country_code":"dk"},"population":9643,"osm_type":"node","osm_id":26559049,"type":"town","location":[12.5305462,55.9618789],"bbox":[12.4905462,55.9218789,12.5705462,56.0018789]}
{"name":"Hundested","other_names":{"name:da":"Hundested","name:de":"Hundested","name:ru":"Хуннестед"},"display_name":"Hundested, Halsnæs Kommune, Region Hovedstaden, 3390, Danmark","address":{"town":"Hundested","municipality":"Halsnæs Kommune","state":"Region Hovedstaden","ISO3166-2-lvl4":"DK-84","postcode":"3390","country":"Danmark","country_code":"dk"},"population":8613,"osm_type":"node","osm_id":26559061,"type":"town","location":[11.8515494,55.9668501],"bbox":[11.8115494,55.9268501,11.8915494,56.0068501]}
{"name":"Ikast","other_names":{"name:da":"Ikast","name:de":"Ikast","name:lt":"Ikastas","name:sr":"Икаст"},"display_name":"Ikast, Ikast-Brande Kommune, Region Midtjylland, 7430, Danmark","address":{"town":"Ikast","municipality":"Ikast-Brande Kommune","state":"Region Midtjylland","ISO3166-2-lvl4":"DK-82","postcode":"7430","country":"Danmark","country_code":"dk"},"population":15479,"osm_type":"node","osm_id":26559035,"type":"town","location":[9.1547931,56.1390178],"bbox":[9.1147931,56.0990178,9.1947931,56.1790178]}
{"name":"Jyllinge","other_names":{"name:da":"Jyllinge","name:de":"Jyllinge","name:lv":"Jilinge"},"display_name":"Jyllinge, Roskilde Kommune, Region Sjælland, 4040, Danmark","address":{"town":"Jyllinge","municipality":"Roskilde Kommune","state":"Region Sjælland","ISO3166-2-lvl4":"DK-85","postcode":"4040","country":"Danmark","country_code":"dk"},"population":10148,"osm_type":"node","osm_id":26559270,"type":"town","location":[12.1086079,55.7535209],"bbox":[12.0686079,55.7135209,12.1486079,55.7935209]}
{"name":"Kalundborg","other_names":{"name:da":"Kalundborg","name:de":"Kalundborg","name:nl":"Kalundborg","name:ru":"Калуннборг"},"display_name":"Kalundborg, Kalundborg Kommune, Region Sjælland, 4400, Danmark","address":{"town":"Kalundborg","municipality":"Kalundborg Kommune","state":"Region Sjælland","ISO3166-2-lvl4":"DK-85","postcode":"4400","country":"Danmark","country_code":"dk"},"population":16523,"osm_type":"node","osm_id":26559290,"type":"town","location":[11.0993619,55.6833793],"bbox":[11.0593619,55.6433793,11.1393619,55.7233793]}
{"name":"Kastrup","other_names":{"name:da":"Kastrup","name:de":"Kastrup"},"display_name":"Kastrup, Tårnby Kommune, Region Hovedstaden, 2770, Danmark","address":{"town":"Kastrup","municipality":"Tårnby Kommune","state":"Region Hovedstaden","ISO3166-2-lvl4":"DK-84","postcode":"2770","country":"Danmark","country_code":"dk"},"population":43010,"osm_type":"node","osm_id":13704769,"type":"town","location":[12.6379955,55.6378428],"bbox":[12.5979955,55.5978428,12.6779955,55.6778428]}
{"name":"Køge","other_names":{"name:da":"Køge","name:de":"Köge","name:ja":"キューゲ","name:ka":"კეგე","name:ko":"코이에","name:lt":"Kiogė","name:mk":"Кеге","name:nl":"Køge","name:ru":"Кёге","name:sr":"Кеје","name:zh":"克厄"},"display_name":"Køge, Køge Kommune, Region Sjælland, 4600, Danmark","address":{"town":"Køge","municipality":"Køge Kommune","state":"Region Sjælland","ISO3166-2-lvl4":"DK-85","postcode":"4600","country":"Danmark","country_code":"dk"},"population":37040,"osm_type":"node","osm_id":26559214,"type":"town","location":[12.1818964,55.4565009],"bbox":[12.1418964,55.4165009,12.2218964,55.4965009]}
{"name":"Kokkedal","display_name":"Kokkedal, Fredensborg Kommune, Region Hovedstaden, 2980, Danmark","address":{"town":"Kokkedal","municipality":"Fredensborg Kommune","state":"Region Hovedstaden","ISO3166-2-lvl4":"DK-84","postcode":"2980","country":"Danmark","country_code":"dk"},"population":9000,"osm_type":"node","osm_id":293063179,"type":"town","location":[12.4916721,55.9105061],"bbox":[12.4516721,55.8705061,12.5316721,55.9505061]}
{"name":"Kongens Lyngby","other_names":{"name:da":"Kongens Lyngby","name:lt":"Liungbiu","alt_name":"Kgs. Lyngby","loc_name":"Lyngby"},"display_name":"Kongens Lyngby, Lyngby-Taarbæk Kommune, Region Hovedstaden, 2800, Danmark","address":{"town":"Kongens Lyngby","municipality":"Lyngby-Taarbæk Kommune","state":"Region Hovedstaden","ISO3166-2-lvl4":"DK-84","postcode":"2800","country":"Danmark","country_code":"dk"},"population":53501,"osm_type":"node","osm_id":21040321,"type":"town","location":[12.5051413,55.7718649],"bbox":[12.4651413,55.7318649,12.5451413,55.8118649]}
{"name":"Korsør","other_names":{"name:da":"Korsør","name:de":"Korsör","name:is":"Krosseyri","name:ru":"Корсёр","name:sr":"Корсер"},"display_name":"Korsør, Slagelse Kommune, Region Sjælland, 4220, Danmark","address":{"town":"Korsør","municipality":"Slagelse Kommune","state":"Region Sjælland","ISO3166-2-lvl4":"DK-85","postcode":"4220","country":"Danmark","country_code":"dk"},"population":14583,"osm_type":"node","osm_id":26559203,"type":"town","location":[11.1425876,55.3266045],"bbox":[11.1025876,55.2866045,11.1825876,55.3666045]}
{"name":"Lemvig","display_name":"Lemvig, Lemvig Kommune, Region Midtjylland, 7620, Danmark","address":{"town":"Lemvig","municipality":"Lemvig Kommune","state":"Region Midtjylland","ISO3166-2-lvl4":"DK-82","postcode":"7620","country":"Danmark","country_code":"dk"},"population":6978,"osm_type":"node","osm_id":2381064271,"type":"town","location":[8.3046456,56.5486971],"bbox":[8.2646456,56.5086971,8.3446456,56.5886971]}
{"name":"Lillerød","other_names":{"name:da":"Lillerød","loc_name":"Allerød"},"display_name":"Lillerød, Allerød Kommune, Region Hovedstaden, 3450, Danmark","address":{"town":"Lillerød","municipality":"Allerød Kommune","state":"Region Hovedstaden","ISO3166-2-lvl4":"DK-84","postcode":"3450","country":"Danmark","country_code":"dk"},"population":16878,"osm_type":"node","osm_id":2603507785,"type":"town","location":[12.3556762,55.8707776],"bbox":[12.3156762,55.8307776,12.3956762,55.9107776]}
{"name":"Lystrup","other_names":{"name:da":"Lystrup","name:zh":"呂斯楚普"},"display_name":"Lystrup, Aarhus Kommune, Region Midtjylland, 8520, Danmark","address":{"town":"Lystrup","municipality":"Aarhus Kommune","state":"Region Midtjylland","ISO3166-2-lvl4":"DK-82","postcode":"8520","country":"Danmark","country_code":"dk"},"population":10376,"osm_type":"node","osm_id":8387660952,"type":"town","location":[10.238378,56.2363205],"bbox":[10.198378,56.1963205,10.278378,56.2763205]}
{"name":"Måløv","display_name":"Måløv, Ballerup Kommune, Region Hovedstaden, 2760, Danmark","address":{"town":"Måløv","municipality":"Ballerup Kommune","state":"Region Hovedstaden","ISO3166-2-lvl4":"DK-84","postcode":"2760","country":"Danmark","country_code":"dk"},"population":8513,"osm_type":"node","osm_id":26559251,"type":"town","location":[12.3192001,55.7493484],"bbox":[12.2792001,55.7093484,12.3592001,55.7893484]}
{"name":"Maribo","other_names":{"name:da":"Maribo","name:ru":"Марибо","name:uk":"Марібо"},"display_name":"Maribo, Lolland Kommune, Region Sjælland, 4930, Danmark","address":{"town":"Maribo","municipality":"Lolland Kommune","state":"Region Sjælland","ISO3166-2-lvl4":"DK-85","postcode":"4930","country":"Danmark","country_code":"dk"},"population":5936,"osm_type":"node","osm_id":26559242,"type":"town","location":[11.5054333,54.7758018],"bbox":[11.4654333,54.7358018,11.5454333,54.8158018]}
{"name":"Marstal","other_names":{"name:da":"Marstal","name:ru":"Марсталь"},"display_name":"Marstal, Ærø Kommune, Region Syddanmark, 5960, Danmark","address":{"town":"Marstal","municipality":"Ærø Kommune","state":"Region Syddanmark","ISO3166-2-lvl4":"DK-83","postcode":"5960","country":"Danmark","country_code":"dk"},"population":2370,"osm_type":"node","osm_id":7993125772,"type":"town","location":[10.5174056,54.8558332],"bbox":[10.4774056,54.8158332,10.5574056,54.8958332]}
{"name":"Middelfart","other_names":{"name:da":"Middelfart","name:de":"Middelfart","name:nl":"Middelfart","name:sr":"Миделфарт"},"display_name":"Middelfart, Middelfart Kommune, Region Syddanmark, 5500, Danmark","address":{"town":"Middelfart","municipality":"Middelfart Kommune","state":"Region Syddanmark","ISO3166-2-lvl4":"DK-83","postcode":"5500","country":"Danmark","country_code":"dk"},"population":15246,"osm_type":"node","osm_id":26559277,"type":"town","location":[9.7392181,55.4993014],"bbox":[9.6992181,55.4593014,9.7792181,55.5393014],"border":{"name":"Middelfart Kommune","other_names":{"ref":"410","name:ca":"Municipi de Middelfart","name:da":"Middelfart Kommune","name:en":"Middelfart Municipality","name:fi":"Middelfartin kunta","name:fo":"Middelfart kommuna","name:id":"Munisipalitas Middelfart","name:no":"Middelfart kommune","name:pl":"Gmina Middelfart","name:ru":"Миддельфарт","name:se":"Middelfart","name:sv":"Middelfarts kommun","name:frr":"Middelfart Komuun","name:nds":"Kommun Middelfart"},"display_name":"Middelfart Kommune, Region Syddanmark, Danmark","address":{"municipality":"Middelfart Kommune","state":"Region Syddanmark","ISO3166-2-lvl4":"DK-83","country":"Danmark","country_code":"dk"},"osm_type":"relation","osm_id":2178063,"type":"administrative","location":[9.93698602688241,55.44699795],"bbox":[9.6586411,55.3391697,10.0905621,55.5547911]}}
{"name":"Næstved","other_names":{"name:da":"Næstved","name:de":"Nästved","name:ja":"ネストヴェズ","name:ka":"ნესტვედი","name:ko":"네스트베드","name:lt":"Nestvedas","name:mk":"Нествед","name:nl":"Næstved","name:ru":"Нествед","name:sr":"Нествед","name:zh":"奈斯特韦兹"},"display_name":"Næstved, Næstved Kommune, Region Sjælland, 4700, Danmark","address":{"town":"Næstved","municipality":"Næstved Kommune","state":"Region Sjælland","ISO3166-2-lvl4":"DK-85","postcode":"4700","country":"Danmark","country_code":"dk"},"population":43508,"osm_type":"node","osm_id":26559174,"type":"town","location":[11.7674102,55.2328252],"bbox":[11.7274102,55.1928252,11.8074102,55.2728252]}
{"name":"Nakskov","other_names":{"name:da":"Nakskov","name:de":"Nakskov","name:lt":"Nakskovas","name:ru":"Наксков","name:sr":"Наксков"},"display_name":"Nakskov, Lolland Kommune, Region Sjælland, 4900, Danmark","address":{"town":"Nakskov","municipality":"Lolland Kommune","state":"Region Sjælland","ISO3166-2-lvl4":"DK-85","postcode":"4900","country":"Danmark","country_code":"dk"},"population":12661,"osm_type":"node","osm_id":26559044,"type":"town","location":[11.1493517,54.8304979],"bbox":[11.1093517,54.7904979,11.1893517,54.8704979]}
{"name":"Nivå","display_name":"Nivå, Fredensborg Kommune, Region Hovedstaden, 2990, Danmark","address":{"town":"Nivå","municipality":"Fredensborg Kommune","state":"Region Hovedstaden","ISO3166-2-lvl4":"DK-84","postcode":"2990","country":"Danmark","country_code":"dk"},"population":7821,"osm_type":"node","osm_id":26559100,"type":"town","location":[12.5013529,55.935056],"bbox":[12.4613529,55.895056,12.5413529,55.975056]}
{"name":"Nørresundby","other_names":{"name:da":"Nørresundby","name:de":"Nörresundby","name:ka":"ნერესუნბიუ"},"display_name":"Nørresundby, Aalborg Kommune, Region Nordjylland, 9400, Danmark","address":{"town":"Nørresundby","municipality":"Aalborg Kommune","state":"Region Nordjylland","ISO3166-2-lvl4":"DK-81","postcode":"9400","country":"Danmark","country_code":"dk"},"population":22859,"osm_type":"node","osm_id":2246075609,"type":"town","location":[9.9241319,57.0607251],"bbox":[9.8841319,57.0207251,9.9641319,57.1007251]}
{"name":"Nyborg","other_names":{"name:da":"Nyborg","name:de":"Nyborg","name:nl":"Nyborg","name:ru":"Нюборг","name:sv":"Nyborg","old_name:de":"Nieburg"},"display_name":"Nyborg, Nyborg Kommune, Region Syddanmark, 5800, Danmark","address":{"town":"Nyborg","municipality":"Nyborg Kommune","state":"Region Syddanmark","ISO3166-2-lvl4":"DK-83","postcode":"5800","country":"Danmark","country_code":"dk"},"population":17164,"osm_type":"node","osm_id":26559169,"type":"town","location":[10.7976604,55.3098281],"bbox":[10.7576604,55.2698281,10.8376604,55.3498281]}
{"name":"Nykøbing Falster","other_names":{"name:da":"Nykøbing Falster","name:de":"Nyköbing Falster","name:ja":"ニュークビン・ファルスター","name:lt":"Niukiobingas","name:ru":"Нюкёбинг Фальстер","name:sr":"Никебинг Фалстер","name:uk":"Нюкебінґ Фальстер","alt_name":"Nykøbing F","old_name":"Nykøbing"},"display_name":"Nykøbing Falster, Guldborgsund Kommune, Region Sjælland, 4800, Danmark","address":{"town":"Nykøbing Falster","municipality":"Guldborgsund Kommune","state":"Region Sjælland","ISO3166-2-lvl4":"DK-85","postcode":"4800","country":"Danmark","country_code":"dk"},"population":16778,"osm_type":"node","osm_id":26559259,"type":"town","location":[11.8709918,54.7646137],"bbox":[11.8309918,54.7246137,11.9109918,54.8046137]}
{"name":"Nykøbing Mors","other_names":{"name:da":"Nykøbing Mors","name:de":"Nyköbing Mors","name:ja":"ニュークビン・モース","alt_name":"Nykøbing M","official_name":"Nykøbing Mors"},"display_name":"Nykøbing Mors, Morsø Kommune, Region Nordjylland, 7900, Danmark","address":{"town":"Nykøbing Mors","municipality":"Morsø Kommune","state":"Region Nordjylland","ISO3166-2-lvl4":"DK-81","postcode":"7900","country":"Danmark","country_code":"dk"},"population":9173,"osm_type":"node","osm_id":26559261,"type":"town","location":[8.8594834,56.7943811],"bbox":[8.8194834,56.7543811,8.8994834,56.8343811]}
{"name":"Odder","other_names":{"name:da":"Odder","name:de":"Odder","name:es":"Odder (ciudad)","name:nl":"Odder","name:pl":"Odder (Dania)","name:ru":"Оддер","name:sr":"Одер"},"display_name":"Odder, Odder Kommune, Region Midtjylland, 8300, Danmark","address":{"town":"Odder","municipality":"Odder Kommune","state":"Region Midtjylland","ISO3166-2-lvl4":"DK-82","postcode":"8300","country":"Danmark","country_code":"dk"},"population":12093,"osm_type":"node","osm_id":26559275,"type":"town","location":[10.1513202,55.975832],"bbox":[10.1113202,55.935832,10.1913202,56.015832]}
{"name":"Ølstykke","other_names":{"name:da":"Ølstykke","name:ru":"Эльстюкке"},"display_name":"Ølstykke, Egedal Kommune, Region Hovedstaden, 3650, Danmark","address":{"town":"Ølstykke","municipality":"Egedal Kommune","state":"Region Hovedstaden","ISO3166-2-lvl4":"DK-84","postcode":"3650","country":"Danmark","country_code":"dk"},"population":14833,"osm_type":"node","osm_id":25275433,"type":"town","location":[12.1717405,55.7765597],"bbox":[12.1317405,55.7365597,12.2117405,55.8165597]}
{"name":"Ribe","other_names":{"name:da":"Ribe","name:de":"Ripen","name:fa":"ریبه","name:hr":"Ribe","name:is":"Rípar","name:ja":"リーベ","name:ko":"리베","name:nl":"Ribe","name:ru":"Рибе","name:zh":"里伯"},"display_name":"Ribe, Esbjerg Kommune, Region Syddanmark, 6760, Danmark","address":{"town":"Ribe","municipality":"Esbjerg Kommune","state":"Region Syddanmark","ISO3166-2-lvl4":"DK-83","postcode":"6760","country":"Danmark","country_code":"dk"},"population":8259,"osm_type":"node","osm_id":597643755,"type":"town","location":[8.7647838,55.3284036],"bbox":[8.7247838,55.2884036,8.8047838,55.3684036]}
{"name":"Ringe","other_names":{"name:da":"Ringe","name:de":"Ringe","name:en":"Ringe","name:ms":"Ringe","name:nl":"Ringe","name:ru":"Ринге","name:zh":"林格"},"display_name":"Ringe, Faaborg-Midtfyn Kommune, Region Syddanmark, 5750, Danmark","address":{"town":"Ringe","municipality":"Faaborg-Midtfyn Kommune","state":"Region Syddanmark","ISO3166-2-lvl4":"DK-83","postcode":"5750","country":"Danmark","country_code":"dk"},"population":5584,"osm_type":"node","osm_id":26559221,"type":"town","location":[10.481895,55.2351317],"bbox":[10.441895,55.1951317,10.521895,55.2751317]}
{"name":"Ringkøbing","other_names":{"name:da":"Ringkøbing","name:lt":"Ringkiobingas","name:ru":"Рингкёбинг"},"display_name":"Ringkøbing, Ringkøbing-Skjern Kommune, Region Midtjylland, 6950, Danmark","address":{"town":"Ringkøbing","municipality":"Ringkøbing-Skjern Kommune","state":"Region Midtjylland","ISO3166-2-lvl4":"DK-82","postcode":"6950","country":"Danmark","country_code":"dk"},"population":9966,"osm_type":"node","osm_id":2387702632,"type":"town","location":[8.2540637,56.0905708],"bbox":[8.2140637,56.0505708,8.2940637,56.1305708]}
{"name":"Ringsted","other_names":{"name:da":"Ringsted","name:de":"Ringsted","name:ka":"რინგსტედი","name:nl":"Ringsted","name:ru":"Рингстед","name:zh":"灵斯泰兹"},"display_name":"Ringsted, Ringsted Kommune, Region Sjælland, 4100, Danmark","address":{"town":"Ringsted","municipality":"Ringsted Kommune","state":"Region Sjælland","ISO3166-2-lvl4":"DK-85","postcode":"4100","country":"Danmark","country_code":"dk"},"population":22657,"osm_type":"node","osm_id":25232818,"type":"town","location":[11.7975218,55.446817],"bbox":[11.7575218,55.406817,11.8375218,55.486817]}
{"name":"Rødding","other_names":{"name:da":"Rødding","name:de":"Rödding"},"display_name":"Rødding, Vejen Kommune, Region Syddanmark, Danmark","address":{"town":"Rødding","municipality":"Vejen Kommune","state":"Region Syddanmark","ISO3166-2-lvl4":"DK-83","country":"Danmark","country_code":"dk"},"population":2694,"osm_type":"node","osm_id":8697386297,"type":"town","location":[9.0581471,55.3680577],"bbox":[9.0181471,55.3280577,9.0981471,55.4080577]}
{"name":"Rønne","other_names":{"name:da":"Rønne","name:de":"Rönne","name:lt":"Rionė"},"display_name":"Rønne, Bornholms Regionskommune, Region Hovedstaden, 3700, Danmark","address":{"town":"Rønne","municipality":"Bornholms Regionskommune","state":"Region Hovedstaden","ISO3166-2-lvl4":"DK-84","postcode":"3700","country":"Danmark","country_code":"dk"},"population":13737,"osm_type":"node","osm_id":249523561,"type":"town","location":[14.7060906,55.0994511],"bbox":[14.6660906,55.0594511,14.7460906,55.1394511]}
{"name":"Rudkøbing","other_names":{"name:da":"Rudkøbing","name:ru":"Рудкёбинг"},"display_name":"Rudkøbing, Langeland Kommune, Region Syddanmark, 5900, Danmark","address":{"town":"Rudkøbing","municipality":"Langeland Kommune","state":"Region Syddanmark","ISO3166-2-lvl4":"DK-83","postcode":"5900","country":"Danmark","country_code":"dk"},"population":4647,"osm_type":"node","osm_id":26559138,"type":"town","location":[10.7167568,54.9377498],"bbox":[10.6767568,54.8977498,10.7567568,54.9777498]}
{"name":"Sæby","other_names":{"name:da":"Sæby","name:ru":"Себю"},"display_name":"Sæby, Frederikshavn Kommune, Region Nordjylland, 9300, Danmark","address":{"town":"Sæby","municipality":"Frederikshavn Kommune","state":"Region Nordjylland","ISO3166-2-lvl4":"DK-81","postcode":"9300","country":"Danmark","country_code":"dk"},"population":8871,"osm_type":"node","osm_id":2212804475,"type":"town","location":[10.5198811,57.3312762],"bbox":[10.4798811,57.2912762,10.5598811,57.3712762]}
{"name":"Sakskøbing","other_names":{"name:da":"Sakskøbing","name:lt":"Sakskiobingas","name:ru":"Сакскёбинг"},"display_name":"Sakskøbing, Guldborgsund Kommune, Region Sjælland, 4990, Danmark","address":{"town":"Sakskøbing","municipality":"Guldborgsund Kommune","state":"Region Sjælland","ISO3166-2-lvl4":"DK-85","postcode":"4990","country":"Danmark","country_code":"dk"},"population":4565,"osm_type":"node","osm_id":8902021952,"type":"town","location":[11.6341381,54.798788],"bbox":[11.5941381,54.758788,11.6741381,54.838788]}
{"name":"Silkeborg","other_names":{"name:bg":"Силкеборг","name:da":"Silkeborg","name:de":"Silkeborg","name:is":"Silkiborg","name:ja":"シルケボー","name:ka":"სილკებორგი","name:ko":"실케보르","name:lt":"Silkeborgas","name:mk":"Силкеборг","name:nl":"Silkeborg","name:ru":"Силькеборг","name:zh":"锡尔克堡"},"display_name":"Silkeborg, Silkeborg Kommune, Region Midtjylland, 8600, Danmark","address":{"town":"Silkeborg","municipality":"Silkeborg Kommune","state":"Region Midtjylland","ISO3166-2-lvl4":"DK-82","postcode":"8600","country":"Danmark","country_code":"dk"},"population":43313,"osm_type":"node","osm_id":26559248,"type":"town","location":[9.5495141,56.169453],"bbox":[9.5095141,56.129453,9.5895141,56.209453]}
{"name":"Skagen","other_names":{"name:be":"Скаген","name:bg":"Скаген","name:da":"Skagen","name:fa":"اسکاگن","name:fy":"Skagen","name:is":"Skaginn","name:lt":"Skagenas","name:os":"Скаген","name:ru":"Скаген","name:uk":"Скаген","name:zh":"斯卡恩"},"display_name":"Skagen, Frederikshavn Kommune, Region Nordjylland, 9990, Danmark","address":{"town":"Skagen","municipality":"Frederikshavn Kommune","state":"Region Nordjylland","ISO3166-2-lvl4":"DK-81","postcode":"9990","country":"Danmark","country_code":"dk"},"population":8037,"osm_type":"node","osm_id":2208554046,"type":"town","location":[10.5844602,57.7259703],"bbox":[10.5444602,57.6859703,10.6244602,57.7659703]}
{"name":"Skanderborg","other_names":{"name:da":"Skanderborg","name:de":"Skanderborg","name:nl":"Skanderborg","name:ru":"Сканнерборг","name:zh":"斯坎訥堡自治市"},"display_name":"Skanderborg, Skanderborg Kommune, Region Midtjylland, 8660, Danmark","address":{"town":"Skanderborg","municipality":"Skanderborg Kommune","state":"Region Midtjylland","ISO3166-2-lvl4":"DK-82","postcode":"8660","country":"Danmark","country_code":"dk"},"population":18907,"osm_type":"node","osm_id":26559266,"type":"town","location":[9.9317878,56.0351868],"bbox":[9.8917878,55.9951868,9.9717878,56.0751868]}
{"name":"Skive","other_names":{"name:da":"Skive","name:de":"Skive","name:en":"Skive","name:mk":"Скиве","name:nl":"Skive","name:no":"Skive (by)","name:ru":"Скиве","name:sr":"Скиве"},"display_name":"Skive, Skive Kommune, Region Midtjylland, 7800, Danmark","address":{"town":"Skive","municipality":"Skive Kommune","state":"Region Midtjylland","ISO3166-2-lvl4":"DK-82","postcode":"7800","country":"Danmark","country_code":"dk"},"population":20809,"osm_type":"node","osm_id":26559171,"type":"town","location":[9.029272,56.5659301],"bbox":[8.989272,56.5259301,9.069272,56.6059301],"border":{"name":"Skive Kommune","other_names":{"ref":"779","name:ca":"Municipi de Skive","name:da":"Skive Kommune","name:en":"Skive Municipality","name:es":"Skive","name:fi":"Skiven kunta","name:fo":"Skive kommuna","name:id":"Munisipalitas Skive","name:no":"Skive kommune","name:pl":"Gmina Skive","name:sv":"Skive kommun","name:frr":"Skive Komuun","name:nds":"Kommun Skive"},"display_name":"Skive Kommune, Region Midtjylland, Danmark","address":{"municipality":"Skive Kommune","state":"Region Midtjylland","ISO3166-2-lvl4":"DK-82","country":"Danmark","country_code":"dk"},"osm_type":"relation","osm_id":1926905,"type":"administrative","location":[8.932732160154906,56.6459244],"bbox":[8.6748249,56.4892014,9.2955294,56.8465928]}}
{"name":"Skjern","other_names":{"name:da":"Skjern","name:ru":"Скьерн"},"display_name":"Skjern, Ringkøbing-Skjern Kommune, Region Midtjylland, 6900, Danmark","address":{"town":"Skjern","municipality":"Ringkøbing-Skjern Kommune","state":"Region Midtjylland","ISO3166-2-lvl4":"DK-82","postcode":"6900","country":"Danmark","country_code":"dk"},"population":7866,"osm_type":"node","osm_id":2388778274,"type":"town","location":[8.4909186,55.9469339],"bbox":[8.4509186,55.9069339,8.5309186,55.9869339]}
{"name":"Slagelse","other_names":{"name:be":"Слагельсэ","name:da":"Slagelse","name:de":"Slagelse","name:ru":"Слагельсе"},"display_name":"Slagelse, Slagelse Kommune, Region Sjælland, 4200, Danmark","address":{"town":"Slagelse","municipality":"Slagelse Kommune","state":"Region Sjælland","ISO3166-2-lvl4":"DK-85","postcode":"4200","country":"Danmark","country_code":"dk"},"population":33777,"osm_type":"node","osm_id":27536827,"type":"town","location":[11.3525415,55.4061196],"bbox":[11.3125415,55.3661196,11.3925415,55.4461196],"border":{"name":"Slagelse Kommune","other_names":{"ref":"330","name:ca":"Municipi de Slagelse","name:da":"Slagelse Kommune","name:en":"Slagelse Municipality","name:eo":"Slagelse","name:fi":"Slagelsen kunta","name:fo":"Slagelse kommuna","name:id":"Munisipalitas Slagelse","name:nn":"Slagelse kommune","name:no":"Slagelse kommune","name:pl":"Gmina Slagelse","name:sv":"Slagelse kommun","name:frr":"Slagelse Komuun","name:nds":"Kommun Slagelse"},"display_name":"Slagelse Kommune, Region Sjælland, Danmark","address":{"municipality":"Slagelse Kommune","state":"Region Sjælland","ISO3166-2-lvl4":"DK-85","country":"Danmark","country_code":"dk"},"osm_type":"relation","osm_id":2181847,"type":"administrative","location":[11.351111178735273,55.3478511],"bbox":[10.9450712,55.140043,11.5215426,55.5097803]}}
{"name":"Smørumnedre","display_name":"Smørumnedre, Egedal Kommune, Region Hovedstaden, 2765, Danmark","address":{"town":"Smørumnedre","municipality":"Egedal Kommune","state":"Region Hovedstaden","ISO3166-2-lvl4":"DK-84","postcode":"2765","country":"Danmark","country_code":"dk"},"population":19816,"osm_type":"node","osm_id":26559142,"type":"town","location":[12.2998472,55.7366023],"bbox":[12.2598472,55.6966023,12.3398472,55.7766023]}
{"name":"Solrød Strand","other_names":{"name:da":"Solrød Strand","name:de":"Solröd Strand","name:sr":"Солред Странд"},"display_name":"Solrød Strand, Solrød Kommune, Region Sjælland, 2680, Danmark","address":{"town":"Solrød Strand","municipality":"Solrød Kommune","state":"Region Sjælland","ISO3166-2-lvl4":"DK-85","postcode":"2680","country":"Danmark","country_code":"dk"},"population":16255,"osm_type":"node","osm_id":1749628534,"type":"town","location":[12.2193108,55.534253],"bbox":[12.1793108,55.494253,12.2593108,55.574253]}
{"name":"Sønderborg","other_names":{"name:ca":"Sønderborg","name:cs":"Sønderborg","name:da":"Sønderborg","name:de":"Sonderburg","name:en":"Sønderborg","name:eo":"Sønderborg","name:es":"Sønderborg","name:et":"Sønderborg","name:eu":"Sønderborg","name:fa":"سوندبورگ","name:fi":"Sønderborg","name:fo":"Sønderborg","name:hu":"Sønderborg","name:id":"Sønderborg","name:is":"Sønderborg","name:it":"Sønderborg","name:ja":"セナボー","name:ka":"სენერბორგი","name:ko":"쇠네르보르","name:lt":"Sionderborgas","name:mk":"Сондерборг","name:ms":"Sønderborg","name:nl":"Sønderborg","name:nn":"Sønderborg","name:no":"Sønderborg","name:pl":"Sønderborg","name:pt":"Sønderborg","name:ro":"Sønderborg","name:ru":"Сённерборг","name:sr":"Сендерборг","name:sv":"Sønderborg","name:sw":"Sønderborg","name:tr":"Sønderborg","name:uk":"Сендерборг","name:vo":"Sønderborg","name:zh":"森訥堡","name:ast":"Sønderborg","name:ceb":"Sønderborg","name:diq":"Sønderborg","name:frr":"Sønderborg","alt_name:ja":"ゾンダーブルク","alt_name:ru":"Зондербург"},"display_name":"Sønderborg, Sønderborg Kommune, Region Syddanmark, 6400, Danmark","address":{"town":"Sønderborg","municipality":"Sønderborg Kommune","state":"Region Syddanmark","ISO3166-2-lvl4":"DK-83","postcode":"6400","country":"Danmark","country_code":"dk"},"population":27785,"osm_type":"node","osm_id":21148742,"type":"town","location":[9.7897999,54.9089186],"bbox":[9.7497999,54.8689186,9.8297999,54.9489186],"border":{"name":"Sønderborg Kommune","other_names":{"ref":"540","name:ca":"Municipi de Sønderborg","name:da":"Sønderborg Kommune","name:de":"Kommune Sonderburg","name:en":"Sønderborg Municipality","name:fi":"Sønderborgin kunta","name:fo":"Sønderborg kommuna","name:id":"Munisipalitas Sønderborg","name:no":"Sønderborg kommune","name:pl":"Gmina Sønderborg","name:ru":"Сённерборг","name:sv":"Sønderborgs kommun","name:frr":"Sønderborg Komuun","name:nds":"Kommun Sönderborg","name:sco":"Sønderborg Municipality"},"display_name":"Sønderborg Kommune, Region Syddanmark, Danmark","address":{"municipality":"Sønderborg Kommune","state":"Region Syddanmark","ISO3166-2-lvl4":"DK-83","country":"Danmark","country_code":"dk"},"osm_type":"relation","osm_id":1928254,"type":"administrative","location":[9.931922743249796,54.9680815],"bbox":[9.4624688,54.8348939,10.0715755,55.0837904]}}
{"name":"Sorø","other_names":{"name:da":"Sorø","name:de":"Sorö","name:fy":"Sorø (plak)","name:is":"Sórey","name:ja":"ソレ","name:ko":"소뢰","name:la":"Sora","name:lt":"Sorė","name:mk":"Соре","name:nl":"Sorø","name:os":"Сорё","name:ru":"Сорё","name:sr":"Соре","name:zh":"索勒"},"display_name":"Sorø, Sorø Kommune, Region Sjælland, 4180, Danmark","address":{"town":"Sorø","municipality":"Sorø Kommune","state":"Region Sjælland","ISO3166-2-lvl4":"DK-85","postcode":"4180","country":"Danmark","country_code":"dk"},"population":7958,"osm_type":"node","osm_id":26559256,"type":"town","location":[11.5629363,55.4365822],"bbox":[11.5229363,55.3965822,11.6029363,55.4765822]}
{"name":"Støvring","other_names":{"name:da":"Støvring","name:ru":"Стёвринг"},"display_name":"Støvring, Rebild Kommune, Region Nordjylland, 9530, Danmark","address":{"town":"Støvring","municipality":"Rebild Kommune","state":"Region Nordjylland","ISO3166-2-lvl4":"DK-81","postcode":"9530","country":"Danmark","country_code":"dk"},"population":6988,"osm_type":"node","osm_id":8015510456,"type":"town","location":[9.833064,56.8847204],"bbox":[9.793064,56.8447204,9.873064,56.9247204]}
{"name":"Struer","other_names":{"name:da":"Struer","name:de":"Struer","name:en":"Struer","name:nl":"Struer","name:ru":"Струер","name:sr":"Струер","reg_name":"Struer"},"display_name":"Struer, Struer Kommune, Region Midtjylland, 7600, Danmark","address":{"town":"Struer","municipality":"Struer Kommune","state":"Region Midtjylland","ISO3166-2-lvl4":"DK-82","postcode":"7600","country":"Danmark","country_code":"dk"},"population":10375,"osm_type":"node","osm_id":2385984997,"type":"town","location":[8.5951427,56.4866768],"bbox":[8.5551427,56.4466768,8.6351427,56.5266768]}
{"name":"Svendborg","other_names":{"name:da":"Svendborg","name:ru":"Свеннборг"},"display_name":"Svendborg, Svendborg Kommune, Region Syddanmark, 5700, Danmark","address":{"town":"Svendborg","municipality":"Svendborg Kommune","state":"Region Syddanmark","ISO3166-2-lvl4":"DK-83","postcode":"5700","country":"Danmark","country_code":"dk"},"population":27521,"osm_type":"node","osm_id":7150539911,"type":"town","location":[10.6084725,55.0636625],"bbox":[10.5684725,55.0236625,10.6484725,55.1036625]}
{"name":"Svenstrup","other_names":{"name:da":"Svenstrup","name:ru":"Свенструп","alt_name":"Svenstrup J"},"display_name":"Svenstrup, Aalborg Kommune, Region Nordjylland, 9230, Danmark","address":{"town":"Svenstrup","municipality":"Aalborg Kommune","state":"Region Nordjylland","ISO3166-2-lvl4":"DK-81","postcode":"9230","country":"Danmark","country_code":"dk"},"population":7056,"osm_type":"node","osm_id":2247048364,"type":"town","location":[9.8525837,56.9773211],"bbox":[9.8125837,56.9373211,9.8925837,57.0173211]}
{"name":"Taastrup","other_names":{"name:da":"Taastrup","name:de":"Taastrup","name:en":"Taastrup","name:is":"Taastrup","name:ka":"ტოსტრუპი","name:ms":"Taastrup","name:nl":"Taastrup","name:no":"Taastrup","name:pl":"Taastrup","name:ro":"Taastrup","name:ru":"Тоструп","name:vi":"Taastrup","name:vo":"Taastrup","alt_name":"Tåstrup","old_name":"Tåstrup"},"display_name":"Taastrup, Høje-Taastrup Kommune, Region Hovedstaden, 2630, Danmark","address":{"town":"Taastrup","municipality":"Høje-Taastrup Kommune","state":"Region Hovedstaden","ISO3166-2-lvl4":"DK-84","postcode":"2630","country":"Danmark","country_code":"dk"},"population":34470,"osm_type":"node","osm_id":26559273,"type":"town","location":[12.292049,55.6522136],"bbox":[12.252049,55.6122136,12.332049,55.6922136]}
{"name":"Tårnby","other_names":{"name:da":"Tårnby","name:de":"Taarnby","name:ka":"ტორნბი","name:no":"Tårnby (Amager)"},"display_name":"Tårnby, Tårnby Kommune, Region Hovedstaden, 2770, Danmark","address":{"town":"Tårnby","municipality":"Tårnby Kommune","state":"Region Hovedstaden","ISO3166-2-lvl4":"DK-84","postcode":"2770","country":"Danmark","country_code":"dk"},"population":41206,"osm_type":"node","osm_id":1498260436,"type":"town","location":[12.6006252,55.6246457],"bbox":[12.5606252,55.5846457,12.6406252,55.6646457]}
{"name":"Thisted","other_names":{"name:da":"Thisted","name:de":"Thisted","name:fi":"Thistedin kunta","name:ko":"티스테드","name:nl":"Thisted","name:ru":"Тистед"},"display_name":"Thisted, Thisted Kommune, Region Nordjylland, Danmark","address":{"town":"Thisted","municipality":"Thisted Kommune","state":"Region Nordjylland","ISO3166-2-lvl4":"DK-81","country":"Danmark","country_code":"dk"},"population":13416,"osm_type":"node","osm_id":2251092237,"type":"town","location":[8.6848749,56.9562093],"bbox":[8.6448749,56.9162093,8.7248749,56.9962093]}
{"name":"Tilst","other_names":{"name:da":"Tilst","name:ru":"Тильст"},"display_name":"Tilst, Aarhus Kommune, Region Midtjylland, 8381, Danmark","address":{"town":"Tilst","municipality":"Aarhus Kommune","state":"Region Midtjylland","ISO3166-2-lvl4":"DK-82","postcode":"8381","country":"Danmark","country_code":"dk"},"population":16271,"osm_type":"node","osm_id":416444238,"type":"town","location":[10.1117391,56.1921152],"bbox":[10.0717391,56.1521152,10.1517391,56.2321152]}
{"name":"Tønder","other_names":{"name:da":"Tønder","name:de":"Tondern","name:fy":"Tuner","name:is":"Tönder","name:ja":"トゥナー","name:ko":"퇴네르","name:ru":"Тённер"},"display_name":"Tønder, Tønder Kommune, Region Syddanmark, 6270, Danmark","address":{"town":"Tønder","municipality":"Tønder Kommune","state":"Region Syddanmark","ISO3166-2-lvl4":"DK-83","postcode":"6270","country":"Danmark","country_code":"dk"},"population":7581,"osm_type":"node","osm_id":1688992103,"type":"town","location":[8.8629408,54.9380637],"bbox":[8.8229408,54.8980637,8.9029408,54.9780637]}
{"name":"Tranbjerg","other_names":{"name:da":"Tranbjerg","name:ru":"Транбьерг"},"display_name":"Tranbjerg, Aarhus Kommune, Region Midtjylland, 8310, Danmark","address":{"town":"Tranbjerg","municipality":"Aarhus Kommune","state":"Region Midtjylland","ISO3166-2-lvl4":"DK-82","postcode":"8310","country":"Danmark","country_code":"dk"},"population":7307,"osm_type":"node","osm_id":26559057,"type":"town","location":[10.1330099,56.0905987],"bbox":[10.0930099,56.0505987,10.1730099,56.1305987]}
{"name":"Værløse","other_names":{"name:da":"Værløse","name:de":"Værløse Kommune","name:pl":"Gmina Værløse"},"display_name":"Værløse, Furesø Kommune, Region Hovedstaden, 3500, Danmark","address":{"town":"Værløse","municipality":"Furesø Kommune","state":"Region Hovedstaden","ISO3166-2-lvl4":"DK-84","postcode":"3500","country":"Danmark","country_code":"dk"},"population":13070,"osm_type":"node","osm_id":26559081,"type":"town","location":[12.383333,55.783333],"bbox":[12.343333,55.743333,12.423333,55.823333]}
{"name":"Varde","other_names":{"name:da":"Varde","name:de":"Varde","name:nl":"Varde","name:ru":"Варде","name:sr":"Варде"},"display_name":"Varde, Varde Kommune, Region Syddanmark, 6800, Danmark","address":{"town":"Varde","municipality":"Varde Kommune","state":"Region Syddanmark","ISO3166-2-lvl4":"DK-83","postcode":"6800","country":"Danmark","country_code":"dk"},"population":13949,"osm_type":"node","osm_id":21518091,"type":"town","location":[8.4811757,55.6176702],"bbox":[8.4411757,55.5776702,8.5211757,55.6576702]}
{"name":"Vejen","other_names":{"name:da":"Vejen","name:ru":"Вайен"},"display_name":"Vejen, Vejen Kommune, Region Syddanmark, 6600, Danmark","address":{"town":"Vejen","municipality":"Vejen Kommune","state":"Region Syddanmark","ISO3166-2-lvl4":"DK-83","postcode":"6600","country":"Danmark","country_code":"dk"},"population":9763,"osm_type":"node","osm_id":26559236,"type":"town","location":[9.1317951,55.4743417],"bbox":[9.0917951,55.4343417,9.1717951,55.5143417]}
{"name":"Viborg","other_names":{"name:ca":"Viborg","name:da":"Viborg","name:de":"Viborg","name:el":"Βίμποργκ","name:en":"Viborg","name:hu":"Viborg","name:is":"Vébjörg","name:ja":"ヴィボー","name:ka":"ვიბორგი (დანია)","name:ko":"비보르","name:lt":"Viborgas","name:mk":"Виборг","name:nl":"Viborg","name:nn":"Viborg","name:ru":"Виборг","name:sr":"Виборг","name:sv":"Viborg","name:uk":"Віборг","name:vo":"Viborg","name:zh":"維堡 (丹麥)","old_name:de":"Wiborg"},"display_name":"Viborg, Viborg Kommune, Region Midtjylland, 8800, Danmark","address":{"town":"Viborg","municipality":"Viborg Kommune","state":"Region Midtjylland","ISO3166-2-lvl4":"DK-82","postcode":"8800","country":"Danmark","country_code":"dk"},"population":40621,"osm_type":"node","osm_id":2278186810,"type":"town","location":[9.4059354,56.4469128],"bbox":[9.3659354,56.4069128,9.4459354,56.4869128]}
{"name":"Vojens","other_names":{"name:da":"Vojens","name:de":"Woyens"},"display_name":"Vojens, Haderslev Kommune, Region Syddanmark, 6500, Danmark","address":{"town":"Vojens","municipality":"Haderslev Kommune","state":"Region Syddanmark","ISO3166-2-lvl4":"DK-83","postcode":"6500","country":"Danmark","country_code":"dk"},"population":7579,"osm_type":"node","osm_id":9463131170,"type":"town","location":[9.3082416,55.2464268],"bbox":[9.2682416,55.2064268,9.3482416,55.2864268]}
{"name":"Vordingborg","other_names":{"name:da":"Vordingborg","name:de":"Vordingborg","name:nl":"Vordingborg","name:ru":"Вордингборг","name:sr":"Вордингборг","name:zh":"沃尔丁堡"},"display_name":"Vordingborg, Vordingborg Kommune, Region Sjælland, 4760, Danmark","address":{"town":"Vordingborg","municipality":"Vordingborg Kommune","state":"Region Sjælland","ISO3166-2-lvl4":"DK-85","postcode":"4760","country":"Danmark","country_code":"dk"},"population":12038,"osm_type":"node","osm_id":26559009,"type":"town","location":[11.9097478,55.0102518],"bbox":[11.8697478,54.9702518,11.9497478,55.0502518]}
