{"name":"Achada Monte","other_names":{"name:pt":"Achada Monte","alt_name":"Mangue de Setes Ribeiras"},"display_name":"Achada Monte, São Miguel, Cabo Verde","address":{"town":"Achada Monte","county":"São Miguel","ISO3166-2-lvl6":"CV-SM","country":"Cabo Verde","country_code":"cv"},"osm_type":"node","osm_id":1960679163,"type":"town","location":[-23.6447083,15.2340451],"bbox":[-23.6847083,15.1940451,-23.6047083,15.2740451]}
{"name":"Assomada (Santa Catarina)","display_name":"Assomada (Santa Catarina), Santa Catarina, 7310, Cabo Verde","address":{"town":"Assomada (Santa Catarina)","county":"Santa Catarina","ISO3166-2-lvl6":"CV-CA","postcode":"7310","country":"Cabo Verde","country_code":"cv"},"osm_type":"node","osm_id":497353754,"type":"town","location":[-23.6668745,15.097635],"bbox":[-23.7068745,15.057635,-23.6268745,15.137635]}
{"name":"Calheta de São Miguel","display_name":"Calheta de São Miguel, São Miguel, 7215, Cabo Verde","address":{"town":"Calheta de São Miguel","county":"São Miguel","ISO3166-2-lvl6":"CV-SM","postcode":"7215","country":"Cabo Verde","country_code":"cv"},"osm_type":"node","osm_id":910651801,"type":"town","location":[-23.5914998,15.1842036],"bbox":[-23.6314998,15.1442036,-23.5514998,15.2242036]}
{"name":"Calheta","display_name":"Calheta, Maio, 1234, Cabo Verde","address":{"town":"Calheta","county":"Maio","ISO3166-2-lvl6":"CV-MA","postcode":"1234","country":"Cabo Verde","country_code":"cv"},"osm_type":"node","osm_id":7085257325,"type":"town","location":[-23.2112107,15.2292429],"bbox":[-23.2512107,15.1892429,-23.1712107,15.2692429]}
{"name":"Cidade das Pombas","other_names":{"name:la":"Civitas Palumborum","name:pt":"Cidade das Pombas"},"display_name":"Cidade das Pombas, Paul, 7630, Cabo Verde","address":{"town":"Cidade das Pombas","county":"Paul","ISO3166-2-lvl6":"CV-PA","postcode":"7630","country":"Cabo Verde","country_code":"cv"},"osm_type":"node","osm_id":6216771022,"type":"town","location":[-25.0141722,17.1485341],"bbox":[-25.0541722,17.1085341,-24.9741722,17.1885341]}
{"name":"Cidade do Maio","other_names":{"name:ar":"مدينة مايو","name:pt":"Cidade do Maio"},"display_name":"Cidade do Maio, Maio, Cabo Verde","address":{"town":"Cidade do Maio","county":"Maio","ISO3166-2-lvl6":"CV-MA","country":"Cabo Verde","country_code":"cv"},"population":3000,"osm_type":"node","osm_id":7085257602,"type":"town","location":[-23.2112673,15.1375142],"bbox":[-23.2512673,15.0975142,-23.1712673,15.1775142]}
{"name":"Coculi","display_name":"Coculi, Ribeira Grande, 1139, Cabo Verde","address":{"town":"Coculi","county":"Ribeira Grande","ISO3166-2-lvl6":"CV-RG","postcode":"1139","country":"Cabo Verde","country_code":"cv"},"osm_type":"node","osm_id":576518525,"type":"town","location":[-25.0982398,17.165378],"bbox":[-25.1382398,17.125378,-25.0582398,17.205378]}
{"name":"Espargos","other_names":{"name:ar":"مدينة الهليون","name:pt":"Espargos","name:ru":"Эшпаргуш"},"display_name":"Espargos, Sal, 4110, Cabo Verde","address":{"town":"Espargos","county":"Sal","ISO3166-2-lvl6":"CV-SL","postcode":"4110","country":"Cabo Verde","country_code":"cv"},"osm_type":"node","osm_id":28094953,"type":"town","location":[-22.9431454,16.7577983],"bbox":[-22.9831454,16.7177983,-22.9031454,16.7977983]}
{"name":"Furna","display_name":"Furna, Brava, 9110, Cabo Verde","address":{"town":"Furna","county":"Brava","ISO3166-2-lvl6":"CV-BR","postcode":"9110","country":"Cabo Verde","country_code":"cv"},"osm_type":"node","osm_id":1207814978,"type":"town","location":[-24.6806088,14.887681],"bbox":[-24.7206088,14.847681,-24.6406088,14.927681]}
{"name":"João Teves","display_name":"João Teves, São Lourenço dos Órgãos, 7425, Cabo Verde","address":{"town":"João Teves","county":"São Lourenço dos Órgãos","ISO3166-2-lvl6":"CV-SO","postcode":"7425","country":"Cabo Verde","country_code":"cv"},"osm_type":"node","osm_id":335286329,"type":"town","location":[-23.5891819,15.0670615],"bbox":[-23.6291819,15.0270615,-23.5491819,15.1070615]}
{"name":"Mosteiros","display_name":"Mosteiros, 8110, Cabo Verde","address":{"town":"Mosteiros","county":"Mosteiros","ISO3166-2-lvl6":"CV-MO","postcode":"8110","country":"Cabo Verde","country_code":"cv"},"osm_type":"node","osm_id":255856894,"type":"town","location":[-24.3277421,15.0347257],"bbox":[-24.3677421,14.9947257,-24.2877421,15.0747257],"border":{"name":"Mosteiros","other_names":{"name:ar":"موستيروس، الرأس الأخضر","name:br":"Mosteiros","name:ca":"Mosteiros","name:de":"Mosteiros","name:es":"Municipio de Mosteiros","name:fr":"Mosteiros","name:id":"Mosteiros","name:it":"Contea di Mosteiros","name:ko":"모스테이루스시","name:lt":"Mosteiroso savivaldybė","name:pt":"Mosteiros","name:ru":"Моштейруш","name:sv":"Concelho dos Mosteiros","name:ur":"موستئیروس، کیپ ورڈی","name:zh":"莫什泰魯什縣","name:ceb":"Concelho dos Mosteiros","ISO3166-2":"CV-MO"},"display_name":"Mosteiros, 8110, Cabo Verde","address":{"county":"Mosteiros","ISO3166-2-lvl6":"CV-MO","postcode":"8110","country":"Cabo Verde","country_code":"cv"},"osm_type":"relation","osm_id":4021361,"type":"administrative","location":[-24.337408156682674,15.00013895],"bbox":[-24.4028623,14.9483108,-24.2864612,15.0519625]}}
{"name":"Nova Sintra","display_name":"Nova Sintra, Brava, 9110, Cabo Verde","address":{"town":"Nova Sintra","county":"Brava","ISO3166-2-lvl6":"CV-BR","postcode":"9110","country":"Cabo Verde","country_code":"cv"},"osm_type":"node","osm_id":1207428485,"type":"town","location":[-24.6956479,14.871066],"bbox":[-24.7356479,14.831066,-24.6556479,14.911066]}
{"name":"Palmeira","display_name":"Palmeira, Sal, Cabo Verde","address":{"town":"Palmeira","county":"Sal","ISO3166-2-lvl6":"CV-SL","country":"Cabo Verde","country_code":"cv"},"osm_type":"node","osm_id":248644871,"type":"town","location":[-22.9811102,16.7584756],"bbox":[-23.0211102,16.7184756,-22.9411102,16.7984756]}
{"name":"Pedra Badejo","other_names":{"name:pt":"Pedra Badejo","old_name":"Santiago Mayor"},"display_name":"Pedra Badejo, Santa Cruz, 7410, Cabo Verde","address":{"town":"Pedra Badejo","county":"Santa Cruz","ISO3166-2-lvl6":"CV-CR","postcode":"7410","country":"Cabo Verde","country_code":"cv"},"osm_type":"node","osm_id":254019858,"type":"town","location":[-23.531565,15.1371918],"bbox":[-23.571565,15.0971918,-23.491565,15.1771918]}
{"name":"Ponta do Sol","other_names":{"name:pt":"Ponta do Sol","old_name":"Maria de Pia"},"display_name":"Ponta do Sol, Ribeira Grande, 1120, Cabo Verde","address":{"town":"Ponta do Sol","county":"Ribeira Grande","ISO3166-2-lvl6":"CV-RG","postcode":"1120","country":"Cabo Verde","country_code":"cv"},"population":2143,"osm_type":"node","osm_id":1981553763,"type":"town","location":[-25.0910546,17.2013338],"bbox":[-25.1310546,17.1613338,-25.0510546,17.2413338]}
{"name":"Porto Novo","other_names":{"name:ar":"بورتو نوفو","name:de":"Porto Novo","name:pt":"Porto Novo","name:ru":"Порту Нову"},"display_name":"Porto Novo, 1310, Cabo Verde","address":{"town":"Porto Novo","county":"Porto Novo","ISO3166-2-lvl6":"CV-PN","postcode":"1310","country":"Cabo Verde","country_code":"cv"},"osm_type":"node","osm_id":992952233,"type":"town","location":[-25.065316,17.0189775],"bbox":[-25.105316,16.9789775,-25.025316,17.0589775],"border":{"name":"Porto Novo","other_names":{"name:ar":"بورتو نوفو","name:br":"Porto Novo","name:ca":"Porto Novo","name:da":"Porto Novo","name:de":"Porto Novo","name:el":"Δήμος Πόρτο Νόβο","name:es":"Municipio de Porto Novo","name:fa":"پورتو نوو","name:fr":"Porto Novo","name:id":"Porto Novo","name:it":"Contea di Porto Novo","name:ko":"포르투노부시","name:lt":"Porto Novas","name:nl":"Porto Novo","name:no":"Porto Novo","name:pl":"Porto Novo","name:pt":"Porto Novo","name:ru":"Порту Нову","name:ur":"پورتو نووو، کیپ ورڈی","name:zh":"波多諾伏縣","name:ceb":"Porto Novo","ISO3166-2":"CV-PN"},"display_name":"Porto Novo, 1310, Cabo Verde","address":{"county":"Porto Novo","ISO3166-2-lvl6":"CV-PN","postcode":"1310","country":"Cabo Verde","country_code":"cv"},"osm_type":"relation","osm_id":4019980,"type":"administrative","location":[-25.2004042229527,17.0174637],"bbox":[-25.3609478,16.9057291,-24.9819111,17.1291615]}}
{"name":"Ribeira Brava","other_names":{"name:pt":"Ribeira Brava","loc_name":"Stanxa"},"display_name":"Ribeira Brava, Nossa Senhora do Rosário, Ribeira Brava, 3120, Cabo Verde","address":{"town":"Ribeira Brava","municipality":"Nossa Senhora do Rosário","county":"Ribeira Brava","ISO3166-2-lvl6":"CV-RB","postcode":"3120","country":"Cabo Verde","country_code":"cv"},"population":5550,"osm_type":"node","osm_id":2505326925,"type":"town","location":[-24.2982543,16.615728],"bbox":[-24.3382543,16.575728,-24.2582543,16.655728],"border":{"name":"Ribeira Brava","other_names":{"name:ar":"ريبيرا برافا","name:br":"Ribeira Brava","name:ca":"Ribeira Brava","name:de":"Ribeira Brava","name:el":"Δήμος Ριμπέιρα Μπράβα","name:es":"Municipio de Ribeira Brava","name:fr":"Ribeira Brava","name:id":"Ribeira Brava","name:it":"Contea di Ribeira Brava","name:ko":"히베이라브라바시","name:lt":"Ribeira Brava","name:no":"Ribeira Brava","name:pl":"Ribeira Brava","name:pt":"Ribeira Brava","name:ro":"Ribeira Brava","name:sv":"Ribeira Brava kommun","name:ur":"ریبئیرا براوا، کیپ ورڈی","name:zh":"里貝拉布拉瓦縣","name:ceb":"Concelho da Ribeira Brava","ISO3166-2":"CV-RB"},"display_name":"Ribeira Brava, 3120, Cabo Verde","address":{"county":"Ribeira Brava","ISO3166-2-lvl6":"CV-RB","postcode":"3120","country":"Cabo Verde","country_code":"cv"},"osm_type":"relation","osm_id":4019942,"type":"administrative","location":[-24.088732782899292,16.5805775],"bbox":[-24.358543,16.4793206,-24.0080036,16.6816907]}}
{"name":"Ribeira Grande de Santiago (Cidade Velha)","display_name":"Ribeira Grande de Santiago (Cidade Velha), Ribeira Grande de Santiago, 7629, Cabo Verde","address":{"town":"Ribeira Grande de Santiago (Cidade Velha)","county":"Ribeira Grande de Santiago","ISO3166-2-lvl6":"CV-RS","postcode":"7629","country":"Cabo Verde","country_code":"cv"},"osm_type":"node","osm_id":253790761,"type":"town","location":[-23.6048421,14.9158522],"bbox":[-23.6448421,14.8758522,-23.5648421,14.9558522],"border":{"name":"Ribeira Grande de Santiago (Cidade Velha)","display_name":"Ribeira Grande de Santiago (Cidade Velha), Ribeira Grande de Santiago, 7629, Cabo Verde","address":{"town":"Ribeira Grande de Santiago (Cidade Velha)","county":"Ribeira Grande de Santiago","ISO3166-2-lvl6":"CV-RS","postcode":"7629","country":"Cabo Verde","country_code":"cv"},"osm_type":"way","osm_id":302133293,"type":"town","location":[-23.6048421,14.9158522],"bbox":[-23.6111686,14.9122428,-23.6000924,14.9185461]}}
{"name":"Ribeira Grande","other_names":{"name:pt":"Ribeira Grande","name:ru":"Рибейра-Гранди"},"display_name":"Ribeira Grande, 1110, Cabo Verde","address":{"town":"Ribeira Grande","county":"Ribeira Grande","ISO3166-2-lvl6":"CV-RG","postcode":"1110","country":"Cabo Verde","country_code":"cv"},"osm_type":"node","osm_id":253679019,"type":"town","location":[-25.0643795,17.1833547],"bbox":[-25.1043795,17.1433547,-25.0243795,17.2233547],"border":{"name":"Ribeira Grande","other_names":{"name:br":"Ribeira Grande","name:ca":"Ribeira Grande","name:da":"Ribeira Grande","name:de":"Ribeira Grande","name:el":"Δήμος Ριμπέιρα Γκράντε","name:en":"Ribeira Grande","name:es":"Municipio de Ribeira Grande","name:fr":"Ribeira Grande","name:id":"Ribeira Grande","name:it":"Contea di Ribeira Grande","name:ko":"히베이라그란드시","name:lt":"Ribeira Grandė","name:nl":"Ribeira Grande","name:no":"Ribeira Grande","name:pl":"Ribeira Grande","name:pt":"Ribeira Grande","name:ro":"Ribeira Grande","name:ur":"ریبئیرا گراندے، کیپ ورڈی","name:zh":"大里貝拉縣","name:ceb":"Concelho da Ribeira Grande","ISO3166-2":"CV-RG"},"display_name":"Ribeira Grande, Cabo Verde","address":{"county":"Ribeira Grande","ISO3166-2-lvl6":"CV-RG","country":"Cabo Verde","country_code":"cv"},"osm_type":"relation","osm_id":4019981,"type":"administrative","location":[-25.136874067792288,17.139119700000002],"bbox":[-25.2315681,17.0729104,-25.0159489,17.2053108]}}
{"name":"Sal Rei","other_names":{"name:pt":"Sal Rei","name:ru":"Сал-Рей"},"display_name":"Sal Rei, Boa Vista, 5110, Cabo Verde","address":{"town":"Sal Rei","county":"Boa Vista","ISO3166-2-lvl6":"CV-BV","postcode":"5110","country":"Cabo Verde","country_code":"cv"},"osm_type":"node","osm_id":2444366506,"type":"town","location":[-22.9169771,16.1759748],"bbox":[-22.9569771,16.1359748,-22.8769771,16.2159748]}
{"name":"Santa Maria","display_name":"Santa Maria, Sal, 4111, Cabo Verde","address":{"town":"Santa Maria","county":"Sal","ISO3166-2-lvl6":"CV-SL","postcode":"4111","country":"Cabo Verde","country_code":"cv"},"osm_type":"node","osm_id":28094912,"type":"town","location":[-22.9050314,16.5986926],"bbox":[-22.9450314,16.5586926,-22.8650314,16.6386926]}
{"name":"São Domingos","display_name":"São Domingos, 7515, Cabo Verde","address":{"town":"São Domingos","county":"São Domingos","ISO3166-2-lvl6":"CV-SD","postcode":"7515","country":"Cabo Verde","country_code":"cv"},"osm_type":"node","osm_id":254262195,"type":"town","location":[-23.5613463,15.0268856],"bbox":[-23.6013463,14.9868856,-23.5213463,15.0668856],"border":{"name":"São Domingos","other_names":{"name:bg":"Сао Домингос","name:br":"São Domingos","name:ca":"São Domingos","name:de":"São Domingos","name:el":"Δήμος Σάο Ντομίνγκος","name:es":"Municipio de São Domingos","name:fa":"سائو دومینگوس","name:fr":"São Domingos","name:id":"São Domingos","name:it":"Contea di São Domingos","name:ko":"상도밍구스시","name:lt":"San Domingosas","name:nl":"São Domingos","name:pt":"São Domingos","name:sv":"Concelho de São Domingos","name:uk":"Сан-Домінгуш","name:ur":"سآو دومینگوس، کیپ ورڈی","name:zh":"聖多明戈斯縣","name:ceb":"Concelho de São Domingos","name:nds":"São Domingos","ISO3166-2":"CV-SD"},"display_name":"São Domingos, 7515, Cabo Verde","address":{"county":"São Domingos","ISO3166-2-lvl6":"CV-SD","postcode":"7515","country":"Cabo Verde","country_code":"cv"},"osm_type":"relation","osm_id":4021585,"type":"administrative","location":[-23.530882369293895,15.03053405],"bbox":[-23.6253428,14.9727793,-23.4283476,15.0881273]}}
{"name":"São Filipe","display_name":"São Filipe, 8220, Cabo Verde","address":{"town":"São Filipe","county":"São Filipe","ISO3166-2-lvl6":"CV-SF","postcode":"8220","country":"Cabo Verde","country_code":"cv"},"population":94000,"osm_type":"node","osm_id":255095550,"type":"town","location":[-24.4969361,14.8952963],"bbox":[-24.5369361,14.8552963,-24.4569361,14.9352963],"border":{"name":"São Filipe","other_names":{"name:ar":"ساو فيليب","name:br":"São Filipe","name:ca":"São Filipe","name:de":"São Filipe","name:es":"Municipio de São Filipe","name:fa":"سائو فیلیپه","name:fr":"São Filipe","name:id":"São Filipe","name:it":"Contea di São Filipe","name:ko":"상필리프시","name:lt":"San Filipė","name:nl":"São Filipe","name:pt":"São Filipe","name:sv":"Concelho do São Filipe","name:uk":"Сан-Філіпе","name:ur":"سآو فیلیپے، کیپ ورڈی","name:zh":"聖菲利佩縣","name:ceb":"Concelho do São Filipe","ISO3166-2":"CV-SF"},"display_name":"São Filipe, 8220, Cabo Verde","address":{"county":"São Filipe","ISO3166-2-lvl6":"CV-SF","postcode":"8220","country":"Cabo Verde","country_code":"cv"},"osm_type":"relation","osm_id":4021363,"type":"administrative","location":[-24.442024499286134,14.92142505],"bbox":[-24.5045301,14.813876,-24.3613409,15.0287898]}}
{"name":"Tarrafal","other_names":{"name:pt":"Tarrafal","alt_name":"Cidade de Tarrafal"},"display_name":"Tarrafal, 7110, Cabo Verde","address":{"town":"Tarrafal","county":"Tarrafal","ISO3166-2-lvl6":"CV-TA","postcode":"7110","country":"Cabo Verde","country_code":"cv"},"osm_type":"node","osm_id":1960686899,"type":"town","location":[-23.752294,15.2784159],"bbox":[-23.792294,15.2384159,-23.712294,15.3184159],"border":{"name":"Tarrafal","other_names":{"name:ar":"تارفال","name:bg":"Тарафал","name:br":"Tarrafal","name:ca":"Tarrafal","name:da":"Tarrafal","name:de":"Tarrafal","name:el":"Δήμος Ταρραφάλ","name:en":"Tarrafal","name:es":"Municipio de Tarrafal","name:fr":"Tarrafal","name:id":"Tarrafal","name:it":"Contea di Tarrafal","name:ko":"타하팔시","name:lt":"Tarafalis","name:no":"Tarrafal","name:pt":"Tarrafal","name:sv":"Concelho do Tarrafal","name:uk":"Таррафал","name:ur":"تارافال، کیپ ورڈی","name:wo":"Tarrafal","name:zh":"塔拉法爾縣","name:ceb":"Concelho do Tarrafal","name:nds":"Tarrafal","ISO3166-2":"CV-TA"},"display_name":"Tarrafal, 7110, Cabo Verde","address":{"county":"Tarrafal","ISO3166-2-lvl6":"CV-TA","postcode":"7110","country":"Cabo Verde","country_code":"cv"},"osm_type":"relation","osm_id":4021580,"type":"administrative","location":[-23.72273385069002,15.26645025],"bbox":[-23.7743019,15.192716,-23.6559336,15.340184]}}
{"name":"Tarrafal","other_names":{"name:pt":"Tarrafal","official_name":"Tarrafal de São Nicolau"},"display_name":"Tarrafal, Tarrafal de São Nicolau, 3121, Cabo Verde","address":{"town":"Tarrafal","county":"Tarrafal de São Nicolau","ISO3166-2-lvl6":"CV-TS","postcode":"3121","country":"Cabo Verde","country_code":"cv"},"osm_type":"node","osm_id":564967211,"type":"town","location":[-24.3567967,16.566483],"bbox":[-24.3967967,16.526483,-24.3167967,16.606483],"border":{"name":"Tarrafal de São Nicolau","other_names":{"name:br":"Tarrafal de São Nicolau","name:ca":"Tarrafal de São Nicolau","name:de":"Tarrafal de São Nicolau","name:el":"Δήμος Ταρραφάλ ντε Σάο Νικολάου","name:es":"Municipio de Tarrafal de São Nicolau","name:fr":"Tarrafal de São Nicolau","name:id":"Tarrafal de São Nicolau","name:it":"Contea di Tarrafal de São Nicolau","name:ko":"타하팔드상니콜라우시","name:lt":"San Nikolau Tarafalis","name:nl":"Tarrafal de São Nicolau","name:pl":"Tarrafal de São Nicolau","name:pt":"Tarrafal de São Nicolau","name:sv":"Tarrafal de São Nicolau","name:ur":"تارافال دے سآو نیکولاو، کیپ ورڈی","name:wo":"Tarrafal de São Nicolau","name:zh":"聖尼古勞塔拉法爾縣","name:ceb":"Concelho do Tarrafal de São Nicolau","ISO3166-2":"CV-TS"},"display_name":"Tarrafal de São Nicolau, 3121, Cabo Verde","address":{"county":"Tarrafal de São Nicolau","ISO3166-2-lvl6":"CV-TS","postcode":"3121","country":"Cabo Verde","country_code":"cv"},"osm_type":"relation","osm_id":4019943,"type":"administrative","location":[-24.334199248357958,16.575416099999998],"bbox":[-24.791041,16.4791766,-24.3006426,16.8061638]}}
