{"name":"Mindelo","other_names":{"name:ar":"ميندلو","name:lt":"Mindelas","name:pt":"Mindelo","name:ru":"Минделу"},"display_name":"Mindelo, (Cidade) Mindelo, São Vicente, 2110, Cabo Verde","address":{"city":"Mindelo","county":"São Vicente","ISO3166-2-lvl6":"CV-SV","postcode":"2110","country":"Cabo Verde","country_code":"cv"},"population":70000,"osm_type":"node","osm_id":146154210,"type":"city","location":[-24.9864064,16.8873057],"bbox":[-25.1464064,16.7273057,-24.8264064,17.0473057]}
{"name":"Praia","other_names":{"name:af":"Praia","name:am":"ፕራያ","name:ar":"برايا","name:az":"Praya","name:be":"Прая","name:bg":"Прая","name:bh":"प्राइया","name:bn":"প্রায়া","name:bo":"ཕུ་ར་ཡ།","name:br":"Praia","name:ca":"Praia","name:ce":"Прая","name:de":"Praia","name:el":"Πράια","name:en":"Praia","name:eo":"Prajo","name:es":"Praia","name:fa":"پرایا","name:fr":"Praia","name:ga":"Praia","name:gl":"Praia","name:he":"פראיה","name:hi":"प्राये","name:hu":"Praia","name:hy":"Պրայա","name:is":"Praia","name:it":"Praia","name:ja":"プライア","name:ka":"პრაია","name:kk":"Прая","name:ko":"프라이아","name:ky":"Прая","name:lt":"Praja","name:lv":"Praja","name:mk":"Праја","name:ml":"പ്രൈയ","name:mr":"प्राईया","name:nl":"Praia","name:no":"Praia","name:oc":"Praia","name:os":"Прая","name:pa":"ਪ੍ਰਾਈਆ","name:pl":"Praia","name:ps":"پرایا","name:pt":"Praia","name:ru":"Прая","name:so":"Braia","name:sr":"Праја","name:sv":"Praia","name:ta":"பிரையா","name:tg":"Прая","name:th":"ไปรอา","name:tr":"Praya","name:ug":"پرايا","name:uk":"Прая","name:ur":"پرائیا","name:uz":"Praya","name:zh":"普拉亞","name:ckb":"پڕایا","name:mrj":"Прая","name:nov":"Praya","name:pnb":"پرائا","name:udm":"Прая","name:bat-smg":"Prajė","name:zh-Hans":"普拉亚"},"display_name":"Praia, Platô, Praia, 7600, Cabo Verde","address":{"city":"Praia","county":"Praia","ISO3166-2-lvl6":"CV-PR","postcode":"7600","country":"Cabo Verde","country_code":"cv"},"population":127832,"osm_type":"node","osm_id":28095099,"type":"city","location":[-23.5095095,14.9162811],"bbox":[-23.6695095,14.7562811,-23.3495095,15.0762811],"border":{"name":"Praia","other_names":{"name:ar":"برايا","name:bg":"Прая","name:br":"Praia","name:ca":"Praia","name:de":"Praia","name:el":"Δήμος Πράια","name:es":"Municipio de Praia","name:fr":"Praia","name:id":"Praia","name:it":"Contea di Praia","name:ko":"프라이아시","name:pl":"Praia","name:pt":"Praia","name:ro":"Municipalitatea Praia","name:tr":"Praia","name:uk":"Прая","name:ur":"پرائیا، کیپ ورڈی","name:zh":"普拉亞縣","name:ceb":"Concelho da Praia","name:nds":"Praia","ISO3166-2":"CV-PR"},"display_name":"Praia, Cabo Verde","address":{"county":"Praia","ISO3166-2-lvl6":"CV-PR","country":"Cabo Verde","country_code":"cv"},"osm_type":"relation","osm_id":4021586,"type":"administrative","location":[-23.515894487081546,14.9481201],"bbox":[-23.5885345,14.8998532,-23.454111,14.9963437]}}
