{"name":"Hajiawa","other_names":{"name:en":"Hajiawa","name:ckb":"حاجیاوا"},"display_name":"Hajiawa, ناحیەی حاجیاوا, قەزای ڕانیە, پارێزگای سلێمانی, هەرێمی کوردستان, العراق","address":{"city":"Hajiawa","subdistrict":"ناحیەی حاجیاوا","district":"قەزای ڕانیە","state":"پارێزگای سلێمانی","ISO3166-2-lvl4":"IQ-SU","region":"هەرێمی کوردستان","ISO3166-2-lvl3":"IQ-KR","country":"العراق","country_code":"iq"},"population":80000,"osm_type":"way","osm_id":505910622,"type":"city","location":[44.783607061602524,36.2418297],"bbox":[44.7639723,36.2151511,44.8079093,36.2681526]}
{"name":"Shero","display_name":"Shero, قوشته‌په‌, ناحیەی قوشتەپە, قەزای قوشتەپە, پارێزگای ھەولێر, هەرێمی کوردستان, العراق","address":{"city":"Shero","subdistrict":"ناحیەی قوشتەپە","county":"قەزای قوشتەپە","state":"پارێزگای ھەولێر","ISO3166-2-lvl4":"IQ-AR","region":"هەرێمی کوردستان","ISO3166-2-lvl3":"IQ-KR","country":"العراق","country_code":"iq"},"population":null,"osm_type":"way","osm_id":1332395682,"type":"city","location":[44.039995205590444,35.98976485],"bbox":[44.0248719,35.9672897,44.0585332,36.0133883]}
{"name":"أبي غرق","other_names":{"name:ar":"أبي غرق","name:bn":"আবু গারাক","name:de":"Abu Gharaq","name:en":"Abu Gharaq","name:fa":"ابو غرق","name:fr":"Abu Gharaq","name:ml":"അബു ഗറഖ്","alt_name":"Abū Gharaq, Nāḩiyat Abī Gharaq, Nāḩīyat Abī Gharaq, ابي غرق, ناحية ابي غرق, Abu Gharaq, Nahiyat Abi Gharaq, Nahiyat Abi Gharaq, ابي غرق, ناحية ابي غرق","int_name":"Abu Gharaq - أبي غرق"},"display_name":"أبي غرق, ناحية ابي غرق, قضاء الحلة, محافظة بابل, العراق","address":{"city":"أبي غرق","subdistrict":"ناحية ابي غرق","district":"قضاء الحلة","state":"محافظة بابل","ISO3166-2-lvl4":"IQ-BB","country":"العراق","country_code":"iq"},"population":108212,"osm_type":"node","osm_id":2483902120,"type":"city","location":[44.343966,32.527107],"bbox":[44.183966,32.367107,44.503966,32.687107]}
{"name":"أم قصر","other_names":{"name:ar":"أم قصر","name:bn":"উম্ম কাসার","name:de":"Umm Qasr","name:en":"Umm Qasr","name:es":"Um Kasar","name:et":"Umm Qaşr","name:fa":"ام‌قصر","name:fr":"Umm Qasr","name:he":"אום קסר","name:hr":"Um Kasr","name:ja":"ウンム・カスル","name:ku":"Um Qesir","name:ml":"ഉം ഖസർ","name:ru":"Умм-Каср","name:tr":"Um Kasr","name:uk":"Умм-Каср","int_name":"Umm Qasr - أم قصر","name:ckb":"ئوم قەسر"},"display_name":"أم قصر, ناحية ام قصر, قضاء الزبير, محافظة البصرة, 61011, العراق","address":{"city":"أم قصر","subdistrict":"ناحية ام قصر","district":"قضاء الزبير","state":"محافظة البصرة","ISO3166-2-lvl4":"IQ-BA","postcode":"61011","country":"العراق","country_code":"iq"},"population":107620,"osm_type":"node","osm_id":297446410,"type":"city","location":[47.9214551,30.0323351],"bbox":[47.7614551,29.8723351,48.0814551,30.1923351]}
{"name":"البصرة","other_names":{"name:af":"Basra","name:ar":"بصرة","name:az":"Bəsrə","name:ba":"Бәсра","name:be":"Басра","name:bg":"Басра","name:bn":"বসরা","name:bs":"Basra","name:ca":"Bàssora","name:ce":"Басра","name:cs":"Basra","name:cy":"Basra","name:da":"Basra","name:de":"Basra","name:el":"Βασόρα","name:en":"Basra","name:eo":"Basra","name:es":"Basora","name:et":"Basra","name:eu":"Basra","name:fa":"بصره","name:fi":"Basra","name:fr":"Bassorah","name:fy":"Basra","name:ga":"Basra","name:ha":"Basra","name:he":"בצרה","name:hi":"बसरा","name:hr":"Basra","name:hu":"Baszra","name:hy":"Բասրա","name:ia":"Basra","name:id":"Basra","name:is":"Basra","name:it":"Bàssora","name:ja":"バスラ","name:jv":"Basra","name:ka":"ბასრა","name:kk":"Басра","name:ko":"바스라","name:ks":"بصرہ","name:ku":"Besre","name:ky":"Басра","name:la":"Basra","name:lt":"Basra","name:lv":"Basra","name:mg":"Bassora","name:mi":"Basra","name:ml":"ബസ്റ","name:mn":"Басра","name:mr":"बसरा","name:ms":"Basrah","name:nb":"Basra","name:nl":"Basra","name:nn":"Basra","name:os":"Басрæ","name:pa":"ਬਸਰਾ","name:pl":"Basra","name:pt":"Baçorá","name:ro":"Basra","name:ru":"Басра","name:sk":"Basra","name:sl":"Basra","name:so":"Basra","name:sq":"Basra","name:sr":"Басра","name:su":"Basra","name:sv":"Basra","name:sw":"Basra","name:ta":"பசுரா","name:te":"బస్రాహ్","name:tg":"Басра","name:th":"บัสรา","name:tl":"Basra","name:tr":"Basra","name:tt":"Бәсрә","name:uk":"Басра","name:ur":"بصرہ","name:uz":"Basra","name:vi":"Basra","name:wa":"Bassora","name:zh":"巴士拉","int_name":"Al- Basrah - البصرة","name:ckb":"بەسرە","alt_name:en":"Al Basrah"},"display_name":"البصرة, ناحية مرکز قضاء البصرة, قضاء البصرة, محافظة البصرة, 61001, العراق","address":{"city":"البصرة","subdistrict":"ناحية مرکز قضاء البصرة","district":"قضاء البصرة","state":"محافظة البصرة","ISO3166-2-lvl4":"IQ-BA","postcode":"61001","country":"العراق","country_code":"iq"},"population":2150000,"osm_type":"node","osm_id":428339490,"type":"city","location":[47.8090981,30.4952371],"bbox":[47.6490981,30.3352371,47.9690981,30.6552371]}
{"name":"الحلة","other_names":{"name:ar":"الحلة","name:cs":"Hilla","name:de":"Hilla","name:en":"Al Hillah","name:es":"Al-Hillah","name:et":"Al-Ḩillah","name:eu":"Al-Hillah","name:fa":"حله","name:fi":"Hilla","name:fr":"Hilla","name:he":"אל הילה","name:it":"al-Hilla","name:ja":"ヒッラ","name:ml":"ഹില്ല","name:pl":"Al-Hilla","name:pt":"Al-Hillah","name:ru":"Хилла","name:uk":"Хілла","alt_name":"Al Hella, Al Ḩillah, Hilah, Hilla, Hillé, الحلة, Al Hella, Al Hillah, Hilah, Hilla, Hille, الحلة","int_name":"Al Hillah - الحلّة","name:ckb":"حلە"},"display_name":"الحلة, ناحية مرکز قضاء الحلة, قضاء الحلة, محافظة بابل, 51115, العراق","address":{"city":"الحلة","subdistrict":"ناحية مرکز قضاء الحلة","district":"قضاء الحلة","state":"محافظة بابل","ISO3166-2-lvl4":"IQ-BB","postcode":"51115","country":"العراق","country_code":"iq"},"population":1729666,"osm_type":"node","osm_id":248691069,"type":"city","location":[44.4328131,32.482245],"bbox":[44.2728131,32.322245,44.5928131,32.642245]}
{"name":"الديوانية","other_names":{"name:ar":"الديوانية","name:cs":"Díváníja","name:de":"Diwaniyya","name:en":"Ad Diwaniyah","name:es":"Diwaniya","name:et":"Ad-Dīwānīyah","name:eu":"Diwaniya","name:fa":"دیوانیه","name:fr":"Diwaniya","name:he":"אל דיוואניה","name:hr":"Divanija","name:ja":"ディーワーニーヤ","name:ku":"Dîwaniye","name:ml":"ദിവാനിയ","name:pl":"Ad-Diwanijja","name:ru":"Эд-Дивания","name:tr":"Ed-Divaniye","name:uk":"Ед-Діванія","int_name":"Ad Diwaniyah - الديوانية","name:ckb":"دیوانیە","ISO3166-2":"IQ-QA","alt_name:en":"Al Diwaniyah;Al Diwaniyah;Diwaniya;Diwaniyah"},"display_name":"الديوانية, قضاء الديوانية, محافظة القادسية, العراق","address":{"city":"الديوانية","ISO3166-2-lvl15":"IQ-QA","district":"قضاء الديوانية","state":"محافظة القادسية","ISO3166-2-lvl4":"IQ-QA","country":"العراق","country_code":"iq"},"population":650927,"osm_type":"node","osm_id":248421092,"type":"city","location":[44.9236266,31.9853304],"bbox":[44.7636266,31.8253304,45.0836266,32.1453304],"border":{"name":"قضاء الديوانية","other_names":{"name:en":"Al-Diwaniyah District","name:ar":"الديوانية","name:cs":"Díváníja","name:de":"Diwaniyya","name:es":"Diwaniya","name:et":"Ad-Dīwānīyah","name:eu":"Diwaniya","name:fa":"دیوانیه","name:fr":"Diwaniya","name:he":"אל דיוואניה","name:hr":"Divanija","name:ja":"ディーワーニーヤ","name:ku":"Dîwaniye","name:ml":"ദിവാനിയ","name:pl":"Ad-Diwanijja","name:ru":"Эд-Дивания","name:tr":"Ed-Divaniye","name:uk":"Ед-Діванія","int_name":"Ad Diwaniyah - الديوانية","name:ckb":"دیوانیە","ISO3166-2":"IQ-QA","alt_name:en":"Al Diwaniyah;Al Diwaniyah;Diwaniya;Diwaniyah","alt":"الديوانية","alt:en":"Ad Diwaniyah"},"display_name":"قضاء الديوانية, محافظة القادسية, العراق","address":{"district":"قضاء الديوانية","ISO3166-2-lvl6":"IQ-QA","state":"محافظة القادسية","ISO3166-2-lvl4":"IQ-QA","country":"العراق","country_code":"iq"},"population":650927,"osm_type":"relation","osm_id":11048766,"type":"administrative","location":[44.9236266,31.9853304],"bbox":[44.6178694,31.733581,45.1986312,32.3135457]}}
{"name":"الرطبة","other_names":{"name:ar":"الرطبة","name:de":"Al Rutbah","name:en":"Ar Rutbah","name:es":"Ar Rutba","name:fa":"رطبه","name:fr":"Ar Routbah","name:ku":"Rutbe","name:ml":"റുത്ബ","name:ru":"Эр-Рутба","alt_name":"رطبه;رطبة;الرطبه","int_name":"Al Rutbah - الرطبة","name:ckb":"ڕوتبە","name:iraqi":"Rutbah"},"display_name":"الرطبة, ناحية مرکز قضاء االرطبة, قضاء الرطبة, محافظة الأنبار, العراق","address":{"city":"الرطبة","subdistrict":"ناحية مرکز قضاء االرطبة","district":"قضاء الرطبة","state":"محافظة الأنبار","ISO3166-2-lvl4":"IQ-AN","country":"العراق","country_code":"iq"},"osm_type":"node","osm_id":2488061017,"type":"city","location":[40.2876459,33.0367407],"bbox":[40.1276459,32.8767407,40.4476459,33.1967407]}
{"name":"الرمادي","other_names":{"name:bn":"রামাদি","name:en":"Ramadi","name:es":"Ramadi","name:fa":"رمادی","name:fr":"Ramadi","name:he":"רמאדי","name:hi":"रमादी","name:ko":"아르 라마디","name:ku":"Remadî","name:ml":"റമാദി","name:ckb":"ڕەمادی","alt_name:ko":"라마디"},"display_name":"الرمادي, ناحية مرکز قضاء الرمادي, قضاء الرمادي, محافظة الأنبار, العراق","address":{"city":"الرمادي","subdistrict":"ناحية مرکز قضاء الرمادي","district":"قضاء الرمادي","state":"محافظة الأنبار","ISO3166-2-lvl4":"IQ-AN","country":"العراق","country_code":"iq"},"osm_type":"node","osm_id":6234411890,"type":"city","location":[43.2999218,33.4259859],"bbox":[43.1399218,33.2659859,43.4599218,33.5859859]}
{"name":"الرميثة","other_names":{"name:ar":"الرميثة","name:bn":"আল রুমাইসা","name:de":"Al Rumitha","name:en":"Al-Rumaitha","name:et":"Ar-Rumaythah","name:eu":"Al-Rumaitha","name:fa":"رمیثه","name:fr":"Al-Rumaitha","name:ml":"അൽ റുമൈസ","name:ru":"Эр-Румайта","alt_name":"الرميثة","int_name":"Al Rumitha"},"display_name":"الرميثة, ناحية مرکز قضاء الرميثة, قضاء الرميثة, محافظة المثنى, العراق","address":{"city":"الرميثة","subdistrict":"ناحية مرکز قضاء الرميثة","district":"قضاء الرميثة","state":"محافظة المثنى","ISO3166-2-lvl4":"IQ-MU","country":"العراق","country_code":"iq"},"population":115431,"osm_type":"node","osm_id":297453585,"type":"city","location":[45.2109126,31.5290776],"bbox":[45.0509126,31.3690776,45.3709126,31.6890776]}
{"name":"الزبير","other_names":{"name:ar":"الزبير","name:bn":"আল জুবায়ের","name:de":"Zubair","name:en":"Az Zubayr","name:es":"Az Zubayr","name:et":"Az-Zubayr","name:eu":"Zubair","name:fa":"زبیر","name:fr":"Az Zubayr","name:he":"אל זוביר","name:hr":"Az-Zubajr","name:ja":"ズバイル","name:ml":"അൽ-സുബൈർ","name:pl":"Az-Zubajr","name:ru":"Эз-Зубайр","int_name":"Al Zubayr - الزبير"},"display_name":"الزبير, ناحية مرکز قضاء الزبير, قضاء الزبير, محافظة البصرة, العراق","address":{"city":"الزبير","subdistrict":"ناحية مرکز قضاء الزبير","district":"قضاء الزبير","state":"محافظة البصرة","ISO3166-2-lvl4":"IQ-BA","country":"العراق","country_code":"iq"},"population":370000,"osm_type":"node","osm_id":237489444,"type":"city","location":[47.7027042,30.3917664],"bbox":[47.5427042,30.2317664,47.8627042,30.5517664]}
{"name":"السماوة","other_names":{"name:ar":"السماوة","name:cs":"Samáwa","name:de":"As Samawah","name:en":"As Samawah","name:et":"As-Samāwah","name:eu":"As Samawah","name:fa":"سماوه","name:fr":"As Samawah","name:hi":"समावा","name:ja":"サマーワ","name:ku":"Semawe","name:ml":"സമാവ","name:pl":"Samawa","name:ru":"Эс-Самава","name:uk":"Ес-Самава","int_name":"As Samawah - السماوة","name:ckb":"سەماوە"},"display_name":"السماوة, ناحية مرکز قضاء السماوة, قضاء السماوة, محافظة المثنى, 66004, العراق","address":{"city":"السماوة","subdistrict":"ناحية مرکز قضاء السماوة","district":"قضاء السماوة","state":"محافظة المثنى","ISO3166-2-lvl4":"IQ-MU","postcode":"66004","country":"العراق","country_code":"iq"},"population":250000,"osm_type":"node","osm_id":248689519,"type":"city","location":[45.2826616,31.3078736],"bbox":[45.1226616,31.1478736,45.4426616,31.4678736]}
{"name":"الشطرة","other_names":{"name:ar":"الشطرة","name:bn":"আল শাতরা","name:de":"Asch-Schatra","name:en":"Al-Shatrah","name:et":"Ash-Shaţrah","name:eu":"Al-Shatrah","name:fa":"شطره","name:fr":"Al-Shatrah","name:hr":"Aš-Šatra","name:ml":"അഷ്-ഷത്ര","name:ru":"Эш-Шатра","name:tt":"Әш-Шәтрә","alt_name":"Ash Shaţrah, Shatra, Shatrat al Muntafiq, Shatreh, Shatret el Muntefiq, Shattra, Shattrah el Muntifik, الشطرة, Ash Shatrah, Shatra, Shatrat al Muntafiq, Shatreh, Shatret el Muntefiq, Shattra, Shattrah el Muntifik, الشطرة","int_name":"Ash Shatrah - الشطرة"},"display_name":"الشطرة, ناحية مرکز قضاء الشطرة, قضاء الشطرة, محافظة ذي قار, العراق","address":{"city":"الشطرة","subdistrict":"ناحية مرکز قضاء الشطرة","district":"قضاء الشطرة","state":"محافظة ذي قار","ISO3166-2-lvl4":"IQ-DQ","country":"العراق","country_code":"iq"},"population":254000,"osm_type":"node","osm_id":2486642203,"type":"city","location":[46.1755843,31.4098904],"bbox":[46.0155843,31.2498904,46.3355843,31.5698904]}
{"name":"الشوملي","other_names":{"name:ar":"الشوملي","name:de":"Shomeli","name:en":"Ash Shawmalī","name:fa":"شوملی","name:fr":"Shomeli","name:ml":"ഷൗമലി","alt_name":"Al Showmaly, Ash Shawmalī, Ash Shūmalī, Shomeli, الشوملي, Al Showmaly, Ash Shawmali, Ash Shumali, Shomeli, الشوملي"},"display_name":"الشوملي, ناحية الشوملي, قضاء الحمزة الغربي, محافظة بابل, العراق","address":{"city":"الشوملي","subdistrict":"ناحية الشوملي","district":"قضاء الحمزة الغربي","state":"محافظة بابل","ISO3166-2-lvl4":"IQ-BB","country":"العراق","country_code":"iq"},"osm_type":"node","osm_id":2485224859,"type":"city","location":[44.9164965,32.327116],"bbox":[44.7564965,32.167116,45.0764965,32.487116]}
{"name":"الصينية","other_names":{"name:ar":"الصينية","name:de":"As Siniyah","name:en":"As Siniyah","name:fr":"As Siniyah","alt_name":"Aş Şīnīyah, aş Şīnīyah, الصينية, لصينية, As Siniyah, Nahiyat as Siniyah, الصينية, الصينية, Aş Şāliḩīyah, الصالحية, As Salihiyah, الصالحية","int_name":"As Siniyah - الصينية"},"display_name":"الصينية, ناحية الصينية, قضاء بيجي, محافظة صلاح الدين, العراق","address":{"city":"الصينية","subdistrict":"ناحية الصينية","district":"قضاء بيجي","state":"محافظة صلاح الدين","ISO3166-2-lvl4":"IQ-SD","country":"العراق","country_code":"iq"},"osm_type":"way","osm_id":350663640,"type":"city","location":[43.41383285846756,34.934819250000004],"bbox":[43.3924609,34.9198618,43.4350727,34.950695]}
{"name":"العمارة","other_names":{"name:ar":"العمارة","name:be":"Эль-Амара","name:bn":"আমারা","name:cs":"Amára","name:de":"Amara","name:el":"Αμάρα","name:en":"Amarah","name:es":"Amara","name:et":"Al-‘Amāra","name:fa":"عماره","name:fi":"Amara","name:fr":"Al-Amara","name:he":"אל עמארה","name:hi":"अमारा","name:hr":"Amara","name:ja":"アマーラ","name:kk":"Эль-Амара","name:ku":"Emare","name:ml":"അമാറ","name:pl":"Al-Amara","name:ru":"Эль-Амара","name:sv":"Al-Amara","name:tr":"Amâre","name:uk":"Ель-Амара","name:ur":"العمارہ","name:zh":"阿马拉","name:azb":"العماره","name:ckb":"عەمارە","name:mzn":"العماره","name:pnb":"عماراہ","name:ar-Latn":"Al-‘Amāra"},"display_name":"العمارة, ناحية مرکز قضاء العمارة, قضاء العمارة, محافظة ميسان, 62001, العراق","address":{"city":"العمارة","subdistrict":"ناحية مرکز قضاء العمارة","district":"قضاء العمارة","state":"محافظة ميسان","ISO3166-2-lvl4":"IQ-MA","postcode":"62001","country":"العراق","country_code":"iq"},"population":511542,"osm_type":"node","osm_id":248700950,"type":"city","location":[47.1496466,31.8497708],"bbox":[46.9896466,31.6897708,47.3096466,32.0097708]}
{"name":"الفلوجة","other_names":{"name:ar":"الفلوجة","name:bn":"ফালুজা","name:de":"Falludscha","name:el":"Φαλούτζα","name:en":"Fallujah","name:eo":"Faluĝa","name:es":"Faluya","name:et":"Al-Fallūjah","name:eu":"Falluja","name:fa":"فلوجه","name:fr":"Fallouja","name:he":"פלוג'ה","name:hi":"फल्लुजा","name:hr":"Faludža","name:hu":"Falludzsa","name:it":"Falluja","name:ja":"ファルージャ","name:ko":"알 팔루자","name:ku":"Feluce","name:ml":"ഫല്ലൂജ","name:pt":"Falluja","name:te":"ఫలూజా","name:tr":"Felluce","name:tt":"Фәллуҗә","name:ckb":"فەلوجە","alt_name:fr":"Falloujah","alt_name:ko":"팔루자"},"display_name":"الفلوجة, ناحية مرکز قضاء الفلوجة, قضاء الفلوجة, محافظة الأنبار, 31002, العراق","address":{"city":"الفلوجة","subdistrict":"ناحية مرکز قضاء الفلوجة","district":"قضاء الفلوجة","state":"محافظة الأنبار","ISO3166-2-lvl4":"IQ-AN","postcode":"31002","country":"العراق","country_code":"iq"},"population":326471,"osm_type":"node","osm_id":192581952,"type":"city","location":[43.7875674,33.3532137],"bbox":[43.6275674,33.1932137,43.9475674,33.5132137]}
{"name":"القائم","other_names":{"name:ar":"القائم","name:de":"Al-Qa'im","name:en":"Al-Qa'im","name:es":"Al-Kaim","name:fa":"قائم","name:fr":"Al-Qaïm","name:he":"אל-קאאם","name:hi":"अल क़ैम","name:ko":"알 까임","name:ml":"അൽ ഖായിം","name:tr":"El Kaim","name:ur":"القائم","name:azb":"القائم","alt_name:fr":"Al-Qa'im","alt_name:ko":"알 카임;까임;카임"},"display_name":"القائم, ناحية مرکز قضاء القائم, قضاء القائم, محافظة الأنبار, العراق","address":{"city":"القائم","subdistrict":"ناحية مرکز قضاء القائم","district":"قضاء القائم","state":"محافظة الأنبار","ISO3166-2-lvl4":"IQ-AN","country":"العراق","country_code":"iq"},"population":103000,"osm_type":"node","osm_id":2488327033,"type":"city","location":[40.9943684,34.3957715],"bbox":[40.8343684,34.2357715,41.1543684,34.5557715]}
{"name":"القادسية","other_names":{"name:ar":"القادسية","name:bn":"কাদিসিয়া","name:de":"Al Qadisiyah","name:en":"Al Qadisiyah","name:fa":"قادسیه","name:fr":"Al Qadisiyah","name:ku":"Qadisiye","name:ml":"അൽ-ഖാദിസിയ","alt_name":"القادسية","int_name":"Al Qadisiyah - القادسية","name:ar1":"القادسية","name:ckb":"قادسیە"},"display_name":"القادسية, ناحية القادسية, قضاء المناذرة, محافظة النجف, العراق","address":{"city":"القادسية","subdistrict":"ناحية القادسية","district":"قضاء المناذرة","state":"محافظة النجف","ISO3166-2-lvl4":"IQ-NA","country":"العراق","country_code":"iq"},"osm_type":"node","osm_id":2486549854,"type":"city","location":[44.4771069,31.699016],"bbox":[44.3171069,31.539016,44.6371069,31.859016]}
{"name":"القاسم","other_names":{"name:ar":"القاسم","name:bn":"আল কাসিম","name:de":"Al-Qassim","name:en":"Al Qasim","name:es":"Alkásim","name:et":"Al-Qāsim","name:fa":"القاسم","name:fr":"Al-Qassim","name:hr":"Al-Kasim","name:ml":"അൽ-ഖാസിം","name:ur":"القاسم","alt_name":"Al Qāsim, Imam Qasim, Nāḩiyat al Qāsim, Qāsim, القاسم, ناحية القاسم, Al Qasim, Imam Qasim, Nahiyat al Qasim, Qasim, القاسم, ناحية القاسم","name:azb":"القاسم","name:az-Arab":"القاسم"},"display_name":"القاسم, ناحية القاسم, قضاء الهاشمية, محافظة بابل, 51013, العراق","address":{"city":"القاسم","subdistrict":"ناحية القاسم","district":"قضاء الهاشمية","state":"محافظة بابل","ISO3166-2-lvl4":"IQ-BB","postcode":"51013","country":"العراق","country_code":"iq"},"population":157763,"osm_type":"node","osm_id":2486183301,"type":"city","location":[44.682816,32.297993],"bbox":[44.522816,32.137993,44.842816,32.457993]}
{"name":"القرنة","other_names":{"name:ar":"القرنة","name:bn":"আল কুরনা","name:de":"Al Qurna","name:en":"Al Qurna","name:es":"Al-Qurnah","name:et":"Al-Qurnah","name:fa":"قرنه","name:fr":"Al Qurna","name:ku":"Elqurne","name:ml":"അൽ-ഖുർണ","name:ru":"Эль-Курна","name:tr":"El-Kurne","alt_name":"القرنة","int_name":"Al Qurna - القرنة"},"display_name":"القرنة, ناحية مرکز قضاء القرنة, قضاء القرنة, محافظة البصرة, العراق","address":{"city":"القرنة","subdistrict":"ناحية مرکز قضاء القرنة","district":"قضاء القرنة","state":"محافظة البصرة","ISO3166-2-lvl4":"IQ-BA","country":"العراق","country_code":"iq"},"population":250000,"osm_type":"node","osm_id":2487904414,"type":"city","location":[47.4334886,31.0149241],"bbox":[47.2734886,30.8549241,47.5934886,31.1749241]}
{"name":"الكوت","other_names":{"name:ar":"الكوت","name:bg":"Ал Кут","name:cs":"Kút","name:de":"Kut","name:en":"Al-Kut","name:es":"Kut","name:et":"Kūt","name:eu":"Kut","name:fa":"کوت","name:fr":"Kut","name:he":"אל-כות","name:hi":"अल कुत","name:ja":"クート","name:ku":"Kût","name:ml":"കൂത്ത്","name:pl":"Al-Kut","name:ru":"Эль-Кут","name:tt":"Көт","name:uk":"Ель-Кут","int_name":"Al-Kūt - الكوت","name:ckb":"کووت","nat_name":"کوت"},"display_name":"الكوت, ناحية مرکز قضاء الكوت, قضاء الكوت, محافظة واسط, العراق","address":{"city":"الكوت","subdistrict":"ناحية مرکز قضاء الكوت","district":"قضاء الكوت","state":"محافظة واسط","ISO3166-2-lvl4":"IQ-WA","country":"العراق","country_code":"iq"},"population":422793,"osm_type":"node","osm_id":599473544,"type":"city","location":[45.8296334,32.5010274],"bbox":[45.6696334,32.3410274,45.9896334,32.6610274],"border":{"name":"ناحية مرکز قضاء الكوت","other_names":{"name:en":"Al-Kut Central Subdistrict","name:ar":"الكوت","name:bg":"Ал Кут","name:cs":"Kút","name:de":"Kut","name:es":"Kut","name:et":"Kūt","name:eu":"Kut","name:fa":"کوت","name:fr":"Kut","name:he":"אל-כות","name:hi":"अल कुत","name:ja":"クート","name:ku":"Kût","name:ml":"കൂത്ത്","name:pl":"Al-Kut","name:ru":"Эль-Кут","name:tt":"Көт","name:uk":"Ель-Кут","int_name":"Al-Kūt - الكوت","name:ckb":"کووت","nat_name":"کوت","alt":"الكوت","alt:en":"Al-Kut"},"display_name":"ناحية مرکز قضاء الكوت, قضاء الكوت, محافظة واسط, العراق","address":{"subdistrict":"ناحية مرکز قضاء الكوت","district":"قضاء الكوت","state":"محافظة واسط","ISO3166-2-lvl4":"IQ-WA","country":"العراق","country_code":"iq"},"population":422793,"osm_type":"relation","osm_id":11052269,"type":"administrative","location":[45.8296334,32.5010274],"bbox":[45.5116962,32.3545204,46.1503059,32.7944209]}}
{"name":"الكوفة","other_names":{"name:ar":"الكوفة","name:bn":"কুফা","name:de":"Al Kufa","name:en":"Al Kufa","name:es":"Kufa","name:et":"Al-Kūfah","name:fa":"کوفه","name:fr":"Koufa","name:hr":"Al-Kufa","name:ja":"クーファ","name:ku":"Kûfe","name:ml":"കൂഫ","name:ru":"Эль-Куфа","name:tr":"Kûfe","int_name":"Al Kufa - الكوفة","name:ckb":"کووفە","alt_name:tr":"Kufe"},"display_name":"الكوفة, ناحية مرکز قضاء الکوفة, قضاء الکوفة, محافظة النجف, 54003, العراق","address":{"city":"الكوفة","subdistrict":"ناحية مرکز قضاء الکوفة","district":"قضاء الکوفة","state":"محافظة النجف","ISO3166-2-lvl4":"IQ-NA","postcode":"54003","country":"العراق","country_code":"iq"},"population":230000,"osm_type":"node","osm_id":348089814,"type":"city","location":[44.4031125,32.03444],"bbox":[44.2431125,31.87444,44.5631125,32.19444]}
{"name":"المحاويل","other_names":{"name:ar":"المحاويل","name:de":"Al Mahawil","name:en":"Al Mahawil","name:fr":"Al Mahawil","name:he":"אל מחאוויל","name:ml":"അൽ മഹാവിൽ","name:uk":"Хан-ель-Махавіл","alt_name":"Al Maḩāwīl, Khān al Mahawīl, Mahawil, Qaḑā al Maḩāwīl, Al Mahawil, Khan al Mahawil, Mahawil, Qada al Mahawil","int_name":"Al Mahawil - المحاويل"},"display_name":"المحاويل, ناحية مرکز قضاء المحاويل, قضاء المحاويل, محافظة بابل, العراق","address":{"city":"المحاويل","subdistrict":"ناحية مرکز قضاء المحاويل","district":"قضاء المحاويل","state":"محافظة بابل","ISO3166-2-lvl4":"IQ-BB","country":"العراق","country_code":"iq"},"osm_type":"node","osm_id":2488022427,"type":"city","location":[44.408537,32.661381],"bbox":[44.248537,32.501381,44.568537,32.821381]}
{"name":"المدحتية","other_names":{"name:ar":"المدحتية","name:de":"Al Midhatiya","name:en":"Al Midhatiya","name:fa":"المدحتیه","name:fr":"Al Midhatiya","name:ml":"അൽ മിദ്ഹത്തിയ","alt_name":"Al Madḩatīya"},"display_name":"المدحتية, ناحية المدحتية, قضاء الحمزة الغربي, محافظة بابل, 50004, العراق","address":{"city":"المدحتية","subdistrict":"ناحية المدحتية","district":"قضاء الحمزة الغربي","state":"محافظة بابل","ISO3166-2-lvl4":"IQ-BB","postcode":"50004","country":"العراق","country_code":"iq"},"osm_type":"node","osm_id":2479350603,"type":"city","location":[44.6646848,32.4006548],"bbox":[44.5046848,32.2406548,44.8246848,32.5606548]}
{"name":"المسيب","other_names":{"name:ar":"المسيب","name:de":"Al-Musayyib","name:en":"Al Musaiyib","name:es":"Almusayib","name:et":"Al-Musayyib","name:eu":"Musayyib","name:fa":"مسیب","name:fr":"Al Moussayib","name:he":"מוסייב","name:hi":"मुसैयिब","name:ml":"അൽ-മുസയ്യിബ്","name:ru":"Эль-Мусайиб","alt_name":"Al Musaiyib, Al Musayyib, Mosayab, Musaīyib, Musayyib, Museyib, المسيب, Al Musaiyib, Al Musayyib, Mosayab, Musaiyib, Musayyib, Museyib, المسيب","name:azb":"مسیب","name:az-Arab":"مسیب"},"display_name":"المسيب, ناحية مرکز قضاء المسيب, قضاء المسيب, محافظة بابل, 51006, العراق","address":{"city":"المسيب","subdistrict":"ناحية مرکز قضاء المسيب","district":"قضاء المسيب","state":"محافظة بابل","ISO3166-2-lvl4":"IQ-BB","postcode":"51006","country":"العراق","country_code":"iq"},"population":279939,"osm_type":"node","osm_id":2093558057,"type":"city","location":[44.290267,32.7797122],"bbox":[44.130267,32.6197122,44.450267,32.9397122]}
{"name":"المقدادیة","other_names":{"name:ar":"المقدادية","name:en":"Miqdadiyah","name:fa":"مقدادیه","name:ml":"മിഖ്ദാദിയ","alt_name":"المقداديه;شهربان","alt_name:en":"Miqdadiya"},"display_name":"المقدادیة, ناحية مرکز قضاء المقدادية, قضاء المقدادية, محافظة ديالى, العراق","address":{"city":"المقدادیة","subdistrict":"ناحية مرکز قضاء المقدادية","district":"قضاء المقدادية","state":"محافظة ديالى","ISO3166-2-lvl4":"IQ-DI","country":"العراق","country_code":"iq"},"osm_type":"node","osm_id":6840111055,"type":"city","location":[44.9276018,33.9724064],"bbox":[44.7676018,33.8124064,45.0876018,34.1324064]}
{"name":"الموصل","other_names":{"name:af":"Mosoel","name:ar":"الموصل","name:az":"Mosul","name:ba":"Мосул","name:be":"Масул","name:bg":"Мосул","name:bh":"मोसुल","name:bn":"মসুল","name:br":"Mosoul","name:bs":"Mosul","name:ca":"Mossul","name:ce":"Мовсил","name:cs":"Mosul","name:cy":"Mosul","name:da":"Mosul","name:de":"Mossul","name:el":"Μοσούλη","name:en":"Mosul","name:eo":"Mosulo","name:es":"Mosul","name:et":"Mosul","name:eu":"Mosul","name:fa":"موصل","name:fi":"Mosul","name:fr":"Mossoul","name:ga":"Mosul","name:he":"מוסול","name:hi":"मोसुल","name:hr":"Mosul","name:hu":"Moszul","name:hy":"Մոսուլ","name:ia":"Mosul","name:id":"Mosul","name:ie":"Mosul","name:io":"Mosul","name:is":"Mósúl","name:it":"Mosul","name:ja":"モースル","name:jv":"Mosul","name:ka":"მოსული","name:kk":"Мосул","name:kn":"ಮೋಸುಲ್","name:ko":"모술","name:ku":"Mûsil","name:ky":"Мосул","name:la":"Mausilium","name:li":"Mosoel","name:lt":"Mosulas","name:lv":"Mosula","name:mi":"Mosul","name:ml":"മൊസൂൾ","name:mn":"Мосул","name:mr":"मोसुल","name:ms":"Mosul","name:nb":"Mosul","name:nl":"Mosoel","name:nn":"Mosul","name:no":"Mosul","name:oc":"Mossol","name:os":"Мосул","name:pa":"ਮੋਸਲ","name:pl":"Mosul","name:pt":"Mossul","name:ro":"Mosul","name:ru":"Мосул","name:sd":"موصل شهر","name:sk":"Mosul","name:sl":"Mosul","name:so":"Mowsil","name:sr":"Мосул","name:sv":"Mosul","name:sw":"Mosul","name:ta":"மோசுல்","name:te":"మోసుల్","name:tg":"Мавсил","name:th":"โมซูล","name:tr":"Musul","name:tt":"Мөсил","name:ug":"مەۋسىل","name:uk":"Мосул","name:ur":"موصل","name:uz":"Mosul","name:vi":"Mosul","name:yi":"מאסול","name:zh":"摩苏尔/摩穌爾","name:arc":"ܡܘܨܠ","name:ckb":"مووسڵ","name:syc":"ܡܘܨܠ","alt_name:ml":"അൽ-മൗസിൽ","alt_name:arc":"ܡܘܨܠܐ;ܡܕܝܢܬܐ ܕܡܘܨܠ;ܢܝܢܒ݂ܐ","alt_name:ckb":"موسڵ","alt_name:syc":"ܡܘܨܠܐ;ܡܕܝܢܬܐ ܕܡܘܨܠ;ܢܝܢܒ݂ܐ","name:zh-Hans":"摩苏尔","name:zh-Hant":"摩穌爾"},"display_name":"الموصل, ناحية مرکز قضاء الموصل, قضاء الموصل, محافظة نینوى, 14447, العراق","address":{"city":"الموصل","subdistrict":"ناحية مرکز قضاء الموصل","district":"قضاء الموصل","state":"محافظة نینوى","ISO3166-2-lvl4":"IQ-NI","postcode":"14447","country":"العراق","country_code":"iq"},"population":1848000,"osm_type":"node","osm_id":94312904,"type":"city","location":[43.1291386,36.3415843],"bbox":[42.9691386,36.1815843,43.2891386,36.5015843]}
{"name":"الناصرية","other_names":{"name:ar":"الناصرية","name:bn":"নাসিরিয়া","name:cs":"Násiríja","name:de":"Nasiriya","name:el":"Νασιρίγια","name:en":"Nasiriyah","name:es":"Nasiriya","name:et":"An-Nāşirīyah","name:eu":"Nasiriya","name:fa":"ناصریه","name:fi":"Nasiriyya","name:fr":"Nasiriyah","name:hi":"नासीरिया","name:hr":"Nasirija","name:it":"Nassiria","name:ja":"ナーシリーヤ","name:ku":"Nasiriye","name:ml":"നാസിറിയ","name:pl":"Nasirijja","name:pt":"Nassíria","name:ro":"Nassiriya","name:ru":"Насирия","name:te":"నాసిరియాః","name:tt":"Насыйрия","name:uk":"Насирія","name:ur":"ناصریہ","name:azb":"ناصریه","name:ckb":"ناسریە","name:mzn":"ناصریه","name:pnb":"ناصرہ"},"display_name":"الناصرية, ناحية مرکز قضاء الناصرية, قضاء الناصرية, محافظة ذي قار, 64002, العراق","address":{"city":"الناصرية","subdistrict":"ناحية مرکز قضاء الناصرية","district":"قضاء الناصرية","state":"محافظة ذي قار","ISO3166-2-lvl4":"IQ-DQ","postcode":"64002","country":"العراق","country_code":"iq"},"population":745000,"osm_type":"node","osm_id":248690226,"type":"city","location":[46.2399386,31.0439957],"bbox":[46.0799386,30.8839957,46.3999386,31.2039957]}
{"name":"النجف","other_names":{"name:ar":"النجف","name:bn":"নাজাফ","name:cs":"Al-Nadžaf","name:de":"Al-Nadschaf","name:el":"Νατζάφ","name:en":"Al-Najaf","name:es":"Al-Nayaf","name:et":"Al-Najaf","name:eu":"Al-Najaf","name:fa":"نجف","name:fi":"Al-Najaf","name:fr":"Al-Nadjaf","name:hi":"नजफ़","name:hr":"Al-Nadžaf","name:ja":"ナジャフ","name:ku":"Al-Necef","name:ml":"നജഫ്","name:pl":"Al-Nadżaf","name:pt":"Al-Najaf","name:ru":"Эн-Наджаф","name:te":"నజాఫ్","name:tr":"Al-Necef","name:tt":"Нәҗәф","name:uk":"Ан-Наджаф","alt_name":"بانيقيا","int_name":"Al-Najaf","name:ckb":"نەجەف","alt_name:en":"Najaf;An-Najaf;Baniqia"},"display_name":"النجف, ناحية مرکز قضاء النجف, قضاء النجف, محافظة النجف, 54004, العراق","address":{"city":"النجف","subdistrict":"ناحية مرکز قضاء النجف","district":"قضاء النجف","state":"محافظة النجف","ISO3166-2-lvl4":"IQ-NA","postcode":"54004","country":"العراق","country_code":"iq"},"population":1221248,"osm_type":"node","osm_id":348117530,"type":"city","location":[44.3299926,32.0010227],"bbox":[44.1699926,31.8410227,44.4899926,32.1610227]}
{"name":"النيل","other_names":{"name:ar":"النيل","name:de":"An Nil","name:en":"An Nil","name:fa":"نيل","name:fr":"An Nil","name:ml":"അന്നീൽ","alt_name":"Nāḩiyat an Nīl, ناحية النيل, Nahiyat an Nil, ناحية النيل","int_name":"An Nil - النيل"},"display_name":"النيل, ناحية النيل, قضاء المحاويل, محافظة بابل, العراق","address":{"city":"النيل","subdistrict":"ناحية النيل","district":"قضاء المحاويل","state":"محافظة بابل","ISO3166-2-lvl4":"IQ-BB","country":"العراق","country_code":"iq"},"osm_type":"node","osm_id":2488025503,"type":"city","location":[44.5458951,32.5412457],"bbox":[44.3858951,32.3812457,44.7058951,32.7012457]}
{"name":"الهندية","other_names":{"name:ar":"الهندية","name:de":"Hindiya","name:en":"Hindiya","name:es":"Alhindiya","name:et":"Al-Hindīyah","name:fa":"طویریج","name:fr":"Hindiya","name:ml":"അൽ-ഹിന്ദിയ","name:ru":"Эль-Хиндия","alt_name":"Al Hindīyah, Al Hindiyah"},"display_name":"الهندية, ناحية مرکز قضاء الهندية, قضاء الهندية, محافظة كربلاء, العراق","address":{"city":"الهندية","subdistrict":"ناحية مرکز قضاء الهندية","district":"قضاء الهندية","state":"محافظة كربلاء","ISO3166-2-lvl4":"IQ-KA","country":"العراق","country_code":"iq"},"population":115000,"osm_type":"node","osm_id":2488022349,"type":"city","location":[44.2219808,32.5432123],"bbox":[44.0619808,32.3832123,44.3819808,32.7032123]}
{"name":"بعقوبة","other_names":{"name:ar":"بعقوبة","name:bn":"বাকুবা","name:cs":"Bakúba","name:de":"Baquba","name:en":"Baqubah","name:es":"Baquba","name:et":"Ba‘qūbah","name:eu":"Baquba","name:fa":"بعقوبه","name:fr":"Bakouba","name:hi":"बक़ुबाह","name:hr":"Bakuba","name:ja":"バアクーバ","name:ku":"Baqûba","name:ml":"ബാഖൂബ","name:pl":"Bakuba","name:ru":"Баакуба","name:tr":"Bakuba","name:tt":"Бәкубә","name:uk":"Бакуба","alt_name":"Ba‘qūbah - بعقوبة, Baqūbah, Baqūba, Bakuba, Baquba, Baqubeh, بعقوبة, Baqubah, Baquba, Bakuba, Baquba, Baqubeh, بعقوبة","int_name":"Baqubah - بعقوبة","name:ckb":"بەعقووبە","alt_name:fr":"Baqouba, Baaqouba","alt_name:uk":"Баакуба"},"display_name":"بعقوبة, ناحية مرکز قضاء بعقوبة, قضاء بعقوبة, محافظة ديالى, 32010, العراق","address":{"city":"بعقوبة","subdistrict":"ناحية مرکز قضاء بعقوبة","district":"قضاء بعقوبة","state":"محافظة ديالى","ISO3166-2-lvl4":"IQ-DI","postcode":"32010","country":"العراق","country_code":"iq"},"population":268866,"osm_type":"node","osm_id":248701647,"type":"city","location":[44.6328472,33.7447393],"bbox":[44.4728472,33.5847393,44.7928472,33.9047393]}
{"name":"بغداد","other_names":{"name:af":"Bagdad","name:am":"ባግዳድ","name:an":"Bagdad","name:ar":"بغداد","name:as":"বাগদাদ","name:av":"Багъдад","name:az":"Bağdad","name:ba":"Бағдад","name:be":"Багдад","name:bg":"Багдад","name:bm":"Baghdad","name:bn":"বাগদাদ","name:bo":"པ་ག་ཏ","name:br":"Baghdad","name:bs":"Bagdad","name:ca":"Bagdad","name:ce":"БагӀдад","name:co":"Baghdad","name:cs":"Bagdád","name:cv":"Пахтат","name:cy":"Baghdad","name:da":"Bagdad","name:de":"Bagdad","name:dv":"ބަޣުދާދު","name:el":"Βαγδάτη","name:en":"Baghdad","name:eo":"Bagdado","name:es":"Bagdad","name:et":"Bagdad","name:eu":"Bagdad","name:fa":"بغداد","name:fi":"Bagdad","name:fo":"Bagdad","name:fr":"Bagdad","name:fy":"Bagdad","name:ga":"Bagdad","name:gd":"Baghdad","name:gl":"Bagdad","name:gn":"Bagdad","name:ha":"Bagdaza","name:he":"בגדד","name:hi":"बग़दाद","name:hr":"Bagdad","name:ht":"Bagdad","name:hu":"Bagdad","name:hy":"Բաղդադ","name:ia":"Bagdad","name:id":"Bagdad","name:ie":"Bagdad","name:io":"Bagdad","name:is":"Bagdad","name:it":"Bagdad","name:ja":"バグダード","name:jv":"Bagdad","name:ka":"ბაღდადი","name:ki":"Baghdad","name:kk":"Бағдат","name:kl":"Baghdad","name:kn":"ಬಾಗ್ದಾದ್","name:ko":"바그다드","name:ks":"بغداد","name:ku":"Bexda","name:kw":"Baldak","name:ky":"Багдад","name:la":"Bagdatum","name:lb":"Bagdad","name:li":"Bagdad","name:lt":"Bagdadas","name:lv":"Bagdāde","name:mg":"Bagdad","name:mi":"Baghdad","name:mk":"Багдад","name:ml":"ബഗ്ദാദ്","name:mn":"Багдад","name:mr":"बगदाद","name:ms":"Baghdad","name:my":"ဘဂ္ဂဒက်မြို့","name:na":"Baghdad","name:nb":"Bagdad","name:ne":"बगदाद","name:nl":"Bagdad","name:nn":"Bagdad","name:no":"Bagdad","name:nv":"Názlíní Hatsoh","name:ny":"Baghdad","name:oc":"Bagdad","name:or":"ବାଗଦାଦ","name:os":"Багдад","name:pa":"ਬਗ਼ਦਾਦ","name:pl":"Bagdad","name:ps":"بغداد","name:pt":"Bagdá","name:qu":"Bagdad","name:ro":"Bagdad","name:ru":"Багдад","name:sc":"Bagdad","name:sd":"بغداد","name:sh":"Bagdad","name:si":"බැග්ඩෑඩ්","name:sk":"Bagdad","name:sl":"Bagdad","name:sn":"Baghdad","name:so":"Baqdaad","name:sq":"Bagdadi","name:sr":"Багдад","name:sv":"Bagdad","name:sw":"Baghdad","name:ta":"பக்தாத்","name:te":"బాగ్దాద్","name:tg":"Бағдод","name:th":"แบกแดด","name:tk":"Bagdat","name:tl":"Baghdad","name:tr":"Bağdat","name:tt":"Бәгъдат","name:tw":"Baghdad","name:ug":"باغداد","name:uk":"Багдад","name:ur":"بغداد","name:uz":"Baghdad","name:vi":"Bagdad","name:vo":"Bagdad","name:wa":"Bagdet","name:wo":"Bagdad","name:yi":"באגדאד","name:yo":"Baghdad","name:zh":"巴格達/巴格达","alt_name":"بغداد الرشيد","name:ace":"Baghdad","name:ady":"Багдад","name:als":"Bagdad","name:arc":"ܒܓܕܐܕ","name:ary":"بغداد","name:arz":"بغداد","name:ast":"Bagdag","name:azb":"بغداد","name:ban":"Baghdad","name:bcl":"Baghdad","name:bxr":"Багдад","name:cdo":"Baghdad","name:ceb":"Baghdad","name:ckb":"بەغدا","name:crh":"Bağdad","name:diq":"Beğdad","name:dty":"बगदाद","name:ext":"Bagdad","name:frp":"Bagdad","name:frr":"Bagdad","name:glk":"بغداد","name:hak":"Baghdad","name:hif":"Baghdad","name:hsb":"Bagdad","name:hyw":"Պաղտատ","name:ilo":"Baghdad","name:inh":"БагӀдад","name:jbo":"bagdad","name:kaa":"Bag'dad","name:kab":"Beɣdad","name:kbd":"Багдад","name:kbp":"Pagidaadɩ","name:lad":"Bagdad","name:lez":"Багъдад","name:lfn":"Baghdad","name:lij":"Baghdad","name:lmo":"Baghdad","name:lrc":"بٱغداد","name:mai":"बगदाद","name:mhr":"Багдад","name:min":"Bagdad","name:mwl":"Bagdade","name:myv":"Багдад ош","name:mzn":"بقداتی","name:nah":"Bagdād","name:nan":"Baghdad","name:nds":"Bagdad","name:new":"बग्दाद","name:olo":"Bagdad","name:pap":"Bagdad","name:pcd":"Bagdad","name:pih":"Baagdad","name:pms":"Baghdad","name:pnb":"بغداد","name:rue":"Баґдад","name:sah":"Багдад","name:sat":"ᱵᱟᱜᱽᱫᱟᱫᱽ","name:scn":"Baghdad","name:sco":"Baghdad","name:skr":"بغداد","name:smn":"Bagdad","name:stq":"Bagdad","name:szl":"Bagdad","name:tpi":"Bagdad","name:tzl":"Baghdad","name:udm":"Багдад","name:vec":"Bagdad","name:vep":"Bagdad","name:vro":"Bagdad","name:war":"Baghdad","name:wuu":"巴格达","name:xmf":"ბაღდადი","name:yue":"巴格達","name:zea":"Bagdad","alt_name:en":"Bagdad","alt_name:he":"בגדד","alt_name:vi":"Bát-đa","name:simple":"Baghdad","name:bat-smg":"Bagdads","name:zh-Hans":"巴格达","name:be_x_old":"Багдад","name:roa-tara":"Baghdad"},"display_name":"بغداد, محافظة بغداد, 10001, العراق","address":{"city":"بغداد","state":"محافظة بغداد","ISO3166-2-lvl4":"IQ-BG","postcode":"10001","country":"العراق","country_code":"iq"},"population":7216040,"osm_type":"node","osm_id":21034458,"type":"city","location":[44.3872213,33.3061701],"bbox":[44.2272213,33.1461701,44.5472213,33.4661701],"border":{"name":"بغداد","other_names":{"name:af":"Bagdad","name:am":"ባግዳድ","name:an":"Bagdad","name:ar":"بغداد","name:as":"বাগদাদ","name:av":"Багъдад","name:az":"Bağdad","name:ba":"Бағдад","name:be":"Багдад","name:bg":"Багдад","name:bm":"Baghdad","name:bn":"বাগদাদ","name:bo":"པ་ག་ཏ","name:br":"Baghdad","name:bs":"Bagdad","name:ca":"Bagdad","name:ce":"БагӀдад","name:co":"Baghdad","name:cs":"Bagdád","name:cv":"Пахтат","name:cy":"Baghdad","name:da":"Bagdad","name:de":"Bagdad","name:dv":"ބަޣުދާދު","name:el":"Βαγδάτη","name:en":"Baghdad","name:eo":"Bagdado","name:es":"Bagdad","name:et":"Bagdad","name:eu":"Bagdad","name:fa":"بغداد","name:fi":"Bagdad","name:fo":"Bagdad","name:fr":"Bagdad","name:fy":"Bagdad","name:ga":"Bagdad","name:gd":"Baghdad","name:gl":"Bagdad","name:gn":"Bagdad","name:ha":"Bagdaza","name:he":"בגדד","name:hi":"बग़दाद","name:hr":"Bagdad","name:ht":"Bagdad","name:hu":"Bagdad","name:hy":"Բաղդադ","name:ia":"Bagdad","name:id":"Bagdad","name:ie":"Bagdad","name:io":"Bagdad","name:is":"Bagdad","name:it":"Bagdad","name:ja":"バグダード","name:jv":"Bagdad","name:ka":"ბაღდადი","name:ki":"Baghdad","name:kk":"Бағдат","name:kl":"Baghdad","name:kn":"ಬಾಗ್ದಾದ್","name:ko":"바그다드","name:ks":"بغداد","name:ku":"Bexda","name:kw":"Baldak","name:ky":"Багдад","name:la":"Bagdatum","name:lb":"Bagdad","name:li":"Bagdad","name:lt":"Bagdadas","name:lv":"Bagdāde","name:mg":"Bagdad","name:mi":"Baghdad","name:mk":"Багдад","name:ml":"ബാഗ്ദാദ്","name:mn":"Багдад","name:mr":"बगदाद","name:ms":"Baghdad","name:my":"ဘဂ္ဂဒက်မြို့","name:na":"Baghdad","name:ne":"बगदाद","name:nl":"Bagdad","name:nn":"Bagdad","name:no":"Bagdad","name:ny":"Baghdad","name:oc":"Bagdad","name:or":"ବାଗଦାଦ","name:os":"Багдад","name:pa":"ਬਗ਼ਦਾਦ","name:pl":"Bagdad","name:ps":"بغداد","name:pt":"Bagdade","name:qu":"Bagdad","name:ro":"Bagdad","name:ru":"Багдад","name:sc":"Bagdad","name:sd":"بغداد","name:sh":"Bagdad","name:si":"බැග්ඩෑඩ්","name:sk":"Bagdad","name:sl":"Bagdad","name:sn":"Baghdad","name:so":"Baqdaad","name:sq":"Bagdadi","name:sr":"Багдад","name:sv":"Bagdad","name:sw":"Baghdad","name:ta":"பக்தாத்","name:te":"బాగ్దాద్","name:tg":"Бағдод","name:th":"แบกแดด","name:tk":"Bagdat","name:tl":"Baghdad","name:tr":"Bağdat","name:tt":"Багдад","name:tw":"Baghdad","name:ug":"باغداد","name:uk":"Багдад","name:ur":"بغداد","name:uz":"Baghdad","name:vi":"Bagdad","name:vo":"Bagdad","name:wa":"Bagdet","name:wo":"Bagdad","name:yi":"באגדאד","name:yo":"Baghdad","name:zh":"巴格達","alt_name":"بغداد الرشيد","name:ace":"Baghdad","name:ady":"Багдад","name:als":"Bagdad","name:arc":"ܒܓܕܐܕ","name:ary":"بغداد","name:arz":"بغداد","name:ast":"Bagdag","name:azb":"بغداد","name:ban":"Baghdad","name:bcl":"Baghdad","name:bxr":"Багдад","name:cdo":"Baghdad","name:ceb":"Baghdad","name:ckb":"بەغدا","name:crh":"Bağdad","name:diq":"Beğdad","name:dty":"बगदाद","name:ext":"Bagdad","name:frp":"Bagdad","name:frr":"Bagdad","name:glk":"بغداد","name:hak":"Baghdad","name:hif":"Baghdad","name:hsb":"Bagdad","name:hyw":"Պաղտատ","name:ilo":"Baghdad","name:inh":"БагӀдад","name:jbo":"bagdad","name:kaa":"Bag'dad","name:kab":"Beɣdad","name:kbd":"Багдад","name:kbp":"Pagidaadɩ","name:lad":"Bagdad","name:lez":"Багъдад","name:lfn":"Baghdad","name:lij":"Baghdad","name:lmo":"Baghdad","name:lrc":"بٱغداد","name:mai":"बगदाद","name:mhr":"Багдад","name:min":"Bagdad","name:mwl":"Bagdade","name:myv":"Багдад ош","name:mzn":"بقداتی","name:nah":"Bagdād","name:nan":"Baghdad","name:nds":"Bagdad","name:new":"बग्दाद","name:olo":"Bagdad","name:pap":"Bagdad","name:pcd":"Bagdad","name:pih":"Baagdad","name:pms":"Baghdad","name:pnb":"بغداد","name:rue":"Баґдад","name:sah":"Багдад","name:sat":"ᱵᱟᱜᱽᱫᱟᱫᱽ","name:scn":"Baghdad","name:sco":"Baghdad","name:skr":"بغداد","name:smn":"Bagdad","name:stq":"Bagdad","name:szl":"Bagdad","name:tpi":"Bagdad","name:tzl":"Baghdad","name:udm":"Багдад","name:vec":"Bagdad","name:vep":"Bagdad","name:vro":"Bagdad","name:war":"Baghdad","name:wuu":"巴格达","name:xmf":"ბაღდადი","name:yue":"巴格達","name:zea":"Bagdad","alt_name:en":"Bagdad","alt_name:he":"בגדד","alt_name:vi":"Bát-đa","name:simple":"Baghdad","name:bat-smg":"Bagdads","name:zh-Hans":"巴格达","name:be_x_old":"Багдад","name:roa-tara":"Baghdad","name:nb":"Bagdad","name:nv":"Názlíní Hatsoh","alt:ml":"ബഗ്ദാദ്","alt:pt":"Bagdá","alt:tt":"Бәгъдат","alt:zh":"巴格達/巴格达"},"display_name":"بغداد, محافظة بغداد, العراق","address":{"city":"بغداد","state":"محافظة بغداد","ISO3166-2-lvl4":"IQ-BG","country":"العراق","country_code":"iq"},"population":7216040,"osm_type":"relation","osm_id":5638803,"type":"administrative","location":[44.3872213,33.3061701],"bbox":[44.1846152,33.1797569,44.5699963,33.4868251]}}
{"name":"بلدية المشخاط","display_name":"بلدية المشخاط, ناحية مرکز قضاء المشخاب, قضاء المشخاب, محافظة النجف, العراق","address":{"city":"بلدية المشخاط","subdistrict":"ناحية مرکز قضاء المشخاب","district":"قضاء المشخاب","state":"محافظة النجف","ISO3166-2-lvl4":"IQ-NA","country":"العراق","country_code":"iq"},"osm_type":"way","osm_id":1209370013,"type":"city","location":[44.4896527848522,31.80145015],"bbox":[44.4828808,31.7907757,44.4997419,31.8120867]}
{"name":"بيجي","other_names":{"name:ar":"بيجي","name:bn":"বায়জি","name:cs":"Bajdží","name:de":"Baidschi","name:en":"Baiji","name:et":"Bayjī","name:fa":"بیجی","name:fr":"Baïji","name:hi":"बैजी","name:hr":"Bajdži","name:ml":"ബൈജി","name:te":"బైజీ","alt_name":"Baiji, Bayjī, بيجي, Bayji, بێجی","name:ckb":"بێجی","alt_name:fr":"Baji"},"display_name":"بيجي, ناحية مرکز قضاء بيجي, قضاء بيجي, محافظة صلاح الدين, العراق","address":{"city":"بيجي","subdistrict":"ناحية مرکز قضاء بيجي","district":"قضاء بيجي","state":"محافظة صلاح الدين","ISO3166-2-lvl4":"IQ-SD","country":"العراق","country_code":"iq"},"population":173677,"osm_type":"node","osm_id":2489273023,"type":"city","location":[43.493107,34.9307],"bbox":[43.333107,34.7707,43.653107,35.0907],"border":{"name":"بيجي","other_names":{"name:ar":"بيجي","name:ckb":"بێجی","name:bn":"বায়জি","name:cs":"Bajdží","name:de":"Baidschi","name:en":"Baiji","name:et":"Bayjī","name:fa":"بیجی","name:fr":"Baïji","name:hi":"बैजी","name:hr":"Bajdži","name:ml":"ബൈജി","name:te":"బైజీ","alt_name":"Baiji, Bayjī, بيجي, Bayji, بێجی","alt_name:fr":"Baji"},"display_name":"بيجي, ناحية مرکز قضاء بيجي, قضاء بيجي, محافظة صلاح الدين, العراق","address":{"city":"بيجي","subdistrict":"ناحية مرکز قضاء بيجي","district":"قضاء بيجي","state":"محافظة صلاح الدين","ISO3166-2-lvl4":"IQ-SD","country":"العراق","country_code":"iq"},"population":173677,"osm_type":"way","osm_id":308988005,"type":"city","location":[43.493107,34.9307],"bbox":[43.4691059,34.8984103,43.5162442,34.9579425]}}
{"name":"تكريت","other_names":{"name:ar":"تكريت","name:bg":"Тикрит","name:bn":"তিকরিত","name:cs":"Tikrít","name:de":"Tikrit","name:el":"Τικρίτ","name:en":"Tikrit","name:es":"Tikrit","name:et":"Tikrīt","name:eu":"Tikrit","name:fa":"تکریت","name:fr":"Tikrit","name:hi":"टिकरित","name:hr":"Tikrit","name:id":"Tikrit","name:ja":"ティクリート","name:ko":"티크리트","name:ku":"Tikrît","name:ml":"തിക്രീത്ത്","name:ru":"Тикрит","name:tr":"Tikrît","name:ur":"تکریت","alt_name":"Tekrit, Tikret, Tekret, تكريت, Tekrit, Tikret, Tikrit, تكريت","name:arc":"ܬܓܪܝܬ","name:azb":"تکریت","name:ckb":"تکریت","name:mzn":"تکریت","name:pnb":"تكريت","name:syc":"ܬܓܪܝܬ","alt_name:tr":"Tekrît","alt_name:arc":"ܬܟܪܝܬ;ܬܐܓܪܝܬ","alt_name:syc":"ܬܟܪܝܬ;ܬܐܓܪܝܬ"},"display_name":"تكريت, ناحية مرکز قضاء تكريت, قضاء تكريت, محافظة صلاح الدين, 34001, العراق","address":{"city":"تكريت","subdistrict":"ناحية مرکز قضاء تكريت","district":"قضاء تكريت","state":"محافظة صلاح الدين","ISO3166-2-lvl4":"IQ-SD","postcode":"34001","country":"العراق","country_code":"iq"},"population":260000,"osm_type":"node","osm_id":2480255384,"type":"city","location":[43.678606,34.615807],"bbox":[43.518606,34.455807,43.838606,34.775807]}
{"name":"تلعفر","other_names":{"name:ar":"تلعفر","name:de":"Tal Afar","name:en":"Tal Afar","name:es":"Tal Afar","name:fa":"تل‌عفر","name:fr":"Tal Afar","name:ml":"തൽ അഫർ","name:ru":"Талль-Афар","name:tr":"Telafer","name:ur":"تلعفر","alt_name":"تل عفر","int_name":"Tal Afar, Tal Afar, Talaafar, Tall Afar, Tel Afar, تلعفر, Tal Afar, Tal Afar, Talaafar, Tall Afar, Tel Afar, تلعفر","name:azb":"تلعفر","name:ckb":"تەلەعفەر","name:mzn":"تلعفر","name:pnb":"تلعفر","alt_name:ar":"تل عفر","name:az-Arab":"تلعفر"},"display_name":"تلعفر, ناحية مرکز قضاء تلعفر, قضاء تلعفر, محافظة نینوى, العراق","address":{"city":"تلعفر","subdistrict":"ناحية مرکز قضاء تلعفر","district":"قضاء تلعفر","state":"محافظة نینوى","ISO3166-2-lvl4":"IQ-NI","country":"العراق","country_code":"iq"},"osm_type":"node","osm_id":6007351271,"type":"city","location":[42.4434793,36.3740434],"bbox":[42.2834793,36.2140434,42.6034793,36.5340434]}
{"name":"حديثة","other_names":{"name:ar":"حديثة","name:bn":"হাদিসা","name:de":"Haditha","name:en":"Haditha","name:fa":"حدیثه","name:fr":"Haditha","name:he":"חדיטה","name:hi":"हदीथा","name:ko":"하디타","name:ku":"Hedîse","name:ml":"ഹദീസ","name:ru":"Эль-Хадита","int_name":"Haditha - حديثة","name:ar1":"قضاء حديثة","name:ckb":"حەدیسە","alt_name:ko":"하디사"},"display_name":"حديثة, ناحية مرکز قضاء حديثة, قضاء حديثة, محافظة الأنبار, العراق","address":{"city":"حديثة","subdistrict":"ناحية مرکز قضاء حديثة","district":"قضاء حديثة","state":"محافظة الأنبار","ISO3166-2-lvl4":"IQ-AN","country":"العراق","country_code":"iq"},"osm_type":"node","osm_id":2488415849,"type":"city","location":[42.3778367,34.1352594],"bbox":[42.2178367,33.9752594,42.5378367,34.2952594],"border":{"name":"قضاء حديثة","other_names":{"name:en":"Haditha District"},"display_name":"قضاء حديثة, محافظة الأنبار, العراق","address":{"district":"قضاء حديثة","state":"محافظة الأنبار","ISO3166-2-lvl4":"IQ-AN","country":"العراق","country_code":"iq"},"osm_type":"relation","osm_id":11059970,"type":"administrative","location":[42.28587411838024,34.215590649999996],"bbox":[41.9132551,33.8616833,42.7791316,34.5392162]}}
{"name":"دبي","other_names":{"name:en":"Dubai","alt_name":"دوباي"},"display_name":"دبي, شارع البشرى, محلة 739, حي الامين, ناحية بغداد الجديدة, قضاء الرصافة, بغداد, قضاء الزوراء, محافظة بغداد, 10062, العراق","address":{"historic":"دبي","road":"شارع البشرى","neighbourhood":"محلة 739","quarter":"حي الامين","subdistrict":"ناحية بغداد الجديدة","district":"قضاء الرصافة","city":"بغداد","state":"محافظة بغداد","ISO3166-2-lvl4":"IQ-BG","postcode":"10062","country":"العراق","country_code":"iq"},"osm_type":"node","osm_id":11508781564,"type":"ruins","location":[44.5454386,33.3200984],"bbox":[44.5453886,33.3200484,44.5454886,33.3201484]}
{"name":"دھۆک","other_names":{"name:ar":"دهوك","name:cs":"Dahúk","name:de":"Dohuk","name:en":"Duhok","name:es":"Dahuk","name:et":"Dahūk","name:eu":"Dahuk","name:fa":"دهوک","name:fr":"Dahouk","name:he":"דהוק","name:hi":"दुहोक","name:hr":"Duhok","name:ja":"ドホーク","name:ku":"Dihok","name:ml":"ദുഹോക്ക്","name:pl":"Dahuk","name:ru":"Духок","name:tr":"Duhok","name:uk":"Дугок","name:ur":"دہوک","alt_name":"نوهَدرا","int_name":"Dahūk, Dihōk, Dohuk, Duhok, Dûhok, Duhuk, دَهُکْ, دهوک, دھۆک, Dahuk","name:arc":"ܣܘܪܝܝܐ","name:azb":"دهوک","name:ckb":"دھۆک","name:kmr":"Dihok","name:mzn":"دهوک","name:pnb":"دهوك","name:sdh":"دهۆک","name:syc":"ܣܘܪܝܝܐ","name:syr":"ܣܘܪܝܝܐ","alt_name:ar":"نوهدرا","alt_name:en":"Nohadra","alt_name:ckb":"ناھۆدرا"},"display_name":"دھۆک, ناحیەی ناوەندەکەی قەزای دهۆك, قەزای دهۆک, پارێزگای دھۆک, هەرێمی کوردستان, 42001, العراق","address":{"city":"دھۆک","subdistrict":"ناحیەی ناوەندەکەی قەزای دهۆك","district":"قەزای دهۆک","province":"پارێزگای دھۆک","ISO3166-2-lvl4":"IQ-DA","region":"هەرێمی کوردستان","ISO3166-2-lvl3":"IQ-KR","postcode":"42001","country":"العراق","country_code":"iq"},"population":226899,"osm_type":"node","osm_id":99474380,"type":"city","location":[42.9924528,36.8542598],"bbox":[42.8324528,36.6942598,43.1524528,37.0142598]}
{"name":"سامراء","other_names":{"name:ar":"سامراء","name:az":"Samara","name:ba":"Һамар","name:bn":"সামারা","name:de":"Samarra","name:en":"Samarra","name:et":"Sāmarrā’","name:eu":"Samarra","name:fa":"سامرا","name:fr":"Samarra","name:he":"סאמרה","name:hi":"सामर्रा","name:hr":"Samara","name:ja":"サーマッラー","name:kk":"Самара","name:ko":"사마라","name:ku":"Semara","name:ml":"സാമറ","name:ru":"Самарра","name:te":"సమర్రా","name:tr":"Samarra","name:tt":"Самәрраэ","name:uz":"Samara","alt_name":"Qaḑā Sāmarrā, Sāmarrā, Sāmarrā Qadhā, Qada Samarra, Samarra, Samarra Qadha","int_name":"Samarra - سامراء","name:ckb":"سامەڕا","name:diq":"Samarra"},"display_name":"سامراء, ناحية مرکز قضاء سامراء, قضاء سامراء, محافظة صلاح الدين, 04002, العراق","address":{"city":"سامراء","subdistrict":"ناحية مرکز قضاء سامراء","district":"قضاء سامراء","state":"محافظة صلاح الدين","ISO3166-2-lvl4":"IQ-SD","postcode":"04002","country":"العراق","country_code":"iq"},"population":348700,"osm_type":"node","osm_id":2480261764,"type":"city","location":[43.9,34.2],"bbox":[43.74,34.04,44.06,34.36]}
{"name":"سدة الهندية","other_names":{"name:ar":"سدة الهندية","name:de":"Saddat al Hindiyah","name:en":"Saddat al Hindiyah","name:fr":"Saddat al Hindiyah","name:ml":"സദ്ദത്ത് അൽ ഹിന്ദിയ","alt_name":"Nāḩiyat Saddat al Hindīyah, Nāḩīyat Saddat al Hindīyah, ناحية سدة الهندية, Nahiyat Saddat al Hindiyah, Nahiyat Saddat al Hindiyah, ناحية سدة الهندية","int_name":"Saddat al Hindīyah - سدة الهندية"},"display_name":"سدة الهندية, ناحية سدة الهندية, قضاء المسيب, محافظة بابل, 51006, العراق","address":{"city":"سدة الهندية","subdistrict":"ناحية سدة الهندية","district":"قضاء المسيب","state":"محافظة بابل","ISO3166-2-lvl4":"IQ-BB","postcode":"51006","country":"العراق","country_code":"iq"},"osm_type":"node","osm_id":2480086535,"type":"city","location":[44.279276,32.7151355],"bbox":[44.119276,32.5551355,44.439276,32.8751355]}
{"name":"سلێمانی","other_names":{"name:ar":"السليمانية","name:bn":"সুলায়মানিয়া","name:cs":"Sulejmánie","name:de":"Sulaimaniyya","name:en":"Sulaymaniyah","name:es":"Solimania","name:et":"As-Sulaymānīyah","name:eu":"Sulaimaniya","name:fa":"سلیمانیه","name:fi":"Sulaimaniyya","name:fr":"Souleimaniye","name:he":"סולימניה","name:hi":"सुलेमानिया","name:hr":"Sulejmanija","name:ja":"スレイマニヤ","name:ku":"Silêmanî","name:ml":"സുലൈമാനിയ","name:nl":"Sulaymaniyah","name:pl":"As-Sulajmanijja","name:ru":"Сулеймания","name:te":"సులేమానియా","name:tr":"Süleymaniye","name:tt":"Сөләймания","name:uk":"Сулейманія","alt_name":"Silêmanî","int_name":"Al Sulaimaniya, As Sulaymānīyah, Sleimāni, Slēmānī, Sulaimania, Sulaimanieh, Sulaimaniya, Sulaimany, Sulaymānīyah, السليمانية, As Sulaymaniyah, Sleimani, Slemani, Sulaimania, Sulaimanieh, Sulaimaniya, Sulaimany, Sulaymaniyah, سلێمانی","name:ckb":"سلێمانی","alt_name:cs":"Sulajmáníja","alt_name:ml":"സിലേമാനി"},"display_name":"سلێمانی, ناحیەی بەکرەجۆ, قەزای سلێمانی, پارێزگای سلێمانی, هەرێمی کوردستان, 46001, العراق","address":{"city":"سلێمانی","subdistrict":"ناحیەی بەکرەجۆ","district":"قەزای سلێمانی","state":"پارێزگای سلێمانی","ISO3166-2-lvl4":"IQ-SU","region":"هەرێمی کوردستان","ISO3166-2-lvl3":"IQ-KR","postcode":"46001","country":"العراق","country_code":"iq"},"population":823199,"osm_type":"node","osm_id":663060430,"type":"city","location":[45.4425963,35.5570501],"bbox":[45.2825963,35.3970501,45.6025963,35.7170501]}
{"name":"سومر","other_names":{"name:ar":"سومر","name:de":"Sumar","name:en":"Sumar","name:fa":"سومر","name:fr":"Sumar","name:ml":"സൂമർ","alt_name":"Sūmar, ناحية سومر, Nahiyat Sumar, ناحية سومر"},"display_name":"سومر, ناحية سومر, قضاء عفك, محافظة القادسية, العراق","address":{"city":"سومر","subdistrict":"ناحية سومر","district":"قضاء عفك","state":"محافظة القادسية","ISO3166-2-lvl4":"IQ-QA","country":"العراق","country_code":"iq"},"osm_type":"node","osm_id":2485242294,"type":"city","location":[44.9991846,32.1512878],"bbox":[44.8391846,31.9912878,45.1591846,32.3112878]}
{"name":"سۆران","other_names":{"name:en":"Soran district","name:ar":"سوران","name:es":"Soran","name:fa":"سوران","name:fr":"Soran","name:ks":"سوران","name:ku":"Soran","name:ml":"സോറാൻ","name:tr":"Soran","name:ur":"سوران","name:azb":"سوران","name:ckb":"سۆران","name:kmr":"سۆران","name:sdh":"سۆران","alt_name:ar":"ديانا","alt_name:en":"Diana","alt_name:ckb":"دیانە","alt:en":"Soran"},"display_name":"سۆران, ناحیەی ناوەندەکەی قەزای سۆران, قەزای سۆران, پارێزگای ھەولێر, هەرێمی کوردستان, العراق","address":{"town":"سۆران","subdistrict":"ناحیەی ناوەندەکەی قەزای سۆران","district":"قەزای سۆران","state":"پارێزگای ھەولێر","ISO3166-2-lvl4":"IQ-AR","region":"هەرێمی کوردستان","ISO3166-2-lvl3":"IQ-KR","country":"العراق","country_code":"iq"},"population":125000,"osm_type":"way","osm_id":512266233,"type":"city","location":[44.5422044,36.6554768],"bbox":[44.4977041,36.6311973,44.5669248,36.6693421]}
{"name":"قالاوە ٤٠٥","other_names":{"name:ckb":"قالاوە ٤٠٥"},"display_name":"قالاوە ٤٠٥, ناحیەی بەکرەجۆ, قەزای سلێمانی, پارێزگای سلێمانی, هەرێمی کوردستان, العراق","address":{"city":"قالاوە ٤٠٥","subdistrict":"ناحیەی بەکرەجۆ","district":"قەزای سلێمانی","state":"پارێزگای سلێمانی","ISO3166-2-lvl4":"IQ-SU","region":"هەرێمی کوردستان","ISO3166-2-lvl3":"IQ-KR","country":"العراق","country_code":"iq"},"osm_type":"way","osm_id":415001255,"type":"administrative","location":[45.41542671990268,35.5489284],"bbox":[45.4092914,35.5454983,45.4206631,35.5526786],"inferred_type":"city","border":{"name":"قالاوە ٤٠٥","display_name":"قالاوە ٤٠٥, ناحیەی بەکرەجۆ, قەزای سلێمانی, پارێزگای سلێمانی, هەرێمی کوردستان, العراق","address":{"city_district":"قالاوە ٤٠٥","city":"قالاوە ٤٠٥","subdistrict":"ناحیەی بەکرەجۆ","district":"قەزای سلێمانی","state":"پارێزگای سلێمانی","ISO3166-2-lvl4":"IQ-SU","region":"هەرێمی کوردستان","ISO3166-2-lvl3":"IQ-KR","country":"العراق","country_code":"iq"},"osm_type":"relation","osm_id":18197326,"type":"administrative","location":[45.41542671990268,35.5489284],"bbox":[45.4092914,35.5454983,45.4206631,35.5526786]}}
{"name":"قوشته‌په‌","other_names":{"name:en":"Qushtapa","name:fa":"قوش‌تپه","name:ckb":"قوشته‌په‌"},"display_name":"قوشته‌په‌, ناحیەی قوشتەپە, قەزای قوشتەپە, پارێزگای ھەولێر, هەرێمی کوردستان, العراق","address":{"city":"قوشته‌په‌","subdistrict":"ناحیەی قوشتەپە","county":"قەزای قوشتەپە","state":"پارێزگای ھەولێر","ISO3166-2-lvl4":"IQ-AR","region":"هەرێمی کوردستان","ISO3166-2-lvl3":"IQ-KR","country":"العراق","country_code":"iq"},"osm_type":"way","osm_id":1332407212,"type":"city","location":[44.043553597561186,35.98393255],"bbox":[44.0044297,35.9132772,44.1038729,36.0400641]}
{"name":"كربلاء","other_names":{"name:ar":"كربلاء","name:az":"name:az","name:cs":"Karbalá","name:de":"Karbala","name:en":"Karbala","name:es":"Karbalá","name:et":"Karbalā","name:eu":"Karbala","name:fa":"کربلا","name:fi":"Karbala","name:fr":"Karbala","name:he":"כרבלה","name:ja":"カルバラー","name:ko":"카르발라","name:tr":"Kerbelâ","name:arc":"name:arc","name:syc":"ܟܪܒܠܐܐ"},"display_name":"كربلاء, ناحية مرکز قضاء الکربلاء, قضاء کربلاء, محافظة كربلاء, 56001, العراق","address":{"city":"كربلاء","subdistrict":"ناحية مرکز قضاء الکربلاء","district":"قضاء کربلاء","state":"محافظة كربلاء","ISO3166-2-lvl4":"IQ-KA","postcode":"56001","country":"العراق","country_code":"iq"},"osm_type":"node","osm_id":12754635751,"type":"city","location":[44.0157931,32.5984057],"bbox":[43.8557931,32.4384057,44.1757931,32.7584057],"border":{"name":"كربلاء","other_names":{"name:ar":"كربلاء","name:de":"Kerbela","name:en":"Karbala","name:fa":"کربلا","name:fr":"Kerbala","name:he":"כרבלא","name:hi":"करबला","name:ja":"カルバラー","name:ru":"Кербела","name:tr":"Kerbelâ","name:zh":"卡爾巴拉","name:az":"name:az","name:cs":"Karbalá","name:es":"Karbalá","name:et":"Karbalā","name:eu":"Karbala","name:fi":"Karbala","name:ko":"카르발라","name:arc":"name:arc","name:syc":"ܟܪܒܠܐܐ","alt:de":"Karbala","alt:fr":"Karbala","alt:he":"כרבלה"},"display_name":"كربلاء, ناحية مرکز قضاء الکربلاء, قضاء کربلاء, محافظة كربلاء, العراق","address":{"city":"كربلاء","subdistrict":"ناحية مرکز قضاء الکربلاء","district":"قضاء کربلاء","state":"محافظة كربلاء","ISO3166-2-lvl4":"IQ-KA","country":"العراق","country_code":"iq"},"osm_type":"way","osm_id":1040938006,"type":"city","location":[44.0157931,32.5984057],"bbox":[43.946195,32.5227299,44.1042555,32.6604927]}}
{"name":"كركوك","other_names":{"name:ar":"كركوك","name:bn":"কিরকুক","name:cs":"Kirkúk","name:da":"Kirkuk","name:de":"Kirkuk","name:el":"Κιρκούκ","name:en":"Kirkuk","name:et":"Kirkūk","name:eu":"Kirkuk","name:fa":"کرکوک","name:fi":"Kirkuk","name:fr":"Kirkouk","name:he":"כירכוכ","name:hi":"अत तमीम (किरकुक)","name:hr":"Kirkuk","name:hy":"Քիրքուք","name:ja":"キルクーク","name:kn":"ಕಿರ್ಕುಕ್","name:ko":"키르쿠크","name:ks":"کرکوک","name:ku":"Kerkûk","name:ml":"കിർക്കുക്ക്","name:pl":"Kirkuk","name:ru":"Киркук","name:sv":"Kirkuk","name:te":"కిర్కుక్","name:tr":"Kerkük","name:tt":"Кәркүк","name:uk":"Кіркук","name:ur":"کرکوک","name:arc":"ܟܪܟ ܣܠܘܟ","name:arz":"كركوك","name:azb":"کرکوک","name:ckb":"کەرکووک","name:diq":"Kerkûk","name:hyw":"Քերքուք","name:kmr":"کەرکووک","name:mzn":"کرکوک","name:ota":"کرکوک","name:pnb":"کرکوک","name:sdh":"کەرکووک","name:syc":"ܟܪܟ ܣܠܘܟ","alt_name:ckb":"باوەگوڕگوڕ","alt_name:syc":"ܟܪܟܘܟ","name:az-Arab":"کرکوک","name:kk-Arab":"كىيركۋك"},"display_name":"كركوك, ناحية مرکز قضاء كركوك, قضاء كركوك, محافظة كركوك, 36001, العراق","address":{"city":"كركوك","subdistrict":"ناحية مرکز قضاء كركوك","district":"قضاء كركوك","state":"محافظة كركوك","ISO3166-2-lvl4":"IQ-KI","postcode":"36001","country":"العراق","country_code":"iq"},"population":850787,"osm_type":"node","osm_id":248436981,"type":"city","location":[44.3953896,35.4719308],"bbox":[44.2353896,35.3119308,44.5553896,35.6319308]}
{"name":"کەلار","other_names":{"name:ar":"كلار","name:az":"Kelar","name:de":"Kalar","name:en":"Kalar","name:fa":"کلار","name:fr":"Kalar","name:hi":"कलार","name:hy":"Կալար","name:ja":"カラール","name:ka":"კალარი","name:ko":"칼라르","name:ku":"Kelar","name:ml":"കലാർ","name:nl":"Kalar","name:ru":"Келлар","name:tk":"Kelar","name:tr":"Kelar","name:zh":"卡拉尔","int_name":"Kalar","name:ckb":"کەلار","name:lrc":"کلار","name:syr":"ܟܠܐܪ","name:az-Arab":"کلار","name:zh-Hans":"卡拉尔"},"display_name":"کەلار, ناحیەی ناوەندی قەزای کەلار, قەزای کەلار, پارێزگای سلێمانی, هەرێمی کوردستان, 46021, العراق","address":{"city":"کەلار","subdistrict":"ناحیەی ناوەندی قەزای کەلار","district":"قەزای کەلار","state":"پارێزگای سلێمانی","ISO3166-2-lvl4":"IQ-SU","region":"هەرێمی کوردستان","ISO3166-2-lvl3":"IQ-KR","postcode":"46021","country":"العراق","country_code":"iq"},"population":250000,"osm_type":"node","osm_id":599486131,"type":"city","location":[45.3176622,34.6312629],"bbox":[45.1576622,34.4712629,45.4776622,34.7912629]}
{"name":"معسكر أشرف","other_names":{"name:en":"Camp Ashraf","int_name":"Camp Ashraf","alt_name:en":"Ashraf City;Camp Hurriya"},"display_name":"معسكر أشرف, ناحية سد العظيم, قضاء الخالص, محافظة ديالى, العراق","address":{"city":"معسكر أشرف","subdistrict":"ناحية سد العظيم","district":"قضاء الخالص","state":"محافظة ديالى","ISO3166-2-lvl4":"IQ-DI","country":"العراق","country_code":"iq"},"osm_type":"way","osm_id":309757786,"type":"administrative","location":[44.60053795836058,34.04740325],"bbox":[44.5682188,34.028297,44.6328049,34.0836789],"inferred_type":"city"}
{"display_name":"ناحیەی زاویتە, قەزای دهۆک, پارێزگای دھۆک, هەرێمی کوردستان, 44032, العراق","address":{"subdistrict":"ناحیەی زاویتە","district":"قەزای دهۆک","province":"پارێزگای دھۆک","ISO3166-2-lvl4":"IQ-DA","region":"هەرێمی کوردستان","ISO3166-2-lvl3":"IQ-KR","postcode":"44032","country":"العراق","country_code":"iq"},"osm_type":"node","osm_id":11908857526,"type":"city","location":[43.0042466,36.8754408],"bbox":[42.8442466,36.7154408,43.1642466,37.0354408]}
{"name":"هيت","other_names":{"name:ar":"هيت‎","name:de":"Hīt","name:en":"Hit","name:fa":"هیت","name:fr":"Hit","name:hi":"हीत","name:hr":"Hit","name:ko":"히트","name:ku":"Hît","name:ml":"ഹീത്ത്","name:ru":"Хит","name:tr":"Hit","int_name":"Heet, هيت‎","name:ckb":"هیت","alt_name:en":"Heet"},"display_name":"هيت, ناحية مرکز قضاء هيت, قضاء هيت, محافظة الأنبار, العراق","address":{"city":"هيت","subdistrict":"ناحية مرکز قضاء هيت","district":"قضاء هيت","state":"محافظة الأنبار","ISO3166-2-lvl4":"IQ-AN","country":"العراق","country_code":"iq"},"population":95800,"osm_type":"node","osm_id":1936469536,"type":"city","location":[42.8278537,33.6387394],"bbox":[42.6678537,33.4787394,42.9878537,33.7987394]}
{"name":"ھەڵەبجە","other_names":{"name:ar":"حلبجة","name:bn":"হালাবজা","name:cs":"Halabdža","name:de":"Halabdscha","name:en":"Halabja","name:es":"Halabja","name:fa":"حلبچه","name:fr":"Halabja","name:hi":"हलाब्जा","name:hr":"Halabdža","name:ja":"ハラブジャ","name:ku":"Hellebce","name:ml":"ഹലബ്ജ","name:pl":"Halabdża","name:ru":"Халабджа","name:tr":"Halepçe","name:uk":"Халабджа","alt_name":"هەڵەبجە","int_name":"Halabja","name:ckb":"ھەڵەبجە","alt_name:ku":"Helebce"},"display_name":"ھەڵەبجە, قەزای ھەڵەبجە, قەزای هەڵەبجە, پارێزگای ھەڵەبجە, هەرێمی کوردستان, 46006, العراق","address":{"city":"ھەڵەبجە","district":"قەزای ھەڵەبجە","county":"قەزای هەڵەبجە","state":"پارێزگای ھەڵەبجە","region":"هەرێمی کوردستان","ISO3166-2-lvl3":"IQ-KR","postcode":"46006","country":"العراق","country_code":"iq"},"population":145700,"osm_type":"node","osm_id":598253294,"type":"city","location":[45.9873683,35.1792062],"bbox":[45.8273683,35.0192062,46.1473683,35.3392062]}
{"name":"ھەولێر","other_names":{"name:af":"Arbil","name:ar":"أربيل","name:az":"Ərbil","name:be":"Эрбіль","name:bg":"Арбил","name:bn":"আর্বিল","name:br":"Hewlêr","name:bs":"Erbil","name:ca":"Arbela","name:ce":"Эрбиль","name:cs":"Irbíl","name:da":"Arbil","name:de":"Erbil","name:el":"Ερμπίλ","name:en":"Erbil","name:eo":"Arbil","name:es":"Erbil","name:et":"Arbīl","name:eu":"Arbil","name:fa":"اربیل","name:fi":"Arbil","name:fr":"Erbil","name:gl":"Arbil","name:he":"ארביל","name:hi":"अरबील","name:hr":"Arbil","name:hu":"Erbíl","name:hy":"Էրբիլ","name:ia":"Erbil","name:id":"Arbil","name:ie":"Erbil","name:is":"Arbil","name:it":"Erbil","name:ja":"アルビール","name:jv":"Erbil","name:ka":"ერბილი","name:kk":"Эрбиль","name:ko":"아르빌","name:ks":"اربل","name:ku":"هەولێر","name:la":"Arbela","name:lt":"Erbilis","name:lv":"Erbīla","name:mi":"Āpiri","name:ml":"അർബീൽ","name:mr":"अर्बिल","name:ms":"Arbil","name:nb":"Arbil","name:nl":"Erbil","name:nn":"Arbil","name:no":"Arbil","name:os":"Эрбиль","name:pa":"ਅਰਬੀਲ","name:pl":"Irbil","name:ps":"اربیل","name:pt":"Arbil","name:ro":"Arbil","name:ru":"Эрбиль","name:sh":"Arbil","name:sk":"Arbíl","name:sl":"Arbil","name:so":"Erbil","name:sq":"Erbili","name:sr":"Ербил","name:sv":"Erbil","name:ta":"அர்பில்","name:te":"ఎర్బిల్","name:th":"อัรบีล","name:tr":"Erbil","name:tt":"Әрбил","name:ug":"ئەربىل","name:uk":"Ербіль","name:ur":"اربل","name:uz":"Erbil","name:vi":"Erbil","name:zh":"阿尔贝拉","alt_name":"ھەولێر","name:arc":"ܐܪܒܝܠ","name:arz":"اربيل","name:azb":"اربیل","name:bcl":"Erbil","name:ceb":"Erbil","name:ckb":"ھەولێر","name:diq":"Erbil","name:kmr":"Hewlêr","name:lmo":"Arbil","name:mzn":"اربل","name:pms":"Erbil","name:pnb":"اربل","name:sco":"Arbil","name:sdh":"هەولێر","name:syc":"ܐܪܒܝܠ","name:szl":"Irbil","name:tly":"Ərbil","name:war":"Arbil","name:wuu":"埃尔比勒","alt_name:ar":"إربل;هولير;اربيل","alt_name:cs":"Erbíl","alt_name:en":"Arbil;Hawler","alt_name:ku":"Hevlêr","alt_name:ml":"എർബിൽ;ഹവ്ലേർ","name:zh_yue":"艾比爾","alt_name:arc":"ܡܕܝܢܬܐ ܕܐܪܒܝܠ","alt_name:syc":"ܡܕܝܢܬܐ ܕܐܪܒܝܠ"},"display_name":"ھەولێر, ناحیەی ناوەندی هەولێر, قەزای ناوەندی هەولێر, پارێزگای ھەولێر, هەرێمی کوردستان, 44001, العراق","address":{"city":"ھەولێر","subdistrict":"ناحیەی ناوەندی هەولێر","district":"قەزای ناوەندی هەولێر","state":"پارێزگای ھەولێر","ISO3166-2-lvl4":"IQ-AR","region":"هەرێمی کوردستان","ISO3166-2-lvl3":"IQ-KR","postcode":"44001","country":"العراق","country_code":"iq"},"population":1713461,"osm_type":"node","osm_id":599019138,"type":"city","location":[44.0094145,36.1911744],"bbox":[43.8494145,36.0311744,44.1694145,36.3511744]}
