{"name":"Bridgetown","other_names":{"name:am":"ብርጅታውን","name:ar":"بريدج تاون","name:az":"Brictaun","name:be":"Брыджтаўн","name:bg":"Бриджтаун","name:bo":"པུ་རུའི་ཀྲི་ཐོན།","name:br":"Bridgetown","name:ca":"Bridgetown","name:da":"Bridgetown","name:de":"Bridgetown","name:el":"Μπριτζτάουν","name:en":"Bridgetown","name:es":"Bridgetown","name:fa":"بریج‌تاون","name:fr":"Bridgetown","name:he":"ברידג'טאון","name:ht":"Brijtòn","name:hu":"Bridgetown","name:hy":"Բրիջթաուն","name:ja":"ブリッジタウン","name:ka":"ბრიჯტაუნი","name:ko":"브리지타운","name:ku":"Brîc tawn","name:lt":"Bridžtaunas","name:lv":"Bridžtauna","name:mk":"Бриџтаун","name:mr":"ब्रिजटाउन","name:nb":"Bridgetown","name:os":"Бриджтаун","name:pl":"Bridgetown","name:ru":"Бриджтаун","name:sq":"Brixhtaun","name:sr":"Бриџтаун","name:sv":"Bridgetown","name:ta":"பிரிஜ்டவுண்","name:th":"บริดจ์ทาวน์","name:tr":"Bridgetown","name:uk":"Бриджтаун","name:ur":"برج ٹاؤن","name:zh":"布里奇敦","name:ckb":"بریج تاون","name:gcf":"Brijtòn","name:sah":"Бридьтаун","name:be-tarask":"Брыджтаўн"},"display_name":"Bridgetown, Saint Michael, Barbados","address":{"city":"Bridgetown","town":"Bridgetown","county":"Saint Michael","ISO3166-2-lvl6":"BB-08","country":"Barbados","country_code":"bb"},"population":110000,"osm_type":"node","osm_id":246518890,"type":"city","location":[-59.6184184,13.0977832],"bbox":[-59.7784184,12.9377832,-59.4584184,13.2577832],"border":{"name":"Bridgetown","other_names":{"name:en":"Bridgetown","name:am":"ብርጅታውን","name:ar":"بريدج تاون","name:az":"Brictaun","name:be":"Брыджтаўн","name:bg":"Бриджтаун","name:bo":"པུ་རུའི་ཀྲི་ཐོན།","name:br":"Bridgetown","name:ca":"Bridgetown","name:da":"Bridgetown","name:de":"Bridgetown","name:el":"Μπριτζτάουν","name:es":"Bridgetown","name:fa":"بریج‌تاون","name:fr":"Bridgetown","name:he":"ברידג'טאון","name:ht":"Brijtòn","name:hu":"Bridgetown","name:hy":"Բրիջթաուն","name:ja":"ブリッジタウン","name:ka":"ბრიჯტაუნი","name:ko":"브리지타운","name:ku":"Brîc tawn","name:lt":"Bridžtaunas","name:lv":"Bridžtauna","name:mk":"Бриџтаун","name:mr":"ब्रिजटाउन","name:nb":"Bridgetown","name:os":"Бриджтаун","name:pl":"Bridgetown","name:ru":"Бриджтаун","name:sq":"Brixhtaun","name:sr":"Бриџтаун","name:sv":"Bridgetown","name:ta":"பிரிஜ்டவுண்","name:th":"บริดจ์ทาวน์","name:tr":"Bridgetown","name:uk":"Бриджтаун","name:ur":"برج ٹاؤن","name:zh":"布里奇敦","name:ckb":"بریج تاون","name:gcf":"Brijtòn","name:sah":"Бридьтаун","name:be-tarask":"Брыджтаўн"},"display_name":"Bridgetown, Saint Michael, Barbados","address":{"town":"Bridgetown","county":"Saint Michael","ISO3166-2-lvl6":"BB-08","country":"Barbados","country_code":"bb"},"population":110000,"osm_type":"relation","osm_id":7751694,"type":"administrative","location":[-59.6184184,13.0977832],"bbox":[-59.632993,13.0767113,-59.599462,13.1089012]}}
