{"name":"Alatsinainy Ialamarina","other_names":{"name:fr":"Alatsinainy Ialamarina"},"display_name":"Alatsinainy Ialamarina, District de Lalangina, Matsiatra Ambony, Province de Fianarantsoa, Madagasikara / Madagascar","address":{"city":"Alatsinainy Ialamarina","county":"District de Lalangina","state":"Matsiatra Ambony","ISO3166-2-lvl3":"MG-F","country":"Madagasikara / Madagascar","country_code":"mg"},"osm_type":"relation","osm_id":18131200,"type":"administrative","location":[47.37850944201233,-21.47152945],"bbox":[47.2650504,-21.5797194,47.4324151,-21.3625327],"inferred_type":"city"}
{"name":"Ambalarondra","other_names":{"name:fr":"Ambalarondra","name:mg":"Ambalarondra"},"display_name":"Ambalarondra, District de Brickaville, Atsinanana, Province de Tamatave, Madagasikara / Madagascar","address":{"city":"Ambalarondra","county":"District de Brickaville","state":"Atsinanana","ISO3166-2-lvl3":"MG-A","country":"Madagasikara / Madagascar","country_code":"mg"},"osm_type":"relation","osm_id":8073936,"type":"administrative","location":[49.02388288640406,-18.48556655],"bbox":[48.9306822,-18.6041,49.1221522,-18.3670436],"inferred_type":"city"}
{"name":"Ambatosoa","other_names":{"name:fr":"Ambatosoa"},"display_name":"Ambatosoa, District d'Ambohimahasoa, Matsiatra Ambony, Province de Fianarantsoa, Madagasikara / Madagascar","address":{"city":"Ambatosoa","county":"District d'Ambohimahasoa","state":"Matsiatra Ambony","ISO3166-2-lvl3":"MG-F","country":"Madagasikara / Madagascar","country_code":"mg"},"osm_type":"relation","osm_id":18101106,"type":"administrative","location":[47.26515228724549,-20.9942749],"bbox":[47.1820306,-21.076091,47.3556042,-20.9116528],"inferred_type":"city"}
{"name":"Ambinaninony","other_names":{"name:fr":"Ambinaninony","name:mg":"Ambinaninony"},"display_name":"Ambinaninony, District de Brickaville, Atsinanana, Province de Tamatave, Madagasikara / Madagascar","address":{"city":"Ambinaninony","county":"District de Brickaville","state":"Atsinanana","ISO3166-2-lvl3":"MG-A","country":"Madagasikara / Madagascar","country_code":"mg"},"osm_type":"relation","osm_id":8073942,"type":"administrative","location":[49.169567422671406,-18.580576100000002],"bbox":[49.0757353,-18.7352804,49.2968422,-18.4260652],"inferred_type":"city"}
{"name":"Ambinaniroa","other_names":{"name:fr":"Ambinaniroa","alt_name":"Ambinaniroa Andonaka"},"display_name":"Ambinaniroa, District d'Ambalavao, Matsiatra Ambony, Province de Fianarantsoa, Madagasikara / Madagascar","address":{"city":"Ambinaniroa","county":"District d'Ambalavao","state":"Matsiatra Ambony","ISO3166-2-lvl3":"MG-F","country":"Madagasikara / Madagascar","country_code":"mg"},"osm_type":"relation","osm_id":18106564,"type":"administrative","location":[46.50291879452752,-21.9393849],"bbox":[46.3588587,-22.1277263,46.6344158,-21.7506759],"inferred_type":"city"}
{"name":"Ambohimanana","other_names":{"name:fr":"Ambohimanana","name:mg":"Ambohimanana"},"display_name":"Ambohimanana, District de Brickaville, Atsinanana, Province de Tamatave, Madagasikara / Madagascar","address":{"city":"Ambohimanana","county":"District de Brickaville","state":"Atsinanana","ISO3166-2-lvl3":"MG-A","country":"Madagasikara / Madagascar","country_code":"mg"},"osm_type":"relation","osm_id":8073928,"type":"administrative","location":[48.627492165232354,-18.49461145],"bbox":[48.4696393,-18.6834035,48.8120976,-18.3060148],"inferred_type":"city"}
{"name":"Ambohimanga Du Sud","other_names":{"name:fr":"Ambohimanga Du Sud"},"display_name":"Ambohimanga Du Sud, District d'Ifanadiana, Vatovavy, Province de Fianarantsoa, Madagasikara / Madagascar","address":{"city":"Ambohimanga Du Sud","county":"District d'Ifanadiana","state":"Vatovavy","ISO3166-2-lvl3":"MG-F","country":"Madagasikara / Madagascar","country_code":"mg"},"osm_type":"relation","osm_id":8256298,"type":"administrative","location":[47.61997839781995,-20.868461449999998],"bbox":[47.5471592,-21.00055,47.6984013,-20.7362848],"inferred_type":"city"}
{"name":"Ampatsy Ampangabe","other_names":{"name:fr":"Ampatsy Ampangabe"},"display_name":"Ampatsy Ampangabe, District de Lalangina, Matsiatra Ambony, Province de Fianarantsoa, Madagasikara / Madagascar","address":{"city":"Ampatsy Ampangabe","county":"District de Lalangina","state":"Matsiatra Ambony","ISO3166-2-lvl3":"MG-F","country":"Madagasikara / Madagascar","country_code":"mg"},"osm_type":"relation","osm_id":18131201,"type":"administrative","location":[47.376509048076855,-21.5623783],"bbox":[47.3248021,-21.6061154,47.4213606,-21.519276],"inferred_type":"city"}
{"name":"Andranobory","display_name":"Andranobory, District de Tôlanaro, Anosy, Province de Toliara, Madagasikara / Madagascar","address":{"city":"Andranobory","district":"District de Tôlanaro","state":"Anosy","region":"Province de Toliara","ISO3166-2-lvl3":"MG-U","country":"Madagasikara / Madagascar","country_code":"mg"},"population":8256,"osm_type":"relation","osm_id":3720781,"type":"administrative","location":[46.58825357552571,-25.1322772],"bbox":[46.5084395,-25.1988958,46.6595637,-25.0650482],"inferred_type":"city"}
{"name":"Anjahamana","other_names":{"name:fr":"Anjahamana","name:mg":"Anjahamana"},"display_name":"Anjahamana, District de Brickaville, Atsinanana, Province de Tamatave, Madagasikara / Madagascar","address":{"city":"Anjahamana","county":"District de Brickaville","state":"Atsinanana","ISO3166-2-lvl3":"MG-A","country":"Madagasikara / Madagascar","country_code":"mg"},"osm_type":"relation","osm_id":8073929,"type":"administrative","location":[48.9139576040923,-18.32676475],"bbox":[48.7937653,-18.5070701,49.0375741,-18.1457866],"inferred_type":"city"}
{"name":"Ankafina-Tsarafidy","other_names":{"name:fr":"Ankafina-Tsarafidy"},"display_name":"Ankafina-Tsarafidy, District d'Ambohimahasoa, Matsiatra Ambony, Province de Fianarantsoa, Madagasikara / Madagascar","address":{"city":"Ankafina-Tsarafidy","county":"District d'Ambohimahasoa","state":"Matsiatra Ambony","ISO3166-2-lvl3":"MG-F","country":"Madagasikara / Madagascar","country_code":"mg"},"osm_type":"relation","osm_id":18101457,"type":"administrative","location":[47.226976224627684,-21.22360145],"bbox":[47.1663237,-21.2843159,47.2938064,-21.1626219],"inferred_type":"city"}
{"name":"Antananarivo","other_names":{"name:af":"Antananarivo","name:am":"አንታናናሪቮ","name:an":"Antananarivo","name:ar":"أنتاناناريفو","name:az":"Antananarivu","name:ba":"Антананариву","name:be":"Антананарыву","name:bg":"Антананариво","name:bn":"আন্তানানারিভো","name:bo":"ཨེན་ཊ་ན་ན་རི་བོ།","name:br":"Antananarivo","name:bs":"Antananarivo","name:ca":"Antananarivo","name:ce":"Антананариву","name:cs":"Antananarivo","name:cy":"Antananarivo","name:da":"Antananarivo","name:de":"Antananarivo","name:el":"Ανταναναρίβο","name:en":"Antananarivo","name:eo":"Antananarivo","name:es":"Antananarivo","name:et":"Antananarivo","name:eu":"Antananarivo","name:fa":"آنتاناناریوو","name:fi":"Antananarivo","name:fj":"Antananarivo","name:fr":"Antananarivo","name:fy":"Antananarivo","name:ga":"Antananairíveo","name:gd":"Antananarivo","name:gl":"Antananarivo","name:gv":"Antananarivo","name:ha":"Antananarivo","name:he":"אנטננריבו","name:hi":"अन्टाननरीवो","name:hr":"Antananarivo","name:ht":"Antananarivo","name:hu":"Antananarivo","name:hy":"Անտանանարիվու","name:ia":"Antananarivo","name:id":"Antananarivo","name:ie":"Antananarivo","name:io":"Antananarivo","name:is":"Antananarívó","name:it":"Antananarivo","name:ja":"アンタナナリボ","name:jv":"Antananarivo","name:ka":"ანტანანარივუ","name:kg":"Antananarivo","name:kk":"Антананариву","name:kn":"ಅನ್ಟಾನನರೀವೋ","name:ko":"안타나나리보","name:ku":"Antananarivo","name:kw":"Antananarivo","name:ky":"Антананариву","name:la":"Antananarivo","name:lb":"Antananarivo","name:lt":"Antananaryvas","name:lv":"Antananarivu","name:mg":"Antananarivo","name:mi":"Antananarivo","name:mk":"Антананариво","name:ml":"ആന്റനനറീവൊ","name:mn":"Антананариву","name:mr":"अंतानानारिव्हो","name:ms":"Antananarivo","name:nl":"Antananarivo","name:nn":"Antananarivo","name:no":"Antananarivo","name:oc":"Antananarivo","name:os":"Антананариву","name:pa":"ਅੰਤਾਨਾਨਾਰੀਵੋ","name:pl":"Antananarywa","name:ps":"آنتاناناریوو","name:pt":"Antananarivo","name:ro":"Antananarivo","name:ru":"Антананариву","name:rw":"Antananarivo","name:sc":"Antananarivo","name:sh":"Antananarivo","name:sk":"Antananarivo","name:sl":"Antananarivo","name:sn":"Antananarivo","name:so":"Antananarifo","name:sq":"Antananarivo","name:sr":"Антананариво","name:sv":"Antananarivo","name:sw":"Antananarivo","name:ta":"அண்டனானரீவோ","name:tg":"Антананариву","name:th":"อันตานานาริโว","name:tl":"Antananarivo","name:tr":"Antananarivo","name:uk":"Антананаріву","name:ur":"اینٹانانیریو","name:uz":"Antananarivu","name:vi":"Antananarivo","name:wo":"Antananariwo","name:yi":"אנטאנאנאריווא","name:yo":"Antananarivo","name:zh":"塔那那利佛","name:zu":"Antananarivo","loc_name":"Tana","name:ast":"Antananarivu","name:avk":"Antananarivo","name:azb":"آنتاناناریوو","name:cdo":"Antananarivo","name:ceb":"Antananarivo","name:ckb":"ئانتاناناریڤۆ","name:diq":"Antananarivo","name:frr":"Antananarivo","name:hak":"Antananarivo","name:hsb":"Antananarivo","name:kaa":"Antananarivo","name:kbp":"Antananarivo","name:lfn":"Antananarivo","name:lij":"Antananarïvo","name:lmo":"Antananarivo","name:mrj":"Антананариву","name:nah":"Antananarivo","name:nap":"Antananarivo","name:nds":"Antananarivo","name:olo":"Antananarivu","name:pap":"Antananarivo","name:pms":"Antananarivo","name:pnb":"انٹاناناریوو","name:sco":"Antananarivo","name:smn":"Antananarivo","name:szl":"Antananarivo","name:udm":"Антананариву","name:vec":"Antananarivo","name:vep":"Antananarivu","name:vro":"Antananarivo","name:war":"Antananarivo","name:wuu":"塔那那利佛","name:xmf":"ანტანანარივუ","name:yue":"安塔那那利佛","old_name":"Tananarive","name:simple":"Antananarivo","name:be-tarask":"Антананарыву","name:zh_min_nan":"Antananarivo"},"display_name":"Antananarivo, Analamanga, Province d’Antananarivo, 101, Madagasikara / Madagascar","address":{"city":"Antananarivo","state":"Analamanga","ISO3166-2-lvl3":"MG-T","postcode":"101","country":"Madagasikara / Madagascar","country_code":"mg"},"population":1274225,"osm_type":"node","osm_id":27565116,"type":"city","location":[47.5255809,-18.9100122],"bbox":[47.3655809,-19.0700122,47.6855809,-18.7500122]}
{"name":"Antsirabe","other_names":{"name:ar":"أنتسيرابي","name:de":"Antsirabe","name:it":"Antsirabe","name:ja":"アンツィラベ","name:ko":"안치라베","name:ru":"Анцирабе","name:zh":"安齐拉贝"},"display_name":"Antsirabe, Vakinankaratra, Province d’Antananarivo, 110, Madagasikara / Madagascar","address":{"city":"Antsirabe","state":"Vakinankaratra","ISO3166-2-lvl3":"MG-T","postcode":"110","country":"Madagasikara / Madagascar","country_code":"mg"},"population":246354,"osm_type":"node","osm_id":300272255,"type":"city","location":[47.034667,-19.871403],"bbox":[46.874667,-20.031403,47.194667,-19.711403]}
{"name":"Antsiranana","other_names":{"name:fr":"Antsiranana","name:ja":"アンツィラナナ","name:ko":"안치라나나","name:ru":"Анциранана","name:zh":"安齐拉纳纳","loc_name":"Diégo","old_name":"Diégo-Suarez","name:zh-Hans":"安齐拉纳纳","name:zh-Hant":"安齊拉納納"},"display_name":"Antsiranana, District de Antsiranana I, Diana, Province d'Antsiranana, Madagasikara / Madagascar","address":{"city":"Antsiranana","county":"District de Antsiranana I","state":"Diana","ISO3166-2-lvl3":"MG-D","country":"Madagasikara / Madagascar","country_code":"mg"},"population":129320,"osm_type":"node","osm_id":254616067,"type":"city","location":[49.2913743,-12.2779632],"bbox":[49.1313743,-12.4379632,49.4513743,-12.1179632],"border":{"name":"Antsiranana","other_names":{"name:fr":"Antsiranana","name:ja":"アンツィラナナ","name:ko":"안치라나나","name:ru":"Анциранана","name:zh":"安齐拉纳纳","loc_name":"Diégo","old_name":"Diégo-Suarez","name:zh-Hans":"安齐拉纳纳","name:zh-Hant":"安齊拉納納"},"display_name":"Antsiranana, District de Antsiranana I, Diana, Province d'Antsiranana, 201, Madagasikara / Madagascar","address":{"city":"Antsiranana","county":"District de Antsiranana I","state":"Diana","ISO3166-2-lvl3":"MG-D","postcode":"201","country":"Madagasikara / Madagascar","country_code":"mg"},"population":129320,"osm_type":"relation","osm_id":7742476,"type":"administrative","location":[49.2913743,-12.2779632],"bbox":[49.216367,-12.3511474,49.3143386,-12.2323245]}}
{"name":"Bevoay","display_name":"Bevoay, District de Tôlanaro, Anosy, Province de Toliara, Madagasikara / Madagascar","address":{"city":"Bevoay","district":"District de Tôlanaro","state":"Anosy","region":"Province de Toliara","ISO3166-2-lvl3":"MG-U","country":"Madagasikara / Madagascar","country_code":"mg"},"population":8570,"osm_type":"relation","osm_id":3725740,"type":"administrative","location":[47.04654205193725,-24.50094695],"bbox":[46.9745314,-24.595352,47.1243708,-24.4064068],"inferred_type":"city"}
{"name":"Emagnobo","display_name":"Emagnobo, District de Tôlanaro, Anosy, Province de Toliara, Madagasikara / Madagascar","address":{"city":"Emagnobo","district":"District de Tôlanaro","state":"Anosy","region":"Province de Toliara","ISO3166-2-lvl3":"MG-U","country":"Madagasikara / Madagascar","country_code":"mg"},"population":7004,"osm_type":"relation","osm_id":3725741,"type":"administrative","location":[46.99904954669178,-24.62166045],"bbox":[46.9480998,-24.702587,47.0574463,-24.5421879],"inferred_type":"city"}
{"name":"Enakara","display_name":"Enakara, District de Tôlanaro, Anosy, Province de Toliara, Madagasikara / Madagascar","address":{"city":"Enakara","district":"District de Tôlanaro","state":"Anosy","region":"Province de Toliara","ISO3166-2-lvl3":"MG-U","country":"Madagasikara / Madagascar","country_code":"mg"},"population":5464,"osm_type":"relation","osm_id":3725742,"type":"administrative","location":[46.894228584696336,-24.5951743],"bbox":[46.7798986,-24.6771867,46.9672242,-24.5139552],"inferred_type":"city"}
{"name":"Fetraomby","other_names":{"name:fr":"Fetraomby","name:mg":"Fetraomby"},"display_name":"Fetraomby, District de Brickaville, Atsinanana, Province de Tamatave, Madagasikara / Madagascar","address":{"city":"Fetraomby","county":"District de Brickaville","state":"Atsinanana","ISO3166-2-lvl3":"MG-A","country":"Madagasikara / Madagascar","country_code":"mg"},"osm_type":"relation","osm_id":8073945,"type":"administrative","location":[48.950410705782915,-18.612771950000003],"bbox":[48.7608229,-18.7196508,49.0251286,-18.505305],"inferred_type":"city"}
{"name":"Fianarantsoa","other_names":{"name:de":"Fianarantsoa","name:it":"Fianarantsoa","name:ko":"피아나란초아","name:no":"Fianarantsoa","name:ru":"Фианаранцуа"},"display_name":"Fianarantsoa, District de Fianarantsoa, Matsiatra Ambony, Province de Fianarantsoa, 301, Madagasikara / Madagascar","address":{"city":"Fianarantsoa","county":"District de Fianarantsoa","state":"Matsiatra Ambony","ISO3166-2-lvl3":"MG-F","postcode":"301","country":"Madagasikara / Madagascar","country_code":"mg"},"population":191776,"osm_type":"node","osm_id":316843071,"type":"city","location":[47.085149,-21.456444],"bbox":[46.925149,-21.616444,47.245149,-21.296444],"border":{"name":"Fianarantsoa","other_names":{"name:mg":"Fianarantsoa","alt_name":"Commune Urbaine de Fianarantsoa","name:de":"Fianarantsoa","name:it":"Fianarantsoa","name:ko":"피아나란초아","name:no":"Fianarantsoa","name:ru":"Фианаранцуа"},"display_name":"Fianarantsoa, District de Fianarantsoa, Matsiatra Ambony, Province de Fianarantsoa, 301, Madagasikara / Madagascar","address":{"city":"Fianarantsoa","county":"District de Fianarantsoa","state":"Matsiatra Ambony","ISO3166-2-lvl3":"MG-F","postcode":"301","country":"Madagasikara / Madagascar","country_code":"mg"},"population":191776,"osm_type":"relation","osm_id":8001662,"type":"administrative","location":[47.085149,-21.456444],"bbox":[47.0357242,-21.5141843,47.1378856,-21.3925891]}}
{"name":"Ifarantsa","display_name":"Ifarantsa, District de Tôlanaro, Anosy, Province de Toliara, Madagasikara / Madagascar","address":{"city":"Ifarantsa","district":"District de Tôlanaro","state":"Anosy","region":"Province de Toliara","ISO3166-2-lvl3":"MG-U","country":"Madagasikara / Madagascar","country_code":"mg"},"population":9091,"osm_type":"relation","osm_id":3697496,"type":"administrative","location":[46.92037255259429,-24.8858741],"bbox":[46.8206405,-24.9761266,46.9796576,-24.7955213],"inferred_type":"city"}
{"name":"Isaka-Ivondro","display_name":"Isaka-Ivondro, District de Tôlanaro, Anosy, Province de Toliara, Madagasikara / Madagascar","address":{"city":"Isaka-Ivondro","district":"District de Tôlanaro","state":"Anosy","region":"Province de Toliara","ISO3166-2-lvl3":"MG-U","country":"Madagasikara / Madagascar","country_code":"mg"},"population":7626,"osm_type":"relation","osm_id":3723564,"type":"administrative","location":[46.85424686768793,-24.80158295],"bbox":[46.7738344,-24.8745593,46.9313514,-24.729964],"inferred_type":"city"}
{"name":"Lazarivo","other_names":{"name:fr":"Lazarivo"},"display_name":"Lazarivo, Atsimo-Andrefana, Province de Toliara, Madagasikara / Madagascar","address":{"city":"Lazarivo","state":"Atsimo-Andrefana","region":"Province de Toliara","ISO3166-2-lvl3":"MG-U","country":"Madagasikara / Madagascar","country_code":"mg"},"osm_type":"relation","osm_id":7135757,"type":"administrative","location":[45.014702547300786,-23.817122349999998],"bbox":[44.8405,-23.9966,45.1409,-23.63797],"inferred_type":"city"}
{"name":"Mahajanga","other_names":{"name:de":"Mahajanga","name:en":"Mahajanga","name:fr":"Mahajanga","name:it":"Mahajanga","name:ko":"마하장가","name:mg":"Mahajanga","name:ru":"Махадзанга","name:uk":"Махадзанга","old_name":"Majunga","alt_name:fr":"Majunga"},"display_name":"Mahajanga, Boeny, Province de Mahajanga, Madagasikara / Madagascar","address":{"city":"Mahajanga","state":"Boeny","region":"Province de Mahajanga","ISO3166-2-lvl3":"MG-M","country":"Madagasikara / Madagascar","country_code":"mg"},"population":246022,"osm_type":"node","osm_id":254618037,"type":"city","location":[46.3172577,-15.7181492],"bbox":[46.1572577,-15.8781492,46.4772577,-15.5581492]}
{"name":"Mahatalaky","display_name":"Mahatalaky, District de Tôlanaro, Anosy, Province de Toliara, Madagasikara / Madagascar","address":{"city":"Mahatalaky","district":"District de Tôlanaro","state":"Anosy","region":"Province de Toliara","ISO3166-2-lvl3":"MG-U","country":"Madagasikara / Madagascar","country_code":"mg"},"population":20397,"osm_type":"relation","osm_id":3696958,"type":"administrative","location":[47.06707276653556,-24.743959349999997],"bbox":[46.9228912,-24.8998604,47.2124751,-24.5874193],"inferred_type":"city"}
{"name":"Mahatsara","other_names":{"name:fr":"Mahatsara","name:mg":"Mahatsara"},"display_name":"Mahatsara, District de Brickaville, Atsinanana, Province de Tamatave, Madagasikara / Madagascar","address":{"city":"Mahatsara","county":"District de Brickaville","state":"Atsinanana","ISO3166-2-lvl3":"MG-A","country":"Madagasikara / Madagascar","country_code":"mg"},"osm_type":"relation","osm_id":8073943,"type":"administrative","location":[48.97649606176315,-18.98662235],"bbox":[48.8714069,-19.1451808,49.0515817,-18.8265529],"inferred_type":"city"}
{"name":"Manambaro","display_name":"Manambaro, District de Tôlanaro, Anosy, Province de Toliara, 614, Madagasikara / Madagascar","address":{"city":"Manambaro","district":"District de Tôlanaro","state":"Anosy","region":"Province de Toliara","ISO3166-2-lvl3":"MG-U","postcode":"614","country":"Madagasikara / Madagascar","country_code":"mg"},"population":14200,"osm_type":"relation","osm_id":3718216,"type":"administrative","location":[46.815587039946024,-24.97141375],"bbox":[46.6921374,-25.088322,46.942109,-24.8541555],"inferred_type":"city"}
{"name":"Mandiso","display_name":"Mandiso, District de Tôlanaro, Anosy, Province de Toliara, Madagasikara / Madagascar","address":{"city":"Mandiso","district":"District de Tôlanaro","state":"Anosy","region":"Province de Toliara","ISO3166-2-lvl3":"MG-U","country":"Madagasikara / Madagascar","country_code":"mg"},"population":5661,"osm_type":"relation","osm_id":3723565,"type":"administrative","location":[46.802409400010106,-24.8613436],"bbox":[46.7434813,-24.9156989,46.8688877,-24.8065839],"inferred_type":"city"}
{"name":"Maroseranana","other_names":{"name:fr":"Maroseranana","name:mg":"Maroseranana"},"display_name":"Maroseranana, District de Brickaville, Atsinanana, Province de Tamatave, Madagasikara / Madagascar","address":{"city":"Maroseranana","county":"District de Brickaville","state":"Atsinanana","ISO3166-2-lvl3":"MG-A","country":"Madagasikara / Madagascar","country_code":"mg"},"osm_type":"relation","osm_id":8073939,"type":"administrative","location":[48.75220034416962,-18.388165100000002],"bbox":[48.5335665,-18.6218809,48.9402179,-18.1547232],"inferred_type":"city"}
{"name":"Marotsiraka","display_name":"Marotsiraka, Anosy, Province de Toliara, Madagasikara / Madagascar","address":{"city":"Marotsiraka","state":"Anosy","region":"Province de Toliara","ISO3166-2-lvl3":"MG-U","country":"Madagasikara / Madagascar","country_code":"mg"},"population":10968,"osm_type":"relation","osm_id":3779468,"type":"administrative","location":[46.107330165743164,-24.24818285],"bbox":[45.9237923,-24.3558966,46.2926539,-24.1426515],"inferred_type":"city"}
{"name":"Nahampoana","display_name":"Nahampoana, District de Tôlanaro, Anosy, Province de Toliara, Madagasikara / Madagascar","address":{"city":"Nahampoana","district":"District de Tôlanaro","state":"Anosy","region":"Province de Toliara","ISO3166-2-lvl3":"MG-U","country":"Madagasikara / Madagascar","country_code":"mg"},"population":4534,"osm_type":"relation","osm_id":3694909,"type":"administrative","location":[46.98299328614052,-24.9374763],"bbox":[46.9301318,-25.00549,47.0405602,-24.8700048],"inferred_type":"city"}
{"name":"Namoly","other_names":{"name:fr":"Namoly"},"display_name":"Namoly, District d'Ambalavao, Matsiatra Ambony, Province de Fianarantsoa, Madagasikara / Madagascar","address":{"city":"Namoly","county":"District d'Ambalavao","state":"Matsiatra Ambony","ISO3166-2-lvl3":"MG-F","country":"Madagasikara / Madagascar","country_code":"mg"},"osm_type":"relation","osm_id":18110217,"type":"administrative","location":[46.95432556796253,-22.128113900000002],"bbox":[46.8360014,-22.2062592,47.0456028,-22.0495827],"inferred_type":"city"}
{"name":"Sampona","display_name":"Sampona, Anosy, Province de Toliara, Madagasikara / Madagascar","address":{"city":"Sampona","state":"Anosy","region":"Province de Toliara","ISO3166-2-lvl3":"MG-U","country":"Madagasikara / Madagascar","country_code":"mg"},"population":13185,"osm_type":"relation","osm_id":3720837,"type":"administrative","location":[46.309831429903056,-25.1477133],"bbox":[46.2487804,-25.2074747,46.3838965,-25.0886389],"inferred_type":"city"}
{"name":"Sarisambo","display_name":"Sarisambo, District de Tôlanaro, Anosy, Province de Toliara, Madagasikara / Madagascar","address":{"city":"Sarisambo","district":"District de Tôlanaro","state":"Anosy","region":"Province de Toliara","ISO3166-2-lvl3":"MG-U","country":"Madagasikara / Madagascar","country_code":"mg"},"population":6796,"osm_type":"relation","osm_id":3718238,"type":"administrative","location":[46.79302110087376,-25.097286750000002],"bbox":[46.7299296,-25.1591005,46.8601897,-25.0359482],"inferred_type":"city"}
{"name":"Tamboharivo Sahatona","other_names":{"name:fr":"Tamboharivo Sahatona"},"display_name":"Tamboharivo Sahatona, District d'Ambohimahasoa, Matsiatra Ambony, Province de Fianarantsoa, Madagasikara / Madagascar","address":{"city":"Tamboharivo Sahatona","county":"District d'Ambohimahasoa","state":"Matsiatra Ambony","ISO3166-2-lvl3":"MG-F","country":"Madagasikara / Madagascar","country_code":"mg"},"osm_type":"relation","osm_id":18096443,"type":"administrative","location":[47.08182252121247,-20.94953675],"bbox":[47.0208588,-21.0127342,47.1456599,-20.8851519],"inferred_type":"city"}
{"name":"Tanandava","display_name":"Tanandava, Anosy, Province de Toliara, Madagasikara / Madagascar","address":{"city":"Tanandava","state":"Anosy","region":"Province de Toliara","ISO3166-2-lvl3":"MG-U","country":"Madagasikara / Madagascar","country_code":"mg"},"population":14484,"osm_type":"relation","osm_id":3720782,"type":"administrative","location":[46.50288335239147,-25.091854650000002],"bbox":[46.3566132,-25.1776556,46.5650875,-25.0070074],"inferred_type":"city"}
{"name":"Toamasina","other_names":{"name:ar":"أنتسيرابي","name:de":"Toamasina","name:en":"Toamasina","name:fr":"Toamasina","name:it":"Toamasina","name:ja":"トアマシナ","name:ko":"토아마시나","name:ru":"Туамасина","name:zh":"图阿马西纳","old_name":"Tamatave","alt_name:fr":"Tamatave","name:zh-Hans":"图阿马西纳","name:zh-Hant":"圖阿馬西納"},"display_name":"Toamasina, Atsinanana, Province de Tamatave, 501, Madagasikara / Madagascar","address":{"city":"Toamasina","state":"Atsinanana","ISO3166-2-lvl3":"MG-A","postcode":"501","country":"Madagasikara / Madagascar","country_code":"mg"},"population":325857,"osm_type":"node","osm_id":335711690,"type":"city","location":[49.4098352,-18.1553985],"bbox":[49.2498352,-18.3153985,49.5698352,-17.9953985]}
{"name":"Tolagnaro","other_names":{"name:en":"Tolanaro","name:fr":"Fort Dauphin","name:ko":"톨라나로","alt_name":"Fort Dauphin","alt_name_1":"Taolagnaro"},"display_name":"Tolagnaro, District de Tôlanaro, Anosy, Province de Toliara, Madagasikara / Madagascar","address":{"city":"Tolagnaro","district":"District de Tôlanaro","state":"Anosy","region":"Province de Toliara","ISO3166-2-lvl3":"MG-U","country":"Madagasikara / Madagascar","country_code":"mg"},"population":67284,"osm_type":"node","osm_id":3355969555,"type":"city","location":[46.9966565,-25.0290132],"bbox":[46.8366565,-25.1890132,47.1566565,-24.8690132],"border":{"name":"Tolagnaro","other_names":{"name:fr":"Fort Dauphin","alt_name":"Fort Dauphin","name:en":"Tolanaro","name:ko":"톨라나로","alt_name_1":"Taolagnaro"},"display_name":"Tolagnaro, District de Tôlanaro, Anosy, Province de Toliara, Madagasikara / Madagascar","address":{"city":"Tolagnaro","district":"District de Tôlanaro","state":"Anosy","region":"Province de Toliara","ISO3166-2-lvl3":"MG-U","country":"Madagasikara / Madagascar","country_code":"mg"},"population":61008,"osm_type":"relation","osm_id":3694013,"type":"administrative","location":[46.9966565,-25.0290132],"bbox":[46.9251055,-25.0758221,47.0212591,-24.9831831]}}
{"name":"Toliara","other_names":{"name:en":"Toliara","name:fr":"Toliara","name:ko":"톨리아라","name:mg":"Toliara","name:ru":"Тулиара","name:uk":"Туліара","name:zh":"图利亚拉","old_name":"Tuléar","name:zh-Hans":"图利亚拉","name:zh-Hant":"圖利亞拉"},"display_name":"Toliara, Atsimo-Andrefana, Province de Toliara, 601, Madagasikara / Madagascar","address":{"city":"Toliara","state":"Atsimo-Andrefana","region":"Province de Toliara","ISO3166-2-lvl3":"MG-U","postcode":"601","country":"Madagasikara / Madagascar","country_code":"mg"},"population":168756,"osm_type":"node","osm_id":254609408,"type":"city","location":[43.66966,-23.354173],"bbox":[43.50966,-23.514173,43.82966,-23.194173]}
