{"display_name":"Çıgış, Баткен облусу, Кыргызстан","address":{"town":"Çıgış","state":"Баткен облусу","ISO3166-2-lvl4":"KG-B","country":"Кыргызстан","country_code":"kg"},"osm_type":"way","osm_id":32561444,"type":"town","location":[69.65147728125694,39.922844850000004],"bbox":[69.6325412,39.9171833,69.6700447,39.9289908]}
{"display_name":"Dostuk, Нарын району, Нарын облусу, Кыргызстан","address":{"town":"Dostuk","county":"Нарын району","state":"Нарын облусу","ISO3166-2-lvl4":"KG-N","country":"Кыргызстан","country_code":"kg"},"population":750,"osm_type":"way","osm_id":125031609,"type":"town","location":[75.63946056211226,41.3767645],"bbox":[75.6309317,41.3703737,75.6495463,41.3833776]}
{"name":"Айдаркен","other_names":{"name:en":"Aydarken","name:ky":"Айдаркен","name:ml":"ഐദർകെൻ","name:ru":"Айдаркен","alt_name":"Хайдаркен","alt_name:en":"Khaidarkan","alt_name:ml":"ഹൈദർകന്ദ്","alt_name:ru":"Хайдаркен"},"display_name":"Айдаркен, Кадамжай району, Баткен облусу, Кыргызстан","address":{"town":"Айдаркен","county":"Кадамжай району","state":"Баткен облусу","ISO3166-2-lvl4":"KG-B","country":"Кыргызстан","country_code":"kg"},"population":12000,"osm_type":"node","osm_id":1389335636,"type":"town","location":[71.3424441,39.9464465],"bbox":[71.3024441,39.9064465,71.3824441,39.9864465],"border":{"name":"Айдаркен","other_names":{"name:en":"Aydarken","name:ky":"Айдаркен","name:ml":"ഐദർകെൻ","name:ru":"Айдаркен","alt_name":"Хайдаркен","alt_name:en":"Khaidarkan","alt_name:ml":"ഹൈദർകന്ദ്","alt_name:ru":"Хайдаркен"},"display_name":"Айдаркен, Кадамжай району, Баткен облусу, Кыргызстан","address":{"town":"Айдаркен","county":"Кадамжай району","state":"Баткен облусу","ISO3166-2-lvl4":"KG-B","country":"Кыргызстан","country_code":"kg"},"population":12000,"osm_type":"way","osm_id":254642470,"type":"town","location":[71.3424441,39.9464465],"bbox":[71.319805,39.9214572,71.3758567,39.9522785]}}
{"name":"Ак-Суу","other_names":{"name:ar":"آقسوو","name:en":"Ak-Suu","name:fa":"آق‌سو","name:kk":"Ақсу","name:ky":"Ак-Суу","name:ru":"Ак-Суу","name:tg":"Оқ-Су","name:tr":"Ak-Su","name:uz":"Ak-Suu","alt_name":"Теплоключенка","old_name":"Теплоключенка","name:kk-Arab":"اقسۋ","name:kk-Cyrl":"Ақсу","name:kk-Latn":"Aqsu","name:ky-Arab":"اق سۇۇ","name:uz-Arab":"آق‌سوو","name:uz-Cyrl":"Ак-Суу","name:uz-Latn":"Ak-Suu"},"display_name":"Ак-Суу, Ак-Суу району, Ысык-Көл облусу, Кыргызстан","address":{"town":"Ак-Суу","county":"Ак-Суу району","state":"Ысык-Көл облусу","ISO3166-2-lvl4":"KG-Y","country":"Кыргызстан","country_code":"kg"},"osm_type":"node","osm_id":297338991,"type":"town","location":[78.5223938,42.4996775],"bbox":[78.4823938,42.4596775,78.5623938,42.5396775],"border":{"name":"Ак-Суу","other_names":{"name:ar":"آقسوو","name:en":"Ak-Suu","name:fa":"آق‌سو","name:kk":"Ақсу","name:ky":"Ак-Суу","name:ru":"Ак-Суу","name:tg":"Оқ-Су","name:tr":"Ak-Su","name:uz":"Ak-Suu","alt_name":"Теплоключенка","old_name":"Теплоключенка","name:kk-Arab":"اقسۋ","name:kk-Cyrl":"Ақсу","name:kk-Latn":"Aqsu","name:ky-Arab":"اق سۇۇ","name:uz-Arab":"آق‌سوو","name:uz-Cyrl":"Ак-Суу","name:uz-Latn":"Ak-Suu"},"display_name":"Ак-Суу, Ак-Суу району, Ысык-Көл облусу, Кыргызстан","address":{"town":"Ак-Суу","county":"Ак-Суу району","state":"Ысык-Көл облусу","ISO3166-2-lvl4":"KG-Y","country":"Кыргызстан","country_code":"kg"},"osm_type":"way","osm_id":1380187492,"type":"town","location":[78.5223938,42.4996775],"bbox":[78.4904802,42.480564,78.5381269,42.5188254]}}
{"name":"Ак-Тюз","other_names":{"name:en":"Ak-Tüz","name:ky":"Ак-Түз","name:ru":"Ак-Тюз"},"display_name":"Ак-Тюз, Кемин району, Чүй облусу, Кыргызстан","address":{"town":"Ак-Тюз","county":"Кемин району","state":"Чүй облусу","ISO3166-2-lvl4":"KG-C","country":"Кыргызстан","country_code":"kg"},"population":580,"osm_type":"node","osm_id":896806144,"type":"town","location":[76.1340562,42.8798507],"bbox":[76.0940562,42.8398507,76.1740562,42.9198507],"border":{"name":"Ак-Тюз","other_names":{"name:en":"Ak-Tüz","name:ky":"Ак-Түз","name:ru":"Ак-Тюз","int_name":"Ak-Tyz"},"display_name":"Ак-Тюз, Кемин району, Чүй облусу, Кыргызстан","address":{"town":"Ак-Тюз","county":"Кемин району","state":"Чүй облусу","ISO3166-2-lvl4":"KG-C","country":"Кыргызстан","country_code":"kg"},"population":580,"osm_type":"relation","osm_id":7727440,"type":"town","location":[76.1340562,42.8798507],"bbox":[76.12369,42.8740199,76.1442674,42.8839954]}}
{"name":"Ала-Бука","other_names":{"name:de":"Ala-Buka","name:en":"Ala-Buka","name:fa":"آلابوقا","name:kk":"Алабұқа","name:ky":"Ала-Бука","name:ml":"ആല-ബൂഖ","name:ru":"Ала-Бука","name:sv":"Ala-Buka","name:tg":"Ола-Буқа","name:tr":"Ala-Buka","name:uz":"Ola-Buqa","name:kk-Arab":"الابۇقا","name:kk-Cyrl":"Алабұқа","name:kk-Latn":"Alabūqa","name:ky-Arab":"الابۇقا","name:uz-Arab":"آله بوقه","name:uz-Cyrl":"Ола-Буқа","name:uz-Latn":"Ola-Buqa"},"display_name":"Ала-Бука, Ала-Бука району, Жалал-Абад облусу, Кыргызстан","address":{"town":"Ала-Бука","county":"Ала-Бука району","state":"Жалал-Абад облусу","ISO3166-2-lvl4":"KG-J","country":"Кыргызстан","country_code":"kg"},"population":10813,"osm_type":"node","osm_id":1891952120,"type":"town","location":[71.4863421,41.4060618],"bbox":[71.4463421,41.3660618,71.5263421,41.4460618],"border":{"name":"Ала-Бука","other_names":{"name:en":"Ala-Buka","name:ru":"Ала-Бука","name:de":"Ala-Buka","name:fa":"آلابوقا","name:kk":"Алабұқа","name:ky":"Ала-Бука","name:ml":"ആല-ബൂഖ","name:sv":"Ala-Buka","name:tg":"Ола-Буқа","name:tr":"Ala-Buka","name:uz":"Ola-Buqa","name:kk-Arab":"الابۇقا","name:kk-Cyrl":"Алабұқа","name:kk-Latn":"Alabūqa","name:ky-Arab":"الابۇقا","name:uz-Arab":"آله بوقه","name:uz-Cyrl":"Ола-Буқа","name:uz-Latn":"Ola-Buqa"},"display_name":"Ала-Бука, Ала-Бука району, Жалал-Абад облусу, Кыргызстан","address":{"town":"Ала-Бука","county":"Ала-Бука району","state":"Жалал-Абад облусу","ISO3166-2-lvl4":"KG-J","country":"Кыргызстан","country_code":"kg"},"population":10813,"osm_type":"way","osm_id":169519409,"type":"town","location":[71.4863421,41.4060618],"bbox":[71.4426345,41.3715286,71.5109428,41.4228405]}}
{"name":"Араван","other_names":{"name:en":"Aravan","name:fa":"آراوان","name:kk":"Араван","name:ky":"Араван","name:ml":"ആറാവാൻ","name:ru":"Араван","name:tg":"Аравон","name:tr":"Aravan","name:uz":"Aravon","name:kk-Arab":"اراۆان","name:kk-Cyrl":"Араван","name:kk-Latn":"Aravan","name:ky-Arab":"اراۋان","name:uz-Arab":"اروان","name:uz-Cyrl":"Аравон","name:uz-Latn":"Aravon"},"display_name":"Араван, Араван району, Ош облусу, Кыргызстан","address":{"town":"Араван","county":"Араван району","state":"Ош облусу","ISO3166-2-lvl4":"KG-O","country":"Кыргызстан","country_code":"kg"},"osm_type":"node","osm_id":274960749,"type":"town","location":[72.4998433,40.5114586],"bbox":[72.4598433,40.4714586,72.5398433,40.5514586]}
{"name":"Арсланбоб","other_names":{"name:en":"Arslanbob","name:ky":"Арсланбоп","name:ru":"Арсланбоб"},"display_name":"Арсланбоб, Базар-Коргон району, Жалал-Абад облусу, Кыргызстан","address":{"town":"Арсланбоб","county":"Базар-Коргон району","state":"Жалал-Абад облусу","ISO3166-2-lvl4":"KG-J","country":"Кыргызстан","country_code":"kg"},"population":11291,"osm_type":"node","osm_id":297253637,"type":"town","location":[72.9287274,41.337249],"bbox":[72.8887274,41.297249,72.9687274,41.377249],"border":{"name":"Арсланбоб","other_names":{"name:en":"Arslanbob","name:ky":"Арсланбоп","name:ru":"Арсланбоб"},"display_name":"Арсланбоб, Базар-Коргон району, Жалал-Абад облусу, Кыргызстан","address":{"town":"Арсланбоб","county":"Базар-Коргон району","state":"Жалал-Абад облусу","ISO3166-2-lvl4":"KG-J","country":"Кыргызстан","country_code":"kg"},"population":11291,"osm_type":"way","osm_id":153271650,"type":"town","location":[72.9287274,41.337249],"bbox":[72.8864601,41.320629,72.9534254,41.3661163]}}
{"name":"Ат-Башы","other_names":{"name:en":"At-Bashy","name:fa":"ات‌باشی","name:kk":"Атбасы","name:ky":"Ат-Башы","name:ru":"Ат-Баши","name:tg":"Отбоши","name:tr":"At-Başı","name:uz":"Otboshi","name:zh":"阿特巴希","int_name":"At-Bashi","name:kk-Arab":"اتباسى","name:kk-Cyrl":"Атбасы","name:kk-Latn":"Atbasy","name:ky-Arab":"ات باشى","name:uz-Arab":"آت باشی","name:uz-Cyrl":"Отбоши","name:uz-Latn":"Otboshi"},"display_name":"Ат-Башы, Ат-Башы району, Нарын облусу, 722620, Кыргызстан","address":{"town":"Ат-Башы","county":"Ат-Башы району","state":"Нарын облусу","ISO3166-2-lvl4":"KG-N","postcode":"722620","country":"Кыргызстан","country_code":"kg"},"population":10764,"osm_type":"node","osm_id":4132174115,"type":"town","location":[75.8087828,41.1693406],"bbox":[75.7687828,41.1293406,75.8487828,41.2093406],"border":{"name":"Ат-Башы","other_names":{"name:en":"At-Bashy","name:ky":"Ат-Башы","name:ru":"Ат-Баши","int_name":"At-Bashi","name:fa":"ات‌باشی","name:kk":"Атбасы","name:tg":"Отбоши","name:tr":"At-Başı","name:uz":"Otboshi","name:zh":"阿特巴希","name:kk-Arab":"اتباسى","name:kk-Cyrl":"Атбасы","name:kk-Latn":"Atbasy","name:ky-Arab":"ات باشى","name:uz-Arab":"آت باشی","name:uz-Cyrl":"Отбоши","name:uz-Latn":"Otboshi"},"display_name":"Ат-Башы, Ат-Башы району, Нарын облусу, 722620, Кыргызстан","address":{"town":"Ат-Башы","county":"Ат-Башы району","state":"Нарын облусу","ISO3166-2-lvl4":"KG-N","postcode":"722620","country":"Кыргызстан","country_code":"kg"},"population":10764,"osm_type":"way","osm_id":75871702,"type":"town","location":[75.8087828,41.1693406],"bbox":[75.7748408,41.1596952,75.853878,41.1780542]}}
{"name":"Баетов","other_names":{"name:en":"Baetov","name:ky":"Баетов","name:ru":"Баетово","int_name":"Bayetov","name:ky-Arab":"باەتوۋ"},"display_name":"Баетов, Баетово, Ак-Талаа району, Нарын облусу, 722500, Кыргызстан","address":{"town":"Баетов","county":"Ак-Талаа району","state":"Нарын облусу","ISO3166-2-lvl4":"KG-N","postcode":"722500","country":"Кыргызстан","country_code":"kg"},"population":8354,"osm_type":"node","osm_id":300559133,"type":"town","location":[74.9608587,41.266983],"bbox":[74.9208587,41.226983,75.0008587,41.306983],"border":{"name":"Баетово","other_names":{"name:en":"Baetov","name:ky":"Баетов","name:ru":"Баетово","int_name":"Bayetov","name:ky-Arab":"باەتوۋ","alt":"Баетов"},"display_name":"Баетово, Ак-Талаа району, Нарын облусу, Кыргызстан","address":{"town":"Баетово","county":"Ак-Талаа району","state":"Нарын облусу","ISO3166-2-lvl4":"KG-N","country":"Кыргызстан","country_code":"kg"},"population":8354,"osm_type":"way","osm_id":152228151,"type":"town","location":[74.9608587,41.266983],"bbox":[74.9393677,41.2536455,74.9734497,41.2739415]}}
{"name":"Базар-Коргон","other_names":{"name:en":"Bazar-Korgon","name:fa":"بازارقرغان","name:ky":"Базар-Коргон","name:ml":"ബസാർ-കുർഗാൻ","name:ru":"Базар-Коргон","name:tg":"Бозор Қӯрғон","name:tr":"Pazar-Korgan","name:uz":"Bozor-Qoʻrgʻon","int_name":"Bazar-Korgon","name:ky-Arab":"بازارقورعون","name:uz-Arab":"بازارقۉرغان","name:uz-Cyrl":"Бозор-Қўрғон","name:uz-Latn":"Bozor-Qoʻrgʻon"},"display_name":"Базар-Коргон, Базар-Коргон району, Жалал-Абад облусу, Кыргызстан","address":{"town":"Базар-Коргон","county":"Базар-Коргон району","state":"Жалал-Абад облусу","ISO3166-2-lvl4":"KG-J","country":"Кыргызстан","country_code":"kg"},"population":33359,"osm_type":"node","osm_id":845806542,"type":"town","location":[72.7429412,41.034895],"bbox":[72.7029412,40.994895,72.7829412,41.074895],"border":{"name":"Базар-Коргон","other_names":{"name:en":"Bazar-Korgon","name:ru":"Базар-Коргон","name:fa":"بازارقرغان","name:ky":"Базар-Коргон","name:ml":"ബസാർ-കുർഗാൻ","name:tg":"Бозор Қӯрғон","name:tr":"Pazar-Korgan","name:uz":"Bozor-Qoʻrgʻon","int_name":"Bazar-Korgon","name:ky-Arab":"بازارقورعون","name:uz-Arab":"بازارقۉرغان","name:uz-Cyrl":"Бозор-Қўрғон","name:uz-Latn":"Bozor-Qoʻrgʻon"},"display_name":"Базар-Коргон, Базар-Коргон району, Жалал-Абад облусу, 720800, Кыргызстан","address":{"town":"Базар-Коргон","county":"Базар-Коргон району","state":"Жалал-Абад облусу","ISO3166-2-lvl4":"KG-J","postcode":"720800","country":"Кыргызстан","country_code":"kg"},"population":33359,"osm_type":"way","osm_id":27637579,"type":"town","location":[72.7429412,41.034895],"bbox":[72.7159191,41.0127632,72.7671446,41.0551077]}}
{"name":"Баткен Сити","display_name":"Баткен Сити, Баткен району, Баткен облусу, Кыргызстан","address":{"town":"Баткен Сити","county":"Баткен району","state":"Баткен облусу","ISO3166-2-lvl4":"KG-B","country":"Кыргызстан","country_code":"kg"},"osm_type":"node","osm_id":12684020798,"type":"town","location":[70.8705881,39.9917199],"bbox":[70.8305881,39.9517199,70.9105881,40.0317199]}
{"name":"Беловодское","other_names":{"name:ar":"بيلوفوسكوي","name:en":"Belovodskoe","name:ky":"Беловодск","name:ru":"Беловодское","name:zh":"别洛沃茨科耶","int_name":"Belovodskoe"},"display_name":"Беловодское, Москва району, Чүй облусу, 724606, Кыргызстан","address":{"town":"Беловодское","county":"Москва району","state":"Чүй облусу","ISO3166-2-lvl4":"KG-C","postcode":"724606","country":"Кыргызстан","country_code":"kg"},"population":21275,"osm_type":"node","osm_id":1979387477,"type":"town","location":[74.0969214,42.831905],"bbox":[74.0569214,42.791905,74.1369214,42.871905],"border":{"name":"Беловодское","other_names":{"name:ar":"بيلوفوسكوي","name:en":"Belovodskoe","name:ky":"Беловодск","name:ru":"Беловодское","name:zh":"别洛沃茨科耶","int_name":"Belovodskoe"},"display_name":"Беловодское, Москва району, Чүй облусу, Кыргызстан","address":{"town":"Беловодское","county":"Москва району","state":"Чүй облусу","ISO3166-2-lvl4":"KG-C","country":"Кыргызстан","country_code":"kg"},"population":21275,"osm_type":"relation","osm_id":19286718,"type":"town","location":[74.0969214,42.831905],"bbox":[74.0710369,42.8003394,74.1600293,42.8633458]}}
{"name":"Бөкөнбаев","other_names":{"name:ar":"بوكونبايفو","name:en":"Bökönbaev","name:fa":"بوکانبایف","name:it":"Bökönbaev","name:ky":"Бөкөнбаев","name:ru":"Боконбаево","name:tr":"Bökönbayev","int_name":"Bökönbaev","name:arz":"بوكونبايفو","name:kaa":"Bókónbaev","old_name:tr":"Bökönbayevo","name:ky-Arab":"بۅكۅنباەۋ"},"display_name":"Бөкөнбаев, Тоң району, Ысык-Көл облусу, 722300, Кыргызстан","address":{"town":"Бөкөнбаев","county":"Тоң району","state":"Ысык-Көл облусу","ISO3166-2-lvl4":"KG-Y","postcode":"722300","country":"Кыргызстан","country_code":"kg"},"population":10648,"osm_type":"node","osm_id":297346545,"type":"town","location":[76.9979291,42.1137908],"bbox":[76.9579291,42.0737908,77.0379291,42.1537908],"border":{"name":"Бөкөнбаев","other_names":{"name:ar":"بوكونبايفو","name:en":"Bökönbaev","name:fa":"بوکانبایف","name:it":"Bökönbaev","name:ky":"Бөкөнбаев","name:ru":"Боконбаево","name:tr":"Bökönbayev","int_name":"Bökönbaev","name:arz":"بوكونبايفو","name:kaa":"Bókónbaev","old_name:tr":"Bökönbayevo","name:ky-Arab":"بۅكۅنباەۋ"},"display_name":"Бөкөнбаев, Тоң району, Ысык-Көл облусу, Кыргызстан","address":{"town":"Бөкөнбаев","county":"Тоң району","state":"Ысык-Көл облусу","ISO3166-2-lvl4":"KG-Y","country":"Кыргызстан","country_code":"kg"},"population":10648,"osm_type":"way","osm_id":120381739,"type":"town","location":[76.9979291,42.1137908],"bbox":[76.9697012,42.104323,77.0081768,42.1278389]}}
{"name":"Бужум","other_names":{"name:ce":"Бужум","name:en":"Bujum","name:fa":"بوجوم","name:ky":"Бужум","name:ru":"Бужум","name:tg":"Буҷум","int_name":"Bujum","name:kaa":"Bujım","old_name":"Москва"},"display_name":"Бужум, Баткен району, Баткен облусу, Кыргызстан","address":{"town":"Бужум","county":"Баткен району","state":"Баткен облусу","ISO3166-2-lvl4":"KG-B","country":"Кыргызстан","country_code":"kg"},"population":11781,"osm_type":"node","osm_id":1389335637,"type":"town","location":[70.8323956,40.0033037],"bbox":[70.7923956,39.9633037,70.8723956,40.0433037],"border":{"name":"Бужум","other_names":{"name:ce":"Бужум","name:en":"Bujum","name:fa":"بوجوم","name:ky":"Бужум","name:ru":"Бужум","name:tg":"Буҷум","int_name":"Bujum","name:kaa":"Bujım","old_name":"Москва"},"display_name":"Бужум, Баткен району, Баткен облусу, Кыргызстан","address":{"town":"Бужум","county":"Баткен району","state":"Баткен облусу","ISO3166-2-lvl4":"KG-B","country":"Кыргызстан","country_code":"kg"},"population":7416,"osm_type":"relation","osm_id":19291882,"type":"town","location":[70.8323956,40.0033037],"bbox":[70.8079542,39.982707,70.8598277,40.029184]}}
{"name":"Гүлчө","other_names":{"name:en":"Gülchö","name:ky":"Гүлчө","name:ml":"ഗുൽച്ച","name:ru":"Гульча","int_name":"Gul'cha"},"display_name":"Гүлчө, Алай району, Ош облусу, Кыргызстан","address":{"town":"Гүлчө","county":"Алай району","state":"Ош облусу","ISO3166-2-lvl4":"KG-O","country":"Кыргызстан","country_code":"kg"},"population":11691,"osm_type":"node","osm_id":273177653,"type":"town","location":[73.4438341,40.3118163],"bbox":[73.4038341,40.2718163,73.4838341,40.3518163],"border":{"name":"Гульча","other_names":{"name:en":"Gul'cha","name:ky":"Гүлчө","name:ru":"Гульча"},"display_name":"Гульча, Алай району, Ош облусу, Кыргызстан","address":{"town":"Гульча","county":"Алай району","state":"Ош облусу","ISO3166-2-lvl4":"KG-O","country":"Кыргызстан","country_code":"kg"},"population":11691,"osm_type":"way","osm_id":169520058,"type":"town","location":[73.43102429600812,40.32159575],"bbox":[73.4079405,40.3021773,73.4678256,40.3402548]}}
{"name":"Достук","other_names":{"name:en":"Dostuk","name:ru":"Достук","alt_name":"Кызыл-Аскер","int_name":"Dostuk"},"display_name":"Достук, Нарын району, Нарын облусу, Кыргызстан","address":{"town":"Достук","county":"Нарын району","state":"Нарын облусу","ISO3166-2-lvl4":"KG-N","country":"Кыргызстан","country_code":"kg"},"population":750,"osm_type":"node","osm_id":300279689,"type":"town","location":[75.6397215,41.3765298],"bbox":[75.5997215,41.3365298,75.6797215,41.4165298]}
{"name":"Кадамжай","other_names":{"name:ar":"قدمجاي","name:en":"Kadamjay","name:es":"Kadamjay","name:fa":"قدم‌جای","name:fr":"Kadamjaï","name:kk":"Қадамжай","name:ky":"Кадамжай","name:pl":"Kadamdżaj","name:ru":"Кадамжай","name:tg":"Қадамжой","name:tr":"Kadamcay","name:uz":"Qadamjoy","int_name":"Kadamjay","old_name":"Фрунзе","name:kk-Arab":"قادامجاي","name:kk-Cyrl":"Қадамжай","name:kk-Latn":"Qadamjai","name:ky-Arab":"قادامجاي","name:uz-Arab":"قدم‌جای","name:uz-Cyrl":"Қадамжой","name:uz-Latn":"Qadamjoy"},"display_name":"Кадамжай, Кадамжай району, Баткен облусу, Кыргызстан","address":{"town":"Кадамжай","county":"Кадамжай району","state":"Баткен облусу","ISO3166-2-lvl4":"KG-B","country":"Кыргызстан","country_code":"kg"},"population":14049,"osm_type":"node","osm_id":1381827494,"type":"town","location":[71.728775,40.1302192],"bbox":[71.688775,40.0902192,71.768775,40.1702192],"border":{"name":"Кадамжай","other_names":{"name:ar":"قدمجاي","name:en":"Kadamjay","name:es":"Kadamjay","name:fa":"قدم‌جای","name:fr":"Kadamjaï","name:kk":"Қадамжай","name:ky":"Кадамжай","name:pl":"Kadamdżaj","name:ru":"Кадамжай","name:tg":"Қадамжой","name:tr":"Kadamcay","name:uz":"Qadamjoy","int_name":"Kadamjay","old_name":"Фрунзе","name:kk-Arab":"قادامجاي","name:kk-Cyrl":"Қадамжай","name:kk-Latn":"Qadamjai","name:ky-Arab":"قادامجاي","name:uz-Arab":"قدم‌جای","name:uz-Cyrl":"Қадамжой","name:uz-Latn":"Qadamjoy"},"display_name":"Кадамжай, Кадамжай району, Баткен облусу, Кыргызстан","address":{"town":"Кадамжай","county":"Кадамжай району","state":"Баткен облусу","ISO3166-2-lvl4":"KG-B","country":"Кыргызстан","country_code":"kg"},"population":14049,"osm_type":"relation","osm_id":13971608,"type":"administrative","location":[71.728775,40.1302192],"bbox":[71.7093087,40.0835346,71.7409892,40.1491543]}}
{"name":"Кажы-Сай","other_names":{"name:en":"Kajy-Say","name:ky":"Кажы-Сай","name:ru":"Каджи-Сай"},"display_name":"Кажы-Сай, Тоң району, Ысык-Көл облусу, 722304, Кыргызстан","address":{"town":"Кажы-Сай","county":"Тоң району","state":"Ысык-Көл облусу","ISO3166-2-lvl4":"KG-Y","postcode":"722304","country":"Кыргызстан","country_code":"kg"},"population":4515,"osm_type":"node","osm_id":970283555,"type":"town","location":[77.1829195,42.1379017],"bbox":[77.1429195,42.0979017,77.2229195,42.1779017],"border":{"name":"Кажы-Сай","other_names":{"name:ba":"Ҡаджи-Сай","name:en":"Kadji Say","name:ky":"Кажы-Сай","name:ru":"Каджи-Сай","alt:en":"Kajy-Say"},"display_name":"Кажы-Сай, Тоң району, Ысык-Көл облусу, 722304, Кыргызстан","address":{"town":"Кажы-Сай","county":"Тоң району","state":"Ысык-Көл облусу","ISO3166-2-lvl4":"KG-Y","postcode":"722304","country":"Кыргызстан","country_code":"kg"},"population":4222,"osm_type":"way","osm_id":121410922,"type":"town","location":[77.1829195,42.1379017],"bbox":[77.1705421,42.1313896,77.1968312,42.150358]}}
{"name":"Казарман","other_names":{"name:de":"Kasarman","name:el":"Κάζαρμαν","name:en":"Kazarman","name:fa":"قازارمان","name:fr":"Kazarman","name:ky":"Казарман","name:nl":"Kazarman","name:ru":"Казарман","name:tg":"Қозормон","name:tr":"Kazarman","name:uz":"Qazarman","name:ky-Arab":"قازارمان","name:uz-Arab":"قزرمن","name:uz-Cyrl":"Қазарман","name:uz-Latn":"Qazarman"},"display_name":"Казарман, Тогуз-торо району, Жалал-Абад облусу, 721500, Кыргызстан","address":{"town":"Казарман","county":"Тогуз-торо району","state":"Жалал-Абад облусу","ISO3166-2-lvl4":"KG-J","postcode":"721500","country":"Кыргызстан","country_code":"kg"},"population":9486,"osm_type":"node","osm_id":297087983,"type":"town","location":[74.0201649,41.4033967],"bbox":[73.9801649,41.3633967,74.0601649,41.4433967],"border":{"name":"Казарман","other_names":{"name:de":"Kasarman","name:el":"Κάζαρμαν","name:en":"Kazarman","name:fa":"قازارمان","name:fr":"Kazarman","name:ky":"Казарман","name:nl":"Kazarman","name:ru":"Казарман","name:tg":"Қозормон","name:tr":"Kazarman","name:uz":"Qazarman","name:ky-Arab":"قازارمان","name:uz-Arab":"قزرمن","name:uz-Cyrl":"Қазарман","name:uz-Latn":"Qazarman"},"display_name":"Казарман, Тогуз-торо району, Жалал-Абад облусу, 721500, Кыргызстан","address":{"town":"Казарман","county":"Тогуз-торо району","state":"Жалал-Абад облусу","ISO3166-2-lvl4":"KG-J","postcode":"721500","country":"Кыргызстан","country_code":"kg"},"population":9486,"osm_type":"way","osm_id":27376387,"type":"town","location":[74.0201649,41.4033967],"bbox":[73.9966941,41.3871142,74.0569066,41.4139846]}}
{"name":"Кайыңды","other_names":{"name:ar":"كايندي","name:be":"Каінды","name:en":"Kayyngdy","name:fa":"قایندی","name:ky":"Кайыңды","name:pl":"Kajyngdy","name:ru":"Каинды","name:tg":"Қайиндӣ","name:tr":"Kayıngdı","name:tt":"Каенды","name:uz":"Qayindi","int_name":"Kayıŋdı"},"display_name":"Кайыңды, Панфилов району, Чүй облусу, Кыргызстан","address":{"town":"Кайыңды","county":"Панфилов району","state":"Чүй облусу","ISO3166-2-lvl4":"KG-C","country":"Кыргызстан","country_code":"kg"},"population":9500,"osm_type":"node","osm_id":297595582,"type":"town","location":[73.6783687,42.8271235],"bbox":[73.6383687,42.7871235,73.7183687,42.8671235],"border":{"name":"Кайыңды","other_names":{"name:ar":"كايندي","name:be":"Каінды","name:en":"Kayyngdy","name:fa":"قایندی","name:ky":"Кайыңды","name:pl":"Kajyngdy","name:ru":"Каинды","name:tg":"Қайиндӣ","name:tr":"Kayıngdı","name:tt":"Каенды","name:uz":"Qayindi","int_name":"Kayıŋdı"},"display_name":"Кайыңды, Панфилов району, Чүй облусу, Кыргызстан","address":{"town":"Кайыңды","county":"Панфилов району","state":"Чүй облусу","ISO3166-2-lvl4":"KG-C","country":"Кыргызстан","country_code":"kg"},"population":7526,"osm_type":"relation","osm_id":7727392,"type":"town","location":[73.6783687,42.8271235],"bbox":[73.6617729,42.809745,73.7020571,42.8432099]}}
{"name":"Камбар-Ата","display_name":"Камбар-Ата, Токтогул району, Жалал-Абад облусу, Кыргызстан","address":{"town":"Камбар-Ата","county":"Токтогул району","state":"Жалал-Абад облусу","ISO3166-2-lvl4":"KG-J","country":"Кыргызстан","country_code":"kg"},"osm_type":"node","osm_id":4264585380,"type":"town","location":[73.1291297,41.7315135],"bbox":[73.0891297,41.6915135,73.1691297,41.7715135],"border":{"name":"Камбар-Ата","display_name":"Камбар-Ата, Токтогул району, Жалал-Абад облусу, Кыргызстан","address":{"town":"Камбар-Ата","county":"Токтогул району","state":"Жалал-Абад облусу","ISO3166-2-lvl4":"KG-J","country":"Кыргызстан","country_code":"kg"},"osm_type":"way","osm_id":427217338,"type":"town","location":[73.1291297,41.7315135],"bbox":[73.1168298,41.7242917,73.1362266,41.7440218]}}
{"name":"Кант","other_names":{"name:en":"Kant","name:ru":"Кант"},"display_name":"Кант, Ысык-Ата району, Чүй облусу, 725000, Кыргызстан","address":{"town":"Кант","county":"Ысык-Ата району","state":"Чүй облусу","ISO3166-2-lvl4":"KG-C","postcode":"725000","country":"Кыргызстан","country_code":"kg"},"population":22800,"osm_type":"node","osm_id":240470047,"type":"town","location":[74.8500783,42.8887612],"bbox":[74.8100783,42.8487612,74.8900783,42.9287612],"border":{"name":"Кант","other_names":{"name:en":"Kant","name:ru":"Кант"},"display_name":"Кант, Ысык-Ата району, Чүй облусу, Кыргызстан","address":{"town":"Кант","county":"Ысык-Ата району","state":"Чүй облусу","ISO3166-2-lvl4":"KG-C","country":"Кыргызстан","country_code":"kg"},"population":22800,"osm_type":"way","osm_id":1391811423,"type":"town","location":[74.8500783,42.8887612],"bbox":[74.8350504,42.8732911,74.8735802,42.9066827]}}
{"name":"Каныш-Кыя","other_names":{"name:en":"Kanysh Kyya","name:fa":"قنیش-قیه","name:ky":"Каныш-Кыя","name:tg":"Қаниш-Қия","name:uz":"Qanish-Qiya","name:ky-Arab":"قانىش قىيا","name:uz-Arab":"قنیش-قیه","name:uz-Cyrl":"Қаниш-Қия","name:uz-Latn":"Qanish-Qiya"},"display_name":"Каныш-Кыя, Чаткал району, Жалал-Абад облусу, Кыргызстан","address":{"town":"Каныш-Кыя","county":"Чаткал району","state":"Жалал-Абад облусу","ISO3166-2-lvl4":"KG-J","country":"Кыргызстан","country_code":"kg"},"osm_type":"node","osm_id":2637861116,"type":"town","location":[71.0638527,41.7651528],"bbox":[71.0238527,41.7251528,71.1038527,41.8051528]}
{"name":"Кара-Балта","other_names":{"name:ar":"قره بالته","name:en":"Kara-Balta","name:fa":"قره‌بالته","name:ja":"カラバルタ","name:kk":"Қарабалта","name:ky":"Кара-Балта","name:ru":"Кара-Балта","name:uz":"Qorabolta","int_name":"Kara-Balta","name:kk-Arab":"قارابالتا","name:kk-Cyrl":"Қарабалта","name:kk-Latn":"Qarabalta","name:ky-Arab":"قارا بالتا","name:uz-Arab":"قره‌بالته","name:uz-Cyrl":"Қораболта","name:uz-Latn":"Qorabolta"},"display_name":"Кара-Балта, Жайыл району, Чүй облусу, Кыргызстан","address":{"town":"Кара-Балта","county":"Жайыл району","state":"Чүй облусу","ISO3166-2-lvl4":"KG-C","country":"Кыргызстан","country_code":"kg"},"population":48300,"osm_type":"node","osm_id":5224645669,"type":"town","location":[73.8523018,42.801143],"bbox":[73.8123018,42.761143,73.8923018,42.841143],"border":[{"name":"Кара-Балта","other_names":{"name:ar":"قره بالته","name:en":"Kara-Balta","name:fa":"قره‌بالته","name:ja":"カラバルタ","name:kk":"Қарабалта","name:ky":"Кара-Балта","name:ru":"Кара-Балта","name:uz":"Qorabolta","int_name":"Kara-Balta","name:kk-Arab":"قارابالتا","name:kk-Cyrl":"Қарабалта","name:kk-Latn":"Qarabalta","name:ky-Arab":"قارا بالتا","name:uz-Arab":"قره‌بالته","name:uz-Cyrl":"Қораболта","name:uz-Latn":"Qorabolta"},"display_name":"Кара-Балта, Жайыл району, Чүй облусу, Кыргызстан","address":{"town":"Кара-Балта","county":"Жайыл району","state":"Чүй облусу","ISO3166-2-lvl4":"KG-C","country":"Кыргызстан","country_code":"kg"},"population":48300,"osm_type":"way","osm_id":38114675,"type":"town","location":[73.8523018,42.801143],"bbox":[73.8229322,42.7945264,73.8804308,42.8284805]},{"name":"Кара-Балта","other_names":{"name:en":"Kara-Balta","name:ja":"カラバルタ","name:ru":"Кара-Балта","int_name":"Kara-Balta","name:ar":"قره بالته","name:fa":"قره‌بالته","name:kk":"Қарабалта","name:ky":"Кара-Балта","name:uz":"Qorabolta","name:kk-Arab":"قارابالتا","name:kk-Cyrl":"Қарабалта","name:kk-Latn":"Qarabalta","name:ky-Arab":"قارا بالتا","name:uz-Arab":"قره‌بالته","name:uz-Cyrl":"Қораболта","name:uz-Latn":"Qorabolta"},"display_name":"Кара-Балта, Жайыл району, Чүй облусу, Кыргызстан","address":{"town":"Кара-Балта","county":"Жайыл району","state":"Чүй облусу","ISO3166-2-lvl4":"KG-C","country":"Кыргызстан","country_code":"kg"},"population":37834,"osm_type":"relation","osm_id":7727439,"type":"town","location":[73.8523018,42.801143],"bbox":[73.8229322,42.7945264,73.8804308,42.8284805]}]}
{"name":"Кара-Көл","other_names":{"name:en":"Kara-Köl","name:fa":"قره‌کول","name:kk":"Қаракөл","name:ky":"Кара-Көл","name:ml":"ഖറ-കുൽ","name:ru":"Кара-Куль","name:tg":"Қаро-Кӯл","name:tr":"Karaköl","name:uz":"Qorakoʻl","name:kk-Arab":"قاراكول","name:kk-Cyrl":"Қаракөл","name:kk-Latn":"Qaraköl","name:ky-Arab":"قارا كۅل","name:uz-Arab":"قاره کۉل","name:uz-Cyrl":"Қоракўл","name:uz-Latn":"Qorakoʻl"},"display_name":"Кара-Көл, Кара-Көл шаары, Жалал-Абад облусу, Кыргызстан","address":{"town":"Кара-Көл","state":"Жалал-Абад облусу","ISO3166-2-lvl4":"KG-J","country":"Кыргызстан","country_code":"kg"},"population":26900,"osm_type":"node","osm_id":4491834960,"type":"town","location":[72.6717465,41.6315664],"bbox":[72.6317465,41.5915664,72.7117465,41.6715664],"border":{"name":"Кара-Көл шаары","other_names":{"name:en":"Kara-Köl City","name:fa":"شهر قره‌کول","name:kk":"Қаракөл қаласы","name:ky":"Кара-Көл шаары","name:ru":"город Кара-Куль","name:tg":"шаҳри Қаро-Кӯл","name:tr":"Karaköl şehri","name:uz":"Qorakoʻl shahri","int_name":"Kara-Kel'","name:kk-Arab":"قاراكول قالاسى","name:kk-Cyrl":"Қаракөл қаласы","name:kk-Latn":"Qaraköl qalasy","name:ky-Arab":"قارا كۅل شااری","name:uz-Arab":"قاره کۉل شهری","name:uz-Cyrl":"Қоракўл шаҳри","name:uz-Latn":"Qorakoʻl shahri","name:ml":"ഖറ-കുൽ","alt":"Кара-Көл","alt:en":"Kara-Köl","alt:fa":"قره‌کول","alt:kk":"Қаракөл","alt:ky":"Кара-Көл","alt:ru":"Кара-Куль","alt:tg":"Қаро-Кӯл","alt:tr":"Karaköl","alt:uz":"Qorakoʻl","alt:kk-Arab":"قاراكول","alt:kk-Cyrl":"Қаракөл","alt:kk-Latn":"Qaraköl","alt:ky-Arab":"قارا كۅل","alt:uz-Arab":"قاره کۉل","alt:uz-Cyrl":"Қоракўл","alt:uz-Latn":"Qorakoʻl"},"display_name":"Кара-Көл шаары, Жалал-Абад облусу, Кыргызстан","address":{"town":"Кара-Көл шаары","state":"Жалал-Абад облусу","ISO3166-2-lvl4":"KG-J","country":"Кыргызстан","country_code":"kg"},"population":18843,"osm_type":"relation","osm_id":15559854,"type":"administrative","location":[72.6717465,41.6315664],"bbox":[72.6466461,41.6119136,72.7441283,41.650662]}}
{"name":"Кара-Кулжа","other_names":{"name:en":"Kara-Kulja","name:fa":"قره‌کولجه","name:kk":"Қарақұлжа","name:ky":"Кара-Кулжа","name:ml":"ഖറ-കുൽജ","name:ru":"Кара-Кульджа","name:tg":"Қоракулча","name:tr":"Kara-Kulca","name:uz":"Qorakulcha","name:kk-Arab":"قاراقۇلجا","name:kk-Cyrl":"Қарақұлжа","name:kk-Latn":"Qaraqūlja","name:ky-Arab":"قارا قۇلجا","name:uz-Arab":"قره کولچه","name:uz-Cyrl":"Қоракулча","name:uz-Latn":"Qorakulcha"},"display_name":"Кара-Кулжа, Кара-Кулжа району, Ош облусу, Кыргызстан","address":{"town":"Кара-Кулжа","county":"Кара-Кулжа району","state":"Ош облусу","ISO3166-2-lvl4":"KG-O","country":"Кыргызстан","country_code":"kg"},"population":11794,"osm_type":"node","osm_id":2040579496,"type":"town","location":[73.5909741,40.6334207],"bbox":[73.5509741,40.5934207,73.6309741,40.6734207],"border":{"name":"Кара-Кулжа","other_names":{"name:en":"Kara-Kulja","name:ru":"Кара-Кульджа","name:fa":"قره‌کولجه","name:kk":"Қарақұлжа","name:ky":"Кара-Кулжа","name:ml":"ഖറ-കുൽജ","name:tg":"Қоракулча","name:tr":"Kara-Kulca","name:uz":"Qorakulcha","name:kk-Arab":"قاراقۇلجا","name:kk-Cyrl":"Қарақұлжа","name:kk-Latn":"Qaraqūlja","name:ky-Arab":"قارا قۇلجا","name:uz-Arab":"قره کولچه","name:uz-Cyrl":"Қоракулча","name:uz-Latn":"Qorakulcha"},"display_name":"Кара-Кулжа, Кара-Кулжа району, Ош облусу, Кыргызстан","address":{"town":"Кара-Кулжа","county":"Кара-Кулжа району","state":"Ош облусу","ISO3166-2-lvl4":"KG-O","country":"Кыргызстан","country_code":"kg"},"population":11794,"osm_type":"way","osm_id":27387502,"type":"town","location":[73.5909741,40.6334207],"bbox":[73.5581258,40.6239033,73.619881,40.6412286]}}
{"name":"Кара-Суу","other_names":{"name:de":"Karasuu","name:en":"Kara-Suu","name:fa":"قره‌سو","name:kk":"Қарасу","name:ky":"Кара-Суу","name:ml":"ഖറാസൂ","name:ru":"Кара-Суу","name:tg":"Қорасув","name:tr":"Kara-Su","name:uz":"Qorasuv","name:kk-Arab":"قاراسۋ","name:kk-Cyrl":"Қарасу","name:kk-Latn":"Qarasu","name:ky-Arab":"قارا سۇۇ","name:uz-Arab":"قره سوو","name:uz-Cyrl":"Қорасув","name:uz-Latn":"Qorasuv"},"display_name":"Кара-Суу, Кара-Суу району, Ош облусу, Кыргызстан","address":{"town":"Кара-Суу","county":"Кара-Суу району","state":"Ош облусу","ISO3166-2-lvl4":"KG-O","country":"Кыргызстан","country_code":"kg"},"population":27700,"osm_type":"node","osm_id":295938290,"type":"town","location":[72.8799131,40.7068689],"bbox":[72.8399131,40.6668689,72.9199131,40.7468689],"border":{"name":"Кара-Суу","other_names":{"name:de":"Karasuu","name:en":"Kara-Suu","name:ru":"Кара-Суу","name:fa":"قره‌سو","name:kk":"Қарасу","name:ky":"Кара-Суу","name:ml":"ഖറാസൂ","name:tg":"Қорасув","name:tr":"Kara-Su","name:uz":"Qorasuv","name:kk-Arab":"قاراسۋ","name:kk-Cyrl":"Қарасу","name:kk-Latn":"Qarasu","name:ky-Arab":"قارا سۇۇ","name:uz-Arab":"قره سوو","name:uz-Cyrl":"Қорасув","name:uz-Latn":"Qorasuv"},"display_name":"Кара-Суу, Кара-Суу району, Ош облусу, Кыргызстан","address":{"town":"Кара-Суу","county":"Кара-Суу району","state":"Ош облусу","ISO3166-2-lvl4":"KG-O","country":"Кыргызстан","country_code":"kg"},"population":20900,"osm_type":"way","osm_id":27642869,"type":"town","location":[72.8799131,40.7068689],"bbox":[72.8574899,40.6933266,72.9025213,40.7207582]}}
{"name":"Кемин","other_names":{"name:ar":"كيمين","name:en":"Kemin","name:fa":"کمین","name:kk":"Кемин","name:ky":"Кемин","name:ru":"Кемин","name:tg":"Кемин","name:tr":"Kemin","name:uz":"Kemin","old_name":"Быстровка","name:kk-Arab":"كەمين","name:kk-Cyrl":"Кемин","name:kk-Latn":"Kemin","name:ky-Arab":"كەمىن","name:uz-Arab":"کېمین","name:uz-Cyrl":"Кемин","name:uz-Latn":"Kemin"},"display_name":"Кемин, Кемин району, Чүй облусу, Кыргызстан","address":{"town":"Кемин","county":"Кемин району","state":"Чүй облусу","ISO3166-2-lvl4":"KG-C","country":"Кыргызстан","country_code":"kg"},"population":10400,"osm_type":"node","osm_id":297591036,"type":"town","location":[75.6894898,42.7821487],"bbox":[75.6494898,42.7421487,75.7294898,42.8221487],"border":{"name":"Кемин","other_names":{"name:en":"Kemin","name:ru":"Кемин","old_name":"Быстровка","name:ar":"كيمين","name:fa":"کمین","name:kk":"Кемин","name:ky":"Кемин","name:tg":"Кемин","name:tr":"Kemin","name:uz":"Kemin","name:kk-Arab":"كەمين","name:kk-Cyrl":"Кемин","name:kk-Latn":"Kemin","name:ky-Arab":"كەمىن","name:uz-Arab":"کېمین","name:uz-Cyrl":"Кемин","name:uz-Latn":"Kemin"},"display_name":"Кемин, Кемин району, Чүй облусу, Кыргызстан","address":{"town":"Кемин","county":"Кемин району","state":"Чүй облусу","ISO3166-2-lvl4":"KG-C","country":"Кыргызстан","country_code":"kg"},"population":8169,"osm_type":"way","osm_id":171380711,"type":"town","location":[75.6894898,42.7821487],"bbox":[75.6689385,42.75871,75.711678,42.7941773]}}
{"name":"Кербен","other_names":{"name:en":"Kerben","name:et":"Kerben","name:fa":"کربن","name:fr":"Kerben","name:it":"Kerben","name:ky":"Кербен","name:lt":"Kerbenas","name:ml":"കെർബെൻ","name:ru":"Кербен","name:uk":"Кербен","name:uz":"Kerben","name:zh":"凯尔本","name:alt":"Караван","old_name":"Караван","name:ky-Arab":"كەربەن"},"display_name":"Кербен, Аксы району, Жалал-Абад облусу, Кыргызстан","address":{"town":"Кербен","county":"Аксы району","state":"Жалал-Абад облусу","ISO3166-2-lvl4":"KG-J","country":"Кыргызстан","country_code":"kg"},"population":30200,"osm_type":"node","osm_id":296104950,"type":"town","location":[71.7545713,41.4895819],"bbox":[71.7145713,41.4495819,71.7945713,41.5295819]}
{"name":"Кочкор-Ата","other_names":{"name:en":"Kochkor-Ata","name:ml":"കാച്ച്കാർ-ആത്ത","name:ru":"Кочкор-Ата"},"display_name":"Кочкор-Ата, Ноокен району, Жалал-Абад облусу, Кыргызстан","address":{"town":"Кочкор-Ата","county":"Ноокен району","state":"Жалал-Абад облусу","ISO3166-2-lvl4":"KG-J","country":"Кыргызстан","country_code":"kg"},"population":17500,"osm_type":"node","osm_id":296218974,"type":"town","location":[72.4833977,41.0353883],"bbox":[72.4433977,40.9953883,72.5233977,41.0753883],"border":{"name":"Кочкор-Ата","other_names":{"name:en":"Kochkor-Ata","name:ru":"Кочкор-Ата","int_name":"Kochkor-Ata","name:ml":"കാച്ച്കാർ-ആത്ത"},"display_name":"Кочкор-Ата, Ноокен району, Жалал-Абад облусу, Кыргызстан","address":{"town":"Кочкор-Ата","county":"Ноокен району","state":"Жалал-Абад облусу","ISO3166-2-lvl4":"KG-J","country":"Кыргызстан","country_code":"kg"},"population":14800,"osm_type":"way","osm_id":27637574,"type":"town","location":[72.4833977,41.0353883],"bbox":[72.4603441,41.0156094,72.5044651,41.0606509]}}
{"name":"Кочкор","other_names":{"name:en":"Kochkor","name:fa":"قوچقار","name:kk":"Қошқар","name:ky":"Кочкор","name:ru":"Кочкорка","name:tg":"Қӯчқор","name:tr":"Koçkor","name:uz":"Qoʻchqor","name:zh":"科奇科尔","alt_name":"Кочкор","int_name":"Kochkor","name:kk-Arab":"قوشقار","name:kk-Cyrl":"Қошқар","name:kk-Latn":"Qoşqar","name:ky-Arab":"قوچقور","name:uz-Arab":"قۉچقار","name:uz-Cyrl":"Қўчқор","name:uz-Latn":"Qoʻchqor"},"display_name":"Кочкор, Кочкор району, Нарын облусу, 722640, Кыргызстан","address":{"town":"Кочкор","county":"Кочкор району","state":"Нарын облусу","ISO3166-2-lvl4":"KG-N","postcode":"722640","country":"Кыргызстан","country_code":"kg"},"population":17371,"osm_type":"node","osm_id":3818340965,"type":"town","location":[75.7540941,42.2131802],"bbox":[75.7140941,42.1731802,75.7940941,42.2531802],"border":{"name":"Кочкор","other_names":{"name:ky":"Кочкор","int_name":"Kochkor","old_name":"Kochkorka","name:en":"Kochkor","name:fa":"قوچقار","name:kk":"Қошқар","name:ru":"Кочкорка","name:tg":"Қӯчқор","name:tr":"Koçkor","name:uz":"Qoʻchqor","name:zh":"科奇科尔","alt_name":"Кочкор","name:kk-Arab":"قوشقار","name:kk-Cyrl":"Қошқар","name:kk-Latn":"Qoşqar","name:ky-Arab":"قوچقور","name:uz-Arab":"قۉچقار","name:uz-Cyrl":"Қўчқор","name:uz-Latn":"Qoʻchqor"},"display_name":"Кочкор, Кочкор району, Нарын облусу, Кыргызстан","address":{"town":"Кочкор","county":"Кочкор району","state":"Нарын облусу","ISO3166-2-lvl4":"KG-N","country":"Кыргызстан","country_code":"kg"},"population":17371,"osm_type":"way","osm_id":27351385,"type":"town","location":[75.7540941,42.2131802],"bbox":[75.720349,42.1936503,75.791488,42.2313592]}}
{"name":"Көк-Жаңгак","other_names":{"name:en":"Kök-Jangak","name:fa":"کوک جانگغاق","name:kk":"Көк жаңғақ","name:ky":"Көк-Жаңгак","name:ru":"Кок-Джангак","name:tr":"Kökcangak","name:uz":"Koʻk Uongʻoq","alt_name":"Кок-Жангак","old_name":"Кок-Янгак","alt_name:ru":"Кок-Жангак","old_name:ru":"Кок-Янгак","name:kk-Cyrl":"Көк жаңғақ","name:ky-Arab":"كۅك جاڭعاق","name:ky-Cyrl":"Көк-Жаңгак","name:ky-Latn":"Kök-Cañğaq","name:uz-Arab":"کۉک یانغاق","name:uz-Cyrl":"Кўк Уонғоқ"},"display_name":"Көк-Жаңгак, Көк-Жаңгак шаары, Жалал-Абад облусу, Кыргызстан","address":{"town":"Көк-Жаңгак","state":"Жалал-Абад облусу","ISO3166-2-lvl4":"KG-J","country":"Кыргызстан","country_code":"kg"},"population":12100,"osm_type":"node","osm_id":301134476,"type":"town","location":[73.1978498,41.0308503],"bbox":[73.1578498,40.9908503,73.2378498,41.0708503],"border":{"name":"Көк-Жаңгак шаары","other_names":{"name:en":"Kök-Jangak City","name:fa":"شهر کوک جانگغاق","name:kk":"Көк жаңғақ қаласы","name:ky":"Көк-Жаңгак шаары","name:ru":"город Кёк-Джангак","name:uz":"Koʻk Uongʻoq Shahri","alt_name":"Кок-Жангак","old_name":"Кок-Янгак","alt_name:ru":"Кок-Жангак","old_name:ru":"Кок-Янгак","name:kk-Arab":"كوك جاڭعاق قالاسى","name:kk-Cyrl":"Көк жаңғақ қаласы","name:kk-Latn":"Kök jañğaq qalası","name:ky-Arab":"كۅك جاڭعاق شاارى","name:ky-Cyrl":"Көк-Жаңгак шаары","name:ky-Latn":"Kök-Cañğaq şaary","name:uz-Arab":"کۉک یانغاق شهری","name:uz-Cyrl":"Кўк Уонғоқ шаҳри","name:tr":"Kökcangak","alt":"Көк-Жаңгак","alt:en":"Kök-Jangak","alt:fa":"کوک جانگغاق","alt:kk":"Көк жаңғақ","alt:ky":"Көк-Жаңгак","alt:ru":"Кок-Джангак","alt:uz":"Koʻk Uongʻoq","alt:kk-Cyrl":"Көк жаңғақ","alt:ky-Arab":"كۅك جاڭعاق","alt:ky-Cyrl":"Көк-Жаңгак","alt:ky-Latn":"Kök-Cañğaq","alt:uz-Arab":"کۉک یانغاق","alt:uz-Cyrl":"Кўк Уонғоқ"},"display_name":"Көк-Жаңгак шаары, Жалал-Абад облусу, Кыргызстан","address":{"town":"Көк-Жаңгак шаары","state":"Жалал-Абад облусу","ISO3166-2-lvl4":"KG-J","country":"Кыргызстан","country_code":"kg"},"population":10451,"osm_type":"relation","osm_id":15547630,"type":"administrative","location":[73.1978498,41.0308503],"bbox":[73.1707919,41.0135916,73.2208484,41.0438424]}}
{"name":"Кызыл-Адыр","other_names":{"name:fa":"قزل-آدیر","name:kk":"Қызыладыр","name:ky":"Кызыл-Адыр","name:ru":"Кызыл-Адыр","name:tg":"Қизил-Адир","name:tr":"Kızıl-Adır","name:uz":"Qizil-Adir","int_name":"Kızıl-Adır","old_name:en":"Kyzyl Adyr","name:kk-Arab":"قىزىل ادىر","name:kk-Cyrl":"Қызыладыр","name:kk-Latn":"Qyzyladyr","name:ky-Arab":"قىزىل ادىر","name:uz-Arab":"قیزیل ادیر","name:uz-Cyrl":"Қизил-Адир","name:uz-Latn":"Qizil-Adir"},"display_name":"Кызыл-Адыр, Кара-Буура району, Талас облусу, Кыргызстан","address":{"town":"Кызыл-Адыр","county":"Кара-Буура району","state":"Талас облусу","ISO3166-2-lvl4":"KG-T","country":"Кыргызстан","country_code":"kg"},"osm_type":"node","osm_id":297095382,"type":"town","location":[71.5880192,42.6179268],"bbox":[71.5480192,42.5779268,71.6280192,42.6579268],"border":{"name":"Кызыл-Адыр","other_names":{"name:fa":"قزل-آدیر","name:kk":"Қызыладыр","name:ky":"Кызыл-Адыр","name:ru":"Кызыл-Адыр","name:tg":"Қизил-Адир","name:tr":"Kızıl-Adır","name:uz":"Qizil-Adir","int_name":"Kızıl-Adır","old_name:en":"Kyzyl Adyr","name:kk-Arab":"قىزىل ادىر","name:kk-Cyrl":"Қызыладыр","name:kk-Latn":"Qyzyladyr","name:ky-Arab":"قىزىل ادىر","name:uz-Arab":"قیزیل ادیر","name:uz-Cyrl":"Қизил-Адир","name:uz-Latn":"Qizil-Adir"},"display_name":"Кызыл-Адыр, Кара-Буура району, Талас облусу, 723900, Кыргызстан","address":{"town":"Кызыл-Адыр","county":"Кара-Буура району","state":"Талас облусу","ISO3166-2-lvl4":"KG-T","postcode":"723900","country":"Кыргызстан","country_code":"kg"},"osm_type":"way","osm_id":27355189,"type":"town","location":[71.5880192,42.6179268],"bbox":[71.5620722,42.6018863,71.6062613,42.6393212]}}
{"name":"Кызыл-Суу","other_names":{"name:ar":"قيزيل سوو","name:en":"Kyzyl-Suu","name:fa":"قزل‌سو","name:ky":"Кызыл-Суу","name:ru":"Кызыл-Суу","name:uz":"قیزیل‌سوو","alt_name":"Покровка","old_name":"Покровка","name:ky-Arab":"قىزىل‌سۇۇ","name:uz-Arab":"قیزیل‌سوو"},"display_name":"Кызыл-Суу, Жети-Өгүз району, Ысык-Көл облусу, Кыргызстан","address":{"town":"Кызыл-Суу","county":"Жети-Өгүз району","state":"Ысык-Көл облусу","ISO3166-2-lvl4":"KG-Y","country":"Кыргызстан","country_code":"kg"},"population":15389,"osm_type":"node","osm_id":297334113,"type":"town","location":[78.004654,42.339524],"bbox":[77.964654,42.299524,78.044654,42.379524],"border":{"name":"Кызыл-Суу","other_names":{"name:en":"Kyzyl-Suu","name:ky":"Кызыл-Суу","name:ru":"Кызыл-Суу","alt_name":"Покровка","old_name":"Покровка","name:ar":"قيزيل سوو","name:fa":"قزل‌سو","name:uz":"قیزیل‌سوو","name:ky-Arab":"قىزىل‌سۇۇ","name:uz-Arab":"قیزیل‌سوو"},"display_name":"Кызыл-Суу, Жети-Өгүз району, Ысык-Көл облусу, Кыргызстан","address":{"town":"Кызыл-Суу","county":"Жети-Өгүз району","state":"Ысык-Көл облусу","ISO3166-2-lvl4":"KG-Y","country":"Кыргызстан","country_code":"kg"},"population":15389,"osm_type":"way","osm_id":120374573,"type":"town","location":[78.004654,42.339524],"bbox":[77.978543,42.3272341,78.0296337,42.3555312]}}
{"name":"Майлуу-Суу","other_names":{"name:en":"Mailuu-Suu","name:fa":"مایلوسو","name:ky":"Майлуу-Суу","name:ml":"മായിലൂ-സൂ","name:ru":"Майлуу-Суу","name:uz":"Moylisoy","old_name":"Майли-Сай","name:ky-Arab":"مايلۇۇ۔سۇۇ","name:ky-Cyrl":"Майлуу-Суу","name:uz-Arab":"مایله سوو","name:uz-Cyrl":"Мойлисой","name:uz-Latn":"Moylisoy"},"display_name":"Майлуу-Суу, Майлуу-Суу шаары, Жалал-Абад облусу, Кыргызстан","address":{"town":"Майлуу-Суу","state":"Жалал-Абад облусу","ISO3166-2-lvl4":"KG-J","country":"Кыргызстан","country_code":"kg"},"population":25900,"osm_type":"node","osm_id":296218233,"type":"town","location":[72.4508285,41.2456995],"bbox":[72.4108285,41.2056995,72.4908285,41.2856995],"border":{"name":"Майлуу-Суу шаары","other_names":{"name:en":"Mailuu-Suu City","name:fa":"شهر مایلوسو","name:ky":"Майлуу-Суу шаары","name:ru":"город Майлуу-Суу","name:uz":"Moylisoy shahri","name:ky-Arab":"مايلۇۇ۔سۇۇ شااری","name:ky-Cyrl":"Майлуу-Суу шаары","name:uz-Arab":"مایله سوو شهری","name:uz-Cyrl":"Мойлисой шаҳри","name:uz-Latn":"Moylisoy shahri","name:ml":"മായിലൂ-സൂ","old_name":"Майли-Сай","alt":"Майлуу-Суу","alt:en":"Mailuu-Suu","alt:fa":"مایلوسو","alt:ky":"Майлуу-Суу","alt:ru":"Майлуу-Суу","alt:uz":"Moylisoy","alt:ky-Arab":"مايلۇۇ۔سۇۇ","alt:ky-Cyrl":"Майлуу-Суу","alt:uz-Arab":"مایله سوو","alt:uz-Cyrl":"Мойлисой","alt:uz-Latn":"Moylisoy"},"display_name":"Майлуу-Суу шаары, Жалал-Абад облусу, Кыргызстан","address":{"town":"Майлуу-Суу шаары","state":"Жалал-Абад облусу","ISO3166-2-lvl4":"KG-J","country":"Кыргызстан","country_code":"kg"},"population":22853,"osm_type":"relation","osm_id":15547843,"type":"administrative","location":[72.4508285,41.2456995],"bbox":[72.3937331,41.1672975,72.5299407,41.3313796]}}
{"name":"Массы","other_names":{"name:en":"Massy","name:ml":"മാസ്സി","name:ru":"Массы","name:uz":"Mossi","int_name":"Massy","name:ky-Arab":"ماسسى","name:uz-Arab":"ماسسی","name:uz-Cyrl":"Мосси","name:uz-Latn":"Mossi"},"display_name":"Массы, Ноокен району, Жалал-Абад облусу, Кыргызстан","address":{"town":"Массы","county":"Ноокен району","state":"Жалал-Абад облусу","ISO3166-2-lvl4":"KG-J","country":"Кыргызстан","country_code":"kg"},"osm_type":"node","osm_id":296222288,"type":"town","location":[72.6405274,41.0664656],"bbox":[72.6005274,41.0264656,72.6805274,41.1064656]}
{"name":"Ноокат","other_names":{"name:en":"Nookat","name:fa":"نوکت","name:ja":"ノオカト","name:kk":"Науқат","name:ky":"Ноокат","name:ml":"നൂക്കത്ത്","name:ru":"Ноокат","name:tg":"Новқат","name:tr":"Nookat","name:uz":"Novqat","int_name":"Nookat","old_name":"Эски-Ноокат","old_name:en":"Eski-Nookat","old_name:ru":"Эски-Ноокат","name:kk-Arab":"ناۋقات","name:kk-Cyrl":"Науқат","name:kk-Latn":"Nauqat","name:ky-Arab":"نووقات","name:uz-Arab":"نوکت","name:uz-Cyrl":"Новқат","name:uz-Latn":"Novqat"},"display_name":"Ноокат, Ноокат району, Ош облусу, Кыргызстан","address":{"town":"Ноокат","county":"Ноокат району","state":"Ош облусу","ISO3166-2-lvl4":"KG-O","country":"Кыргызстан","country_code":"kg"},"population":18300,"osm_type":"node","osm_id":297803397,"type":"town","location":[72.6178387,40.2657382],"bbox":[72.5778387,40.2257382,72.6578387,40.3057382],"border":{"name":"Ноокат","other_names":{"name:en":"Nookat","name:ja":"ノオカト","name:ky":"Ноокат","name:ru":"Ноокат","int_name":"Nookat","old_name":"Эски-Ноокат","old_name:en":"Eski-Nookat","old_name:ru":"Эски-Ноокат","name:fa":"نوکت","name:kk":"Науқат","name:ml":"നൂക്കത്ത്","name:tg":"Новқат","name:tr":"Nookat","name:uz":"Novqat","name:kk-Arab":"ناۋقات","name:kk-Cyrl":"Науқат","name:kk-Latn":"Nauqat","name:ky-Arab":"نووقات","name:uz-Arab":"نوکت","name:uz-Cyrl":"Новқат","name:uz-Latn":"Novqat"},"display_name":"Ноокат, Ноокат району, Ош облусу, Кыргызстан","address":{"town":"Ноокат","county":"Ноокат району","state":"Ош облусу","ISO3166-2-lvl4":"KG-O","country":"Кыргызстан","country_code":"kg"},"population":18300,"osm_type":"way","osm_id":808093156,"type":"town","location":[72.6178387,40.2657382],"bbox":[72.5888908,40.2344766,72.6504099,40.2916139]}}
{"name":"Орловка","other_names":{"name:ar":"أورلوفكا","name:en":"Orlovka","name:fa":"اورلوفکا","name:he":"אורלובקה","name:ru":"Орловка","name:ky-Arab":"ورلوۋقا"},"display_name":"Орловка, Кемин району, Чүй облусу, Кыргызстан","address":{"town":"Орловка","county":"Кемин району","state":"Чүй облусу","ISO3166-2-lvl4":"KG-C","country":"Кыргызстан","country_code":"kg"},"population":6200,"osm_type":"node","osm_id":1857381743,"type":"town","location":[75.5888436,42.7426931],"bbox":[75.5488436,42.7026931,75.6288436,42.7826931],"border":{"name":"Орловка","other_names":{"name:en":"Orlovka","name:ru":"Орловка","name:ar":"أورلوفكا","name:fa":"اورلوفکا","name:he":"אורלובקה","name:ky-Arab":"ورلوۋقا"},"display_name":"Орловка, Кемин району, Чүй облусу, Кыргызстан","address":{"town":"Орловка","county":"Кемин району","state":"Чүй облусу","ISO3166-2-lvl4":"KG-C","country":"Кыргызстан","country_code":"kg"},"population":4800,"osm_type":"relation","osm_id":17097848,"type":"administrative","location":[75.5888436,42.7426931],"bbox":[75.5680058,42.7332423,75.6086401,42.7601608]}}
{"name":"Раззаков (быв. Исфана)","other_names":{"name:ar":"رازقوف","name:en":"Razzakov","name:ky":"Раззаков (мур. Исфана)","name:lt":"Razakovas","name:pl":"Razzakow","name:ru":"Раззаков (быв. Исфана)","name:uz":"Razzakov","alt_name":"Исфана","int_name":"Razzakov","old_name":"Исфана","alt_name:en":"Isfana","name:uz-cyr":"Раззаков","old_name:en":"Isfana"},"display_name":"Раззаков (быв. Исфана), Раззаков, Лейлек району, Баткен облусу, 720400, Кыргызстан","address":{"town":"Раззаков (быв. Исфана)","county":"Лейлек району","state":"Баткен облусу","ISO3166-2-lvl4":"KG-B","postcode":"720400","country":"Кыргызстан","country_code":"kg"},"population":34200,"osm_type":"node","osm_id":271667086,"type":"town","location":[69.5312303,39.8361392],"bbox":[69.4912303,39.7961392,69.5712303,39.8761392],"border":{"name":"Раззаков","other_names":{"name:en":"Razzakov","name:lt":"Razakovas","name:pl":"Razzakow","name:ru":"Раззаков","name:uz":"Razzakov","alt_name":"Исфана","int_name":"Razzakov","old_name":"Исфана","alt_name:en":"Isfana","name:uz-cyr":"Раззаков","old_name:en":"Isfana","name:ar":"رازقوف","name:ky":"Раззаков (мур. Исфана)","alt":"Раззаков (быв. Исфана)","alt:ru":"Раззаков (быв. Исфана)"},"display_name":"Раззаков, Лейлек району, Баткен облусу, 720400, Кыргызстан","address":{"town":"Раззаков","county":"Лейлек району","state":"Баткен облусу","ISO3166-2-lvl4":"KG-B","postcode":"720400","country":"Кыргызстан","country_code":"kg"},"population":27962,"osm_type":"way","osm_id":32561516,"type":"town","location":[69.5312303,39.8361392],"bbox":[69.5077327,39.8134336,69.5590253,39.8514149]}}
{"name":"Семетей","other_names":{"name:en":"Semetey","name:fa":"پوکروفکا","name:ky":"Семетей","name:ru":"Семетей","name:tr":"Semetey","name:uz":"Semetey","int_name":"Semetey","old_name":"Покровка","name:ky-Arab":"پوكروۋقا"},"display_name":"Семетей, Манас району, Талас облусу, Кыргызстан","address":{"town":"Семетей","county":"Манас району","state":"Талас облусу","ISO3166-2-lvl4":"KG-T","country":"Кыргызстан","country_code":"kg"},"osm_type":"node","osm_id":2291431294,"type":"town","location":[71.6108569,42.7368436],"bbox":[71.5708569,42.6968436,71.6508569,42.7768436],"border":{"name":"Семетей","other_names":{"name:en":"Semetey","name:fa":"پوکروفکا","name:ky":"Семетей","name:ru":"Семетей","name:tr":"Semetey","name:uz":"Semetey","int_name":"Semetey","old_name":"Покровка","name:ky-Arab":"پوكروۋقا"},"display_name":"Семетей, Манас району, Талас облусу, Кыргызстан","address":{"town":"Семетей","county":"Манас району","state":"Талас облусу","ISO3166-2-lvl4":"KG-T","country":"Кыргызстан","country_code":"kg"},"osm_type":"way","osm_id":252399600,"type":"town","location":[71.6108569,42.7368436],"bbox":[71.5899883,42.7074234,71.6281471,42.7648581]}}
{"name":"Сүлүктү","other_names":{"name:ar":"سولوكته","name:az":"Sülüklü","name:en":"Sülüktü","name:fa":"سولوک‌تو","name:kk":"Сүлікті","name:ky":"Сүлүктү","name:pl":"Sülüktü","name:ru":"Сулюкта","name:tg":"Сулукта","name:tr":"Sülüklü","name:uz":"Sulukta","int_name":"Sülüktü","name:azb":"سۆلۆکتۆ","name:kk-Arab":"سۇلىكتى","name:kk-Cyrl":"Сүлікті","name:kk-Latn":"Sülıktı","name:ky-Arab":"سۉلۉكتۉ","name:uz-Arab":"سولوکته","name:uz-Cyrl":"Сулукта","name:uz-Latn":"Sulukta"},"display_name":"Сүлүктү, Сүлүктү шаары, Баткен облусу, Кыргызстан","address":{"town":"Сүлүктү","state":"Баткен облусу","ISO3166-2-lvl4":"KG-B","country":"Кыргызстан","country_code":"kg"},"population":24200,"osm_type":"node","osm_id":271667922,"type":"town","location":[69.5711653,39.9407091],"bbox":[69.5311653,39.9007091,69.6111653,39.9807091],"border":[{"name":"Сүлүктү шаары","other_names":{"name:ar":"مدينة سولوكته","name:az":"Sülüklü şəhəri","name:en":"Sülüktü City","name:fa":"شهر سولوک‌تو","name:kk":"Сүлікті қаласы","name:ky":"Сүлүктү шаары","name:pl":"Sülüktü","name:ru":"город Сулюкта","name:tg":"Шаҳри Сулукта","name:tr":"Sülüklü Şehri","name:uz":"Sulukta shahri","int_name":"Sülüktü","name:azb":"سۆلۆکتۆ شهری","name:kk-Arab":"سۇلىكتى قالاسى","name:kk-Cyrl":"Сүлікті қаласы","name:kk-Latn":"Sülıktı qalasy","name:ky-Arab":"سۉلۉكتۉ شاارى","name:uz-Arab":"سولوکته شهری","name:uz-Cyrl":"Сулукта шаҳри","name:uz-Latn":"Sulukta shahri","alt":"Сүлүктү","alt:ar":"سولوكته","alt:az":"Sülüklü","alt:en":"Sülüktü","alt:fa":"سولوک‌تو","alt:kk":"Сүлікті","alt:ky":"Сүлүктү","alt:ru":"Сулюкта","alt:tg":"Сулукта","alt:tr":"Sülüklü","alt:uz":"Sulukta","alt:azb":"سۆلۆکتۆ","alt:kk-Arab":"سۇلىكتى","alt:kk-Cyrl":"Сүлікті","alt:kk-Latn":"Sülıktı","alt:ky-Arab":"سۉلۉكتۉ","alt:uz-Arab":"سولوکته","alt:uz-Cyrl":"Сулукта","alt:uz-Latn":"Sulukta"},"display_name":"Сүлүктү шаары, Баткен облусу, Кыргызстан","address":{"town":"Сүлүктү шаары","state":"Баткен облусу","ISO3166-2-lvl4":"KG-B","country":"Кыргызстан","country_code":"kg"},"population":20000,"osm_type":"relation","osm_id":4039638,"type":"administrative","location":[69.5711653,39.9407091],"bbox":[69.5556829,39.9141966,69.6748868,39.9466078]},{"name":"Сулюкта","other_names":{"name:en":"Sulyukta","name:ru":"Сулюкта","int_name":"Sulyukta"},"display_name":"Сулюкта, Сүлүктү шаары, Баткен облусу, Кыргызстан","address":{"administrative":"Сулюкта","town":"Сүлүктү шаары","state":"Баткен облусу","ISO3166-2-lvl4":"KG-B","country":"Кыргызстан","country_code":"kg"},"population":20000,"osm_type":"way","osm_id":32561420,"type":"administrative","location":[69.56718026054524,39.934650399999995],"bbox":[69.5571461,39.9241852,69.5830692,39.9452978]}]}
{"name":"Талас","other_names":{"name:en":"Talas","name:et":"Talas","name:fa":"تلاس","name:fr":"Talas","name:ja":"タラス","name:kk":"Талас","name:ky":"Талас","name:pl":"Tałas","name:ru":"Талас","name:tg":"Талас","name:uz":"Talas","int_name":"Talas","name:kk-Arab":"تالاس","name:kk-Cyrl":"Талас","name:kk-Latn":"Talas","name:ky-Arab":"تالاس","name:uz-Arab":"تلاس","name:uz-Cyrl":"Талас"},"display_name":"Талас, Талас шаары, Талас облусу, Кыргызстан","address":{"town":"Талас","state":"Талас облусу","ISO3166-2-lvl4":"KG-T","country":"Кыргызстан","country_code":"kg"},"population":40300,"osm_type":"node","osm_id":297094905,"type":"town","location":[72.247693,42.521995],"bbox":[72.207693,42.481995,72.287693,42.561995],"border":[{"name":"Талас","other_names":{"name:en":"Talas","name:et":"Talas","name:fa":"تلاس","name:fr":"Talas","name:ja":"タラス","name:kk":"Талас","name:ky":"Талас","name:pl":"Tałas","name:ru":"Талас","name:tg":"Талас","name:uz":"Talas","int_name":"Talas","name:kk-Arab":"تالاس","name:kk-Cyrl":"Талас","name:kk-Latn":"Talas","name:ky-Arab":"تالاس","name:uz-Arab":"تلاس","name:uz-Cyrl":"Талас"},"display_name":"Талас, Талас облусу, Кыргызстан","address":{"town":"Талас","state":"Талас облусу","ISO3166-2-lvl4":"KG-T","country":"Кыргызстан","country_code":"kg"},"population":32886,"osm_type":"way","osm_id":87618723,"type":"town","location":[72.24073698070353,42.52273205],"bbox":[72.1818202,42.5051247,72.2817909,42.5395249]},{"name":"Талас шаары","other_names":{"name:en":"Talas City","name:et":"Talas","name:fa":"شهر تلاس","name:kk":"Талас қаласы","name:ky":"Талас шаары","name:ru":"город Талас","name:tg":"шаҳри Талас","name:uz":"Talas Shahri","int_name":"Talas","name:kk-Arab":"تالاس قالاسى","name:kk-Cyrl":"Талас қаласы","name:kk-Latn":"Talas qalası","name:ky-Arab":"تالاس شاارى","name:uz-Arab":"تلاس شهری","name:uz-Cyrl":"Талас шаҳри","name:fr":"Talas","name:ja":"タラス","name:pl":"Tałas","alt":"Талас","alt:en":"Talas","alt:fa":"تلاس","alt:kk":"Талас","alt:ky":"Талас","alt:ru":"Талас","alt:tg":"Талас","alt:uz":"Talas","alt:kk-Arab":"تالاس","alt:kk-Cyrl":"Талас","alt:kk-Latn":"Talas","alt:ky-Arab":"تالاس","alt:uz-Arab":"تلاس","alt:uz-Cyrl":"Талас"},"display_name":"Талас шаары, Талас облусу, Кыргызстан","address":{"town":"Талас шаары","state":"Талас облусу","ISO3166-2-lvl4":"KG-T","country":"Кыргызстан","country_code":"kg"},"population":32886,"osm_type":"relation","osm_id":15573321,"type":"administrative","location":[72.247693,42.521995],"bbox":[72.1790689,42.5052062,72.2824515,42.5402739]}]}
{"name":"Таш-Көмүр","other_names":{"name:az":"Taş-Kumır","name:be":"Таш-Кумыр","name:ce":"Таш-Коьмуьр","name:de":"Tasch-Kömür","name:en":"Tash-Komur","name:et":"Taš-Kömür","name:fa":"تاش‌کومیر","name:fr":"Tachkoumyr","name:hu":"Taskömür","name:it":"Taškömur","name:kk":"Таскөмір","name:ky":"Таш-Көмүр","name:lt":"Taš Kumyras","name:ml":"താഷ്‌കോമിർ","name:pl":"Tasz-Kömür","name:ru":"Таш-Кумыр","name:sv":"Tasj-Kömür","name:tg":"Тошкумур","name:tr":"Taş-Kömür","name:tt":"Ташкүмер","name:uk":"Таш-Кумир","name:uz":"Toshkoʻmir","name:zh":"塔什库梅尔","int_name":"Tashkumyr","name:kk-Arab":"تاسكومىر","name:kk-Cyrl":"Таскөмір","name:kk-Latn":"Taskömır","name:ky-Arab":"تاش كۅمۉر","name:uz-Arab":"تاش کۉمیر","name:uz-Cyrl":"Тошкўмир","name:uz-Latn":"Toshkoʻmir"},"display_name":"Таш-Көмүр, Таш-Көмүр шаары, Жалал-Абад облусу, Кыргызстан","address":{"town":"Таш-Көмүр","state":"Жалал-Абад облусу","ISO3166-2-lvl4":"KG-J","country":"Кыргызстан","country_code":"kg"},"population":44100,"osm_type":"node","osm_id":271351004,"type":"town","location":[72.2215389,41.3453339],"bbox":[72.1815389,41.3053339,72.2615389,41.3853339],"border":{"name":"Таш-Көмүр шаары","other_names":{"name:en":"Tash-Komur City","name:fa":"شهر تاش‌کومیر","name:kk":"Таскөмір қаласы","name:ky":"Таш-Көмүр шаары","name:ru":"город Таш-Кумыр","name:tg":"шаҳри Тошкомир","name:tr":"Taş-Kömür şehri","name:uz":"Toshkoʻmir shahri","name:zh":"塔什库梅尔","int_name":"Tashkumyr","name:kk-Arab":"تاسكومىر قالاسى","name:kk-Cyrl":"Таскөмір қаласы","name:kk-Latn":"Taskömır qalasy","name:ky-Arab":"تاش كۅمۉر شااری","name:uz-Arab":"تاش کۉمیر شهری","name:uz-Cyrl":"Тошкўмир шаҳри","name:uz-Latn":"Toshkoʻmir shahri","name:az":"Taş-Kumır","name:be":"Таш-Кумыр","name:ce":"Таш-Коьмуьр","name:de":"Tasch-Kömür","name:et":"Taš-Kömür","name:fr":"Tachkoumyr","name:hu":"Taskömür","name:it":"Taškömur","name:lt":"Taš Kumyras","name:ml":"താഷ്‌കോമിർ","name:pl":"Tasz-Kömür","name:sv":"Tasj-Kömür","name:tt":"Ташкүмер","name:uk":"Таш-Кумир","alt":"Таш-Көмүр","alt:en":"Tash-Komur","alt:fa":"تاش‌کومیر","alt:kk":"Таскөмір","alt:ky":"Таш-Көмүр","alt:ru":"Таш-Кумыр","alt:tg":"Тошкумур","alt:tr":"Taş-Kömür","alt:uz":"Toshkoʻmir","alt:kk-Arab":"تاسكومىر","alt:kk-Cyrl":"Таскөмір","alt:kk-Latn":"Taskömır","alt:ky-Arab":"تاش كۅمۉر","alt:uz-Arab":"تاش کۉمیر","alt:uz-Cyrl":"Тошкўмир","alt:uz-Latn":"Toshkoʻmir"},"display_name":"Таш-Көмүр шаары, Жалал-Абад облусу, 721400, Кыргызстан","address":{"town":"Таш-Көмүр шаары","state":"Жалал-Абад облусу","ISO3166-2-lvl4":"KG-J","postcode":"721400","country":"Кыргызстан","country_code":"kg"},"population":19310,"osm_type":"relation","osm_id":15554967,"type":"administrative","location":[72.2215389,41.3453339],"bbox":[72.1591514,41.1544366,72.2430323,41.4070077]}}
{"name":"Токтогул","other_names":{"name:en":"Toktogul","name:fa":"توقتوغول","name:kk":"Тоқтағұл","name:ky":"Токтогул","name:ru":"Токтогул","name:tg":"Токтоғул","name:tr":"Toktogul","name:uz":"Toʻqtoʻgʻul","name:zh":"托克托古尔","name:kk-Arab":"توقتاعۇل","name:kk-Cyrl":"Тоқтағұл","name:kk-Latn":"Toqtağūl","name:ky-Arab":"توقتوعۇل","name:uz-Arab":"تۉقنۉغول","name:uz-Cyrl":"Тўқтўғул","name:uz-Latn":"Toʻqtoʻgʻul"},"display_name":"Токтогул, Токтогул району, Жалал-Абад облусу, 721615, Кыргызстан","address":{"town":"Токтогул","county":"Токтогул району","state":"Жалал-Абад облусу","ISO3166-2-lvl4":"KG-J","postcode":"721615","country":"Кыргызстан","country_code":"kg"},"population":20600,"osm_type":"node","osm_id":1863869638,"type":"town","location":[72.9378096,41.8719363],"bbox":[72.8978096,41.8319363,72.9778096,41.9119363],"border":{"name":"Токтогул","other_names":{"name:en":"Toktogul","name:ky":"Токтогул шаарчасы","name:ru":"Токтогул","name:uz":"Toʻqtoʻgʻul","int_name":"Toktogul","name:fa":"توقتوغول","name:kk":"Тоқтағұл","name:tg":"Токтоғул","name:tr":"Toktogul","name:zh":"托克托古尔","name:kk-Arab":"توقتاعۇل","name:kk-Cyrl":"Тоқтағұл","name:kk-Latn":"Toqtağūl","name:ky-Arab":"توقتوعۇل","name:uz-Arab":"تۉقنۉغول","name:uz-Cyrl":"Тўқтўғул","name:uz-Latn":"Toʻqtoʻgʻul","alt:ky":"Токтогул"},"display_name":"Токтогул, Токтогул району, Жалал-Абад облусу, Кыргызстан","address":{"town":"Токтогул","county":"Токтогул району","state":"Жалал-Абад облусу","ISO3166-2-lvl4":"KG-J","country":"Кыргызстан","country_code":"kg"},"population":20600,"osm_type":"way","osm_id":175011430,"type":"town","location":[72.9378096,41.8719363],"bbox":[72.9278664,41.8553439,72.9678301,41.892328]}}
{"name":"Түп","other_names":{"name:ar":"توب","name:en":"Tüp","name:fa":"توپ","name:kk":"Түп","name:ky":"Түп","name:ru":"Тюп","name:tg":"Туп","name:tr":"Tüp","name:uz":"Tup","name:kk-Arab":"ءتۇپ","name:kk-Cyrl":"Түп","name:kk-Latn":"Tüp","name:ky-Arab":"تۉپ","name:uz-Arab":"توپ","name:uz-Cyrl":"Туп","name:uz-Latn":"Tup"},"display_name":"Түп, Тюп, Түп району, Ысык-Көл облусу, Кыргызстан","address":{"town":"Түп","county":"Түп району","state":"Ысык-Көл облусу","ISO3166-2-lvl4":"KG-Y","country":"Кыргызстан","country_code":"kg"},"population":9828,"osm_type":"node","osm_id":247831442,"type":"town","location":[78.3594129,42.7336454],"bbox":[78.3194129,42.6936454,78.3994129,42.7736454]}
{"name":"Чаек","other_names":{"name:en":"Chaek","name:fa":"چائک","name:ru":"Чаек","name:ky-Arab":"چاەك"},"display_name":"Чаек, 12, Чаек, Жумгал району, Нарын облусу, 722700, Кыргызстан","address":{"town":"Чаек","house_number":"12","county":"Жумгал району","state":"Нарын облусу","ISO3166-2-lvl4":"KG-N","postcode":"722700","country":"Кыргызстан","country_code":"kg"},"osm_type":"node","osm_id":297093268,"type":"town","location":[74.5165241,41.9265892],"bbox":[74.4765241,41.8865892,74.5565241,41.9665892]}
{"name":"Чолпон-Ата","other_names":{"name:ar":"جولبان آته","name:en":"Cholpon-Ata","name:fa":"چولپان‌آتا","name:ky":"Чолпон-Ата","name:ru":"Чолпон-Ата","name:uz":"Choʻlponota","name:ky-Arab":"چولپوناتا","name:uz-Arab":"چۉلپان‌آته","name:uz-Cyrl":"Чўлпонота","name:uz-Latn":"Choʻlponota"},"display_name":"Чолпон-Ата, Ысык-Көл району, Ысык-Көл облусу, 722100, Кыргызстан","address":{"town":"Чолпон-Ата","county":"Ысык-Көл району","state":"Ысык-Көл облусу","ISO3166-2-lvl4":"KG-Y","postcode":"722100","country":"Кыргызстан","country_code":"kg"},"population":14200,"osm_type":"node","osm_id":297592717,"type":"town","location":[77.0665164,42.6417055],"bbox":[77.0265164,42.6017055,77.1065164,42.6817055],"border":{"name":"Чолпон-Ата","other_names":{"name:ba":"Сулпан-Ата","name:en":"Cholpon-Ata","name:kk":"Шолпан-Ата","name:ky":"Чолпон-Ата","name:ru":"Чолпон-Ата","name:tr":"Çolpan-Ata","name:tt":"Чулпан-Ата","name:ar":"جولبان آته","name:fa":"چولپان‌آتا","name:uz":"Choʻlponota","name:ky-Arab":"چولپوناتا","name:uz-Arab":"چۉلپان‌آته","name:uz-Cyrl":"Чўлпонота","name:uz-Latn":"Choʻlponota"},"display_name":"Чолпон-Ата, Ысык-Көл району, Ысык-Көл облусу, 722100, Кыргызстан","address":{"town":"Чолпон-Ата","county":"Ысык-Көл району","state":"Ысык-Көл облусу","ISO3166-2-lvl4":"KG-Y","postcode":"722100","country":"Кыргызстан","country_code":"kg"},"population":14200,"osm_type":"way","osm_id":123651264,"type":"town","location":[77.0665164,42.6417055],"bbox":[77.0270569,42.6237021,77.1134637,42.6720177]}}
{"name":"Чүй","other_names":{"name:el":"Τσούϊ","name:fa":"چوی","name:ky":"Чүй","name:ru":"Чуй","name:uz":"Chuy","int_name":"Çüy","old_name":"Покровка","old_name:en":"Chüy"},"display_name":"Чүй, Чүй району, Чүй облусу, 724912, Кыргызстан","address":{"town":"Чүй","county":"Чүй району","state":"Чүй облусу","ISO3166-2-lvl4":"KG-C","postcode":"724912","country":"Кыргызстан","country_code":"kg"},"osm_type":"node","osm_id":5924718876,"type":"town","location":[75.289695,42.8232033],"bbox":[75.249695,42.7832033,75.329695,42.8632033]}
{"name":"Шамалды-Сай","other_names":{"name:de":"Schamaldy-Sai","name:en":"Shamaldy-Say","name:fa":"شمالدی-سای","name:ml":"ഷമാൽദി-സായ്","name:ru":"Шамалды-Сай","name:tg":"Шамолдисой","int_name":"Shamaldy-Say"},"display_name":"Шамалды-Сай, Жалал-Абад облусу, Кыргызстан","address":{"town":"Шамалды-Сай","state":"Жалал-Абад облусу","ISO3166-2-lvl4":"KG-J","country":"Кыргызстан","country_code":"kg"},"population":12300,"osm_type":"node","osm_id":894437175,"type":"town","location":[72.1802376,41.1986772],"bbox":[72.1402376,41.1586772,72.2202376,41.2386772],"border":{"name":"Шамалды-Сай","other_names":{"name:en":"Shamaldy-Say","name:ru":"Шамалды-Сай","name:de":"Schamaldy-Sai","name:fa":"شمالدی-سای","name:ml":"ഷമാൽദി-സായ്","name:tg":"Шамолдисой","int_name":"Shamaldy-Say"},"display_name":"Шамалды-Сай, Жалал-Абад облусу, Кыргызстан","address":{"town":"Шамалды-Сай","state":"Жалал-Абад облусу","ISO3166-2-lvl4":"KG-J","country":"Кыргызстан","country_code":"kg"},"population":12300,"osm_type":"way","osm_id":218864020,"type":"town","location":[72.1802376,41.1986772],"bbox":[72.1613707,41.1613187,72.1883914,41.2121888]}}
{"name":"Шопоков","other_names":{"name:en":"Shopokov","name:ru":"Шопоков"},"display_name":"Шопоков, Сокулук району, Чүй облусу, Кыргызстан","address":{"town":"Шопоков","county":"Сокулук району","state":"Чүй облусу","ISO3166-2-lvl4":"KG-C","country":"Кыргызстан","country_code":"kg"},"population":10300,"osm_type":"node","osm_id":858944655,"type":"town","location":[74.3419927,42.8575182],"bbox":[74.3019927,42.8175182,74.3819927,42.8975182],"border":{"name":"Шопоков","other_names":{"name:en":"Shopokov","name:ru":"Шопоков"},"display_name":"Шопоков, Сокулук району, Чүй облусу, 724832, Кыргызстан","address":{"town":"Шопоков","county":"Сокулук району","state":"Чүй облусу","ISO3166-2-lvl4":"KG-C","postcode":"724832","country":"Кыргызстан","country_code":"kg"},"population":8700,"osm_type":"way","osm_id":169520233,"type":"town","location":[74.3419927,42.8575182],"bbox":[74.3008917,42.8362301,74.3512618,42.8674839]}}
{"name":"Эңилчек","other_names":{"name:ar":"إينيلشيك","name:en":"Engilchek","name:fa":"انگیلچک","name:kk":"Еңгілчек","name:ky":"Эңилчек","name:ru":"Иныльчек","name:zh":"埃尔切克","int_name":"Eŋilçek","name:arz":"اينيلشيك"},"display_name":"Эңилчек, Ак-Суу району, Ысык-Көл облусу, Кыргызстан","address":{"town":"Эңилчек","county":"Ак-Суу району","state":"Ысык-Көл облусу","ISO3166-2-lvl4":"KG-Y","country":"Кыргызстан","country_code":"kg"},"osm_type":"node","osm_id":6552363782,"type":"town","location":[79.0811379,42.0292406],"bbox":[79.0411379,41.9892406,79.1211379,42.0692406]}
