{"name":"Балыкчы","other_names":{"name:en":"Balykchy","name:et":"Balõktšõ","name:fa":"بالیقچی","name:fr":"Balyktchy","name:ja":"バルイクチ","name:kk":"Балықшы","name:ky":"Балыкчы","name:lt":"Balykči","name:pl":"Bałykczy","name:ru":"Балыкчы","name:tg":"Балиқчӣ","name:uz":"Baliqchi","name:zh":"巴雷克奇","old_name":"Рыбачье","name:kk-Arab":"بالىقشى","name:kk-Cyrl":"Балықшы","name:kk-Latn":"Balyqşy","name:ky-Arab":"بالىقچى","name:uz-Arab":"بلیقچی","name:uz-Cyrl":"Балиқчи","name:uz-Latn":"Baliqchi"},"display_name":"Балыкчы, Ысык-Көл облусу, Кыргызстан","address":{"city":"Балыкчы","state":"Ысык-Көл облусу","ISO3166-2-lvl4":"KG-Y","country":"Кыргызстан","country_code":"kg"},"population":51300,"osm_type":"node","osm_id":247786262,"type":"city","location":[76.1962475,42.4570503],"bbox":[76.0362475,42.2970503,76.3562475,42.6170503],"border":{"name":"Балыкчы","other_names":{"name:ar":"بليقجي","name:ba":"Балыҡсы","name:en":"Balykchy","name:fa":"شهر بالیقچی","name:kk":"Балықшы","name:ky":"Балыкчы","name:ru":"Балыкчи","name:tg":"Балиқчӣ","name:tr":"Balıkçı","name:tt":"Балыкчы","name:uz":"Baliqchi","name:kk-Arab":"بالىقشى قالاسى","name:kk-Cyrl":"Балықшы","name:kk-Latn":"Balıqcı","name:ky-Arab":"بالىقچى شاارى","name:tt-Latn":"Balıqçı","name:uz-Arab":"بلیقچی شهری","name:uz-Cyrl":"Балиқчи","name:uz-Latn":"Baliqchi","name:et":"Balõktšõ","name:fr":"Balyktchy","name:ja":"バルイクチ","name:lt":"Balykči","name:pl":"Bałykczy","name:zh":"巴雷克奇","old_name":"Рыбачье","alt:fa":"بالیقچی","alt:ru":"Балыкчы","alt:kk-Arab":"بالىقشى","alt:kk-Latn":"Balyqşy","alt:ky-Arab":"بالىقچى","alt:uz-Arab":"بلیقچی"},"display_name":"Балыкчы, Ысык-Көл облусу, 721900, Кыргызстан","address":{"city":"Балыкчы","state":"Ысык-Көл облусу","ISO3166-2-lvl4":"KG-Y","postcode":"721900","country":"Кыргызстан","country_code":"kg"},"population":51300,"osm_type":"relation","osm_id":15586036,"type":"administrative","location":[76.1962475,42.4570503],"bbox":[76.0123316,42.3392298,76.2518828,42.487636]}}
{"name":"Баткен","other_names":{"name:ar":"باتكين","name:az":"Batken","name:be":"Баткен","name:bg":"Баткен","name:ca":"Batkén","name:ce":"Баткен","name:el":"Μπατκέν","name:en":"Batken","name:fa":"بادکند","name:ja":"バトケン","name:kk":"Баткен","name:ko":"밧켄","name:ky":"Баткен","name:lt":"Batkenas","name:lv":"Batkena","name:ml":"ബാത്കെൻ","name:mr":"बाटकेन","name:os":"Баткен","name:pl":"Batken","name:ru":"Баткен","name:tg":"Бодканд","name:tr":"Batken","name:tt":"Баткән","name:uk":"Баткен","name:ur":"بادکند","name:uz":"Botken","name:zh":"巴特肯","int_name":"Batken","alt_name:ml":"ബാദ്കന്ദ്"},"display_name":"Баткен, Баткен облусу, Кыргызстан","address":{"city":"Баткен","town":"Баткен","state":"Баткен облусу","ISO3166-2-lvl4":"KG-B","country":"Кыргызстан","country_code":"kg"},"population":27700,"osm_type":"node","osm_id":271659191,"type":"city","location":[70.8200964,40.0611852],"bbox":[70.6600964,39.9011852,70.9800964,40.2211852],"border":[{"name":"Баткен","other_names":{"name:ar":"باتكين","name:az":"Batken","name:be":"Баткен","name:bg":"Баткен","name:ca":"Batkén","name:ce":"Баткен","name:el":"Μπατκέν","name:en":"Batken","name:fa":"بادکند","name:ja":"バトケン","name:kk":"Баткен","name:ko":"밧켄","name:ky":"Баткен","name:lt":"Batkenas","name:lv":"Batkena","name:ml":"ബാത്കെൻ","name:mr":"बाटकेन","name:os":"Баткен","name:pl":"Batken","name:ru":"Баткен","name:tg":"Бодканд","name:tr":"Batken","name:tt":"Баткән","name:uk":"Баткен","name:ur":"بادکند","name:uz":"Botken","name:zh":"巴特肯","int_name":"Batken"},"display_name":"Баткен, Баткен облусу, 720105, Кыргызстан","address":{"city":"Баткен","state":"Баткен облусу","ISO3166-2-lvl4":"KG-B","postcode":"720105","country":"Кыргызстан","country_code":"kg"},"population":27700,"osm_type":"way","osm_id":186940769,"type":"city","location":[70.82129076433122,40.058211299999996],"bbox":[70.7836766,40.0305534,70.8432425,40.0852318]},{"name":"Баткен","other_names":{"name:en":"Batken City","name:ru":"Баткен","int_name":"Batken","name:ar":"باتكين","name:az":"Batken","name:be":"Баткен","name:bg":"Баткен","name:ca":"Batkén","name:ce":"Баткен","name:el":"Μπατκέν","name:fa":"بادکند","name:ja":"バトケン","name:kk":"Баткен","name:ko":"밧켄","name:ky":"Баткен","name:lt":"Batkenas","name:lv":"Batkena","name:ml":"ബാത്കെൻ","name:mr":"बाटकेन","name:os":"Баткен","name:pl":"Batken","name:tg":"Бодканд","name:tr":"Batken","name:tt":"Баткән","name:uk":"Баткен","name:ur":"بادکند","name:uz":"Botken","name:zh":"巴特肯","alt_name:ml":"ബാദ്കന്ദ്","alt:en":"Batken"},"display_name":"Баткен, Баткен облусу, Кыргызстан","address":{"town":"Баткен","state":"Баткен облусу","ISO3166-2-lvl4":"KG-B","country":"Кыргызстан","country_code":"kg"},"population":27700,"osm_type":"relation","osm_id":13971559,"type":"administrative","location":[70.8200964,40.0611852],"bbox":[70.7836766,40.0265853,70.8731155,40.1065271]}]}
{"name":"Бишкек","other_names":{"name:af":"Bisjkek","name:am":"ቢሽኬክ","name:ar":"بيشكك","name:az":"Bişkek","name:be":"Бішкек","name:bg":"Бишкек","name:bn":"বিশকেক","name:bo":"པི་སི་ཁེག","name:br":"Bichkek","name:bs":"Bishkek","name:ca":"Bixkek","name:cs":"Biškek","name:cv":"Бишкек","name:cy":"Bishkek","name:da":"Bisjkek","name:de":"Bischkek","name:el":"Μπισκέκ","name:en":"Bishkek","name:eo":"Biŝkeko","name:es":"Biskek","name:et":"Biškek","name:eu":"Bishkek","name:fa":"بیشکک","name:fi":"Biškek","name:fr":"Bichkek","name:fy":"Bisjkek","name:gd":"Bishkek","name:gl":"Bixkek","name:he":"בישקק","name:hi":"बिश्केक","name:hr":"Biškek","name:ht":"Bichkek","name:hu":"Biskek","name:hy":"Բիշկեք","name:id":"Bishkek","name:ie":"Bishkek","name:io":"Bishkek","name:is":"Bishkek","name:it":"Biškek","name:ja":"ビシュケク","name:ka":"ბიშკეკი","name:kk":"Бішкек","name:kn":"ಬಿಷ್ಕೆಕ್","name:ko":"비슈케크","name:ks":"بشکیک","name:ku":"Bîşkek","name:kv":"Бишкек","name:ky":"Бишкек","name:la":"Biscecum","name:lt":"Biškekas","name:lv":"Biškeka","name:mk":"Бишкек","name:ml":"ബിഷ്കെക്ക്","name:mn":"Бишкек","name:mr":"बिश्केक","name:nl":"Bisjkek","name:nn":"Bisjkek","name:no":"Bisjkek","name:oc":"Bishkek","name:os":"Бишкек","name:pl":"Biszkek","name:ps":"بشکک","name:pt":"Bisqueque","name:ro":"Bișkek","name:ru":"Бишкек","name:sh":"Biškek","name:sk":"Biškek","name:sl":"Biškek","name:sq":"Bishkek","name:sr":"Бишкек","name:sv":"Bisjkek","name:sw":"Bishkek","name:ta":"பிசுக்கெக்","name:tg":"Бишкек","name:th":"บิชเคก","name:tl":"Bishkek","name:tr":"Bişkek","name:ug":"بىشكەك","name:uk":"Бішкек","name:ur":"بشکیک","name:uz":"Bishkek","name:vi":"Bishkek","name:yi":"בישקעק","name:yo":"Bishkek","name:zh":"比什凱克","int_name":"Bishkek","name:ace":"Bishkek","name:arz":"بيشكيك","name:azb":"بیشکک","name:ckb":"بیشکێک","name:crh":"Bişkek","name:diq":"Bişqeq","name:dsb":"Biškek","name:hif":"Bishkek","name:hsb":"Biškek","name:ilo":"Bishkek","name:kmr":"بیشکەک","name:lmo":"Biškek","name:lrc":"بیشکک","name:mhr":"Бишкек","name:mrj":"Бишкек","name:myv":"Бишкек ош","name:mzn":"بيشکک","name:nan":"Bishkek","name:nov":"Bishkek","name:ota":"بیشکک","name:pms":"Bishkek","name:pnb":"بشکیک","name:sah":"Бишкек","name:sco":"Bishkek","name:udm":"Бишкек","name:vep":"Biškek","name:war":"Bishkek","nat_name":"Бишкек","old_name":"Фрунзе","name:simple":"Bishkek","old_name:ar":"فرونزه","old_name:en":"Frunze","old_name:ru":"Фрунзе","name:kk-Arab":"بىشكەك","name:roa-rup":"Bishkek","name:kab-Arab":"بيشكك"},"display_name":"Бишкек, Бишкек шаары, Кыргызстан","address":{"city":"Бишкек","ISO3166-2-lvl4":"KG-GB","country":"Кыргызстан","country_code":"kg"},"population":1103900,"osm_type":"node","osm_id":27524177,"type":"city","location":[74.6036724,42.8761424],"bbox":[74.4436724,42.7161424,74.7636724,43.0361424],"border":{"name":"Бишкек шаары","other_names":{"name:af":"Bisjkek","name:am":"ቢሽኬክ","name:an":"Bishkek","name:ar":"بيشكك","name:az":"Bişkek","name:ba":"Бишкәк","name:be":"Бішкек","name:bg":"Бишкек","name:bh":"बिश्केक","name:bn":"বিশকেক","name:bo":"བི་སི་ཀེཀ","name:br":"Bichkek","name:bs":"Biškek","name:ca":"Bixkek","name:ce":"Бишкек","name:cs":"Biškek","name:cv":"Бишкек","name:cy":"Bishkek","name:da":"Bisjkek","name:de":"Bischkek","name:el":"Μπισκέκ","name:en":"Bishkek City","name:eo":"Biŝkeko","name:es":"Biskek","name:et":"Biškek","name:eu":"Bixkek","name:fa":"شهر بیشکک","name:fi":"Biškek","name:fo":"Bisjkek","name:fr":"Bichkek","name:fy":"Bisjkek","name:gd":"Bishkek","name:gl":"Bixkek","name:gn":"Biskek","name:ha":"Bishkek","name:he":"בישקק","name:hi":"बिश्केक","name:hr":"Biškek","name:ht":"Bichkek","name:hu":"Biskek","name:hy":"Բիշքեկ","name:id":"Bishkek","name:io":"Bishkek","name:is":"Bishkek","name:it":"Biškek","name:ja":"ビシュケク","name:jv":"Bishkek","name:ka":"ბიშკეკი","name:kg":"Biskek","name:kk":"Бішкек қаласы","name:kn":"ಬಿಷ್ಕೆಕ್","name:ko":"비슈케크","name:ks":"بشکیک","name:ku":"Bîşkek","name:kv":"Бишкек","name:ky":"Бишкек шаары","name:lb":"Bischkek","name:li":"Bisjkek","name:lt":"Biškekas","name:lv":"Biškeka","name:mg":"Bishkek","name:mk":"Бишкек","name:ml":"ബിഷ്കെക്ക്","name:mn":"Бишкек","name:mr":"बिश्केक","name:ms":"Bishkek","name:my":"ဘီရှကက်မြို့","name:na":"Bishkek","name:ne":"विस्केक","name:nl":"Bisjkek","name:nn":"Bisjkek","name:no":"Bisjkek","name:oc":"Bishquec","name:os":"Бишкек","name:pa":"ਬਿਸ਼ਕੇਕ","name:pl":"Biszkek","name:ps":"بشکک","name:pt":"Bisqueque","name:ro":"Bișkek","name:ru":"город Бишкек","name:sc":"Bishkek","name:sh":"Biškek","name:sk":"Biškek","name:sl":"Biškek","name:sn":"Bishkek","name:sq":"Bishkeku","name:sr":"Бишкек","name:sv":"Bisjkek","name:sw":"Bishkek","name:ta":"பிசுக்கெக்","name:tg":"Бишкек","name:th":"บิชเคก","name:tk":"Bişkek","name:tl":"Biskek","name:tr":"Bişkek","name:tt":"Бишкәк","name:ug":"بىشكەك","name:uk":"Бішкек","name:ur":"بشکیک","name:uz":"Bishek Shahri","name:vi":"Bishkek","name:yi":"בישקעק","name:yo":"Bishkek","name:zh":"比什凯克","int_name":"Bishkek","name:ace":"Bishkèk","name:arz":"بيشكيك","name:ast":"Bixkek","name:azb":"بیشکک","name:ban":"Bishkek","name:bcl":"Bishkek","name:bxr":"Бишкек","name:cdo":"Bishkek","name:ceb":"Gorod Bishkek","name:ckb":"بیشکێک","name:crh":"Bişkek","name:diq":"Bişkek","name:dsb":"Biškek","name:frr":"Bischkek","name:gag":"Bişkek","name:hak":"Bishkek","name:hif":"Bishkek","name:hsb":"Biškek","name:ilo":"Bishkek","name:kaa":"Bishkek","name:lij":"Bishkek","name:lmo":"Biškek","name:lrc":"بیشکک","name:mai":"विस्केक","name:mhr":"Бишкек","name:mrj":"Бишкек","name:myv":"Бишкек ош","name:mzn":"بيشکک","name:nah":"Bixquec","name:nan":"Bishkek","name:nds":"Bischkek","name:olo":"Biškek","name:ota":"بیشکک","name:pap":"Biskek","name:pms":"Bishkek","name:pnb":"بشکیک","name:sah":"Бишкек","name:sco":"Bishkek","name:szl":"Biszkek","name:udm":"Бишкек","name:vep":"Biškek","name:war":"Bishkek","name:wuu":"比什凯克","name:xmf":"ბიშკეკი","name:yue":"比什凱克","old_name":"Фрунзе","ISO3166-2":"KG-GB","alt_name:he":"עיר בישקק","old_name:ar":"فرونزه","old_name:pl":"Frunze","name:kk-Arab":"بىشكەك قالاسى","name:kk-Cyrl":"Бішкек қаласы","name:kk-Latn":"Bışkek qalası","name:ky-Arab":"بىشكەك شاارى","name:ky-Cyrl":"Бишкек шаары","name:uz-Arab":"بیشکک شهری","name:uz-Cyrl":"Бишкек шаҳри","name:uz-Latn":"Bishek Shahri","name:kab-Arab":"بيشكك","name:ie":"Bishkek","name:la":"Biscecum","name:be-tarask":"Бішкек","name:kmr":"بیشکەک","name:nov":"Bishkek","nat_name":"Бишкек","name:simple":"Bishkek","old_name:en":"Frunze","old_name:ru":"Фрунзе","name:roa-rup":"Bishkek","alt":"Бишкек","alt:bo":"པི་སི་ཁེག","alt:bs":"Bishkek","alt:en":"Bishkek","alt:eu":"Bishkek","alt:fa":"بیشکک","alt:hy":"Բիշկեք","alt:kk":"Бішкек","alt:ky":"Бишкек","alt:oc":"Bishkek","alt:ru":"Бишкек","alt:sq":"Bishkek","alt:tl":"Bishkek","alt:uz":"Bishkek","alt:zh":"比什凱克","alt:ace":"Bishkek","alt:diq":"Bişqeq","alt:kk-Arab":"بىشكەك"},"display_name":"Бишкек шаары, Кыргызстан","address":{"city":"Бишкек шаары","ISO3166-2-lvl4":"KG-GB","country":"Кыргызстан","country_code":"kg"},"population":1012500,"osm_type":"relation","osm_id":8493930,"type":"administrative","location":[74.6036724,42.8761424],"bbox":[74.4548909,42.7851124,74.7177168,43.0125007]}}
{"name":"Жалал-Абад","other_names":{"name:ar":"جلال آباد","name:az":"Cəlal-Abad","name:ba":"Йәләл-Абад","name:be":"Джалал-Абад","name:bg":"Джалал Абад","name:bn":"জালাল-আবাদ","name:ca":"Jalal-Abad","name:ce":"Джалал-Абад","name:cs":"Džalal-Abad","name:cy":"Jalal-Abad","name:de":"Dschalalabat","name:el":"Τζαλάλ-Αμπάντ","name:en":"Jalal-Abad","name:eo":"Ĵalalabato","name:es":"Jalal-Abad","name:et":"Džalal-Abad","name:eu":"Jalal-Abad","name:fa":"جلال آباد","name:fi":"Žalal-Abad","name:fr":"Djalalabad","name:gl":"Jalal-Abad","name:he":"ג'לאל-אבאד","name:hi":"जलालाबाद","name:hr":"Žalalabat","name:hu":"Dzsalalabad","name:hy":"Ջալալ Աբադ","name:id":"Jalal-Abad","name:ie":"Jalal-Abad","name:it":"Žalalabad","name:ja":"ジャララバード","name:kk":"Жалалабат","name:ko":"잘랄아바트","name:ky":"Жалалабат","name:lt":"Džalalabatas","name:lv":"Džalalabada","name:ml":"ജലാലാബാദ്","name:ms":"Jalal-Abad","name:nb":"Jalal-Abad","name:nl":"Dzjalal-Abad","name:os":"Джалал-Абад","name:pl":"Dżalalabad","name:pt":"Jalal-Abad","name:ro":"Jalal-Abad","name:ru":"Джалал-Абад","name:sr":"Џалал Абад","name:sv":"Dzjalal-Abad","name:tg":"Ҷалолобод","name:th":"จาลาลาบัต","name:tl":"Jalal-Abad","name:tr":"Celal-Abad","name:tt":"Җәлал-Абад","name:uk":"Джалал-Абад","name:ur":"جلال آباد، کرغیزستان","name:uz":"Jalolobod","name:zh":"贾拉拉巴德","int_name":"Jalal-Abad","name:ky-Arab":"جالال۔اباد","name:uz-Arab":"جلال آباد","name:uz-Cyrl":"Ҷалолобод","name:uz-Latn":"Jalolobod"},"display_name":"Жалал-Абад, Жалал-Абад облусу, 715600, Кыргызстан","address":{"city":"Жалал-Абад","state":"Жалал-Абад облусу","ISO3166-2-lvl4":"KG-J","postcode":"715600","country":"Кыргызстан","country_code":"kg"},"population":123200,"osm_type":"node","osm_id":254466792,"type":"city","location":[73.00119,40.9298182],"bbox":[72.84119,40.7698182,73.16119,41.0898182],"border":{"name":"Жалал-Абад","other_names":{"name:de":"Dschalalabat","name:en":"Jalal-Abad","name:es":"Jalal-Abad","name:fa":"شهر جلال آباد","name:fr":"Djalalabad","name:he":"עיר ג'לאל-אבאד","name:ja":"ジャララバード","name:ky":"Жалалабад","name:ml":"ജലാലാബാദ്","name:pl":"Dżalalabad","name:ru":"Джалал-Абад","name:tg":"Ҷалолобод","name:tr":"Celal-Abad","name:uz":"Jalolobod","name:ky-Arab":"جالال۔اباد شااری","name:uz-Arab":"جلال آباد شهری","name:uz-Cyrl":"Ҷалолобод","name:uz-Latn":"Jalolobod"},"display_name":"Жалал-Абад, Жалал-Абад облусу, Кыргызстан","address":{"city":"Жалал-Абад","state":"Жалал-Абад облусу","ISO3166-2-lvl4":"KG-J","country":"Кыргызстан","country_code":"kg"},"osm_type":"relation","osm_id":15547631,"type":"administrative","location":[72.99294344160133,40.93780525],"bbox":[72.9468855,40.9042289,73.0365891,40.9708475]}}
{"name":"Каракол","other_names":{"name:ar":"قاراقول","name:az":"Karakol","name:bg":"Каракол","name:ca":"Karàkol","name:cs":"Karakol","name:da":"Karakol","name:de":"Karakol","name:el":"Καρακόλ","name:en":"Karakol","name:eo":"Karakol","name:es":"Karakol","name:et":"Karakol","name:eu":"Karakol","name:fa":"قراقول","name:fi":"Karakul","name:fr":"Karakol","name:gl":"Karakol","name:he":"קארקול","name:hi":"काराकोल","name:hr":"Karakol","name:hu":"Karakol","name:id":"Karakol","name:it":"Karakol","name:ja":"カラコル","name:kk":"Қарақол","name:ko":"카라콜","name:ky":"Каракол","name:la":"Melanochiropolis","name:lt":"Karakolas","name:lv":"Karakola","name:ml":"കാരക്കോൽ","name:mn":"Харгол","name:nb":"Karakol","name:nl":"Karakol","name:nn":"Karakol","name:pl":"Karakoł","name:pt":"Karakol","name:ro":"Karakol","name:ru":"Каракол","name:sq":"Karakol","name:sv":"Karakol","name:tg":"Қарокӯл","name:th":"คาราคอล","name:tr":"Karakol","name:tt":"Каракул","name:ur":"قاراقول","name:uz":"Qoraqoʻl","name:vi":"Karakol","name:zh":"卡拉科尔","int_name":"Karakol","old_name":"Пржевальск","name:kk-Arab":"قاراقول","name:kk-Cyrl":"Қарақол","name:kk-Latn":"Qaraqol","name:ky-Arab":"قاراقول","name:uz-Arab":"قاره قۉل","name:uz-Cyrl":"Қорақўл"},"display_name":"Каракол, Каракол шаары, Ысык-Көл облусу, Кыргызстан","address":{"city":"Каракол","state":"Ысык-Көл облусу","ISO3166-2-lvl4":"KG-Y","country":"Кыргызстан","country_code":"kg"},"population":84300,"osm_type":"node","osm_id":254467298,"type":"city","location":[78.396857,42.4917441],"bbox":[78.236857,42.3317441,78.556857,42.6517441],"border":{"name":"Каракол шаары","other_names":{"name:ar":"مدينة قاراقول","name:az":"Qaraqol şəhəri","name:ba":"Ҡараҡул ҡалаһы","name:de":"Karakol","name:en":"Karakol City","name:et":"Karakol","name:fa":"شهر قراقول","name:fi":"Karakul","name:fr":"Karakol","name:ja":"カラコル","name:kk":"Қарақол қаласы","name:ko":"카라콜","name:ky":"Каракол шаары","name:la":"Melanochiropolis","name:lt":"Karakolas","name:lv":"Karakola","name:mn":"Харгол","name:pl":"Karakoł","name:ru":"город Каракол","name:tg":"шаҳри Қарокӯл","name:tr":"Karakol şehri","name:tt":"Каракул каласы","name:uk":"Каракол","name:uz":"Qoraqoʻl Shahri","name:zh":"卡拉科尔","name:pnb":"کاراکول","old_name":"Пржевальск","old_name:pl":"Przewalsk","name:kk-Arab":"قاراقول قالاسى","name:kk-Cyrl":"Қарақол қаласы","name:kk-Latn":"Qaraqol qalasy","name:ky-Arab":"قاراقول شاارى","name:uz-Arab":"قاره قۉل شهری","name:uz-Cyrl":"Қорақўл шаҳри","name:uz-Latn":"Qoraqoʻl shahri","name:bg":"Каракол","name:ca":"Karàkol","name:cs":"Karakol","name:da":"Karakol","name:el":"Καρακόλ","name:eo":"Karakol","name:es":"Karakol","name:eu":"Karakol","name:gl":"Karakol","name:he":"קארקול","name:hi":"काराकोल","name:hr":"Karakol","name:hu":"Karakol","name:id":"Karakol","name:it":"Karakol","name:ml":"കാരക്കോൽ","name:nb":"Karakol","name:nl":"Karakol","name:nn":"Karakol","name:pt":"Karakol","name:ro":"Karakol","name:sq":"Karakol","name:sv":"Karakol","name:th":"คาราคอล","name:ur":"قاراقول","name:vi":"Karakol","int_name":"Karakol","alt":"Каракол","alt:ar":"قاراقول","alt:az":"Karakol","alt:en":"Karakol","alt:fa":"قراقول","alt:kk":"Қарақол","alt:ky":"Каракол","alt:ru":"Каракол","alt:tg":"Қарокӯл","alt:tr":"Karakol","alt:tt":"Каракул","alt:uz":"Qoraqoʻl","alt:kk-Arab":"قاراقول","alt:kk-Cyrl":"Қарақол","alt:kk-Latn":"Qaraqol","alt:ky-Arab":"قاراقول","alt:uz-Arab":"قاره قۉل","alt:uz-Cyrl":"Қорақўл"},"display_name":"Каракол шаары, Ысык-Көл облусу, Кыргызстан","address":{"city":"Каракол шаары","state":"Ысык-Көл облусу","ISO3166-2-lvl4":"KG-Y","country":"Кыргызстан","country_code":"kg"},"population":63400,"osm_type":"relation","osm_id":15585749,"type":"administrative","location":[78.396857,42.4917441],"bbox":[78.2801226,42.4340174,78.436759,42.5891887]}}
{"name":"Кызыл-Кыя","other_names":{"name:ar":"قيزيل قيا","name:en":"Kyzyl-Kiya","name:ja":"キジル・キヤ","name:ky":"Кызыл-Кыя","name:ml":"കിസിൽ-കിയ","name:ru":"Кызыл-Кия"},"display_name":"Кызыл-Кыя, Кызыл-Кыя шаары, Баткен облусу, Кыргызстан","address":{"city":"Кызыл-Кыя","town":"Кызыл-Кыя шаары","state":"Баткен облусу","ISO3166-2-lvl4":"KG-B","country":"Кыргызстан","country_code":"kg"},"population":56800,"osm_type":"node","osm_id":299433239,"type":"city","location":[72.1312353,40.2600175],"bbox":[71.9712353,40.1000175,72.2912353,40.4200175],"border":{"name":"Кызыл-Кыя шаары","other_names":{"name:ar":"قيزيل قيا","name:en":"Kyzyl-Kyya City","name:fa":"شهر قزل قیه","name:ja":"キジル・キヤ","name:kk":"Қызылқия қаласы","name:ky":"Кызыл-Кыя шаары","name:ru":"город Кызыл-Кия","name:uz":"Qizilqiya shahri","name:kk-Arab":"قىزىل قيا قالاسى","name:kk-Cyrl":"Қызылқия қаласы","name:kk-Latn":"Qyzylqiia qalasy","name:ky-Arab":"قىزىل قىيا شاارى","name:ky-Cyrl":"Кызыл-Кыя шаары","name:uz-Arab":"قیزیل شهری","name:uz-Cyrl":"Қизилқия шаҳри","name:uz-Latn":"Qizilqiya shahri","name:ml":"കിസിൽ-കിയ","alt":"Кызыл-Кыя","alt:en":"Kyzyl-Kiya","alt:ky":"Кызыл-Кыя","alt:ru":"Кызыл-Кия"},"display_name":"Кызыл-Кыя шаары, Баткен облусу, Кыргызстан","address":{"town":"Кызыл-Кыя шаары","state":"Баткен облусу","ISO3166-2-lvl4":"KG-B","country":"Кыргызстан","country_code":"kg"},"population":51300,"osm_type":"relation","osm_id":15567419,"type":"administrative","location":[72.1312353,40.2600175],"bbox":[72.0707068,40.2297809,72.178857,40.2895655]}}
{"name":"Нарын","other_names":{"name:ar":"نارين","name:az":"Narın","name:bg":"Нарин","name:ca":"Narín","name:cs":"Naryn","name:da":"Naryn","name:de":"Naryn","name:el":"Ναρίν","name:en":"Naryn","name:eo":"Narin","name:es":"Naryn","name:et":"Narõn","name:eu":"Naryn","name:fa":"نارین","name:fi":"Naryn","name:fr":"Naryn","name:he":"נרין","name:hi":"नारीन","name:hu":"Narin","name:hy":"Նարին","name:it":"Naryn","name:ja":"ナルイン","name:kk":"Нарын","name:ko":"나린","name:ky":"Нарын","name:lt":"Narynas","name:lv":"Narina","name:ml":"നാറിൻ","name:ms":"Naryn","name:nb":"Naryn","name:nl":"Naryn","name:pl":"Naryn","name:pt":"Naryn","name:ru":"Нарын","name:sv":"Naryn","name:tg":"Норин","name:tr":"Narın","name:uk":"Нарин","name:ur":"نارین","name:uz":"Norin","name:vi":"Naryn","name:zh":"纳伦","int_name":"Naryn","name:kk-Arab":"نارىن","name:kk-Cyrl":"Нарын","name:kk-Latn":"Naryn","name:ky-Arab":"نارىن","name:uz-Arab":"نارین","name:uz-Cyrl":"Норин","name:uz-Latn":"Norin"},"display_name":"Нарын, Нарын шаары, Нарын облусу, Кыргызстан","address":{"city":"Нарын","state":"Нарын облусу","ISO3166-2-lvl4":"KG-N","country":"Кыргызстан","country_code":"kg"},"population":41100,"osm_type":"node","osm_id":254372964,"type":"city","location":[75.997631,41.4285987],"bbox":[75.837631,41.2685987,76.157631,41.5885987],"border":{"name":"Нарын шаары","other_names":{"name:de":"Naryn","name:en":"Naryn City","name:eo":"Narin","name:fa":"شهر نارین","name:he":"עיר נרין","name:kk":"Нарын қаласы","name:ky":"Нарын шаары","name:ru":"город Нарын","name:tg":"шаҳри Норин","name:tr":"Narın","name:uz":"Norin Shahri","int_name":"Naryn","name:kk-Arab":"نارىن قالاسى","name:kk-Cyrl":"Нарын қаласы","name:kk-Latn":"Naryn qalası","name:ky-Arab":"نارىن شاارى","name:uz-Arab":"نارین شهری","name:uz-Cyrl":"Норин шаҳри","name:uz-Latn":"Norin Shahri","name:ar":"نارين","name:az":"Narın","name:bg":"Нарин","name:ca":"Narín","name:cs":"Naryn","name:da":"Naryn","name:el":"Ναρίν","name:es":"Naryn","name:et":"Narõn","name:eu":"Naryn","name:fi":"Naryn","name:fr":"Naryn","name:hi":"नारीन","name:hu":"Narin","name:hy":"Նարին","name:it":"Naryn","name:ja":"ナルイン","name:ko":"나린","name:lt":"Narynas","name:lv":"Narina","name:ml":"നാറിൻ","name:ms":"Naryn","name:nb":"Naryn","name:nl":"Naryn","name:pl":"Naryn","name:pt":"Naryn","name:sv":"Naryn","name:uk":"Нарин","name:ur":"نارین","name:vi":"Naryn","name:zh":"纳伦","alt":"Нарын","alt:en":"Naryn","alt:fa":"نارین","alt:he":"נרין","alt:kk":"Нарын","alt:ky":"Нарын","alt:ru":"Нарын","alt:tg":"Норин","alt:uz":"Norin","alt:kk-Arab":"نارىن","alt:kk-Cyrl":"Нарын","alt:kk-Latn":"Naryn","alt:ky-Arab":"نارىن","alt:uz-Arab":"نارین","alt:uz-Cyrl":"Норин","alt:uz-Latn":"Norin"},"display_name":"Нарын шаары, Нарын облусу, 700622, Кыргызстан","address":{"city":"Нарын шаары","state":"Нарын облусу","ISO3166-2-lvl4":"KG-N","postcode":"700622","country":"Кыргызстан","country_code":"kg"},"population":34800,"osm_type":"relation","osm_id":15577641,"type":"administrative","location":[75.997631,41.4285987],"bbox":[75.8746721,41.4115624,76.0756117,41.4387235]}}
{"name":"Ош","other_names":{"name:de":"Osch","name:en":"Osh","name:et":"Oš","name:eu":"Ox","name:fa":"اوش","name:fr":"Och","name:kk":"Ош","name:ky":"Ош","name:ml":"ഓഷ്","name:ru":"Ош","name:uz":"Oʻsh","name:zh":"奥什","int_name":"Osh","name:kk-Arab":"وش","name:kk-Cyrl":"Ош","name:kk-Latn":"Oş","name:ky-Arab":"وش","name:uz-Arab":"اۉش","name:uz-Cyrl":"Ўш","name:uz-Latn":"Oʻsh"},"display_name":"Ош, Ош шаары, 724500, Кыргызстан","address":{"city":"Ош","state":"Ош шаары","postcode":"724500","country":"Кыргызстан","country_code":"kg"},"population":322200,"osm_type":"node","osm_id":4791369250,"type":"city","location":[72.8049894,40.5172678],"bbox":[72.6449894,40.3572678,72.9649894,40.6772678],"border":{"name":"Ош шаары","other_names":{"name:ar":"مدينة أوش","name:az":"Oş","name:ba":"Ош","name:be":"Ош","name:bg":"Ош","name:bn":"ওশ","name:ca":"Oix","name:ce":"Ош","name:cs":"Oš","name:cv":"Ош","name:da":"Osj","name:de":"Osch","name:el":"Ος","name:en":"Osh City","name:eo":"Oŝo","name:es":"Osh","name:et":"Oš","name:eu":"Ox","name:fa":"شهر اوش","name:fi":"Oš","name:fr":"Och","name:gl":"Osh","name:he":"אוש","name:hi":"ओश","name:hr":"Oš","name:hu":"Os","name:hy":"Օշ","name:id":"Osh","name:ie":"Osh","name:it":"Oš","name:ja":"オシ","name:ka":"ოში","name:kk":"Ош қаласы","name:ko":"오시","name:ky":"Ош шаары","name:lt":"Ošas","name:lv":"Oša","name:ml":"ഓഷ്","name:mn":"Ош","name:mr":"ओश","name:ms":"Osh","name:nl":"Oš","name:nn":"Osj","name:no":"Osj","name:os":"Ош","name:pl":"Osz","name:pt":"Osh","name:ro":"Oș","name:ru":"Ош","name:sc":"Osh","name:sh":"Oš","name:sk":"Oš","name:sl":"Oš","name:sq":"Osh","name:sr":"Ош","name:sv":"Osj","name:ta":"ஓஷ் நகரம்","name:tg":"Ӯш","name:th":"ออช","name:tk":"Oş","name:tl":"Osh","name:tr":"Oş","name:tt":"Ош","name:ug":"ئوش","name:uk":"Ош","name:ur":"اوش","name:uz":"Oʻsh Shahri","name:vi":"Osh","name:zh":"奧什","name:ace":"Osh","name:arz":"اوش","name:azb":"اوش","name:ceb":"Osh","name:crh":"Oş","name:frr":"Osch (Steed)","name:hsb":"Oš","name:kaa":"Osh","name:lmo":"Oš","name:sah":"Ош","name:sco":"Osh","name:vep":"Oš","name:war":"Osh","name:wuu":"奥什","alt_name:en":"Osh","name:kk-Arab":"وش قالاسى","name:kk-Cyrl":"Ош қаласы","name:kk-Latn":"Oş qalası","name:ky-Arab":"وش شاارى","name:uz-Arab":"اۉش شهری","name:uz-Cyrl":"Ўш шаҳри","name:uz-Latn":"Oʻsh Shahri","int_name":"Osh","alt":"Ош","alt:en":"Osh","alt:fa":"اوش","alt:kk":"Ош","alt:ky":"Ош","alt:uz":"Oʻsh","alt:zh":"奥什","alt:kk-Arab":"وش","alt:kk-Cyrl":"Ош","alt:kk-Latn":"Oş","alt:ky-Arab":"وش","alt:uz-Arab":"اۉش","alt:uz-Cyrl":"Ўш","alt:uz-Latn":"Oʻsh"},"display_name":"Ош шаары, Кыргызстан","address":{"city":"Ош шаары","state":"Ош шаары","country":"Кыргызстан","country_code":"kg"},"population":270347,"osm_type":"relation","osm_id":8496351,"type":"city","location":[72.8049894,40.5172678],"bbox":[72.6835692,40.4519355,72.8804043,40.5881551]}}
{"name":"Өзгөн","other_names":{"name:de":"Ösgön","name:en":"Özgön","name:fa":"اوزکند","name:ja":"ウズゲン","name:kk":"Өзген","name:ky":"Өзгөн","name:ml":"ഉസ്ഗെൻ","name:ru":"Узген","name:tg":"Озкент","name:tr":"Özgön","name:uk":"Озґьон","name:uz":"Oʻzgan","name:zh":"乌兹根","int_name":"Özgön","alt_name:ml":"ഉസ്കന്ദ്","name:uz-cyr":"Ўзган","name:kk-Arab":"وزگەن","name:kk-Cyrl":"Өзген","name:kk-Latn":"Özgen","name:ky-Arab":"ۅزگۅن","name:uz-Arab":"اۉزکېنت","name:uz-Cyrl":"Ўзган","name:uz-Latn":"Oʻzgan"},"display_name":"Өзгөн, Өзгөн району, Ош облусу, Кыргызстан","address":{"city":"Өзгөн","county":"Өзгөн району","state":"Ош облусу","ISO3166-2-lvl4":"KG-O","country":"Кыргызстан","country_code":"kg"},"population":62800,"osm_type":"node","osm_id":254467940,"type":"city","location":[73.2986632,40.7688144],"bbox":[73.1386632,40.6088144,73.4586632,40.9288144],"border":{"name":"Өзгөн","other_names":{"name:de":"Ösgön","name:en":"Özgön","name:fa":"اوزکند","name:ja":"ウズゲン","name:kk":"Өзген","name:ky":"Өзгөн","name:ml":"ഉസ്ഗെൻ","name:ru":"Узген","name:tg":"Озкент","name:tr":"Özgön","name:uk":"Озґьон","name:uz":"Oʻzgan","name:zh":"乌兹根","int_name":"Özgön","name:uz-cyr":"Ўзган","name:kk-Arab":"وزگەن","name:kk-Cyrl":"Өзген","name:kk-Latn":"Özgen","name:ky-Arab":"ۅزگۅن","name:uz-Arab":"اۉزکېنت","name:uz-Cyrl":"Ўзган","name:uz-Latn":"Oʻzgan","alt_name:ml":"ഉസ്കന്ദ്"},"display_name":"Өзгөн, Өзгөн району, Ош облусу, Кыргызстан","address":{"city":"Өзгөн","county":"Өзгөн району","state":"Ош облусу","ISO3166-2-lvl4":"KG-O","country":"Кыргызстан","country_code":"kg"},"population":49410,"osm_type":"way","osm_id":27642649,"type":"city","location":[73.2986632,40.7688144],"bbox":[73.2530929,40.7536485,73.338094,40.7945824]}}
{"name":"Токмок","other_names":{"name:ar":"توقموق","name:be":"Такмак","name:ca":"Tokmok","name:de":"Tokmok","name:el":"Τοκμάκ","name:en":"Tokmok","name:eo":"Tokmok","name:es":"Tokmok","name:et":"Tokmok","name:eu":"Tokmok","name:fa":"تخماق","name:fr":"Tokmok","name:he":"טוקמק","name:hi":"तोकमोक","name:hu":"Tokmok","name:id":"Tokmok","name:it":"Tokmok","name:ja":"トクマク","name:ka":"თოქმაქი","name:kk":"Тоқмақ","name:ko":"토크마크","name:ky":"Токмок","name:lt":"Tokmakas","name:ml":"ടൊക്മോക്","name:os":"Токмак","name:pl":"Tokmok","name:pt":"Tokmok","name:ro":"Tokmok","name:ru":"Токмак","name:sq":"Tokmok","name:sv":"Tokmok","name:tg":"Тӯқмоқ","name:tr":"Tokmok","name:tt":"Тукмак","name:ug":"توقماق","name:uk":"Токмак","name:ur":"توکموک","name:uz":"Toʻqmoq","name:zh":"托克莫克","alt_name":"Токмак","alt_name:ru":"Токмак","name:kk-Arab":"توقماق","name:kk-Cyrl":"Тоқмақ","name:kk-Latn":"Toqmaq","name:ky-Arab":"توقموق","name:uz-Arab":"تۉقماق","name:uz-Cyrl":"Тўқмоқ","name:uz-Latn":"Toʻqmoq"},"display_name":"Токмок, Токмок шаары, Чүй облусу, Кыргызстан","address":{"city":"Токмок","town":"Токмок шаары","state":"Чүй облусу","ISO3166-2-lvl4":"KG-C","country":"Кыргызстан","country_code":"kg"},"population":71400,"osm_type":"node","osm_id":1857377578,"type":"city","location":[75.2951521,42.837655],"bbox":[75.1351521,42.677655,75.4551521,42.997655],"border":{"name":"Токмок шаары","other_names":{"name:ar":"توقموق","name:en":"Tokmok City","name:fa":"شهر تخماق","name:he":"עיר טוקמק","name:kk":"Тоқмақ қаласы","name:ky":"Токмок шаары","name:ru":"город Токмак","name:tg":"шаҳри Тӯқмоқ","name:uz":"Toʻqmoq Shahri","alt_name":"Токмак","alt_name:ru":"Токмак","name:kk-Arab":"توقماق قالاسى","name:kk-Cyrl":"Тоқмақ қаласы","name:kk-Latn":"Toqmaq qalasy","name:ky-Arab":"توقموق شاارى","name:uz-Arab":"تۉقماق شهری","name:uz-Cyrl":"Тўқмоқ шаҳри","name:uz-Latn":"Toʻqmoq Shahri","name:be":"Такмак","name:ca":"Tokmok","name:de":"Tokmok","name:el":"Τοκμάκ","name:eo":"Tokmok","name:es":"Tokmok","name:et":"Tokmok","name:eu":"Tokmok","name:fr":"Tokmok","name:hi":"तोकमोक","name:hu":"Tokmok","name:id":"Tokmok","name:it":"Tokmok","name:ja":"トクマク","name:ka":"თოქმაქი","name:ko":"토크마크","name:lt":"Tokmakas","name:ml":"ടൊക്മോക്","name:os":"Токмак","name:pl":"Tokmok","name:pt":"Tokmok","name:ro":"Tokmok","name:sq":"Tokmok","name:sv":"Tokmok","name:tr":"Tokmok","name:tt":"Тукмак","name:ug":"توقماق","name:uk":"Токмак","name:ur":"توکموک","name:zh":"托克莫克","alt":"Токмок","alt:en":"Tokmok","alt:fa":"تخماق","alt:he":"טוקמק","alt:kk":"Тоқмақ","alt:ky":"Токмок","alt:ru":"Токмак","alt:tg":"Тӯқмоқ","alt:uz":"Toʻqmoq","alt:kk-Arab":"توقماق","alt:kk-Cyrl":"Тоқмақ","alt:kk-Latn":"Toqmaq","alt:ky-Arab":"توقموق","alt:uz-Arab":"تۉقماق","alt:uz-Cyrl":"Тўқмоқ","alt:uz-Latn":"Toʻqmoq"},"display_name":"Токмок шаары, Чүй облусу, Кыргызстан","address":{"town":"Токмок шаары","state":"Чүй облусу","ISO3166-2-lvl4":"KG-C","country":"Кыргызстан","country_code":"kg"},"population":71400,"osm_type":"relation","osm_id":7727465,"type":"administrative","location":[75.2951521,42.837655],"bbox":[75.2276298,42.7749237,75.3611109,42.860782]}}
