{"name":"Basseterre","other_names":{"name:am":"ባስቴር","name:ar":"باستير","name:az":"Baster","name:be":"Бастэр","name:bg":"Бастер","name:bo":"པ་སི་ཐེར།","name:br":"Basseterre","name:ca":"Basseterre","name:de":"Basseterre","name:el":"Μπαστέρ","name:en":"Basseterre","name:es":"Basseterre","name:fr":"Basseterre","name:he":"באסטר","name:ht":"Bastè","name:hu":"Basseterre","name:it":"Basseterre","name:ja":"バセテール","name:ka":"ბასტერი","name:lt":"Basteras","name:mk":"Бастер","name:mr":"बासेतेर","name:nl":"Basseterre","name:no":"Basseterre","name:pl":"Basseterre","name:pt":"Basseterre","name:ru":"Бастер","name:sr":"Бастер","name:sv":"Basseterre","name:ta":"பாசெட்டெரே","name:tr":"Basseterre","name:uk":"Бастер","name:zh":"巴斯特爾","name:gcf":"Bastè","name:sah":"Бастер","name:be-tarask":"Бастэр"},"display_name":"Basseterre, Saint George Basseterre, Saint Kitts, Saint Kitts and Nevis","address":{"town":"Basseterre","region":"Saint George Basseterre","ISO3166-2-lvl6":"KN-03","island":"Saint Kitts","ISO3166-2-lvl4":"KN-K","country":"Saint Kitts and Nevis","country_code":"kn"},"population":13220,"osm_type":"node","osm_id":183864922,"type":"town","location":[-62.722301,17.2960919],"bbox":[-62.762301,17.2560919,-62.682301,17.3360919]}
{"name":"Boyds","other_names":{"name:en":"Boyds","name:mk":"Бојдс"},"display_name":"Boyds, Trinity Palmetto Point, Saint Kitts, Saint Kitts and Nevis","address":{"town":"Boyds","region":"Trinity Palmetto Point","ISO3166-2-lvl6":"KN-15","island":"Saint Kitts","ISO3166-2-lvl4":"KN-K","country":"Saint Kitts and Nevis","country_code":"kn"},"population":839,"osm_type":"node","osm_id":3999927445,"type":"town","location":[-62.7685447,17.2982799],"bbox":[-62.8085447,17.2582799,-62.7285447,17.3382799]}
{"name":"Brumaire","display_name":"Brumaire, Saint George Basseterre, Saint Kitts, Saint Kitts and Nevis","address":{"town":"Brumaire","region":"Saint George Basseterre","ISO3166-2-lvl6":"KN-03","island":"Saint Kitts","ISO3166-2-lvl4":"KN-K","country":"Saint Kitts and Nevis","country_code":"kn"},"osm_type":"node","osm_id":6248352651,"type":"town","location":[-62.7379126,17.2975777],"bbox":[-62.7779126,17.2575777,-62.6979126,17.3375777]}
{"name":"Cayon","other_names":{"name:en":"Cayon","name:mk":"Кајон","old_name":"Cayonne"},"display_name":"Cayon, Saint Mary Cayon, Saint Kitts, Saint Kitts and Nevis","address":{"town":"Cayon","region":"Saint Mary Cayon","ISO3166-2-lvl6":"KN-08","island":"Saint Kitts","ISO3166-2-lvl4":"KN-K","country":"Saint Kitts and Nevis","country_code":"kn"},"population":802,"osm_type":"node","osm_id":4007961551,"type":"town","location":[-62.7283537,17.3486308],"bbox":[-62.7683537,17.3086308,-62.6883537,17.3886308]}
{"name":"Dieppe Bay","other_names":{"name:en":"Dieppe Bay","name:mk":"Дјеп Беј"},"display_name":"Dieppe Bay, Saint John Capisterre, Saint Kitts, Saint Kitts and Nevis","address":{"town":"Dieppe Bay","region":"Saint John Capisterre","ISO3166-2-lvl6":"KN-06","island":"Saint Kitts","ISO3166-2-lvl4":"KN-K","country":"Saint Kitts and Nevis","country_code":"kn"},"population":635,"osm_type":"node","osm_id":5872669698,"type":"town","location":[-62.8137206,17.415555],"bbox":[-62.8537206,17.375555,-62.7737206,17.455555]}
{"name":"Figtree","display_name":"Figtree, Saint John Figtree, Nevis, Saint Kitts and Nevis","address":{"town":"Figtree","region":"Saint John Figtree","ISO3166-2-lvl6":"KN-07","island":"Nevis","ISO3166-2-lvl4":"KN-N","country":"Saint Kitts and Nevis","country_code":"kn"},"population":400,"osm_type":"node","osm_id":5873175791,"type":"town","location":[-62.6024617,17.129537],"bbox":[-62.6424617,17.089537,-62.5624617,17.169537]}
{"name":"Half Way Tree","display_name":"Half Way Tree, Saint Thomas Middle Island, Saint Kitts, Saint Kitts and Nevis","address":{"town":"Half Way Tree","region":"Saint Thomas Middle Island","ISO3166-2-lvl6":"KN-13","island":"Saint Kitts","ISO3166-2-lvl4":"KN-K","country":"Saint Kitts and Nevis","country_code":"kn"},"population":897,"osm_type":"node","osm_id":5873167442,"type":"town","location":[-62.8279915,17.3346873],"bbox":[-62.8679915,17.2946873,-62.7879915,17.3746873]}
{"name":"Lodge","display_name":"Lodge, Saint Mary Cayon, Saint Kitts, Saint Kitts and Nevis","address":{"town":"Lodge","region":"Saint Mary Cayon","ISO3166-2-lvl6":"KN-08","island":"Saint Kitts","ISO3166-2-lvl4":"KN-K","country":"Saint Kitts and Nevis","country_code":"kn"},"osm_type":"node","osm_id":6248352541,"type":"town","location":[-62.7476594,17.3635898],"bbox":[-62.7876594,17.3235898,-62.7076594,17.4035898]}
{"name":"Mansion","display_name":"Mansion, Christ Church Nichola Town, Saint Kitts, Saint Kitts and Nevis","address":{"town":"Mansion","region":"Christ Church Nichola Town","ISO3166-2-lvl6":"KN-01","island":"Saint Kitts","ISO3166-2-lvl4":"KN-K","country":"Saint Kitts and Nevis","country_code":"kn"},"osm_type":"node","osm_id":6248351725,"type":"town","location":[-62.7583022,17.3827474],"bbox":[-62.7983022,17.3427474,-62.7183022,17.4227474]}
{"name":"Market Shop","display_name":"Market Shop, Saint George Gingerland, Nevis, Saint Kitts and Nevis","address":{"town":"Market Shop","region":"Saint George Gingerland","ISO3166-2-lvl6":"KN-04","island":"Nevis","ISO3166-2-lvl4":"KN-N","country":"Saint Kitts and Nevis","country_code":"kn"},"osm_type":"node","osm_id":5873191287,"type":"town","location":[-62.5704784,17.1312454],"bbox":[-62.6104784,17.0912454,-62.5304784,17.1712454]}
{"name":"Monkey Hill","other_names":{"name:en":"Monkey Hill","name:mk":"Манки Хил"},"display_name":"Monkey Hill, Saint Peter Basseterre, Saint Kitts, Saint Kitts and Nevis","address":{"town":"Monkey Hill","region":"Saint Peter Basseterre","ISO3166-2-lvl6":"KN-11","island":"Saint Kitts","ISO3166-2-lvl4":"KN-K","country":"Saint Kitts and Nevis","country_code":"kn"},"osm_type":"node","osm_id":5873175793,"type":"town","location":[-62.7342806,17.3173214],"bbox":[-62.7742806,17.2773214,-62.6942806,17.3573214]}
{"name":"New Road","display_name":"New Road, Saint George Basseterre, Saint Kitts, Saint Kitts and Nevis","address":{"town":"New Road","region":"Saint George Basseterre","ISO3166-2-lvl6":"KN-03","island":"Saint Kitts","ISO3166-2-lvl4":"KN-K","country":"Saint Kitts and Nevis","country_code":"kn"},"osm_type":"node","osm_id":6248352648,"type":"town","location":[-62.7253753,17.3127591],"bbox":[-62.7653753,17.2727591,-62.6853753,17.3527591]}
{"name":"Nichola Town","other_names":{"name:en":"Nichola Town","name:mk":"Николс Таун"},"display_name":"Nichola Town, Christ Church Nichola Town, Saint Kitts, Saint Kitts and Nevis","address":{"town":"Nichola Town","region":"Christ Church Nichola Town","ISO3166-2-lvl6":"KN-01","island":"Saint Kitts","ISO3166-2-lvl4":"KN-K","country":"Saint Kitts and Nevis","country_code":"kn"},"osm_type":"node","osm_id":5873144583,"type":"town","location":[-62.7531423,17.3798808],"bbox":[-62.7931423,17.3398808,-62.7131423,17.4198808]}
{"name":"Old Road Town","other_names":{"name:en":"Old Road Town","name:mk":"Олд Роуд Таун"},"display_name":"Old Road Town, Saint Thomas Middle Island, Saint Kitts, Saint Kitts and Nevis","address":{"town":"Old Road Town","region":"Saint Thomas Middle Island","ISO3166-2-lvl6":"KN-13","island":"Saint Kitts","ISO3166-2-lvl4":"KN-K","country":"Saint Kitts and Nevis","country_code":"kn"},"population":1647,"osm_type":"node","osm_id":5268395545,"type":"town","location":[-62.8033825,17.3229293],"bbox":[-62.8433825,17.2829293,-62.7633825,17.3629293]}
{"name":"Saddlers","other_names":{"name:en":"Saddlers","name:mk":"Седлерс"},"display_name":"Saddlers, Saint John Capisterre, Saint Kitts, Saint Kitts and Nevis","address":{"town":"Saddlers","region":"Saint John Capisterre","ISO3166-2-lvl6":"KN-06","island":"Saint Kitts","ISO3166-2-lvl4":"KN-K","country":"Saint Kitts and Nevis","country_code":"kn"},"population":1058,"osm_type":"node","osm_id":4008348089,"type":"town","location":[-62.7917839,17.4042846],"bbox":[-62.8317839,17.3642846,-62.7517839,17.4442846]}
{"name":"Saint Paul's","other_names":{"name:en":"Saint Paul's","name:mk":"Сент Полс","short_name":"Saint Paul's"},"display_name":"Saint Paul's, Saint Paul Capisterre, Saint Kitts, Saint Kitts and Nevis","address":{"town":"Saint Paul's","region":"Saint Paul Capisterre","ISO3166-2-lvl6":"KN-09","island":"Saint Kitts","ISO3166-2-lvl4":"KN-K","country":"Saint Kitts and Nevis","country_code":"kn"},"population":1376,"osm_type":"node","osm_id":4008356285,"type":"town","location":[-62.8371047,17.4068435],"bbox":[-62.8771047,17.3668435,-62.7971047,17.4468435]}
{"name":"Sandy Point","other_names":{"name:en":"Sandy Point","name:mk":"Сенди Поинт"},"display_name":"Sandy Point, Saint Anne Sandy Point, Saint Kitts, Saint Kitts and Nevis","address":{"town":"Sandy Point","region":"Saint Anne Sandy Point","ISO3166-2-lvl6":"KN-02","island":"Saint Kitts","ISO3166-2-lvl4":"KN-K","country":"Saint Kitts and Nevis","country_code":"kn"},"population":784,"osm_type":"node","osm_id":4003288757,"type":"town","location":[-62.8482871,17.3597114],"bbox":[-62.8882871,17.3197114,-62.8082871,17.3997114]}
{"name":"St. Peter's","display_name":"St. Peter's, Saint Peter Basseterre, Saint Kitts, Saint Kitts and Nevis","address":{"town":"St. Peter's","region":"Saint Peter Basseterre","ISO3166-2-lvl6":"KN-11","island":"Saint Kitts","ISO3166-2-lvl4":"KN-K","country":"Saint Kitts and Nevis","country_code":"kn"},"osm_type":"node","osm_id":6285161741,"type":"town","location":[-62.7346839,17.3197132],"bbox":[-62.7746839,17.2797132,-62.6946839,17.3597132]}
