{"name":"Bedouin village","other_names":{"name:en":"Bedouin village","name:he":"ישוב בדואי"},"display_name":"Bedouin village, מועצה אזורית תמר, נפת באר שבע, מחוז הדרום, ישראל","address":{"hamlet":"Bedouin village","city":"מועצה אזורית תמר","state_district":"נפת באר שבע","state":"מחוז הדרום","ISO3166-2-lvl4":"IL-D","country":"ישראל","country_code":"il"},"osm_type":"node","osm_id":1550362639,"type":"hamlet","location":[35.2835653,31.2756726],"bbox":[35.2635653,31.2556726,35.3035653,31.2956726]}
{"name":"Rustum","other_names":{"name:ar":"رستم الاعمر","name:he":"רוסתום"},"display_name":"Rustum, מועצה אזורית עמק חפר, נפת השרון, מחוז המרכז, ישראל","address":{"hamlet":"Rustum","region":"מועצה אזורית עמק חפר","state_district":"נפת השרון","state":"מחוז המרכז","ISO3166-2-lvl4":"IL-M","country":"ישראל","country_code":"il"},"osm_type":"way","osm_id":1299696831,"type":"hamlet","location":[35.0255814206231,32.344957550000004],"bbox":[35.0250352,32.3446628,35.0261532,32.3452096]}
{"name":"אבו ליבדה","other_names":{"name:ar":"أبو ليبده","name:en":"Abu Libdeh","name:fr":"Abu Libda","name:he":"אבו ליבדה"},"display_name":"אבו ליבדה, מועצה אזורית שדות דן, נפת רמלה, מחוז המרכז, 5020000, ישראל","address":{"hamlet":"אבו ליבדה","city":"מועצה אזורית שדות דן","state_district":"נפת רמלה","state":"מחוז המרכז","ISO3166-2-lvl4":"IL-M","postcode":"5020000","country":"ישראל","country_code":"il"},"osm_type":"node","osm_id":1537184145,"type":"hamlet","location":[34.845673,31.9720509],"bbox":[34.825673,31.9520509,34.865673,31.9920509]}
{"name":"אבו סנינא","other_names":{"name:ar":"ابو اسنينة","name:en":"Abu Sneneh","name:fr":"Abu Sneina","name:he":"אבו סנינא","name:ru":"Абу Снейна"},"display_name":"אבו סנינא, כפר סבא, עיריית הוד השרוו -מחלקת הרווחה והשירותים החברתיים, נפת פתח תקווה, מחוז המרכז, 4445810, ישראל","address":{"hamlet":"אבו סנינא","town":"כפר סבא","municipality":"עיריית הוד השרוו -מחלקת הרווחה והשירותים החברתיים","state_district":"נפת פתח תקווה","state":"מחוז המרכז","ISO3166-2-lvl4":"IL-M","postcode":"4445810","country":"ישראל","country_code":"il"},"osm_type":"node","osm_id":3630219973,"type":"hamlet","location":[34.9557692,32.1837062],"bbox":[34.9357692,32.1637062,34.9757692,32.2037062],"border":{"name":"אבו סנינא","other_names":{"name:ar":"ابو اسنينة","name:en":"Abu Sneneh","name:fr":"Abu Sneina","name:he":"אבו סנינא","name:ru":"Абу Сненех","alt:ru":"Абу Снейна"},"display_name":"אבו סנינא, כפר סבא, עיריית הוד השרוו -מחלקת הרווחה והשירותים החברתיים, נפת פתח תקווה, מחוז המרכז, ישראל","address":{"hamlet":"אבו סנינא","town":"כפר סבא","municipality":"עיריית הוד השרוו -מחלקת הרווחה והשירותים החברתיים","state_district":"נפת פתח תקווה","state":"מחוז המרכז","ISO3166-2-lvl4":"IL-M","country":"ישראל","country_code":"il"},"osm_type":"way","osm_id":866595569,"type":"hamlet","location":[34.9557692,32.1837062],"bbox":[34.9547575,32.1821397,34.9567373,32.1848162]}}
{"name":"אדמה","other_names":{"name:en":"Adama","name:fr":"Adama","name:he":"אדמה"},"display_name":"אדמה, נפת עכו, מחוז הצפון, 2513500, ישראל","address":{"hamlet":"אדמה","state_district":"נפת עכו","state":"מחוז הצפון","ISO3166-2-lvl4":"IL-Z","postcode":"2513500","country":"ישראל","country_code":"il"},"population":70,"osm_type":"node","osm_id":7055695490,"type":"hamlet","location":[35.2158084,32.9731509],"bbox":[35.1958084,32.9531509,35.2358084,32.9931509],"border":{"name":"אדמה","other_names":{"name:en":"Adama","name:he":"אדמה","name:fr":"Adama"},"display_name":"אדמה, נפת עכו, מחוז הצפון, ישראל","address":{"hamlet":"אדמה","state_district":"נפת עכו","state":"מחוז הצפון","ISO3166-2-lvl4":"IL-Z","country":"ישראל","country_code":"il"},"population":70,"osm_type":"way","osm_id":958008200,"type":"hamlet","location":[35.2158084,32.9731509],"bbox":[35.2139955,32.9718517,35.2175289,32.9739375]}}
{"name":"איתנים","other_names":{"name:ar":"إيتانيم","name:en":"Eitanim","name:fr":"Eitanim","name:he":"איתנים"},"display_name":"איתנים, מועצה אזורית מטה יהודה, נפת ירושלים, מחוז ירושלים, ישראל","address":{"hamlet":"איתנים","city":"מועצה אזורית מטה יהודה","state_district":"נפת ירושלים","state":"מחוז ירושלים","ISO3166-2-lvl4":"IL-JM","country":"ישראל","country_code":"il"},"population":81,"osm_type":"node","osm_id":8307131112,"type":"hamlet","location":[35.095001,31.7790429],"bbox":[35.075001,31.7590429,35.115001,31.7990429]}
{"name":"אל עביד","other_names":{"name:en":"Al-Abid","name:fr":"Al Abid","name:he":"אל עביד"},"display_name":"אל עביד, מועצה אזורית בני שמעון, נפת באר שבע, מחוז הדרום, ישראל","address":{"hamlet":"אל עביד","city":"מועצה אזורית בני שמעון","state_district":"נפת באר שבע","state":"מחוז הדרום","ISO3166-2-lvl4":"IL-D","country":"ישראל","country_code":"il"},"osm_type":"node","osm_id":4727250747,"type":"hamlet","location":[34.8618054,31.3668804],"bbox":[34.8418054,31.3468804,34.8818054,31.3868804],"border":{"name":"אל עביד","other_names":{"name:en":"Al-Abid","name:fr":"Al Abid","name:he":"אל עביד"},"display_name":"אל עביד, מועצה אזורית בני שמעון, נפת באר שבע, מחוז הדרום, ישראל","address":{"hamlet":"אל עביד","city":"מועצה אזורית בני שמעון","state_district":"נפת באר שבע","state":"מחוז הדרום","ISO3166-2-lvl4":"IL-D","country":"ישראל","country_code":"il"},"osm_type":"way","osm_id":298809634,"type":"hamlet","location":[34.8618054,31.3668804],"bbox":[34.8600226,31.3647116,34.8643795,31.3682043]}}
{"name":"בית ג'מל","other_names":{"name:ar":"بيت جمال","name:en":"Beit Jamal","name:fr":"Beit Jamal","name:he":"בית ג'מל","alt_name:ar":"الحكمة;الحكمه"},"display_name":"בית ג'מל, בית שמש, נפת ירושלים, מחוז ירושלים, 9920828, ישראל","address":{"hamlet":"בית ג'מל","town":"בית שמש","state_district":"נפת ירושלים","state":"מחוז ירושלים","ISO3166-2-lvl4":"IL-JM","postcode":"9920828","country":"ישראל","country_code":"il"},"osm_type":"node","osm_id":5593461170,"type":"hamlet","location":[34.9761488,31.7248445],"bbox":[34.9561488,31.7048445,34.9961488,31.7448445]}
{"name":"בית ספר חקלאי עין כרם","other_names":{"name:ar":"مدرسة عين كارم الزراعية","name:en":"Ein Kerem Agricultural School","name:fr":"Ein Kerem Agricultural School","name:he":"בית ספר חקלאי עין כרם"},"display_name":"בית ספר חקלאי עין כרם, מועצה אזורית מטה יהודה, נפת ירושלים, מחוז ירושלים, 9574320, ישראל","address":{"hamlet":"בית ספר חקלאי עין כרם","city":"מועצה אזורית מטה יהודה","state_district":"נפת ירושלים","state":"מחוז ירושלים","ISO3166-2-lvl4":"IL-JM","postcode":"9574320","country":"ישראל","country_code":"il"},"population":173,"osm_type":"node","osm_id":8307131111,"type":"hamlet","location":[35.1531904,31.7787551],"bbox":[35.1331904,31.7587551,35.1731904,31.7987551]}
{"name":"בית פלט","other_names":{"name:ar":"بيت بلت","name:en":"Beit Pelt","name:he":"בית פלט"},"display_name":"בית פלט, مجلس إقليمي واحة الصحراء, נפת באר שבע, מחוז הדרום, ישראל","address":{"hamlet":"בית פלט","city":"مجلس إقليمي واحة الصحراء","state_district":"נפת באר שבע","state":"מחוז הדרום","ISO3166-2-lvl4":"IL-D","country":"ישראל","country_code":"il"},"osm_type":"node","osm_id":4713049829,"type":"hamlet","location":[34.9357531,31.1858851],"bbox":[34.9157531,31.1658851,34.9557531,31.2058851]}
{"name":"גבעת וולפסון","other_names":{"name:en":"Givat Wolfson","name:fr":"Givat Wolfson","name:he":"גבעת וולפסון"},"display_name":"גבעת וולפסון, נפת חיפה, מחוז חיפה, ישראל","address":{"hamlet":"גבעת וולפסון","state_district":"נפת חיפה","state":"מחוז חיפה","ISO3166-2-lvl4":"IL-HA","country":"ישראל","country_code":"il"},"osm_type":"way","osm_id":71320285,"type":"hamlet","location":[35.0161993,32.7206664],"bbox":[35.014801,32.7199924,35.0175976,32.7213404]}
{"name":"גבעת שמש","other_names":{"name:ar":"جفعات شيمش","name:en":"Givat Shemesh","name:fr":"Givat Shemesh","name:he":"גבעת שמש","alt_name:ar":"جفعات شمش;غفعات شيمش;غفعات شمش;چڤعات شيمش;چڤعات شمش;گڤعات شيمش;گڤعات شمش"},"display_name":"גבעת שמש, מועצה אזורית מטה יהודה, נפת ירושלים, מחוז ירושלים, 9905218, ישראל","address":{"hamlet":"גבעת שמש","city":"מועצה אזורית מטה יהודה","state_district":"נפת ירושלים","state":"מחוז ירושלים","ISO3166-2-lvl4":"IL-JM","postcode":"9905218","country":"ישראל","country_code":"il"},"population":64,"osm_type":"node","osm_id":8307131113,"type":"hamlet","location":[34.9515702,31.774962],"bbox":[34.9315702,31.754962,34.9715702,31.794962]}
{"name":"היובל","other_names":{"name:en":"Hayovel","name:fr":"HaYovel","name:he":"היובל"},"display_name":"היובל, רחובות, נפת רחובות, מחוז המרכז, 7624012, ישראל","address":{"hamlet":"היובל","town":"רחובות","state_district":"נפת רחובות","state":"מחוז המרכז","ISO3166-2-lvl4":"IL-M","postcode":"7624012","country":"ישראל","country_code":"il"},"osm_type":"node","osm_id":563962111,"type":"hamlet","location":[34.82609,31.8877337],"bbox":[34.80609,31.8677337,34.84609,31.9077337]}
{"name":"זמן מדבר","other_names":{"name:en":"Zman Midbar","name:fr":"Zman Midbar","name:he":"זמן מדבר"},"display_name":"זמן מדבר, ערד, נפת באר שבע, מחוז הדרום, ישראל","address":{"hamlet":"זמן מדבר","town":"ערד","state_district":"נפת באר שבע","state":"מחוז הדרום","ISO3166-2-lvl4":"IL-D","country":"ישראל","country_code":"il"},"osm_type":"node","osm_id":3568527627,"type":"hamlet","location":[35.2421426,31.2802307],"bbox":[35.2221426,31.2602307,35.2621426,31.3002307]}
{"name":"חבצלת","other_names":{"name:en":"HaVatselet","name:fr":"Havatzelet","name:he":"חבצלת"},"display_name":"חבצלת, רחובות, נפת רחובות, מחוז המרכז, 7646016, ישראל","address":{"hamlet":"חבצלת","town":"רחובות","state_district":"נפת רחובות","state":"מחוז המרכז","ISO3166-2-lvl4":"IL-M","postcode":"7646016","country":"ישראל","country_code":"il"},"osm_type":"node","osm_id":563961995,"type":"hamlet","location":[34.8164292,31.8755549],"bbox":[34.7964292,31.8555549,34.8364292,31.8955549]}
{"name":"חוות הר שמש","other_names":{"name:en":"Sun Mountain Farm","name:he":"חוות הר שמש"},"display_name":"חוות הר שמש, מועצה אזורית בני שמעון, נפת באר שבע, מחוז הדרום, ישראל","address":{"hamlet":"חוות הר שמש","city":"מועצה אזורית בני שמעון","state_district":"נפת באר שבע","state":"מחוז הדרום","ISO3166-2-lvl4":"IL-D","country":"ישראל","country_code":"il"},"osm_type":"node","osm_id":8409902859,"type":"hamlet","location":[34.8428239,31.3925761],"bbox":[34.8228239,31.3725761,34.8628239,31.4125761]}
{"name":"חמדת ימים","other_names":{"name:en":"Hemdat Yamim","name:fr":"Hemdat Yamim","name:he":"חמדת ימים"},"display_name":"חמדת ימים, מועצה אזורית מרום הגליל, נפת צפת, מחוז הצפון, ישראל","address":{"hamlet":"חמדת ימים","city":"מועצה אזורית מרום הגליל","state_district":"נפת צפת","state":"מחוז הצפון","ISO3166-2-lvl4":"IL-Z","country":"ישראל","country_code":"il"},"osm_type":"node","osm_id":278473663,"type":"hamlet","location":[35.4245296,32.9488949],"bbox":[35.4045296,32.9288949,35.4445296,32.9688949],"border":{"name":"חמדת ימים","other_names":{"name:en":"Hemdat Yamim","name:fr":"Hemdat Yamim","name:he":"חמדת ימים"},"display_name":"חמדת ימים, מועצה אזורית מרום הגליל, נפת צפת, מחוז הצפון, ישראל","address":{"hamlet":"חמדת ימים","city":"מועצה אזורית מרום הגליל","state_district":"נפת צפת","state":"מחוז הצפון","ISO3166-2-lvl4":"IL-Z","country":"ישראל","country_code":"il"},"osm_type":"way","osm_id":91566409,"type":"hamlet","location":[35.4245296,32.9488949],"bbox":[35.4237204,32.9483084,35.4257589,32.9498029]}}
{"name":"טבחה","other_names":{"name:ar":"تبكى","name:br":"Tabgha","name:ca":"Tabgha","name:de":"Tabgha","name:en":"Tabgha","name:es":"Tabgha","name:fr":"Tabgha","name:he":"טבחה","name:it":"Tabga","name:ja":"タブハ","name:ko":"타브가","name:nl":"Tabgha","name:pl":"Tabga","name:ru":"Табха","name:uk":"Табха","name:zh":"塔布加","alt":"טבח'ה","alt:de":"Tabgha Kirche","alt:he":"טבח'ה","alt:it":"Tabgha"},"display_name":"טבחה, מועצה אזורית עמק הירדן, נפת כנרת, מחוז הצפון, ישראל","address":{"village":"טבחה","city":"מועצה אזורית עמק הירדן","state_district":"נפת כנרת","state":"מחוז הצפון","ISO3166-2-lvl4":"IL-Z","country":"ישראל","country_code":"il"},"osm_type":"way","osm_id":91563715,"type":"hamlet","location":[35.5499246,32.873249],"bbox":[35.5483031,32.8711656,35.5528843,32.8744511]}
{"name":"טירת שלום","other_names":{"name:en":"Tirat Shalom","name:fr":"Tirat Shalom","name:he":"טירת שלום"},"display_name":"טירת שלום, נס ציונה, נפת רחובות, מחוז המרכז, 7627603, ישראל","address":{"hamlet":"טירת שלום","town":"נס ציונה","state_district":"נפת רחובות","state":"מחוז המרכז","ISO3166-2-lvl4":"IL-M","postcode":"7627603","country":"ישראל","country_code":"il"},"osm_type":"node","osm_id":278473172,"type":"hamlet","location":[34.785443,31.9093177],"bbox":[34.765443,31.8893177,34.805443,31.9293177]}
{"name":"טל אור","other_names":{"name:en":"Tal Or","name:fr":"Tal Or","name:he":"טל אור"},"display_name":"טל אור, מועצה אזורית מרחבים, נפת באר שבע, מחוז הדרום, ישראל","address":{"hamlet":"טל אור","village":"טל אור","city":"מועצה אזורית מרחבים","state_district":"נפת באר שבע","state":"מחוז הדרום","ISO3166-2-lvl4":"IL-D","country":"ישראל","country_code":"il"},"osm_type":"node","osm_id":278476351,"type":"hamlet","location":[34.4971043,31.3520796],"bbox":[34.4771043,31.3320796,34.5171043,31.3720796]}
{"name":"יזרעם","other_names":{"name:en":"Yizream","name:fr":"Yizream","name:he":"יזרעם"},"display_name":"יזרעם, מועצה אזורית שדות נגב, נפת באר שבע, מחוז הדרום, ישראל","address":{"hamlet":"יזרעם","city":"מועצה אזורית שדות נגב","state_district":"נפת באר שבע","state":"מחוז הדרום","ISO3166-2-lvl4":"IL-D","country":"ישראל","country_code":"il"},"osm_type":"node","osm_id":278476393,"type":"hamlet","location":[34.5729015,31.4428197],"bbox":[34.5529015,31.4228197,34.5929015,31.4628197]}
{"name":"ישוב בדואי","other_names":{"name:he":"ישוב בדואי"},"display_name":"ישוב בדואי, ירוחם, נפת באר שבע, מחוז הדרום, ישראל","address":{"hamlet":"ישוב בדואי","town":"ירוחם","state_district":"נפת באר שבע","state":"מחוז הדרום","ISO3166-2-lvl4":"IL-D","country":"ישראל","country_code":"il"},"osm_type":"way","osm_id":358902755,"type":"hamlet","location":[34.93438865343775,31.001646100000002],"bbox":[34.9295841,30.9985055,34.9402271,31.0055617]}
{"name":"כפר הנוקדים","other_names":{"name:en":"Kfar Hanokdim","name:fr":"Kfar Hanokdim","name:he":"כפר הנוקדים","name:ru":"Кфар-ха-Нокдим"},"display_name":"כפר הנוקדים, מתחם מערבי, כפר הנוקדים, ערד, נפת באר שבע, מחוז הדרום, ישראל","address":{"leisure":"כפר הנוקדים","road":"מתחם מערבי","hamlet":"כפר הנוקדים","town":"ערד","state_district":"נפת באר שבע","state":"מחוז הדרום","ISO3166-2-lvl4":"IL-D","country":"ישראל","country_code":"il"},"osm_type":"node","osm_id":3568331220,"type":"resort","location":[35.2692884,31.3053047],"bbox":[35.2692384,31.3052547,35.2693384,31.3053547]}
{"name":"כפר זוהרים","other_names":{"name:ar":"كفار زوهريم","name:en":"Kfar Zoharim","name:fr":"Kfar Zoharim","name:he":"כפר זוהרים"},"display_name":"כפר זוהרים, מועצה אזורית מטה יהודה, נפת ירושלים, מחוז ירושלים, ישראל","address":{"hamlet":"כפר זוהרים","city":"מועצה אזורית מטה יהודה","state_district":"נפת ירושלים","state":"מחוז ירושלים","ISO3166-2-lvl4":"IL-JM","country":"ישראל","country_code":"il"},"population":160,"osm_type":"node","osm_id":8307131114,"type":"hamlet","location":[34.9248916,31.6217119],"bbox":[34.9048916,31.6017119,34.9448916,31.6417119]}
{"name":"כפר רפאל","other_names":{"name:en":"Kfar Refael","name:fr":"Kfar Refael","name:he":"כפר רפאל"},"display_name":"כפר רפאל, באר שבע, נפת באר שבע, מחוז הדרום, ישראל","address":{"hamlet":"כפר רפאל","city":"באר שבע","state_district":"נפת באר שבע","state":"מחוז הדרום","ISO3166-2-lvl4":"IL-D","country":"ישראל","country_code":"il"},"osm_type":"node","osm_id":831255892,"type":"hamlet","location":[34.7480384,31.2587764],"bbox":[34.7280384,31.2387764,34.7680384,31.2787764],"border":{"name":"כפר רפאל","other_names":{"name:en":"Kfar Refael","name:fr":"Kfar Refael","name:he":"כפר רפאל"},"display_name":"כפר רפאל, באר שבע, נפת באר שבע, מחוז הדרום, ישראל","address":{"hamlet":"כפר רפאל","city":"באר שבע","state_district":"נפת באר שבע","state":"מחוז הדרום","ISO3166-2-lvl4":"IL-D","country":"ישראל","country_code":"il"},"osm_type":"way","osm_id":94721069,"type":"hamlet","location":[34.7480384,31.2587764],"bbox":[34.746822,31.2571843,34.7490507,31.2602655]}}
{"name":"כרי דשא","other_names":{"name:de":"Kare Deshe","name:en":"Karay Deshe","name:fr":"Karay Deshe","name:he":"כרי דשא","name:en1":"Karei-Deshe"},"display_name":"כרי דשא, מועצה אזורית עמק הירדן, נפת כנרת, מחוז הצפון, ישראל","address":{"hamlet":"כרי דשא","city":"מועצה אזורית עמק הירדן","state_district":"נפת כנרת","state":"מחוז הצפון","ISO3166-2-lvl4":"IL-Z","country":"ישראל","country_code":"il"},"osm_type":"node","osm_id":278477663,"type":"hamlet","location":[35.5385109,32.8642361],"bbox":[35.5185109,32.8442361,35.5585109,32.8842361]}
{"display_name":"מועצה אזורית בני שמעון, נפת באר שבע, מחוז הדרום, 8535700, ישראל","address":{"city":"מועצה אזורית בני שמעון","state_district":"נפת באר שבע","state":"מחוז הדרום","ISO3166-2-lvl4":"IL-D","postcode":"8535700","country":"ישראל","country_code":"il"},"osm_type":"node","osm_id":5568651856,"type":"hamlet","location":[34.7612481,31.3502218],"bbox":[34.7412481,31.3302218,34.7812481,31.3702218]}
{"display_name":"מועצה אזורית בני שמעון, נפת באר שבע, מחוז הדרום, ישראל","address":{"city":"מועצה אזורית בני שמעון","state_district":"נפת באר שבע","state":"מחוז הדרום","ISO3166-2-lvl4":"IL-D","country":"ישראל","country_code":"il"},"osm_type":"way","osm_id":502103410,"type":"hamlet","location":[34.84307656408182,31.321814349999997],"bbox":[34.8422867,31.321214,34.8438263,31.3223826]}
{"display_name":"מועצה אזורית בני שמעון, נפת באר שבע, מחוז הדרום, ישראל","address":{"city":"מועצה אזורית בני שמעון","state_district":"נפת באר שבע","state":"מחוז הדרום","ISO3166-2-lvl4":"IL-D","country":"ישראל","country_code":"il"},"osm_type":"way","osm_id":1153476319,"type":"hamlet","location":[34.75205277201266,31.35801525],"bbox":[34.7514835,31.3575772,34.7525441,31.3583497]}
{"display_name":"מועצה אזורית מגידו, נפת יזרעאל, מחוז הצפון, ישראל","address":{"city":"מועצה אזורית מגידו","state_district":"נפת יזרעאל","state":"מחוז הצפון","ISO3166-2-lvl4":"IL-Z","country":"ישראל","country_code":"il"},"osm_type":"way","osm_id":120745730,"type":"hamlet","location":[35.10058426320602,32.62900275],"bbox":[35.0995094,32.6280698,35.1017257,32.6298708]}
{"name":"מילצ'ן","other_names":{"name:en":"Milchen","name:fr":"Milchan","name:he":"מילצ'ן"},"display_name":"מילצ'ן, רחובות, נפת רחובות, מחוז המרכז, 7646016, ישראל","address":{"hamlet":"מילצ'ן","town":"רחובות","state_district":"נפת רחובות","state":"מחוז המרכז","ISO3166-2-lvl4":"IL-M","postcode":"7646016","country":"ישראל","country_code":"il"},"osm_type":"node","osm_id":563962007,"type":"hamlet","location":[34.81276,31.8821774],"bbox":[34.79276,31.8621774,34.83276,31.9021774]}
{"name":"נווה חריף","other_names":{"name:en":"Neve Harif","name:he":"נווה חריף","name:fr":"Neve Harif","name:en1":"Newe Harif"},"display_name":"נווה חריף, מועצה אזורית חבל אילות, נפת באר שבע, מחוז הדרום, ישראל","address":{"village":"נווה חריף","city":"מועצה אזורית חבל אילות","state_district":"נפת באר שבע","state":"מחוז הדרום","ISO3166-2-lvl4":"IL-D","country":"ישראל","country_code":"il"},"osm_type":"way","osm_id":82659185,"type":"hamlet","location":[35.0358704,30.0389533],"bbox":[35.0348695,30.0373945,35.0374143,30.0410984]}
{"name":"נורית","other_names":{"name:cs":"Nurit","name:en":"Nurit","name:fr":"Nurit","name:he":"נורית","name:nn":"Nurit","name:pl":"Nurit","name:en1":"Nuris"},"display_name":"נורית, מועצה אזורית גלבוע, נפת יזרעאל, מחוז הצפון, ישראל","address":{"hamlet":"נורית","city":"מועצה אזורית גלבוע","state_district":"נפת יזרעאל","state":"מחוז הצפון","ISO3166-2-lvl4":"IL-Z","country":"ישראל","country_code":"il"},"osm_type":"node","osm_id":278477851,"type":"hamlet","location":[35.3560394,32.542654],"bbox":[35.3360394,32.522654,35.3760394,32.562654]}
{"name":"נח\"ל יעלון","other_names":{"name:en":"Nahal Yaalon","name:fr":"Nahal Yaalon","name:he":"נח\"ל יעלון","name:en1":"Nahal Ya`alon"},"display_name":"נח\"ל יעלון, מועצה אזורית חבל אילות, נפת באר שבע, מחוז הדרום, ישראל","address":{"hamlet":"נח\"ל יעלון","city":"מועצה אזורית חבל אילות","state_district":"נפת באר שבע","state":"מחוז הדרום","ISO3166-2-lvl4":"IL-D","country":"ישראל","country_code":"il"},"osm_type":"node","osm_id":278473545,"type":"hamlet","location":[35.0424032,30.0517959],"bbox":[35.0224032,30.0317959,35.0624032,30.0717959],"border":{"name":"נח\"ל יעלון","other_names":{"name:en":"Nahal Yaalon","name:he":"נח\"ל יעלון","name:fr":"Nahal Yaalon","name:en1":"Nahal Ya`alon"},"display_name":"נח\"ל יעלון, מועצה אזורית חבל אילות, נפת באר שבע, מחוז הדרום, ישראל","address":{"hamlet":"נח\"ל יעלון","city":"מועצה אזורית חבל אילות","state_district":"נפת באר שבע","state":"מחוז הדרום","ISO3166-2-lvl4":"IL-D","country":"ישראל","country_code":"il"},"osm_type":"way","osm_id":91936980,"type":"hamlet","location":[35.0424032,30.0517959],"bbox":[35.0411158,30.0510201,35.0430668,30.052874]}}
{"display_name":"נפת באר שבע, מחוז הדרום, ישראל","address":{"state_district":"נפת באר שבע","state":"מחוז הדרום","ISO3166-2-lvl4":"IL-D","country":"ישראל","country_code":"il"},"osm_type":"way","osm_id":432757891,"type":"hamlet","location":[34.90005744943835,31.200642350000003],"bbox":[34.8911643,31.19701,34.9066124,31.2058385]}
{"name":"עדי נגב - נחלת ערן","other_names":{"name:en":"Adi Negev - Nahalat Eran","name:he":"עדי נגב - נחלת ערן","old_name":"עלה נגב - נחלת ערן","old_name:en":"Aleh Negev","old_name:he":"עלה נגב - נחלת ערן"},"display_name":"עדי נגב - נחלת ערן, מועצה אזורית מרחבים, נפת באר שבע, מחוז הדרום, ישראל","address":{"hamlet":"עדי נגב - נחלת ערן","city":"מועצה אזורית מרחבים","state_district":"נפת באר שבע","state":"מחוז הדרום","ISO3166-2-lvl4":"IL-D","country":"ישראל","country_code":"il"},"osm_type":"node","osm_id":5816326325,"type":"hamlet","location":[34.5945971,31.3155253],"bbox":[34.5745971,31.2955253,34.6145971,31.3355253]}
{"name":"עזר","other_names":{"name:en":"Ezer","name:fr":"Ezer","name:he":"עזר"},"display_name":"עזר, מועצה אזורית באר טוביה, נפת אשקלון, מחוז הדרום, 7985800, ישראל","address":{"hamlet":"עזר","city":"מועצה אזורית באר טוביה","state_district":"נפת אשקלון","state":"מחוז הדרום","ISO3166-2-lvl4":"IL-D","postcode":"7985800","country":"ישראל","country_code":"il"},"osm_type":"node","osm_id":587104607,"type":"hamlet","location":[34.6714475,31.7365072],"bbox":[34.6514475,31.7165072,34.6914475,31.7565072],"border":{"name":"עזר","other_names":{"name:en":"Ezer","name:fr":"Ezer","name:he":"עזר"},"display_name":"עזר, מועצה אזורית באר טוביה, נפת אשקלון, מחוז הדרום, ישראל","address":{"hamlet":"עזר","city":"מועצה אזורית באר טוביה","state_district":"נפת אשקלון","state":"מחוז הדרום","ISO3166-2-lvl4":"IL-D","country":"ישראל","country_code":"il"},"osm_type":"way","osm_id":699214832,"type":"hamlet","location":[34.6714475,31.7365072],"bbox":[34.6674943,31.734796,34.6738761,31.7385068]}}
{"name":"עין גנים","other_names":{"name:en":"Ein Ganim","name:fr":"Ein Ganim","name:he":"עין גנים"},"display_name":"עין גנים, רחובות, נפת רחובות, מחוז המרכז, 7646016, ישראל","address":{"hamlet":"עין גנים","town":"רחובות","state_district":"נפת רחובות","state":"מחוז המרכז","ISO3166-2-lvl4":"IL-M","postcode":"7646016","country":"ישראל","country_code":"il"},"osm_type":"node","osm_id":563962073,"type":"hamlet","location":[34.8155991,31.8819441],"bbox":[34.7955991,31.8619441,34.8355991,31.9019441]}
{"name":"עיר אובות","other_names":{"name:en":"Ir Ovot","name:fr":"Ir Ovot","name:he":"עיר אובות","name:ru":"Ир Овот"},"display_name":"עיר אובות, מועצה אזורית הערבה התיכונה, נפת באר שבע, מחוז הדרום, ישראל","address":{"hamlet":"עיר אובות","city":"מועצה אזורית הערבה התיכונה","state_district":"נפת באר שבע","state":"מחוז הדרום","ISO3166-2-lvl4":"IL-D","country":"ישראל","country_code":"il"},"population":8,"osm_type":"node","osm_id":4726035535,"type":"hamlet","location":[35.2469853,30.8117804],"bbox":[35.2269853,30.7917804,35.2669853,30.8317804]}
{"name":"ענבר","other_names":{"name:cs":"Inbar","name:en":"Inbar","name:fr":"Inbar","name:he":"ענבר","name:nn":"Inbar","name:ru":"Инбар"},"display_name":"ענבר, מועצה אזורית מרום הגליל, נפת צפת, מחוז הצפון, ישראל","address":{"hamlet":"ענבר","city":"מועצה אזורית מרום הגליל","state_district":"נפת צפת","state":"מחוז הצפון","ISO3166-2-lvl4":"IL-Z","country":"ישראל","country_code":"il"},"osm_type":"node","osm_id":5989167249,"type":"hamlet","location":[35.4226255,32.9101401],"bbox":[35.4026255,32.8901401,35.4426255,32.9301401]}
{"name":"צבעון","other_names":{"name:en":"Tziv'on","name:fr":"Ziv'on","name:he":"צבעון","name:en1":"Tziv'on"},"display_name":"צבעון, מועצה אזורית גליל עליון, נפת עכו, מחוז הצפון, ישראל","address":{"hamlet":"צבעון","village":"צבעון","city":"מועצה אזורית גליל עליון","state_district":"נפת עכו","state":"מחוז הצפון","ISO3166-2-lvl4":"IL-Z","country":"ישראל","country_code":"il"},"osm_type":"way","osm_id":689450593,"type":"hamlet","location":[35.415911890081475,33.0255139],"bbox":[35.412888,33.0228208,35.4190113,33.0280944]}
{"name":"קרית ההגנה","other_names":{"name:en":"Kiriyat HaHagana","name:fr":"Kiryat HaHagana","name:he":"קרית ההגנה"},"display_name":"קרית ההגנה, רחובות, נפת רחובות, מחוז המרכז, 7683400, ישראל","address":{"hamlet":"קרית ההגנה","town":"רחובות","state_district":"נפת רחובות","state":"מחוז המרכז","ISO3166-2-lvl4":"IL-M","postcode":"7683400","country":"ישראל","country_code":"il"},"osm_type":"node","osm_id":563962115,"type":"hamlet","location":[34.8301622,31.8862406],"bbox":[34.8101622,31.8662406,34.8501622,31.9062406]}
{"name":"שיטים","other_names":{"name:en":"Shittim","name:fr":"Shitim","name:he":"שיטים"},"display_name":"שיטים, נח\"ל שיטים, מועצה אזורית חבל אילות, נפת באר שבע, מחוז הדרום, ישראל","address":{"hamlet":"שיטים","city":"מועצה אזורית חבל אילות","state_district":"נפת באר שבע","state":"מחוז הדרום","ISO3166-2-lvl4":"IL-D","country":"ישראל","country_code":"il"},"osm_type":"node","osm_id":278474413,"type":"hamlet","location":[35.0164837,30.1767668],"bbox":[34.9964837,30.1567668,35.0364837,30.1967668],"border":{"name":"נח\"ל שיטים","other_names":{"name:en":"Nahal Shittim","name:he":"נח\"ל שיטים","name:he2":"אשרם במדבר","name:fr":"Shitim","alt":"שיטים","alt:en":"Shittim","alt:he":"שיטים"},"display_name":"נח\"ל שיטים, מועצה אזורית חבל אילות, נפת באר שבע, מחוז הדרום, ישראל","address":{"hamlet":"נח\"ל שיטים","city":"מועצה אזורית חבל אילות","state_district":"נפת באר שבע","state":"מחוז הדרום","ISO3166-2-lvl4":"IL-D","country":"ישראל","country_code":"il"},"osm_type":"way","osm_id":91938943,"type":"hamlet","location":[35.0164837,30.1767668],"bbox":[35.0155501,30.1758197,35.0173559,30.1780467]}}
{"display_name":"أبو تلول, נפת באר שבע, מחוז הדרום, ישראל","address":{"hamlet":"أبو تلول","state_district":"נפת באר שבע","state":"מחוז הדרום","ISO3166-2-lvl4":"IL-D","country":"ישראל","country_code":"il"},"osm_type":"node","osm_id":11339272769,"type":"hamlet","location":[34.9139948,31.1420183],"bbox":[34.8939948,31.1220183,34.9339948,31.1620183]}
{"name":"أبو رشد","other_names":{"name:ar":"أبو رشد","name:en":"Abu Rashd","name:fr":"Abu Rushd","name:he":"אבו ראשד"},"display_name":"أبو رشد, נפת באר שבע, מחוז הדרום, ישראל","address":{"hamlet":"أبو رشد","state_district":"נפת באר שבע","state":"מחוז הדרום","ISO3166-2-lvl4":"IL-D","country":"ישראל","country_code":"il"},"osm_type":"node","osm_id":4944474336,"type":"hamlet","location":[34.9907577,31.1034773],"bbox":[34.9707577,31.0834773,35.0107577,31.1234773]}
{"name":"أبو سريخان","other_names":{"name:ar":"أبو سريخان","name:he":"אבו סריחאן"},"display_name":"أبو سريخان, مجلس إقليمي القيصوم, נפת באר שבע, מחוז הדרום, ישראל","address":{"hamlet":"أبو سريخان","city":"مجلس إقليمي القيصوم","state_district":"נפת באר שבע","state":"מחוז הדרום","ISO3166-2-lvl4":"IL-D","country":"ישראל","country_code":"il"},"osm_type":"way","osm_id":432757887,"type":"hamlet","location":[34.88303961372696,31.2634743],"bbox":[34.876844,31.2592746,34.8890965,31.2678052]}
{"name":"أبو عسيبة","other_names":{"name:ar":"أبو عسيبة","name:en":"Abu Asiba","name:fr":"Abu Asheiba","name:he":"אבו עשיבה"},"display_name":"أبو عسيبة, مجلس إقليمي واحة الصحراء, נפת באר שבע, מחוז הדרום, ישראל","address":{"hamlet":"أبو عسيبة","city":"مجلس إقليمي واحة الصحراء","state_district":"נפת באר שבע","state":"מחוז הדרום","ISO3166-2-lvl4":"IL-D","country":"ישראל","country_code":"il"},"osm_type":"node","osm_id":4944470649,"type":"hamlet","location":[34.9587107,31.1249343],"bbox":[34.9387107,31.1049343,34.9787107,31.1449343]}
{"name":"أبو عمار","other_names":{"name:ar":"أبو عمار","name:en":"Abu Amar","name:he":"אבו עמאר"},"display_name":"أبو عمار, أبو قرينات, مجلس إقليمي واحة الصحراء, נפת באר שבע, מחוז הדרום, ישראל","address":{"hamlet":"أبو عمار","village":"أبو قرينات","city":"مجلس إقليمي واحة الصحراء","state_district":"נפת באר שבע","state":"מחוז הדרום","ISO3166-2-lvl4":"IL-D","country":"ישראל","country_code":"il"},"osm_type":"node","osm_id":4944470650,"type":"hamlet","location":[34.9532604,31.1373783],"bbox":[34.9332604,31.1173783,34.9732604,31.1573783]}
{"name":"أبو عمار","other_names":{"name:ar":"أبو عمار","name:en":"Abu Amar","name:fr":"Abu Amar","name:he":"אבו עמר"},"display_name":"أبو عمار, بئر المشاش, נפת באר שבע, מחוז הדרום, ישראל","address":{"hamlet":"أبو عمار","village":"بئر المشاش","state_district":"נפת באר שבע","state":"מחוז הדרום","ISO3166-2-lvl4":"IL-D","country":"ישראל","country_code":"il"},"osm_type":"node","osm_id":4713049830,"type":"hamlet","location":[34.9651766,31.1857494],"bbox":[34.9451766,31.1657494,34.9851766,31.2057494]}
{"name":"أبو عيسى","other_names":{"name:ar":"أبو عيسى","name:he":"אבו עיסא"},"display_name":"أبو عيسى, العظيم, מועצה אזורית בני שמעון, נפת באר שבע, מחוז הדרום, ישראל","address":{"hamlet":"أبو عيسى","village":"العظيم","city":"מועצה אזורית בני שמעון","state_district":"נפת באר שבע","state":"מחוז הדרום","ISO3166-2-lvl4":"IL-D","country":"ישראל","country_code":"il"},"osm_type":"way","osm_id":432756411,"type":"hamlet","location":[34.89203317195587,31.29776895],"bbox":[34.8873668,31.2938858,34.8973367,31.301791]}
{"display_name":"ابو تلول الشهبي, נפת באר שבע, מחוז הדרום, ישראל","address":{"village":"ابو تلول الشهبي","state_district":"נפת באר שבע","state":"מחוז הדרום","ISO3166-2-lvl4":"IL-D","country":"ישראל","country_code":"il"},"osm_type":"way","osm_id":432757893,"type":"hamlet","location":[34.90655142707821,31.176545400000002],"bbox":[34.9040925,31.1745188,34.9090038,31.1787104]}
{"display_name":"ابو تلول الشهبي, مجلس إقليمي واحة الصحراء, נפת באר שבע, מחוז הדרום, ישראל","address":{"village":"ابو تلول الشهبي","city":"مجلس إقليمي واحة الصحراء","state_district":"נפת באר שבע","state":"מחוז הדרום","ISO3166-2-lvl4":"IL-D","country":"ישראל","country_code":"il"},"osm_type":"way","osm_id":432757892,"type":"hamlet","location":[34.91377792958712,31.1852632],"bbox":[34.9055358,31.1763532,34.9239745,31.1949196]}
{"name":"ابو جامدة","other_names":{"name:ar":"ابو جامدة","name:en":"Abu Jamada","name:fr":"Abu Jamada","name:he":"אבו ג'אמדה"},"display_name":"ابو جامدة, נפת באר שבע, מחוז הדרום, ישראל","address":{"hamlet":"ابو جامدة","state_district":"נפת באר שבע","state":"מחוז הדרום","ISO3166-2-lvl4":"IL-D","country":"ישראל","country_code":"il"},"osm_type":"node","osm_id":4713049832,"type":"hamlet","location":[34.9803695,31.1654987],"bbox":[34.9603695,31.1454987,35.0003695,31.1854987]}
{"name":"الباط","other_names":{"name:ar":"الباط","name:en":"Al Bat","name:fr":"Al-Bat","name:he":"אל-באט"},"display_name":"الباط, נפת באר שבע, מחוז הדרום, ישראל","address":{"hamlet":"الباط","state_district":"נפת באר שבע","state":"מחוז הדרום","ISO3166-2-lvl4":"IL-D","country":"ישראל","country_code":"il"},"osm_type":"node","osm_id":4867772940,"type":"hamlet","location":[35.0332156,31.2704831],"bbox":[35.0132156,31.2504831,35.0532156,31.2904831]}
{"name":"البحيرة","other_names":{"name:ar":"البحيرة","name:en":"Al Bhirah","name:fr":"Al Bhira","name:he":"אל-בחירה"},"display_name":"البحيرة, נפת באר שבע, מחוז הדרום, ישראל","address":{"hamlet":"البحيرة","state_district":"נפת באר שבע","state":"מחוז הדרום","ISO3166-2-lvl4":"IL-D","country":"ישראל","country_code":"il"},"osm_type":"node","osm_id":4867816233,"type":"hamlet","location":[35.089542,31.2176111],"bbox":[35.069542,31.1976111,35.109542,31.2376111]}
{"name":"البقيعة","other_names":{"name:ar":"البقيعة","name:en":"Al Bqea'ah","name:fr":"Al-Bekia","name:he":"אל-בקיעה"},"display_name":"البقيعة, ערד, נפת באר שבע, מחוז הדרום, ישראל","address":{"hamlet":"البقيعة","town":"ערד","state_district":"נפת באר שבע","state":"מחוז הדרום","ISO3166-2-lvl4":"IL-D","country":"ישראל","country_code":"il"},"osm_type":"way","osm_id":495239773,"type":"hamlet","location":[35.250830130596384,31.308031399999997],"bbox":[35.2496453,31.3062897,35.2528306,31.3093619]}
{"name":"الجنابب","other_names":{"name:ar":"الجنابب","name:en":"Janabib","name:fr":"Janabib","name:he":"ג'נאביב"},"display_name":"الجنابب, قشكار نباري, נפת באר שבע, מחוז הדרום, ישראל","address":{"hamlet":"الجنابب","village":"قشكار نباري","state_district":"נפת באר שבע","state":"מחוז הדרום","ISO3166-2-lvl4":"IL-D","country":"ישראל","country_code":"il"},"osm_type":"node","osm_id":1077051472,"type":"hamlet","location":[35.1082102,31.2873986],"bbox":[35.0882102,31.2673986,35.1282102,31.3073986],"border":{"name":"ג'נאביב","other_names":{"name:en":"Janabib","name:he":"ג'נאביב"},"display_name":"ג'נאביב, قشكار نباري, נפת באר שבע, מחוז הדרום, ישראל","address":{"hamlet":"ג'נאביב","village":"قشكار نباري","state_district":"נפת באר שבע","state":"מחוז הדרום","ISO3166-2-lvl4":"IL-D","country":"ישראל","country_code":"il"},"osm_type":"way","osm_id":92890484,"type":"hamlet","location":[35.10778653747643,31.2875807],"bbox":[35.1064169,31.2844533,35.1103304,31.2900554]}}
{"name":"الرحمة","other_names":{"name:ar":"الرحمة","name:en":"Al-Rahma","name:he":"רח'מה","name:fr":"Rahma"},"display_name":"الرحمة, ירוחם, נפת באר שבע, מחוז הדרום, ישראל","address":{"village":"الرحمة","town":"ירוחם","state_district":"נפת באר שבע","state":"מחוז הדרום","ISO3166-2-lvl4":"IL-D","country":"ישראל","country_code":"il"},"osm_type":"way","osm_id":358902754,"type":"hamlet","location":[34.9557173,31.0086492],"bbox":[34.9462031,31.0030485,34.9674557,31.0149751]}
{"name":"الزعرورة","other_names":{"name:ar":"الزعرورة","name:en":"Al Za'arurah","name:fr":"Ez Zaaroura","name:he":"אל-זערורה"},"display_name":"الزعرورة, كسيفة, נפת באר שבע, מחוז הדרום, ישראל","address":{"hamlet":"الزعرورة","village":"كسيفة","state_district":"נפת באר שבע","state":"מחוז הדרום","ISO3166-2-lvl4":"IL-D","country":"ישראל","country_code":"il"},"osm_type":"node","osm_id":4867786202,"type":"hamlet","location":[35.1178018,31.2377581],"bbox":[35.0978018,31.2177581,35.1378018,31.2577581]}
{"name":"الزيادنا الناصرة","other_names":{"name:ar":"الزيادنا الناصرة","name:he":"א-זידאנה אל נסאסרה"},"display_name":"الزيادنا الناصرة, قرى بدوية جنوب رهط, رهط, נפת באר שבע, מחוז הדרום, ישראל","address":{"hamlet":"الزيادنا الناصرة","village":"قرى بدوية جنوب رهط","town":"رهط","state_district":"נפת באר שבע","state":"מחוז הדרום","ISO3166-2-lvl4":"IL-D","country":"ישראל","country_code":"il"},"osm_type":"way","osm_id":158939140,"type":"hamlet","location":[34.73959259094776,31.3686837],"bbox":[34.7365106,31.3658372,34.742804,31.3707942]}
{"name":"السرة","other_names":{"name:ar":"السرة","name:en":"Al Sirah","name:fr":"El Sira","name:he":"אל סירה"},"display_name":"السرة, زبرجا, נפת באר שבע, מחוז הדרום, ישראל","address":{"hamlet":"السرة","village":"زبرجا","state_district":"נפת באר שבע","state":"מחוז הדרום","ISO3166-2-lvl4":"IL-D","country":"ישראל","country_code":"il"},"osm_type":"node","osm_id":4867802905,"type":"hamlet","location":[35.0227443,31.2369691],"bbox":[35.0027443,31.2169691,35.0427443,31.2569691]}
{"name":"الصدير","other_names":{"name:ar":"الصدير","name:en":"Al Sdir","name:fr":"Al-Sadir","name:he":"אל-סדיר"},"display_name":"الصدير, נפת באר שבע, מחוז הדרום, ישראל","address":{"hamlet":"الصدير","state_district":"נפת באר שבע","state":"מחוז הדרום","ISO3166-2-lvl4":"IL-D","country":"ישראל","country_code":"il"},"osm_type":"node","osm_id":4867894499,"type":"hamlet","location":[34.9895431,31.1697692],"bbox":[34.9695431,31.1497692,35.0095431,31.1897692]}
{"name":"العراقيب","other_names":{"name:ar":"العراقيب","name:en":"Al Arakib","name:fr":"Al-Arakib","name:he":"אל-עראקיב"},"display_name":"العراقيب, מועצה אזורית בני שמעון, נפת באר שבע, מחוז הדרום, ישראל","address":{"hamlet":"العراقيب","city":"מועצה אזורית בני שמעון","state_district":"נפת באר שבע","state":"מחוז הדרום","ISO3166-2-lvl4":"IL-D","country":"ישראל","country_code":"il"},"osm_type":"node","osm_id":4867585330,"type":"hamlet","location":[34.7491721,31.3223695],"bbox":[34.7291721,31.3023695,34.7691721,31.3423695]}
{"name":"العريان","other_names":{"name:ar":"العريان","name:en":"Al Aryan","name:fr":"Al-Arian","name:he":"אל עריאן"},"display_name":"العريان, מועצה אזורית מנשה, נפת חדרה, מחוז חיפה, 3786800, ישראל","address":{"hamlet":"العريان","city":"מועצה אזורית מנשה","state_district":"נפת חדרה","state":"מחוז חיפה","ISO3166-2-lvl4":"IL-HA","postcode":"3786800","country":"ישראל","country_code":"il"},"osm_type":"node","osm_id":1068786992,"type":"hamlet","location":[35.1255776,32.4979223],"bbox":[35.1055776,32.4779223,35.1455776,32.5179223],"border":{"name":"العريان","other_names":{"name:ar":"العريان","name:en":"Al Aryan","name:fr":"Al Arian","name:he":"אל עריאן","alt:fr":"Al-Arian"},"display_name":"العريان, מועצה אזורית מנשה, נפת חדרה, מחוז חיפה, ישראל","address":{"hamlet":"العريان","city":"מועצה אזורית מנשה","state_district":"נפת חדרה","state":"מחוז חיפה","ISO3166-2-lvl4":"IL-HA","country":"ישראל","country_code":"il"},"osm_type":"way","osm_id":85788159,"type":"hamlet","location":[35.1255776,32.4979223],"bbox":[35.123218,32.4969115,35.1270562,32.498824]}}
{"name":"العمراني‎","other_names":{"name:ar":"العمراني‎","name:en":"Al Amrani","name:fr":"El-Amrani","name:he":"אל עמראני"},"display_name":"العمراني‎, נפת באר שבע, מחוז הדרום, ישראל","address":{"hamlet":"العمراني‎","state_district":"נפת באר שבע","state":"מחוז הדרום","ISO3166-2-lvl4":"IL-D","country":"ישראל","country_code":"il"},"osm_type":"node","osm_id":4713049831,"type":"hamlet","location":[34.9685077,31.1678803],"bbox":[34.9485077,31.1478803,34.9885077,31.1878803]}
{"name":"الغراء","other_names":{"name:ar":"الغراء","name:en":"Al Gharrah","name:fr":"El Ghara","name:he":"אל-ע'רא"},"display_name":"الغراء, נפת באר שבע, מחוז הדרום, ישראל","address":{"hamlet":"الغراء","state_district":"נפת באר שבע","state":"מחוז הדרום","ISO3166-2-lvl4":"IL-D","country":"ישראל","country_code":"il"},"osm_type":"node","osm_id":4867609849,"type":"hamlet","location":[34.9650355,31.2370246],"bbox":[34.9450355,31.2170246,34.9850355,31.2570246]}
{"name":"الغول","other_names":{"name:ar":"الغول","name:en":"Al Ghul","name:fr":"El-Ghul","name:he":"אל ע'ול"},"display_name":"الغول, נפת באר שבע, מחוז הדרום, ישראל","address":{"hamlet":"الغول","state_district":"נפת באר שבע","state":"מחוז הדרום","ISO3166-2-lvl4":"IL-D","country":"ישראל","country_code":"il"},"osm_type":"node","osm_id":4944471686,"type":"hamlet","location":[34.9964869,31.1242639],"bbox":[34.9764869,31.1042639,35.0164869,31.1442639]}
{"name":"القطامات","other_names":{"name:ar":"القطامات","name:en":"Al Gatamat","name:fr":"Al Gatamat","name:he":"אל-קטמאת"},"display_name":"القطامات, נפת באר שבע, מחוז הדרום, ישראל","address":{"hamlet":"القطامات","state_district":"נפת באר שבע","state":"מחוז הדרום","ISO3166-2-lvl4":"IL-D","country":"ישראל","country_code":"il"},"osm_type":"node","osm_id":4867875319,"type":"hamlet","location":[35.0949609,31.1730943],"bbox":[35.0749609,31.1530943,35.1149609,31.1930943]}
{"name":"المزرة","other_names":{"name:ar":"المزرة","name:fr":"Mazra","name:he":"المزرة"},"display_name":"المزرة, נפת באר שבע, מחוז הדרום, ישראל","address":{"hamlet":"المزرة","state_district":"נפת באר שבע","state":"מחוז הדרום","ISO3166-2-lvl4":"IL-D","country":"ישראל","country_code":"il"},"osm_type":"node","osm_id":8242302351,"type":"hamlet","location":[35.080532,31.1503381],"bbox":[35.060532,31.1303381,35.100532,31.1703381]}
{"name":"المزرعة","other_names":{"name:ar":"المزرعة","name:en":"Al Mazra'ah","name:he":"אל-מזרעה"},"display_name":"المزرعة, נפת באר שבע, מחוז הדרום, ישראל","address":{"hamlet":"المزرعة","state_district":"נפת באר שבע","state":"מחוז הדרום","ISO3166-2-lvl4":"IL-D","country":"ישראל","country_code":"il"},"osm_type":"way","osm_id":495018100,"type":"hamlet","location":[35.04808288846415,31.133468],"bbox":[35.0458784,31.1320813,35.0502343,31.1345241]}
{"name":"المكيمن","other_names":{"name:ar":"المكيمن","name:en":"Al Mkiman","name:fr":"Al-Makiman","name:he":"אל-מכימן"},"display_name":"المكيمن, עומר, נפת באר שבע, מחוז הדרום, ישראל","address":{"hamlet":"المكيمن","town":"עומר","state_district":"נפת באר שבע","state":"מחוז הדרום","ISO3166-2-lvl4":"IL-D","country":"ישראל","country_code":"il"},"osm_type":"node","osm_id":4867591665,"type":"hamlet","location":[34.8554991,31.2968646],"bbox":[34.8354991,31.2768646,34.8754991,31.3168646]}
{"name":"ام رتام","other_names":{"name:ar":"ام رتام","name:en":"Um Rattam","name:fr":"Um Rattam","name:he":"אום רתאם"},"display_name":"ام رتام, المهدي, נפת באר שבע, מחוז הדרום, ישראל","address":{"hamlet":"ام رتام","village":"المهدي","state_district":"נפת באר שבע","state":"מחוז הדרום","ISO3166-2-lvl4":"IL-D","country":"ישראל","country_code":"il"},"osm_type":"node","osm_id":4867882301,"type":"hamlet","location":[35.0214091,31.1164388],"bbox":[35.0014091,31.0964388,35.0414091,31.1364388]}
{"name":"باط الصرايعة","other_names":{"name:ar":"باط الصرايعة","name:en":"Bat Al Saraya'ah","name:fr":"Bat Al Saraya'ah","name:he":"באט אל-סראיעה"},"display_name":"باط الصرايعة, נפת באר שבע, מחוז הדרום, ישראל","address":{"hamlet":"باط الصرايعة","state_district":"נפת באר שבע","state":"מחוז הדרום","ISO3166-2-lvl4":"IL-D","country":"ישראל","country_code":"il"},"osm_type":"node","osm_id":4867785197,"type":"hamlet","location":[35.0251278,31.2593192],"bbox":[35.0051278,31.2393192,35.0451278,31.2793192]}
{"name":"بير الحمام","other_names":{"name:ar":"بير الحمام","name:en":"Bir Al Hamam","name:fr":"Bir Al Hamam","name:he":"ביר אל חמאם"},"display_name":"بير الحمام, מועצה אזורית בני שמעון, נפת באר שבע, מחוז הדרום, ישראל","address":{"hamlet":"بير الحمام","city":"מועצה אזורית בני שמעון","state_district":"נפת באר שבע","state":"מחוז הדרום","ISO3166-2-lvl4":"IL-D","country":"ישראל","country_code":"il"},"osm_type":"node","osm_id":4867604104,"type":"hamlet","location":[34.9003974,31.2314737],"bbox":[34.8803974,31.2114737,34.9203974,31.2514737]}
{"name":"تجمع البدوي","other_names":{"name:ar":"تجمع البدوي","name:en":"Bedouin Settlement","name:fr":"Colonie bédouine","name:he":"ישוב בדואי"},"display_name":"تجمع البدوي, ירוחם, נפת באר שבע, מחוז הדרום, ישראל","address":{"hamlet":"تجمع البدوي","town":"ירוחם","state_district":"נפת באר שבע","state":"מחוז הדרום","ISO3166-2-lvl4":"IL-D","country":"ישראל","country_code":"il"},"osm_type":"node","osm_id":4452296248,"type":"hamlet","location":[34.9618328,30.9853631],"bbox":[34.9418328,30.9653631,34.9818328,31.0053631]}
{"display_name":"تل السبع, נפת באר שבע, מחוז הדרום, ישראל","address":{"town":"تل السبع","state_district":"נפת באר שבע","state":"מחוז הדרום","ISO3166-2-lvl4":"IL-D","country":"ישראל","country_code":"il"},"osm_type":"way","osm_id":432757889,"type":"hamlet","location":[34.87502654255338,31.2492896],"bbox":[34.869325,31.2452208,34.8804326,31.2549798]}
{"name":"تل الملح","other_names":{"name:ar":"تل الملح","name:en":"Tal Al Malah","name:fr":"Tal Al Malah","name:he":"תל-אלמלח"},"display_name":"تل الملح, נפת באר שבע, מחוז הדרום, ישראל","address":{"hamlet":"تل الملح","state_district":"נפת באר שבע","state":"מחוז הדרום","ISO3166-2-lvl4":"IL-D","country":"ישראל","country_code":"il"},"osm_type":"node","osm_id":4867792022,"type":"hamlet","location":[35.0037757,31.231942],"bbox":[34.9837757,31.211942,35.0237757,31.251942]}
{"name":"تل عراد","other_names":{"name:ar":"تل عراد","name:en":"Tel A'rad","name:fr":"Tel Arad","name:he":"תל ערד"},"display_name":"تل عراد, נפת באר שבע, מחוז הדרום, ישראל","address":{"hamlet":"تل عراد","state_district":"נפת באר שבע","state":"מחוז הדרום","ISO3166-2-lvl4":"IL-D","country":"ישראל","country_code":"il"},"osm_type":"node","osm_id":8242302352,"type":"hamlet","location":[35.1452866,31.2918996],"bbox":[35.1252866,31.2718996,35.1652866,31.3118996],"border":{"name":"تل عراد","other_names":{"name:ar":"تل عراد","name:en":"Tel A'rad","name:he":"תל ערד","name:fr":"Tel Arad"},"display_name":"تل عراد, נפת באר שבע, מחוז הדרום, ישראל","address":{"hamlet":"تل عراد","state_district":"נפת באר שבע","state":"מחוז הדרום","ISO3166-2-lvl4":"IL-D","country":"ישראל","country_code":"il"},"osm_type":"way","osm_id":495013775,"type":"hamlet","location":[35.1452866,31.2918996],"bbox":[35.1390442,31.2862833,35.1520906,31.2949649]}}
{"name":"خربة الوطن","other_names":{"name:ar":"خربة الوطن","name:en":"Khirbat Al Wattan","name:fr":"Khirbat Al Wattan","name:he":"ח'רבת אל-ווטן"},"display_name":"خربة الوطن, נפת באר שבע, מחוז הדרום, ישראל","address":{"hamlet":"خربة الوطن","state_district":"נפת באר שבע","state":"מחוז הדרום","ISO3166-2-lvl4":"IL-D","country":"ישראל","country_code":"il"},"osm_type":"node","osm_id":4867606076,"type":"hamlet","location":[34.9237786,31.2553602],"bbox":[34.9037786,31.2353602,34.9437786,31.2753602]}
{"display_name":"خشم زنة, נפת באר שבע, מחוז הדרום, ישראל","address":{"village":"خشم زنة","state_district":"נפת באר שבע","state":"מחוז הדרום","ISO3166-2-lvl4":"IL-D","country":"ישראל","country_code":"il"},"osm_type":"way","osm_id":1022459420,"type":"hamlet","location":[34.87208436088727,31.19668635],"bbox":[34.8718594,31.196508,34.8723111,31.1968946]}
{"name":"دهمش","other_names":{"name:ar":"دهمش","name:en":"Dahmash","name:fr":"Dahmash","name:he":"דהמש"},"display_name":"دهمش, מועצה אזורית שדות דן, נפת רמלה, מחוז המרכז, 7147308, ישראל","address":{"hamlet":"دهمش","city":"מועצה אזורית שדות דן","state_district":"נפת רמלה","state":"מחוז המרכז","ISO3166-2-lvl4":"IL-M","postcode":"7147308","country":"ישראל","country_code":"il"},"osm_type":"node","osm_id":8268222569,"type":"hamlet","location":[34.8670813,31.9436754],"bbox":[34.8470813,31.9236754,34.8870813,31.9636754]}
{"name":"سعوة","other_names":{"name:ar":"سعوة","name:en":"Sa'wah","name:fr":"Sawa","name:he":"סעווה"},"display_name":"سعوة, נפת באר שבע, מחוז הדרום, ישראל","address":{"hamlet":"سعوة","state_district":"נפת באר שבע","state":"מחוז הדרום","ISO3166-2-lvl4":"IL-D","country":"ישראל","country_code":"il"},"osm_type":"node","osm_id":4867761457,"type":"hamlet","location":[34.9613324,31.2702263],"bbox":[34.9413324,31.2502263,34.9813324,31.2902263]}
{"name":"صواوين","other_names":{"name:ar":"صواوين","name:en":"Swawin","name:fr":"Swawin","name:he":"סוואווין"},"display_name":"صواوين, נפת באר שבע, מחוז הדרום, ישראל","address":{"hamlet":"صواوين","state_district":"נפת באר שבע","state":"מחוז הדרום","ISO3166-2-lvl4":"IL-D","country":"ישראל","country_code":"il"},"osm_type":"node","osm_id":4867907758,"type":"hamlet","location":[34.8805489,31.1845053],"bbox":[34.8605489,31.1645053,34.9005489,31.2045053]}
{"name":"عبدة","other_names":{"name:ar":"عبدة","name:en":"Abdih","name:he":"עבדה"},"display_name":"عبدة, מועצה אזורית רמת נגב, נפת באר שבע, מחוז הדרום, ישראל","address":{"hamlet":"عبدة","city":"מועצה אזורית רמת נגב","state_district":"נפת באר שבע","state":"מחוז הדרום","ISO3166-2-lvl4":"IL-D","country":"ישראל","country_code":"il"},"osm_type":"node","osm_id":4867942081,"type":"hamlet","location":[34.7764715,30.7521979],"bbox":[34.7564715,30.7321979,34.7964715,30.7721979],"border":{"name":"عبدة","other_names":{"name:ar":"عبدة","name:en":"Abdih","name:he":"עבדה"},"display_name":"عبدة, מועצה אזורית רמת נגב, נפת באר שבע, מחוז הדרום, ישראל","address":{"hamlet":"عبدة","city":"מועצה אזורית רמת נגב","state_district":"נפת באר שבע","state":"מחוז הדרום","ISO3166-2-lvl4":"IL-D","country":"ישראל","country_code":"il"},"osm_type":"way","osm_id":305370038,"type":"hamlet","location":[34.7764715,30.7521979],"bbox":[34.7705092,30.748311,34.7812312,30.755108]}}
{"name":"عتير","other_names":{"name:ar":"عتير","name:en":"Atir","name:fr":"Atir","name:he":"עתיר"},"display_name":"عتير, قواعين, נפת באר שבע, מחוז הדרום, ישראל","address":{"hamlet":"عتير","village":"قواعين","state_district":"נפת באר שבע","state":"מחוז הדרום","ISO3166-2-lvl4":"IL-D","country":"ישראל","country_code":"il"},"osm_type":"node","osm_id":1077259656,"type":"hamlet","location":[35.0273199,31.324457],"bbox":[35.0073199,31.304457,35.0473199,31.344457]}
{"name":"عرب العرامشة","other_names":{"name:ar":"عرب العرامشة","name:de":"Arab al-Aramsha","name:en":"Arab al-Aramsha","name:fr":"Arab al-Aramshe","name:he":"ערב אל עראמשה"},"display_name":"عرب العرامشة, מועצה אזורית מטה אשר, נפת עכו, מחוז הצפון, ישראל","address":{"hamlet":"عرب العرامشة","village":"عرب العرامشة","city":"מועצה אזורית מטה אשר","state_district":"נפת עכו","state":"מחוז הצפון","ISO3166-2-lvl4":"IL-Z","country":"ישראל","country_code":"il"},"osm_type":"node","osm_id":1075746669,"type":"hamlet","location":[35.2135827,33.0908246],"bbox":[35.1935827,33.0708246,35.2335827,33.1108246]}
{"name":"عين الديسة","other_names":{"name:ar":"عين الديسة","name:en":"Ein ad-Disa","name:he":"עין א-דיסה"},"display_name":"عين الديسة, מועצה אזורית גולן, נפת רמת הגולן, מחוז הצפון, ישראל","address":{"hamlet":"عين الديسة","city":"מועצה אזורית גולן","state_district":"נפת רמת הגולן","state":"מחוז הצפון","ISO3166-2-lvl4":"IL-Z","country":"ישראל","country_code":"il"},"osm_type":"node","osm_id":12652237737,"type":"hamlet","location":[35.6862228,33.2174173],"bbox":[35.6662228,33.1974173,35.7062228,33.2374173]}
{"name":"قديرات الصانع","other_names":{"name:ar":"قديرات الصانع","name:en":"Kudayrat Al Sana","name:he":"קודייראת א צאנע"},"display_name":"قديرات الصانع, قشكار نباري, נפת באר שבע, מחוז הדרום, ישראל","address":{"hamlet":"قديرات الصانع","village":"قشكار نباري","state_district":"נפת באר שבע","state":"מחוז הדרום","ISO3166-2-lvl4":"IL-D","country":"ישראל","country_code":"il"},"osm_type":"way","osm_id":92915202,"type":"hamlet","location":[35.10817848261147,31.29470735],"bbox":[35.1044081,31.2920853,35.1107166,31.2968159]}
{"name":"كركور","other_names":{"name:ar":"كركور","name:en":"Karkour","name:fr":"Karkour","name:he":"כרכור"},"display_name":"كركور, قرية العراقيب, מועצה אזורית בני שמעון, נפת באר שבע, מחוז הדרום, 8535700, ישראל","address":{"hamlet":"كركور","village":"قرية العراقيب","city":"מועצה אזורית בני שמעון","state_district":"נפת באר שבע","state":"מחוז הדרום","ISO3166-2-lvl4":"IL-D","postcode":"8535700","country":"ישראל","country_code":"il"},"osm_type":"node","osm_id":5568650845,"type":"hamlet","location":[34.7673197,31.3464736],"bbox":[34.7473197,31.3264736,34.7873197,31.3664736]}
{"name":"مولدا","other_names":{"name:ar":"مولدا","name:en":"Moladah","name:fr":"Molada","name:he":"מולדה","name:nl":"Mulada","name:nn":"Mulada","name:pl":"Mulada","name:ar1":"مولداه"},"display_name":"مولدا, مجلس إقليمي القيصوم, נפת באר שבע, מחוז הדרום, ישראל","address":{"hamlet":"مولدا","city":"مجلس إقليمي القيصوم","state_district":"נפת באר שבע","state":"מחוז הדרום","ISO3166-2-lvl4":"IL-D","country":"ישראל","country_code":"il"},"osm_type":"node","osm_id":4867937789,"type":"hamlet","location":[34.9824198,31.2582313],"bbox":[34.9624198,31.2382313,35.0024198,31.2782313]}
{"name":"وادي المشاش","other_names":{"name:ar":"وادي المشاش","name:en":"Havat MaShash","name:fr":"Havat MaShash","name:he":"ואדי אל-משאש"},"display_name":"وادي المشاش, מועצה אזורית רמת נגב, נפת באר שבע, מחוז הדרום, ישראל","address":{"hamlet":"وادي المشاش","city":"מועצה אזורית רמת נגב","state_district":"נפת באר שבע","state":"מחוז הדרום","ISO3166-2-lvl4":"IL-D","country":"ישראל","country_code":"il"},"osm_type":"node","osm_id":8242302350,"type":"hamlet","location":[34.8477767,31.0810276],"bbox":[34.8277767,31.0610276,34.8677767,31.1010276],"border":{"name":"وادي المشاش","other_names":{"name:ar":"وادي المشاش","name:en":"Wadi Al Mshash","name:he":"ואדי אל-משאש","name:fr":"Havat MaShash","alt:en":"Havat MaShash"},"display_name":"وادي المشاش, מועצה אזורית רמת נגב, נפת באר שבע, מחוז הדרום, ישראל","address":{"hamlet":"وادي المشاش","city":"מועצה אזורית רמת נגב","state_district":"נפת באר שבע","state":"מחוז הדרום","ISO3166-2-lvl4":"IL-D","country":"ישראל","country_code":"il"},"osm_type":"way","osm_id":495018654,"type":"hamlet","location":[34.8477767,31.0810276],"bbox":[34.8426686,31.0781121,34.8521967,31.0840663]}}
