{"name":"××™×œ×ª","other_names":{"name:ar":"Ø¥ÙŠÙ„Ø§Øª","name:cs":"Ejlat","name:de":"Eilat","name:el":"Î•ÏŠÎ»Î¬Ï„","name:en":"Eilat","name:es":"Eilat","name:eu":"Eilat","name:fa":"Ø§ÛŒÙ„Ø§Øª","name:fi":"Eilat","name:fr":"Eilat","name:he":"××™×œ×ª","name:hi":"à¤à¤²à¤¾à¤¤","name:hr":"Eilat","name:ko":"ì—ì¼ë¼íŠ¸","name:ks":"Ø§ÛŒÙ„Ø§Øª","name:lt":"Elatas","name:ml":"à´à´²à´¾à´¤àµà´¤àµ","name:ru":"Ğ­Ğ¹Ğ»Ğ°Ñ‚","name:sr":"Ğ•Ğ¸Ğ»Ğ°Ñ‚","name:tr":"Eylat","name:uk":"Ğ•Ğ¹Ğ»Ğ°Ñ‚","name:ur":"Ø§ÛŒÙ„Øª","name:zh":"åŸƒæ‹‰ç‰¹","int_name":"Eilat","name:azb":"Ø§ÛŒÙ„Ø§Øª","name:grc":"Î‘á¼°Î»Î¬Î¸","alt_name:ar":"Ø£Ù… Ø§Ù„Ø±Ø´Ø±Ø§Ø´","alt_name:en":"Elath;Elat;Ilat","alt_name:ml":"à´‰à´®àµà´®àµàµ½ à´±à´·àµà´°à´¾à´·àµ","old_name:en":"Umm Rashrash","alt_name:grc":"Î•Î»Î¬;á¼ˆÎ·Î»Î¬;Î‘á¼´Î»Î±Î½Î±;Î‘á¼°Î»Î±Î½Î¯Ï„Î·Ï‚;Î‘á¼°Î»Î±Î½Î®;á¼˜Î»Î¬Î½Î±;Î‘á¼´Î»Î±Î½Î¿Î½;Î‘á¼°Î»Î¬Ï‚;Î‘á¼°Î»ÏÎ½;á¼©Î»Î¬Î¸;Î‘ÏŠÎ»Î¬;Î†Î¹Î»Î±","name:az-Arab":"Ø§ÛŒÙ„Ø§Øª","name:zh-Hans":"åŸƒæ‹‰ç‰¹","name:zh-Hant":"åŸƒæ‹‰ç‰¹","old_name:grc":"Î’ÎµÏÎµÎ½Î¯ÎºÎ·"},"display_name":"××™×œ×ª, × ×¤×ª ×‘××¨ ×©×‘×¢, ××—×•×– ×”×“×¨×•×, ×™×©×¨××œ","address":{"city":"××™×œ×ª","state_district":"× ×¤×ª ×‘××¨ ×©×‘×¢","state":"××—×•×– ×”×“×¨×•×","ISO3166-2-lvl4":"IL-D","country":"×™×©×¨××œ","country_code":"il"},"population":52229,"osm_type":"node","osm_id":27132996,"type":"city","location":[34.9497949,29.5569348],"bbox":[34.7897949,29.3969348,35.1097949,29.7169348],"border":[{"name":"××™×œ×ª","other_names":{"name:ar":"Ø¥ÙŠÙ„Ø§Øª","name:en":"Eilat","name:he":"××™×œ×ª","name:ru":"Ğ­Ğ¹Ğ»Ğ°Ñ‚"},"display_name":"××™×œ×ª, × ×¤×ª ×‘××¨ ×©×‘×¢, ××—×•×– ×”×“×¨×•×, ×™×©×¨××œ","address":{"city":"××™×œ×ª","state_district":"× ×¤×ª ×‘××¨ ×©×‘×¢","state":"××—×•×– ×”×“×¨×•×","ISO3166-2-lvl4":"IL-D","country":"×™×©×¨××œ","country_code":"il"},"population":52229,"osm_type":"way","osm_id":963432388,"type":"city","location":[34.94527476661743,29.554030599999997],"bbox":[34.922523,29.5360846,34.9575047,29.5719603]},{"name":"××™×œ×ª","other_names":{"name:ar":"Ø¥ÙŠÙ„Ø§Øª","name:be":"Ğ­Ğ¹Ğ»Ğ°Ñ‚","name:cs":"Ejlat","name:de":"Eilat","name:el":"Î•ÏŠÎ»Î¬Ï„","name:en":"Eilat","name:es":"Eilat","name:et":"Elat","name:fa":"Ø§ÛŒÙ„Ø§Øª","name:fr":"Eilat","name:he":"××™×œ×ª","name:hr":"Eilat","name:hy":"Ô·ÕµÕ¬Õ¡Õ©","name:ka":"áƒ”áƒ˜áƒšáƒáƒ—áƒ˜","name:ks":"Ø§ÛŒÙ„Ø§Øª","name:uk":"Ğ•Ğ¹Ğ»Ğ°Ñ‚","name:ur":"Ø§ÛŒÙ„Ø§Øª","name:azb":"Ø§ÛŒÙ„Ø§Øª","name:grc":"Î‘á¼°Î»Î¬Î¸","alt_name:grc":"Î•Î»Î¬;á¼ˆÎ·Î»Î¬;Î‘á¼´Î»Î±Î½Î±;Î‘á¼°Î»Î±Î½Î¯Ï„Î·Ï‚;Î‘á¼°Î»Î±Î½Î®;á¼˜Î»Î¬Î½Î±;Î‘á¼´Î»Î±Î½Î¿Î½;Î‘á¼°Î»Î¬Ï‚;Î‘á¼°Î»ÏÎ½;á¼©Î»Î¬Î¸;Î‘ÏŠÎ»Î¬;Î†Î¹Î»Î±","name:az-Arab":"Ø§ÛŒÙ„Ø§Øª","old_name:grc":"Î’ÎµÏÎµÎ½Î¯ÎºÎ·","name:eu":"Eilat","name:fi":"Eilat","name:hi":"à¤à¤²à¤¾à¤¤","name:ko":"ì—ì¼ë¼íŠ¸","name:lt":"Elatas","name:ml":"à´à´²à´¾à´¤àµà´¤àµ","name:ru":"Ğ­Ğ¹Ğ»Ğ°Ñ‚","name:sr":"Ğ•Ğ¸Ğ»Ğ°Ñ‚","name:tr":"Eylat","name:zh":"åŸƒæ‹‰ç‰¹","int_name":"Eilat","alt_name:ar":"Ø£Ù… Ø§Ù„Ø±Ø´Ø±Ø§Ø´","alt_name:en":"Elath;Elat;Ilat","alt_name:ml":"à´‰à´®àµà´®àµàµ½ à´±à´·àµà´°à´¾à´·àµ","old_name:en":"Umm Rashrash","name:zh-Hans":"åŸƒæ‹‰ç‰¹","name:zh-Hant":"åŸƒæ‹‰ç‰¹","alt:ur":"Ø§ÛŒÙ„Øª"},"display_name":"××™×œ×ª, × ×¤×ª ×‘××¨ ×©×‘×¢, ××—×•×– ×”×“×¨×•×, ×™×©×¨××œ","address":{"city":"××™×œ×ª","state_district":"× ×¤×ª ×‘××¨ ×©×‘×¢","state":"××—×•×– ×”×“×¨×•×","ISO3166-2-lvl4":"IL-D","country":"×™×©×¨××œ","country_code":"il"},"population":66618,"osm_type":"relation","osm_id":1377284,"type":"administrative","location":[34.9497949,29.5569348],"bbox":[34.8663724,29.4877892,35.0227975,29.7631027]}]}
{"name":"××™×ª× ×™×","other_names":{"name:en":"Eitanim","name:fr":"Eitanim","name:he":"××™×ª× ×™×"},"display_name":"××™×ª× ×™×, ×©×‘×™×œ ×”××˜×•×¡ - ×¡×•×‘×‘ ××™×ª× ×™×, ××•×¢×¦×” ××–×•×¨×™×ª ××˜×” ×™×”×•×“×”, × ×¤×ª ×™×¨×•×©×œ×™×, ××—×•×– ×™×¨×•×©×œ×™×, ×™×©×¨××œ","address":{"amenity":"××™×ª× ×™×","road":"×©×‘×™×œ ×”××˜×•×¡ - ×¡×•×‘×‘ ××™×ª× ×™×","city":"××•×¢×¦×” ××–×•×¨×™×ª ××˜×” ×™×”×•×“×”","state_district":"× ×¤×ª ×™×¨×•×©×œ×™×","state":"××—×•×– ×™×¨×•×©×œ×™×","ISO3166-2-lvl4":"IL-JM","country":"×™×©×¨××œ","country_code":"il"},"osm_type":"way","osm_id":92342853,"type":"hospital","location":[35.09588093787781,31.77879685],"bbox":[35.0933074,31.7772291,35.0979656,31.7801619]}
{"name":"×‘××¨ ×©×‘×¢","other_names":{"name:af":"Be'er Sheva","name:am":"á‰¤áˆ­áˆ³á‰¤","name:ar":"Ø¨Ø¦Ø± Ø§Ù„Ø³Ø¨Ø¹","name:az":"Beer-Åeva","name:be":"Ğ‘ĞµÑÑ€-Ğ¨ÑĞ²Ğ°","name:bg":"Ğ‘ĞµĞµÑ€ Ğ¨ĞµĞ²Ğ°","name:bn":"à¦¬à§‡-à¦à¦°à¦¶à§‡à¦­à¦¾","name:ca":"Beerxeba","name:cs":"Beer Å eva","name:cy":"Beersheba","name:da":"Beersheba","name:de":"Beerscheba","name:el":"ÎœÏ€ÎµÏ Î£ÎµÎ²Î¬","name:en":"Beersheba","name:eo":"Be'er Åœeba","name:es":"Beerseba","name:et":"Beâ€™Ã©r-Sheva","name:eu":"Beer-Xeva","name:fa":"Ø¨Ø¦Ø±Ø´Ø¨Ø¹","name:fi":"Beer Sheva","name:fr":"Beer-Sheva","name:gl":"BersebÃ¡","name:gv":"Beersheba","name:he":"×‘××¨ ×©×‘×¢","name:hi":"à¤¬à¥€à¤°à¤¶à¥‡à¤¬à¤¾","name:hr":"BerÅ¡eba","name:hu":"BeÃ©r-Seva","name:hy":"Ô²Õ¥Õ¥Ö€ Õ‡Ö‡Õ¡","name:id":"Bersyeba","name:ie":"Beer Sheva","name:it":"Bersabea","name:ja":"ãƒ™ã‚¨ãƒ«ã‚·ã‚§ãƒ","name:jv":"Beersheba","name:ka":"áƒ‘áƒ”áƒ”áƒ -áƒ¨áƒ”áƒ•áƒ","name:ko":"ë² ë¥´ì…°ë°”","name:lb":"Beersheba","name:li":"Be'er Sjeva","name:lt":"Beer Å eva","name:lv":"BeerÅ¡eva","name:mg":"Beersheba","name:mk":"Ğ‘ĞµÑ€ÑˆĞµĞ²Ğ°","name:ml":"à´¬àµ€àµ¼à´·àµ†à´¬","name:mn":"Ğ‘ĞµÑÑ€-Ğ¨ĞµĞ²Ğ°","name:ms":"Bi'r as-Sab","name:nb":"Beer Sheva","name:nl":"BeÃ«r Sjeva","name:nn":"Beer Sheva","name:os":"Ğ‘ĞµÑÑ€-Ğ¨ĞµĞ²Ğ°","name:pl":"Beer Szewa","name:pt":"BersebÃ¡","name:ro":"Beer È˜eva","name:ru":"Ğ‘ĞµÑÑ€-Ğ¨ĞµĞ²Ğ°","name:sc":"Beersheba","name:sk":"Beer Å eva","name:sr":"Ğ‘Ğ¸Ñ€ÑˆĞµĞ±Ğ°","name:sv":"Be'er Sheva","name:sw":"Beersheba","name:ta":"à®ªà¯€à®°à¯à®šà¯‡à®ªà®¾","name:th":"à¹€à¸šà¸µà¸¢à¸£à¹Œà¸Šà¸µà¸šà¸²","name:tl":"Berseba","name:tr":"BirÃ¼ssebi","name:uk":"Ğ‘ĞµĞµÑ€-Ğ¨ĞµĞ²Ğ°","name:ur":"Ø¨Ø¦Ø± Ø³Ø¨Ø¹","name:uz":"Bir as-saba","name:vi":"Beersheba","name:zh":"è´å°”è°¢å·´","alt_name:ar":"Ø¨Ø¦Ø± Ø´Ø¨Ø¹;Ø¨Ø¦ÙŠØ± Ø´ÙŠØ¨Ø¹","alt_name:cs":"BeerÅ¡eva","alt_name:en":"Beer Sheva;Be'er Sheva;Beer Sheba;Beersheva;Bir es-Seba;Beerseba;Beer Seba","alt_name:fr":"BersabÃ©e","alt_name:hr":"Beersheba","alt_name:ml":"à´¬àµ€àµ¼ à´…à´¸àµà´¸à´¬à´¾","alt_name:ru":"Ğ’Ğ¸Ñ€ÑĞ°Ğ²Ğ¸Ñ","name:zh-Hans":"è´å°”è°¢å·´","name:zh-Hant":"è²çˆ¾è¬å·´","official_name:en":"Beer Sheva"},"display_name":"×‘××¨ ×©×‘×¢, × ×¤×ª ×‘××¨ ×©×‘×¢, ××—×•×– ×”×“×¨×•×, ×™×©×¨××œ","address":{"city":"×‘××¨ ×©×‘×¢","state_district":"× ×¤×ª ×‘××¨ ×©×‘×¢","state":"××—×•×– ×”×“×¨×•×","ISO3166-2-lvl4":"IL-D","country":"×™×©×¨××œ","country_code":"il"},"population":209687,"osm_type":"node","osm_id":738723480,"type":"city","location":[34.7925181,31.2457442],"bbox":[34.6325181,31.0857442,34.9525181,31.4057442],"border":[{"name":"×‘××¨-×©×‘×¢","other_names":{"name:ar":"Ø¨Ø¦Ø± Ø§Ù„Ø³Ø¨Ø¹","name:en":"Be'er Sheva","name:he":"×‘××¨-×©×‘×¢","name:ru":"Ğ‘ĞµÑÑ€-Ğ¨ĞµĞ²Ğ°","name:uk":"Ğ‘ĞµĞµÑ€-Ğ¨ĞµĞ²Ğ°","name:ur":"Ø¨Ø¦Ø± Ø³Ø¨Ø¹","int_name":"Beersheba","alt_name:en":"Beer-Sheba"},"display_name":"×‘××¨-×©×‘×¢, × ×¤×ª ×‘××¨ ×©×‘×¢, ××—×•×– ×”×“×¨×•×, ×™×©×¨××œ","address":{"city":"×‘××¨-×©×‘×¢","state_district":"× ×¤×ª ×‘××¨ ×©×‘×¢","state":"××—×•×– ×”×“×¨×•×","ISO3166-2-lvl4":"IL-D","country":"×™×©×¨××œ","country_code":"il"},"population":211065,"osm_type":"way","osm_id":675627797,"type":"city","location":[34.791280348955596,31.25088285],"bbox":[34.7474702,31.2118516,34.8302828,31.2891959]},{"name":"×‘××¨ ×©×‘×¢","other_names":{"name:am":"á‰¤áˆ­áˆ³á‰¤","name:ar":"Ø¨Ø¦Ø± Ø§Ù„Ø³Ø¨Ø¹","name:de":"Beâ€™er Scheva","name:en":"Beâ€™er-Sheva","name:fi":"Beer Sheva","name:fr":"Beer-Sheva","name:he":"×‘××¨ ×©×‘×¢","name:hr":"BerÅ¡eba","name:it":"Bersabea","name:ja":"ãƒ™ã‚¨ãƒ«ã‚·ã‚§ãƒ","name:ko":"ë² ë¥´ì…°ë°”","name:pl":"Beer Szewa","name:ru":"Ğ‘ĞµÑÑ€-Ğ¨ĞµĞ²Ğ°","name:uk":"Ğ‘ĞµÑ”Ñ€-Ğ¨ĞµĞ²Ğ°","alt_name:en":"Beer Sheva","alt_name:ru":"Ğ’Ğ¸Ñ€ÑĞ°Ğ²Ğ¸Ñ","name:af":"Be'er Sheva","name:az":"Beer-Åeva","name:be":"Ğ‘ĞµÑÑ€-Ğ¨ÑĞ²Ğ°","name:bg":"Ğ‘ĞµĞµÑ€ Ğ¨ĞµĞ²Ğ°","name:bn":"à¦¬à§‡-à¦à¦°à¦¶à§‡à¦­à¦¾","name:ca":"Beerxeba","name:cs":"Beer Å eva","name:cy":"Beersheba","name:da":"Beersheba","name:el":"ÎœÏ€ÎµÏ Î£ÎµÎ²Î¬","name:eo":"Be'er Åœeba","name:es":"Beerseba","name:et":"Beâ€™Ã©r-Sheva","name:eu":"Beer-Xeva","name:fa":"Ø¨Ø¦Ø±Ø´Ø¨Ø¹","name:gl":"BersebÃ¡","name:gv":"Beersheba","name:hi":"à¤¬à¥€à¤°à¤¶à¥‡à¤¬à¤¾","name:hu":"BeÃ©r-Seva","name:hy":"Ô²Õ¥Õ¥Ö€ Õ‡Ö‡Õ¡","name:id":"Bersyeba","name:ie":"Beer Sheva","name:jv":"Beersheba","name:ka":"áƒ‘áƒ”áƒ”áƒ -áƒ¨áƒ”áƒ•áƒ","name:lb":"Beersheba","name:li":"Be'er Sjeva","name:lt":"Beer Å eva","name:lv":"BeerÅ¡eva","name:mg":"Beersheba","name:mk":"Ğ‘ĞµÑ€ÑˆĞµĞ²Ğ°","name:ml":"à´¬àµ€àµ¼à´·àµ†à´¬","name:mn":"Ğ‘ĞµÑÑ€-Ğ¨ĞµĞ²Ğ°","name:ms":"Bi'r as-Sab","name:nb":"Beer Sheva","name:nl":"BeÃ«r Sjeva","name:nn":"Beer Sheva","name:os":"Ğ‘ĞµÑÑ€-Ğ¨ĞµĞ²Ğ°","name:pt":"BersebÃ¡","name:ro":"Beer È˜eva","name:sc":"Beersheba","name:sk":"Beer Å eva","name:sr":"Ğ‘Ğ¸Ñ€ÑˆĞµĞ±Ğ°","name:sv":"Be'er Sheva","name:sw":"Beersheba","name:ta":"à®ªà¯€à®°à¯à®šà¯‡à®ªà®¾","name:th":"à¹€à¸šà¸µà¸¢à¸£à¹Œà¸Šà¸µà¸šà¸²","name:tl":"Berseba","name:tr":"BirÃ¼ssebi","name:ur":"Ø¨Ø¦Ø± Ø³Ø¨Ø¹","name:uz":"Bir as-saba","name:vi":"Beersheba","name:zh":"è´å°”è°¢å·´","alt_name:ar":"Ø¨Ø¦Ø± Ø´Ø¨Ø¹;Ø¨Ø¦ÙŠØ± Ø´ÙŠØ¨Ø¹","alt_name:cs":"BeerÅ¡eva","_place_alt_name:en":"Beer Sheva;Be'er Sheva;Beer Sheba;Beersheva;Bir es-Seba;Beerseba;Beer Seba","alt_name:fr":"BersabÃ©e","alt_name:hr":"Beersheba","alt_name:ml":"à´¬àµ€àµ¼ à´…à´¸àµà´¸à´¬à´¾","name:zh-Hans":"è´å°”è°¢å·´","name:zh-Hant":"è²çˆ¾è¬å·´","official_name:en":"Beer Sheva","alt:de":"Beerscheba","alt:en":"Beersheba","alt:uk":"Ğ‘ĞµĞµÑ€-Ğ¨ĞµĞ²Ğ°"},"display_name":"×‘××¨ ×©×‘×¢, × ×¤×ª ×‘××¨ ×©×‘×¢, ××—×•×– ×”×“×¨×•×, ×™×©×¨××œ","address":{"city":"×‘××¨ ×©×‘×¢","state_district":"× ×¤×ª ×‘××¨ ×©×‘×¢","state":"××—×•×– ×”×“×¨×•×","ISO3166-2-lvl4":"IL-D","country":"×™×©×¨××œ","country_code":"il"},"population":220126,"osm_type":"relation","osm_id":1377264,"type":"administrative","location":[34.7925181,31.2457442],"bbox":[34.7339823,31.1926299,34.8548134,31.3234287]}]}
{"name":"×‘×™×ª ×¨×‘×Ÿ - ×’×‘×¢×ª ×•×•×©×™× ×’×˜×•×Ÿ","other_names":{"name:en":"Bet Rabban - Givat Washington","name:fr":"Givat Washington","name:he":"×‘×™×ª ×¨×‘×Ÿ - ×’×‘×¢×ª ×•×•×©×™× ×’×˜×•×Ÿ","alt_name":"×‘×™×ª ×¨×‘×Ÿ;×’×‘×¢×ª ×•×•×©×™× ×’×˜×•×Ÿ","alt_name:en":"Beit Rabban;Beit Raban;Bet Raban;Giv'at Washington"},"display_name":"×‘×™×ª ×¨×‘×Ÿ - ×’×‘×¢×ª ×•×•×©×™× ×’×˜×•×Ÿ, 4000, ××•×¢×¦×” ××–×•×¨×™×ª ×—×‘×œ ×™×‘× ×”, × ×¤×ª ×¨×—×•×‘×•×ª, ××—×•×– ×”××¨×›×–, 6094600, ×™×©×¨××œ","address":{"amenity":"×‘×™×ª ×¨×‘×Ÿ - ×’×‘×¢×ª ×•×•×©×™× ×’×˜×•×Ÿ","road":"4000","city":"××•×¢×¦×” ××–×•×¨×™×ª ×—×‘×œ ×™×‘× ×”","state_district":"× ×¤×ª ×¨×—×•×‘×•×ª","state":"××—×•×– ×”××¨×›×–","ISO3166-2-lvl4":"IL-M","postcode":"6094600","country":"×™×©×¨××œ","country_code":"il"},"osm_type":"node","osm_id":278472965,"type":"education","location":[34.7281236,31.8168499],"bbox":[34.7280736,31.8167999,34.7281736,31.8168999],"border":{"name":"×‘×™×ª ×¨×‘×Ÿ - ×’×‘×¢×ª ×•×•×©×™× ×’×˜×•×Ÿ","other_names":{"name:en":"Bet Rabban - Givat Washington","name:he":"×‘×™×ª ×¨×‘×Ÿ - ×’×‘×¢×ª ×•×•×©×™× ×’×˜×•×Ÿ","alt_name":"×‘×™×ª ×¨×‘×Ÿ;×’×‘×¢×ª ×•×•×©×™× ×’×˜×•×Ÿ","alt_name:en":"Beit Rabban;Beit Raban;Bet Raban;Giv'at Washington"},"display_name":"×‘×™×ª ×¨×‘×Ÿ - ×’×‘×¢×ª ×•×•×©×™× ×’×˜×•×Ÿ, 4000, ××•×¢×¦×” ××–×•×¨×™×ª ×—×‘×œ ×™×‘× ×”, × ×¤×ª ×¨×—×•×‘×•×ª, ××—×•×– ×”××¨×›×–, 6094600, ×™×©×¨××œ","address":{"amenity":"×‘×™×ª ×¨×‘×Ÿ - ×’×‘×¢×ª ×•×•×©×™× ×’×˜×•×Ÿ","road":"4000","city":"××•×¢×¦×” ××–×•×¨×™×ª ×—×‘×œ ×™×‘× ×”","state_district":"× ×¤×ª ×¨×—×•×‘×•×ª","state":"××—×•×– ×”××¨×›×–","ISO3166-2-lvl4":"IL-M","postcode":"6094600","country":"×™×©×¨××œ","country_code":"il"},"osm_type":"way","osm_id":92387387,"type":"education","location":[34.72873126709085,31.8168943],"bbox":[34.7246097,31.8149876,34.7328857,31.8189768]}}
{"name":"×—×™×¤×”","other_names":{"name:ar":"Ø­ÙŠÙØ§","name:el":"Î§Î¬Î¹Ï†Î±","name:en":"Haifa","name:fr":"HaÃ¯fa","name:he":"×—×™×¤×”","name:hi":"à¤¹à¤¾à¤‡à¤«à¤¼à¤¾","name:it":"Haifa","name:ru":"Ğ¥Ğ°Ğ¹Ñ„Ğ°","name:uk":"Ğ¥Ğ°Ğ¹Ñ„Ğ°","name:ur":"Ø­ÛŒÙØ§","name:arc":"ÜšÜÜ¦Ü","name:syc":"ÜšÜÜ¦Ü"},"display_name":"×—×™×¤×”, × ×¤×ª ×—×™×¤×”, ××—×•×– ×—×™×¤×”, ×™×©×¨××œ","address":{"city":"×—×™×¤×”","state_district":"× ×¤×ª ×—×™×¤×”","state":"××—×•×– ×—×™×¤×”","ISO3166-2-lvl4":"IL-HA","country":"×™×©×¨××œ","country_code":"il"},"osm_type":"way","osm_id":368182252,"type":"city","location":[34.989571715728204,32.799313],"bbox":[34.9541296,32.7620143,35.0324925,32.83663]}
{"name":"×™×¨×•×©×œ×™×","other_names":{"name:af":"Jerusalem","name:am":"áŠ¥á‹¨áˆ©áˆ³áˆŒáˆ","name:an":"Cherusalem","name:ar":"Ø§Ù„Ù‚Ø¯Ø³","name:as":"à¦œà§‡à§°à§à¦œà¦¾à¦²à§‡à¦®","name:av":"Ğ‘Ğ°Ğ¹Ñ‚ÑƒĞ» ĞœĞ°ĞºÑŠĞ´Ğ¸Ñ","name:az":"Jerusalem","name:ba":"Ò Ğ¾Ñ‚Ğ´Ğ¾Ñ","name:be":"Ğ†ĞµÑ€ÑƒÑĞ°Ğ»Ñ–Ğ¼","name:bg":"Ğ™ĞµÑ€ÑƒÑĞ°Ğ»Ğ¸Ğ¼","name:bh":"à¤¯à¥‡à¤°à¥à¤¶à¤²à¤®","name:bm":"Jerusalem","name:bn":"à¦œà§‡à¦°à§à¦¸à¦¾à¦²à§‡à¦®","name:bo":"à½‡à½ºà¼‹à½¢à½´à¼‹à½¦à¼‹à½£à½ºà½˜à¼","name:br":"Jeruzalem","name:bs":"Jerusalem","name:ca":"Jerusalem","name:ce":"ĞšÑŠÑƒĞ´Ñ-Ğ“Ó€Ğ°Ğ»Ğ°","name:ch":"Jerusalem","name:co":"Ghjerusaleme","name:cr":"á’‰á•’á…á“´á“¬áŠá’¼","name:cs":"JeruzalÃ©m","name:cu":"Ğ‡Ñ”Ñ€Ğ¾ÑƒÑĞ°Ğ»Ğ¸Ğ¼ÑŠ","name:cv":"Ğ˜ĞµÑ€ÑƒÑĞ°Ğ»Ğ¸Ğ¼","name:cy":"Jeriwsalem","name:da":"Jerusalem","name:de":"Jerusalem","name:dv":"Ş¤ŞªŞ‹ŞªŞŞ°","name:el":"Î™ÎµÏÎ¿Ï…ÏƒÎ±Î»Î®Î¼","name:en":"Jerusalem","name:eo":"Jerusalemo","name:es":"JerusalÃ©n","name:et":"Jeruusalemm","name:eu":"Jerusalem","name:fa":"Ø§ÙˆØ±Ø´Ù„ÛŒÙ…","name:fi":"Jerusalem","name:fj":"Jerusalemi","name:fo":"JerÃºsalem","name:fr":"JÃ©rusalem","name:fy":"Jeruzalim","name:ga":"IarÃºsailÃ©im","name:gd":"Ierusalem","name:gl":"XerusalÃ©n","name:gn":"Herusaláº½","name:gv":"Jerusalem","name:ha":"Jerusalem","name:he":"×™×¨×•×©×œ×™×","name:hi":"à¤¯à¤°à¥à¤¶à¤²à¤®","name:hr":"Jeruzalem","name:ht":"JerizalÃ¨m","name:hu":"JeruzsÃ¡lem","name:hy":"ÔµÖ€Õ¸Ö‚Õ½Õ¡Õ²Õ¥Õ´","name:ia":"Jerusalem","name:id":"Yerusalem","name:ie":"Jerusalem","name:ig":"Jerusalem","name:io":"Ierusalem","name:is":"JerÃºsalem","name:it":"Gerusalemme","name:ja":"ã‚¨ãƒ«ã‚µãƒ¬ãƒ ","name:jv":"YÃ©rusalem","name:ka":"áƒ˜áƒ”áƒ áƒ£áƒ¡áƒáƒšáƒ˜áƒ›áƒ˜","name:ki":"Jerusalem","name:kk":"Ó˜Ğ»-ÒšÒ±Ğ´Ñ‹Ñ","name:km":"á™áŸášá¼áŸá¶á¡á¹á˜","name:kn":"à²œà³†à²°à³à²¸à²²à³†à²‚","name:ko":"ì˜ˆë£¨ì‚´ë ˜","name:ks":"ÛŒØ±ÙˆØ´Ù„Ù…","name:ku":"OrÅŸelÃ®m","name:kv":"Ğ˜ĞµÑ€ÑƒÑĞ°Ğ»Ğ¸Ğ¼","name:kw":"Jerusalem","name:ky":"ĞšÑƒĞ´ÑƒÑ","name:la":"Hierosolyma","name:lb":"Jerusalem","name:li":"Jeruzalem","name:ln":"YerusalÃ©mi","name:lo":"à»€àº¢â€‹àº£àº¹â€‹àºŠàº²â€‹à»€àº¥àº±àº¡","name:lt":"JeruzalÄ—","name:lv":"JeruzÄleme","name:mg":"Jerosalema","name:mi":"Hiruharama","name:mk":"Ğ•Ñ€ÑƒÑĞ°Ğ»Ğ¸Ğ¼","name:ml":"à´¯àµ†à´°àµà´¶à´²àµ‡à´‚","name:mn":"Ğ˜ĞµÑ€ÑƒÑĞ°Ğ»Ğ¸Ğ¼","name:mr":"à¤œà¥‡à¤°à¥à¤¸à¤²à¥‡à¤®","name:ms":"Baitulmuqaddis","name:mt":"Ä erusalemm","name:my":"á€‚á€»á€±á€›á€¯á€†á€œá€„á€ºá€™á€¼á€­á€¯á€·","name:nb":"Jerusalem","name:ne":"à¤œà¥‡à¤°à¥à¤¸à¥‡à¤²à¤®","name:nl":"Jeruzalem","name:nn":"Jerusalem","name:no":"Jerusalem","name:ny":"Jerusalem","name:oc":"JerusalÃ¨m","name:or":"à¬œà­‡à¬°à­à¬¸à¬¾à¬²à­‡à¬®","name:os":"Ğ˜ĞµÑ€ÑƒÑĞ°Ğ»Ğ¸Ğ¼","name:pa":"à¨œà©‡à¨°à©‚à¨¸à¨²à¨®","name:pl":"Jerozolima","name:ps":"Ø¨ÙŠØª Ø§Ù„Ù…Ù‚Ø¯Ø³","name:pt":"JerusalÃ©m","name:qu":"Yerushalayim","name:rm":"Jerusalem","name:rn":"Jerusalem","name:ro":"Ierusalim","name:ru":"Ğ˜ĞµÑ€ÑƒÑĞ°Ğ»Ğ¸Ğ¼","name:rw":"Yerusalemu","name:sc":"Gerusalemme","name:sd":"Ø¨ÙŠØª Ø§Ù„Ù…Ù‚Ø¯Ø³","name:sh":"Jeruzalem","name:sk":"Jeruzalem","name:sl":"Jeruzalem","name:sm":"Ierusalema","name:sn":"Jerusalem","name:so":"Qudus","name:sq":"Jeruzalemi","name:sr":"ĞˆĞµÑ€ÑƒÑĞ°Ğ»Ğ¸Ğ¼","name:su":"Yerusalem","name:sv":"Jerusalem","name:sw":"Yerusalemu","name:ta":"à®¯à¯†à®°à¯‚à®šà®²à®®à¯","name:te":"à°œà±†à°°à±‚à°¸à°²à±‡à°‚","name:tg":"Ğ£Ñ€ÑˆĞ°Ğ»Ğ¸Ğ¼","name:th":"à¹€à¸¢à¸£à¸¹à¸‹à¸²à¹€à¸¥à¸¡","name:tk":"IÃ½erusalim","name:tl":"Herusalem","name:tr":"KudÃ¼s","name:tt":"Ğ˜ĞµÑ€ÑƒÑĞ°Ğ»Ğ¸Ğ¼","name:ug":"ÙŠÛØ±Û‡Ø³Ø§Ù„ÛÙ…","name:uk":"Ğ„Ñ€ÑƒÑĞ°Ğ»Ğ¸Ğ¼","name:ur":"ÛŒØ±ÙˆØ´Ù„Ù…","name:uz":"Quddus","name:vi":"Jerusalem","name:vo":"Hierusalem","name:wa":"Djeruzalem","name:wo":"Jerusalem","name:xh":"IJerusalem","name:yi":"×™×¨×•×©×œ×™×","name:yo":"JerÃºsÃ¡láº¹ÌmÃ¹","name:zh":"è€¶è·¯æ’’å†·","name:zu":"IYerusalem","int_name":"Jerusalem","name:ace":"Yerusalem","name:als":"Jerusalem","name:ang":"Ierusalem","name:arc":"ÜÜ˜ÜªÜ«Ü Ü¡","name:arz":"Ø§Ù„Ù‚Ø¯Ø³","name:ast":"XerusalÃ©n","name:azb":"Ø¨ÛŒØªâ€ŒØ§Ù„Ù…Ù‚Ø¯Ø³","name:bar":"Jerusalem","name:bcl":"Herusalem","name:bjn":"Baitul Maqdis","name:bxr":"Ğ˜ĞµÑ€ÑƒÑĞ°Ğ»Ğ¸Ğ¼","name:cdo":"IÃ -lÃ´-sÃ¡k-lÄ“ng","name:ceb":"Jerusalen","name:chr":"á¥á·áá³á»","name:ckb":"Ø¦Û†Ø±Ø´Û•Ù„ÛŒÙ…","name:crh":"Jerusalem","name:csb":"JerozolÃ«ma","name:diq":"UrÅŸelim","name:dsb":"Jeruzalem","name:dty":"à¤œà¥‡à¤°à¥à¤¶à¤²à¤®","name:ext":"JerusalÃ©n","name:frr":"Jerusalem","name:fur":"Jerusalem","name:gan":"è€¶è·¯æ’’å†·","name:gcr":"JÃ©rusalem","name:got":"ğŒ¹ğŒ°ğŒ¹ğ‚ğŒ¿ğƒğŒ°ğŒ¿ğŒ»ğ…ğŒ¼ğŒ°","name:hak":"YÃ¢-lu-sat-lÃ¢ng","name:he1":"×™Ö°×¨×•Ö¼×©Ö¸××œÖ·×™Ö´×","name:hif":"Jerusalem","name:hsb":"Jeruzalem","name:ilo":"Herusalem","name:inh":"Ğ‘Ğ°Ğ¹Ñ‚ÑƒĞ»Ğ¼Ğ°ĞºÑŠĞ´Ğ¸Ñ","name:jam":"Jiruusalem","name:kaa":"Jerusalem","name:kab":"Orcalim","name:kbp":"JeruzalÉ›m","name:lad":"Yerushalayim","name:lez":"Ğ˜ĞµÑ€ÑƒÑĞ°Ğ»Ğ¸Ğ¼","name:lfn":"Ieruxalim","name:lij":"Gerusalemme","name:lld":"Ierusalem","name:lmo":"GerÃ¼salem","name:mai":"à¤œà¥‡à¤°à¥à¤¸à¥‡à¤²à¤®","name:mdf":"Ğ•Ñ€ÑƒÑĞ°Ğ»Ğ¸Ğ¼","name:mhr":"Ğ˜ĞµÑ€ÑƒÑĞ°Ğ»Ğ¸Ğ¼","name:mwl":"Jarusalen","name:myv":"Ğ˜ĞµÑ€ÑƒÑĞ°Ğ»Ğ¸Ğ¼","name:mzn":"Ù‚Ø¯Ø³","name:nah":"Ierusalem","name:nan":"IÃ¢-lÅÍ˜-sat-lÃ©ng","name:nap":"Gierusalemme","name:nds":"Jerusalem","name:nov":"Jerusalem","name:nrm":"JÃ©rusalem","name:olo":"Jerusalimu","name:pap":"Herusalem","name:pih":"Jeruusalem","name:pms":"Gerusalem","name:pnb":"ÛŒØ±ÙˆØ´Ù„Ù…","name:pnt":"Î™ÎµÏÎ¿Ï…ÏƒÎ±Î»Î®Î¼","name:rmy":"Jerusalem","name:rue":"Ğ„Ñ€ÑƒÑĞ°Ğ»Ğ¸Ğ¼","name:sah":"Ğ˜ĞµÑ€ÑƒÑĞ°Ğ»Ğ¸Ğ¼","name:sat":"á±¡á±®á±¨á±©á±¥á±Ÿá±á±¤á±¢","name:scn":"Girusalemmi","name:sco":"Jerusalem","name:smn":"Jerusalem","name:srn":"Jerusalem","name:stq":"Jerusalem","name:szl":"Jerozolima","name:tpi":"Yerusalem","name:tum":"Jerusalem","name:udm":"Ğ˜ĞµÑ€ÑƒÑĞ°Ğ»Ğ¸Ğ¼","name:vec":"Hierusalem","name:vep":"Jerusalim","name:vro":"Jeruusalemm","name:war":"Jerusalem","name:wuu":"è€¶è·¯æ’’å†·","name:xmf":"áƒ˜áƒ”áƒ áƒ£áƒ¡áƒáƒšáƒ˜áƒ›áƒ˜","name:yue":"è€¶è·¯æ’’å†·","name:zea":"Jeruzalem","alt_name:ar":"Ø£ÙˆØ±Ø´Ù„ÙŠÙ…","alt_name:fa":"Ø¨ÛŒØª Ø§Ù„Ù…Ù‚Ø¯Ø³","alt_name:is":"JÃ³rsalir;JÃ³rsalaborg","alt_name:ku":"Quds","alt_name:ml":"à´…àµ½-à´–àµà´¦àµà´¸àµ;à´Šàµ¼à´¶àµà´²àµ‡à´‚","alt_name:ur":"Ø¨ÛŒØª Ø§Ù„Ù…Ù‚Ø¯Ø³;Ø§Ù„Ù‚Ø¯Ø³","alt_name:vi":"GiÃªrusalem","name:bat-smg":"JerozalÄ—","name:zh-Hant":"è€¶è·¯æ’’å†·","name:roa-tara":"Gerusalemme","name:be-tarask":"Ğ•Ñ€ÑƒÑĞ°Ğ»Ñ–Ğ¼"},"display_name":"×™×¨×•×©×œ×™×, ×™×¨×•×©×œ×™× | Ø§Ù„Ù‚Ø¯Ø³, × ×¤×ª ×™×¨×•×©×œ×™×, ××—×•×– ×™×¨×•×©×œ×™×, ×™×©×¨××œ","address":{"city":"×™×¨×•×©×œ×™×","state_district":"× ×¤×ª ×™×¨×•×©×œ×™×","state":"××—×•×– ×™×¨×•×©×œ×™×","ISO3166-2-lvl4":"IL-JM","country":"×™×©×¨××œ","country_code":"il"},"population":780200,"osm_type":"node","osm_id":29090735,"type":"city","location":[35.2257856,31.7788472],"bbox":[35.0657856,31.6188472,35.3857856,31.9388472],"border":[{"name":"×™×¨×•×©×œ×™× | Ø§Ù„Ù‚Ø¯Ø³","other_names":{"name:ar":"Ø§Ù„Ù‚Ø¯Ø³","name:cs":"JeruzalÃ©m","name:de":"Jerusalem","name:el":"Î™ÎµÏÎ¿Ï…ÏƒÎ±Î»Î®Î¼","name:en":"Jerusalem","name:fa":"Ø§ÙˆØ±Ø´Ù„ÛŒÙ…","name:fi":"Jerusalem","name:fr":"JÃ©rusalem","name:fy":"Jeruzalim","name:he":"×™×¨×•×©×œ×™×","name:hr":"Jeruzalem","name:hu":"JeruzsÃ¡lem","name:it":"Gerusalemme","name:ko":"ì˜ˆë£¨ì‚´ë ˜","name:mi":"HiruhÄrama","name:nl":"Jeruzalem","name:ro":"Ierusalim","name:ru":"Ğ˜ĞµÑ€ÑƒÑĞ°Ğ»Ğ¸Ğ¼","name:sk":"Jeruzalem","name:tr":"KudÃ¼s","name:uk":"Ğ„Ñ€ÑƒÑĞ°Ğ»Ğ¸Ğ¼","name:ur":"ÛŒØ±ÙˆØ´Ù„Ù…","int_name":"Jerusalem","name:chr":"á¥á·áá³á»","name:ckb":"Ù‚ÙˆØ¯Ø³","name:szl":"Jeruzalym","name:tzl":"Ierusalem","alt_name:ur":"Ø¨ÛŒØª Ø§Ù„Ù…Ù‚Ø¯Ø³","official_name":"Ø§Ù„Ù‚Ø¯Ø³","short_name:ur":"Ø§Ù„Ù‚Ø¯Ø³","name:af":"Jerusalem","name:am":"áŠ¥á‹¨áˆ©áˆ³áˆŒáˆ","name:an":"Cherusalem","name:as":"à¦œà§‡à§°à§à¦œà¦¾à¦²à§‡à¦®","name:av":"Ğ‘Ğ°Ğ¹Ñ‚ÑƒĞ» ĞœĞ°ĞºÑŠĞ´Ğ¸Ñ","name:az":"Jerusalem","name:ba":"Ò Ğ¾Ñ‚Ğ´Ğ¾Ñ","name:be":"Ğ†ĞµÑ€ÑƒÑĞ°Ğ»Ñ–Ğ¼","name:bg":"Ğ™ĞµÑ€ÑƒÑĞ°Ğ»Ğ¸Ğ¼","name:bh":"à¤¯à¥‡à¤°à¥à¤¶à¤²à¤®","name:bm":"Jerusalem","name:bn":"à¦œà§‡à¦°à§à¦¸à¦¾à¦²à§‡à¦®","name:bo":"à½‡à½ºà¼‹à½¢à½´à¼‹à½¦à¼‹à½£à½ºà½˜à¼","name:br":"Jeruzalem","name:bs":"Jerusalem","name:ca":"Jerusalem","name:ce":"ĞšÑŠÑƒĞ´Ñ-Ğ“Ó€Ğ°Ğ»Ğ°","name:ch":"Jerusalem","name:co":"Ghjerusaleme","name:cr":"á’‰á•’á…á“´á“¬áŠá’¼","name:cu":"Ğ‡Ñ”Ñ€Ğ¾ÑƒÑĞ°Ğ»Ğ¸Ğ¼ÑŠ","name:cv":"Ğ˜ĞµÑ€ÑƒÑĞ°Ğ»Ğ¸Ğ¼","name:cy":"Jeriwsalem","name:da":"Jerusalem","name:dv":"Ş¤ŞªŞ‹ŞªŞŞ°","name:eo":"Jerusalemo","name:es":"JerusalÃ©n","name:et":"Jeruusalemm","name:eu":"Jerusalem","name:fj":"Jerusalemi","name:fo":"JerÃºsalem","name:ga":"IarÃºsailÃ©im","name:gd":"Ierusalem","name:gl":"XerusalÃ©n","name:gn":"Herusaláº½","name:gv":"Jerusalem","name:ha":"Jerusalem","name:hi":"à¤¯à¤°à¥à¤¶à¤²à¤®","name:ht":"JerizalÃ¨m","name:hy":"ÔµÖ€Õ¸Ö‚Õ½Õ¡Õ²Õ¥Õ´","name:ia":"Jerusalem","name:id":"Yerusalem","name:ie":"Jerusalem","name:ig":"Jerusalem","name:io":"Ierusalem","name:is":"JerÃºsalem","name:ja":"ã‚¨ãƒ«ã‚µãƒ¬ãƒ ","name:jv":"YÃ©rusalem","name:ka":"áƒ˜áƒ”áƒ áƒ£áƒ¡áƒáƒšáƒ˜áƒ›áƒ˜","name:ki":"Jerusalem","name:kk":"Ó˜Ğ»-ÒšÒ±Ğ´Ñ‹Ñ","name:km":"á™áŸášá¼áŸá¶á¡á¹á˜","name:kn":"à²œà³†à²°à³à²¸à²²à³†à²‚","name:ks":"ÛŒØ±ÙˆØ´Ù„Ù…","name:ku":"OrÅŸelÃ®m","name:kv":"Ğ˜ĞµÑ€ÑƒÑĞ°Ğ»Ğ¸Ğ¼","name:kw":"Jerusalem","name:ky":"ĞšÑƒĞ´ÑƒÑ","name:la":"Hierosolyma","name:lb":"Jerusalem","name:li":"Jeruzalem","name:ln":"YerusalÃ©mi","name:lo":"à»€àº¢â€‹àº£àº¹â€‹àºŠàº²â€‹à»€àº¥àº±àº¡","name:lt":"JeruzalÄ—","name:lv":"JeruzÄleme","name:mg":"Jerosalema","name:mk":"Ğ•Ñ€ÑƒÑĞ°Ğ»Ğ¸Ğ¼","name:ml":"à´¯àµ†à´°àµà´¶à´²àµ‡à´‚","name:mn":"Ğ˜ĞµÑ€ÑƒÑĞ°Ğ»Ğ¸Ğ¼","name:mr":"à¤œà¥‡à¤°à¥à¤¸à¤²à¥‡à¤®","name:ms":"Baitulmuqaddis","name:mt":"Ä erusalemm","name:my":"á€‚á€»á€±á€›á€¯á€†á€œá€„á€ºá€™á€¼á€­á€¯á€·","name:nb":"Jerusalem","name:ne":"à¤œà¥‡à¤°à¥à¤¸à¥‡à¤²à¤®","name:nn":"Jerusalem","name:no":"Jerusalem","name:ny":"Jerusalem","name:oc":"JerusalÃ¨m","name:or":"à¬œà­‡à¬°à­à¬¸à¬¾à¬²à­‡à¬®","name:os":"Ğ˜ĞµÑ€ÑƒÑĞ°Ğ»Ğ¸Ğ¼","name:pa":"à¨œà©‡à¨°à©‚à¨¸à¨²à¨®","name:pl":"Jerozolima","name:ps":"Ø¨ÙŠØª Ø§Ù„Ù…Ù‚Ø¯Ø³","name:pt":"JerusalÃ©m","name:qu":"Yerushalayim","name:rm":"Jerusalem","name:rn":"Jerusalem","name:rw":"Yerusalemu","name:sc":"Gerusalemme","name:sd":"Ø¨ÙŠØª Ø§Ù„Ù…Ù‚Ø¯Ø³","name:sh":"Jeruzalem","name:sl":"Jeruzalem","name:sm":"Ierusalema","name:sn":"Jerusalem","name:so":"Qudus","name:sq":"Jeruzalemi","name:sr":"ĞˆĞµÑ€ÑƒÑĞ°Ğ»Ğ¸Ğ¼","name:su":"Yerusalem","name:sv":"Jerusalem","name:sw":"Yerusalemu","name:ta":"à®¯à¯†à®°à¯‚à®šà®²à®®à¯","name:te":"à°œà±†à°°à±‚à°¸à°²à±‡à°‚","name:tg":"Ğ£Ñ€ÑˆĞ°Ğ»Ğ¸Ğ¼","name:th":"à¹€à¸¢à¸£à¸¹à¸‹à¸²à¹€à¸¥à¸¡","name:tk":"IÃ½erusalim","name:tl":"Herusalem","name:tt":"Ğ˜ĞµÑ€ÑƒÑĞ°Ğ»Ğ¸Ğ¼","name:ug":"ÙŠÛØ±Û‡Ø³Ø§Ù„ÛÙ…","name:uz":"Quddus","name:vi":"Jerusalem","name:vo":"Hierusalem","name:wa":"Djeruzalem","name:wo":"Jerusalem","name:xh":"IJerusalem","name:yi":"×™×¨×•×©×œ×™×","name:yo":"JerÃºsÃ¡láº¹ÌmÃ¹","name:zh":"è€¶è·¯æ’’å†·","name:zu":"IYerusalem","name:ace":"Yerusalem","name:als":"Jerusalem","name:ang":"Ierusalem","name:arc":"ÜÜ˜ÜªÜ«Ü Ü¡","name:arz":"Ø§Ù„Ù‚Ø¯Ø³","name:ast":"XerusalÃ©n","name:azb":"Ø¨ÛŒØªâ€ŒØ§Ù„Ù…Ù‚Ø¯Ø³","name:bar":"Jerusalem","name:bcl":"Herusalem","name:bjn":"Baitul Maqdis","name:bxr":"Ğ˜ĞµÑ€ÑƒÑĞ°Ğ»Ğ¸Ğ¼","name:cdo":"IÃ -lÃ´-sÃ¡k-lÄ“ng","name:ceb":"Jerusalen","name:crh":"Jerusalem","name:csb":"JerozolÃ«ma","name:diq":"UrÅŸelim","name:dsb":"Jeruzalem","name:dty":"à¤œà¥‡à¤°à¥à¤¶à¤²à¤®","name:ext":"JerusalÃ©n","name:frr":"Jerusalem","name:fur":"Jerusalem","name:gan":"è€¶è·¯æ’’å†·","name:gcr":"JÃ©rusalem","name:got":"ğŒ¹ğŒ°ğŒ¹ğ‚ğŒ¿ğƒğŒ°ğŒ¿ğŒ»ğ…ğŒ¼ğŒ°","name:hak":"YÃ¢-lu-sat-lÃ¢ng","name:he1":"×™Ö°×¨×•Ö¼×©Ö¸××œÖ·×™Ö´×","name:hif":"Jerusalem","name:hsb":"Jeruzalem","name:ilo":"Herusalem","name:inh":"Ğ‘Ğ°Ğ¹Ñ‚ÑƒĞ»Ğ¼Ğ°ĞºÑŠĞ´Ğ¸Ñ","name:jam":"Jiruusalem","name:kaa":"Jerusalem","name:kab":"Orcalim","name:kbp":"JeruzalÉ›m","name:lad":"Yerushalayim","name:lez":"Ğ˜ĞµÑ€ÑƒÑĞ°Ğ»Ğ¸Ğ¼","name:lfn":"Ieruxalim","name:lij":"Gerusalemme","name:lld":"Ierusalem","name:lmo":"GerÃ¼salem","name:mai":"à¤œà¥‡à¤°à¥à¤¸à¥‡à¤²à¤®","name:mdf":"Ğ•Ñ€ÑƒÑĞ°Ğ»Ğ¸Ğ¼","name:mhr":"Ğ˜ĞµÑ€ÑƒÑĞ°Ğ»Ğ¸Ğ¼","name:mwl":"Jarusalen","name:myv":"Ğ˜ĞµÑ€ÑƒÑĞ°Ğ»Ğ¸Ğ¼","name:mzn":"Ù‚Ø¯Ø³","name:nah":"Ierusalem","name:nan":"IÃ¢-lÅÍ˜-sat-lÃ©ng","name:nap":"Gierusalemme","name:nds":"Jerusalem","name:nov":"Jerusalem","name:nrm":"JÃ©rusalem","name:olo":"Jerusalimu","name:pap":"Herusalem","name:pih":"Jeruusalem","name:pms":"Gerusalem","name:pnb":"ÛŒØ±ÙˆØ´Ù„Ù…","name:pnt":"Î™ÎµÏÎ¿Ï…ÏƒÎ±Î»Î®Î¼","name:rmy":"Jerusalem","name:rue":"Ğ„Ñ€ÑƒÑĞ°Ğ»Ğ¸Ğ¼","name:sah":"Ğ˜ĞµÑ€ÑƒÑĞ°Ğ»Ğ¸Ğ¼","name:sat":"á±¡á±®á±¨á±©á±¥á±Ÿá±á±¤á±¢","name:scn":"Girusalemmi","name:sco":"Jerusalem","name:smn":"Jerusalem","name:srn":"Jerusalem","name:stq":"Jerusalem","name:tpi":"Yerusalem","name:tum":"Jerusalem","name:udm":"Ğ˜ĞµÑ€ÑƒÑĞ°Ğ»Ğ¸Ğ¼","name:vec":"Hierusalem","name:vep":"Jerusalim","name:vro":"Jeruusalemm","name:war":"Jerusalem","name:wuu":"è€¶è·¯æ’’å†·","name:xmf":"áƒ˜áƒ”áƒ áƒ£áƒ¡áƒáƒšáƒ˜áƒ›áƒ˜","name:yue":"è€¶è·¯æ’’å†·","name:zea":"Jeruzalem","alt_name:ar":"Ø£ÙˆØ±Ø´Ù„ÙŠÙ…","alt_name:fa":"Ø¨ÛŒØª Ø§Ù„Ù…Ù‚Ø¯Ø³","alt_name:is":"JÃ³rsalir;JÃ³rsalaborg","alt_name:ku":"Quds","alt_name:ml":"à´…àµ½-à´–àµà´¦àµà´¸àµ;à´Šàµ¼à´¶àµà´²àµ‡à´‚","_place_alt_name:ur":"Ø¨ÛŒØª Ø§Ù„Ù…Ù‚Ø¯Ø³;Ø§Ù„Ù‚Ø¯Ø³","alt_name:vi":"GiÃªrusalem","name:bat-smg":"JerozalÄ—","name:zh-Hant":"è€¶è·¯æ’’å†·","name:roa-tara":"Gerusalemme","name:be-tarask":"Ğ•Ñ€ÑƒÑĞ°Ğ»Ñ–Ğ¼","alt":"×™×¨×•×©×œ×™×","alt:mi":"Hiruharama","alt:ckb":"Ø¦Û†Ø±Ø´Û•Ù„ÛŒÙ…","alt:szl":"Jerozolima"},"display_name":"×™×¨×•×©×œ×™× | Ø§Ù„Ù‚Ø¯Ø³, × ×¤×ª ×™×¨×•×©×œ×™×, ××—×•×– ×™×¨×•×©×œ×™×, ×™×©×¨××œ","address":{"city":"×™×¨×•×©×œ×™× | Ø§Ù„Ù‚Ø¯Ø³","state_district":"× ×¤×ª ×™×¨×•×©×œ×™×","state":"××—×•×– ×™×¨×•×©×œ×™×","ISO3166-2-lvl4":"IL-JM","country":"×™×©×¨××œ","country_code":"il"},"population":882652,"osm_type":"relation","osm_id":1381350,"type":"administrative","location":[35.2257856,31.7788472],"bbox":[35.0852011,31.7096214,35.2650458,31.8826655]},{"name":"×™×¨×•×©×œ×™×","other_names":{"name:ar":"Ø¨ÙŠØª Ø§Ù„Ù…Ù‚Ø¯Ø³","name:de":"Jerusalem","name:en":"Jerusalem","name:es":"JerusalÃ©n","name:fa":"Ø§ÙˆØ±Ø´Ù„ÛŒÙ…","name:fi":"Jerusalem","name:fr":"JÃ©rusalem","name:he":"×™×¨×•×©×œ×™×","name:hi":"à¤¯à¤°à¥à¤¶à¤²à¤®","name:hu":"JeruzsÃ¡lem","name:it":"Gerusalemme","name:la":"Hyerosolyma","name:ml":"à´¯àµ†à´±àµà´¶à´²àµ‡à´‚","name:ru":"Ğ˜ĞµÑ€ÑƒÑĞ°Ğ»Ğ¸Ğ¼","name:ta":"à®à®°à¯à®šà®²à¯‡à®®à¯","name:uk":"Ğ„Ñ€ÑƒÑĞ°Ğ»Ğ¸Ğ¼","name:ur":"ÛŒØ±ÙˆØ´Ù„Ù…","name:vi":"GiÃªrusalem","name:chr":"á¥á·áá³á»","name:szl":"Jeruzalym","alt_name:ur":"Ø§Ù„Ù‚Ø¯Ø³"},"display_name":"×™×¨×•×©×œ×™×, ×™×¨×•×©×œ×™× | Ø§Ù„Ù‚Ø¯Ø³, × ×¤×ª ×™×¨×•×©×œ×™×, ××—×•×– ×™×¨×•×©×œ×™×, ×™×©×¨××œ","address":{"city":"×™×¨×•×©×œ×™×","state_district":"× ×¤×ª ×™×¨×•×©×œ×™×","state":"××—×•×– ×™×¨×•×©×œ×™×","ISO3166-2-lvl4":"IL-JM","country":"×™×©×¨××œ","country_code":"il"},"population":882652,"osm_type":"relation","osm_id":6502363,"type":"administrative","location":[35.21877122095394,31.788454299999998],"bbox":[35.1523819,31.7170441,35.261221,31.8597262]}]}
{"name":"××’×“×œ ×ª×¤×Ÿ","other_names":{"name:en":"Migdal Tefen","name:fr":"The Tefen Tower","name:he":"××’×“×œ ×ª×¤×Ÿ"},"display_name":"××’×“×œ ×ª×¤×Ÿ, × ×¤×ª ×¢×›×•, ××—×•×– ×”×¦×¤×•×Ÿ, ×™×©×¨××œ","address":{"city":"××’×“×œ ×ª×¤×Ÿ","state_district":"× ×¤×ª ×¢×›×•","state":"××—×•×– ×”×¦×¤×•×Ÿ","ISO3166-2-lvl4":"IL-Z","country":"×™×©×¨××œ","country_code":"il"},"osm_type":"relation","osm_id":1406228,"type":"administrative","location":[35.27708756590682,32.97539155],"bbox":[35.262535,32.9680367,35.2885519,32.9821907],"inferred_type":"city"}
{"name":"××•×¢×¦×” ××–×•×¨×™×ª ××©×›×•×œ","other_names":{"name:ar":"Ù…Ø¬Ù„Ø³ Ø¥Ù‚Ù„ÙŠÙ…ÙŠ Ø¥Ø´ÙƒÙˆÙ„","name:en":"Eshkol Regional Council","name:fr":"conseil rÃ©gional d'Eshkol","name:he":"××•×¢×¦×” ××–×•×¨×™×ª ××©×›×•×œ"},"display_name":"××•×¢×¦×” ××–×•×¨×™×ª ××©×›×•×œ, × ×¤×ª ×‘××¨ ×©×‘×¢, ××—×•×– ×”×“×¨×•×, ×™×©×¨××œ","address":{"city":"××•×¢×¦×” ××–×•×¨×™×ª ××©×›×•×œ","state_district":"× ×¤×ª ×‘××¨ ×©×‘×¢","state":"××—×•×– ×”×“×¨×•×","ISO3166-2-lvl4":"IL-D","country":"×™×©×¨××œ","country_code":"il"},"osm_type":"relation","osm_id":1473950,"type":"administrative","location":[34.40944531554104,31.2542528],"bbox":[34.2674994,31.0593937,34.6241391,31.4490174],"inferred_type":"city"}
{"name":"××•×¢×¦×” ××–×•×¨×™×ª ×‘××¨ ×˜×•×‘×™×”","other_names":{"name:en":"Beer Tuvia Regional Council","name:fr":"Be'er Tuvia","name:he":"××•×¢×¦×” ××–×•×¨×™×ª ×‘××¨ ×˜×•×‘×™×”"},"display_name":"××•×¢×¦×” ××–×•×¨×™×ª ×‘××¨ ×˜×•×‘×™×”, × ×¤×ª ××©×§×œ×•×Ÿ, ××—×•×– ×”×“×¨×•×, 6094600, ×™×©×¨××œ","address":{"city":"××•×¢×¦×” ××–×•×¨×™×ª ×‘××¨ ×˜×•×‘×™×”","state_district":"× ×¤×ª ××©×§×œ×•×Ÿ","state":"××—×•×– ×”×“×¨×•×","ISO3166-2-lvl4":"IL-D","postcode":"6094600","country":"×™×©×¨××œ","country_code":"il"},"osm_type":"relation","osm_id":1380003,"type":"administrative","location":[34.69277544014399,31.73819665],"bbox":[34.6025479,31.6608233,34.798888,31.8153631],"inferred_type":"city"}
{"name":"××•×¢×¦×” ××–×•×¨×™×ª ×‘× ×™ ×©××¢×•×Ÿ","other_names":{"name:ar":"Ù…Ø¬Ù„Ø³ Ø§Ù‚Ù„ÙŠÙ…ÙŠ Ø¨Ù†ÙŠ Ø´Ù…Ø¹ÙˆÙ†","name:en":"Bnei Shimon Regional Council","name:fr":"Bney Shimon Regional Council","name:he":"××•×¢×¦×” ××–×•×¨×™×ª ×‘× ×™ ×©××¢×•×Ÿ","short_name:ar":"Ø¨Ù†ÙŠ Ø´Ù…Ø¹ÙˆÙ†"},"display_name":"××•×¢×¦×” ××–×•×¨×™×ª ×‘× ×™ ×©××¢×•×Ÿ, × ×¤×ª ×‘××¨ ×©×‘×¢, ××—×•×– ×”×“×¨×•×, ×™×©×¨××œ","address":{"city":"××•×¢×¦×” ××–×•×¨×™×ª ×‘× ×™ ×©××¢×•×Ÿ","state_district":"× ×¤×ª ×‘××¨ ×©×‘×¢","state":"××—×•×– ×”×“×¨×•×","ISO3166-2-lvl4":"IL-D","country":"×™×©×¨××œ","country_code":"il"},"osm_type":"relation","osm_id":1376824,"type":"administrative","location":[34.77695525494098,31.33069255],"bbox":[34.6158144,31.1783045,34.9329895,31.4830935],"inferred_type":"city"}
{"name":"××•×¢×¦×” ××–×•×¨×™×ª ×‘×¨× ×¨","other_names":{"name:ar":"Ø§Ù„Ù…Ø¬Ù„Ø³ Ø§Ù„Ø¥Ù‚Ù„ÙŠÙ…ÙŠ Ø¨Ø±Ù†Ø±","name:en":"Brener Regional Council","name:es":"Consejo Regional de Brener","name:fr":"Conseil rÃ©gional de Brenner","name:he":"××•×¢×¦×” ××–×•×¨×™×ª ×‘×¨× ×¨"},"display_name":"××•×¢×¦×” ××–×•×¨×™×ª ×‘×¨× ×¨, × ×¤×ª ×¨×—×•×‘×•×ª, ××—×•×– ×”××¨×›×–, ×™×©×¨××œ","address":{"city":"××•×¢×¦×” ××–×•×¨×™×ª ×‘×¨× ×¨","state_district":"× ×¤×ª ×¨×—×•×‘×•×ª","state":"××—×•×– ×”××¨×›×–","ISO3166-2-lvl4":"IL-M","country":"×™×©×¨××œ","country_code":"il"},"osm_type":"relation","osm_id":1380426,"type":"administrative","location":[34.780908051082406,31.8426154],"bbox":[34.7349137,31.8007064,34.8306245,31.8916413],"inferred_type":"city"}
{"name":"××•×¢×¦×” ××–×•×¨×™×ª ×’×“×¨×•×ª","other_names":{"name:en":"Gderot Regional Council","name:fr":"Conseil rÃ©gional de Guederot","name:he":"××•×¢×¦×” ××–×•×¨×™×ª ×’×“×¨×•×ª"},"display_name":"××•×¢×¦×” ××–×•×¨×™×ª ×’×“×¨×•×ª, × ×¤×ª ×¨×—×•×‘×•×ª, ××—×•×– ×”××¨×›×–, ×™×©×¨××œ","address":{"city":"××•×¢×¦×” ××–×•×¨×™×ª ×’×“×¨×•×ª","state_district":"× ×¤×ª ×¨×—×•×‘×•×ª","state":"××—×•×– ×”××¨×›×–","ISO3166-2-lvl4":"IL-M","country":"×™×©×¨××œ","country_code":"il"},"osm_type":"relation","osm_id":1380012,"type":"administrative","location":[34.742949236695154,31.8242821],"bbox":[34.6905768,31.7978602,34.7665461,31.842501],"inferred_type":"city"}
{"name":"××•×¢×¦×” ××–×•×¨×™×ª ×’×•×œ×Ÿ","other_names":{"name:ar":"Ù…Ø¬Ù„Ø³ Ø§Ù„Ø¬ÙˆÙ„Ø§Ù† Ø§Ù„Ø¥Ù‚Ù„ÙŠÙ…ÙŠâ€â€","name:en":"Golan Regional Council","name:fr":"Golan","name:he":"××•×¢×¦×” ××–×•×¨×™×ª ×’×•×œ×Ÿ"},"display_name":"××•×¢×¦×” ××–×•×¨×™×ª ×’×•×œ×Ÿ, × ×¤×ª ×¨××ª ×”×’×•×œ×Ÿ, ××—×•×– ×”×¦×¤×•×Ÿ, ×™×©×¨××œ","address":{"city":"××•×¢×¦×” ××–×•×¨×™×ª ×’×•×œ×Ÿ","state_district":"× ×¤×ª ×¨××ª ×”×’×•×œ×Ÿ","state":"××—×•×– ×”×¦×¤×•×Ÿ","ISO3166-2-lvl4":"IL-Z","country":"×™×©×¨××œ","country_code":"il"},"population":16500,"osm_type":"relation","osm_id":1379176,"type":"administrative","location":[35.7495319652645,33.0105642],"bbox":[35.6133177,32.6821334,35.8950234,33.3356317],"inferred_type":"city"}
{"name":"××•×¢×¦×” ××–×•×¨×™×ª ×’×œ×‘×•×¢","other_names":{"name:ar":"Ù…Ø¬Ù„Ø³ Ø¥Ù‚Ù„ÙŠÙ…ÙŠ Ø¬Ù„Ø¨ÙˆØ§Ø¹","name:en":"Gilboa Regional Council","name:fr":"Conseil rÃ©gional de Guilboa","name:he":"××•×¢×¦×” ××–×•×¨×™×ª ×’×œ×‘×•×¢","name:ar1":"Ø§Ù„Ù…Ø¬Ù„Ø³ Ø§Ù„Ø¥Ù‚Ù„ÙŠÙ…ÙŠ Ø¬Ù„Ø¨ÙˆØ§Ø¹","short_name:ar":"Ø¬Ù„Ø¨ÙˆØ§Ø¹"},"display_name":"××•×¢×¦×” ××–×•×¨×™×ª ×’×œ×‘×•×¢, × ×¤×ª ×™×–×¨×¢××œ, ××—×•×– ×”×¦×¤×•×Ÿ, ×™×©×¨××œ","address":{"city":"××•×¢×¦×” ××–×•×¨×™×ª ×’×œ×‘×•×¢","state_district":"× ×¤×ª ×™×–×¨×¢××œ","state":"××—×•×– ×”×¦×¤×•×Ÿ","ISO3166-2-lvl4":"IL-Z","country":"×™×©×¨××œ","country_code":"il"},"osm_type":"relation","osm_id":1380232,"type":"administrative","location":[35.414575617165866,32.56847295],"bbox":[35.2257282,32.4903707,35.5293438,32.6465852],"inferred_type":"city"}
{"name":"××•×¢×¦×” ××–×•×¨×™×ª ×’×œ×™×œ ×¢×œ×™×•×Ÿ","other_names":{"name:ar":"Ù…Ø¬Ù„Ø³ Ø¥Ù‚Ù„ÙŠÙ…ÙŠ Ø§Ù„Ø¬Ù„ÙŠÙ„ Ø§Ù„Ø£Ø¹Ù„Ù‰","name:en":"Galil Elyon Regional Council","name:fr":"Haute GalilÃ©e","name:he":"××•×¢×¦×” ××–×•×¨×™×ª ×’×œ×™×œ ×¢×œ×™×•×Ÿ","name:ar1":"Ø§Ù„Ù…Ø¬Ù„Ø³ Ø§Ù„Ø¥Ù‚Ù„ÙŠÙ…ÙŠ Ø§Ù„Ø¬Ù„ÙŠÙ„ Ø§Ù„Ø£Ø¹Ù„Ù‰","short_name:ar":"Ø§Ù„Ø¬Ù„ÙŠÙ„ Ø§Ù„Ø£Ø¹Ù„Ù‰"},"display_name":"××•×¢×¦×” ××–×•×¨×™×ª ×’×œ×™×œ ×¢×œ×™×•×Ÿ, × ×¤×ª ×¦×¤×ª, ××—×•×– ×”×¦×¤×•×Ÿ, ×™×©×¨××œ","address":{"city":"××•×¢×¦×” ××–×•×¨×™×ª ×’×œ×™×œ ×¢×œ×™×•×Ÿ","state_district":"× ×¤×ª ×¦×¤×ª","state":"××—×•×– ×”×¦×¤×•×Ÿ","ISO3166-2-lvl4":"IL-Z","country":"×™×©×¨××œ","country_code":"il"},"population":17400,"osm_type":"relation","osm_id":1378948,"type":"administrative","location":[35.612423849771645,33.1250255],"bbox":[35.3645705,32.8891188,35.684354,33.2617312],"inferred_type":"city"}
{"name":"××•×¢×¦×” ××–×•×¨×™×ª ×’×œ×™×œ ×ª×—×ª×•×Ÿ","other_names":{"name:ar":"Ù…Ø¬Ù„Ø³ Ø¥Ù‚Ù„ÙŠÙ…ÙŠ Ø¬Ù„ÙŠÙ„ ØªØ­ØªÙˆÙ†","name:en":"Galil Tachton Regional Council","name:fr":"Basse GalilÃ©e","name:he":"××•×¢×¦×” ××–×•×¨×™×ª ×’×œ×™×œ ×ª×—×ª×•×Ÿ","name:ar1":"Ø§Ù„Ù…Ø¬Ù„Ø³ Ø§Ù„Ø¥Ù‚Ù„ÙŠÙ…ÙŠ Ø¬Ù„ÙŠÙ„ ØªØ­ØªÙˆÙ†","short_name:ar":"Ø¬Ù„ÙŠÙ„ ØªØ­ØªÙˆÙ†"},"display_name":"××•×¢×¦×” ××–×•×¨×™×ª ×’×œ×™×œ ×ª×—×ª×•×Ÿ, × ×¤×ª ×›× ×¨×ª, ××—×•×– ×”×¦×¤×•×Ÿ, 1529500, ×™×©×¨××œ","address":{"city":"××•×¢×¦×” ××–×•×¨×™×ª ×’×œ×™×œ ×ª×—×ª×•×Ÿ","state_district":"× ×¤×ª ×›× ×¨×ª","state":"××—×•×– ×”×¦×¤×•×Ÿ","ISO3166-2-lvl4":"IL-Z","postcode":"1529500","country":"×™×©×¨××œ","country_code":"il"},"osm_type":"relation","osm_id":1383754,"type":"administrative","location":[35.45262541274484,32.750205449999996],"bbox":[35.3131812,32.6515355,35.533718,32.8491895],"inferred_type":"city"}
{"name":"××•×¢×¦×” ××–×•×¨×™×ª ×”×¢×¨×‘×” ×”×ª×™×›×•× ×”","other_names":{"name:cs":"oblastnÃ­ rada CentrÃ¡lnÃ­ Arava","name:en":"Arava Tichona Regional Council","name:fr":"Arava centre","name:he":"××•×¢×¦×” ××–×•×¨×™×ª ×”×¢×¨×‘×” ×”×ª×™×›×•× ×”"},"display_name":"××•×¢×¦×” ××–×•×¨×™×ª ×”×¢×¨×‘×” ×”×ª×™×›×•× ×”, × ×¤×ª ×‘××¨ ×©×‘×¢, ××—×•×– ×”×“×¨×•×, ×™×©×¨××œ","address":{"city":"××•×¢×¦×” ××–×•×¨×™×ª ×”×¢×¨×‘×” ×”×ª×™×›×•× ×”","state_district":"× ×¤×ª ×‘××¨ ×©×‘×¢","state":"××—×•×– ×”×“×¨×•×","ISO3166-2-lvl4":"IL-D","country":"×™×©×¨××œ","country_code":"il"},"osm_type":"relation","osm_id":1376929,"type":"administrative","location":[35.14447815489025,30.6206584],"bbox":[34.9335711,30.2731254,35.3411045,30.9675849],"inferred_type":"city"}
{"name":"××•×¢×¦×” ××–×•×¨×™×ª ×–×‘×•×œ×•×Ÿ","other_names":{"name:ar":"Ù…Ø¬Ù„Ø³ Ø¥Ù‚Ù„ÙŠÙ…ÙŠ Ø²Ø¨ÙˆÙ„ÙˆÙ†","name:en":"Zvulun Regional Council","name:fr":"Conseil rÃ©gional de Zevulun","name:he":"××•×¢×¦×” ××–×•×¨×™×ª ×–×‘×•×œ×•×Ÿ","name:ar1":"Ø§Ù„Ù…Ø¬Ù„Ø³ Ø§Ù„Ø¥Ù‚Ù„ÙŠÙ…ÙŠ Ø²Ø¨ÙˆÙ„ÙˆÙ†","short_name:ar":"Ø²Ø¨ÙˆÙ„ÙˆÙ†"},"display_name":"××•×¢×¦×” ××–×•×¨×™×ª ×–×‘×•×œ×•×Ÿ, × ×¤×ª ×—×™×¤×”, ××—×•×– ×—×™×¤×”, ×™×©×¨××œ","address":{"city":"××•×¢×¦×” ××–×•×¨×™×ª ×–×‘×•×œ×•×Ÿ","state_district":"× ×¤×ª ×—×™×¤×”","state":"××—×•×– ×—×™×¤×”","ISO3166-2-lvl4":"IL-HA","country":"×™×©×¨××œ","country_code":"il"},"osm_type":"relation","osm_id":1387455,"type":"administrative","location":[35.108128274572934,32.759545149999994],"bbox":[35.0460963,32.7107136,35.1612833,32.8325285],"inferred_type":"city"}
{"name":"××•×¢×¦×” ××–×•×¨×™×ª ×—×‘×œ ××™×œ×•×ª","other_names":{"name:cs":"oblastnÃ­ rada Chevel Ejlot","name:en":"Hevel Eilot Regional Council","name:fr":"Hevel Eilot","name:he":"××•×¢×¦×” ××–×•×¨×™×ª ×—×‘×œ ××™×œ×•×ª"},"display_name":"××•×¢×¦×” ××–×•×¨×™×ª ×—×‘×œ ××™×œ×•×ª, × ×¤×ª ×‘××¨ ×©×‘×¢, ××—×•×– ×”×“×¨×•×, 8881000, ×™×©×¨××œ","address":{"city":"××•×¢×¦×” ××–×•×¨×™×ª ×—×‘×œ ××™×œ×•×ª","state_district":"× ×¤×ª ×‘××¨ ×©×‘×¢","state":"××—×•×– ×”×“×¨×•×","ISO3166-2-lvl4":"IL-D","postcode":"8881000","country":"×™×©×¨××œ","country_code":"il"},"osm_type":"relation","osm_id":1377268,"type":"administrative","location":[34.92792013812848,29.9850027],"bbox":[34.6114884,29.5669838,35.1621905,30.400659],"inferred_type":"city"}
{"name":"××•×¢×¦×” ××–×•×¨×™×ª ×—×‘×œ ×™×‘× ×”","other_names":{"name:en":"Hevel Yavne Regional Council","name:fr":"Hevel Yavne","name:he":"××•×¢×¦×” ××–×•×¨×™×ª ×—×‘×œ ×™×‘× ×”"},"display_name":"××•×¢×¦×” ××–×•×¨×™×ª ×—×‘×œ ×™×‘× ×”, × ×¤×ª ×¨×—×•×‘×•×ª, ××—×•×– ×”××¨×›×–, 9275000, ×™×©×¨××œ","address":{"city":"××•×¢×¦×” ××–×•×¨×™×ª ×—×‘×œ ×™×‘× ×”","state_district":"× ×¤×ª ×¨×—×•×‘×•×ª","state":"××—×•×– ×”××¨×›×–","ISO3166-2-lvl4":"IL-M","postcode":"9275000","country":"×™×©×¨××œ","country_code":"il"},"osm_type":"relation","osm_id":1380015,"type":"administrative","location":[34.72057854266173,31.8438794],"bbox":[34.6604636,31.7995684,34.7724158,31.8877305],"inferred_type":"city"}
{"name":"××•×¢×¦×” ××–×•×¨×™×ª ×—×•×£ ××©×§×œ×•×Ÿ","other_names":{"name:el":"Î ÎµÏÎ¹Ï†Î­ÏÎµÎ¹Î± Î§Î¿Ï† Î‘ÏƒÎºÎµÎ»ÏŒÎ½","name:en":"Hof Ashkelon Regional Council","name:fr":"Conseil rÃ©gional Hof AshkÃ©lon","name:he":"××•×¢×¦×” ××–×•×¨×™×ª ×—×•×£ ××©×§×œ×•×Ÿ"},"display_name":"××•×¢×¦×” ××–×•×¨×™×ª ×—×•×£ ××©×§×œ×•×Ÿ, × ×¤×ª ××©×§×œ×•×Ÿ, ××—×•×– ×”×“×¨×•×, ×™×©×¨××œ","address":{"city":"××•×¢×¦×” ××–×•×¨×™×ª ×—×•×£ ××©×§×œ×•×Ÿ","state_district":"× ×¤×ª ××©×§×œ×•×Ÿ","state":"××—×•×– ×”×“×¨×•×","ISO3166-2-lvl4":"IL-D","country":"×™×©×¨××œ","country_code":"il"},"osm_type":"relation","osm_id":1473951,"type":"administrative","location":[34.63203136110627,31.65638515],"bbox":[34.4879386,31.5538349,34.6892153,31.7587096],"inferred_type":"city"}
{"name":"××•×¢×¦×” ××–×•×¨×™×ª ×—×•×£ ×”×›×¨××œ","other_names":{"name:ar":"Ù…Ø¬Ù„Ø³ Ø¥Ù‚Ù„ÙŠÙ…ÙŠ Ø´Ø§Ø·Ø¦ Ø§Ù„ÙƒØ±Ù…Ù„","name:en":"Hof HaCarmel Regional Council","name:fr":"CÃ´te de Carmel","name:he":"××•×¢×¦×” ××–×•×¨×™×ª ×—×•×£ ×”×›×¨××œ","alt_name:ar":"Ø§Ù„Ù…Ø¬Ù„Ø³ Ø§Ù„Ø¥Ù‚Ù„ÙŠÙ…ÙŠ Ø´Ø§Ø·Ø¦ Ø§Ù„ÙƒØ±Ù…Ù„;Ù…Ø¬Ù„Ø³ Ø¥Ù‚Ù„ÙŠÙ…ÙŠ Ø­ÙˆÙ Ù‡ÙƒØ±Ù…Ù„;Ø§Ù„Ù…Ø¬Ù„Ø³ Ø§Ù„Ø¥Ù‚Ù„ÙŠÙ…ÙŠ Ø­ÙˆÙ Ù‡ÙƒØ±Ù…Ù„;Ø­ÙˆÙ Ù‡ÙƒØ±Ù…Ù„","short_name:ar":"Ø´Ø§Ø·Ø¦ Ø§Ù„ÙƒØ±Ù…Ù„"},"display_name":"××•×¢×¦×” ××–×•×¨×™×ª ×—×•×£ ×”×›×¨××œ, × ×¤×ª ×—×“×¨×”, ××—×•×– ×—×™×¤×”, 3085000, ×™×©×¨××œ","address":{"city":"××•×¢×¦×” ××–×•×¨×™×ª ×—×•×£ ×”×›×¨××œ","state_district":"× ×¤×ª ×—×“×¨×”","state":"××—×•×– ×—×™×¤×”","ISO3166-2-lvl4":"IL-HA","postcode":"3085000","country":"×™×©×¨××œ","country_code":"il"},"osm_type":"relation","osm_id":1391710,"type":"administrative","location":[34.98539687477991,32.62391045],"bbox":[34.8817674,32.475037,35.0581078,32.7726483],"inferred_type":"city"}
{"name":"××•×¢×¦×” ××–×•×¨×™×ª ×™×•××‘","other_names":{"name:en":"Yoav Regional Council","name:fr":"Conseil rÃ©gional de Yoav","name:he":"××•×¢×¦×” ××–×•×¨×™×ª ×™×•××‘"},"display_name":"××•×¢×¦×” ××–×•×¨×™×ª ×™×•××‘, × ×¤×ª ××©×§×œ×•×Ÿ, ××—×•×– ×”×“×¨×•×, ×™×©×¨××œ","address":{"city":"××•×¢×¦×” ××–×•×¨×™×ª ×™×•××‘","state_district":"× ×¤×ª ××©×§×œ×•×Ÿ","state":"××—×•×– ×”×“×¨×•×","ISO3166-2-lvl4":"IL-D","country":"×™×©×¨××œ","country_code":"il"},"osm_type":"relation","osm_id":1379486,"type":"administrative","location":[34.815267550735136,31.685615900000002],"bbox":[34.6552855,31.5813754,34.9275881,31.7885143],"inferred_type":"city"}
{"name":"××•×¢×¦×” ××–×•×¨×™×ª ××‘×•××•×ª ×”×—×¨××•×Ÿ","other_names":{"name:ar":"Ù…Ø¬Ù„Ø³ Ø¥Ù‚Ù„ÙŠÙ…ÙŠ Ù…Ù‚Ø¯Ù…Ø§Øª Ø¬Ø¨Ù„ Ø§Ù„Ø´ÙŠØ®","name:en":"Mevoot HaHermon Regional Council","name:fr":"Mevo'ot HaHermon","name:he":"××•×¢×¦×” ××–×•×¨×™×ª ××‘×•××•×ª ×”×—×¨××•×Ÿ","name:ar1":"Ø§Ù„Ù…Ø¬Ù„Ø³ Ø§Ù„Ø¥Ù‚Ù„ÙŠÙ…ÙŠ Ù…Ù‚Ø¯Ù…Ø§Øª Ø¬Ø¨Ù„ Ø§Ù„Ø´ÙŠØ®","name:ar2":"Ù…Ø¬Ù„Ø³ Ø¥Ù‚Ù„ÙŠÙ…ÙŠ Ù…ÙÙˆØ¦ÙˆØª Ù‡Ø­Ø±Ù…ÙˆÙ†","name:ar3":"Ø§Ù„Ù…Ø¬Ù„Ø³ Ø§Ù„Ø¥Ù‚Ù„ÙŠÙ…ÙŠ Ù…ÙÙˆØ¦ÙˆØª Ù‡Ø­Ø±Ù…ÙˆÙ†","short_name:ar":"Ù…Ù‚Ø¯Ù…Ø§Øª Ø¬Ø¨Ù„ Ø§Ù„Ø´ÙŠØ®; Ù…ÙÙˆØ¦ÙˆØª Ù‡Ø­Ø±Ù…ÙˆÙ†"},"display_name":"××•×¢×¦×” ××–×•×¨×™×ª ××‘×•××•×ª ×”×—×¨××•×Ÿ, × ×¤×ª ×¦×¤×ª, ××—×•×– ×”×¦×¤×•×Ÿ, ×™×©×¨××œ","address":{"city":"××•×¢×¦×” ××–×•×¨×™×ª ××‘×•××•×ª ×”×—×¨××•×Ÿ","state_district":"× ×¤×ª ×¦×¤×ª","state":"××—×•×– ×”×¦×¤×•×Ÿ","ISO3166-2-lvl4":"IL-Z","country":"×™×©×¨××œ","country_code":"il"},"population":7200,"osm_type":"relation","osm_id":1377971,"type":"administrative","location":[35.540319229918964,33.0835438],"bbox":[35.4870621,32.8768963,35.6656311,33.2592579],"inferred_type":"city"}
{"name":"××•×¢×¦×” ××–×•×¨×™×ª ××˜×” ××©×¨","other_names":{"name:ar":"Ù…Ø¬Ù„Ø³ Ø§Ù‚Ù„ÙŠÙ…ÙŠ Ù…Ø·Ù‡ Ø£Ø´Ø±","name:en":"Mate Asher Regional Council","name:fr":"Conseil rÃ©gional de Mateh Asher","name:he":"××•×¢×¦×” ××–×•×¨×™×ª ××˜×” ××©×¨","short_name:ar":"Ù…Ø·Ù‡ Ø£Ø´Ø±"},"display_name":"××•×¢×¦×” ××–×•×¨×™×ª ××˜×” ××©×¨, × ×¤×ª ×¢×›×•, ××—×•×– ×”×¦×¤×•×Ÿ, ×™×©×¨××œ","address":{"city":"××•×¢×¦×” ××–×•×¨×™×ª ××˜×” ××©×¨","state_district":"× ×¤×ª ×¢×›×•","state":"××—×•×– ×”×¦×¤×•×Ÿ","ISO3166-2-lvl4":"IL-Z","country":"×™×©×¨××œ","country_code":"il"},"osm_type":"relation","osm_id":1387432,"type":"administrative","location":[35.17249757169539,33.017354],"bbox":[35.0692427,32.8236274,35.2798202,33.1007809],"inferred_type":"city"}
{"name":"××•×¢×¦×” ××–×•×¨×™×ª ××˜×” ×™×”×•×“×”","other_names":{"name:ar":"Ø¥Ù‚Ù„ÙŠÙ… Ù…Ø§ØªÙŠÙ‡ ÙŠÙ‡ÙˆØ¯Ø§â€","name:de":"Regionalverwaltung Mateh Jehuda","name:el":"Î ÎµÏÎ¹Ï†ÎµÏÎµÎ¹Î±ÎºÏŒ Î£Ï…Î¼Î²Î¿ÏÎ»Î¹Î¿ ÎœÎ¬Ï„Îµ Î“Î¹ÎµÏ‡Î¿Ï…Î½Ï„Î¬","name:en":"Mate Yehuda Regional Council","name:fr":"Mateh Yehuda","name:he":"××•×¢×¦×” ××–×•×¨×™×ª ××˜×” ×™×”×•×“×”","name:ru":"Ğ ĞµĞ³Ğ¸Ğ¾Ğ½Ğ°Ğ»ÑŒĞ½Ñ‹Ğ¹ ÑĞ¾Ğ²ĞµÑ‚ ĞœĞ°Ñ‚Ğµ-Ğ™ĞµÑ…ÑƒĞ´Ğ°","short_name:ar":"Ù…Ø§ØªÙŠÙ‡ ÙŠÙ‡ÙˆØ¯Ø§â€"},"display_name":"××•×¢×¦×” ××–×•×¨×™×ª ××˜×” ×™×”×•×“×”, × ×¤×ª ×™×¨×•×©×œ×™×, ××—×•×– ×™×¨×•×©×œ×™×, 9905218, ×™×©×¨××œ","address":{"city":"××•×¢×¦×” ××–×•×¨×™×ª ××˜×” ×™×”×•×“×”","state_district":"× ×¤×ª ×™×¨×•×©×œ×™×","state":"××—×•×– ×™×¨×•×©×œ×™×","ISO3166-2-lvl4":"IL-JM","postcode":"9905218","country":"×™×©×¨××œ","country_code":"il"},"osm_type":"relation","osm_id":1379430,"type":"administrative","location":[35.06660631082383,31.729939350000002],"bbox":[34.8202375,31.6030291,35.2251155,31.8567833],"inferred_type":"city"}
{"name":"××•×¢×¦×” ××–×•×¨×™×ª ×× ×©×”","other_names":{"name:ar":"Ù…Ø¬Ù„Ø³ Ù…Ù†Ø´Ø© Ø§Ù„Ø¥Ù‚Ù„ÙŠÙ…ÙŠ","name:en":"Menashe Regional Council","name:fr":"Menashe","name:he":"××•×¢×¦×” ××–×•×¨×™×ª ×× ×©×”"},"display_name":"××•×¢×¦×” ××–×•×¨×™×ª ×× ×©×”, × ×¤×ª ×—×“×¨×”, ××—×•×– ×—×™×¤×”, ×™×©×¨××œ","address":{"city":"××•×¢×¦×” ××–×•×¨×™×ª ×× ×©×”","state_district":"× ×¤×ª ×—×“×¨×”","state":"××—×•×– ×—×™×¤×”","ISO3166-2-lvl4":"IL-HA","country":"×™×©×¨××œ","country_code":"il"},"osm_type":"relation","osm_id":1391828,"type":"administrative","location":[35.01351134096784,32.46009615],"bbox":[34.9422182,32.3722012,35.1640368,32.5488604],"inferred_type":"city"}
{"name":"××•×¢×¦×” ××–×•×¨×™×ª ××¢×œ×” ×™×•×¡×£","other_names":{"name:ar":"Ù…Ø¬Ù„Ø³ Ø¥Ù‚Ù„ÙŠÙ…ÙŠ Ù…Ø¹Ù„ÙŠÙ‡ ÙŠÙˆØ³Ù","name:en":"Maale Yosef Regional Council","name:fr":"Ma'ale Yosef","name:he":"××•×¢×¦×” ××–×•×¨×™×ª ××¢×œ×” ×™×•×¡×£","name:ar1":"Ø§Ù„Ù…Ø¬Ù„Ø³ Ø§Ù„Ø¥Ù‚Ù„ÙŠÙ…ÙŠ Ù…Ø¹Ù„ÙŠÙ‡ ÙŠÙˆØ³Ù","short_name:ar":"Ù…Ø¹Ù„ÙŠÙ‡ ÙŠÙˆØ³Ù"},"display_name":"××•×¢×¦×” ××–×•×¨×™×ª ××¢×œ×” ×™×•×¡×£, × ×¤×ª ×¢×›×•, ××—×•×– ×”×¦×¤×•×Ÿ, ×™×©×¨××œ","address":{"city":"××•×¢×¦×” ××–×•×¨×™×ª ××¢×œ×” ×™×•×¡×£","state_district":"× ×¤×ª ×¢×›×•","state":"××—×•×– ×”×¦×¤×•×Ÿ","ISO3166-2-lvl4":"IL-Z","country":"×™×©×¨××œ","country_code":"il"},"osm_type":"relation","osm_id":1392186,"type":"administrative","location":[35.25854826772234,33.0471666],"bbox":[35.1662259,32.9502376,35.3802443,33.1080938],"inferred_type":"city"}
{"name":"××•×¢×¦×” ××–×•×¨×™×ª ××¨×•× ×”×’×œ×™×œ","other_names":{"name:ar":"Ù…Ø¬Ù„Ø³ Ø¥Ù‚Ù„ÙŠÙ…ÙŠ Ù…Ø§Ø±ÙˆÙ… Ø§Ù„Ø¬Ù„ÙŠÙ„","name:en":"Merom HaGalil Regional Council","name:fr":"Conseil RÃ©gional Merom HaGalil","name:he":"××•×¢×¦×” ××–×•×¨×™×ª ××¨×•× ×”×’×œ×™×œ","name:ar1":"Ø§Ù„Ù…Ø¬Ù„Ø³ Ø§Ù„Ø¥Ù‚Ù„ÙŠÙ…ÙŠ Ù…Ø§Ø±ÙˆÙ… Ø§Ù„Ø¬Ù„ÙŠÙ„","short_name:ar":"Ù…Ø§Ø±ÙˆÙ… Ø§Ù„Ø¬Ù„ÙŠÙ„"},"display_name":"××•×¢×¦×” ××–×•×¨×™×ª ××¨×•× ×”×’×œ×™×œ, × ×¤×ª ×¦×¤×ª, ××—×•×– ×”×¦×¤×•×Ÿ, ×™×©×¨××œ","address":{"city":"××•×¢×¦×” ××–×•×¨×™×ª ××¨×•× ×”×’×œ×™×œ","state_district":"× ×¤×ª ×¦×¤×ª","state":"××—×•×– ×”×¦×¤×•×Ÿ","ISO3166-2-lvl4":"IL-Z","country":"×™×©×¨××œ","country_code":"il"},"osm_type":"relation","osm_id":1387370,"type":"administrative","location":[35.445642054131426,32.97443955],"bbox":[35.3256168,32.8557622,35.5481512,33.0931432],"inferred_type":"city"}
{"name":"××•×¢×¦×” ××–×•×¨×™×ª ××¨×—×‘×™×","other_names":{"name:ar":"Ù…Ø¬Ù„Ø³ Ø§Ù‚Ù„ÙŠÙ…ÙŠ Ù…Ø±Ø­Ø§ÙÙŠÙ…","name:en":"Merhavim Regional Council","name:fr":"Conseil RÃ©gional Merhavim","name:he":"××•×¢×¦×” ××–×•×¨×™×ª ××¨×—×‘×™×","short_name:ar":"Ù…Ø±Ø­Ø§ÙÙŠÙ…"},"display_name":"××•×¢×¦×” ××–×•×¨×™×ª ××¨×—×‘×™×, × ×¤×ª ×‘××¨ ×©×‘×¢, ××—×•×– ×”×“×¨×•×, ×™×©×¨××œ","address":{"city":"××•×¢×¦×” ××–×•×¨×™×ª ××¨×—×‘×™×","state_district":"× ×¤×ª ×‘××¨ ×©×‘×¢","state":"××—×•×– ×”×“×¨×•×","ISO3166-2-lvl4":"IL-D","country":"×™×©×¨××œ","country_code":"il"},"osm_type":"relation","osm_id":1376788,"type":"administrative","location":[34.57077831850093,31.3133342],"bbox":[34.4465437,31.1302763,34.8071924,31.4967539],"inferred_type":"city"}
{"name":"××•×¢×¦×” ××–×•×¨×™×ª ××©×’×‘","other_names":{"name:ar":"Ù…Ø¬Ù„Ø³ Ø¥Ù‚Ù„ÙŠÙ…ÙŠ Ù…Ø³ØºØ§Ù","name:en":"Misgav Regional Council","name:fr":"Misgav","name:he":"××•×¢×¦×” ××–×•×¨×™×ª ××©×’×‘","name:ar1":"Ø§Ù„Ù…Ø¬Ù„Ø³ Ø§Ù„Ø¥Ù‚Ù„ÙŠÙ…ÙŠ Ù…Ø³ØºØ§Ù","short_name:ar":"Ù…Ø³ØºØ§Ù"},"display_name":"××•×¢×¦×” ××–×•×¨×™×ª ××©×’×‘, × ×¤×ª ×¢×›×•, ××—×•×– ×”×¦×¤×•×Ÿ, ×™×©×¨××œ","address":{"city":"××•×¢×¦×” ××–×•×¨×™×ª ××©×’×‘","state_district":"× ×¤×ª ×¢×›×•","state":"××—×•×– ×”×¦×¤×•×Ÿ","ISO3166-2-lvl4":"IL-Z","country":"×™×©×¨××œ","country_code":"il"},"osm_type":"relation","osm_id":1386844,"type":"administrative","location":[35.220368861416205,32.93410935],"bbox":[35.118051,32.7932262,35.404557,32.9605429],"inferred_type":"city"}
{"name":"××•×¢×¦×” ××–×•×¨×™×ª × ×—×œ ×©×•×¨×§","other_names":{"name:en":"Nahal Sorek Regional Council","name:fr":"Nahal Sorek","name:he":"××•×¢×¦×” ××–×•×¨×™×ª × ×—×œ ×©×•×¨×§"},"display_name":"××•×¢×¦×” ××–×•×¨×™×ª × ×—×œ ×©×•×¨×§, × ×¤×ª ×¨×—×•×‘×•×ª, ××—×•×– ×”××¨×›×–, ×™×©×¨××œ","address":{"city":"××•×¢×¦×” ××–×•×¨×™×ª × ×—×œ ×©×•×¨×§","state_district":"× ×¤×ª ×¨×—×•×‘×•×ª","state":"××—×•×– ×”××¨×›×–","ISO3166-2-lvl4":"IL-M","country":"×™×©×¨××œ","country_code":"il"},"osm_type":"relation","osm_id":1380374,"type":"administrative","location":[34.79967770864151,31.79252455],"bbox":[34.7720176,31.7573629,34.8718015,31.8275561],"inferred_type":"city"}
{"name":"××•×¢×¦×” ××–×•×¨×™×ª ×¢××§ ×”×™×¨×“×Ÿ","other_names":{"name:ar":"Ù…Ø¬Ù„Ø³ Ø¥Ù‚Ù„ÙŠÙ…ÙŠ ØºÙˆØ± Ø§Ù„Ø£Ø±Ø¯Ù†","name:en":"Emek HaYarden Regional Council","name:fr":"Conseil rÃ©gional d'Emek HaYarden","name:he":"××•×¢×¦×” ××–×•×¨×™×ª ×¢××§ ×”×™×¨×“×Ÿ","name:ar1":"Ø§Ù„Ù…Ø¬Ù„Ø³ Ø§Ù„Ø¥Ù‚Ù„ÙŠÙ…ÙŠ ØºÙˆØ± Ø§Ù„Ø£Ø±Ø¯Ù†","short_name:ar":"ØºÙˆØ± Ø§Ù„Ø£Ø±Ø¯Ù†"},"display_name":"××•×¢×¦×” ××–×•×¨×™×ª ×¢××§ ×”×™×¨×“×Ÿ, × ×¤×ª ×›× ×¨×ª, ××—×•×– ×”×¦×¤×•×Ÿ, ×™×©×¨××œ","address":{"city":"××•×¢×¦×” ××–×•×¨×™×ª ×¢××§ ×”×™×¨×“×Ÿ","state_district":"× ×¤×ª ×›× ×¨×ª","state":"××—×•×– ×”×¦×¤×•×Ÿ","ISO3166-2-lvl4":"IL-Z","country":"×™×©×¨××œ","country_code":"il"},"osm_type":"relation","osm_id":1380231,"type":"administrative","location":[35.51348247536326,32.6429981],"bbox":[35.4311867,32.60532,35.6751524,32.9600757],"inferred_type":"city"}
{"name":"××•×¢×¦×” ××–×•×¨×™×ª ×¢××§ ×”××¢×™×™× ×•×ª","other_names":{"name:en":"Emek HaMaayanot Regional Council","name:fr":"VallÃ©e de BeÃ¯t-ShÃ©an","name:he":"××•×¢×¦×” ××–×•×¨×™×ª ×¢××§ ×”××¢×™×™× ×•×ª"},"display_name":"××•×¢×¦×” ××–×•×¨×™×ª ×¢××§ ×”××¢×™×™× ×•×ª, × ×¤×ª ×™×–×¨×¢××œ, ××—×•×– ×”×¦×¤×•×Ÿ, ×™×©×¨××œ","address":{"city":"××•×¢×¦×” ××–×•×¨×™×ª ×¢××§ ×”××¢×™×™× ×•×ª","state_district":"× ×¤×ª ×™×–×¨×¢××œ","state":"××—×•×– ×”×¦×¤×•×Ÿ","ISO3166-2-lvl4":"IL-Z","country":"×™×©×¨××œ","country_code":"il"},"osm_type":"relation","osm_id":1380254,"type":"administrative","location":[35.51829767774473,32.5350964],"bbox":[35.4050953,32.3870989,35.5801812,32.6830481],"inferred_type":"city"}
{"name":"××•×¢×¦×” ××–×•×¨×™×ª ×¢××§ ×™×–×¨×¢××œ","other_names":{"name:ar":"Ù…Ø¬Ù„Ø³ Ø¥Ù‚Ù„ÙŠÙ…ÙŠ Ø¹Ù…Ùƒ ÙŠØ²Ø±Ø¹Ø¦ÙŠÙ„","name:en":"Emek Izrael Regional Council","name:fr":"Conseil rÃ©gional de la vallÃ©e de Jezreel","name:he":"××•×¢×¦×” ××–×•×¨×™×ª ×¢××§ ×™×–×¨×¢××œ","name:ar1":"Ø§Ù„Ù…Ø¬Ù„Ø³ Ø§Ù„Ø¥Ù‚Ù„ÙŠÙ…ÙŠ Ø¹Ù…Ùƒ ÙŠØ²Ø±Ø¹Ø¦ÙŠÙ„","short_name:ar":"Ø¹Ù…Ùƒ ÙŠØ²Ø±Ø¹Ø¦ÙŠÙ„"},"display_name":"××•×¢×¦×” ××–×•×¨×™×ª ×¢××§ ×™×–×¨×¢××œ, × ×¤×ª ×™×–×¨×¢××œ, ××—×•×– ×”×¦×¤×•×Ÿ, ×™×©×¨××œ","address":{"city":"××•×¢×¦×” ××–×•×¨×™×ª ×¢××§ ×™×–×¨×¢××œ","state_district":"× ×¤×ª ×™×–×¨×¢××œ","state":"××—×•×– ×”×¦×¤×•×Ÿ","ISO3166-2-lvl4":"IL-Z","country":"×™×©×¨××œ","country_code":"il"},"osm_type":"relation","osm_id":1380233,"type":"administrative","location":[35.168429314822355,32.6902346],"bbox":[35.1079166,32.5662825,35.4816455,32.7989304],"inferred_type":"city"}
{"name":"××•×¢×¦×” ××–×•×¨×™×ª ×¨××ª × ×’×‘","other_names":{"name:ar":"Ù…Ø¬Ù„Ø³ Ø¥Ù‚Ù„ÙŠÙ…ÙŠ Ø±Ù…Ø§Øª Ø§Ù„Ù†Ù‚Ø¨","name:en":"Ramat Negev Regional Council","name:fr":"Conseil rÃ©gional de Ramat Negev","name:he":"××•×¢×¦×” ××–×•×¨×™×ª ×¨××ª × ×’×‘","name:ar1":"Ø§Ù„Ù…Ø¬Ù„Ø³ Ø§Ù„Ø¥Ù‚Ù„ÙŠÙ…ÙŠ Ø±Ù…Ø§Øª Ø§Ù„Ù†Ù‚Ø¨","short_name:ar":"Ø±Ù…Ø§Øª Ø§Ù„Ù†Ù‚Ø¨"},"display_name":"××•×¢×¦×” ××–×•×¨×™×ª ×¨××ª × ×’×‘, × ×¤×ª ×‘××¨ ×©×‘×¢, ××—×•×– ×”×“×¨×•×, 8499300, ×™×©×¨××œ","address":{"city":"××•×¢×¦×” ××–×•×¨×™×ª ×¨××ª × ×’×‘","state_district":"× ×¤×ª ×‘××¨ ×©×‘×¢","state":"××—×•×– ×”×“×¨×•×","ISO3166-2-lvl4":"IL-D","postcode":"8499300","country":"×™×©×¨××œ","country_code":"il"},"osm_type":"relation","osm_id":1376786,"type":"administrative","location":[34.732582004745296,30.741962700000002],"bbox":[34.3251712,30.3452175,35.0818444,31.1386838],"inferred_type":"city"}
{"name":"××•×¢×¦×” ××–×•×¨×™×ª ×©×“×•×ª ×“×Ÿ","other_names":{"name:en":"Sdot Dan Regional Council","name:he":"××•×¢×¦×” ××–×•×¨×™×ª ×©×“×•×ª ×“×Ÿ","old_name":"××•×¢×¦×” ××–×•×¨×™×ª ×¢××§ ×œ×•×“"},"display_name":"××•×¢×¦×” ××–×•×¨×™×ª ×©×“×•×ª ×“×Ÿ, × ×¤×ª ×¨××œ×”, ××—×•×– ×”××¨×›×–, ×™×©×¨××œ","address":{"city":"××•×¢×¦×” ××–×•×¨×™×ª ×©×“×•×ª ×“×Ÿ","state_district":"× ×¤×ª ×¨××œ×”","state":"××—×•×– ×”××¨×›×–","ISO3166-2-lvl4":"IL-M","country":"×™×©×¨××œ","country_code":"il"},"osm_type":"relation","osm_id":1381544,"type":"administrative","location":[34.864411641795535,31.984486099999998],"bbox":[34.8143548,31.9416918,34.9016739,32.0274467],"inferred_type":"city"}
{"name":"××•×¢×¦×” ××–×•×¨×™×ª ×©×“×•×ª × ×’×‘","other_names":{"name:en":"Sdot Negev Regional Council","name:fr":"Conseil rÃ©gional de Sdot Negev","name:he":"××•×¢×¦×” ××–×•×¨×™×ª ×©×“×•×ª × ×’×‘"},"display_name":"××•×¢×¦×” ××–×•×¨×™×ª ×©×“×•×ª × ×’×‘, × ×¤×ª ×‘××¨ ×©×‘×¢, ××—×•×– ×”×“×¨×•×, ×™×©×¨××œ","address":{"city":"××•×¢×¦×” ××–×•×¨×™×ª ×©×“×•×ª × ×’×‘","state_district":"× ×¤×ª ×‘××¨ ×©×‘×¢","state":"××—×•×– ×”×“×¨×•×","ISO3166-2-lvl4":"IL-D","country":"×™×©×¨××œ","country_code":"il"},"osm_type":"relation","osm_id":1473953,"type":"administrative","location":[34.53362698213573,31.420818750000002],"bbox":[34.4508791,31.3587216,34.6402046,31.4831293],"inferred_type":"city"}
{"name":"××•×¢×¦×” ××–×•×¨×™×ª ×©×¢×¨ ×”× ×’×‘","other_names":{"name:el":"Î£Î±Î¬Ï Î§Î±ÎÎµÎ³ÎºÎ­Î² Î ÎµÏÎ¹Ï†ÎµÏÎµÎ¹Î±ÎºÏŒ Î£Ï…Î¼Î²Î¿ÏÎ»Î¹Î¿","name:en":"Shaar HaNegev Regional Council","name:fr":"Sha'ar HaNegev","name:he":"××•×¢×¦×” ××–×•×¨×™×ª ×©×¢×¨ ×”× ×’×‘"},"display_name":"××•×¢×¦×” ××–×•×¨×™×ª ×©×¢×¨ ×”× ×’×‘, × ×¤×ª ××©×§×œ×•×Ÿ, ××—×•×– ×”×“×¨×•×, ×™×©×¨××œ","address":{"city":"××•×¢×¦×” ××–×•×¨×™×ª ×©×¢×¨ ×”× ×’×‘","state_district":"× ×¤×ª ××©×§×œ×•×Ÿ","state":"××—×•×– ×”×“×¨×•×","ISO3166-2-lvl4":"IL-D","country":"×™×©×¨××œ","country_code":"il"},"osm_type":"relation","osm_id":1473954,"type":"administrative","location":[34.6633760969454,31.516709],"bbox":[34.4625343,31.4511897,34.7546084,31.5822487],"inferred_type":"city"}
{"name":"××•×¢×¦×” ××–×•×¨×™×ª ×©×¤×™×¨","other_names":{"name:ar":"Ù…Ø¬Ù„Ø³ Ø¥Ù‚Ù„ÙŠÙ…ÙŠ Ø´ÙÙŠØ±","name:en":"Shafir Regional Council","name:es":"Concejo Regional Shafir","name:fr":"Conseil rÃ©gional de Shafir","name:he":"××•×¢×¦×” ××–×•×¨×™×ª ×©×¤×™×¨","name:nl":"Regionale Raad van Shafir"},"display_name":"××•×¢×¦×” ××–×•×¨×™×ª ×©×¤×™×¨, × ×¤×ª ××©×§×œ×•×Ÿ, ××—×•×– ×”×“×¨×•×, 7985800, ×™×©×¨××œ","address":{"city":"××•×¢×¦×” ××–×•×¨×™×ª ×©×¤×™×¨","state_district":"× ×¤×ª ××©×§×œ×•×Ÿ","state":"××—×•×– ×”×“×¨×•×","ISO3166-2-lvl4":"IL-D","postcode":"7985800","country":"×™×©×¨××œ","country_code":"il"},"osm_type":"relation","osm_id":1379484,"type":"administrative","location":[34.77030013683057,31.572383799999997],"bbox":[34.6501235,31.5336028,34.8152509,31.7174286],"inferred_type":"city"}
{"name":"××•×¢×¦×” ××–×•×¨×™×ª ×ª××¨","other_names":{"name:cs":"oblastnÃ­ rada Tamar","name:el":"Î ÎµÏÎ¹Ï†Î­ÏÎµÎ¹Î± Î¤Î±Î¼Î¬Ï","name:en":"Tamar Regional Council","name:fr":"Conseil rÃ©gional de Tamar","name:he":"××•×¢×¦×” ××–×•×¨×™×ª ×ª××¨"},"display_name":"××•×¢×¦×” ××–×•×¨×™×ª ×ª××¨, × ×¤×ª ×‘××¨ ×©×‘×¢, ××—×•×– ×”×“×¨×•×, ×™×©×¨××œ","address":{"city":"××•×¢×¦×” ××–×•×¨×™×ª ×ª××¨","state_district":"× ×¤×ª ×‘××¨ ×©×‘×¢","state":"××—×•×– ×”×“×¨×•×","ISO3166-2-lvl4":"IL-D","country":"×™×©×¨××œ","country_code":"il"},"osm_type":"relation","osm_id":1376912,"type":"administrative","location":[35.309624938867785,31.1417384],"bbox":[34.9497874,30.7882681,35.476012,31.4966472],"inferred_type":"city"}
{"name":"× ××•×ª ×—×•×‘×‘","other_names":{"name:en":"Neot Hovav","name:fr":"Ramat Hovav","name:he":"× ××•×ª ×—×•×‘×‘","alt_name":"×¨××ª ×—×•×‘×‘"},"display_name":"× ××•×ª ×—×•×‘×‘, × ×¤×ª ×‘××¨ ×©×‘×¢, ××—×•×– ×”×“×¨×•×, ×™×©×¨××œ","address":{"city":"× ××•×ª ×—×•×‘×‘","state_district":"× ×¤×ª ×‘××¨ ×©×‘×¢","state":"××—×•×– ×”×“×¨×•×","ISO3166-2-lvl4":"IL-D","country":"×™×©×¨××œ","country_code":"il"},"osm_type":"relation","osm_id":1376773,"type":"administrative","location":[34.89768919377418,31.111706249999997],"bbox":[34.7381723,31.0785149,34.9479075,31.1578183],"inferred_type":"city"}
{"name":"×ª×œ ××‘×™×‘â€“×™×¤×•","other_names":{"name:af":"Tel Aviv","name:am":"á‰´áˆ áŠ á‰ªá‰­","name:ar":"ØªÙ„ Ø£Ø¨ÙŠØ¨ â€“ ÙŠØ§ÙØ§","name:az":"TÉ™l-Æviv","name:ba":"Ğ¢ĞµĞ»ÑŒ-ĞĞ²Ğ¸Ğ²","name:be":"Ğ¢ÑĞ»ÑŒ-ĞĞ²Ñ–Ñ","name:bg":"Ğ¢ĞµĞ» ĞĞ²Ğ¸Ğ²","name:bn":"à¦¤à§‡à¦² à¦†à¦¬à¦¿à¦¬","name:br":"Tel Aviv","name:bs":"Tel Aviv","name:ca":"Tel-Aviv","name:ce":"Ğ¢ĞµĞ»ÑŒ-ĞĞ²Ğ¸Ğ²","name:co":"Tel Aviv","name:cs":"Tel Aviv","name:cv":"Ğ¢ĞµĞ»ÑŒ-ĞĞ²Ğ¸Ğ²","name:cy":"Tel Aviv","name:da":"Tel Aviv","name:de":"Tel Aviv","name:el":"Î¤ÎµÎ» Î‘Î²Î¯Î²","name:en":"Tel Aviv","name:eo":"Tel-Avivo","name:es":"Tel Aviv","name:et":"Tel Aviv","name:eu":"Tel Aviv","name:fa":"ØªÙ„â€ŒØ¢ÙˆÛŒÙˆ","name:fi":"Tel Aviv","name:fo":"Tel Aviv-Jaffa","name:fr":"Tel Aviv","name:fy":"Tel Aviv","name:ga":"Tel Aviv","name:gd":"Tel Aviv","name:gl":"Tel Aviv","name:gn":"Tel Aviv","name:gv":"Tel Aviv","name:ha":"Tel Abib","name:he":"×ª×œ ××‘×™×‘â€“×™×¤×•","name:hi":"à¤¤à¥‡à¤² à¤…à¤µà¤¿à¤µ","name:hr":"Tel Aviv","name:ht":"Tel Aviv","name:hu":"Tel-Aviv","name:hy":"Ô¹Õ¥Õ¬ Ô±Õ¾Õ«Õ¾","name:ia":"Tel Aviv","name:id":"Tel Aviv","name:ie":"Tel Aviv","name:io":"Tel Aviv","name:is":"Tel AvÃ­v","name:it":"Tel Aviv","name:ja":"ãƒ†ãƒ«ã‚¢ãƒ“ãƒ–","name:jv":"Tel Aviv","name:ka":"áƒ—áƒ”áƒš-áƒáƒ•áƒ˜áƒ•áƒ˜","name:kk":"Ğ¢ĞµĞ»ÑŒ-ĞĞ²Ğ¸Ğ²","name:kn":"à²¤à³‡à²²à³ à²…à²µà²¿à²µà³","name:ko":"í…”ì•„ë¹„ë¸Œ","name:ku":"Tel EvÃ®v","name:ky":"Ğ¢ĞµĞ»ÑŒ-ĞĞ²Ğ¸Ğ²","name:la":"Telavivum","name:lb":"Tel Aviv-Jaffa","name:li":"Tel Aviv","name:lt":"Tel Avivas","name:lv":"Telaviva","name:mg":"Tel-Aviv-Jaffa","name:mi":"Terawiwi","name:mk":"Ğ¢ĞµĞ» ĞĞ²Ğ¸Ğ²","name:ml":"à´¤àµ†àµ½ à´…à´µàµ€à´µàµ","name:mn":"Ğ¢ĞµĞ»-ĞĞ²Ğ¸Ğ²","name:mr":"à¤¤à¥‡à¤² à¤…à¤µà¥€à¤µ","name:ms":"Tel Aviv","name:mt":"Tel Aviv-Jaffa","name:nb":"Tel Aviv","name:ne":"à¤¤à¥‡à¤² à¤…à¤­à¤¿à¤­","name:nl":"Tel Aviv","name:nn":"Tel Aviv","name:oc":"Tel Aviv","name:os":"Ğ¢ĞµĞ»ÑŒ-ĞĞ²Ğ¸Ğ²","name:pa":"à¨¤à¨² à¨…à¨µà©€à¨µ","name:pl":"Tel Awiw","name:pt":"Tel Aviv","name:qu":"Tel Aviv","name:ro":"Tel Aviv","name:ru":"Ğ¢ĞµĞ»ÑŒ-ĞĞ²Ğ¸Ğ²","name:rw":"Tel Aviv","name:sc":"Tel Aviv","name:si":"à¶§à·™à¶½à·Š à¶…à·€à·’à·€à·Š","name:sk":"Tel Aviv","name:sl":"Tel Aviv","name:sq":"Tel Aviv-Jafa","name:sr":"Ğ¢ĞµĞ» ĞĞ²Ğ¸Ğ²","name:sv":"Tel Aviv","name:sw":"Tel Aviv","name:ta":"à®Ÿà¯†à®²à¯ à®…à®µà¯€à®µà¯","name:te":"à°Ÿà±†à°²à± à°…à°µà±€à°µà±","name:tg":"Ğ¢ĞµĞ»-ĞĞ²Ğ¸Ğ²","name:th":"à¹€à¸—à¸¥à¸­à¸²à¸§à¸µà¸Ÿ","name:tk":"Tel Awiw","name:tl":"Tel-Abib","name:tr":"Tel Aviv","name:tt":"Tel-Ã„viv","name:ug":"ØªÛÙ„Ø§Û‹Ù‰Ù","name:uk":"Ğ¢ĞµĞ»ÑŒ-ĞĞ²Ñ–Ğ²","name:ur":"ÛŒØ§ÙØ§","name:uz":"Tel-Aviv","name:vi":"Tel Aviv","name:vo":"Tel Aviv","name:yi":"×ª×œ ××‘×™×‘ - ×™×¤×•","name:zh":"ç‰¹æ‹‰ç»´å¤«","name:arc":"Ü¬Ü  ÜÜ’ÜÜ’","name:ckb":"ØªÛÙ„ Ø¦Û•Ú¤ÛŒÚ¤","name:he1":"×ªÖµÖ¼×œ ×Ö¸×‘Ö´×™×‘â€“×™Ö¸×¤×•Ö¹","name:kab":"Tel Aviv","alt_name:cs":"JarnÃ­ Pahorek","name:zh-Hant":"ç‰¹æ‹‰ç¶­å¤«","official_name:ar":"ØªÙ„ Ø§Ù„Ø±Ø¨ÙŠØ¹","official_name:cs":"Tel Aviv - Jaffa","official_name:de":"Tel Aviv - Jaffa","official_name:en":"Tel Aviv - Yafo","official_name:fr":"Tel Aviv - Jaffa","official_name:pl":"Tel Awiw - Jafa","official_name:ru":"Ğ¢ĞµĞ»ÑŒ - ĞĞ²Ğ¸Ğ²-Ğ¯Ñ„Ñ„Ğ°","official_name:sk":"Tel Aviv - Jafo","official_name:uk":"Ğ¢ĞµĞ»ÑŒ-ĞĞ²Ñ–Ğ² - Ğ¯Ñ„Ğ¾"},"display_name":"×ª×œ ××‘×™×‘â€“×™×¤×•, ×ª×œÖ¾××‘×™×‘â€“×™×¤×•, × ×¤×ª ×ª×œ ××‘×™×‘, ××—×•×– ×ª×œ ××‘×™×‘, ×™×©×¨××œ","address":{"city":"×ª×œ ××‘×™×‘â€“×™×¤×•","state_district":"× ×¤×ª ×ª×œ ××‘×™×‘","state":"××—×•×– ×ª×œ ××‘×™×‘","ISO3166-2-lvl4":"IL-TA","country":"×™×©×¨××œ","country_code":"il"},"population":467880,"osm_type":"node","osm_id":278472603,"type":"city","location":[34.7818064,32.0852997],"bbox":[34.6218064,31.9252997,34.9418064,32.2452997],"border":[{"name":"×ª×œÖ¾××‘×™×‘â€“×™×¤×•","other_names":{"name:ar":"ØªÙ„ Ø£Ø¨ÙŠØ¨ â€“ ÙŠØ§ÙØ§","name:bn":"à¦¤à§‡à¦² à¦†à¦¬à¦¿à¦¬","name:en":"Tel Aviv","name:fr":"Tel Aviv","name:he":"×ª×œÖ¾××‘×™×‘â€“×™×¤×•","name:it":"Tel Aviv","name:ro":"Tel Aviv","name:ru":"Ğ¢ĞµĞ»ÑŒ-ĞĞ²Ğ¸Ğ²","name:ur":"ØªÙ„ Ø§Ø¨ÛŒØ¨ ÛŒØ§ÙØ§","name:he1":"×ªÖµÖ¼×œÖ¾×Ö¸×‘Ö´×™×‘â€“×™Ö¸×¤×•Ö¹"},"display_name":"×ª×œÖ¾××‘×™×‘â€“×™×¤×•, × ×¤×ª ×ª×œ ××‘×™×‘, ××—×•×– ×ª×œ ××‘×™×‘, ×™×©×¨××œ","address":{"city":"×ª×œÖ¾××‘×™×‘â€“×™×¤×•","state_district":"× ×¤×ª ×ª×œ ××‘×™×‘","state":"××—×•×– ×ª×œ ××‘×™×‘","ISO3166-2-lvl4":"IL-TA","country":"×™×©×¨××œ","country_code":"il"},"osm_type":"relation","osm_id":2731722,"type":"city","location":[34.78495258844318,32.08771715],"bbox":[34.7424189,32.0293437,34.8522617,32.1460721]},{"name":"×ª×œÖ¾××‘×™×‘â€“×™×¤×•","other_names":{"name:am":"á‰´áˆ áŠ á‰ªá‰­-á‹«á","name:ar":"ØªÙ„ Ø£Ø¨ÙŠØ¨ â€“ ÙŠØ§ÙØ§","name:de":"Tel-Aviv","name:el":"Î¤ÎµÎ» Î‘Î²Î¯Î²","name:en":"Tel-Aviv","name:es":"Tel-Aviv","name:et":"Tel-Aviv","name:fa":"ØªÙ„ Ø¢ÙˆÛŒÙˆ-ÛŒØ§ÙØ§","name:fi":"Tel-Aviv","name:fr":"Tel-Aviv","name:he":"×ª×œÖ¾××‘×™×‘â€“×™×¤×•","name:hi":"à¤¤à¥‡à¤² à¤…à¤µà¤¿à¤µ","name:hr":"Tel-Aviv","name:ko":"í…”ì•„ë¹„ë¸Œ","name:lb":"Tel-Aviv","name:pl":"Tel-Awiw","name:ro":"Tel-Aviv","name:ru":"Ğ¢ĞµĞ»ÑŒ-ĞĞ²Ğ¸Ğ²","name:sk":"Tel-Aviv","name:uk":"Ğ¢ĞµĞ»ÑŒ-ĞĞ²Ñ–Ğ²","name:ur":"ØªÙ„ Ø§Ø¨ÛŒØ¨","name:zh":"ç‰¹æ‹‰ç¶­å¤«-é›…æ³•","name:arc":"Ü¬Ü  ÜÜ’ÜÜ’","name:he1":"×ªÖµÖ¼×œÖ¾×Ö¸×‘Ö´×™×‘â€“×™Ö¸×¤×•Ö¹","name:he2":"×ª×œ ××‘×™×‘","short_name":"×ª×œ ××‘×™×‘","name:zh-Hans":"ç‰¹æ‹‰ç»´å¤«-é›…æ³•","name:zh-Hant":"ç‰¹æ‹‰ç¶­å¤«-é›…æ³•","name:af":"Tel Aviv","name:az":"TÉ™l-Æviv","name:ba":"Ğ¢ĞµĞ»ÑŒ-ĞĞ²Ğ¸Ğ²","name:be":"Ğ¢ÑĞ»ÑŒ-ĞĞ²Ñ–Ñ","name:bg":"Ğ¢ĞµĞ» ĞĞ²Ğ¸Ğ²","name:bn":"à¦¤à§‡à¦² à¦†à¦¬à¦¿à¦¬","name:br":"Tel Aviv","name:bs":"Tel Aviv","name:ca":"Tel-Aviv","name:ce":"Ğ¢ĞµĞ»ÑŒ-ĞĞ²Ğ¸Ğ²","name:co":"Tel Aviv","name:cs":"Tel Aviv","name:cv":"Ğ¢ĞµĞ»ÑŒ-ĞĞ²Ğ¸Ğ²","name:cy":"Tel Aviv","name:da":"Tel Aviv","name:eo":"Tel-Avivo","name:eu":"Tel Aviv","name:fo":"Tel Aviv-Jaffa","name:fy":"Tel Aviv","name:ga":"Tel Aviv","name:gd":"Tel Aviv","name:gl":"Tel Aviv","name:gn":"Tel Aviv","name:gv":"Tel Aviv","name:ha":"Tel Abib","name:ht":"Tel Aviv","name:hu":"Tel-Aviv","name:hy":"Ô¹Õ¥Õ¬ Ô±Õ¾Õ«Õ¾","name:ia":"Tel Aviv","name:id":"Tel Aviv","name:ie":"Tel Aviv","name:io":"Tel Aviv","name:is":"Tel AvÃ­v","name:it":"Tel Aviv","name:ja":"ãƒ†ãƒ«ã‚¢ãƒ“ãƒ–","name:jv":"Tel Aviv","name:ka":"áƒ—áƒ”áƒš-áƒáƒ•áƒ˜áƒ•áƒ˜","name:kk":"Ğ¢ĞµĞ»ÑŒ-ĞĞ²Ğ¸Ğ²","name:kn":"à²¤à³‡à²²à³ à²…à²µà²¿à²µà³","name:ku":"Tel EvÃ®v","name:ky":"Ğ¢ĞµĞ»ÑŒ-ĞĞ²Ğ¸Ğ²","name:la":"Telavivum","name:li":"Tel Aviv","name:lt":"Tel Avivas","name:lv":"Telaviva","name:mg":"Tel-Aviv-Jaffa","name:mi":"Terawiwi","name:mk":"Ğ¢ĞµĞ» ĞĞ²Ğ¸Ğ²","name:ml":"à´¤àµ†àµ½ à´…à´µàµ€à´µàµ","name:mn":"Ğ¢ĞµĞ»-ĞĞ²Ğ¸Ğ²","name:mr":"à¤¤à¥‡à¤² à¤…à¤µà¥€à¤µ","name:ms":"Tel Aviv","name:mt":"Tel Aviv-Jaffa","name:nb":"Tel Aviv","name:ne":"à¤¤à¥‡à¤² à¤…à¤­à¤¿à¤­","name:nl":"Tel Aviv","name:nn":"Tel Aviv","name:oc":"Tel Aviv","name:os":"Ğ¢ĞµĞ»ÑŒ-ĞĞ²Ğ¸Ğ²","name:pa":"à¨¤à¨² à¨…à¨µà©€à¨µ","name:pt":"Tel Aviv","name:qu":"Tel Aviv","name:rw":"Tel Aviv","name:sc":"Tel Aviv","name:si":"à¶§à·™à¶½à·Š à¶…à·€à·’à·€à·Š","name:sl":"Tel Aviv","name:sq":"Tel Aviv-Jafa","name:sr":"Ğ¢ĞµĞ» ĞĞ²Ğ¸Ğ²","name:sv":"Tel Aviv","name:sw":"Tel Aviv","name:ta":"à®Ÿà¯†à®²à¯ à®…à®µà¯€à®µà¯","name:te":"à°Ÿà±†à°²à± à°…à°µà±€à°µà±","name:tg":"Ğ¢ĞµĞ»-ĞĞ²Ğ¸Ğ²","name:th":"à¹€à¸—à¸¥à¸­à¸²à¸§à¸µà¸Ÿ","name:tk":"Tel Awiw","name:tl":"Tel-Abib","name:tr":"Tel Aviv","name:tt":"Tel-Ã„viv","name:ug":"ØªÛÙ„Ø§Û‹Ù‰Ù","name:uz":"Tel-Aviv","name:vi":"Tel Aviv","name:vo":"Tel Aviv","name:yi":"×ª×œ ××‘×™×‘ - ×™×¤×•","name:ckb":"ØªÛÙ„ Ø¦Û•Ú¤ÛŒÚ¤","name:kab":"Tel Aviv","alt_name:cs":"JarnÃ­ Pahorek","official_name:ar":"ØªÙ„ Ø§Ù„Ø±Ø¨ÙŠØ¹","official_name:cs":"Tel Aviv - Jaffa","official_name:de":"Tel Aviv - Jaffa","official_name:en":"Tel Aviv - Yafo","official_name:fr":"Tel Aviv - Jaffa","official_name:pl":"Tel Awiw - Jafa","official_name:ru":"Ğ¢ĞµĞ»ÑŒ - ĞĞ²Ğ¸Ğ²-Ğ¯Ñ„Ñ„Ğ°","official_name:sk":"Tel Aviv - Jafo","official_name:uk":"Ğ¢ĞµĞ»ÑŒ-ĞĞ²Ñ–Ğ² - Ğ¯Ñ„Ğ¾","alt":"×ª×œ ××‘×™×‘â€“×™×¤×•","alt:am":"á‰´áˆ áŠ á‰ªá‰­","alt:de":"Tel Aviv","alt:en":"Tel Aviv","alt:es":"Tel Aviv","alt:et":"Tel Aviv","alt:fa":"ØªÙ„â€ŒØ¢ÙˆÛŒÙˆ","alt:fi":"Tel Aviv","alt:fr":"Tel Aviv","alt:he":"×ª×œ ××‘×™×‘â€“×™×¤×•","alt:hr":"Tel Aviv","alt:lb":"Tel Aviv-Jaffa","alt:pl":"Tel Awiw","alt:ro":"Tel Aviv","alt:sk":"Tel Aviv","alt:ur":"ÛŒØ§ÙØ§","alt:zh":"ç‰¹æ‹‰ç»´å¤«","alt:he1":"×ªÖµÖ¼×œ ×Ö¸×‘Ö´×™×‘â€“×™Ö¸×¤×•Ö¹","alt:zh-Hant":"ç‰¹æ‹‰ç¶­å¤«"},"display_name":"×ª×œÖ¾××‘×™×‘â€“×™×¤×•, × ×¤×ª ×ª×œ ××‘×™×‘, ××—×•×– ×ª×œ ××‘×™×‘, ×™×©×¨××œ","address":{"city":"×ª×œÖ¾××‘×™×‘â€“×™×¤×•","state_district":"× ×¤×ª ×ª×œ ××‘×™×‘","state":"××—×•×– ×ª×œ ××‘×™×‘","ISO3166-2-lvl4":"IL-TA","country":"×™×©×¨××œ","country_code":"il"},"population":438818,"osm_type":"relation","osm_id":1382494,"type":"administrative","location":[34.7818064,32.0852997],"bbox":[34.739131,32.0293437,34.8522617,32.1469766]}]}
{"name":"Ø¨Ø³Ù…Ø©","other_names":{"name:ar":"Ø¨Ø³Ù…Ø©","name:en":"Basma","name:fr":"Basma","name:he":"×‘×¡×\"×”"},"display_name":"Ø¨Ø³Ù…Ø©, × ×¤×ª ×—×“×¨×”, ××—×•×– ×—×™×¤×”, 3002300, ×™×©×¨××œ","address":{"city":"Ø¨Ø³Ù…Ø©","state_district":"× ×¤×ª ×—×“×¨×”","state":"××—×•×– ×—×™×¤×”","ISO3166-2-lvl4":"IL-HA","postcode":"3002300","country":"×™×©×¨××œ","country_code":"il"},"osm_type":"relation","osm_id":1391826,"type":"administrative","location":[35.104832753720274,32.53230915],"bbox":[35.0769159,32.4681846,35.1244963,32.5432061],"inferred_type":"city"}
{"name":"Ø²ÙŠÙ…Ø±â€","other_names":{"name:ar":"Ø²ÙŠÙ…Ø±â€","name:en":"Zemer","name:fr":"Zemer","name:he":"×–××¨"},"display_name":"Ø²ÙŠÙ…Ø±â€, × ×¤×ª ×”×©×¨×•×Ÿ, ××—×•×– ×”××¨×›×–, ×™×©×¨××œ","address":{"city":"Ø²ÙŠÙ…Ø±â€","state_district":"× ×¤×ª ×”×©×¨×•×Ÿ","state":"××—×•×– ×”××¨×›×–","ISO3166-2-lvl4":"IL-M","country":"×™×©×¨××œ","country_code":"il"},"osm_type":"relation","osm_id":1398018,"type":"administrative","location":[35.03251314416771,32.36220995],"bbox":[35.0143065,32.3464481,35.0516079,32.3778044],"inferred_type":"city"}
{"name":"Ø·Ù„Ø¹Ø© Ø¹Ø§Ø±Ø©","other_names":{"name:ar":"Ø·Ù„Ø¹Ø© Ø¹Ø§Ø±Ø©","name:en":"Maale Iron","name:fr":"Ma'ale Iron","name:he":"××¢×œ×” ×¢×™×¨×•×Ÿ","alt_name:ar":"Ù…Ø¹Ø§Ù„ÙŠÙ‡ Ø¹ÙŠØ±ÙˆÙ†"},"display_name":"Ø·Ù„Ø¹Ø© Ø¹Ø§Ø±Ø©, × ×¤×ª ×—×“×¨×”, ××—×•×– ×—×™×¤×”, ×™×©×¨××œ","address":{"city":"Ø·Ù„Ø¹Ø© Ø¹Ø§Ø±Ø©","state_district":"× ×¤×ª ×—×“×¨×”","state":"××—×•×– ×—×™×¤×”","ISO3166-2-lvl4":"IL-HA","country":"×™×©×¨××œ","country_code":"il"},"osm_type":"relation","osm_id":1380230,"type":"administrative","location":[35.15448566167521,32.5494975],"bbox":[35.142162,32.5363928,35.209244,32.562915],"inferred_type":"city"}
{"name":"ÙƒÙØ± Ù‚Ø±Ø¹","other_names":{"name:ar":"ÙƒÙØ± Ù‚Ø±Ø¹","name:en":"Kfar Kara","name:fr":"Kafr Qara","name:he":"×›×¤×¨ ×§×¨×¢","name:ml":"à´•à´«àµ¼ à´–à´±","name:ru":"ĞšĞ°Ñ„Ñ€-ĞšĞ°Ñ€Ğ°","name:en1":"Kafr Qari","name:en2":"Kafr Qara"},"display_name":"ÙƒÙØ± Ù‚Ø±Ø¹, × ×¤×ª ×—×“×¨×”, ××—×•×– ×—×™×¤×”, ×™×©×¨××œ","address":{"city":"ÙƒÙØ± Ù‚Ø±Ø¹","state_district":"× ×¤×ª ×—×“×¨×”","state":"××—×•×– ×—×™×¤×”","ISO3166-2-lvl4":"IL-HA","country":"×™×©×¨××œ","country_code":"il"},"osm_type":"node","osm_id":278473398,"type":"city","location":[35.0504995,32.5029914],"bbox":[34.8904995,32.3429914,35.2104995,32.6629914]}
{"name":"Ù…Ø¬Ù„Ø³ Ø¥Ù‚Ù„ÙŠÙ…ÙŠ Ø§Ù„Ø¨Ø·ÙˆÙ","other_names":{"name:ar":"Ù…Ø¬Ù„Ø³ Ø¥Ù‚Ù„ÙŠÙ…ÙŠ Ø§Ù„Ø¨Ø·ÙˆÙ","name:cs":"OblastnÃ­ rada al-BatÃºf","name:en":"Al Batuf Regional Council","name:fr":"Al-Batuf","name:he":"××•×¢×¦×” ××–×•×¨×™×ª ××œ ×‘×˜×•×£","name:nl":"Regionale raad van al-Batuf","name:nn":"Al-Batuf regionale kommune","name:pl":"SamorzÄ…d Regionu Al-Batuf","name:ru":"ĞĞ»ÑŒ-Ğ‘Ğ°Ñ‚ÑƒÑ„","name:ar1":"Ø§Ù„Ù…Ø¬Ù„Ø³ Ø§Ù„Ø¥Ù‚Ù„ÙŠÙ…ÙŠ Ø§Ù„Ø¨Ø·ÙˆÙ","name:ar2":"Ù…Ù†Ø·Ù‚Ø© Ø¢Ù…Ø§Ø±ÛŒ Ø§Ù„Ø¨Ø·ÙˆÙ","short_name:ar":"Ø§Ù„Ø¨Ø·ÙˆÙ"},"display_name":"Ù…Ø¬Ù„Ø³ Ø¥Ù‚Ù„ÙŠÙ…ÙŠ Ø§Ù„Ø¨Ø·ÙˆÙ, × ×¤×ª ×™×–×¨×¢××œ, ××—×•×– ×”×¦×¤×•×Ÿ, ×™×©×¨××œ","address":{"city":"Ù…Ø¬Ù„Ø³ Ø¥Ù‚Ù„ÙŠÙ…ÙŠ Ø§Ù„Ø¨Ø·ÙˆÙ","state_district":"× ×¤×ª ×™×–×¨×¢××œ","state":"××—×•×– ×”×¦×¤×•×Ÿ","ISO3166-2-lvl4":"IL-Z","country":"×™×©×¨××œ","country_code":"il"},"osm_type":"relation","osm_id":1386838,"type":"administrative","location":[35.30336231864953,32.78339225],"bbox":[35.2965171,32.7673738,35.5018234,32.8331735],"inferred_type":"city"}
{"name":"Ù…Ø¬Ù„Ø³ Ø¥Ù‚Ù„ÙŠÙ…ÙŠ Ø§Ù„Ù‚ÙŠØµÙˆÙ…","other_names":{"name:ar":"Ù…Ø¬Ù„Ø³ Ø¥Ù‚Ù„ÙŠÙ…ÙŠ Ø§Ù„Ù‚ÙŠØµÙˆÙ…","name:en":"al-Qasoum Regional Council","name:fr":"Al-Kasom","name:he":"××•×¢×¦×” ××–×•×¨×™×ª ××œ-×§×¡×•×"},"display_name":"Ù…Ø¬Ù„Ø³ Ø¥Ù‚Ù„ÙŠÙ…ÙŠ Ø§Ù„Ù‚ÙŠØµÙˆÙ…, × ×¤×ª ×‘××¨ ×©×‘×¢, ××—×•×– ×”×“×¨×•×, ×™×©×¨××œ","address":{"city":"Ù…Ø¬Ù„Ø³ Ø¥Ù‚Ù„ÙŠÙ…ÙŠ Ø§Ù„Ù‚ÙŠØµÙˆÙ…","state_district":"× ×¤×ª ×‘××¨ ×©×‘×¢","state":"××—×•×– ×”×“×¨×•×","ISO3166-2-lvl4":"IL-D","country":"×™×©×¨××œ","country_code":"il"},"osm_type":"relation","osm_id":10052487,"type":"administrative","location":[34.97391652601149,31.25288285],"bbox":[34.7274311,31.2374408,35.0897327,31.3506355],"inferred_type":"city"}
{"name":"Ù…Ø¬Ù„Ø³ Ø¥Ù‚Ù„ÙŠÙ…ÙŠ Ø¨Ø³ØªØ§Ù† Ø§Ù„Ù…Ø±Ø¬","other_names":{"name:ar":"Ù…Ø¬Ù„Ø³ Ø¥Ù‚Ù„ÙŠÙ…ÙŠ Ø¨Ø³ØªØ§Ù† Ø§Ù„Ù…Ø±Ø¬","name:en":"Bustan Al Marj Regional Council","name:fr":"Bustan al-Marj","name:he":"××•×¢×¦×” ××–×•×¨×™×ª ×‘×•×¡×ª×Ÿ-××œ-××¨×’'","alt_name:ar":"Ø§Ù„Ù…Ø¬Ù„Ø³ Ø§Ù„Ø¥Ù‚Ù„ÙŠÙ…ÙŠ Ø¨Ø³ØªØ§Ù† Ø§Ù„Ù…Ø±Ø¬","short_name:ar":"Ø¨Ø³ØªØ§Ù† Ø§Ù„Ù…Ø±Ø¬"},"display_name":"Ù…Ø¬Ù„Ø³ Ø¥Ù‚Ù„ÙŠÙ…ÙŠ Ø¨Ø³ØªØ§Ù† Ø§Ù„Ù…Ø±Ø¬, × ×¤×ª ×™×–×¨×¢××œ, ××—×•×– ×”×¦×¤×•×Ÿ, ×™×©×¨××œ","address":{"city":"Ù…Ø¬Ù„Ø³ Ø¥Ù‚Ù„ÙŠÙ…ÙŠ Ø¨Ø³ØªØ§Ù† Ø§Ù„Ù…Ø±Ø¬","state_district":"× ×¤×ª ×™×–×¨×¢××œ","state":"××—×•×– ×”×¦×¤×•×Ÿ","ISO3166-2-lvl4":"IL-Z","country":"×™×©×¨××œ","country_code":"il"},"osm_type":"relation","osm_id":1380227,"type":"administrative","location":[35.421101612347016,32.64338025],"bbox":[35.3299978,32.6019055,35.4370626,32.6557719],"inferred_type":"city"}
{"name":"Ù…Ø¬Ù„Ø³ Ø¥Ù‚Ù„ÙŠÙ…ÙŠ ÙˆØ§Ø­Ø© Ø§Ù„ØµØ­Ø±Ø§Ø¡","other_names":{"name:ar":"Ù…Ø¬Ù„Ø³ Ø¥Ù‚Ù„ÙŠÙ…ÙŠ ÙˆØ§Ø­Ø© Ø§Ù„ØµØ­Ø±Ø§Ø¡","name:en":"Neve Midbar Regional Council","name:fr":"Neve Midbar","name:he":"××•×¢×¦×” ××–×•×¨×™×ª × ×•×•×” ××“×‘×¨","alt_name:ar":"Ù…Ø¬Ù„Ø³ Ø¥Ù‚Ù„ÙŠÙ…ÙŠ Ù†ÙŠÙÙ‰ Ù…ÙŠØ¯Ø¨Ø§Ø±","alt_name:en":"Wahat a-Sahra Regional Council","alt_name:he":"××•×¢×¦×” ××–×•×¨×™×ª ×•×•××—×ª ×-×¡×—×¨×"},"display_name":"Ù…Ø¬Ù„Ø³ Ø¥Ù‚Ù„ÙŠÙ…ÙŠ ÙˆØ§Ø­Ø© Ø§Ù„ØµØ­Ø±Ø§Ø¡, × ×¤×ª ×‘××¨ ×©×‘×¢, ××—×•×– ×”×“×¨×•×, ×™×©×¨××œ","address":{"city":"Ù…Ø¬Ù„Ø³ Ø¥Ù‚Ù„ÙŠÙ…ÙŠ ÙˆØ§Ø­Ø© Ø§Ù„ØµØ­Ø±Ø§Ø¡","state_district":"× ×¤×ª ×‘××¨ ×©×‘×¢","state":"××—×•×– ×”×“×¨×•×","ISO3166-2-lvl4":"IL-D","country":"×™×©×¨××œ","country_code":"il"},"osm_type":"relation","osm_id":1376830,"type":"administrative","location":[34.933303234234444,31.181941899999998],"bbox":[34.6830062,31.0113943,35.0100261,31.2006079],"inferred_type":"city"}
