{"name":"Bata","other_names":{"name:an":"Bata","name:ar":"باتا","name:be":"Бата","name:bg":"Бата","name:ca":"Bata","name:cs":"Bata","name:de":"Bata","name:en":"Bata","name:eo":"Batao","name:es":"Bata","name:fa":"باتا","name:fr":"Bata","name:gl":"Bata","name:gn":"Bata","name:he":"באטה","name:hr":"Bata","name:hu":"Bata","name:id":"Bata","name:it":"Bata","name:ja":"バタ","name:ka":"ბატა","name:kk":"Бата","name:ko":"바타","name:ks":"باتا","name:lt":"Bata","name:nl":"Bata","name:oc":"Bata","name:pl":"Bata","name:ps":"باتا","name:pt":"Bata","name:ro":"Bata","name:ru":"Бата","name:sk":"Bata","name:sr":"Бата","name:sv":"Bata","name:sw":"Bata","name:ta":"பாட்டா","name:th":"บาตา","name:uk":"Бата","name:ur":"باتا","name:vi":"Bata","name:zh":"巴塔","name:zu":"Bata","name:azb":"باتا","name:az-Arab":"باتا","name:zh-Hans":"巴塔"},"display_name":"Bata, Litoral, Región Continental, Guinea Ecuatorial","address":{"city":"Bata","county":"Bata","state":"Litoral","ISO3166-2-lvl4":"GQ-LI","region":"Región Continental","ISO3166-2-lvl3":"GQ-C","country":"Guinea Ecuatorial","country_code":"gq"},"population":230282,"osm_type":"node","osm_id":251608438,"type":"city","location":[9.7720137,1.869189],"bbox":[9.6120137,1.709189,9.9320137,2.029189],"border":[{"name":"Bata","other_names":{"name:ar":"باتا","name:de":"Bata","name:es":"Bata","name:fa":"باتا","name:ks":"باتا","name:ps":"باتا","name:ur":"باتا","name:azb":"باتا","name:az-Arab":"باتا"},"display_name":"Bata, Litoral, Región Continental, Guinea Ecuatorial","address":{"county":"Bata","state":"Litoral","ISO3166-2-lvl4":"GQ-LI","region":"Región Continental","ISO3166-2-lvl3":"GQ-C","country":"Guinea Ecuatorial","country_code":"gq"},"osm_type":"relation","osm_id":12718967,"type":"administrative","location":[9.908768301060093,2.0064092000000002],"bbox":[9.6616253,1.6646666,10.0248098,2.3488584]},{"name":"Bata","other_names":{"name:ar":"باتا","name:de":"Bata","name:es":"Bata","name:fa":"باتا","name:ks":"باتا","name:ps":"باتا","name:ur":"باتا","name:azb":"باتا","name:az-Arab":"باتا","name:an":"Bata","name:be":"Бата","name:bg":"Бата","name:ca":"Bata","name:cs":"Bata","name:en":"Bata","name:eo":"Batao","name:fr":"Bata","name:gl":"Bata","name:gn":"Bata","name:he":"באטה","name:hr":"Bata","name:hu":"Bata","name:id":"Bata","name:it":"Bata","name:ja":"バタ","name:ka":"ბატა","name:kk":"Бата","name:ko":"바타","name:lt":"Bata","name:nl":"Bata","name:oc":"Bata","name:pl":"Bata","name:pt":"Bata","name:ro":"Bata","name:ru":"Бата","name:sk":"Bata","name:sr":"Бата","name:sv":"Bata","name:sw":"Bata","name:ta":"பாட்டா","name:th":"บาตา","name:uk":"Бата","name:vi":"Bata","name:zh":"巴塔","name:zu":"Bata","name:zh-Hans":"巴塔"},"display_name":"Bata, Litoral, Región Continental, Guinea Ecuatorial","address":{"city":"Bata","county":"Bata","state":"Litoral","ISO3166-2-lvl4":"GQ-LI","region":"Región Continental","ISO3166-2-lvl3":"GQ-C","country":"Guinea Ecuatorial","country_code":"gq"},"population":230282,"osm_type":"relation","osm_id":12719581,"type":"administrative","location":[9.7720137,1.869189],"bbox":[9.6616253,1.6646666,10.0163126,1.9831672]}]}
{"name":"Ciudad de la Paz","other_names":{"name:ar":"سيوداد دي لا باز","name:ca":"Oyala","name:de":"Ciudad de la Paz","name:en":"Ciudad de la Paz","name:es":"Ciudad de la Paz","name:fa":"سیوداد دلاپاز","name:ur":"سیوداد دے لا پاز","old_name":"Oyala","alt_name:es":"Oyalá;Oyala;Oyala-Ciudad de la Paz"},"display_name":"Ciudad de la Paz, Djibloho, Región Continental, Guinea Ecuatorial","address":{"city":"Ciudad de la Paz","state":"Djibloho","ISO3166-2-lvl4":"GQ-DJ","region":"Región Continental","ISO3166-2-lvl3":"GQ-C","country":"Guinea Ecuatorial","country_code":"gq"},"osm_type":"node","osm_id":3346995825,"type":"city","location":[10.8268276,1.5994535],"bbox":[10.6668276,1.4394535,10.9868276,1.7594535],"border":{"name":"Ciudad de la Paz","other_names":{"name:ar":"سيوداد دي لا باز","name:de":"Ciudad de la Paz","name:en":"Ciudad de la Paz","name:es":"Ciudad de la Paz","name:fa":"سیوداد دلاپاز","name:ur":"سیوداد دے لا پاز","alt_name":"Oyalá;Oyala;Oyala-Ciudad de la Paz","alt_name:es":"Oyalá;Oyala;Oyala-Ciudad de la Paz","name:ca":"Oyala","old_name":"Oyala"},"display_name":"Ciudad de la Paz, Djibloho, Región Continental, Guinea Ecuatorial","address":{"city":"Ciudad de la Paz","state":"Djibloho","ISO3166-2-lvl4":"GQ-DJ","region":"Región Continental","ISO3166-2-lvl3":"GQ-C","country":"Guinea Ecuatorial","country_code":"gq"},"osm_type":"relation","osm_id":12719613,"type":"administrative","location":[10.8268276,1.5994535],"bbox":[10.7025718,1.4833748,10.8826017,1.7130969]}}
{"name":"Ebebiyín","other_names":{"name:ar":"إيبيبين","name:es":"Ebebiyín","name:fa":"ابیبیئن","name:fr":"Ebebiyin","name:ko":"에베비인","name:ru":"Эбебийин","name:ur":"ابیبیلین","name:zh":"埃贝比因","alt_name":"Ebebiying","alt_name:es":"Ebebiying","alt_name:fr":"Ebebiying","name:zh-Hans":"埃贝比因"},"display_name":"Ebebiyín, Kié-Ntem, Región Continental, Guinea Ecuatorial","address":{"city":"Ebebiyín","state":"Kié-Ntem","ISO3166-2-lvl4":"GQ-KN","region":"Región Continental","ISO3166-2-lvl3":"GQ-C","country":"Guinea Ecuatorial","country_code":"gq"},"population":36565,"osm_type":"node","osm_id":520140660,"type":"city","location":[11.3370815,2.1537363],"bbox":[11.1770815,1.9937363,11.4970815,2.3137363],"border":[{"name":"Ebebiyín","other_names":{"name:ar":"إيبيبين","name:es":"Ebebiyín","name:fa":"ابیبیئن","name:fr":"Ebebiyin","name:uk":"Ебебіїн","name:ur":"ابیبیلین","alt_name":"Ebebiying","alt_name:es":"Ebebiying","alt_name:fr":"Ebebiying","name:ko":"에베비인","name:ru":"Эбебийин","name:zh":"埃贝比因","name:zh-Hans":"埃贝比因"},"display_name":"Ebebiyín, Kié-Ntem, Región Continental, Guinea Ecuatorial","address":{"city":"Ebebiyín","state":"Kié-Ntem","ISO3166-2-lvl4":"GQ-KN","region":"Región Continental","ISO3166-2-lvl3":"GQ-C","country":"Guinea Ecuatorial","country_code":"gq"},"population":36565,"osm_type":"relation","osm_id":12718770,"type":"administrative","location":[11.3370815,2.1537363],"bbox":[10.9557778,1.7417514,11.4113617,2.1944415]},{"name":"Ebebiyín","other_names":{"name:ar":"إيبيبين","name:es":"Ebebiyín","name:fa":"ابیبیئن","name:fr":"Ebebiyin","name:uk":"Ебебіїн","name:ur":"ابیبیلین","alt_name":"Ebebiying","alt_name:es":"Ebebiying","alt_name:fr":"Ebebiying"},"display_name":"Ebebiyín, Kié-Ntem, Región Continental, Guinea Ecuatorial","address":{"city_district":"Ebebiyín","city":"Ebebiyín","state":"Kié-Ntem","ISO3166-2-lvl4":"GQ-KN","region":"Región Continental","ISO3166-2-lvl3":"GQ-C","country":"Guinea Ecuatorial","country_code":"gq"},"osm_type":"relation","osm_id":12719615,"type":"administrative","location":[11.25247509635614,1.96027745],"bbox":[11.1742114,1.7417514,11.4113617,2.1810746]}]}
{"name":"Evinayong","other_names":{"name:ar":"إيفينايونغ","name:de":"Evinayong","name:es":"Evinayong","name:fr":"Evinayong","name:ru":"Эвинайонг","name:ur":"ایوینایونگ","name:zh":"埃维纳永","name:zh-Hans":"埃维纳永"},"display_name":"Evinayong, Centro Sur, Región Continental, Guinea Ecuatorial","address":{"city":"Evinayong","state":"Centro Sur","ISO3166-2-lvl4":"GQ-CS","region":"Región Continental","ISO3166-2-lvl3":"GQ-C","country":"Guinea Ecuatorial","country_code":"gq"},"population":36521,"osm_type":"node","osm_id":667649688,"type":"city","location":[10.5516564,1.4388356],"bbox":[10.3916564,1.2788356,10.7116564,1.5988356],"border":[{"name":"Evinayong","other_names":{"name:de":"Evinayong","name:es":"Evinayong","name:ur":"ایوینایونگ","name:ar":"إيفينايونغ","name:fr":"Evinayong","name:ru":"Эвинайонг","name:zh":"埃维纳永","name:zh-Hans":"埃维纳永"},"display_name":"Evinayong, Centro Sur, Región Continental, Guinea Ecuatorial","address":{"city":"Evinayong","state":"Centro Sur","ISO3166-2-lvl4":"GQ-CS","region":"Región Continental","ISO3166-2-lvl3":"GQ-C","country":"Guinea Ecuatorial","country_code":"gq"},"population":36521,"osm_type":"relation","osm_id":12718869,"type":"administrative","location":[10.5516564,1.4388356],"bbox":[10.0429201,1.1571321,10.7477188,1.7530758]},{"name":"Evinayong","other_names":{"name:de":"Evinayong","name:es":"Evinayong","name:ur":"ایوینایونگ"},"display_name":"Evinayong, Centro Sur, Región Continental, Guinea Ecuatorial","address":{"city_district":"Evinayong","city":"Evinayong","state":"Centro Sur","ISO3166-2-lvl4":"GQ-CS","region":"Región Continental","ISO3166-2-lvl3":"GQ-C","country":"Guinea Ecuatorial","country_code":"gq"},"osm_type":"relation","osm_id":12719073,"type":"administrative","location":[10.546613891666667,1.37429655],"bbox":[10.3228998,1.1602659,10.7477188,1.5880935]}]}
{"name":"Malabo","other_names":{"name:am":"ማላቦ","name:ar":"مالابو","name:be":"Малаба","name:bg":"Малабо","name:bo":"མ་ལ་བོ།","name:br":"Malabo","name:ca":"Malabo","name:cs":"Malabo","name:de":"Malabo","name:el":"Μαλάμπο","name:en":"Malabo","name:es":"Malabo","name:fa":"مالابو","name:fr":"Malabo","name:he":"מלאבו","name:hu":"Malabo","name:hy":"Մալաբո","name:is":"Malabó","name:it":"Malabo","name:ja":"マラボ","name:ka":"მალაბო","name:ko":"말라보","name:ky":"Малабо","name:lt":"Malabas","name:mk":"Малабо","name:mr":"मलाबो","name:nl":"Malabo","name:no":"Malabo","name:oc":"Malabo","name:pl":"Malabo","name:pt":"Malabo","name:ru":"Малабо","name:sr":"Малабо","name:sv":"Malabo","name:tg":"Малабо","name:th":"มาลาโบ","name:tr":"Malabo","name:uk":"Малабо","name:ur":"ملابو","name:zh":"马拉博","name:ckb":"مالابۆ","name:mrj":"Малабо","name:pnb":"مالابو","name:udm":"Малабо","name:yue":"馬拉博","old_name":"Santa Isabel","name:zh-Hans":"马拉博","name:zh-Hant":"馬拉博","name:be-tarask":"Маляба"},"display_name":"Malabo, Distrito de Malabo, Bioko Norte, Región Insular, Guinea Ecuatorial","address":{"city":"Malabo","state_district":"Distrito de Malabo","state":"Bioko Norte","ISO3166-2-lvl4":"GQ-BN","region":"Región Insular","ISO3166-2-lvl3":"GQ-I","country":"Guinea Ecuatorial","country_code":"gq"},"population":297000,"osm_type":"node","osm_id":292521364,"type":"city","location":[8.7740663,3.741877],"bbox":[8.6140663,3.581877,8.9340663,3.901877]}
{"name":"Mongomo","other_names":{"name:ar":"مونغومو","name:de":"Mongomo","name:es":"Mongomo","name:fr":"Mongomo","name:ko":"몽고모","name:ru":"Монгомо","name:zh":"蒙戈莫","old_name":"Mongomo de Guadalupe","old_name:es":"Mongomo de Guadalupe","old_name:fr":"Mongomo de Guadeloupe","name:zh-Hans":"蒙戈莫"},"display_name":"Mongomo, Wele-Nzas, Región Continental, Guinea Ecuatorial","address":{"city":"Mongomo","state":"Wele-Nzas","ISO3166-2-lvl4":"GQ-WN","region":"Región Continental","ISO3166-2-lvl3":"GQ-C","country":"Guinea Ecuatorial","country_code":"gq"},"osm_type":"node","osm_id":667651748,"type":"city","location":[11.3184671,1.6282551],"bbox":[11.1584671,1.4682551,11.4784671,1.7882551],"border":[{"name":"Mongomo","other_names":{"name:de":"Mongomo","name:es":"Mongomo","old_name":"Mongomo de Guadalupe","old_name:es":"Mongomo de Guadalupe","name:ar":"مونغومو","name:fr":"Mongomo","name:ko":"몽고모","name:ru":"Монгомо","name:zh":"蒙戈莫","old_name:fr":"Mongomo de Guadeloupe","name:zh-Hans":"蒙戈莫"},"display_name":"Mongomo, Wele-Nzas, Región Continental, Guinea Ecuatorial","address":{"city":"Mongomo","state":"Wele-Nzas","ISO3166-2-lvl4":"GQ-WN","region":"Región Continental","ISO3166-2-lvl3":"GQ-C","country":"Guinea Ecuatorial","country_code":"gq"},"osm_type":"relation","osm_id":12718760,"type":"administrative","location":[11.3184671,1.6282551],"bbox":[10.9032632,1.4711047,11.3815439,1.8162165]},{"name":"Mongomo","other_names":{"name:de":"Mongomo","name:es":"Mongomo","old_name":"Mongomo de Guadalupe","old_name:es":"Mongomo de Guadalupe"},"display_name":"Mongomo, Wele-Nzas, Región Continental, Guinea Ecuatorial","address":{"city_district":"Mongomo","city":"Mongomo","state":"Wele-Nzas","ISO3166-2-lvl4":"GQ-WN","region":"Región Continental","ISO3166-2-lvl3":"GQ-C","country":"Guinea Ecuatorial","country_code":"gq"},"osm_type":"relation","osm_id":12719597,"type":"administrative","location":[11.263195436833199,1.6438613],"bbox":[11.1030578,1.4711047,11.3815439,1.8162165]}]}
