{"name":"Abomey-Calavi","other_names":{"name:ar":"عبومي كالاوي","name:de":"Abomey-Calavi","name:fr":"Abomey-Calavi","name:ru":"Абомей-Калави","short_name":"Calavi","short_name:ar":"كالاوي"},"display_name":"Abomey-Calavi, Atlantique, Bénin","address":{"city":"Abomey-Calavi","county":"Abomey-Calavi","state":"Atlantique","ISO3166-2-lvl4":"BJ-AQ","country":"Bénin","country_code":"bj"},"population":650000,"osm_type":"node","osm_id":1660451359,"type":"city","location":[2.354245,6.4538637],"bbox":[2.194245,6.2938637,2.514245,6.6138637],"border":{"name":"Abomey-Calavi","other_names":{"name:ar":"عبومي كالاوي","name:fr":"Abomey-Calavi","official_name":"Commune d'Abomey-Calavi","official_name:ar":"بلدية عبومي كالاوي"},"display_name":"Abomey-Calavi, Atlantique, Bénin","address":{"county":"Abomey-Calavi","state":"Atlantique","ISO3166-2-lvl4":"BJ-AQ","country":"Bénin","country_code":"bj"},"osm_type":"relation","osm_id":2946172,"type":"administrative","location":[2.3303076367454025,6.51096225],"bbox":[2.2296377,6.3438819,2.445889,6.6805346]}}
{"name":"Abomey","other_names":{"name:ar":"أبومية","name:fr":"Abomey","name:ko":"아보메","name:ru":"Абомей","name:uk":"Абомей"},"display_name":"Abomey, Zou, Bénin","address":{"city":"Abomey","county":"Abomey","state":"Zou","ISO3166-2-lvl4":"BJ-ZO","country":"Bénin","country_code":"bj"},"population":100000,"osm_type":"node","osm_id":313015845,"type":"city","location":[1.993632,7.1820012],"bbox":[1.833632,7.0220012,2.153632,7.3420012],"border":{"name":"Abomey","other_names":{"name:ar":"أبومية","name:fr":"Abomey","name:ru":"Абомей","official_name":"Commune d'Abomey","official_name:ar":"بلدية أبومية"},"display_name":"Abomey, Zou, Bénin","address":{"county":"Abomey","state":"Zou","ISO3166-2-lvl4":"BJ-ZO","country":"Bénin","country_code":"bj"},"osm_type":"relation","osm_id":2946027,"type":"administrative","location":[1.9828803672675925,7.165446],"bbox":[1.9225933,7.1047314,2.0643267,7.2261104]}}
{"name":"Allada","other_names":{"name:ar":"ألادا","name:de":"Allada","name:en":"Allada","name:fr":"Allada","name:ru":"Аллада","alt_name":"Alada","name:fon":"Adànhúnsá"},"display_name":"Allada, Atlantique, Bénin","address":{"city":"Allada","state":"Atlantique","ISO3166-2-lvl4":"BJ-AQ","country":"Bénin","country_code":"bj"},"population":130000,"osm_type":"node","osm_id":2313207442,"type":"city","location":[2.1511876,6.6658411],"bbox":[1.9911876,6.5058411,2.3111876,6.8258411],"border":{"name":"Allada","other_names":{"name:ar":"ألادا","name:fr":"Allada","official_name":"Commune d'Allada","name:de":"Allada","name:en":"Allada","name:ru":"Аллада","alt_name":"Alada","name:fon":"Adànhúnsá","official_name:ar":"بلدية ألادا"},"display_name":"Allada, Atlantique, Bénin","address":{"city":"Allada","state":"Atlantique","ISO3166-2-lvl4":"BJ-AQ","country":"Bénin","country_code":"bj"},"population":130000,"osm_type":"relation","osm_id":2946419,"type":"administrative","location":[2.1511876,6.6658411],"bbox":[1.991111,6.571338,2.2544059,6.7728834]}}
{"name":"Aplahoué","other_names":{"name:ar":"أبلاهوي","name:ru":"Аплахуэ","name:uk":"Аплахуе"},"display_name":"Aplahoué, Kouffo, Bénin","address":{"city":"Aplahoué","state":"Kouffo","ISO3166-2-lvl4":"BJ-KO","country":"Bénin","country_code":"bj"},"population":170000,"osm_type":"node","osm_id":496264781,"type":"city","location":[1.6751946,6.9396098],"bbox":[1.5151946,6.7796098,1.8351946,7.0996098],"border":{"name":"Aplahoué","other_names":{"name:ar":"أبلاهوي","name:fr":"Aplahoué","official_name":"Commune d'Aplahoué","name:ru":"Аплахуэ","name:uk":"Аплахуе","official_name:ar":"بلدية أبلاهوي"},"display_name":"Aplahoué, Kouffo, Bénin","address":{"city":"Aplahoué","state":"Kouffo","ISO3166-2-lvl4":"BJ-KO","country":"Bénin","country_code":"bj"},"population":170000,"osm_type":"relation","osm_id":2946532,"type":"administrative","location":[1.6751946,6.9396098],"bbox":[1.5590323,6.8658501,1.843333,7.5300615]}}
{"name":"Banikoara","other_names":{"name:ar":"بانيكوارا","name:fr":"Banikoara","name:ru":"Баникоара"},"display_name":"Banikoara, Alibori, Bénin","address":{"city":"Banikoara","county":"Banikoara","state":"Alibori","ISO3166-2-lvl4":"BJ-AL","country":"Bénin","country_code":"bj"},"population":250000,"osm_type":"node","osm_id":459525150,"type":"city","location":[2.4370752,11.3004241],"bbox":[2.2770752,11.1404241,2.5970752,11.4604241],"border":{"name":"Banikoara","other_names":{"name:ar":"بانيكوارا","name:fr":"Banikoara","official_name":"Commune de Banikoara","official_name:ar":"بلدية بانيكوارا"},"display_name":"Banikoara, Alibori, Bénin","address":{"county":"Banikoara","state":"Alibori","ISO3166-2-lvl4":"BJ-AL","country":"Bénin","country_code":"bj"},"osm_type":"relation","osm_id":2848162,"type":"administrative","location":[2.473040680223342,11.32625415],"bbox":[2.021875,10.9612437,2.9138017,11.6911365]}}
{"name":"Bohicon","other_names":{"name:ar":"بوهيكون","name:ru":"Бохикон"},"display_name":"Bohicon, Zou, Bénin","address":{"city":"Bohicon","state":"Zou","ISO3166-2-lvl4":"BJ-ZO","country":"Bénin","country_code":"bj"},"population":170000,"osm_type":"node","osm_id":496262977,"type":"city","location":[2.0695683,7.1816331],"bbox":[1.9095683,7.0216331,2.2295683,7.3416331],"border":{"name":"Bohicon","other_names":{"name:ar":"بوهيكون","name:fr":"Bohicon","official_name":"Commune de Bohicon","name:ru":"Бохикон","official_name:ar":"بلدية بوهيكون"},"display_name":"Bohicon, Zou, Bénin","address":{"city":"Bohicon","state":"Zou","ISO3166-2-lvl4":"BJ-ZO","country":"Bénin","country_code":"bj"},"population":170000,"osm_type":"relation","osm_id":2946029,"type":"administrative","location":[2.0695683,7.1816331],"bbox":[2.0306909,7.1093298,2.216691,7.2577862]}}
{"name":"Cotonou","other_names":{"name:ar":"كوتونو","name:br":"Cotonou","name:de":"Cotonou","name:he":"קוטונו","name:ja":"コトヌー","name:ko":"코토누","name:lt":"Kotonu","name:pl":"Kotonu","name:ru":"Котону","name:uk":"Котону","name:zh":"科托努","name:fon":"Kùtɔ́nû"},"display_name":"Cotonou, Littoral, Bénin","address":{"city":"Cotonou","state":"Littoral","ISO3166-2-lvl4":"BJ-LI","country":"Bénin","country_code":"bj"},"population":780000,"osm_type":"node","osm_id":1776467369,"type":"city","location":[2.4252507,6.3676953],"bbox":[2.2652507,6.2076953,2.5852507,6.5276953],"border":{"name":"Cotonou","other_names":{"name:fr":"Cotonou","name:yo":"Kútọ̀nú","official_name":"Commune de Cotonou","name:ar":"كوتونو","name:br":"Cotonou","name:de":"Cotonou","name:he":"קוטונו","name:ja":"コトヌー","name:ko":"코토누","name:lt":"Kotonu","name:pl":"Kotonu","name:ru":"Котону","name:uk":"Котону","name:zh":"科托努","name:fon":"Kùtɔ́nû"},"display_name":"Cotonou, Littoral, Bénin","address":{"city":"Cotonou","state":"Littoral","ISO3166-2-lvl4":"BJ-LI","country":"Bénin","country_code":"bj"},"population":780000,"osm_type":"relation","osm_id":2851879,"type":"administrative","location":[2.4252507,6.3676953],"bbox":[2.3545745,6.337276,2.4958483,6.3992392]}}
{"name":"Dassa-Zoumé","other_names":{"name:ar":"دسا زومه","alt_name":"Igbo Ìdàáshà","name:idd":"Igbo Ìdàáshà","short_name:idd":"Ìdàáshà"},"display_name":"Dassa-Zoumé, Collines, Bénin","address":{"city":"Dassa-Zoumé","state":"Collines","ISO3166-2-lvl4":"BJ-CO","country":"Bénin","country_code":"bj"},"population":110000,"osm_type":"node","osm_id":2248036954,"type":"city","location":[2.183606,7.7815402],"bbox":[2.023606,7.6215402,2.343606,7.9415402],"border":{"name":"Dassa-Zoumé","other_names":{"name:ar":"دسا زومه","name:fr":"Dassa-Zoumé","name:yo":"Ìdàáṣà","official_name":"Commune de Dassa-Zoumé","alt_name":"Igbo Ìdàáshà","name:idd":"Igbo Ìdàáshà","official_name:ar":"بلدية دسا زومه","short_name:idd":"Ìdàáshà"},"display_name":"Dassa-Zoumé, Collines, Bénin","address":{"city":"Dassa-Zoumé","state":"Collines","ISO3166-2-lvl4":"BJ-CO","country":"Bénin","country_code":"bj"},"population":110000,"osm_type":"relation","osm_id":2860039,"type":"administrative","location":[2.183606,7.7815402],"bbox":[2.0451432,7.4415612,2.4980838,7.9402044]}}
{"name":"Djougou","other_names":{"name:ar":"جوغو","name:fr":"Djougou","name:ko":"주구","name:ru":"Джугу","name:uk":"Джугу","alt_name:ar":"دجوغو"},"display_name":"Djougou, Donga, Bénin","address":{"city":"Djougou","county":"Djougou","state":"Donga","ISO3166-2-lvl4":"BJ-DO","country":"Bénin","country_code":"bj"},"population":260000,"osm_type":"node","osm_id":313015848,"type":"city","location":[1.6651614,9.7106683],"bbox":[1.5051614,9.5506683,1.8251614,9.8706683],"border":{"name":"Djougou","other_names":{"name:ar":"جوغو","name:fr":"Djougou","alt_name:ar":"دجوغو","official_name":"Commune de Djougou","official_name:ar":"بلدية جوغو"},"display_name":"Djougou, Donga, Bénin","address":{"county":"Djougou","state":"Donga","ISO3166-2-lvl4":"BJ-DO","country":"Bénin","country_code":"bj"},"osm_type":"relation","osm_id":2851901,"type":"administrative","location":[1.7983498633298036,9.7023099],"bbox":[1.4395359,9.3433332,2.1633329,10.0609586]}}
{"name":"Dogbo-Tota","other_names":{"name:ar":"دغبو توتا","short_name":"Dogbo"},"display_name":"Dogbo-Tota, Dogbo, Kouffo, Bénin","address":{"city":"Dogbo-Tota","state":"Kouffo","ISO3166-2-lvl4":"BJ-KO","country":"Bénin","country_code":"bj"},"population":100000,"osm_type":"node","osm_id":496265045,"type":"city","location":[1.781282,6.8014046],"bbox":[1.621282,6.6414046,1.941282,6.9614046],"border":{"name":"Dogbo","other_names":{"name:ar":"دغبو","name:fr":"Dogbo","official_name":"Commune de Dogbo","official_name:ar":"بلدية دغبو","short_name":"Dogbo","alt":"Dogbo-Tota","alt:ar":"دغبو توتا"},"display_name":"Dogbo, Kouffo, Bénin","address":{"city":"Dogbo","state":"Kouffo","ISO3166-2-lvl4":"BJ-KO","country":"Bénin","country_code":"bj"},"population":100000,"osm_type":"relation","osm_id":2946423,"type":"administrative","location":[1.781282,6.8014046],"bbox":[1.6081209,6.7148458,1.9383739,6.8517452]}}
{"name":"Kandi","other_names":{"name:ar":"كاندي","name:fr":"Kandi","name:ko":"칸디","name:pl":"Канди","name:ru":"Канди","name:uk":"Канді"},"display_name":"Kandi, Alibori, Bénin","address":{"city":"Kandi","county":"Kandi","state":"Alibori","ISO3166-2-lvl4":"BJ-AL","country":"Bénin","country_code":"bj"},"population":180000,"osm_type":"node","osm_id":2304828846,"type":"city","location":[2.9322321,11.1311029],"bbox":[2.7722321,10.9711029,3.0922321,11.2911029],"border":{"name":"Kandi","other_names":{"name:ar":"كاندي","name:fr":"Kandi","official_name":"commune de Kandi","official_name:ar":"بلدية كاندي"},"display_name":"Kandi, Alibori, Bénin","address":{"county":"Kandi","state":"Alibori","ISO3166-2-lvl4":"BJ-AL","country":"Bénin","country_code":"bj"},"osm_type":"relation","osm_id":2850528,"type":"administrative","location":[3.046420881638551,11.2849785],"bbox":[2.6341454,10.8999909,3.276346,11.6699808]}}
{"name":"Kétou","other_names":{"name:ar":"كيتو","name:ru":"Кету"},"display_name":"Kétou, Plateau, Bénin","address":{"city":"Kétou","state":"Plateau","ISO3166-2-lvl4":"BJ-PL","country":"Bénin","country_code":"bj"},"population":160000,"osm_type":"node","osm_id":2313302870,"type":"city","location":[2.6024222,7.3604193],"bbox":[2.4424222,7.2004193,2.7624222,7.5204193],"border":{"name":"Kétou","other_names":{"name:ar":"كيتو","name:fr":"Kétou","official_name":"Commune de Kétou","name:ru":"Кету","official_name:ar":"بلدية كيتو"},"display_name":"Kétou, Plateau, Bénin","address":{"city":"Kétou","state":"Plateau","ISO3166-2-lvl4":"BJ-PL","country":"Bénin","country_code":"bj"},"population":160000,"osm_type":"relation","osm_id":2945789,"type":"administrative","location":[2.6024222,7.3604193],"bbox":[2.416667,7.1635326,2.796035,7.6599998]}}
{"name":"Kouandé","other_names":{"name:ar":"كواندي"},"display_name":"Kouandé, Atakora, Bénin","address":{"city":"Kouandé","state":"Atakora","ISO3166-2-lvl4":"BJ-AK","country":"Bénin","country_code":"bj"},"population":110000,"osm_type":"node","osm_id":496133867,"type":"city","location":[1.6919847,10.3321794],"bbox":[1.5319847,10.1721794,1.8519847,10.4921794],"border":{"name":"Kouandé","other_names":{"name:ar":"كواندي","name:fr":"Kouandé","official_name":"Commune de Kouandé","official_name:ar":"بلدية كواندي"},"display_name":"Kouandé, Atakora, Bénin","address":{"city":"Kouandé","state":"Atakora","ISO3166-2-lvl4":"BJ-AK","country":"Bénin","country_code":"bj"},"population":110000,"osm_type":"relation","osm_id":2845843,"type":"administrative","location":[1.6919847,10.3321794],"bbox":[1.3887261,9.9507554,2.0393167,10.9127271]}}
{"name":"Lokossa","other_names":{"name:ar":"لوكوسا","name:ru":"Локоса","name:uk":"Локосо"},"display_name":"Lokossa, Mono, Bénin","address":{"city":"Lokossa","state":"Mono","ISO3166-2-lvl4":"BJ-MO","country":"Bénin","country_code":"bj"},"population":110000,"osm_type":"node","osm_id":2304867251,"type":"city","location":[1.7171404,6.6458524],"bbox":[1.5571404,6.4858524,1.8771404,6.8058524],"border":{"name":"Lokossa","other_names":{"name:ar":"لوكوسا","name:fr":"Lokossa","official_name":"Commune de Lokossa","name:ru":"Локоса","name:uk":"Локосо","official_name:ar":"بلدية لوكوسا"},"display_name":"Lokossa, Mono, Bénin","address":{"city":"Lokossa","state":"Mono","ISO3166-2-lvl4":"BJ-MO","country":"Bénin","country_code":"bj"},"population":110000,"osm_type":"relation","osm_id":2946427,"type":"administrative","location":[1.7171404,6.6458524],"bbox":[1.5750553,6.5853201,1.9157188,6.7823321]}}
{"name":"Malanville","other_names":{"name:ar":"مالانفيل","name:ru":"Маланвиль"},"display_name":"Malanville, Alibori, Bénin","address":{"city":"Malanville","state":"Alibori","ISO3166-2-lvl4":"BJ-AL","country":"Bénin","country_code":"bj"},"population":168000,"osm_type":"node","osm_id":496140932,"type":"city","location":[3.3862982,11.8618128],"bbox":[3.2262982,11.7018128,3.5462982,12.0218128],"border":{"name":"Malanville","other_names":{"name:ar":"مالانفيل","name:fr":"Malanville","official_name":"Commune de Malanville","name:ru":"Маланвиль"},"display_name":"Malanville, Alibori, Bénin","address":{"city":"Malanville","state":"Alibori","ISO3166-2-lvl4":"BJ-AL","country":"Bénin","country_code":"bj"},"population":168000,"osm_type":"relation","osm_id":2848470,"type":"administrative","location":[3.3862982,11.8618128],"bbox":[2.9387047,11.3120827,3.609432,12.0019456]}}
{"name":"N'Dali","other_names":{"name:ar":"اندالي","name:fr":"N'Dali","name:ru":"Ндали","alt_name":"Ndali"},"display_name":"N'Dali, Borgou, Bénin","address":{"city":"N'Dali","county":"N'Dali","state":"Borgou","ISO3166-2-lvl4":"BJ-BO","country":"Bénin","country_code":"bj"},"population":110000,"osm_type":"node","osm_id":2071065504,"type":"city","location":[2.7191259,9.8622949],"bbox":[2.5591259,9.7022949,2.8791259,10.0222949],"border":{"name":"N'Dali","other_names":{"name:ar":"اندالي","name:fr":"N'Dali","official_name":"Commune de N'Dali","official_name:ar":"بلدية اندالي"},"display_name":"N'Dali, Borgou, Bénin","address":{"county":"N'Dali","state":"Borgou","ISO3166-2-lvl4":"BJ-BO","country":"Bénin","country_code":"bj"},"osm_type":"relation","osm_id":2859962,"type":"administrative","location":[2.4633606935043417,9.68833355],"bbox":[2.073889,9.3699006,2.8375281,10.0037852]}}
{"name":"Natitingou","other_names":{"name:ar":"ناتيتنغو","name:fr":"Natitingou","name:ko":"나티팅구","name:ru":"Натитингу","name:uk":"Натітінгу","name:tbz":"Nantahɛɛ","short_name":"Nati"},"display_name":"Natitingou, Atakora, Bénin","address":{"city":"Natitingou","county":"Natitingou","state":"Atakora","ISO3166-2-lvl4":"BJ-AK","country":"Bénin","country_code":"bj"},"population":110000,"osm_type":"node","osm_id":2071888096,"type":"city","location":[1.3808554,10.3051511],"bbox":[1.2208554,10.1451511,1.5408554,10.4651511],"border":{"name":"Natitingou","other_names":{"name:ar":"ناتيتنغو","name:fr":"Natitingou","official_name":"Commune de Natitingou","official_name:ar":"بلدية ناتيتنغو"},"display_name":"Natitingou, Atakora, Bénin","address":{"county":"Natitingou","state":"Atakora","ISO3166-2-lvl4":"BJ-AK","country":"Bénin","country_code":"bj"},"osm_type":"relation","osm_id":2845844,"type":"administrative","location":[1.383540986380074,10.251408300000001],"bbox":[1.2086811,10.0279587,1.6467696,10.458883]}}
{"name":"Nikki","other_names":{"name:ar":"نكي","name:ru":"Никки"},"display_name":"Nikki, Borgou, Bénin","address":{"city":"Nikki","county":"Nikki","state":"Borgou","ISO3166-2-lvl4":"BJ-BO","country":"Bénin","country_code":"bj"},"population":150000,"osm_type":"node","osm_id":313015871,"type":"city","location":[3.2085658,9.9363383],"bbox":[3.0485658,9.7763383,3.3685658,10.0963383],"border":[{"name":"Nikki","other_names":{"name:ar":"نكي","name:fr":"Nikki","official_name":"Commune de Nikki","official_name:ar":"بلدية نكي"},"display_name":"Nikki, Borgou, Bénin","address":{"county":"Nikki","state":"Borgou","ISO3166-2-lvl4":"BJ-BO","country":"Bénin","country_code":"bj"},"osm_type":"relation","osm_id":2859963,"type":"administrative","location":[3.178025421161518,9.899685],"bbox":[2.7613122,9.6344678,3.6100498,10.1656252]},{"name":"Nikki","other_names":{"name:fr":"Nikki","official_name":"Arrondissement de Nikki","name:ar":"نكي","name:ru":"Никки"},"display_name":"Nikki, Borgou, Bénin","address":{"city":"Nikki","county":"Nikki","state":"Borgou","ISO3166-2-lvl4":"BJ-BO","country":"Bénin","country_code":"bj"},"population":150000,"osm_type":"relation","osm_id":11176398,"type":"administrative","location":[3.2085658,9.9363383],"bbox":[3.1499914,9.7872943,3.6022266,10.1656252]}]}
{"name":"Ouèssè","other_names":{"name:ru":"Весе"},"display_name":"Ouèssè, Collines, Bénin","address":{"city":"Ouèssè","state":"Collines","ISO3166-2-lvl4":"BJ-CO","country":"Bénin","country_code":"bj"},"osm_type":"node","osm_id":2312747964,"type":"city","location":[2.4258417,8.4919261],"bbox":[2.2658417,8.3319261,2.5858417,8.6519261],"border":{"name":"Ouèssè","other_names":{"name:fr":"Ouèssè","name:ru":"Весе","official_name":"Commune de Ouèssè"},"display_name":"Ouèssè, Collines, Bénin","address":{"city":"Ouèssè","state":"Collines","ISO3166-2-lvl4":"BJ-CO","country":"Bénin","country_code":"bj"},"osm_type":"relation","osm_id":2860041,"type":"administrative","location":[2.4258417,8.4919261],"bbox":[2.2036109,8.1162312,2.769031,8.7808066]}}
{"name":"Ouidah","other_names":{"name:ar":"أويدا","name:de":"Ouidah","name:en":"Ouidah","name:fr":"Ouidah","name:ko":"우이다","name:ru":"Вида","name:uk":"Віда","name:yo":"Xwéda","alt_name":"Hweda"},"display_name":"Ouidah, Atlantique, Bénin","address":{"city":"Ouidah","county":"Ouidah","state":"Atlantique","ISO3166-2-lvl4":"BJ-AQ","country":"Bénin","country_code":"bj"},"population":160000,"osm_type":"node","osm_id":313015821,"type":"city","location":[2.0853599,6.3666147],"bbox":[1.9253599,6.2066147,2.2453599,6.5266147],"border":{"name":"Ouidah","other_names":{"name:ar":"أويدا","name:fr":"Ouidah","official_name":"Commune d'Ouidah","official_name:ar":"بلدية أويدا"},"display_name":"Ouidah, Atlantique, Bénin","address":{"county":"Ouidah","state":"Atlantique","ISO3166-2-lvl4":"BJ-AQ","country":"Bénin","country_code":"bj"},"osm_type":"relation","osm_id":2946173,"type":"administrative","location":[2.1489509671081493,6.384092900000001],"bbox":[1.9557676,6.3023999,2.2671908,6.4764141]}}
{"name":"Parakou","other_names":{"name:ar":"باراكو","name:ko":"파라쿠","name:ru":"Параку","name:uk":"Параку"},"display_name":"Parakou, Borgou, Bénin","address":{"city":"Parakou","state":"Borgou","ISO3166-2-lvl4":"BJ-BO","country":"Bénin","country_code":"bj"},"population":250000,"osm_type":"node","osm_id":308813067,"type":"city","location":[2.6278258,9.3400159],"bbox":[2.4678258,9.1800159,2.7878258,9.5000159],"border":{"name":"Parakou","other_names":{"name:ar":"باراكو","name:fr":"Parakou","name:ru":"Параку","official_name":"Commune de Parakou","name:ko":"파라쿠","name:uk":"Параку","official_name:ar":"بلدية باراكو"},"display_name":"Parakou, Borgou, Bénin","address":{"city":"Parakou","state":"Borgou","ISO3166-2-lvl4":"BJ-BO","country":"Bénin","country_code":"bj"},"population":250000,"osm_type":"relation","osm_id":2859964,"type":"administrative","location":[2.6278258,9.3400159],"bbox":[2.4808043,9.2328678,2.7717943,9.4419358]}}
{"name":"Pobè","other_names":{"name:ar":"بوبه","name:ru":"Побе","alt_name":"Pobé"},"display_name":"Pobè, Plateau, Bénin","address":{"city":"Pobè","state":"Plateau","ISO3166-2-lvl4":"BJ-PL","country":"Bénin","country_code":"bj"},"population":120000,"osm_type":"node","osm_id":2313302871,"type":"city","location":[2.666791,6.9820238],"bbox":[2.506791,6.8220238,2.826791,7.1420238],"border":{"name":"Pobè","other_names":{"name:ar":"بوبه","name:fr":"Pobè","official_name":"Commune de Pobè","name:ru":"Побе","alt_name":"Pobé","official_name:ar":"بلدية بوبه"},"display_name":"Pobè, Plateau, Bénin","address":{"city":"Pobè","state":"Plateau","ISO3166-2-lvl4":"BJ-PL","country":"Bénin","country_code":"bj"},"population":120000,"osm_type":"relation","osm_id":2945790,"type":"administrative","location":[2.666791,6.9820238],"bbox":[2.6053413,6.9250312,2.7728036,7.1894116]}}
{"name":"Porto-Novo","other_names":{"name:af":"Porto-Novo","name:am":"ፖርቶ ኖቮ","name:ar":"بورتو نوفو","name:az":"Porto-Novo","name:be":"Порта-Нова","name:bg":"Порто Ново","name:bo":"པོར་ཊོ་-ནོ་བོ།","name:br":"Porto-Novo","name:bs":"Porto-Novo","name:ca":"Porto-Novo","name:cy":"Porto-Novo","name:da":"Porto-Novo","name:de":"Porto-Novo","name:el":"Πόρτο-Νόβο","name:en":"Porto-Novo","name:eo":"Porto-Novo","name:es":"Porto Novo","name:et":"Porto-Novo","name:eu":"Porto-Novo","name:fa":"پورتو نووو","name:fi":"Porto-Novo","name:fr":"Porto-Novo","name:fy":"Porto-Novo","name:gd":"Porto-Novo","name:he":"פורטו נובו","name:hr":"Porto-Novo","name:ht":"Pòto-Novo","name:hu":"Porto Novo","name:hy":"Պորտո Նովո","name:it":"Porto-Novo","name:ja":"ポルトノボ","name:jv":"Porto-Novo","name:ka":"პორტო-ნოვო","name:ko":"포르토노보","name:ky":"Порто-Ново","name:la":"Portus Novus","name:lt":"Porto Novas","name:lv":"Portonovo","name:mk":"Порто Ново","name:mr":"पोर्तो-नोव्हो","name:nl":"Porto-Novo","name:nn":"Porto-Novo","name:no":"Porto-Novo","name:oc":"Porto-Novo","name:pl":"Porto-Novo","name:pt":"Porto-Novo","name:ru":"Порто-Ново","name:sh":"Porto-Novo","name:sk":"Porto-Novo","name:so":"Borto-Novo","name:sr":"Порто Ново","name:sv":"Porto-Novo","name:ta":"போர்டோ நோவோ","name:tg":"Порто-Ново","name:th":"ปอร์โต-โนโว","name:tl":"Porto-Novo","name:tr":"Porto-Novo","name:uk":"Порто-Ново","name:ur":"پورٹو نووو","name:vi":"Porto-Novo","name:vo":"Porto-Novo","name:yo":"Àjàṣẹ́","name:zh":"波多諾伏","name:ast":"Porto-Novo","name:ckb":"پۆرتۆ نۆڤۆ","name:frp":"Pôrto-Novo","name:hif":"Porto-Novo","name:lij":"Pòrto Neuvo","name:lmo":"Porto-Novo","name:mrj":"Порто-Ново","name:nan":"Porto-Novo","name:nov":"Porto-Novo","name:pms":"Porto-Novo","name:pnb":"پورٹو نووو","name:udm":"Порто-Ново","name:vec":"Porto-Novo","name:war":"Porto-Novo","name:yue":"波圖奴埠","name:simple":"Porto-Novo","name:roa-rup":"Porto-Novo","name:zh-Hans":"波多诺伏","name:zh-Hant":"波多諾伏","name:be-tarask":"Порта-Нова"},"display_name":"Porto-Novo, Porto Novo, Ouémé, Bénin","address":{"city":"Porto-Novo","county":"Porto Novo","state":"Ouémé","ISO3166-2-lvl4":"BJ-OU","country":"Bénin","country_code":"bj"},"population":265500,"osm_type":"node","osm_id":1669842684,"type":"city","location":[2.6253361,6.4990718],"bbox":[2.4653361,6.3390718,2.7853361,6.6590718],"border":{"name":"Porto Novo","other_names":{"name:fr":"Porto-Novo","official_name":"Commune de Porto Novo"},"display_name":"Porto Novo, Ouémé, Bénin","address":{"county":"Porto Novo","state":"Ouémé","ISO3166-2-lvl4":"BJ-OU","country":"Bénin","country_code":"bj"},"osm_type":"relation","osm_id":2945791,"type":"administrative","location":[2.624780144136807,6.4935182000000005],"bbox":[2.5798893,6.4485003,2.6699495,6.5350056]}}
{"name":"Sakété","other_names":{"name:ar":"ساكيتي","name:fr":"Sakété","name:ru":"Сакете","name:uk":"Сакете"},"display_name":"Sakété, Plateau, Bénin","address":{"city":"Sakété","county":"Sakété","state":"Plateau","ISO3166-2-lvl4":"BJ-PL","country":"Bénin","country_code":"bj"},"population":110000,"osm_type":"node","osm_id":2304872572,"type":"city","location":[2.6551566,6.7377567],"bbox":[2.4951566,6.5777567,2.8151566,6.8977567],"border":{"name":"Sakété","other_names":{"name:ar":"ساكيتي","name:fr":"Sakété","official_name":"Commune de Sakété","official_name:ar":"بلدية ساكيتي"},"display_name":"Sakété, Plateau, Bénin","address":{"county":"Sakété","state":"Plateau","ISO3166-2-lvl4":"BJ-PL","country":"Bénin","country_code":"bj"},"osm_type":"relation","osm_id":2945792,"type":"administrative","location":[2.676550749159847,6.74403185],"bbox":[2.5642174,6.5922035,2.7920562,6.900355]}}
{"name":"Savalou","other_names":{"name:ar":"سافالو","name:ru":"Савалу","name:uk":"Савалу"},"display_name":"Savalou, Collines, Bénin","address":{"city":"Savalou","state":"Collines","ISO3166-2-lvl4":"BJ-CO","country":"Bénin","country_code":"bj"},"population":140000,"osm_type":"node","osm_id":2282827069,"type":"city","location":[1.9780951,7.9297324],"bbox":[1.8180951,7.7697324,2.1380951,8.0897324],"border":{"name":"Savalou","other_names":{"name:ar":"سافالو","name:fr":"Savalou","official_name":"Commune de Savalou","name:ru":"Савалу","name:uk":"Савалу","official_name:ar":"بلدية سافالو"},"display_name":"Savalou, Collines, Bénin","address":{"city":"Savalou","state":"Collines","ISO3166-2-lvl4":"BJ-CO","country":"Bénin","country_code":"bj"},"population":140000,"osm_type":"relation","osm_id":2860037,"type":"administrative","location":[1.9780951,7.9297324],"bbox":[1.6360419,7.5411082,2.140801,8.1922113]}}
