{"name":"Abdelkader Azil ⴰⵣⵉⵍ ⴰⴱⴷⴻⵍⵇⴰⴷⴻⵔ عزيل عبد القادر","other_names":{"ref":"0515","name:ar":"عزيل عبد القادر","name:en":"Abdelkader Azil","name:fa":"عزیل عبدالقادر","name:fr":"Abdelkader Azil","name:vi":"Azil Abdelkader (Metkouak)","name:ber":"ⴰⵣⵉⵍ ⴰⴱⴷⴻⵍⵇⴰⴷⴻⵔ","name:kab":"Ɛazil Ɛebdelqader","old_name":"Metkaouak","old_name:ar":"متكعوك"},"display_name":"Abdelkader Azil ⴰⵣⵉⵍ ⴰⴱⴷⴻⵍⵇⴰⴷⴻⵔ عزيل عبد القادر, Daïra de Djezzar, Batna, 05130, Algérie ⵍⵣⵣⴰⵢⴻⵔ الجزائر","address":{"city":"Abdelkader Azil ⴰⵣⵉⵍ ⴰⴱⴷⴻⵍⵇⴰⴷⴻⵔ عزيل عبد القادر","county":"Daïra de Djezzar","state":"Batna","ISO3166-2-lvl4":"DZ-05","postcode":"05130","country":"Algérie ⵍⵣⵣⴰⵢⴻⵔ الجزائر","country_code":"dz"},"population":14304,"osm_type":"relation","osm_id":5160749,"type":"administrative","location":[5.014982583926091,35.323682500000004],"bbox":[4.740658,35.1110585,5.2044445,35.536297],"inferred_type":"city"}
{"name":"Adrar ⴰⴷⵕⴰⵕ أدرار","other_names":{"name:ar":"أدرار","name:de":"Adrar","name:el":"Αντράρ","name:en":"Adrar","name:fa":"ادرار","name:fr":"Adrar","name:he":"אדרר","name:ks":"ادرار","name:ru":"Адрар","name:ur":"ادرار","name:zh":"阿德拉尔","name:azb":"ادرار","name:ber":"ⴰⴷⵕⴰⵕ","name:kab":"Adṛaṛ"},"display_name":"Adrar ⴰⴷⵕⴰⵕ أدرار, أدرار, Daïra Adrar, Adrar, 1000, Algérie ⵍⵣⵣⴰⵢⴻⵔ الجزائر","address":{"city":"Adrar ⴰⴷⵕⴰⵕ أدرار","county":"Daïra Adrar","state":"Adrar","ISO3166-2-lvl4":"DZ-01","postcode":"1000","country":"Algérie ⵍⵣⵣⴰⵢⴻⵔ الجزائر","country_code":"dz"},"population":64781,"osm_type":"node","osm_id":3999497924,"type":"city","location":[-0.2876021,27.873203],"bbox":[-0.4476021,27.713203,-0.1276021,28.033203],"border":{"name":"أدرار","other_names":{"ref":"0101","name:ar":"أدرار","name:ca":"Adrar","name:cs":"Adrar","name:de":"Adrar","name:el":"Αντράρ","name:en":"Adrar","name:eo":"Adrar","name:fa":"ادرار","name:fi":"Adrar","name:fr":"Adrar","name:gl":"Adrar","name:it":"Adrar","name:ko":"아드라르","name:ks":"ادرار","name:lt":"Adraras","name:ms":"Adrar","name:nl":"Adrar","name:no":"Adrar","name:pl":"Adrar","name:pt":"Adrar","name:ro":"Adrar","name:ru":"Адрар","name:sv":"Adrar","name:th":"อาดราร์","name:uk":"Адрар","name:ur":"ادرار","name:zh":"阿德拉尔","name:azb":"ادرار","name:ber":"ⴰⴷⵕⴰⵕ","name:kab":"Adṛaṛ","name:he":"אדרר","alt":"Adrar ⴰⴷⵕⴰⵕ أدرار"},"display_name":"أدرار, Daïra Adrar, Adrar, Algérie ⵍⵣⵣⴰⵢⴻⵔ الجزائر","address":{"city":"أدرار","county":"Daïra Adrar","state":"Adrar","ISO3166-2-lvl4":"DZ-01","country":"Algérie ⵍⵣⵣⴰⵢⴻⵔ الجزائر","country_code":"dz"},"population":64781,"osm_type":"relation","osm_id":4171602,"type":"administrative","location":[-0.2876021,27.873203],"bbox":[-0.3336882,27.767485,-0.04751,28.16506]}}
{"name":"Aghbalou","other_names":{"ref":"1027","name:ar":"أغبالو","name:en":"Aghbalou","name:fa":"اغبالو","name:fr":"Aghbalou","name:ro":"Aghbalou (Algeria)","name:ur":"اقبالو","name:ber":"ⴰⵖⴱⴰⵍⵓ","name:kab":"Aɣbalu"},"display_name":"Aghbalou, Daïra M'Chedallah, Bouira, 10007, Algérie ⵍⵣⵣⴰⵢⴻⵔ الجزائر","address":{"city":"Aghbalou","county":"Daïra M'Chedallah","state":"Bouira","ISO3166-2-lvl4":"DZ-10","postcode":"10007","country":"Algérie ⵍⵣⵣⴰⵢⴻⵔ الجزائر","country_code":"dz"},"population":19517,"osm_type":"relation","osm_id":3397589,"type":"administrative","location":[4.352645961469533,36.427009],"bbox":[4.281224,36.375417,4.395087,36.478602],"inferred_type":"city"}
{"name":"Ain Arnat","display_name":"Ain Arnat, Ain Arnat ⵄⵉⵏ ⵔⵏⴰⵜ عين أرنات, Daïra Aïn Arnat, Sétif, 19017, Algérie ⵍⵣⵣⴰⵢⴻⵔ الجزائر","address":{"city":"Ain Arnat","town":"Ain Arnat ⵄⵉⵏ ⵔⵏⴰⵜ عين أرنات","county":"Daïra Aïn Arnat","state":"Sétif","ISO3166-2-lvl4":"DZ-19","postcode":"19017","country":"Algérie ⵍⵣⵣⴰⵢⴻⵔ الجزائر","country_code":"dz"},"osm_type":"way","osm_id":323153637,"type":"city","location":[5.320456360121943,36.1897158],"bbox":[5.3049412,36.1802386,5.3323599,36.1982467]}
{"name":"Aïn Defla","other_names":{"name:ar":"عين الدفلى","name:de":"Ain Defla","name:el":"Αΐν Ντέφλα","name:en":"Ain Defla","name:es":"Aïn Defla","name:fr":"Aïn Defla","name:it":"Ain Defla","name:ru":"Айн-Дефла","name:zh":"艾因迪夫拉","name:ber":"ⵉⵏ ⴷⴻⴼⵍⴰ","name:kab":"Ɛin n Defla","old_name":"Duperré","alt_name:fr":"Aïn-Defla"},"display_name":"Aïn Defla, Daïra Aïn Defla, Aïn Defla, Algérie ⵍⵣⵣⴰⵢⴻⵔ الجزائر","address":{"city":"Aïn Defla","county":"Daïra Aïn Defla","state":"Aïn Defla","ISO3166-2-lvl4":"DZ-44","country":"Algérie ⵍⵣⵣⴰⵢⴻⵔ الجزائر","country_code":"dz"},"population":65453,"osm_type":"node","osm_id":394266907,"type":"city","location":[1.9701347,36.2657178],"bbox":[1.8101347,36.1057178,2.1301347,36.4257178],"border":{"name":"Aïn Defla","other_names":{"name:ar":"ة عين الدفلى","name:en":"Ain Defla","name:fr":"Aïn Defla","name:de":"Ain Defla","name:el":"Αΐν Ντέφλα","name:es":"Aïn Defla","name:it":"Ain Defla","name:ru":"Айн-Дефла","name:zh":"艾因迪夫拉","name:ber":"ⵉⵏ ⴷⴻⴼⵍⴰ","name:kab":"Ɛin n Defla","old_name":"Duperré","alt_name:fr":"Aïn-Defla","alt:ar":"عين الدفلى"},"display_name":"Aïn Defla, Daïra Aïn Defla, Aïn Defla, Algérie ⵍⵣⵣⴰⵢⴻⵔ الجزائر","address":{"city":"Aïn Defla","county":"Daïra Aïn Defla","state":"Aïn Defla","ISO3166-2-lvl4":"DZ-44","country":"Algérie ⵍⵣⵣⴰⵢⴻⵔ الجزائر","country_code":"dz"},"population":65453,"osm_type":"relation","osm_id":18680647,"type":"administrative","location":[1.9701347,36.2657178],"bbox":[1.8713893,36.2102412,2.0955024,36.2975638]}}
{"name":"Aïn Legradj","other_names":{"ref":"1913","name:ar":"عين لقراج","name:en":"Ain Lagradj","name:fr":"Aïn Legradj","name:it":"Aïn Legraj","name:ms":"Aïn Legraj","name:pt":"Aïn Legraj","name:ro":"Aïn Legraj","name:ber":"ⴰⵍⴻⴳⵔⴰⴴ","name:kab":"Alegraǧ"},"display_name":"Aïn Legradj, Daïra Beni Ouartilane, Sétif, 19032, Algérie ⵍⵣⵣⴰⵢⴻⵔ الجزائر","address":{"city":"Aïn Legradj","county":"Daïra Beni Ouartilane","state":"Sétif","ISO3166-2-lvl4":"DZ-19","postcode":"19032","country":"Algérie ⵍⵣⵣⴰⵢⴻⵔ الجزائر","country_code":"dz"},"population":14668,"osm_type":"relation","osm_id":1625385,"type":"administrative","location":[4.903309687418478,36.4111145],"bbox":[4.78744,36.364134,4.959998,36.457809],"inferred_type":"city"}
{"name":"Ain Soltane","other_names":{"ref":"4118","name:ar":"عين السلطان","name:en":"Ain Soltane","name:fr":"Ain Soltane","name:ms":"Aïn Soltane, Souk Ahras","name:pt":"Aïn Soltane (Souk Ahras)","name:ro":"Aïn Soltane (Souk Ahras)","name:ber":"ⵄⵉⵏ ⵙⵙⴻⵍⵟⴰⵏ","name:kab":"Ɛin Sselṭan"},"display_name":"Ain Soltane, Daïra Sedrata, Souk Ahras, Algérie ⵍⵣⵣⴰⵢⴻⵔ الجزائر","address":{"city":"Ain Soltane","county":"Daïra Sedrata","state":"Souk Ahras","ISO3166-2-lvl4":"DZ-41","country":"Algérie ⵍⵣⵣⴰⵢⴻⵔ الجزائر","country_code":"dz"},"population":3091,"osm_type":"relation","osm_id":6663188,"type":"administrative","location":[7.359493315940658,36.1796759],"bbox":[7.281606,36.1275346,7.522176,36.231801],"inferred_type":"city"}
{"name":"Aïn Témouchent","other_names":{"name:ar":"عين تموشنت","name:de":"Ain Tumuschant","name:el":"Αΐν Τεμουσέντ","name:en":"Ain Temouchent","name:es":"Aín Temushent","name:fa":"عین تموشنت","name:fr":"Aïn Témouchent","name:it":"Ain Temouchent","name:ks":"عین تموشنت","name:lt":"Ain Temušentas","name:pl":"Ajn Tumuszanat","name:ru":"Айн-Темушент","name:ur":"عین تموشنت","name:zh":"艾因泰穆尚特","name:azb":"عین تموشنت","name:ber":"ⵉⵏ ⵜⵉⵎⵓⵛⴻⵏⵜ","name:kab":"Ɛin Timucent","name:pnb":"عین تموشنت","name:az-Arab":"عین تموشنت","name:kab-Arab":"عين تموشنت"},"display_name":"Aïn Témouchent, Aïn Témouchent ⵄⵉⵏ ⵜⵉⵎⵓⵛⴻⵏⵜ عين تموشنت, Daïra Ain Temouchent, Aïn Témouchent, 46000, Algérie ⵍⵣⵣⴰⵢⴻⵔ الجزائر","address":{"city":"Aïn Témouchent","county":"Daïra Ain Temouchent","state":"Aïn Témouchent","ISO3166-2-lvl4":"DZ-46","postcode":"46000","country":"Algérie ⵍⵣⵣⴰⵢⴻⵔ الجزائر","country_code":"dz"},"population":75558,"osm_type":"node","osm_id":443422563,"type":"city","location":[-1.1457771,35.3048421],"bbox":[-1.3057771,35.1448421,-0.9857771,35.4648421],"border":{"name":"Aïn Témouchent ⵄⵉⵏ ⵜⵉⵎⵓⵛⴻⵏⵜ عين تموشنت","other_names":{"ref":"4601","name:ar":"عين تموشنت","name:ca":"Aïn Témouchent","name:de":"Ain Tumuschant","name:el":"Αΐν Τεμουσέντ","name:en":"Ain Temouchent","name:es":"Aín Temushent","name:fa":"عین تموشنت","name:fr":"Aïn Témouchent","name:it":"ʿAyn Temūshent","name:ko":"아인테무셴트","name:ks":"عین تموشنت","name:lt":"Ain Temušentas","name:ms":"Aïn Témouchent","name:nl":"Aïn Témouchent","name:no":"Aïn Témouchent","name:pl":"Ajn Tumuszanat","name:pt":"Aïn Témouchent","name:ro":"Aïn Témouchent","name:ru":"Айн-Темушент","name:uk":"Айн-Темушент","name:ur":"عین تموشنت","name:zh":"艾因泰穆尚特","name:azb":"عین تموشنت","name:ber":"ⵄⵉⵏ ⵜⵉⵎⵓⵛⴻⵏⵜ","name:kab":"Ɛin Timucent","name:pnb":"عین تموشنت","name:az-Arab":"عین تموشنت","name:pa-Arab":"عین تموشنت","name:kab-Arab":"عين تموشنت","alt":"Aïn Témouchent","alt:it":"Ain Temouchent","alt:ber":"ⵉⵏ ⵜⵉⵎⵓⵛⴻⵏⵜ"},"display_name":"Aïn Témouchent ⵄⵉⵏ ⵜⵉⵎⵓⵛⴻⵏⵜ عين تموشنت, Daïra Ain Temouchent, Aïn Témouchent, 46000, Algérie ⵍⵣⵣⴰⵢⴻⵔ الجزائر","address":{"city":"Aïn Témouchent ⵄⵉⵏ ⵜⵉⵎⵓⵛⴻⵏⵜ عين تموشنت","county":"Daïra Ain Temouchent","state":"Aïn Témouchent","ISO3166-2-lvl4":"DZ-46","postcode":"46000","country":"Algérie ⵍⵣⵣⴰⵢⴻⵔ الجزائر","country_code":"dz"},"population":72940,"osm_type":"relation","osm_id":6535198,"type":"administrative","location":[-1.1457771,35.3048421],"bbox":[-1.2152032,35.2102245,-1.0701311,35.3234362]}}
{"name":"Ait Aissa Mimoun","other_names":{"ref":"1539","name:ar":"آيت عيسى ميمون","name:en":"Ait Aissa Mimoun","name:fr":"Ait Aissa Mimoun","name:it":"Aït Aïssa Mimoun","name:ms":"Djebel Aissa Mimoun","name:pt":"Ath Aissa Mimoun","name:ro":"Djebel Aissa Mimoun","name:vi":"Djebel-Aissa Mimoun","name:ber":"ⴰⵜ ⵄⵉⵙⴰ ⵎⵉⵎⵓⵏ","name:kab":"At Ɛisa Mimun"},"display_name":"Ait Aissa Mimoun, Daïra Ouaguenoun, Tizi Ouzou, Algérie ⵍⵣⵣⴰⵢⴻⵔ الجزائر","address":{"city":"Ait Aissa Mimoun","county":"Daïra Ouaguenoun","state":"Tizi Ouzou","ISO3166-2-lvl4":"DZ-15","country":"Algérie ⵍⵣⵣⴰⵢⴻⵔ الجزائر","country_code":"dz"},"population":20268,"osm_type":"relation","osm_id":3080944,"type":"administrative","location":[4.110324731883203,36.750654350000005],"bbox":[4.060655,36.7200994,4.1715908,36.7812311],"inferred_type":"city"}
{"name":"Aït Chafâa","other_names":{"ref":"1513","name:ar":"أيت شفعة","name:fr":"Aït Chafâa","name:ber":"ⴰⵜ ⵛⴰⴼⴻⵄ","name:kab":"At Cafeɛ"},"display_name":"Aït Chafâa, Daïra Azeffoun, Tizi Ouzou, Algérie ⵍⵣⵣⴰⵢⴻⵔ الجزائر","address":{"city":"Aït Chafâa","county":"Daïra Azeffoun","state":"Tizi Ouzou","ISO3166-2-lvl4":"DZ-15","country":"Algérie ⵍⵣⵣⴰⵢⴻⵔ الجزائر","country_code":"dz"},"population":3775,"osm_type":"relation","osm_id":4285400,"type":"administrative","location":[4.524226968988,36.825813],"bbox":[4.4618805,36.765357,4.5993709,36.8861394],"inferred_type":"city"}
{"name":"Aït Khelili","other_names":{"ref":"1558","name:ar":"أيت خليلي","name:fr":"Aït Khelili","name:it":"Aït Khellili","name:ro":"Aït Khellili","name:ber":"ⴰⵜ ⵅⵍⵉⵍⵉ","name:kab":"At Xlili"},"display_name":"Aït Khelili, Daïra Mekla, Tizi Ouzou, Algérie ⵍⵣⵣⴰⵢⴻⵔ الجزائر","address":{"city":"Aït Khelili","county":"Daïra Mekla","state":"Tizi Ouzou","ISO3166-2-lvl4":"DZ-15","country":"Algérie ⵍⵣⵣⴰⵢⴻⵔ الجزائر","country_code":"dz"},"population":11627,"osm_type":"relation","osm_id":4285690,"type":"administrative","location":[4.308820034703983,36.675792099999995],"bbox":[4.2859603,36.629033,4.3323863,36.7229793],"inferred_type":"city"}
{"name":"Aït Mahmoud","other_names":{"ref":"1528","name:ar":"أيت محمود","name:fr":"Aït Mahmoud","name:ms":"Ait Mahmoud","name:ber":"ⴰⵜ ⵎⴻⵃⵎⵓⴷ","name:kab":"At Meḥmud"},"display_name":"Aït Mahmoud, Daïra Beni Douala, Tizi Ouzou, 15193, Algérie ⵍⵣⵣⴰⵢⴻⵔ الجزائر","address":{"city":"Aït Mahmoud","county":"Daïra Beni Douala","state":"Tizi Ouzou","ISO3166-2-lvl4":"DZ-15","postcode":"15193","country":"Algérie ⵍⵣⵣⴰⵢⴻⵔ الجزائر","country_code":"dz"},"population":7699,"osm_type":"relation","osm_id":4292443,"type":"administrative","location":[4.119513993643815,36.61018025],"bbox":[4.0800051,36.5779282,4.1588293,36.642394],"inferred_type":"city"}
{"name":"Aït Oumalou","other_names":{"ref":"1542","name:ar":"أيت أومالو","name:fr":"Aït Oumalou","name:ms":"Ait Oumalou","name:vi":"Ait Oumalou","name:ber":"ⴰⵜ ⵓⵎⴰⵍⵓ","name:kab":"At Umalu"},"display_name":"Aït Oumalou, Daïra Tizi Rached, Tizi Ouzou, Algérie ⵍⵣⵣⴰⵢⴻⵔ الجزائر","address":{"city":"Aït Oumalou","county":"Daïra Tizi Rached","state":"Tizi Ouzou","ISO3166-2-lvl4":"DZ-15","country":"Algérie ⵍⵣⵣⴰⵢⴻⵔ الجزائر","country_code":"dz"},"population":8790,"osm_type":"relation","osm_id":4285835,"type":"administrative","location":[4.228438859928895,36.65516975],"bbox":[4.2109377,36.624631,4.2446683,36.6857304],"inferred_type":"city"}
{"name":"Ait Yahia","other_names":{"ref":"1527","name:ar":"أيت يحي","name:en":"Ait Yahia","name:fr":"Ait Yahia","name:it":"Aït Yahia","name:pt":"Aït Yahia","name:ro":"Aït Yahia","name:vi":"Ait-Yahia","name:ber":"ⴰⵜ ⵢⴻⵃⵢⴰ","name:kab":"At Yeḥya"},"display_name":"Ait Yahia, Daïra Aïn El Hammam, Tizi Ouzou, 15088, Algérie ⵍⵣⵣⴰⵢⴻⵔ الجزائر","address":{"city":"Ait Yahia","county":"Daïra Aïn El Hammam","state":"Tizi Ouzou","ISO3166-2-lvl4":"DZ-15","postcode":"15088","country":"Algérie ⵍⵣⵣⴰⵢⴻⵔ الجزائر","country_code":"dz"},"population":14439,"osm_type":"relation","osm_id":2175824,"type":"administrative","location":[4.343467940174766,36.5992546],"bbox":[4.2868412,36.5551192,4.417763,36.6435007],"inferred_type":"city"}
{"name":"Aït-Smail آيت إسماعيل","other_names":{"ref":"0647","name:ar":"آيت إسماعيل","name:en":"Ait Smail","name:fr":"Ait Smaïl","name:ber":"ⴰⵝ ⵙⵎⴰⵄⵉⵍ","name:kab":"At Smaɛil","alt_name:ar":"ايت اسماعيل;آيت سماعيل"},"display_name":"Aït-Smail آيت إسماعيل, Daïra Darguina, Béjaïa, 06080, Algérie ⵍⵣⵣⴰⵢⴻⵔ الجزائر","address":{"city":"Aït-Smail آيت إسماعيل","county":"Daïra Darguina","state":"Béjaïa","ISO3166-2-lvl4":"DZ-06","postcode":"06080","country":"Algérie ⵍⵣⵣⴰⵢⴻⵔ الجزائر","country_code":"dz"},"population":11783,"osm_type":"relation","osm_id":4112875,"type":"administrative","location":[5.229730086832058,36.55364615],"bbox":[5.177649,36.5185075,5.2700534,36.5882053],"inferred_type":"city"}
{"name":"Akbil","other_names":{"ref":"1503","name:ar":"أقبيل","name:en":"Akbil","name:fa":"اقبیل","name:fr":"Akbil","name:ber":"ⴰⵇⴱⵉⵍ","name:kab":"Aqbil"},"display_name":"Akbil, Daïra Aïn El Hammam, Tizi Ouzou, Algérie ⵍⵣⵣⴰⵢⴻⵔ الجزائر","address":{"city":"Akbil","county":"Daïra Aïn El Hammam","state":"Tizi Ouzou","ISO3166-2-lvl4":"DZ-15","country":"Algérie ⵍⵣⵣⴰⵢⴻⵔ الجزائر","country_code":"dz"},"population":8898,"osm_type":"relation","osm_id":4288635,"type":"administrative","location":[4.310016036886065,36.5040238],"bbox":[4.2800568,36.4612996,4.3474474,36.5468301],"inferred_type":"city"}
{"name":"Akerrou","other_names":{"ref":"1544","name:ar":"أقرو","name:en":"Akerrou","name:fr":"Akerrou","name:ber":"ⴰⵇⴻⵔⵔⵓ","name:kab":"Aqerru"},"display_name":"Akerrou, Daïra Azeffoun, Tizi Ouzou, 15076, Algérie ⵍⵣⵣⴰⵢⴻⵔ الجزائر","address":{"city":"Akerrou","county":"Daïra Azeffoun","state":"Tizi Ouzou","ISO3166-2-lvl4":"DZ-15","postcode":"15076","country":"Algérie ⵍⵣⵣⴰⵢⴻⵔ الجزائر","country_code":"dz"},"population":4660,"osm_type":"relation","osm_id":4285411,"type":"administrative","location":[4.442184569428127,36.80743895],"bbox":[4.3834834,36.7709338,4.5006671,36.8439166],"inferred_type":"city"}
{"name":"Alger ⴷⵣⴰⵢⴻⵔ الجزائر","other_names":{"name:ab":"Алжир","name:af":"Algiers","name:am":"አልጀርስ","name:an":"Alcher","name:ar":"الجزائر","name:az":"Əlcəzair","name:ba":"Алжир","name:be":"Алжыр","name:bg":"Алжир","name:bm":"Alger","name:bn":"আলজিয়ার্স","name:bo":"ཨཱལ་ཇི་ཡར་སི།","name:br":"Aljer","name:bs":"Alžir","name:ca":"Alger","name:ce":"Алжазаира","name:co":"Algeri","name:cs":"Alžír","name:cv":"Алҫир","name:cy":"Alger","name:da":"Algier","name:de":"Algier","name:el":"Αλγέρι","name:en":"Algiers","name:eo":"Alĝero","name:es":"Argel","name:et":"Alžiir","name:eu":"Aljer","name:fa":"الجزیره","name:fi":"Alger","name:fo":"Alger","name:fr":"Alger","name:fy":"Algiers","name:ga":"Cathair na hAilgéire","name:gd":"Algiers","name:gl":"Alxer","name:ha":"Aljir","name:he":"אלג'יר","name:hi":"आल्जेर","name:hr":"Alžir","name:ht":"Alje","name:hu":"Algír","name:hy":"Ալժիր","name:ia":"Alger","name:id":"Aljir","name:ie":"Alger","name:io":"Aljer","name:is":"Algeirsborg","name:it":"Algeri","name:ja":"アルジェ","name:jv":"Aljir","name:ka":"მარკეტი","name:kg":"Alger","name:kk":"Алжир","name:kn":"ಆಲ್ಜೇರ್","name:ko":"알제","name:ku":"Cezayir","name:ky":"Алжир шаары","name:la":"Algeria","name:lb":"Alger","name:ln":"Alje","name:lt":"Alžyras","name:lv":"Alžīra","name:mg":"Alger","name:mk":"Алжир","name:ml":"അൾജിയേഴ്സ്","name:mn":"Алжир","name:mr":"अल्जीयर्स","name:ms":"Algiers","name:mt":"L-Alġier","name:my":"အယ်လဂျီးယားမြို့","name:nb":"Alger","name:ne":"अल्जियर्स","name:nl":"Algiers","name:nn":"Alger","name:no":"Alger","name:nv":"Táłkááʼ Dahndaaʼeeł","name:oc":"Argièr","name:os":"Алжир","name:pa":"ਅਲ-ਜਜ਼ਾਇਰ","name:pl":"Algier","name:ps":"الجزيره","name:pt":"Argel","name:ro":"Alger","name:ru":"Алжир","name:sc":"Algeri","name:sd":"الجزائر شھر","name:sh":"Alžir","name:sk":"Alžír","name:sl":"Alžir","name:sn":"Algiers","name:so":"Algiers","name:sq":"Algjer","name:sr":"Алжир","name:su":"Aljir","name:sv":"Alger","name:sw":"Algiers","name:ta":"அல்ஜியர்ஸ்","name:tg":"Алҷазоир","name:th":"แอลเจียร์","name:tl":"Algiers","name:tr":"Cezayir","name:tt":"Әлҗәзаир","name:tw":"Alger","name:ug":"ئالجىر","name:uk":"Алжир","name:ur":"الجزائر شہر","name:uz":"Jazoir","name:vi":"Algiers","name:vo":"Cäsair","name:wo":"Alse","name:yi":"אלזשירס","name:yo":"Algiers","name:zh":"阿爾及爾/阿尔及尔","name:zu":"Algiers","alt_name":"Al Djazâir;El Djazaïr","loc_name":"El Bahdja;El Mahrussa;El Beida","name:arc":"ܓܙܐܐܪ","name:azb":"الجزیره","name:ber":"ⴷⵣⴰⵢⴻⵔ","name:ckb":"جەزائیر","name:diq":"Cezayir","name:frp":"Alg·èr","name:grc":"Ἀλγέριον","name:hif":"Algiers","name:hsb":"Alžěr","name:kab":"Zzayer","name:lad":"Arjel","name:lij":"Algè","name:lmo":"Algeri","name:mdf":"Алжир","name:mrj":"Алжир","name:nah":"Argel","name:nan":"Algiers","name:nov":"Algiers","name:pap":"Algiers","name:pms":"Algeri","name:pnb":"الجیرز","name:scn":"Algeri","name:sco":"Algiers","name:syc":"ܓܙܐܐܪ","name:udm":"Алжир","name:vec":"Algeri","name:vep":"Alžir","name:war":"Algiers","name:yue":"阿爾及爾","nat_name":"Alger","alt_name:fr":"Al Djazâir;El Djazaïr","loc_name:ar":"الدزاير","loc_name:fr":"El Bahdja;El Mahrussa;El Beida","name:simple":"Algiers","nat_name:ar":"الجزائر","nat_name:fr":"Alger","old_name:ar":"إيكوسيم","old_name:fr":"Icosium","old_name:la":"Icosium","alt_name:ckb":"جەزایر","name:bat-smg":"Alžīrs","name:roa-rup":"Alger","name:zh-Hans":"阿尔及尔","old_name:grc":"Ἰκόσιον","official_name":"Alger","name:be-tarask":"Альжыр","official_name:ar":"الجزائر","official_name:fr":"Alger"},"display_name":"Alger ⴷⵣⴰⵢⴻⵔ الجزائر, Alger-Centre, Daïra Sidi M'Hamed, Alger, 16007, Algérie ⵍⵣⵣⴰⵢⴻⵔ الجزائر","address":{"city":"Alger ⴷⵣⴰⵢⴻⵔ الجزائر","town":"Alger-Centre","county":"Daïra Sidi M'Hamed","state":"Alger","ISO3166-2-lvl4":"DZ-16","postcode":"16007","country":"Algérie ⵍⵣⵣⴰⵢⴻⵔ الجزائر","country_code":"dz"},"population":3415811,"osm_type":"node","osm_id":299617915,"type":"city","location":[3.0588445,36.7729333],"bbox":[2.8988445,36.6129333,3.2188445,36.9329333]}
{"name":"Amarnas ⵄⴻⵎⵎⴰⵔⵏⴰ العمارنة","other_names":{"ref":"2212","name:ar":"العمارنة","name:en":"Amarnas","name:fa":"امرناس","name:fr":"Amarnas","name:vi":"Amernas","name:ber":"ⵄⴻⵎⵎⴰⵔⵏⴰ","name:kab":"Ɛemmarna"},"display_name":"Amarnas ⵄⴻⵎⵎⴰⵔⵏⴰ العمارنة, Daïra Sidi Lahcene, Sidi Bel Abbès, Algérie ⵍⵣⵣⴰⵢⴻⵔ الجزائر","address":{"city":"Amarnas ⵄⴻⵎⵎⴰⵔⵏⴰ العمارنة","county":"Daïra Sidi Lahcene","state":"Sidi Bel Abbès","ISO3166-2-lvl4":"DZ-22","country":"Algérie ⵍⵣⵣⴰⵢⴻⵔ الجزائر","country_code":"dz"},"population":11293,"osm_type":"relation","osm_id":6661969,"type":"administrative","location":[-0.6115102871937022,35.0992366],"bbox":[-0.6611812,35.0183678,-0.5168947,35.180102],"inferred_type":"city"}
{"name":"Annaba ⵄⴻⵍⵍⴰⴱⴰ عنابة","other_names":{"name:ar":"عنابة","name:bg":"Анаба","name:de":"Annaba","name:el":"Άναμπα","name:en":"Annaba","name:es":"Annaba","name:eu":"Annaba","name:fa":"عنابه","name:fr":"Annaba","name:hu":"Annába","name:ja":"アンナバ","name:ko":"안나바","name:ks":"عنابہ","name:la":"Hippo Regius","name:lt":"Anaba","name:mk":"Анаба","name:ru":"Аннаба","name:ur":"عنابہ","name:zh":"安纳巴","name:azb":"عنابه","name:ber":"ⵄⴻⵍⵍⴰⴱⴰ","name:kab":"Ɛennaba","name:pnb":"عنابہ","old_name":"Hipponne Bône","old_name:ar":"إيبن بون","old_name:es":"Bona","old_name:fr":"Hipponne Bône","name:az-Arab":"عنابه","name:kk-Arab":"اننابا"},"display_name":"Annaba ⵄⴻⵍⵍⴰⴱⴰ عنابة, Annaba ⵄⴻⵍⵍⴰⴲⴰ عنابة, Daïra Annaba, Annaba, Algérie ⵍⵣⵣⴰⵢⴻⵔ الجزائر","address":{"city":"Annaba ⵄⴻⵍⵍⴰⴱⴰ عنابة","county":"Daïra Annaba","state":"Annaba","ISO3166-2-lvl4":"DZ-23","country":"Algérie ⵍⵣⵣⴰⵢⴻⵔ الجزائر","country_code":"dz"},"population":257359,"osm_type":"node","osm_id":299618513,"type":"city","location":[7.7549272,36.8982165],"bbox":[7.5949272,36.7382165,7.9149272,37.0582165],"border":[{"name":"Daïra Annaba","other_names":{"name:ar":"دائرة عنابة","name:bg":"Анаба","name:de":"Kreis Annaba","name:en":"Annaba District","name:es":"Daira de Annaba","name:fa":"ناحیه عنابه","name:fr":"Daïra Annaba","name:hu":"Annába","name:ja":"アンナバ","name:ko":"안나바","name:la":"Hippo Regius","name:lt":"Anaba","name:mk":"Анаба","name:ru":"Аннаба","name:zh":"安纳巴","name:ber":"ⵄⴻⵍⵍⴰⴱⴰ","name:kab":"Ɛennaba"},"display_name":"Daïra Annaba, Annaba, 23000, Algérie ⵍⵣⵣⴰⵢⴻⵔ الجزائر","address":{"county":"Daïra Annaba","state":"Annaba","ISO3166-2-lvl4":"DZ-23","postcode":"23000","country":"Algérie ⵍⵣⵣⴰⵢⴻⵔ الجزائر","country_code":"dz"},"osm_type":"relation","osm_id":2688529,"type":"administrative","location":[7.663835460079381,36.9388757],"bbox":[7.525801,36.866218,7.7936921,37.0115433]},{"name":"Annaba ⵄⴻⵍⵍⴰⴲⴰ عنابة","other_names":{"ref":"2301","name:ar":"عنابة","name:bg":"Анаба","name:bn":"আন্নাবা","name:de":"Annaba","name:el":"Άναμπα","name:en":"Annaba","name:es":"Annaba","name:fa":"عنابه","name:fr":"Annaba","name:hu":"Annába","name:hy":"Աննաբա","name:ja":"アンナバ","name:kk":"Аннаба қаласы","name:ko":"안나바","name:ks":"عنابہ","name:la":"Hippo Regius","name:lt":"Anaba","name:mk":"Анаба","name:nl":"Annaba (stad)","name:ru":"Аннаба","name:sl":"Anaba","name:sr":"Анаба","name:sw":"Hippo","name:uk":"Аннаба","name:ur":"عنابہ","name:zh":"安纳巴","name:azb":"عنابه","name:ber":"ⵄⴻⵍⵍⴰⴲⴰ","name:kab":"Ɛennaba","name:pnb":"عنابہ","old_name:es":"Bona","name:az-Arab":"عنابه","name:kk-Arab":"اننابا","name:eu":"Annaba","old_name":"Hipponne Bône","old_name:ar":"إيبن بون","old_name:fr":"Hipponne Bône","alt":"Annaba ⵄⴻⵍⵍⴰⴱⴰ عنابة","alt:ber":"ⵄⴻⵍⵍⴰⴱⴰ"},"display_name":"Annaba ⵄⴻⵍⵍⴰⴲⴰ عنابة, Daïra Annaba, Annaba, 23000, Algérie ⵍⵣⵣⴰⵢⴻⵔ الجزائر","address":{"city":"Annaba ⵄⴻⵍⵍⴰⴲⴰ عنابة","county":"Daïra Annaba","state":"Annaba","ISO3166-2-lvl4":"DZ-23","postcode":"23000","country":"Algérie ⵍⵣⵣⴰⵢⴻⵔ الجزائر","country_code":"dz"},"population":257359,"osm_type":"relation","osm_id":1616109,"type":"administrative","location":[7.7549272,36.8982165],"bbox":[7.697346,36.866218,7.7936921,36.9697061]}]}
{"name":"Batna ⵜⴱⴰⵜⴻⵏⵜ باتنة","other_names":{"name:ar":"باتنة","name:el":"Μπάτνα","name:en":"Batna","name:eo":"Batna","name:es":"Batna","name:eu":"Batna","name:fa":"باتنه","name:fr":"Batna","name:ja":"バトナ","name:ko":"바트나","name:lt":"Batna","name:ru":"Батна","name:uk":"Батна","name:ur":"باتنہ","name:zh":"巴特纳","name:azb":"باتنه","name:ber":"ⵜⴱⴰⵜⴻⵏⵜ","name:kab":"Tabatent","name:pnb":"باتنہ"},"display_name":"Batna ⵜⴱⴰⵜⴻⵏⵜ باتنة, Daïra de Batna, Batna, Algérie ⵍⵣⵣⴰⵢⴻⵔ الجزائر","address":{"city":"Batna ⵜⴱⴰⵜⴻⵏⵜ باتنة","county":"Daïra de Batna","state":"Batna","ISO3166-2-lvl4":"DZ-05","country":"Algérie ⵍⵣⵣⴰⵢⴻⵔ الجزائر","country_code":"dz"},"population":320281,"osm_type":"node","osm_id":299619085,"type":"city","location":[6.176799,35.5544613],"bbox":[6.016799,35.3944613,6.336799,35.7144613],"border":{"name":"Batna ⵜⴱⴰⵜⴻⵏⵜ باتنة","other_names":{"ref":"0501","name:ar":"باتنة","name:bg":"Батна","name:ca":"Batna (ciutat d'Algèria)","name:ce":"Батна (гӀала)","name:de":"Batna (Stadt)","name:en":"Batna","name:fa":"باتنه، الجزایر","name:fr":"Batna","name:id":"Batnah","name:ja":"バトナ","name:kk":"Батна қаласы","name:ko":"바트나","name:mn":"Батна","name:ms":"Batna, Algeria","name:nl":"Batna (stad)","name:pl":"Batina","name:ru":"Батна (город)","name:tr":"Batna, Cezayir","name:uk":"Батна","name:ur":"باتنہ، الجزائر","name:zh":"巴特纳","name:ber":"ⵜⴱⴰⵜⴻⵏⵜ","name:kab":"Batent","name:el":"Μπάτνα","name:eo":"Batna","name:es":"Batna","name:eu":"Batna","name:lt":"Batna","name:azb":"باتنه","name:pnb":"باتنہ","alt:fa":"باتنه","alt:ru":"Батна","alt:ur":"باتنہ","alt:kab":"Tabatent"},"display_name":"Batna ⵜⴱⴰⵜⴻⵏⵜ باتنة, Daïra de Batna, Batna, Algérie ⵍⵣⵣⴰⵢⴻⵔ الجزائر","address":{"city":"Batna ⵜⴱⴰⵜⴻⵏⵜ باتنة","county":"Daïra de Batna","state":"Batna","ISO3166-2-lvl4":"DZ-05","country":"Algérie ⵍⵣⵣⴰⵢⴻⵔ الجزائر","country_code":"dz"},"population":290645,"osm_type":"relation","osm_id":4224144,"type":"administrative","location":[6.176799,35.5544613],"bbox":[6.0766557,35.512514,6.2754977,35.6444609]}}
{"name":"Béchar ⴱⴻⵛⵛⴰⵔ بشار","other_names":{"name:ar":"بشار","name:de":"Baschar","name:el":"Μπέτσαρ","name:en":"Bechar","name:es":"Béchar","name:fa":"بشار","name:fr":"Béchar","name:he":"בכר","name:it":"Bechar","name:ja":"ベシャール","name:ks":"بشار","name:lt":"Bešaras","name:pt":"Béchar","name:ru":"Бешар","name:uk":"Бешар","name:ur":"بشار","name:zh":"贝沙尔","name:azb":"بشار","name:ber":"ⴱⴻⵛⵛⴰⵔ","name:kab":"Beccar","name:ota":"بشار","name:pnb":"بشار","old_name:ar":"كولومب بشار","old_name:es":"Colomb-Béchar","old_name:fr":"Colomb-Béchar","name:az-Arab":"بشار"},"display_name":"Béchar ⴱⴻⵛⵛⴰⵔ بشار, بشار, Daïra de Béchar, Béchar, 08000, Algérie ⵍⵣⵣⴰⵢⴻⵔ الجزائر","address":{"city":"Béchar ⴱⴻⵛⵛⴰⵔ بشار","county":"Daïra de Béchar","state":"Béchar","ISO3166-2-lvl4":"DZ-08","postcode":"08000","country":"Algérie ⵍⵣⵣⴰⵢⴻⵔ الجزائر","country_code":"dz"},"population":165627,"osm_type":"node","osm_id":299695849,"type":"city","location":[-2.21841,31.616312],"bbox":[-2.37841,31.456312,-2.05841,31.776312],"border":{"name":"بشار","other_names":{"ref":"0801","name:ar":"بشار","name:de":"Baschar","name:en":"Bechar","name:eo":"Beŝar","name:es":"Béchar","name:eu":"Bexar","name:fa":"بشار","name:fr":"Béchar","name:id":"Basyar","name:ja":"ベシャール","name:ko":"베샤르","name:ks":"بشار","name:lt":"Bešaras","name:pl":"Baszszar","name:ps":"بشار","name:ru":"Бешар","name:uk":"Бешар","name:ur":"بشار","name:uz":"Beshar","name:vi":"Bechar","name:zh":"贝沙尔","name:azb":"بشار","name:ber":"ⴱⴻⵛⵛⴰⵔ","name:kab":"Beccar","name:ota":"بشار","name:pnb":"بشار","name:az-Arab":"بشار","name:el":"Μπέτσαρ","name:he":"בכר","name:it":"Bechar","name:pt":"Béchar","old_name:ar":"كولومب بشار","old_name:es":"Colomb-Béchar","old_name:fr":"Colomb-Béchar","alt":"Béchar ⴱⴻⵛⵛⴰⵔ بشار"},"display_name":"بشار, Daïra de Béchar, Béchar, 08000, Algérie ⵍⵣⵣⴰⵢⴻⵔ الجزائر","address":{"city":"بشار","county":"Daïra de Béchar","state":"Béchar","ISO3166-2-lvl4":"DZ-08","postcode":"08000","country":"Algérie ⵍⵣⵣⴰⵢⴻⵔ الجزائر","country_code":"dz"},"population":165627,"osm_type":"relation","osm_id":6530988,"type":"administrative","location":[-2.21841,31.616312],"bbox":[-2.4054716,31.1832712,-1.3536167,32.048555]}}
{"name":"Béjaïa ⴲⴳⴰⵢⴻⵝ بجاية","other_names":{"name:ar":"بجاية","name:bg":"Бежая","name:ca":"Bejaïa","name:cs":"Bidžája","name:el":"Μπετζάια","name:en":"Bejaia","name:es":"Bugía","name:fa":"بجایه","name:fr":"Béjaïa","name:it":"Bejaia","name:ja":"ベジャイア","name:ko":"베자이아","name:ks":"بجایہ","name:la":"Saldae","name:lt":"Bedžaja","name:mk":"Беџаја","name:pl":"Bidżaja","name:pt":"Bugia","name:ru":"Беджая","name:uk":"Беджая","name:ur":"بجایہ","name:zh":"贝贾亚","name:azb":"بجایه","name:ber":"ⴲⴳⴰⵢⴻⵝ","name:kab":"Bgayet","name:ota":"بجایه","name:pnb":"بجایہ","old_name":"بوجي","reg_name":"صالدى;الناصرية","alt_name:es":"Bujía","old_name:ar":"بوجي","old_name:fr":"Bougie","reg_name:ar":"صالدى;الناصرية","name:kk-Arab":"بەدجايا","name:kab-Arab":"بجاية"},"display_name":"Béjaïa ⴲⴳⴰⵢⴻⵝ بجاية, Béjaïa, Daïra Béjaïa, Béjaïa, Algérie ⵍⵣⵣⴰⵢⴻⵔ الجزائر","address":{"city":"Béjaïa ⴲⴳⴰⵢⴻⵝ بجاية","county":"Daïra Béjaïa","state":"Béjaïa","ISO3166-2-lvl4":"DZ-06","country":"Algérie ⵍⵣⵣⴰⵢⴻⵔ الجزائر","country_code":"dz"},"population":177988,"osm_type":"node","osm_id":291964314,"type":"city","location":[5.0643687,36.7511783],"bbox":[4.9043687,36.5911783,5.2243687,36.9111783],"border":{"name":"Béjaïa","other_names":{"ref":"0601","name:an":"Bochía","name:ar":"بجاية","name:az":"Becaya","name:bg":"Беджая","name:br":"Bejaia","name:ca":"Bugia","name:cs":"Bidžája","name:de":"Bejaia","name:el":"Μπετζάγια","name:en":"Bejaia","name:eo":"Beĵaja","name:es":"Bugía","name:et":"Bejaïa","name:eu":"Bejaia","name:fa":"بجایه","name:fi":"Bejaïa","name:fr":"Béjaïa","name:he":"בג'איה","name:hi":"बेजैअ","name:hy":"Բեջայա","name:ja":"ベジャイア","name:kk":"Беджая","name:ko":"베자이아","name:ks":"بجایہ","name:la":"Saldae","name:lt":"Bedžaja","name:mk":"Беџаја","name:nl":"Béjaïa","name:oc":"Bogía","name:pl":"Bidżaja","name:pt":"Bugia","name:ru":"Беджая","name:sr":"Bedžaja","name:tr":"Bicâye","name:uk":"Беджая","name:ur":"بجایہ","name:zh":"贝贾亚","name:azb":"بجایه","name:ber":"ⴲⴳⴰⵢⴻⵝ","name:kab":"Bgayet","name:ota":"بجایه","name:pnb":"بجایہ","old_name":"بوجي","reg_name":"صالدى;الناصرية","alt_name:es":"Bujía","old_name:ar":"بوجي","reg_name:ar":"صالدى;الناصرية","name:kk-Arab":"بەدجايا","name:kab-Arab":"بجاية","name:it":"Bejaia","old_name:fr":"Bougie","alt":"Béjaïa ⴲⴳⴰⵢⴻⵝ بجاية","alt:bg":"Бежая","alt:ca":"Bejaïa","alt:el":"Μπετζάια"},"display_name":"Béjaïa, Daïra Béjaïa, Béjaïa, 06000, Algérie ⵍⵣⵣⴰⵢⴻⵔ الجزائر","address":{"city":"Béjaïa","county":"Daïra Béjaïa","state":"Béjaïa","ISO3166-2-lvl4":"DZ-06","postcode":"06000","country":"Algérie ⵍⵣⵣⴰⵢⴻⵔ الجزائر","country_code":"dz"},"population":177988,"osm_type":"relation","osm_id":2094122,"type":"administrative","location":[5.0643687,36.7511783],"bbox":[4.908666,36.7056237,5.1074723,36.833653]}}
{"name":"Béni Abbès","other_names":{"name:ar":"بني عباس","name:de":"Bani Abbas","name:en":"Bani Abbas","name:fa":"بنی عباس","name:fr":"Béni Abbès","name:azb":"بنی عباس","name:ber":"ⴰⵢⵜ ⴰⴱⴱⴰⵙ","name:kab":"At Ɛebbas"},"display_name":"Béni Abbès, Béni Abbès ⴰⵢⵜ ⴰⴱⴱⴰⵙ بني عباس, Daïra Béni Abbès, Béni Abbès, Algérie ⵍⵣⵣⴰⵢⴻⵔ الجزائر","address":{"city":"Béni Abbès","county":"Daïra Béni Abbès","state":"Béni Abbès","ISO3166-2-lvl4":"DZ-52","country":"Algérie ⵍⵣⵣⴰⵢⴻⵔ الجزائر","country_code":"dz"},"population":12000,"osm_type":"node","osm_id":1573488063,"type":"city","location":[-2.169031,30.1317426],"bbox":[-2.329031,29.9717426,-2.009031,30.2917426],"border":{"name":"Béni Abbès ⴰⵢⵜ ⴰⴱⴱⴰⵙ بني عباس","other_names":{"ref":"0807","name:ar":"بني عباس","name:ca":"Beni Abbes","name:de":"Bani Abbas","name:en":"Bani Abbas","name:eo":"Beni-Abeso","name:fa":"بنی عباس","name:fr":"Béni Abbès","name:ms":"Béni Abbes","name:ru":"Бени-Аббес","name:sq":"Bani-Abaz","name:sv":"Beni Abbès","name:tr":"Bani abès","name:uk":"Бені-Аббес","name:vi":"Beni Abbes","name:azb":"بنی عباس","name:ber":"ⴰⵢⵜ ⴰⴱⴱⴰⵙ","name:kab":"At Ɛebbas","alt":"Béni Abbès"},"display_name":"Béni Abbès ⴰⵢⵜ ⴰⴱⴱⴰⵙ بني عباس, Daïra Béni Abbès, Béni Abbès, 08300, Algérie ⵍⵣⵣⴰⵢⴻⵔ الجزائر","address":{"city":"Béni Abbès ⴰⵢⵜ ⴰⴱⴱⴰⵙ بني عباس","county":"Daïra Béni Abbès","state":"Béni Abbès","ISO3166-2-lvl4":"DZ-52","postcode":"08300","country":"Algérie ⵍⵣⵣⴰⵢⴻⵔ الجزائر","country_code":"dz"},"population":10885,"osm_type":"relation","osm_id":6530989,"type":"administrative","location":[-2.169031,30.1317426],"bbox":[-3.2286846,29.3524362,-1.3164267,30.8187184]}}
{"name":"Beni Khellad ⴱⴻⵏⵏⵉ ⵅⴻⵍⵍⴰⴷ بني خلاد","other_names":{"ref":"1348","name:ar":"بني خلاد","name:en":"Beni khellad","name:fr":"Beni Khellad","name:pl":"Bani Challad","name:ber":"ⴱⴻⵏⵏⵉ ⵅⴻⵍⵍⴰⴷ","name:kab":"Beni Xellad"},"display_name":"Beni Khellad ⴱⴻⵏⵏⵉ ⵅⴻⵍⵍⴰⴷ بني خلاد, Daïra de Honaïne, Tlemcen ⵜⵍⴻⵎⵙⴻⵏ تلمسان, Algérie ⵍⵣⵣⴰⵢⴻⵔ الجزائر","address":{"city":"Beni Khellad ⴱⴻⵏⵏⵉ ⵅⴻⵍⵍⴰⴷ بني خلاد","county":"Daïra de Honaïne","state":"Tlemcen ⵜⵍⴻⵎⵙⴻⵏ تلمسان","ISO3166-2-lvl4":"DZ-13","country":"Algérie ⵍⵣⵣⴰⵢⴻⵔ الجزائر","country_code":"dz"},"population":6933,"osm_type":"relation","osm_id":6666555,"type":"administrative","location":[-1.584678616153623,35.182829999999996],"bbox":[-1.6377032,35.1270343,-1.473366,35.238079],"inferred_type":"city"}
{"name":"Beni Maouche","other_names":{"ref":"0650","name:ar":"بني معوش","name:en":"Beni Maouche","name:fr":"Beni Maouche","name:ber":"ⴰⵢⵜ ⵡⴻⵎⵄⵓⵛ","name:kab":"At Wemɛuc"},"display_name":"Beni Maouche, Daïra Beni Maouche, Béjaïa, 06024, Algérie ⵍⵣⵣⴰⵢⴻⵔ الجزائر","address":{"city":"Beni Maouche","county":"Daïra Beni Maouche","state":"Béjaïa","ISO3166-2-lvl4":"DZ-06","postcode":"06024","country":"Algérie ⵍⵣⵣⴰⵢⴻⵔ الجزائر","country_code":"dz"},"population":13412,"osm_type":"relation","osm_id":4070138,"type":"administrative","location":[4.7875519708795515,36.487851199999994],"bbox":[4.7160226,36.4320388,4.865771,36.5439444],"inferred_type":"city"}
{"name":"Beni Semiel ⴱⴻⵏⵉ ⵚⴻⵎⵢⴻⵍ بني صميل","other_names":{"ref":"1352","name:ar":"بني صميل","name:en":"Beni Semiel","name:fr":"Beni Semiel","name:ms":"Beni Smiel","name:pl":"Bani Samil","name:vi":"Beni Smiel","name:ber":"ⴱⴻⵏⵉ ⵚⴻⵎⵢⴻⵍ","name:kab":"Beni Ṣemyel"},"display_name":"Beni Semiel ⴱⴻⵏⵉ ⵚⴻⵎⵢⴻⵍ بني صميل, Daïra Ouled Mimoun, Tlemcen ⵜⵍⴻⵎⵙⴻⵏ تلمسان, Algérie ⵍⵣⵣⴰⵢⴻⵔ الجزائر","address":{"city":"Beni Semiel ⴱⴻⵏⵉ ⵚⴻⵎⵢⴻⵍ بني صميل","county":"Daïra Ouled Mimoun","state":"Tlemcen ⵜⵍⴻⵎⵙⴻⵏ تلمسان","ISO3166-2-lvl4":"DZ-13","country":"Algérie ⵍⵣⵣⴰⵢⴻⵔ الجزائر","country_code":"dz"},"population":4704,"osm_type":"relation","osm_id":6666557,"type":"administrative","location":[-1.0917147225529444,34.78512125],"bbox":[-1.2140368,34.6998092,-0.9732419,34.8703083],"inferred_type":"city"}
{"name":"Beni Zid ⴱⴻⵏⵉ ⵣⵉⴷ بنى زيد","other_names":{"ref":"2111","name:ar":"بنى زيد","name:en":"Beni Zid","name:fr":"Beni Zid","name:ber":"ⴱⴻⵏⵉ ⵣⵉⴷ","name:kab":"Beni Zid"},"display_name":"Beni Zid ⴱⴻⵏⵉ ⵣⵉⴷ بنى زيد, Daïra Collo, Skikda, 21016, Algérie ⵍⵣⵣⴰⵢⴻⵔ الجزائر","address":{"city":"Beni Zid ⴱⴻⵏⵉ ⵣⵉⴷ بنى زيد","county":"Daïra Collo","state":"Skikda","ISO3166-2-lvl4":"DZ-21","postcode":"21016","country":"Algérie ⵍⵣⵣⴰⵢⴻⵔ الجزائر","country_code":"dz"},"population":20697,"osm_type":"relation","osm_id":6543282,"type":"administrative","location":[6.476293438977864,36.9124122],"bbox":[6.3945624,36.8562098,6.5799789,36.9686164],"inferred_type":"city"}
{"name":"Biskra","other_names":{"name:ar":"بسكرة","name:el":"Μπίσκρα","name:en":"Biskra","name:fr":"Biskra","name:lt":"Biskra","name:ru":"Бискра","name:uk":"Біскра","name:ber":"ⵜⵉⴱⴻⵙⴽⴻⵔⵜ","name:kab":"Tibsekrett"},"display_name":"Biskra, Biskra ⵜⵉⴱⴻⵙⴽⴻⵔⵜ بسكرة, Daïra Biskra, Biskra, Algérie ⵍⵣⵣⴰⵢⴻⵔ الجزائر","address":{"city":"Biskra","county":"Daïra Biskra","state":"Biskra","ISO3166-2-lvl4":"DZ-07","country":"Algérie ⵍⵣⵣⴰⵢⴻⵔ الجزائر","country_code":"dz"},"population":205608,"osm_type":"node","osm_id":299682811,"type":"city","location":[5.729074,34.8508816],"bbox":[5.569074,34.6908816,5.889074,35.0108816],"border":{"name":"Biskra ⵜⵉⴱⴻⵙⴽⴻⵔⵜ بسكرة","other_names":{"ref":"0701","name:ar":"بسكرة","name:bg":"Бискра","name:bn":"বিসক্রা","name:en":"Biskra","name:fa":"بسکره، الجزایر","name:fr":"Biskra","name:ja":"ビスクラ","name:ko":"비스크라","name:pl":"Biskira","name:ru":"Бискра (город)","name:uk":"Біскра","name:zh":"比斯克拉","name:ber":"ⵜⵉⴱⴻⵙⴽⴻⵔⵜ","name:kab":"Tibsekrett","name:el":"Μπίσκρα","name:lt":"Biskra","alt":"Biskra","alt:ru":"Бискра"},"display_name":"Biskra ⵜⵉⴱⴻⵙⴽⴻⵔⵜ بسكرة, Daïra Biskra, Biskra, Algérie ⵍⵣⵣⴰⵢⴻⵔ الجزائر","address":{"city":"Biskra ⵜⵉⴱⴻⵙⴽⴻⵔⵜ بسكرة","county":"Daïra Biskra","state":"Biskra","ISO3166-2-lvl4":"DZ-07","country":"Algérie ⵍⵣⵣⴰⵢⴻⵔ الجزائر","country_code":"dz"},"population":205608,"osm_type":"relation","osm_id":4120759,"type":"administrative","location":[5.729074,34.8508816],"bbox":[5.6536695,34.7855986,5.7938329,34.9176664]}}
{"name":"Blida ⵍⴻⴱⵍⵉⴸⴰ البليدة","other_names":{"name:ar":"البليدة","name:be":"Бліда","name:bg":"Блида","name:ca":"Blida","name:de":"Blida","name:el":"Μπλίντα","name:en":"Blida","name:es":"Blida","name:eu":"Blida","name:fa":"البلیده","name:fr":"Blida","name:it":"Blida","name:ja":"ブリダ","name:kk":"Блида","name:ko":"블리다","name:ks":"بلیدہ","name:lt":"Blida","name:nl":"Blida","name:pl":"Al-Bulajda","name:pt":"Blida","name:ro":"Blida","name:ru":"Блида","name:sh":"Blida","name:sr":"Блида","name:uk":"Бліда","name:ur":"بلیدہ","name:zh":"卜利达","name:azb":"البلیده","name:ber":"ⵍⴻⴱⵍⵉⴸⴰ","name:kab":"Lebliḏa","name:ota":"البلیده","name:pnb":"بلیدہ","name:az-Arab":"البلیده","name:kk-Arab":"بلىيدا","name:kab-Arab":"البليدة"},"display_name":"Blida ⵍⴻⴱⵍⵉⴸⴰ البليدة, Daïra Blida, Blida, 09000, Algérie ⵍⵣⵣⴰⵢⴻⵔ الجزائر","address":{"city":"Blida ⵍⴻⴱⵍⵉⴸⴰ البليدة","county":"Daïra Blida","state":"Blida","ISO3166-2-lvl4":"DZ-09","postcode":"09000","country":"Algérie ⵍⵣⵣⴰⵢⴻⵔ الجزائر","country_code":"dz"},"population":331779,"osm_type":"node","osm_id":288418022,"type":"city","location":[2.8274937,36.4705658],"bbox":[2.6674937,36.3105658,2.9874937,36.6305658],"border":{"name":"Blida ⵍⴻⴱⵍⵉⴸⴰ البليدة","other_names":{"ref":"0901","name:ar":"البليدة","name:be":"Бліда","name:bg":"Блида","name:br":"El Bouleida","name:de":"Blida","name:en":"Blida","name:es":"Blida","name:fa":"البلیده","name:fr":"Blida","name:ja":"ブリダ","name:kk":"Блида","name:ko":"블리다","name:ks":"بلیدہ","name:mk":"Блида","name:mn":"Блида","name:nl":"Blida","name:no":"Blida","name:pl":"Al-Bulajda","name:ru":"Блида","name:sh":"Blida","name:sn":"Bilda","name:sr":"Блида","name:sv":"Blida","name:th":"บลีดา","name:tr":"Buleyde","name:uk":"Бліда","name:ur":"بلیدہ","name:zh":"卜利达","name:azb":"البلیده","name:ber":"ⵍⴻⴱⵍⵉⴸⴰ","name:kab":"Lebliḏa","name:ota":"البلیده","name:pnb":"بلیدہ","name:az-Arab":"البلیده","name:kk-Arab":"بلىيدا","name:kab-Arab":"البليدة","name:ca":"Blida","name:el":"Μπλίντα","name:eu":"Blida","name:it":"Blida","name:lt":"Blida","name:pt":"Blida","name:ro":"Blida"},"display_name":"Blida ⵍⴻⴱⵍⵉⴸⴰ البليدة, Daïra Blida, Blida, 09000, Algérie ⵍⵣⵣⴰⵢⴻⵔ الجزائر","address":{"city":"Blida ⵍⴻⴱⵍⵉⴸⴰ البليدة","county":"Daïra Blida","state":"Blida","ISO3166-2-lvl4":"DZ-09","postcode":"09000","country":"Algérie ⵍⵣⵣⴰⵢⴻⵔ الجزائر","country_code":"dz"},"population":163586,"osm_type":"relation","osm_id":3823201,"type":"administrative","location":[2.8274937,36.4705658],"bbox":[2.7327134,36.4435374,2.8683281,36.5172311]}}
{"name":"Bordj Badji Mokhtar","other_names":{"name:ar":"برج باجي مختار","name:el":"Μπορντζ Μπάντζι Μοχτάρ","name:en":"Bordj Badji Mokhtar","name:fa":"برج باجی مختار","name:fr":"Bordj Badji Mokhtar","name:ur":"برج باجی مختار","name:azb":"برج باجی مختار","name:ber":"ⴱⵓⵔⴵ ⴱⴰⴵⵉ ⵎⵓⵅⵜⴰⵔ","name:kab":"Burǧ Baǧi Lmuxṭar"},"display_name":"Bordj Badji Mokhtar, Bordj Badji Mokhtar ⴱⵓⵔⴵ ⴱⴰⴵⵉ ⵎⵓⵅⵜⴰⵔ برج باجي مختار, Daïra de Bordj Badji Mokhtar, Bordj Badji Mokhtar, Algérie ⵍⵣⵣⴰⵢⴻⵔ الجزائر","address":{"city":"Bordj Badji Mokhtar","county":"Daïra de Bordj Badji Mokhtar","state":"Bordj Badji Mokhtar","ISO3166-2-lvl4":"DZ-50","country":"Algérie ⵍⵣⵣⴰⵢⴻⵔ الجزائر","country_code":"dz"},"population":16437,"osm_type":"node","osm_id":429502149,"type":"city","location":[0.9540403,21.3302568],"bbox":[0.7940403,21.1702568,1.1140403,21.4902568],"border":{"name":"Bordj Badji Mokhtar ⴱⵓⵔⴵ ⴱⴰⴵⵉ ⵎⵓⵅⵜⴰⵔ برج باجي مختار","other_names":{"ref":"0125","name:ar":"برجي باجي مختار","name:en":"Bordj Badji Mokhtar","name:fa":"برج باجی مختار","name:fr":"Bordj Badji Mokhtar","name:ur":"برج باجی مختار","name:azb":"برج باجی مختار","name:ber":"ⴱⵓⵔⴵ ⴱⴰⴵⵉ ⵎⵓⵅⵜⴰⵔ","name:kab":"Burǧ Baǧi Moxṭaṛ","name:el":"Μπορντζ Μπάντζι Μοχτάρ","alt":"Bordj Badji Mokhtar","alt:ar":"برج باجي مختار","alt:kab":"Burǧ Baǧi Lmuxṭar"},"display_name":"Bordj Badji Mokhtar ⴱⵓⵔⴵ ⴱⴰⴵⵉ ⵎⵓⵅⵜⴰⵔ برج باجي مختار, Daïra de Bordj Badji Mokhtar, Bordj Badji Mokhtar, 01010, Algérie ⵍⵣⵣⴰⵢⴻⵔ الجزائر","address":{"city":"Bordj Badji Mokhtar ⴱⵓⵔⴵ ⴱⴰⴵⵉ ⵎⵓⵅⵜⴰⵔ برج باجي مختار","county":"Daïra de Bordj Badji Mokhtar","state":"Bordj Badji Mokhtar","ISO3166-2-lvl4":"DZ-50","postcode":"01010","country":"Algérie ⵍⵣⵣⴰⵢⴻⵔ الجزائر","country_code":"dz"},"population":16437,"osm_type":"relation","osm_id":4171606,"type":"administrative","location":[0.9540403,21.3302568],"bbox":[-4.8333344,20.7217382,1.428444,25.242573]}}
{"name":"Bordj Bou Arreridj","other_names":{"name:ar":"برج بوعريريج","name:el":"Μπορντζ Μπου Αρερίτζ","name:en":"Bordj Bou Arreridjj","name:fr":"Bordj Bou Arreridj","name:lt":"Bordž Bu Areridžas","name:ru":"Бордж-Бу-Арреридж","name:zh":"布阿拉里季堡","name:ber":"ⴱⵓⵔⴵ ⴱⵓ ⵄⵔⵉⵔⵉⴵ","name:kab":"Burǧ Bu Aɛririǧ","short_name":"BBA"},"display_name":"Bordj Bou Arreridj, Bordj Bou Arreridj ⴱⵓⵔⴵ ⴱⵓ ⵄⵔⵉⵔⵉⴵ برج بوعريريج, Daïra Bordj Bou Arreridj, Bordj Bou Arreridj, 34000, Algérie ⵍⵣⵣⴰⵢⴻⵔ الجزائر","address":{"city":"Bordj Bou Arreridj","county":"Daïra Bordj Bou Arreridj","state":"Bordj Bou Arreridj","ISO3166-2-lvl4":"DZ-34","postcode":"34000","country":"Algérie ⵍⵣⵣⴰⵢⴻⵔ الجزائر","country_code":"dz"},"population":168346,"osm_type":"node","osm_id":291964008,"type":"city","location":[4.7613476,36.0741121],"bbox":[4.6013476,35.9141121,4.9213476,36.2341121],"border":{"name":"Bordj Bou Arreridj ⴱⵓⵔⴵ ⴱⵓ ⵄⵔⵉⵔⵉⴵ برج بوعريريج","other_names":{"ref":"3401","name:ar":"برج بوعريريج","name:el":"Μπορντζ Μπου Αρερίντζ","name:en":"Bordj Bou Arreridj","name:eo":"Borĝ Bu Areriĝ","name:es":"Bordj Bou Arréridj","name:fa":"برج بو عریریج","name:fr":"Bordj Bou Arreridj","name:ja":"ボルジ・ブ・アレリジ","name:ko":"보르즈부아레리즈","name:lt":"Bordž Bu Areridžas","name:ms":"Bordj-Bou-Arreridj","name:nl":"Bordj Bou Arréridj","name:pl":"Burdż Bu Urajridż","name:ro":"Bordj Bou Arréridj","name:ru":"Бордж-Бу-Арреридж","name:sv":"Bordj Bou Arréridj","name:uk":"Бордж-Бу-Арреридж","name:ur":"برج بو عریریج","name:zh":"布阿拉里季堡","name:ber":"ⴱⵓⴵ ⴱⵓ ⴰⵄⵔⵉⵔⵉⴵ","name:kab":"Burǧ Bu Aɛririǧ","short_name":"BBA","alt":"Bordj Bou Arreridj","alt:el":"Μπορντζ Μπου Αρερίτζ","alt:en":"Bordj Bou Arreridjj","alt:ber":"ⴱⵓⵔⴵ ⴱⵓ ⵄⵔⵉⵔⵉⴵ"},"display_name":"Bordj Bou Arreridj ⴱⵓⵔⴵ ⴱⵓ ⵄⵔⵉⵔⵉⴵ برج بوعريريج, Daïra Bordj Bou Arreridj, Bordj Bou Arreridj, Algérie ⵍⵣⵣⴰⵢⴻⵔ الجزائر","address":{"city":"Bordj Bou Arreridj ⴱⵓⵔⴵ ⴱⵓ ⵄⵔⵉⵔⵉⴵ برج بوعريريج","county":"Daïra Bordj Bou Arreridj","state":"Bordj Bou Arreridj","ISO3166-2-lvl4":"DZ-34","country":"Algérie ⵍⵣⵣⴰⵢⴻⵔ الجزائر","country_code":"dz"},"population":168346,"osm_type":"relation","osm_id":4309047,"type":"administrative","location":[4.7613476,36.0741121],"bbox":[4.6882377,36.0152689,4.8460531,36.1201296]}}
{"name":"Boudria Ben Yadjis ⴱⵓⴷⵔⵉⵢⴰ ⴱⴻⵏ ⵢⴰⴵⵉⵙ بودريعة بن ياجيس","other_names":{"ref":"1822","name:ar":"بودريعة بن ياجيس","name:en":"Boudria Ben Yadjis","name:fr":"Boudria Ben Yadjis","name:it":"Boudriaa Ben Yadjis","name:ms":"Boudriaa Ben Yadjis","name:pt":"Boudriaa Ben Yadjis","name:ro":"Boudriaa Ben Yadjis","name:ber":"ⴱⵓⴷⵔⵉⵢⴰ ⴱⴻⵏ ⵢⴰⴵⵉⵙ","name:kab":"Budriya Ben Yaǧis"},"display_name":"Boudria Ben Yadjis ⴱⵓⴷⵔⵉⵢⴰ ⴱⴻⵏ ⵢⴰⴵⵉⵙ بودريعة بن ياجيس, Daïra Djimla, جيجل, Algérie ⵍⵣⵣⴰⵢⴻⵔ الجزائر","address":{"city":"Boudria Ben Yadjis ⴱⵓⴷⵔⵉⵢⴰ ⴱⴻⵏ ⵢⴰⴵⵉⵙ بودريعة بن ياجيس","county":"Daïra Djimla","state":"جيجل","ISO3166-2-lvl4":"DZ-18","country":"Algérie ⵍⵣⵣⴰⵢⴻⵔ الجزائر","country_code":"dz"},"population":10710,"osm_type":"relation","osm_id":5802582,"type":"administrative","location":[5.759562374046985,36.5901257],"bbox":[5.6776616,36.5499728,5.8482086,36.6302297],"inferred_type":"city"}
{"name":"Bouira","other_names":{"name:ar":"البويرة","name:ca":"Bouira","name:de":"Bouira","name:el":"Μπουΐρα","name:en":"Bouira","name:es":"Albuira","name:fa":"بویره","name:fr":"Bouira","name:it":"Bouira","name:ja":"ブイラ","name:ko":"부이라","name:nl":"Bouira","name:pl":"Bouira","name:ru":"Буира","name:uk":"Буїра","name:ur":"بویرہ","name:zh":"布维拉","alt_name":"Bordj Hamza","name:azb":"بویره","name:ber":"ⵝⵓⵠⵉⵔⴻⵜ","name:kab":"Tubiret","old_name":"Coligny","alt_name:ar":"برج حمزة","alt_name:fr":"Bordj Hamza","old_name:fr":"Coligny","name:az-Arab":"بویره"},"display_name":"Bouira, Bouira البويرة, Daïra Bouira, Bouira, 10000, Algérie ⵍⵣⵣⴰⵢⴻⵔ الجزائر","address":{"city":"Bouira","county":"Daïra Bouira","state":"Bouira","ISO3166-2-lvl4":"DZ-10","postcode":"10000","country":"Algérie ⵍⵣⵣⴰⵢⴻⵔ الجزائر","country_code":"dz"},"population":695585,"osm_type":"node","osm_id":394733994,"type":"city","location":[3.9007007,36.3739012],"bbox":[3.7407007,36.2139012,4.0607007,36.5339012],"border":{"name":"Bouira البويرة","other_names":{"ref":"1001","name:ar":"البويرة","name:de":"Bouira","name:el":"Μπουίρα","name:en":"Bouira","name:es":"Albuira","name:fa":"بویره","name:fr":"Bouira","name:ja":"ブイラ","name:ko":"부이라","name:pl":"Al-Buwajra","name:ru":"Буира","name:uk":"Буїра","name:ur":"بویرہ","name:zh":"布维拉","name:azb":"بویره","name:ber":"ⵜⵓⴱⵉⵔⴻⵜ","name:kab":"Tubiret","old_name":"برج حمزة","old_name:ar":"برج حمزة","name:az-Arab":"بویره","name:ca":"Bouira","name:it":"Bouira","name:nl":"Bouira","alt_name":"Bordj Hamza","_place_old_name":"Coligny","alt_name:ar":"برج حمزة","alt_name:fr":"Bordj Hamza","old_name:fr":"Coligny","alt":"Bouira","alt:el":"Μπουΐρα","alt:pl":"Bouira","alt:ber":"ⵝⵓⵠⵉⵔⴻⵜ"},"display_name":"Bouira البويرة, Daïra Bouira, Bouira, Algérie ⵍⵣⵣⴰⵢⴻⵔ الجزائر","address":{"city":"Bouira البويرة","county":"Daïra Bouira","state":"Bouira","ISO3166-2-lvl4":"DZ-10","country":"Algérie ⵍⵣⵣⴰⵢⴻⵔ الجزائر","country_code":"dz"},"population":88801,"osm_type":"relation","osm_id":3416774,"type":"administrative","location":[3.9007007,36.3739012],"bbox":[3.831662,36.3089567,3.974984,36.436657]}}
{"name":"Boukhelifa","other_names":{"ref":"0648","name:ar":"بوخليفة","name:en":"Boukhelifa","name:fr":"Boukhelifa","loc_name":"Buxlifa","name:ber":"ⴱⵓⵅⵍⵉⴼⴰ","name:kab":"Buxlifa"},"display_name":"Boukhelifa, Daïra Tichy, Béjaïa, 06101, Algérie ⵍⵣⵣⴰⵢⴻⵔ الجزائر","address":{"city":"Boukhelifa","county":"Daïra Tichy","state":"Béjaïa","ISO3166-2-lvl4":"DZ-06","postcode":"06101","country":"Algérie ⵍⵣⵣⴰⵢⴻⵔ الجزائر","country_code":"dz"},"population":8766,"osm_type":"relation","osm_id":4112950,"type":"administrative","location":[5.07497076960119,36.6368914],"bbox":[5.0070874,36.561512,5.1441336,36.7117441],"inferred_type":"city"}
{"name":"Boumerdès ⴱⵓⵎⴻⵔⴷⴰⵙ بومرداس","other_names":{"name:ar":"بومرداس","name:de":"Bumerdes","name:el":"Μπουμέρντ","name:en":"Boumerdes","name:es":"Bumerdés","name:fa":"بومرداس","name:fr":"Boumerdès","name:ks":"بومرداس","name:ru":"Бумердес","name:ur":"بومرداس","name:ary":"بومرداس","name:arz":"بومرداس","name:azb":"بومرداس","name:ber":"ⴱⵓⵎⴻⵔⴷⴰⵙ","name:kab":"Bumerdas","name:pnb":"بومرداس","old_name":"الصخرة السوداء","old_name:ar":"الصخرة السوداء","old_name:fr":"Rocher Noir","name:az-Arab":"بومرداس","name:kab-Arab":"بومرداس"},"display_name":"Boumerdès ⴱⵓⵎⴻⵔⴷⴰⵙ بومرداس, Daïra Boumerdès, Boumerdès, 35000, Algérie ⵍⵣⵣⴰⵢⴻⵔ الجزائر","address":{"city":"Boumerdès ⴱⵓⵎⴻⵔⴷⴰⵙ بومرداس","county":"Daïra Boumerdès","state":"Boumerdès","ISO3166-2-lvl4":"DZ-35","postcode":"35000","country":"Algérie ⵍⵣⵣⴰⵢⴻⵔ الجزائر","country_code":"dz"},"population":41685,"osm_type":"node","osm_id":252600742,"type":"city","location":[3.473102,36.7590403],"bbox":[3.313102,36.5990403,3.633102,36.9190403],"border":{"name":"Boumerdès ⴱⵓⵎⴻⵔⴷⴰⵙ بومرداس","other_names":{"ref":"3501","name:ar":"بومرداس","name:de":"Bumerdes","name:el":"Μπουμέρντ","name:en":"Boumerdès","name:es":"Bumerdés","name:fa":"بومرداس","name:fr":"Boumerdès","name:he":"בומרדס","name:ko":"부메르데스","name:ks":"بومرداس","name:pl":"Bumardas","name:ru":"Бумердес","name:uk":"Бумердес","name:ur":"بومرداس","name:vi":"Boumerdes","name:zh":"布米尔达斯","name:ary":"بومرداس","name:arz":"بومرداس","name:azb":"بومرداس","name:ber":"ⴱⵓⵎⴻⵔⴷⴰⵙ","name:kab":"Bumerdas","name:pnb":"بومرداس","old_name":"الصخرة السوداء","old_name:ar":"الصخرة السوداء","name:az-Arab":"بومرداس","name:pa-Arab":"بومرداس","name:kab-Arab":"بومرداس","old_name:fr":"Rocher Noir","alt:en":"Boumerdes"},"display_name":"Boumerdès ⴱⵓⵎⴻⵔⴷⴰⵙ بومرداس, Daïra Boumerdès, Boumerdès, Algérie ⵍⵣⵣⴰⵢⴻⵔ الجزائر","address":{"city":"Boumerdès ⴱⵓⵎⴻⵔⴷⴰⵙ بومرداس","county":"Daïra Boumerdès","state":"Boumerdès","ISO3166-2-lvl4":"DZ-35","country":"Algérie ⵍⵣⵣⴰⵢⴻⵔ الجزائر","country_code":"dz"},"population":41685,"osm_type":"relation","osm_id":4272680,"type":"administrative","location":[3.473102,36.7590403],"bbox":[3.4498593,36.7334834,3.5337397,36.7786267]}}
{"name":"Chellala ⵛⴻⵍⵍⴰⵍⴰ شلالة","other_names":{"ref":"3214","name:ar":"شلالة","name:en":"Chellala","name:fr":"Chellala","name:ur":"شلالہ","name:ber":"ⵛⴻⵍⵍⴰⵍⴰ","name:kab":"Cellala"},"display_name":"Chellala ⵛⴻⵍⵍⴰⵍⴰ شلالة, daïra Chellala, El Bayadh, Algérie ⵍⵣⵣⴰⵢⴻⵔ الجزائر","address":{"city":"Chellala ⵛⴻⵍⵍⴰⵍⴰ شلالة","county":"daïra Chellala","state":"El Bayadh","ISO3166-2-lvl4":"DZ-32","country":"Algérie ⵍⵣⵣⴰⵢⴻⵔ الجزائر","country_code":"dz"},"population":3929,"osm_type":"relation","osm_id":6533979,"type":"administrative","location":[0.08969712287455461,33.017023550000005],"bbox":[-0.0171305,32.921395,0.186415,33.1144423],"inferred_type":"city"}
{"name":"Chir ⵛⵉⵔ شير","other_names":{"ref":"0552","name:ar":"شير","name:en":"Chir","name:fr":"Chir","name:ber":"ⵛⵉⵔ","name:kab":"Cir"},"display_name":"Chir ⵛⵉⵔ شير, Daïra Teniet El Abed, Batna, 05108, Algérie ⵍⵣⵣⴰⵢⴻⵔ الجزائر","address":{"city":"Chir ⵛⵉⵔ شير","county":"Daïra Teniet El Abed","state":"Batna","ISO3166-2-lvl4":"DZ-05","postcode":"05108","country":"Algérie ⵍⵣⵣⴰⵢⴻⵔ الجزائر","country_code":"dz"},"population":5478,"osm_type":"relation","osm_id":5201376,"type":"administrative","location":[6.132079043846087,35.21794005],"bbox":[6.0492028,35.1714788,6.2119766,35.2638246],"inferred_type":"city"}
{"name":"Chlef ⵛⵍⴻⴼ الشلف","other_names":{"name:ar":"الشلف","name:bg":"Шлеф","name:de":"Chlef","name:el":"Σλεφ","name:en":"Chlef","name:es":"Chlef","name:fa":"شلف","name:fr":"Chlef","name:it":"Chlef","name:ja":"シュレフ","name:la":"Castellum Tingitanum","name:lt":"Šelifas","name:pl":"Szalif","name:ru":"Эш-Шелифф","name:sv":"Chlef","name:ur":"شلف","name:zh":"谢利夫","name:azb":"شلف","name:ber":"ⵛⵍⴻⴼ","name:kab":"Cclef","name:pnb":"شلف","old_name":"كستلم تنجيتانم;كاستيليوم تانجيتانيوم;أورليانفيل;الأصنام","old_name:ar":"كستلم تنجيتانم;كاستيليوم تانجيتانيوم;أورليانفيل;الأصنام","old_name:fr":"Orléansville;El Asnam"},"display_name":"Chlef ⵛⵍⴻⴼ الشلف, Chlef الشلف, Daïra Chlef, Chlef, Algérie ⵍⵣⵣⴰⵢⴻⵔ الجزائر","address":{"city":"Chlef ⵛⵍⴻⴼ الشلف","county":"Daïra Chlef","state":"Chlef","ISO3166-2-lvl4":"DZ-02","country":"Algérie ⵍⵣⵣⴰⵢⴻⵔ الجزائر","country_code":"dz"},"population":178616,"osm_type":"node","osm_id":299680100,"type":"city","location":[1.331499,36.164592],"bbox":[1.171499,36.004592,1.491499,36.324592],"border":{"name":"Chlef الشلف","other_names":{"ref":"0201","name:ar":"الشلف","name:bg":"Шлеф","name:de":"Asch-Schalif","name:en":"Chlef","name:eo":"Ŝlef","name:fa":"شلف","name:fr":"Chlef","name:ja":"シュレフ","name:ko":"슐레프","name:lt":"Šelifas","name:pl":"Szalif","name:ru":"Эш-Шелифф","name:tl":"Lalawigan ng Chlef","name:uk":"Шлеф","name:ur":"شلف","name:zh":"谢里夫市","name:azb":"شلف","name:ber":"ⵛⵍⴻⴼ","name:kab":"Clef","name:pnb":"شلف","name:el":"Σλεφ","name:es":"Chlef","name:it":"Chlef","name:la":"Castellum Tingitanum","name:sv":"Chlef","old_name":"كستلم تنجيتانم;كاستيليوم تانجيتانيوم;أورليانفيل;الأصنام","old_name:ar":"كستلم تنجيتانم;كاستيليوم تانجيتانيوم;أورليانفيل;الأصنام","old_name:fr":"Orléansville;El Asnam","alt":"Chlef ⵛⵍⴻⴼ الشلف","alt:de":"Chlef","alt:zh":"谢利夫","alt:kab":"Cclef"},"display_name":"Chlef الشلف, Daïra Chlef, Chlef, 02000, Algérie ⵍⵣⵣⴰⵢⴻⵔ الجزائر","address":{"city":"Chlef الشلف","county":"Daïra Chlef","state":"Chlef","ISO3166-2-lvl4":"DZ-02","postcode":"02000","country":"Algérie ⵍⵣⵣⴰⵢⴻⵔ الجزائر","country_code":"dz"},"population":178616,"osm_type":"relation","osm_id":4295138,"type":"administrative","location":[1.331499,36.164592],"bbox":[1.2595003,36.0902947,1.4487204,36.2488481]}}
{"name":"Constantine ⵇⵙⴻⵟⵉⵏⴰ قسنطينة","other_names":{"name:ar":"قسنطينة","name:de":"Constantine","name:el":"Κωνσταντίνη","name:en":"Constantine","name:es":"Constantina","name:eu":"Konstantina","name:fa":"قسنطینه","name:fr":"Constantine","name:it":"Costantina","name:ja":"コンスタンティーヌ","name:la":"Cirta","name:lt":"Konstantina","name:ml":"കോൺസ്റ്റന്റൈൻ","name:pl":"Konstantyna","name:ru":"Константина","name:sk":"Constantine","name:tr":"Konstantin","name:ur":"قسنطینہ","name:zh":"君士坦丁","alt_name":"Qacentina","name:azb":"قسنطینه","name:ber":"ⵇⵙⴻⵟⵉⵏⴰ","name:kab":"Qsemṭina","name:pnb":"قسنطینہ","alt_name:ar":"مدينة الجسور المعلقة;عاصمة الشرق","alt_name:la":"Constantina"},"display_name":"Constantine ⵇⵙⴻⵟⵉⵏⴰ قسنطينة, Daïra Constantine, Constantine, Algérie ⵍⵣⵣⴰⵢⴻⵔ الجزائر","address":{"city":"Constantine ⵇⵙⴻⵟⵉⵏⴰ قسنطينة","county":"Daïra Constantine","state":"Constantine","ISO3166-2-lvl4":"DZ-25","country":"Algérie ⵍⵣⵣⴰⵢⴻⵔ الجزائر","country_code":"dz"},"population":448374,"osm_type":"node","osm_id":27564946,"type":"city","location":[6.6084281,36.3641642],"bbox":[6.4484281,36.2041642,6.7684281,36.5241642],"border":{"name":"Constantine ⵇⵙⴻⵟⵉⵏⴰ قسنطينة","other_names":{"ref":"2501","name:af":"Constantine","name:ar":"قسنطينة","name:az":"Konstantin","name:be":"Горад Канстанціна","name:bg":"Константин (град)","name:bn":"কন্সটান্টিন","name:br":"Konstantin","name:ca":"Constantina","name:cs":"Constantine","name:cy":"Constantine","name:da":"Constantine","name:de":"Constantine","name:el":"Κωνσταντίνη","name:en":"Constantine","name:eo":"Konstantino","name:es":"Constantina","name:eu":"Konstantina","name:fa":"قسنطینه","name:fr":"Constantine","name:gl":"Constantina","name:he":"קונסטנטין","name:hi":"कांस्टैंटाइन","name:hu":"Kaszentína","name:hy":"Կոնստանտինա","name:id":"Konstantin","name:it":"Costantina","name:ja":"コンスタンティーヌ","name:ko":"콩스탕틴","name:ky":"Константина шаары","name:la":"Cirta","name:lt":"Konstantina","name:mk":"Константин","name:ms":"Constantine","name:nl":"Constantine","name:no":"Constantine","name:oc":"Constantina","name:pl":"Konstantyna","name:pt":"Constantina","name:ro":"Constantina","name:ru":"Константина","name:sk":"Constantine","name:sn":"Constantine","name:sr":"Константин","name:sv":"Constantine","name:th":"กงส์ต็องตีน (ประเทศแอลจีเรีย)","name:tr":"Konstantin","name:uk":"Константіна","name:ur":"قسنطینہ","name:uz":"Konstantina","name:vi":"Constantine","name:zh":"君士坦丁","name:azb":"قسنطینه","name:ber":"ⵇⵙⴻⵟⵉⵏⴰ","name:kab":"Qsemṭina","name:pnb":"قسنطینہ","alt_name:ar":"مدينة الجسور المعلقة;عاصمة الشرق","alt_name:la":"Constantina;Qacentina","name:ml":"കോൺസ്റ്റന്റൈൻ","alt_name":"Qacentina","_place_alt_name:la":"Constantina"},"display_name":"Constantine ⵇⵙⴻⵟⵉⵏⴰ قسنطينة, Daïra Constantine, Constantine, Algérie ⵍⵣⵣⴰⵢⴻⵔ الجزائر","address":{"city":"Constantine ⵇⵙⴻⵟⵉⵏⴰ قسنطينة","county":"Daïra Constantine","state":"Constantine","ISO3166-2-lvl4":"DZ-25","country":"Algérie ⵍⵣⵣⴰⵢⴻⵔ الجزائر","country_code":"dz"},"population":448374,"osm_type":"relation","osm_id":2245418,"type":"administrative","location":[6.6084281,36.3641642],"bbox":[6.5284453,36.2589259,6.7665523,36.4490899]}}
{"name":"Dar Yaghmouracene ⴷⴰⵔ ⵢⴰⵖⵎⵓⵔⴰⵙⴻⵏ دار يغمراسن","other_names":{"ref":"1319","name:ar":"دار يغمراسن","name:en":"Dar Yaghmouracene","name:fr":"Dar Yaghmouracene","name:pl":"Dar Jaghmurasan","name:ber":"ⴷⴰⵔ ⵢⴰⵖⵎⵓⵔⴰⵙⴻⵏ","name:kab":"Dar Yaɣmurasen"},"display_name":"Dar Yaghmouracene ⴷⴰⵔ ⵢⴰⵖⵎⵓⵔⴰⵙⴻⵏ دار يغمراسن, Daïra Ghazaouet, Tlemcen ⵜⵍⴻⵎⵙⴻⵏ تلمسان, Algérie ⵍⵣⵣⴰⵢⴻⵔ الجزائر","address":{"city":"Dar Yaghmouracene ⴷⴰⵔ ⵢⴰⵖⵎⵓⵔⴰⵙⴻⵏ دار يغمراسن","county":"Daïra Ghazaouet","state":"Tlemcen ⵜⵍⴻⵎⵙⴻⵏ تلمسان","ISO3166-2-lvl4":"DZ-13","country":"Algérie ⵍⵣⵣⴰⵢⴻⵔ الجزائر","country_code":"dz"},"population":6331,"osm_type":"relation","osm_id":6666561,"type":"administrative","location":[-1.7741173043959828,35.10531875],"bbox":[-1.8306703,35.0570227,-1.7041819,35.1533251],"inferred_type":"city"}
{"name":"Djanet","other_names":{"name:ar":"جانت","name:de":"Djanet","name:el":"Ντζανέτ","name:en":"Djanet","name:es":"Yanet","name:fa":"جانت","name:fr":"Djanet","name:it":"Djanet","name:ja":"ジャーネット","name:ko":"자네트","name:ks":"جانت","name:pt":"Djanet","name:ur":"جانت","name:zh":"贾奈特","name:arz":"جانت","name:azb":"جانت","name:ber":"ⵊⴰⵏⴻⵜ","name:kab":"Ǧanet"},"display_name":"Djanet, جانت, Daïra de Djanet, Djanet, Algérie ⵍⵣⵣⴰⵢⴻⵔ الجزائر","address":{"city":"Djanet","county":"Daïra de Djanet","state":"Djanet","ISO3166-2-lvl4":"DZ-56","country":"Algérie ⵍⵣⵣⴰⵢⴻⵔ الجزائر","country_code":"dz"},"population":15000,"osm_type":"node","osm_id":2119580230,"type":"city","location":[9.484194,24.5538847],"bbox":[9.324194,24.3938847,9.644194,24.7138847],"border":{"name":"جانت","other_names":{"ref":"3302","name:ar":"جانت","name:de":"Djanet","name:en":"Djanet","name:eo":"Ĝanet","name:es":"Yanet","name:fa":"جانت","name:fr":"Djanet","name:ja":"ジャーネット","name:ko":"자네트","name:ks":"جانت","name:lt":"Džanetas","name:pl":"Dżanat","name:sv":"Djanet","name:ur":"جانت","name:zh":"贾奈特","name:arz":"جانت","name:azb":"جانت","name:ber":"ⴵⴰⵏⴻⵜ","name:kab":"Ǧanet","name:el":"Ντζανέτ","name:it":"Djanet","name:pt":"Djanet","alt":"Djanet","alt:ber":"ⵊⴰⵏⴻⵜ"},"display_name":"جانت, Daïra de Djanet, Djanet, 33100, Algérie ⵍⵣⵣⴰⵢⴻⵔ الجزائر","address":{"city":"جانت","county":"Daïra de Djanet","state":"Djanet","ISO3166-2-lvl4":"DZ-56","postcode":"33100","country":"Algérie ⵍⵣⵣⴰⵢⴻⵔ الجزائر","country_code":"dz"},"population":14655,"osm_type":"relation","osm_id":4174333,"type":"administrative","location":[9.484194,24.5538847],"bbox":[7.65723,22.496408,11.997337,25.1534172]}}
{"name":"Djelfa ⴵⴻⵍⴼⴰ الجلفة","other_names":{"name:ar":"الجلفة","name:de":"Djelfa","name:el":"Ντζέλφα","name:en":"Djelfa","name:es":"Djelfa","name:eu":"Djelfa","name:fa":"الجفله","name:fr":"Djelfa","name:it":"Djelfa","name:ja":"ジェルファ","name:ko":"젤파","name:lt":"Dželfa","name:nl":"Djelfa","name:pl":"Dżilfa","name:ru":"Джельфа","name:uk":"Джельфа","name:ur":"الجلفہ","name:zh":"杰勒法","name:azb":"الجفله","name:ber":"ⴵⴻⵍⴼⴰ","name:kab":"Lǧelfa","name:pnb":"جلفہ"},"display_name":"Djelfa ⴵⴻⵍⴼⴰ الجلفة, Daïra Djelfa, Djelfa, Algérie ⵍⵣⵣⴰⵢⴻⵔ الجزائر","address":{"city":"Djelfa ⴵⴻⵍⴼⴰ الجلفة","county":"Daïra Djelfa","state":"Djelfa","ISO3166-2-lvl4":"DZ-17","country":"Algérie ⵍⵣⵣⴰⵢⴻⵔ الجزائر","country_code":"dz"},"population":289226,"osm_type":"node","osm_id":299681006,"type":"city","location":[3.254037,34.671359],"bbox":[3.094037,34.511359,3.414037,34.831359],"border":{"name":"Djelfa ⴵⴻⵍⴼⴰ الجلفة","other_names":{"ref":"1701","name:ar":"الجلفة","name:bg":"Джелфа","name:de":"El Djelfa","name:en":"Djelfa","name:eo":"Ĝelfa","name:fa":"الجفله","name:fr":"Djelfa","name:ja":"ジェルファ","name:kk":"Джельфа қаласы","name:ko":"젤파","name:lt":"Dželfa","name:nl":"Djelfa (stad)","name:pl":"Dżilfa","name:ru":"Джельфа","name:uk":"Джельфа","name:ur":"الجلفہ","name:zh":"杰勒法","name:azb":"الجفله","name:ber":"ⴵⴻⵍⴼⴰ","name:kab":"Ǧelfa","name:pnb":"جلفہ","name:kab-Arab":"جلفة","name:el":"Ντζέλφα","name:es":"Djelfa","name:eu":"Djelfa","name:it":"Djelfa","alt:de":"Djelfa","alt:nl":"Djelfa","alt:kab":"Lǧelfa"},"display_name":"Djelfa ⴵⴻⵍⴼⴰ الجلفة, Daïra Djelfa, Djelfa, Algérie ⵍⵣⵣⴰⵢⴻⵔ الجزائر","address":{"city":"Djelfa ⴵⴻⵍⴼⴰ الجلفة","county":"Daïra Djelfa","state":"Djelfa","ISO3166-2-lvl4":"DZ-17","country":"Algérie ⵍⵣⵣⴰⵢⴻⵔ الجزائر","country_code":"dz"},"population":289226,"osm_type":"relation","osm_id":6533510,"type":"administrative","location":[3.254037,34.671359],"bbox":[3.0689368,34.5250995,3.3525769,34.804809]}}
{"name":"Draâ El-Kaïd","other_names":{"ref":"0645","name:ar":"ذراع القايد","name:en":"Draa El Kaid","name:fr":"Draâ El-Kaïd","name:ber":"ⵉⵖⵉⵍ ⵏ ⵍⵇⴰⵢⴻⴷ","name:kab":"Iɣil n lqayed"},"display_name":"Draâ El-Kaïd, Daïra Kherrata, Béjaïa, 06074, Algérie ⵍⵣⵣⴰⵢⴻⵔ الجزائر","address":{"city":"Draâ El-Kaïd","county":"Daïra Kherrata","state":"Béjaïa","ISO3166-2-lvl4":"DZ-06","postcode":"06074","country":"Algérie ⵍⵣⵣⴰⵢⴻⵔ الجزائر","country_code":"dz"},"population":29221,"osm_type":"relation","osm_id":4112846,"type":"administrative","location":[5.234866964595616,36.44005605],"bbox":[5.164759,36.360295,5.31192,36.519743],"inferred_type":"city"}
{"name":"Draa Kebila","other_names":{"ref":"1907","name:ar":"ذراع قبيلة","name:en":"Draa Kebila","name:fr":"Draa Kebila","name:ber":"ⴷⵔⴰⵄ ⵇⴱⵉⵍⴰ","name:kab":"Draɛ Qbila"},"display_name":"Draa Kebila, Daïra Hammam Guergour, Sétif, 19029, Algérie ⵍⵣⵣⴰⵢⴻⵔ الجزائر","address":{"city":"Draa Kebila","county":"Daïra Hammam Guergour","state":"Sétif","ISO3166-2-lvl4":"DZ-19","postcode":"19029","country":"Algérie ⵍⵣⵣⴰⵢⴻⵔ الجزائر","country_code":"dz"},"population":14977,"osm_type":"relation","osm_id":1625410,"type":"administrative","location":[4.997765144867094,36.4223095],"bbox":[4.950968,36.377825,5.059482,36.466461],"inferred_type":"city"}
{"name":"El Bayadh","other_names":{"name:ar":"البيض","name:de":"El Bayadh","name:el":"Ελ Μπαγιάντ","name:en":"El Bayadh","name:fr":"El Bayadh","name:ru":"Эль-Баяд","name:zh":"巴亚兹","name:ber":"ⵍⴱⴻⵢⴻⴹ","name:kab":"Lbeyyeḍ","old_name":"Géryville"},"display_name":"El Bayadh, El Bayadh ⵍⴱⴻⵢⴻⴹ البيض, daïra El Bayadh, El Bayadh, Algérie ⵍⵣⵣⴰⵢⴻⵔ الجزائر","address":{"city":"El Bayadh","county":"daïra El Bayadh","state":"El Bayadh","ISO3166-2-lvl4":"DZ-32","country":"Algérie ⵍⵣⵣⴰⵢⴻⵔ الجزائر","country_code":"dz"},"population":91632,"osm_type":"node","osm_id":452440133,"type":"city","location":[1.0182453,33.684319],"bbox":[0.8582453,33.524319,1.1782453,33.844319],"border":{"name":"El Bayadh ⵍⴱⴻⵢⴻⴹ البيض","other_names":{"ref":"3201","name:ar":"البيض","name:en":"El Bayadh","name:fa":"البیض","name:fr":"El Bayadh","name:ko":"엘바야드","name:nl":"El Bayadh (stad)","name:pl":"Al-Bajad","name:ru":"Эль-Баяд","name:uk":"Ель-Баяд","name:ur":"البیض ضلع","name:zh":"巴亚兹","name:ber":"ⵍⴱⴻⵢⴻⴹ","name:kab":"Lbayeḍ","old_name":"Géryville","name:de":"El Bayadh","name:el":"Ελ Μπαγιάντ","alt":"El Bayadh","alt:kab":"Lbeyyeḍ"},"display_name":"El Bayadh ⵍⴱⴻⵢⴻⴹ البيض, daïra El Bayadh, El Bayadh, Algérie ⵍⵣⵣⴰⵢⴻⵔ الجزائر","address":{"city":"El Bayadh ⵍⴱⴻⵢⴻⴹ البيض","county":"daïra El Bayadh","state":"El Bayadh","ISO3166-2-lvl4":"DZ-32","country":"Algérie ⵍⵣⵣⴰⵢⴻⵔ الجزائر","country_code":"dz"},"population":91632,"osm_type":"relation","osm_id":6533981,"type":"administrative","location":[1.0182453,33.684319],"bbox":[0.85259,33.4862125,1.1767296,33.788873]}}
{"name":"El Houamed ⵍⴻⵃⵡⴰⵎⴻⴷ الحوامد","other_names":{"ref":"2826","name:ar":"الحوامد","name:en":"El Houamed","name:fr":"El Houamed","name:ber":"ⵍⴻⵃⵡⴰⵎⴻⴷ","name:kab":"Leḥwamed"},"display_name":"El Houamed ⵍⴻⵃⵡⴰⵎⴻⴷ الحوامد, Daïra Khoubana, M'Sila, Algérie ⵍⵣⵣⴰⵢⴻⵔ الجزائر","address":{"city":"El Houamed ⵍⴻⵃⵡⴰⵎⴻⴷ الحوامد","county":"Daïra Khoubana","state":"M'Sila","ISO3166-2-lvl4":"DZ-28","country":"Algérie ⵍⵣⵣⴰⵢⴻⵔ الجزائر","country_code":"dz"},"population":7800,"osm_type":"relation","osm_id":6547240,"type":"administrative","location":[4.559613241899152,35.167244],"bbox":[4.2433446,35.052396,4.7607037,35.2816846],"inferred_type":"city"}
{"name":"El M'Ghair","other_names":{"name:ar":"المغير","name:fr":"El M'Ghair","name:azb":"مغیر","name:ber":"ⵍⴻⵎⵖⵉⵔ","name:kab":"Lemɣir"},"display_name":"El M'Ghair, El M'Ghair ⵍⴻⵎⵖⵉⵔ المغير, Daïra El M'Ghair, El M'Ghair, Algérie ⵍⵣⵣⴰⵢⴻⵔ الجزائر","address":{"city":"El M'Ghair","county":"Daïra El M'Ghair","state":"El M'Ghair","ISO3166-2-lvl4":"DZ-57","country":"Algérie ⵍⵣⵣⴰⵢⴻⵔ الجزائر","country_code":"dz"},"population":49793,"osm_type":"node","osm_id":3040428134,"type":"city","location":[5.921089,33.9496809],"bbox":[5.761089,33.7896809,6.081089,34.1096809],"border":{"name":"El M'Ghair ⵍⴻⵎⵖⵉⵔ المغير","other_names":{"ref":"3927","name:ar":"المغير","name:en":"El M'Ghair","name:fa":"مغیر","name:fr":"El M'Ghair","name:azb":"مغیر","name:ber":"ⵍⴻⵎⵖⵉⵔ","name:kab":"Lemɣir","alt":"El M'Ghair"},"display_name":"El M'Ghair ⵍⴻⵎⵖⵉⵔ المغير, Daïra El M'Ghair, El M'Ghair, Algérie ⵍⵣⵣⴰⵢⴻⵔ الجزائر","address":{"city":"El M'Ghair ⵍⴻⵎⵖⵉⵔ المغير","county":"Daïra El M'Ghair","state":"El M'Ghair","ISO3166-2-lvl4":"DZ-57","country":"Algérie ⵍⵣⵣⴰⵢⴻⵔ الجزائر","country_code":"dz"},"population":49793,"osm_type":"relation","osm_id":5143582,"type":"administrative","location":[5.921089,33.9496809],"bbox":[5.2288769,33.8122647,6.1467472,34.0771845]}}
{"name":"El Menaouer ⵍⴻⵎⵏⴰⵡⴻⵔ المناور","other_names":{"ref":"2921","name:ar":"المناور","name:en":"El Menaouer","name:fr":"El Menaouer","name:ber":"ⵍⴻⵎⵏⴰⵡⴻⵔ","name:kab":"Lemnawer"},"display_name":"El Menaouer ⵍⴻⵎⵏⴰⵡⴻⵔ المناور, Daïra El Bordj, Mascara, Algérie ⵍⵣⵣⴰⵢⴻⵔ الجزائر","address":{"city":"El Menaouer ⵍⴻⵎⵏⴰⵡⴻⵔ المناور","county":"Daïra El Bordj","state":"Mascara","ISO3166-2-lvl4":"DZ-29","country":"Algérie ⵍⵣⵣⴰⵢⴻⵔ الجزائر","country_code":"dz"},"population":9690,"osm_type":"relation","osm_id":6668173,"type":"administrative","location":[0.4340311337486474,35.528555],"bbox":[0.3432089,35.4760553,0.504237,35.58124],"inferred_type":"city"}
{"name":"El Menia","other_names":{"name:ar":"المنيعة","name:de":"El Menia","name:el":"Ελ Μενία","name:en":"El Menia","name:fa":"منیعه","name:fr":"El Menia","name:it":"El Menia","name:pt":"El Menia","name:ro":"El Menia","name:ru":"Эль-Голеа","name:uk":"Ель-Голеа","name:vi":"El Menia","name:zh":"古莱阿","name:ber":"ⵍⴻⵎⵏⵉⵄⴰ","name:kab":"Tewrirt","old_name":"El Goléa"},"display_name":"El Menia, El Ménia, Daïra El Menia, El Meniaa, Algérie ⵍⵣⵣⴰⵢⴻⵔ الجزائر","address":{"city":"El Menia","county":"Daïra El Menia","state":"El Meniaa","ISO3166-2-lvl4":"DZ-58","country":"Algérie ⵍⵣⵣⴰⵢⴻⵔ الجزائر","country_code":"dz"},"population":40195,"osm_type":"node","osm_id":258799889,"type":"city","location":[2.8830889,30.5836683],"bbox":[2.7230889,30.4236683,3.0430889,30.7436683],"border":{"name":"El Ménia","other_names":{"ref":"4702","name:ar":"المنيعة","name:en":"El Menia","name:fr":"El Menia","name:ber":"ⵍⴻⵎⵏⵉⵄⴰ","name:kab":"Lemniɛa","old_name:fr":"El Golea","name:de":"El Menia","name:el":"Ελ Μενία","name:fa":"منیعه","name:it":"El Menia","name:pt":"El Menia","name:ro":"El Menia","name:ru":"Эль-Голеа","name:uk":"Ель-Голеа","name:vi":"El Menia","name:zh":"古莱阿","old_name":"El Goléa","alt":"El Menia","alt:kab":"Tewrirt"},"display_name":"El Ménia, Daïra El Menia, El Meniaa, Algérie ⵍⵣⵣⴰⵢⴻⵔ الجزائر","address":{"city":"El Ménia","county":"Daïra El Menia","state":"El Meniaa","ISO3166-2-lvl4":"DZ-58","country":"Algérie ⵍⵣⵣⴰⵢⴻⵔ الجزائر","country_code":"dz"},"population":40195,"osm_type":"relation","osm_id":5118960,"type":"administrative","location":[2.8830889,30.5836683],"bbox":[2.0236368,30.5400881,4.256356,32.19268]}}
{"name":"El Oued ⵍⵡⴰⴷ الوادي","other_names":{"name:ar":"الوادي","name:de":"Al-Wādī","name:el":"Ελ Ουέντ","name:en":"El Oued","name:es":"El Oued","name:fr":"El Oued","name:it":"El Oued","name:ja":"エル・ウェッド","name:lt":"Uedas","name:ru":"Эль-Уэд","name:zh":"瓦德","name:ber":"ⵍⵡⴰⴷ","name:kab":"Lwad","alt_name:ar":"وادي سوف;واد سوف","alt_name:ber":"ⴰⵙⵉⴼ"},"display_name":"El Oued ⵍⵡⴰⴷ الوادي, Daïra El Oued, El Oued, 39000, Algérie ⵍⵣⵣⴰⵢⴻⵔ الجزائر","address":{"city":"El Oued ⵍⵡⴰⴷ الوادي","county":"Daïra El Oued","state":"El Oued","ISO3166-2-lvl4":"DZ-39","postcode":"39000","country":"Algérie ⵍⵣⵣⴰⵢⴻⵔ الجزائر","country_code":"dz"},"population":134699,"osm_type":"node","osm_id":262963217,"type":"city","location":[6.8606693,33.3611531],"bbox":[6.7006693,33.2011531,7.0206693,33.5211531],"border":{"name":"El Oued ⵍⵡⴰⴷ الوادي","other_names":{"ref":"3901","name:ar":"الوادي","name:en":"El Oued","name:eo":"El Ued","name:fa":"الوادی، الجزایر","name:fr":"El Oued","name:he":"אל-ואד","name:ja":"エル・ウェッド","name:kk":"Эль-Уэд қаласы","name:ko":"엘우에드","name:lt":"Uedas","name:nl":"El Oued (stad)","name:pl":"Al-Wadi","name:ru":"Эль-Уэд","name:uk":"Ель-Уед","name:ur":"الوادی","name:zh":"瓦德","name:ber":"ⵍⵡⴰⴷ / ⴰⵙⵉⴼ","name:kab":"Lwad","name:de":"Al-Wādī","name:el":"Ελ Ουέντ","name:es":"El Oued","name:it":"El Oued","alt_name:ar":"وادي سوف;واد سوف","alt_name:ber":"ⴰⵙⵉⴼ","alt:ber":"ⵍⵡⴰⴷ"},"display_name":"El Oued ⵍⵡⴰⴷ الوادي, Daïra El Oued, El Oued, Algérie ⵍⵣⵣⴰⵢⴻⵔ الجزائر","address":{"city":"El Oued ⵍⵡⴰⴷ الوادي","county":"Daïra El Oued","state":"El Oued","ISO3166-2-lvl4":"DZ-39","country":"Algérie ⵍⵣⵣⴰⵢⴻⵔ الجزائر","country_code":"dz"},"population":134699,"osm_type":"relation","osm_id":4318197,"type":"administrative","location":[6.8606693,33.3611531],"bbox":[6.7850529,33.2784543,6.9319866,33.4265484]}}
{"name":"El Tarf","other_names":{"name:ar":"الطارف","name:de":"El Tarf","name:el":"Ελ Ταρφ","name:en":"El Tarf","name:es":"El Tarf","name:fa":"طارف","name:fr":"El Tarf","name:it":"El Tarf","name:ko":"엘타르프","name:nl":"El Tarf","name:pl":"El Tarf","name:pt":"El Tarf","name:ro":"El Tarf","name:ru":"Эль-Тарф","name:ur":"الطارف","name:zh":"塔里夫","name:azb":"طارف","name:ber":"ⵟⵟⴰⵔⴻⴼ","name:kab":"Ṭṭaref","name:az-Arab":"طارف"},"display_name":"El Tarf, El Tarf ⵟⵟⴰⵔⴻⴼ الطارف, Daïra El Tarf, El Tarf, Algérie ⵍⵣⵣⴰⵢⴻⵔ الجزائر","address":{"city":"El Tarf","county":"Daïra El Tarf","state":"El Tarf","ISO3166-2-lvl4":"DZ-36","country":"Algérie ⵍⵣⵣⴰⵢⴻⵔ الجزائر","country_code":"dz"},"population":25594,"osm_type":"node","osm_id":425300501,"type":"city","location":[8.3169418,36.7667186],"bbox":[8.1569418,36.6067186,8.4769418,36.9267186],"border":{"name":"El Tarf ⵟⵟⴰⵔⴻⴼ الطارف","other_names":{"ref":"3601","name:ar":"الطارف","name:de":"At-Tarif","name:en":"El Tarf","name:es":"El Tarf","name:fa":"طارف","name:fr":"El Tarf","name:ko":"엘타르프","name:ms":"El Taref","name:nl":"El Tarf","name:pl":"At-Tarif","name:ru":"Эль-Тарф","name:uk":"Ат-Тарф","name:ur":"الطارف","name:zh":"塔里夫","name:azb":"طارف","name:ber":"ⵟⵟⴰⵔⴻⴼ","name:kab":"Ṭṭaref","name:az-Arab":"طارف","name:el":"Ελ Ταρφ","name:it":"El Tarf","name:pt":"El Tarf","name:ro":"El Tarf","alt":"El Tarf","alt:de":"El Tarf","alt:pl":"El Tarf"},"display_name":"El Tarf ⵟⵟⴰⵔⴻⴼ الطارف, Daïra El Tarf, El Tarf, 36000, Algérie ⵍⵣⵣⴰⵢⴻⵔ الجزائر","address":{"city":"El Tarf ⵟⵟⴰⵔⴻⴼ الطارف","county":"Daïra El Tarf","state":"El Tarf","ISO3166-2-lvl4":"DZ-36","postcode":"36000","country":"Algérie ⵍⵣⵣⴰⵢⴻⵔ الجزائر","country_code":"dz"},"population":25594,"osm_type":"relation","osm_id":1614578,"type":"administrative","location":[8.3169418,36.7667186],"bbox":[8.220942,36.676291,8.379973,36.832188]}}
{"name":"Fenaïa Ilmaten","other_names":{"ref":"0618","name:ar":"فناية الماثن","name:en":"Fenaia Ilmaten","name:fr":"Fenaia Ilmaten","name:ber":"ⵉⴼⵏⴰⵢⴻⵏ","name:kab":"Ifennayen Ilmaten"},"display_name":"Fenaïa Ilmaten, Daïra El Kseur, Béjaïa, 06018, Algérie ⵍⵣⵣⴰⵢⴻⵔ الجزائر","address":{"city":"Fenaïa Ilmaten","county":"Daïra El Kseur","state":"Béjaïa","ISO3166-2-lvl4":"DZ-06","postcode":"06018","country":"Algérie ⵍⵣⵣⴰⵢⴻⵔ الجزائر","country_code":"dz"},"population":11825,"osm_type":"relation","osm_id":4067950,"type":"administrative","location":[4.793104825452987,36.66662985000001],"bbox":[4.7202956,36.6311022,4.8427597,36.7020002],"inferred_type":"city"}
{"name":"Ghardaïa","other_names":{"name:ar":"غرداية","name:da":"Ghardaïa","name:de":"Ghardaia","name:el":"Γκαρντάια","name:en":"Ghardaia","name:es":"Gardaya","name:eu":"Ghardaia","name:fa":"غردایه","name:fr":"Ghardaïa","name:ja":"ガルダイア","name:kk":"Гардая қаласы","name:ko":"가르다이아","name:ky":"Гардая","name:pl":"Ghardaja","name:pt":"Ghardaïa","name:ru":"Гардая","name:uk":"Гардая","name:ur":"غرادیہ","name:zh":"盖尔达耶","alt_name":"Tagherdayt","int_name":"Ghardaia","name:azb":"غردایه","name:ber":"ⵜⴰⵖⴻⵔⴷⴰⵢⵜ","name:kab":"Taɣerdayt","name:lzh":"盖尔达耶","old_name":"Tagherdayt","old_name:ar":"تغردايت"},"display_name":"Ghardaïa, غرداية, Daïra Ghardaia, Ghardaïa, 47000, Algérie ⵍⵣⵣⴰⵢⴻⵔ الجزائر","address":{"city":"Ghardaïa","county":"Daïra Ghardaia","state":"Ghardaïa","ISO3166-2-lvl4":"DZ-47","postcode":"47000","country":"Algérie ⵍⵣⵣⴰⵢⴻⵔ الجزائر","country_code":"dz"},"population":142913,"osm_type":"node","osm_id":3475248415,"type":"city","location":[3.677104,32.485855],"bbox":[3.517104,32.325855,3.837104,32.645855],"border":{"name":"غرداية","other_names":{"ref":"4701","name:ar":"غرداية","name:bg":"Гардая","name:cs":"Ghardája","name:de":"Ghardaia","name:en":"Ghardaia","name:eo":"Ghardaia","name:es":"Gardaya","name:eu":"Ghardaia","name:fa":"غردایه","name:fr":"Ghardaïa","name:ja":"ガルダイア","name:kk":"Гардая қаласы","name:ko":"가르다이아","name:ky":"Гардая","name:lt":"Gardaja","name:ms":"Ghardaia","name:nl":"Ghardaïa (stad)","name:pl":"Ghardaja","name:ru":"Гардая","name:sw":"Jimbo ya Ghardaïa (Aljeria)","name:tr":"Gardaya","name:uk":"Гардая","name:ur":"غرادیہ","name:vi":"Ghardaia","name:zh":"盖尔达耶","name:azb":"غردایه","name:ber":"ⵜⴰⵖⴻⵔⴷⴰⵢⵜ","name:kab":"Taɣerdayt","name:da":"Ghardaïa","name:el":"Γκαρντάια","name:pt":"Ghardaïa","alt_name":"Tagherdayt","int_name":"Ghardaia","name:lzh":"盖尔达耶","old_name":"Tagherdayt","old_name:ar":"تغردايت","alt":"Ghardaïa"},"display_name":"غرداية, Daïra Ghardaia, Ghardaïa, Algérie ⵍⵣⵣⴰⵢⴻⵔ الجزائر","address":{"city":"غرداية","county":"Daïra Ghardaia","state":"Ghardaïa","ISO3166-2-lvl4":"DZ-47","country":"Algérie ⵍⵣⵣⴰⵢⴻⵔ الجزائر","country_code":"dz"},"population":93423,"osm_type":"relation","osm_id":4503228,"type":"administrative","location":[3.677104,32.485855],"bbox":[3.572044,32.4735213,3.9099684,32.7019913]}}
{"name":"Guelma","other_names":{"name:ar":"قالمة","name:de":"Guelma","name:el":"Γκουέλμα","name:en":"Guelma","name:fa":"قالمه","name:fr":"Guelma","name:lt":"Gelma","name:ru":"Гельма","name:ur":"قالمہ","name:zh":"盖勒马","alt_name":"ڨالمة","name:azb":"قالمه","name:ber":"ⴳⴰⵍⵎⴰ","name:kab":"Galma","name:pnb":"قالمہ","old_name":"مالقا;مالكا","old_name:ar":"مالقا;مالكا","old_name:fr":"Calama;Malaca"},"display_name":"Guelma, Guelma ⴳⴰⵍⵎⴰ قالمة, Daïra Guelma, Guelma, Algérie ⵍⵣⵣⴰⵢⴻⵔ الجزائر","address":{"city":"Guelma","county":"Daïra Guelma","state":"Guelma","ISO3166-2-lvl4":"DZ-24","country":"Algérie ⵍⵣⵣⴰⵢⴻⵔ الجزائر","country_code":"dz"},"population":157334,"osm_type":"node","osm_id":299824735,"type":"city","location":[7.430647,36.465084],"bbox":[7.270647,36.305084,7.590647,36.625084],"border":{"name":"Guelma ⴳⴰⵍⵎⴰ قالمة","other_names":{"ref":"2401","name:ar":"قالمة","name:en":"Guelma","name:eo":"Gelma","name:fa":"قالمه","name:fr":"Guelma","name:ja":"ゲルマ","name:ko":"겔마","name:la":"Calama","name:lt":"Gelma","name:nl":"Guelma (stad)","name:pl":"Kalima (miasto)","name:ru":"Гельма","name:uk":"Гельма","name:ur":"قالمہ","name:zh":"盖勒马","name:azb":"قالمه","name:ber":"ⴳⴰⵍⵎⴰ","name:kab":"Galma","name:pnb":"قالمہ","name:de":"Guelma","name:el":"Γκουέλμα","alt_name":"ڨالمة","old_name":"مالقا;مالكا","old_name:ar":"مالقا;مالكا","old_name:fr":"Calama;Malaca","alt":"Guelma"},"display_name":"Guelma ⴳⴰⵍⵎⴰ قالمة, Daïra Guelma, Guelma, Algérie ⵍⵣⵣⴰⵢⴻⵔ الجزائر","address":{"city":"Guelma ⴳⴰⵍⵎⴰ قالمة","county":"Daïra Guelma","state":"Guelma","ISO3166-2-lvl4":"DZ-24","country":"Algérie ⵍⵣⵣⴰⵢⴻⵔ الجزائر","country_code":"dz"},"population":120847,"osm_type":"relation","osm_id":6537637,"type":"administrative","location":[7.430647,36.465084],"bbox":[7.3578671,36.4156013,7.4725938,36.4888804]}}
{"name":"Harbil","other_names":{"ref":"1936","name:ar":"حربيل","name:en":"Harbil","name:fr":"Harbil","name:ber":"ⵃⴻⵔⴱⵉⵍ","name:kab":"Ḥerbil"},"display_name":"Harbil, Daïra Guenzet, Sétif, Algérie ⵍⵣⵣⴰⵢⴻⵔ الجزائر","address":{"city":"Harbil","county":"Daïra Guenzet","state":"Sétif","ISO3166-2-lvl4":"DZ-19","country":"Algérie ⵍⵣⵣⴰⵢⴻⵔ الجزائر","country_code":"dz"},"population":3675,"osm_type":"relation","osm_id":1625394,"type":"administrative","location":[4.925196672832984,36.3473445],"bbox":[4.84271,36.295376,4.998423,36.399198],"inferred_type":"city"}
{"name":"Iboudraren","other_names":{"ref":"1560","name:ar":"إبودرارن","name:en":"Iboudraren","name:fr":"Iboudraren","name:ber":"ⵉⴱⵓⴷⵔⴰⵔⴻⵏ","name:kab":"Ibudraren"},"display_name":"Iboudraren, Daïra Beni Yenni, Tizi Ouzou, Algérie ⵍⵣⵣⴰⵢⴻⵔ الجزائر","address":{"city":"Iboudraren","county":"Daïra Beni Yenni","state":"Tizi Ouzou","ISO3166-2-lvl4":"DZ-15","country":"Algérie ⵍⵣⵣⴰⵢⴻⵔ الجزائر","country_code":"dz"},"population":5398,"osm_type":"relation","osm_id":4288710,"type":"administrative","location":[4.251256974681416,36.5093387],"bbox":[4.2185168,36.458433,4.2808678,36.5603484],"inferred_type":"city"}
{"name":"Idjer","other_names":{"ref":"1549","name:ar":"إجر","name:en":"Idjer","name:fr":"Idjer","name:it":"Idjeur","name:ms":"Idjeur","name:pt":"Idjeur","name:ro":"Idjeur","name:vi":"Idjeur","name:ber":"ⴰⵜ ⵢⴻⴵⴵⴻⵔ","name:kab":"At Yeǧǧer"},"display_name":"Idjer, Daïra Bouzguen, Tizi Ouzou, 15036, Algérie ⵍⵣⵣⴰⵢⴻⵔ الجزائر","address":{"city":"Idjer","county":"Daïra Bouzguen","state":"Tizi Ouzou","ISO3166-2-lvl4":"DZ-15","postcode":"15036","country":"Algérie ⵍⵣⵣⴰⵢⴻⵔ الجزائر","country_code":"dz"},"population":10301,"osm_type":"relation","osm_id":2177075,"type":"administrative","location":[4.536323043365892,36.673917],"bbox":[4.463612,36.633122,4.602364,36.714193],"inferred_type":"city"}
{"name":"Illizi","other_names":{"name:ar":"إليزي","name:bn":"ইল্লিজি","name:ca":"Illizi","name:de":"Illizi","name:el":"Ιλίζι","name:en":"Illizi","name:eo":"Ilizi","name:es":"Illizi","name:fa":"الیزی","name:fr":"Illizi","name:it":"Illizi","name:ja":"イリジ","name:ko":"일리지","name:lt":"Ilizis","name:ms":"Illizi","name:nl":"Illizi (stad)","name:pl":"Illizi","name:pt":"Illizi","name:ro":"Illizi","name:ru":"Иллизи","name:sv":"Illizi","name:sw":"Illizi","name:uk":"Іллізі","name:ur":"الیزی","name:vi":"Illizi","name:zh":"伊利济","name:azb":"الیزی","name:ber":"ⵉⵍⵍⵉⵣⵉ","name:kab":"Illizi","name:ota":"الیزی","name:pnb":"الیزی","name:thv":"Éléżi","old_name":"Fort-Polignac","alt_name:ar":"إيليزي;إلـيـزي;اليزى","old_name:ar":"فور بوليناك","old_name:fr":"Fort-Polignac"},"display_name":"Illizi, Daïra d'Illizi, Illizi, Algérie ⵍⵣⵣⴰⵢⴻⵔ الجزائر","address":{"city":"Illizi","county":"Daïra d'Illizi","state":"Illizi","ISO3166-2-lvl4":"DZ-33","country":"Algérie ⵍⵣⵣⴰⵢⴻⵔ الجزائر","country_code":"dz"},"population":17252,"osm_type":"node","osm_id":3457570013,"type":"city","location":[8.479926,26.504191],"bbox":[8.319926,26.344191,8.639926,26.664191],"border":{"name":"Illizi","other_names":{"ref":"3301","name:ar":"إليزي","name:bn":"ইল্লিজি","name:en":"Illizi","name:eo":"Ilizi","name:fa":"الیزی","name:fr":"Illizi","name:ja":"イリジ","name:ko":"일리지","name:lt":"Ilizis","name:nl":"Illizi","name:ru":"Иллизи","name:uk":"Іллізі","name:ur":"الیزی","name:zh":"伊利济","name:azb":"الیزی","name:ber":"ⵉⵍⵉⵣⵉ","name:kab":"Illizi","name:pnb":"الیزی","name:ca":"Illizi","name:de":"Illizi","name:el":"Ιλίζι","name:es":"Illizi","name:it":"Illizi","name:ms":"Illizi","name:pl":"Illizi","name:pt":"Illizi","name:ro":"Illizi","name:sv":"Illizi","name:sw":"Illizi","name:vi":"Illizi","name:ota":"الیزی","name:thv":"Éléżi","old_name":"Fort-Polignac","alt_name:ar":"إيليزي;إلـيـزي;اليزى","old_name:ar":"فور بوليناك","old_name:fr":"Fort-Polignac","alt:nl":"Illizi (stad)","alt:ber":"ⵉⵍⵍⵉⵣⵉ"},"display_name":"Illizi, Daïra d'Illizi, Illizi, 33000, Algérie ⵍⵣⵣⴰⵢⴻⵔ الجزائر","address":{"city":"Illizi","county":"Daïra d'Illizi","state":"Illizi","ISO3166-2-lvl4":"DZ-33","postcode":"33000","country":"Algérie ⵍⵣⵣⴰⵢⴻⵔ الجزائر","country_code":"dz"},"population":17252,"osm_type":"relation","osm_id":4174334,"type":"administrative","location":[8.479926,26.504191],"bbox":[6.139639,25.147062,10.035767,27.829475]}}
{"name":"Iloula Oumalou","other_names":{"ref":"1519","name:ar":"إيلولة أمالو","name:en":"Iloula Oumalou","name:fr":"Iloula Oumalou","name:it":"Illoula Oumalou","name:pt":"Illoula Oumalou","name:ro":"Illoula Oumalou","name:vi":"Illoula Oumalou","name:ber":"ⵉⵍⵓⵍⴰ ⵓⵎⴰⵍⵓ","name:kab":"Ilula Umalu"},"display_name":"Iloula Oumalou, Daïra Bouzguen, Tizi Ouzou, Algérie ⵍⵣⵣⴰⵢⴻⵔ الجزائر","address":{"city":"Iloula Oumalou","county":"Daïra Bouzguen","state":"Tizi Ouzou","ISO3166-2-lvl4":"DZ-15","country":"Algérie ⵍⵣⵣⴰⵢⴻⵔ الجزائر","country_code":"dz"},"population":12952,"osm_type":"relation","osm_id":2170761,"type":"administrative","location":[4.448736610031721,36.5649995],"bbox":[4.4017179,36.496534,4.490526,36.6334782],"inferred_type":"city"}
{"name":"Imsouhal","other_names":{"ref":"1563","name:ar":"أمسوحال","name:en":"Imsouhal","name:fr":"Imsouhal","name:it":"Imsouhel","name:ro":"Imsouhel","name:ber":"ⵉⵎⵙⵓⵃⴰⵍ","name:kab":"Imsuḥel"},"display_name":"Imsouhal, Daïra Iferhounene, Tizi Ouzou, 15024, Algérie ⵍⵣⵣⴰⵢⴻⵔ الجزائر","address":{"city":"Imsouhal","county":"Daïra Iferhounene","state":"Tizi Ouzou","ISO3166-2-lvl4":"DZ-15","postcode":"15024","country":"Algérie ⵍⵣⵣⴰⵢⴻⵔ الجزائر","country_code":"dz"},"population":6565,"osm_type":"relation","osm_id":2175823,"type":"administrative","location":[4.392711661961059,36.5802779],"bbox":[4.3626991,36.548618,4.429354,36.6118817],"inferred_type":"city"}
{"name":"In Guezzam ⵄⵉⵏ ⴳⴻⵣⵣⴰⵎ عين قزام","other_names":{"name:ar":"عين قزام","name:de":"In Guezzam","name:el":"Ιν Γκουεζάμ","name:en":"In Guezzam","name:es":"In Guezzam","name:fa":"عین قزام","name:fi":"In Guezzam","name:fr":"In Guezzam","name:it":"In Guezzam","name:ja":"イン・ゲザム","name:ks":"عین قزام","name:ms":"In Guezzam","name:ps":"عین قزام","name:pt":"In Guezzam","name:ro":"In Guezzam","name:ru":"Ин-Геззам","name:ur":"عین قزام","name:vi":"In Guezzam","name:zh":"因蓋扎姆","name:azb":"عین قزام","name:ber":"ⵄⵉⵏ ⴳⴻⵣⵣⴰⵎ","name:kab":"Ɛin Gezzam","name:ota":"عین قزام","name:pnb":"عین قزام","alt_name:ar":"‎إين قزام;إن قزام","name:kab-Arab":"عين ڤزام"},"display_name":"In Guezzam ⵄⵉⵏ ⴳⴻⵣⵣⴰⵎ عين قزام, Daïra In Guezzam, In Guezzam, Algérie ⵍⵣⵣⴰⵢⴻⵔ الجزائر","address":{"city":"In Guezzam ⵄⵉⵏ ⴳⴻⵣⵣⴰⵎ عين قزام","county":"Daïra In Guezzam","state":"In Guezzam","ISO3166-2-lvl4":"DZ-54","country":"Algérie ⵍⵣⵣⴰⵢⴻⵔ الجزائر","country_code":"dz"},"population":7045,"osm_type":"node","osm_id":262393185,"type":"city","location":[5.7725744,19.5696707],"bbox":[5.6125744,19.4096707,5.9325744,19.7296707],"border":{"name":"In Guezzam ⵄⵉⵏ ⴳⴻⵣⵣⴰⵎ عين قزام","other_names":{"ref":"1104","name:ar":"عين قزام","name:en":"In Guezzam","name:fa":"عین قزام","name:fr":"In Guezzam","name:ks":"عین قزام","name:ps":"عین قزام","name:ur":"عین قزام","alt_name":"‎إين قزام;إن قزام","name:azb":"عین قزام","name:ber":"ⵄⵉⵏ ⴳⴻⵣⵣⴰⵎ","name:kab":"In Gezzam","name:ota":"عین قزام","name:pnb":"عین قزام","alt_name:ar":"‎إين قزام;إن قزام","name:kab-Arab":"عين ڨزام","name:de":"In Guezzam","name:el":"Ιν Γκουεζάμ","name:es":"In Guezzam","name:fi":"In Guezzam","name:it":"In Guezzam","name:ja":"イン・ゲザム","name:ms":"In Guezzam","name:pt":"In Guezzam","name:ro":"In Guezzam","name:ru":"Ин-Геззам","name:vi":"In Guezzam","name:zh":"因蓋扎姆","alt:kab":"Ɛin Gezzam","alt:kab-Arab":"عين ڤزام"},"display_name":"In Guezzam ⵄⵉⵏ ⴳⴻⵣⵣⴰⵎ عين قزام, Daïra In Guezzam, In Guezzam, 11130, Algérie ⵍⵣⵣⴰⵢⴻⵔ الجزائر","address":{"city":"In Guezzam ⵄⵉⵏ ⴳⴻⵣⵣⴰⵎ عين قزام","county":"Daïra In Guezzam","state":"In Guezzam","ISO3166-2-lvl4":"DZ-54","postcode":"11130","country":"Algérie ⵍⵣⵣⴰⵢⴻⵔ الجزائر","country_code":"dz"},"population":7045,"osm_type":"relation","osm_id":4175372,"type":"administrative","location":[5.7725744,19.5696707],"bbox":[4.018852,19.2183495,7.7944146,21.559198]}}
{"name":"In Salah","other_names":{"name:ar":"عين صالح","name:el":"Ιν Σαλάχ","name:en":"In Salah","name:es":"In Salah","name:fr":"In Salah","name:ja":"インサラー","name:ko":"인살라","name:ru":"Айн-Салах","name:uk":"Айн-Салах","name:zh":"因萨拉赫","name:ber":"ⵄⵉⵏ ⵙⴰⵍⴻⵃ","name:kab":"In Ṣaleḥ"},"display_name":"In Salah, In Salah ⵄⵉⵏ ⵙⴰⵍⴻⵃ عين صالح, Daïra d'In Salah, In Salah, Algérie ⵍⵣⵣⴰⵢⴻⵔ الجزائر","address":{"city":"In Salah","county":"Daïra d'In Salah","state":"In Salah","ISO3166-2-lvl4":"DZ-53","country":"Algérie ⵍⵣⵣⴰⵢⴻⵔ الجزائر","country_code":"dz"},"population":32518,"osm_type":"node","osm_id":89980948,"type":"city","location":[2.4826132,27.1950331],"bbox":[2.3226132,27.0350331,2.6426132,27.3550331],"border":{"name":"In Salah ⵄⵉⵏ ⵙⴰⵍⴻⵃ عين صالح","other_names":{"ref":"1108","name:ar":"عين صالح","name:en":"In Salah","name:fr":"In Salah","name:ja":"インサラー","name:ko":"인살라","name:lt":"Ain Sala","name:pl":"Ajn Salih","name:ru":"Ин-Салах (город)","name:uk":"Айн-Салах (місто)","name:zh":"因萨拉赫","name:ber":"ⵄⵉⵏ ⵙⴰⵍⴻⵃ","name:kab":"In Ṣaleḥ","alt_name:ar":"ان صالح","name:el":"Ιν Σαλάχ","name:es":"In Salah","alt":"In Salah","alt:ru":"Айн-Салах","alt:uk":"Айн-Салах"},"display_name":"In Salah ⵄⵉⵏ ⵙⴰⵍⴻⵃ عين صالح, Daïra d'In Salah, In Salah, Algérie ⵍⵣⵣⴰⵢⴻⵔ الجزائر","address":{"city":"In Salah ⵄⵉⵏ ⵙⴰⵍⴻⵃ عين صالح","county":"Daïra d'In Salah","state":"In Salah","ISO3166-2-lvl4":"DZ-53","country":"Algérie ⵍⵣⵣⴰⵢⴻⵔ الجزائر","country_code":"dz"},"population":32518,"osm_type":"relation","osm_id":4175373,"type":"administrative","location":[2.4826132,27.1950331],"bbox":[2.004578,25.35869,3.931872,29.080792]}}
{"name":"Irdjen","other_names":{"ref":"1507","name:ar":"إرجن","name:en":"Irdjen","name:fr":"Irdjen","name:ber":"ⵉⵔⴵⴻⵏ","name:kab":"Irǧen"},"display_name":"Irdjen, Daïra Larbaa N'Aït Irathen, Tizi Ouzou, Algérie ⵍⵣⵣⴰⵢⴻⵔ الجزائر","address":{"city":"Irdjen","county":"Daïra Larbaa N'Aït Irathen","state":"Tizi Ouzou","ISO3166-2-lvl4":"DZ-15","country":"Algérie ⵍⵣⵣⴰⵢⴻⵔ الجزائر","country_code":"dz"},"population":13149,"osm_type":"relation","osm_id":4285909,"type":"administrative","location":[4.146476218831084,36.6683028],"bbox":[4.1086387,36.6342498,4.1716948,36.7020084],"inferred_type":"city"}
{"name":"Jijel ⵉⵖⵉⵍ ⴳⵉⵍⵉ جيجل","other_names":{"name:ar":"جيجل","name:ca":"Gíger","name:de":"Jijel","name:el":"Τζιτζέλ","name:en":"Jijel","name:es":"Jijel","name:fa":"جیجل","name:fr":"Jijel","name:it":"Jijel","name:ja":"ジジェル","name:ko":"지젤 (알제리)","name:ks":"جیجل","name:la":"Igilgili","name:lt":"Džidželis","name:pl":"Dżidżili","name:pt":"Jijel","name:ru":"Джиджель","name:ur":"جیجل","name:zh":"吉杰勒","loc_name":"جيجل","name:azb":"جیجل","name:ber":"ⵉⵖⵉⵍ ⴳⵉⵍⵉ","name:kab":"Iɣil Gili","name:ota":"جیجل","name:pnb":"جیجل","alt_name:ar":"إجيلجلي","alt_name:fr":"Djidjelli","name:az-Arab":"جیجل"},"display_name":"Jijel ⵉⵖⵉⵍ ⴳⵉⵍⵉ جيجل, Jijel جيجل, Daïra Jijel, جيجل, Algérie ⵍⵣⵣⴰⵢⴻⵔ الجزائر","address":{"city":"Jijel ⵉⵖⵉⵍ ⴳⵉⵍⵉ جيجل","county":"Daïra Jijel","state":"جيجل","ISO3166-2-lvl4":"DZ-18","country":"Algérie ⵍⵣⵣⴰⵢⴻⵔ الجزائر","country_code":"dz"},"population":134839,"osm_type":"node","osm_id":1941427461,"type":"city","location":[5.771494,36.8167305],"bbox":[5.611494,36.6567305,5.931494,36.9767305],"border":{"name":"Jijel جيجل","other_names":{"ref":"1801","name:ar":"جيجل","name:ca":"Gíger","name:de":"Jijel","name:el":"Τζιτζέλ","name:en":"Jijel","name:es":"Jijel","name:fa":"جیجل","name:fr":"Jijel","name:ja":"ジジェル","name:ko":"지젤 (알제리)","name:ks":"جیجل","name:lt":"Džidželis","name:pl":"Dżidżili","name:ru":"Джиджель","name:uk":"Джиджель","name:ur":"جیجل","name:zh":"吉杰勒","name:azb":"جیجل","name:ber":"ⵉⵖⵉⵍ ⴳⵉⵍⵉ","name:kab":"Ighil Gili","name:ota":"جیجل","name:pnb":"جیجل","alt_name:ar":"إجيلجلي","alt_name:fr":"Djidjelli","name:az-Arab":"جیجل","name:it":"Jijel","name:la":"Igilgili","name:pt":"Jijel","loc_name":"جيجل","alt":"Jijel ⵉⵖⵉⵍ ⴳⵉⵍⵉ جيجل","alt:kab":"Iɣil Gili"},"display_name":"Jijel جيجل, Daïra Jijel, جيجل, Algérie ⵍⵣⵣⴰⵢⴻⵔ الجزائر","address":{"city":"Jijel جيجل","county":"Daïra Jijel","state":"جيجل","ISO3166-2-lvl4":"DZ-18","country":"Algérie ⵍⵣⵣⴰⵢⴻⵔ الجزائر","country_code":"dz"},"population":134839,"osm_type":"relation","osm_id":1982669,"type":"administrative","location":[5.771494,36.8167305],"bbox":[5.6760167,36.7614229,5.8263051,36.8292292]}}
{"name":"Kheïri Oued Adjoul ⵅⵉⵔⵉ ⵡⴰⴷ ⵍⵄⴻⴵⴵⵓⵍ خيري وادي العجول","other_names":{"ref":"1823","name:ar":"خيري وادي العجول","name:en":"Kheiri Oued Adjoul","name:fr":"Kheïri Oued Adjoul","name:vi":"Kheir Oued Adjoul","name:ber":"ⵅⵉⵔⵉ ⵡⴰⴷ ⵍⵄⴻⴵⴵⵓⵍ","name:kab":"Xiri Wad Lɛeǧǧul"},"display_name":"Kheïri Oued Adjoul ⵅⵉⵔⵉ ⵡⴰⴷ ⵍⵄⴻⴵⴵⵓⵍ خيري وادي العجول, Daïra El Ancer, جيجل, Algérie ⵍⵣⵣⴰⵢⴻⵔ الجزائر","address":{"city":"Kheïri Oued Adjoul ⵅⵉⵔⵉ ⵡⴰⴷ ⵍⵄⴻⴵⴵⵓⵍ خيري وادي العجول","county":"Daïra El Ancer","state":"جيجل","ISO3166-2-lvl4":"DZ-18","country":"Algérie ⵍⵣⵣⴰⵢⴻⵔ الجزائر","country_code":"dz"},"population":4582,"osm_type":"relation","osm_id":6669727,"type":"administrative","location":[6.157392490702877,36.8577899],"bbox":[6.0875067,36.8105507,6.2049982,36.9049139],"inferred_type":"city"}
{"name":"Khemis Milana","other_names":{"ref":"4404","name:ar":"خميس مليانة","name:de":"Khemis Miliana","name:en":"Khemis Milana","name:fr":"Khemis Milana","name:it":"Khemis Miliana","name:ms":"Khemis Miliana","name:pl":"Chamis Miljana","name:pt":"Khemis Miliana","name:ro":"Khemis Miliana","name:sv":"Khemis Miliana","name:vi":"Khemis Miliana","name:ber":"ⵅⵎⵉⵙ ⵎⴻⵍⵢⴰⵏⴰ","name:kab":"Xmis Melyana"},"display_name":"Khemis Milana, Daïra Khemis Meliana, Aïn Defla, Algérie ⵍⵣⵣⴰⵢⴻⵔ الجزائر","address":{"city":"Khemis Milana","county":"Daïra Khemis Meliana","state":"Aïn Defla","ISO3166-2-lvl4":"DZ-44","country":"Algérie ⵍⵣⵣⴰⵢⴻⵔ الجزائر","country_code":"dz"},"population":84574,"osm_type":"relation","osm_id":2658815,"type":"administrative","location":[2.2206012519399354,36.256005200000004],"bbox":[2.1728884,36.2217137,2.2725034,36.2901772],"inferred_type":"city"}
{"name":"Khenchela","other_names":{"name:ar":"خنشلة","name:el":"Χεντσέλα","name:en":"Khenchela","name:eo":"Ĥenŝela","name:es":"Jenchela","name:fr":"Khenchela","name:ja":"ヘンシュラ","name:ko":"켄셸라","name:lt":"Chenšela","name:pl":"Chanszala","name:ru":"Хеншела","name:zh":"汉舍莱","alt_name":"Kenchela","name:ber":"ⵅⴻⵏⵛⴻⵍⵜ","name:kab":"Xencla","old_name":"Mascula"},"display_name":"Khenchela, Khenchela ⵅⴻⵏⵛⵍⴰ خنشلة, Daïra de Djanet, Khenchela, Algérie ⵍⵣⵣⴰⵢⴻⵔ الجزائر","address":{"city":"Khenchela","county":"Daïra de Djanet","state":"Khenchela","ISO3166-2-lvl4":"DZ-40","country":"Algérie ⵍⵣⵣⴰⵢⴻⵔ الجزائر","country_code":"dz"},"population":108580,"osm_type":"node","osm_id":299702563,"type":"city","location":[7.145711,35.430154],"bbox":[6.985711,35.270154,7.305711,35.590154],"border":{"name":"Khenchela ⵅⴻⵏⵛⵍⴰ خنشلة","other_names":{"ref":"4001","name:ar":"خنشلة","name:en":"Khenchela","name:eo":"Ĥenŝela","name:es":"Jenchela","name:fa":"خنشله","name:fr":"Khenchela","name:ja":"ヘンシュラ","name:kk":"Хеншела","name:ko":"켄셸라","name:ks":"خنشلہ","name:lt":"Chenšela","name:nl":"Khenchela","name:no":"Khenchela","name:pl":"Chanszala","name:ru":"Хеншела","name:uk":"Хеншела","name:ur":"خنشلہ","name:zh":"汉舍莱","name:azb":"خنشله","name:ber":"ⵅⴻⵏⵛⵍⴰ","name:kab":"Xencla","name:pnb":"خنشلہ","name:kab-Arab":"خنشلة","name:el":"Χεντσέλα","alt_name":"Kenchela","old_name":"Mascula","alt":"Khenchela","alt:ber":"ⵅⴻⵏⵛⴻⵍⵜ"},"display_name":"Khenchela ⵅⴻⵏⵛⵍⴰ خنشلة, Daïra de Djanet, Khenchela, Algérie ⵍⵣⵣⴰⵢⴻⵔ الجزائر","address":{"city":"Khenchela ⵅⴻⵏⵛⵍⴰ خنشلة","county":"Daïra de Djanet","state":"Khenchela","ISO3166-2-lvl4":"DZ-40","country":"Algérie ⵍⵣⵣⴰⵢⴻⵔ الجزائر","country_code":"dz"},"population":108580,"osm_type":"relation","osm_id":6561885,"type":"administrative","location":[7.145711,35.430154],"bbox":[7.1027745,35.4064911,7.1770527,35.4657858]}}
{"name":"Kouba","other_names":{"name:ar":"القبة","name:en":"Kouba","name:fr":"Kouba","name:ber":"ⵟⴰⵇⵓⴱⴰ","name:kab":"Taqubbet"},"display_name":"Kouba, Kouba ⵍⵇⵓⴱⴱⴰ القبة, Hussein Dey, Alger, Algérie ⵍⵣⵣⴰⵢⴻⵔ الجزائر","address":{"city":"Kouba","county":"Hussein Dey","state":"Alger","ISO3166-2-lvl4":"DZ-16","country":"Algérie ⵍⵣⵣⴰⵢⴻⵔ الجزائر","country_code":"dz"},"population":104708,"osm_type":"node","osm_id":288387133,"type":"city","location":[3.0874783,36.7323557],"bbox":[2.9274783,36.5723557,3.2474783,36.8923557],"border":{"name":"Kouba ⵍⵇⵓⴱⴱⴰ القبة","other_names":{"ref":"1618","name:ar":"القبة","name:en":"Kouba","name:fr":"Kouba","name:ms":"Kouba, Algeria","name:ur":"قبہ، الجزائر","name:ber":"ⵍⵇⵓⴱⴱⴰ","name:kab":"Lqebba","alt":"Kouba","alt:ber":"ⵟⴰⵇⵓⴱⴰ","alt:kab":"Taqubbet"},"display_name":"Kouba ⵍⵇⵓⴱⴱⴰ القبة, Hussein Dey, Alger, Algérie ⵍⵣⵣⴰⵢⴻⵔ الجزائر","address":{"city":"Kouba ⵍⵇⵓⴱⴱⴰ القبة","county":"Hussein Dey","state":"Alger","ISO3166-2-lvl4":"DZ-16","country":"Algérie ⵍⵣⵣⴰⵢⴻⵔ الجزائر","country_code":"dz"},"population":104708,"osm_type":"relation","osm_id":545895,"type":"administrative","location":[3.0874783,36.7323557],"bbox":[3.0529508,36.7043433,3.1015724,36.7435733]}}
{"name":"Ksour ⵍⴻⵇⵚⵓⵔ القصور","other_names":{"ref":"3422","name:ar":"القصور","name:en":"Ksour","name:fr":"Ksour","name:it":"Ksour (Algeria)","name:ms":"Ksour, Bordj Bou Arreridj","name:pt":"Ksour (Bordj Bou Arreridj)","name:ro":"Ksour (Bordj Bou Arreridj)","name:ber":"ⵍⴻⵇⵚⵓⵔ","name:kab":"Leqṣur"},"display_name":"Ksour ⵍⴻⵇⵚⵓⵔ القصور, Daïra El Hammadia, Bordj Bou Arreridj, Algérie ⵍⵣⵣⴰⵢⴻⵔ الجزائر","address":{"city":"Ksour ⵍⴻⵇⵚⵓⵔ القصور","county":"Daïra El Hammadia","state":"Bordj Bou Arreridj","ISO3166-2-lvl4":"DZ-34","country":"Algérie ⵍⵣⵣⴰⵢⴻⵔ الجزائر","country_code":"dz"},"population":11814,"osm_type":"relation","osm_id":4475315,"type":"administrative","location":[4.5650320310967665,35.98536625],"bbox":[4.489592,35.9292011,4.6907036,36.0416529],"inferred_type":"city"}
{"name":"Laghouat ⵍⴰⴴⵡⴰⵟ الأغواط","other_names":{"name:ar":"الأغواط","name:el":"Λαγκουάτ","name:en":"Laghouat","name:fa":"الاغواط","name:fr":"Laghouat","name:lt":"Laguatas","name:ru":"Лагуат","name:uk":"Лагуат","name:ur":"الاغواط","name:azb":"الاغواط","name:ber":"ⵍⴰⴴⵡⴰⵟ","name:kab":"Leɣwaṭ"},"display_name":"Laghouat ⵍⴰⴴⵡⴰⵟ الأغواط, الأغواط, Daïra Laghouat, Laghouat, 03000, Algérie ⵍⵣⵣⴰⵢⴻⵔ الجزائر","address":{"city":"Laghouat ⵍⴰⴴⵡⴰⵟ الأغواط","county":"Daïra Laghouat","state":"Laghouat","ISO3166-2-lvl4":"DZ-03","postcode":"03000","country":"Algérie ⵍⵣⵣⴰⵢⴻⵔ الجزائر","country_code":"dz"},"population":144747,"osm_type":"node","osm_id":264573224,"type":"city","location":[2.8802635,33.8063451],"bbox":[2.7202635,33.6463451,3.0402635,33.9663451],"border":{"name":"الأغواط","other_names":{"ref":"0301","name:ar":"الأغواط","name:de":"Al-Aġwāṭ","name:en":"Laghouat","name:eo":"Laghuat","name:fa":"الاغواط","name:fr":"Laghouat","name:he":"לאגוואט","name:ja":"ラグアット","name:ko":"라구아트","name:lt":"Laguatas","name:pl":"Al-Aghwat","name:ru":"Лагуат","name:uk":"Лагуат","name:ur":"الاغواط","name:zh":"艾格瓦特","name:azb":"الاغواط","name:ber":"ⵍⴻⵖⵡⴰⵟ","name:kab":"Leɣwaṭ","name:el":"Λαγκουάτ","alt":"Laghouat ⵍⴰⴴⵡⴰⵟ الأغواط","alt:ber":"ⵍⴰⴴⵡⴰⵟ"},"display_name":"الأغواط, Daïra Laghouat, Laghouat, Algérie ⵍⵣⵣⴰⵢⴻⵔ الجزائر","address":{"city":"الأغواط","county":"Daïra Laghouat","state":"Laghouat","ISO3166-2-lvl4":"DZ-03","country":"Algérie ⵍⵣⵣⴰⵢⴻⵔ الجزائر","country_code":"dz"},"population":144747,"osm_type":"relation","osm_id":6546026,"type":"administrative","location":[2.8802635,33.8063451],"bbox":[2.7179843,33.7040451,3.0430234,33.9808846]}}
{"name":"M'Sila ⵝⴰⵎⵙⵉⵍⵜ المسيلة","other_names":{"name:ar":"المسيلة","name:de":"M'Sila","name:el":"Μ'Σιλά","name:en":"M'Sila","name:es":"M'Sila","name:fa":"المسیله","name:fr":"M'Sila","name:it":"M'Sila","name:lt":"Msila","name:ru":"Мсила","name:uk":"Мсіла","name:ur":"مسیلہ","name:zh":"姆西拉","name:azb":"المسیله","name:ber":"ⵝⴰⵎⵙⵉⵍⵜ","name:kab":"Tamsilt","name:pnb":"مسیلہ"},"display_name":"M'Sila ⵝⴰⵎⵙⵉⵍⵜ المسيلة, Daïra M'Sila, M'Sila, 28000, Algérie ⵍⵣⵣⴰⵢⴻⵔ الجزائر","address":{"city":"M'Sila ⵝⴰⵎⵙⵉⵍⵜ المسيلة","county":"Daïra M'Sila","state":"M'Sila","ISO3166-2-lvl4":"DZ-28","postcode":"28000","country":"Algérie ⵍⵣⵣⴰⵢⴻⵔ الجزائر","country_code":"dz"},"population":156647,"osm_type":"node","osm_id":299700319,"type":"city","location":[4.5371552,35.7087553],"bbox":[4.3771552,35.5487553,4.6971552,35.8687553],"border":{"name":"M'Sila ⵝⴰⵎⵙⵉⵍⵜ المسيلة","other_names":{"ref":"2801","name:ar":"المسيلة","name:ca":"Msila","name:de":"M'Sila","name:el":"Μ'Σιλά","name:en":"M'Sila","name:es":"M'Sila","name:fa":"المسیله","name:fr":"M'Sila","name:he":"אל-מסילה","name:it":"M'Sila","name:ja":"ムシラ","name:ko":"음실라","name:lt":"Msila","name:pl":"Al-Masila","name:ru":"Мсила","name:uk":"Мсіла","name:ur":"مسیلہ","name:zh":"姆西拉","name:azb":"المسیله","name:ber":"ⵝⴰⵎⵙⵉⵍⵜ","name:kab":"Thamsilt","name:pnb":"مسیلہ","alt:kab":"Tamsilt"},"display_name":"M'Sila ⵝⴰⵎⵙⵉⵍⵜ المسيلة, Daïra M'Sila, M'Sila, 28000, Algérie ⵍⵣⵣⴰⵢⴻⵔ الجزائر","address":{"city":"M'Sila ⵝⴰⵎⵙⵉⵍⵜ المسيلة","county":"Daïra M'Sila","state":"M'Sila","ISO3166-2-lvl4":"DZ-28","postcode":"28000","country":"Algérie ⵍⵣⵣⴰⵢⴻⵔ الجزائر","country_code":"dz"},"population":156647,"osm_type":"relation","osm_id":6547246,"type":"administrative","location":[4.5371552,35.7087553],"bbox":[4.4314788,35.5705599,4.60533,35.874381]}}
{"name":"Maghnia","other_names":{"name:ar":"مغنية","name:de":"Maghnia","name:el":"Μαγκνία","name:en":"Maghnia","name:fa":"مغنیه","name:fr":"Maghnia","name:ru":"Магния","name:ur":"مغنیہ","name:azb":"مغنیه","name:ber":"ⵎⴰⵖⵏⵉⵢⴰ","name:kab":"Maɣniya","old_name:fr":"Marnia"},"display_name":"Maghnia, Maghnia ⵎⴻⵖⵏⵉⵢⴰ مغنية, Daïra Maghnia, Tlemcen ⵜⵍⴻⵎⵙⴻⵏ تلمسان, 13300, Algérie ⵍⵣⵣⴰⵢⴻⵔ الجزائر","address":{"city":"Maghnia","county":"Daïra Maghnia","state":"Tlemcen ⵜⵍⴻⵎⵙⴻⵏ تلمسان","ISO3166-2-lvl4":"DZ-13","postcode":"13300","country":"Algérie ⵍⵣⵣⴰⵢⴻⵔ الجزائر","country_code":"dz"},"population":114634,"osm_type":"node","osm_id":439911514,"type":"city","location":[-1.7296796,34.8498681],"bbox":[-1.8896796,34.6898681,-1.5696796,35.0098681],"border":{"name":"Maghnia ⵎⴻⵖⵏⵉⵢⴰ مغنية","other_names":{"ref":"1327","name:ar":"مغنية","name:bg":"Магния","name:en":"Maghnia","name:fa":"مغنیه","name:fr":"Maghnia","name:pl":"Maghnijja","name:ru":"Магния","name:uk":"Магнія","name:ur":"مغنیہ","name:azb":"مغنیه","name:ber":"ⵎⴻⵖⵏⵉⵢⴰ","name:kab":"Meɣniya","name:de":"Maghnia","name:el":"Μαγκνία","old_name:fr":"Marnia","alt":"Maghnia","alt:ber":"ⵎⴰⵖⵏⵉⵢⴰ","alt:kab":"Maɣniya"},"display_name":"Maghnia ⵎⴻⵖⵏⵉⵢⴰ مغنية, Daïra Maghnia, Tlemcen ⵜⵍⴻⵎⵙⴻⵏ تلمسان, 13300, Algérie ⵍⵣⵣⴰⵢⴻⵔ الجزائر","address":{"city":"Maghnia ⵎⴻⵖⵏⵉⵢⴰ مغنية","county":"Daïra Maghnia","state":"Tlemcen ⵜⵍⴻⵎⵙⴻⵏ تلمسان","ISO3166-2-lvl4":"DZ-13","postcode":"13300","country":"Algérie ⵍⵣⵣⴰⵢⴻⵔ الجزائر","country_code":"dz"},"population":114634,"osm_type":"relation","osm_id":6666570,"type":"administrative","location":[-1.7296796,34.8498681],"bbox":[-1.9745247,34.7563769,-1.6629213,34.9169322]}}
{"name":"Mascara","other_names":{"name:ar":"معسكر","name:de":"Muaskar","name:el":"Μασκάρα","name:en":"Mascara","name:es":"Muaskar","name:fa":"معسکر","name:fr":"Mascara","name:it":"Mascara","name:ja":"マスカラ","name:ko":"마스카라","name:ru":"Маскара","name:tr":"Muasker","name:ur":"معسکر","name:zh":"穆阿斯凯尔","name:azb":"معسکر","name:ber":"ⵎⵄⴰⵙⴽⴰⵕ","name:kab":"Tamɛaskaṛt","name:pnb":"معسکر"},"display_name":"Mascara, Mascara ⵎⵄⴻⵙⴽⴻⵔ معسكر, Daïra de Mascara, Mascara, 29000, Algérie ⵍⵣⵣⴰⵢⴻⵔ الجزائر","address":{"city":"Mascara","county":"Daïra de Mascara","state":"Mascara","ISO3166-2-lvl4":"DZ-29","postcode":"29000","country":"Algérie ⵍⵣⵣⴰⵢⴻⵔ الجزائر","country_code":"dz"},"population":108587,"osm_type":"node","osm_id":5300225730,"type":"city","location":[0.1379568,35.394081],"bbox":[-0.0220432,35.234081,0.2979568,35.554081],"border":{"name":"Mascara ⵎⵄⴻⵙⴽⴻⵔ معسكر","other_names":{"ref":"2901","name:ar":"معسكر","name:bg":"Маскара (град)","name:bn":"মাস্কারা, আলজেরিয়া","name:cy":"Mascara, Algeria","name:de":"Muaskar","name:en":"Mascara","name:eo":"Muaskar","name:es":"Muaskar","name:fa":"معسکر","name:fr":"Mascara","name:it":"Mascara (Algeria)","name:ja":"マスカラ (アルジェリア)","name:ko":"마스카라 (알제리)","name:ms":"Mascara, Algeria","name:nl":"Mascara (stad)","name:pl":"Mu’askar","name:ro":"Mascara, Algeria","name:ru":"Маскара","name:sv":"Muaskar","name:tr":"Muaskar","name:uk":"Маскара","name:ur":"معسکر","name:zh":"穆阿斯凯尔","alt_name":"أم عسكر;بلدية أم عسكر","name:azb":"معسکر","name:ber":"ⵎⵄⴻⵙⴽⴻⵔ","name:kab":"Mɛesker","name:pnb":"معسکر","alt_name:ar":"أم عسكر;بلدية أم عسكر","name:el":"Μασκάρα","alt":"Mascara","alt:it":"Mascara","alt:ja":"マスカラ","alt:ko":"마스카라","alt:tr":"Muasker","alt:ber":"ⵎⵄⴰⵙⴽⴰⵕ","alt:kab":"Tamɛaskaṛt"},"display_name":"Mascara ⵎⵄⴻⵙⴽⴻⵔ معسكر, Daïra de Mascara, Mascara, Algérie ⵍⵣⵣⴰⵢⴻⵔ الجزائر","address":{"city":"Mascara ⵎⵄⴻⵙⴽⴻⵔ معسكر","county":"Daïra de Mascara","state":"Mascara","ISO3166-2-lvl4":"DZ-29","country":"Algérie ⵍⵣⵣⴰⵢⴻⵔ الجزائر","country_code":"dz"},"population":108587,"osm_type":"relation","osm_id":4571792,"type":"administrative","location":[0.1379568,35.394081],"bbox":[0.0935001,35.3310758,0.2147111,35.434629]}}
{"name":"Médéa ⵍⴻⵎⴷⵉⵢⴰ المدية","other_names":{"name:ar":"المدية","name:el":"Μεντέα","name:en":"Medea","name:es":"Médéa","name:fr":"Médéa","name:it":"Médéa","name:ja":"メデア","name:lt":"Medėja","name:ru":"Медеа","name:zh":"麦迪亚","name:ber":"ⵍⴻⵎⴷⵉⵢⴰ","name:kab":"Lemdiya"},"display_name":"Médéa ⵍⴻⵎⴷⵉⵢⴰ المدية, Daïra de Médéa, Médéa, Algérie ⵍⵣⵣⴰⵢⴻⵔ الجزائر","address":{"city":"Médéa ⵍⴻⵎⴷⵉⵢⴰ المدية","county":"Daïra de Médéa","state":"Médéa","ISO3166-2-lvl4":"DZ-26","country":"Algérie ⵍⵣⵣⴰⵢⴻⵔ الجزائر","country_code":"dz"},"population":138355,"osm_type":"node","osm_id":288417925,"type":"city","location":[2.766957,36.265344],"bbox":[2.606957,36.105344,2.926957,36.425344],"border":{"name":"Médéa ⵍⴻⵎⴷⵉⵢⴰ المدية","other_names":{"ref":"2601","name:ar":"المدية","name:ca":"Medea (Algèria)","name:en":"Médéa","name:eo":"Medea (urbo)","name:es":"Médéa","name:fa":"المدیه","name:fr":"Médéa","name:it":"Médéa","name:ja":"メデア (アルジェリア)","name:ko":"메데아 (알제리)","name:lt":"Medėja (Alžyras)","name:ms":"Médéa","name:nl":"Médéa","name:pl":"Al-Madijja","name:pt":"Médéa","name:ro":"Médéa","name:ru":"Медеа (Алжир)","name:sv":"Médéa","name:uk":"Медеа (Алжир)","name:ur":"مدیہ","name:zh":"麦迪亚","name:ber":"ⵍⴻⵎⴷⵉⵢⴰ","name:kab":"Lemdiya","name:el":"Μεντέα","alt:en":"Medea","alt:ja":"メデア","alt:lt":"Medėja","alt:ru":"Медеа"},"display_name":"Médéa ⵍⴻⵎⴷⵉⵢⴰ المدية, Daïra de Médéa, Médéa, Algérie ⵍⵣⵣⴰⵢⴻⵔ الجزائر","address":{"city":"Médéa ⵍⴻⵎⴷⵉⵢⴰ المدية","county":"Daïra de Médéa","state":"Médéa","ISO3166-2-lvl4":"DZ-26","country":"Algérie ⵍⵣⵣⴰⵢⴻⵔ الجزائر","country_code":"dz"},"population":138355,"osm_type":"relation","osm_id":2563082,"type":"administrative","location":[2.766957,36.265344],"bbox":[2.721556,36.2305323,2.8242036,36.3369922]}}
{"name":"Mila","other_names":{"name:ar":"ميلة","name:el":"Μίλα","name:en":"Mila","name:fr":"Mila","name:ber":"ⵎⵉⵍⴰ","name:kab":"Mila"},"display_name":"Mila, Daïra Mila, Mila, 43000, Algérie ⵍⵣⵣⴰⵢⴻⵔ الجزائر","address":{"city":"Mila","state":"Mila","ISO3166-2-lvl4":"DZ-43","postcode":"43000","country":"Algérie ⵍⵣⵣⴰⵢⴻⵔ الجزائر","country_code":"dz"},"population":69052,"osm_type":"node","osm_id":461906152,"type":"city","location":[6.262331,36.451941],"bbox":[6.102331,36.291941,6.422331,36.611941],"border":[{"name":"Daïra Mila","other_names":{"name:ar":"دائرة ميلة","name:de":"Kreis Mila","name:en":"Mila District","name:fr":"Daïra Mila","name:ber":"ⵝⴰⴷⴰⵢⵔⴰ ⵏ ⵎⵉⵍⴰ","name:kab":"Tadayṛa n Mila","name:el":"Μίλα","alt":"Mila","alt:ar":"ميلة","alt:en":"Mila","alt:fr":"Mila","alt:ber":"ⵎⵉⵍⴰ","alt:kab":"Mila"},"display_name":"Daïra Mila, Mila, Algérie ⵍⵣⵣⴰⵢⴻⵔ الجزائر","address":{"city":"Daïra Mila","state":"Mila","ISO3166-2-lvl4":"DZ-43","country":"Algérie ⵍⵣⵣⴰⵢⴻⵔ الجزائر","country_code":"dz"},"population":69052,"osm_type":"relation","osm_id":2672035,"type":"administrative","location":[6.262331,36.451941],"bbox":[6.162196,36.334977,6.357197,36.501991]},{"name":"Mila ⵎⵉⵍⴰ ميلة","other_names":{"ref":"4301","name:ar":"ميلة","name:de":"Mila (Algerien)","name:en":"Mila","name:fr":"Mila","name:id":"Mila, Aljazair","name:it":"Mila (Algeria)","name:ko":"밀라 (알제리)","name:ms":"Mila, Algeria","name:nl":"Mila (stad)","name:pl":"Mila (Algieria)","name:pt":"Mila (Argélia)","name:ro":"Mila, Algeria","name:ru":"Мила (город)","name:sv":"Mila, Algeriet","name:ur":"میلہ، الجزائر","name:ber":"ⵎⵉⵍⴰ","name:kab":"Mila"},"display_name":"Mila ⵎⵉⵍⴰ ميلة, Daïra Mila, Mila, 43000, Algérie ⵍⵣⵣⴰⵢⴻⵔ الجزائر","address":{"city_district":"Mila ⵎⵉⵍⴰ ميلة","city":"Daïra Mila","state":"Mila","ISO3166-2-lvl4":"DZ-43","postcode":"43000","country":"Algérie ⵍⵣⵣⴰⵢⴻⵔ الجزائر","country_code":"dz"},"population":69052,"osm_type":"relation","osm_id":2239839,"type":"administrative","location":[6.247579387654322,36.438021500000005],"bbox":[6.162196,36.373711,6.355392,36.501991]}]}
{"name":"Mostaganem ⵎⴻⵙⵜⵖⴰⵏⴻⵎ مستغانم","other_names":{"name:ar":"مستغانم","name:el":"Μοσταγκάνεμ","name:en":"Mostaganem","name:es":"Mostaganem","name:fa":"مستغانم","name:fr":"Mostaganem","name:ks":"مستغانم","name:lt":"Mostaganemas","name:pl":"Mustaghanam","name:tr":"Müstegânim","name:ur":"مستغانم","name:zh":"穆斯塔加奈姆","loc_name":"Mestghalem","name:azb":"مستغانم","name:ber":"ⵎⴻⵙⵜⵖⴰⵏⴻⵎ","name:kab":"Mustɣanem","name:pnb":"مستغانم"},"display_name":"Mostaganem ⵎⴻⵙⵜⵖⴰⵏⴻⵎ مستغانم, Mostaganem ⵎⵓⵙⵜⵖⴰⵏⴻⵎ مستغانم, Daïra Mostaganem, Mostaganem, 27000, Algérie ⵍⵣⵣⴰⵢⴻⵔ الجزائر","address":{"city":"Mostaganem ⵎⴻⵙⵜⵖⴰⵏⴻⵎ مستغانم","county":"Daïra Mostaganem","state":"Mostaganem","ISO3166-2-lvl4":"DZ-27","postcode":"27000","country":"Algérie ⵍⵣⵣⴰⵢⴻⵔ الجزائر","country_code":"dz"},"population":145696,"osm_type":"node","osm_id":299699468,"type":"city","location":[0.089978,35.928808],"bbox":[-0.070022,35.768808,0.249978,36.088808],"border":{"name":"Mostaganem ⵎⵓⵙⵜⵖⴰⵏⴻⵎ مستغانم","other_names":{"ref":"2701","name:ar":"مستغانم","name:en":"Mostaganem","name:fa":"مستغانم","name:fr":"Mostaganem","name:ja":"モスタガネム","name:ka":"მოსთაღანემი","name:ko":"모스타가넴","name:ks":"مستغانم","name:lt":"Mostaganemas","name:pl":"Mustaghanam","name:ru":"Мостаганем","name:sr":"Мостаганем","name:tr":"Mosteganim","name:uk":"Мостаганем","name:ur":"مستغانم","name:zh":"穆斯塔加奈姆","name:azb":"مستغانم","name:ber":"ⵎⵓⵙⵜⵖⴰⵏⴻⵎ","name:kab":"Mustɣanem","name:pnb":"مستغانم","name:el":"Μοσταγκάνεμ","name:es":"Mostaganem","loc_name":"Mestghalem","alt":"Mostaganem ⵎⴻⵙⵜⵖⴰⵏⴻⵎ مستغانم","alt:tr":"Müstegânim","alt:ber":"ⵎⴻⵙⵜⵖⴰⵏⴻⵎ"},"display_name":"Mostaganem ⵎⵓⵙⵜⵖⴰⵏⴻⵎ مستغانم, Daïra Mostaganem, Mostaganem, 27000, Algérie ⵍⵣⵣⴰⵢⴻⵔ الجزائر","address":{"city":"Mostaganem ⵎⵓⵙⵜⵖⴰⵏⴻⵎ مستغانم","county":"Daïra Mostaganem","state":"Mostaganem","ISO3166-2-lvl4":"DZ-27","postcode":"27000","country":"Algérie ⵍⵣⵣⴰⵢⴻⵔ الجزائر","country_code":"dz"},"population":145696,"osm_type":"relation","osm_id":5752724,"type":"administrative","location":[0.089978,35.928808],"bbox":[0.0536192,35.9106743,0.1767306,36.0387584]}}
{"name":"Nâama","other_names":{"name:ar":"النعامة","name:el":"Ναάμα","name:en":"Naama","name:fr":"Nâama","name:he":"נעמה","name:ber":"ⵏⵄⴰⵎⴰ","name:kab":"Nnɛama"},"display_name":"Nâama, Naâma ⵏⴰⴰⵎⴰ النــعـامـة, daïra Naâma, Naâma ⵏⵄⴰⵎⴰ النعامة, Algérie ⵍⵣⵣⴰⵢⴻⵔ الجزائر","address":{"city":"Nâama","county":"daïra Naâma","state":"Naâma ⵏⵄⴰⵎⴰ النعامة","ISO3166-2-lvl4":"DZ-45","country":"Algérie ⵍⵣⵣⴰⵢⴻⵔ الجزائر","country_code":"dz"},"population":16251,"osm_type":"node","osm_id":424703021,"type":"city","location":[-0.3110393,33.2647342],"bbox":[-0.4710393,33.1047342,-0.1510393,33.4247342],"border":{"name":"Naâma ⵏⴰⴰⵎⴰ النــعـامـة","other_names":{"ref":"4501","name:ar":"النــعـامـة","name:en":"Naâma","name:fr":"Naâma","name:ko":"나마 (알제리)","name:nl":"Naama","name:ru":"Наама (город)","name:uk":"Наама (місто)","name:ur":"نعامہ","name:ber":"ⵏⴰⴰⵎⴰ","name:kab":"Nɛama","name:el":"Ναάμα","name:he":"נעמה","alt":"Nâama","alt:ar":"النعامة","alt:en":"Naama","alt:fr":"Nâama","alt:ber":"ⵏⵄⴰⵎⴰ","alt:kab":"Nnɛama"},"display_name":"Naâma ⵏⴰⴰⵎⴰ النــعـامـة, daïra Naâma, Naâma ⵏⵄⴰⵎⴰ النعامة, 45000, Algérie ⵍⵣⵣⴰⵢⴻⵔ الجزائر","address":{"city":"Naâma ⵏⴰⴰⵎⴰ النــعـامـة","county":"daïra Naâma","state":"Naâma ⵏⵄⴰⵎⴰ النعامة","ISO3166-2-lvl4":"DZ-45","postcode":"45000","country":"Algérie ⵍⵣⵣⴰⵢⴻⵔ الجزائر","country_code":"dz"},"population":16251,"osm_type":"relation","osm_id":6544124,"type":"administrative","location":[-0.3110393,33.2647342],"bbox":[-0.6708877,33.002642,0.025158,33.5455022]}}
{"name":"Oran ⵡⴰⵀⵔⴻⵏ وهران","other_names":{"name:ar":"وهران","name:de":"Oran","name:el":"Οράν","name:en":"Oran","name:es":"Orán","name:eu":"Oran","name:fa":"وهران","name:fr":"Oran","name:he":"אוראן","name:hu":"Orán","name:it":"Orano","name:ja":"オラン","name:ko":"오랑","name:lt":"Oranas","name:ml":"വഹ്രാൻ","name:pt":"Orã","name:ru":"Оран","name:tr":"Vahran","name:ur":"وہران","name:zh":"瓦赫蘭","name:azb":"وهران","name:ber":"ⵡⴰⵀⵔⴻⵏ","name:ckb":"وەھران","name:kab":"Wehran","name:pnb":"وہران","name:zh-Hans":"瓦赫兰"},"display_name":"Oran ⵡⴰⵀⵔⴻⵏ وهران, Oran, Daïra Oran, Oran, Algérie ⵍⵣⵣⴰⵢⴻⵔ الجزائر","address":{"city":"Oran ⵡⴰⵀⵔⴻⵏ وهران","county":"Daïra Oran","state":"Oran","ISO3166-2-lvl4":"DZ-31","country":"Algérie ⵍⵣⵣⴰⵢⴻⵔ الجزائر","country_code":"dz"},"population":852576,"osm_type":"node","osm_id":27565103,"type":"city","location":[-0.6502981,35.7044415],"bbox":[-0.8102981,35.5444415,-0.4902981,35.8644415],"border":{"name":"Oran","other_names":{"ref":"3101","name:ar":"وهران","name:be":"Аран","name:bg":"Оран","name:bn":"ওরান","name:ca":"Orà","name:ce":"Оран","name:de":"Oran","name:el":"Οράν","name:en":"Oran","name:eo":"Orano","name:es":"Orán","name:fa":"وهران","name:fr":"Oran","name:gl":"Orán","name:he":"אוראן","name:hu":"Orán","name:it":"Orano","name:ja":"オラン","name:ka":"ორანი","name:kk":"Оран қаласы","name:ko":"오랑","name:ky":"Оран","name:lt":"Oranas","name:lv":"Orāna","name:mk":"Оран","name:mn":"Оран","name:ms":"Oran","name:nl":"Oran","name:pa":"ਵਹਿਰਾਨ","name:pl":"Oran","name:pt":"Orã","name:ro":"Oran","name:ru":"Оран","name:sr":"Оран","name:th":"ออราน","name:tr":"Vahran","name:uk":"Оран","name:ur":"وہران","name:wa":"Waradinne","name:zh":"瓦赫蘭","name:ber":"ⵡⴻⵀⵔⴰⵏ","name:kab":"Wehran","name:eu":"Oran","name:ml":"വഹ്രാൻ","name:azb":"وهران","name:ckb":"وەھران","name:pnb":"وہران","name:zh-Hans":"瓦赫兰","alt":"Oran ⵡⴰⵀⵔⴻⵏ وهران","alt:ber":"ⵡⴰⵀⵔⴻⵏ"},"display_name":"Oran, Daïra Oran, Oran, Algérie ⵍⵣⵣⴰⵢⴻⵔ الجزائر","address":{"city":"Oran","county":"Daïra Oran","state":"Oran","ISO3166-2-lvl4":"DZ-31","country":"Algérie ⵍⵣⵣⴰⵢⴻⵔ الجزائر","country_code":"dz"},"population":609940,"osm_type":"relation","osm_id":1259562,"type":"administrative","location":[-0.6502981,35.7044415],"bbox":[-0.7296348,35.6452843,-0.5513975,35.7695075]}}
{"name":"Ouaguenoun","other_names":{"ref":"1524","name:ar":"واقنون","name:en":"Ouaguenoun","name:fr":"Ouaguenoun","name:pt":"Ouaguenoun (comuna)","name:ber":"ⵡⴰⴳⵏⵓⵏ","name:kab":"Wagnun"},"display_name":"Ouaguenoun, Daïra Ouaguenoun, Tizi Ouzou, Algérie ⵍⵣⵣⴰⵢⴻⵔ الجزائر","address":{"city":"Ouaguenoun","county":"Daïra Ouaguenoun","state":"Tizi Ouzou","ISO3166-2-lvl4":"DZ-15","country":"Algérie ⵍⵣⵣⴰⵢⴻⵔ الجزائر","country_code":"dz"},"population":17425,"osm_type":"relation","osm_id":3080287,"type":"administrative","location":[4.18441093479243,36.75884915],"bbox":[4.1163862,36.726008,4.2377478,36.7917789],"inferred_type":"city"}
{"name":"Ouargla ⵡⴰⵔⴳⵍⴰ ورقلة","other_names":{"name:ar":"ورقلة","name:de":"Warqala","name:el":"Ουάργκλα","name:en":"Ouargla","name:fa":"ورقله","name:fr":"Ouargla","name:lt":"Uargla","name:ru":"Уаргла","name:ur":"ورقلہ","alt_name":"ورڤلة","name:arz":"ورقلة","name:azb":"ورقله","name:ber":"ⵡⴰⵔⴳⵍⴰ","name:kab":"Wargla","name:pnb":"ورقلہ"},"display_name":"Ouargla ⵡⴰⵔⴳⵍⴰ ورقلة, Ouargla ⵡⴻⵔⴳⵔⴰⵏ ورقلة, Daïra Ouargla, Ouargla, Algérie ⵍⵣⵣⴰⵢⴻⵔ الجزائر","address":{"city":"Ouargla ⵡⴰⵔⴳⵍⴰ ورقلة","county":"Daïra Ouargla","state":"Ouargla","ISO3166-2-lvl4":"DZ-30","country":"Algérie ⵍⵣⵣⴰⵢⴻⵔ الجزائر","country_code":"dz"},"population":133024,"osm_type":"node","osm_id":3869219093,"type":"city","location":[5.3217813,31.9444998],"bbox":[5.1617813,31.7844998,5.4817813,32.1044998],"border":{"name":"Ouargla ⵡⴻⵔⴳⵔⴰⵏ ورقلة","other_names":{"ref":"3001","name:ar":"ورقلة","name:de":"Warqala","name:en":"Ouargla","name:eo":"Uargla","name:fa":"ورقله","name:fr":"Ouargla","name:ja":"ワルグラ","name:kk":"Уаргла қаласы","name:ko":"우아르글라","name:lt":"Uargla","name:pl":"Warkala","name:ru":"Уаргла","name:th":"วาร์กลา","name:uk":"Уаргла","name:ur":"ورقلہ","name:zh":"瓦尔格拉","alt_name":"ورڨلة;بلدية ورڨلة","name:arz":"ورقلة","name:azb":"ورقله","name:ber":"ⵡⴻⵔⴳⵔⴰⵏ","name:kab":"Wargran","name:pnb":"ورقلہ","name:el":"Ουάργκλα","_place_alt_name":"ورڤلة","alt":"Ouargla ⵡⴰⵔⴳⵍⴰ ورقلة","alt:ber":"ⵡⴰⵔⴳⵍⴰ","alt:kab":"Wargla"},"display_name":"Ouargla ⵡⴻⵔⴳⵔⴰⵏ ورقلة, Daïra Ouargla, Ouargla, Algérie ⵍⵣⵣⴰⵢⴻⵔ الجزائر","address":{"city":"Ouargla ⵡⴻⵔⴳⵔⴰⵏ ورقلة","county":"Daïra Ouargla","state":"Ouargla","ISO3166-2-lvl4":"DZ-30","country":"Algérie ⵍⵣⵣⴰⵢⴻⵔ الجزائر","country_code":"dz"},"population":133024,"osm_type":"relation","osm_id":4601326,"type":"administrative","location":[5.3217813,31.9444998],"bbox":[4.469903,31.8644686,5.3556053,32.495112]}}
{"name":"Ouled Brahem ⵡⵍⴰⴷ ⴱⵔⴰⵀⴻⵎ أولاد براهم","other_names":{"ref":"3417","name:ar":"أولاد براهم","name:en":"Ouled Brahem","name:fr":"Ouled Brahem","name:ro":"Ouled Brahim (Bordj Bou Arreridj)","name:ber":"ⵡⵍⴰⴷ ⴱⵔⴰⵀⴻⵎ","name:kab":"Wlad Brahem"},"display_name":"Ouled Brahem ⵡⵍⴰⴷ ⴱⵔⴰⵀⴻⵎ أولاد براهم, Daïra Ras El Oued, Bordj Bou Arreridj, Algérie ⵍⵣⵣⴰⵢⴻⵔ الجزائر","address":{"city":"Ouled Brahem ⵡⵍⴰⴷ ⴱⵔⴰⵀⴻⵎ أولاد براهم","county":"Daïra Ras El Oued","state":"Bordj Bou Arreridj","ISO3166-2-lvl4":"DZ-34","country":"Algérie ⵍⵣⵣⴰⵢⴻⵔ الجزائر","country_code":"dz"},"population":7874,"osm_type":"relation","osm_id":4484474,"type":"administrative","location":[5.0804017339756795,35.896618000000004],"bbox":[5.0399501,35.842934,5.13403,35.9503484],"inferred_type":"city"}
{"name":"Ouled Djellal","other_names":{"name:ar":"أولاد جلال","name:de":"Ouled Djellal","name:en":"Ouled Djellal","name:es":"Ulad Yelal","name:fa":"اولاد جلال","name:fr":"Ouled Djellal","name:ru":"Улед-Джеллал","name:zh":"奥拉德杰拉勒","name:azb":"اولاد جلال","name:ber":"ⵡⵍⴻⴷ ⴵⴻⵍⴰⵍ","name:kab":"Wled Ğellal","name:az-Arab":"اولاد جلال"},"display_name":"Ouled Djellal, Ouled Djellal أولاد جلال, Daïra d'Ouled Djellal, Ouled Djellal, Algérie ⵍⵣⵣⴰⵢⴻⵔ الجزائر","address":{"city":"Ouled Djellal","county":"Daïra d'Ouled Djellal","state":"Ouled Djellal","ISO3166-2-lvl4":"DZ-51","country":"Algérie ⵍⵣⵣⴰⵢⴻⵔ الجزائر","country_code":"dz"},"population":63237,"osm_type":"node","osm_id":264507153,"type":"city","location":[5.0644342,34.4254103],"bbox":[4.9044342,34.2654103,5.2244342,34.5854103],"border":[{"name":"Daïra d'Ouled Djellal","other_names":{"name:ar":"دائرة أولاد جلال","name:de":"Ouled Djellal","name:en":"Ouled Djellal District","name:es":"Daira de Ulad Yelal","name:fa":"ناحیه أولاد جلال","name:fr":"Daïra d'Ouled Djellal","name:ru":"Улед-Джеллал","name:zh":"奥拉德杰拉勒","name:ber":"ⵡⵍⴻⴷ ⴵⴻⵍⴰⵍ","name:kab":"Wled Ğellal","official_name":"دائرة اولاد جلال"},"display_name":"Daïra d'Ouled Djellal, Ouled Djellal, Algérie ⵍⵣⵣⴰⵢⴻⵔ الجزائر","address":{"county":"Daïra d'Ouled Djellal","state":"Ouled Djellal","ISO3166-2-lvl4":"DZ-51","country":"Algérie ⵍⵣⵣⴰⵢⴻⵔ الجزائر","country_code":"dz"},"osm_type":"relation","osm_id":4120750,"type":"administrative","location":[4.944518108361995,34.59174205],"bbox":[4.5424056,34.3218019,5.3082512,34.862526]},{"name":"Ouled Djellal أولاد جلال","other_names":{"ref":"0705","name:ar":"أولاد جلال","name:de":"Ouled Djellal","name:en":"Ouled Djellal","name:es":"Ulad Yelal","name:fa":"اولاد جلال","name:fr":"Ouled Djellal","name:ru":"Улед-Джеллал","name:zh":"奥拉德杰拉勒","name:azb":"اولاد جلال","name:ber":"ⵡⵍⴻⴷ ⴵⴻⵍⴰⵍ","name:kab":"Wled Ğellal","name:az-Arab":"اولاد جلال","alt":"Ouled Djellal"},"display_name":"Ouled Djellal أولاد جلال, Daïra d'Ouled Djellal, Ouled Djellal, 07400, Algérie ⵍⵣⵣⴰⵢⴻⵔ الجزائر","address":{"city":"Ouled Djellal أولاد جلال","county":"Daïra d'Ouled Djellal","state":"Ouled Djellal","ISO3166-2-lvl4":"DZ-51","postcode":"07400","country":"Algérie ⵍⵣⵣⴰⵢⴻⵔ الجزائر","country_code":"dz"},"population":63237,"osm_type":"relation","osm_id":4120781,"type":"administrative","location":[5.0644342,34.4254103],"bbox":[4.9462698,34.3218019,5.273226,34.5158938]}]}
{"name":"Ouled Fadel ⴰⵢⵜ ⴼⴰⴷⴻⵍ أولاد فاضل","other_names":{"ref":"0549","name:ar":"أولاد فاضل","name:en":"Ouled Fadel","name:fr":"Ouled Fadel","name:ms":"Oued Fadel","name:ber":"ⴰⵢⵜ ⴼⴰⴷⴻⵍ","name:kab":"At Faḍel"},"display_name":"Ouled Fadel ⴰⵢⵜ ⴼⴰⴷⴻⵍ أولاد فاضل, Daïra Timgad, Batna, Algérie ⵍⵣⵣⴰⵢⴻⵔ الجزائر","address":{"city":"Ouled Fadel ⴰⵢⵜ ⴼⴰⴷⴻⵍ أولاد فاضل","county":"Daïra Timgad","state":"Batna","ISO3166-2-lvl4":"DZ-05","country":"Algérie ⵍⵣⵣⴰⵢⴻⵔ الجزائر","country_code":"dz"},"population":10860,"osm_type":"relation","osm_id":5241219,"type":"administrative","location":[6.678508711285865,35.5558054],"bbox":[6.5673432,35.4624869,6.7928065,35.6484914],"inferred_type":"city"}
{"name":"Ouled Sabor ⵡⵍⴰⴷ ⵚⴰⴱⴻⵔ أولاد صابر","other_names":{"ref":"1947","name:ar":"أولاد صابر","name:en":"Ouled Sabor","name:fr":"Ouled Sabor","name:vi":"Ouled Saber","name:ber":"ⵡⵍⴰⴷ ⵚⴰⴱⴻⵔ","name:kab":"Wlad Saber"},"display_name":"Ouled Sabor ⵡⵍⴰⴷ ⵚⴰⴱⴻⵔ أولاد صابر, Daïra Guidjel, Sétif, Algérie ⵍⵣⵣⴰⵢⴻⵔ الجزائر","address":{"city":"Ouled Sabor ⵡⵍⴰⴷ ⵚⴰⴱⴻⵔ أولاد صابر","county":"Daïra Guidjel","state":"Sétif","ISO3166-2-lvl4":"DZ-19","country":"Algérie ⵍⵣⵣⴰⵢⴻⵔ الجزائر","country_code":"dz"},"population":12510,"osm_type":"relation","osm_id":1617605,"type":"administrative","location":[5.540385658667458,36.181942500000005],"bbox":[5.468102,36.106947,5.622582,36.256714],"inferred_type":"city"}
{"name":"Ouled Slimane ⵡⵍⴰⴷ ⵙⵍⵉⵎⴰⵏ أولاد سليمان","other_names":{"ref":"2825","name:ar":"أولاد سليمان","name:en":"Ouled Slimane","name:fr":"Ouled Slimane","name:ber":"ⵡⵍⴰⴷ ⵙⵍⵉⵎⴰⵏ","name:kab":"Wlad Sliman"},"display_name":"Ouled Slimane ⵡⵍⴰⴷ ⵙⵍⵉⵎⴰⵏ أولاد سليمان, Daïra Ben Srour, M'Sila, 28031, Algérie ⵍⵣⵣⴰⵢⴻⵔ الجزائر","address":{"city":"Ouled Slimane ⵡⵍⴰⴷ ⵙⵍⵉⵎⴰⵏ أولاد سليمان","county":"Daïra Ben Srour","state":"M'Sila","ISO3166-2-lvl4":"DZ-28","postcode":"28031","country":"Algérie ⵍⵣⵣⴰⵢⴻⵔ الجزائر","country_code":"dz"},"population":4116,"osm_type":"relation","osm_id":5558595,"type":"administrative","location":[4.856969899057873,34.9270365],"bbox":[4.690601,34.8118839,5.028513,35.042256],"inferred_type":"city"}
{"name":"Oum El Bouaghi","other_names":{"name:ar":"أم البواقي","name:de":"Oum El Bouaghi","name:el":"Ουμ Ελ Μπουαγκί","name:en":"Oum El Bouaghi","name:fa":"ام بواقی","name:fr":"Oum El Bouaghi","name:la":"Makumidas","name:lt":"Um el Buagis","name:ru":"Умм-эль-Буаги","name:ur":"ام البواقی","name:zh":"烏姆布瓦吉","name:azb":"ام بواقی","name:ber":"ⵓⵎⵍⴻⴱⵡⴰⵖⵉ","name:kab":"Um Lebwaqi","name:pnb":"ام البواقی","old_name:ar":"كانروبير","old_name:fr":"Canrobert"},"display_name":"Oum El Bouaghi, Oum El Bouaghi ⵓⵎ ⵍⴻⴱⵡⴰⵇⵉ أم البواقي, Daïra Oum El Bouaghi, Oum El Bouaghi, 04000, Algérie ⵍⵣⵣⴰⵢⴻⵔ الجزائر","address":{"city":"Oum El Bouaghi","county":"Daïra Oum El Bouaghi","state":"Oum El Bouaghi","ISO3166-2-lvl4":"DZ-04","postcode":"04000","country":"Algérie ⵍⵣⵣⴰⵢⴻⵔ الجزائر","country_code":"dz"},"population":88359,"osm_type":"node","osm_id":442688831,"type":"city","location":[7.1150645,35.8687758],"bbox":[6.9550645,35.7087758,7.2750645,36.0287758],"border":{"name":"Oum El Bouaghi ⵓⵎ ⵍⴻⴱⵡⴰⵇⵉ أم البواقي","other_names":{"ref":"0401","name:ar":"أم البواقي","name:en":"Oum El Bouaghi","name:eo":"Um el-Buaghi","name:fr":"Oum El Bouaghi","name:it":"Oum el-Bouaghi","name:ko":"움엘부아기","name:lt":"Um el Buagis","name:nl":"Oum el-Bouaghi","name:no":"Oum el-Bouaghi","name:pl":"Umm al-Bawaki","name:ru":"Умм-эль-Буаги","name:uk":"Ум-ель-Буакі","name:ur":"ام البواقی","name:zh":"烏姆布瓦吉","name:ber":"ⵓⵎ ⵍⴻⴱⵡⴰⵇⵉ","name:kab":"Um Lebwaqi","old_name":"Canrobert","name:de":"Oum El Bouaghi","name:el":"Ουμ Ελ Μπουαγκί","name:fa":"ام بواقی","name:la":"Makumidas","name:azb":"ام بواقی","name:pnb":"ام البواقی","old_name:ar":"كانروبير","old_name:fr":"Canrobert","alt":"Oum El Bouaghi","alt:ber":"ⵓⵎⵍⴻⴱⵡⴰⵖⵉ"},"display_name":"Oum El Bouaghi ⵓⵎ ⵍⴻⴱⵡⴰⵇⵉ أم البواقي, Daïra Oum El Bouaghi, Oum El Bouaghi, 04000, Algérie ⵍⵣⵣⴰⵢⴻⵔ الجزائر","address":{"city":"Oum El Bouaghi ⵓⵎ ⵍⴻⴱⵡⴰⵇⵉ أم البواقي","county":"Daïra Oum El Bouaghi","state":"Oum El Bouaghi","ISO3166-2-lvl4":"DZ-04","postcode":"04000","country":"Algérie ⵍⵣⵣⴰⵢⴻⵔ الجزائر","country_code":"dz"},"population":80359,"osm_type":"relation","osm_id":4469695,"type":"administrative","location":[7.1150645,35.8687758],"bbox":[6.9286717,35.7147836,7.2609986,35.9606268]}}
{"name":"Relizane","other_names":{"name:ar":"غليزان","name:en":"Relizane","name:fa":"غلیزان","name:fr":"Relizane","name:ks":"غلیزان","name:lt":"Relizanas","name:ur":"غلیزان","name:azb":"غلیزان","name:ber":"ⴴⵉⵍⵉⵣⴰⵏ","name:kab":"Ɣilizan","name:pnb":"غلیزان"},"display_name":"Relizane, Relizane غليزان, Daïra Relizane, Relizane, Algérie ⵍⵣⵣⴰⵢⴻⵔ الجزائر","address":{"city":"Relizane","county":"Daïra Relizane","state":"Relizane","ISO3166-2-lvl4":"DZ-48","country":"Algérie ⵍⵣⵣⴰⵢⴻⵔ الجزائر","country_code":"dz"},"population":130094,"osm_type":"node","osm_id":299825178,"type":"city","location":[0.5547673,35.7381193],"bbox":[0.3947673,35.5781193,0.7147673,35.8981193],"border":{"name":"Relizane غليزان","other_names":{"ref":"4801","name:ar":"غليزان","name:en":"Relizane","name:eo":"Relizan","name:fa":"غلیزان","name:fr":"Relizane","name:ja":"ルリザンヌ","name:ko":"렐리잔","name:ks":"غلیزان","name:lt":"Relizanas","name:nl":"Relizane (stad)","name:pl":"Ghulajzan","name:ru":"Гализан","name:uk":"Релізан","name:ur":"غلیزان","name:zh":"埃利赞","name:azb":"غلیزان","name:ber":"Iⴳⵀⵉⵍ Iⵣⴰⵏ","name:kab":"Iɣil n Yizan","name:pnb":"غلیزان","alt":"Relizane","alt:ber":"ⴴⵉⵍⵉⵣⴰⵏ","alt:kab":"Ɣilizan"},"display_name":"Relizane غليزان, Daïra Relizane, Relizane, Algérie ⵍⵣⵣⴰⵢⴻⵔ الجزائر","address":{"city":"Relizane غليزان","county":"Daïra Relizane","state":"Relizane","ISO3166-2-lvl4":"DZ-48","country":"Algérie ⵍⵣⵣⴰⵢⴻⵔ الجزائر","country_code":"dz"},"population":130094,"osm_type":"relation","osm_id":6559416,"type":"administrative","location":[0.5547673,35.7381193],"bbox":[0.4778973,35.656076,0.648351,35.7948938]}}
{"name":"Saïda ⵙⵄⵉⴷⴰ سعيدة","other_names":{"name:ar":"سعيدة","name:de":"Saida","name:el":"Σαϊντά","name:en":"Saida","name:es":"Saída","name:fa":"سعیده","name:fr":"Saïda","name:ks":"سعیدہ","name:lt":"Saida","name:ur":"سعیدہ","name:azb":"سعیده","name:ber":"ⵙⵄⵉⴷⴰ","name:kab":"Sɛida","name:az-Arab":"سعیده","name:kab-Arab":"سعيدة"},"display_name":"Saïda ⵙⵄⵉⴷⴰ سعيدة, Daïra Saïda, Saïda, Algérie ⵍⵣⵣⴰⵢⴻⵔ الجزائر","address":{"city":"Saïda ⵙⵄⵉⴷⴰ سعيدة","county":"Daïra Saïda","state":"Saïda","ISO3166-2-lvl4":"DZ-20","country":"Algérie ⵍⵣⵣⴰⵢⴻⵔ الجزائر","country_code":"dz"},"population":128413,"osm_type":"node","osm_id":299822267,"type":"city","location":[0.1502692,34.8302067],"bbox":[-0.0097308,34.6702067,0.3102692,34.9902067],"border":{"name":"Saïda ⵙⵄⵉⴷⴰ سعيدة","other_names":{"ref":"2001","name:ar":"سعيدة","name:de":"Saida","name:el":"Σαϊντά","name:en":"Saïda","name:eo":"Saida","name:es":"Saída","name:fa":"سعیده","name:fr":"Saïda","name:it":"Saida","name:ja":"サイダ (アルジェリア)","name:ko":"사이다 (알제리)","name:ks":"سعیدہ","name:lt":"Saida","name:ms":"Saïda","name:nl":"Saïda","name:pl":"Sa’ida","name:ro":"Saïda","name:ru":"Саида","name:sv":"Saïda, Algeriet","name:uk":"Саїда","name:ur":"سعیدہ","name:zh":"塞伊达","name:azb":"سعیده","name:ber":"ⵙⵄⵉⴷⴰ","name:kab":"Sɛida","name:az-Arab":"سعیده","name:kab-Arab":"سعيدة","alt:en":"Saida"},"display_name":"Saïda ⵙⵄⵉⴷⴰ سعيدة, Daïra Saïda, Saïda, Algérie ⵍⵣⵣⴰⵢⴻⵔ الجزائر","address":{"city":"Saïda ⵙⵄⵉⴷⴰ سعيدة","county":"Daïra Saïda","state":"Saïda","ISO3166-2-lvl4":"DZ-20","country":"Algérie ⵍⵣⵣⴰⵢⴻⵔ الجزائر","country_code":"dz"},"population":128413,"osm_type":"relation","osm_id":5321733,"type":"administrative","location":[0.1502692,34.8302067],"bbox":[0.0704279,34.7876623,0.2144627,34.9002944]}}
{"name":"Sétif ⵚⵟⵉⴼ سطيف","other_names":{"name:ar":"سطيف","name:de":"Sétif","name:el":"Σετίφ","name:en":"Setif","name:es":"Sétif","name:eu":"Setif","name:fa":"سطیف","name:fr":"Sétif","name:he":"סטיף","name:hy":"Սետիֆ","name:ks":"سطیف","name:lt":"Setifas","name:ru":"Сетиф","name:uk":"Сетіф","name:ur":"سطیف","name:azb":"سطیف","name:ber":"ⵚⵟⵉⴼ","name:kab":"Ṣṭif","name:pnb":"سطف","name:az-Arab":"سطیف","name:kab-Arab":"سەتىيف"},"display_name":"Sétif ⵚⵟⵉⴼ سطيف, Sétif سطيف, Daïra Sétif, Sétif, Algérie ⵍⵣⵣⴰⵢⴻⵔ الجزائر","address":{"city":"Sétif ⵚⵟⵉⴼ سطيف","county":"Daïra Sétif","state":"Sétif","ISO3166-2-lvl4":"DZ-19","country":"Algérie ⵍⵣⵣⴰⵢⴻⵔ الجزائر","country_code":"dz"},"population":288461,"osm_type":"node","osm_id":4306315224,"type":"city","location":[5.4046876,36.1893494],"bbox":[5.2446876,36.0293494,5.5646876,36.3493494],"border":{"name":"Sétif سطيف","other_names":{"ref":"1901","name:ar":"سطيف","name:be":"Горад Сетыф","name:bg":"Сетиф","name:br":"Setif","name:ca":"Sitifis","name:de":"Sétif","name:en":"Setif","name:eo":"Setif","name:es":"Sétif","name:eu":"Setif","name:fa":"سطیف","name:fr":"Sétif","name:he":"סטיף","name:hy":"Սետիֆ","name:id":"Sathif","name:ja":"セティフ","name:kk":"Сетиф қаласы","name:ko":"세티프","name:ks":"سطیف","name:la":"Sitifis","name:lt":"Setifas","name:mk":"Сетиф","name:pl":"Satif","name:ru":"Сетиф","name:uk":"Сетіф","name:ur":"سطیف","name:zh":"塞提夫","name:azb":"سطیف","name:ber":"ⵙⵟⵉⴼ","name:kab":"Sṭif","name:pnb":"سطف","name:az-Arab":"سطیف","name:el":"Σετίφ","name:kab-Arab":"سەتىيف","alt":"Sétif ⵚⵟⵉⴼ سطيف","alt:ber":"ⵚⵟⵉⴼ","alt:kab":"Ṣṭif"},"display_name":"Sétif سطيف, Daïra Sétif, Sétif, 19000, Algérie ⵍⵣⵣⴰⵢⴻⵔ الجزائر","address":{"city":"Sétif سطيف","county":"Daïra Sétif","state":"Sétif","ISO3166-2-lvl4":"DZ-19","postcode":"19000","country":"Algérie ⵍⵣⵣⴰⵢⴻⵔ الجزائر","country_code":"dz"},"population":288461,"osm_type":"relation","osm_id":1617602,"type":"administrative","location":[5.4046876,36.1893494],"bbox":[5.337056,36.1335573,5.506285,36.24869]}}
{"name":"Sidi Bel Abbès ⵙⵉⴷⵉ ⴱⵍⵄⴰⴱⴰⵙ سيدي بلعباس","other_names":{"name:ar":"سيدي بلعباس","name:el":"Σίντι Μπελ Αμπές","name:en":"Sidi Bel Abbes","name:fa":"سیدی بلعباس","name:fr":"Sidi Bel Abbès","name:ks":"سیدی بلعباس","name:lt":"Sidi bel Abesas","name:ro":"Sidi Bel Abbes","name:ur":"سیدی بلعباس","name:azb":"سیدی بلعباس","name:ber":"ⵙⵉⴷⵉ ⴱⵍⵄⴰⴱⴰⵙ","name:kab":"Sidi Belɛebbas","name:pnb":"سیدی بلعباس","name:zgh":"ⵙⵉⴷⵉ ⴱⵍⵄⴰⴱⴰⵙ"},"display_name":"Sidi Bel Abbès ⵙⵉⴷⵉ ⴱⵍⵄⴰⴱⴰⵙ سيدي بلعباس, Daïra Sidi Bel Abbès, Sidi Bel Abbès, Algérie ⵍⵣⵣⴰⵢⴻⵔ الجزائر","address":{"city":"Sidi Bel Abbès ⵙⵉⴷⵉ ⴱⵍⵄⴰⴱⴰⵙ سيدي بلعباس","county":"Daïra Sidi Bel Abbès","state":"Sidi Bel Abbès","ISO3166-2-lvl4":"DZ-22","country":"Algérie ⵍⵣⵣⴰⵢⴻⵔ الجزائر","country_code":"dz"},"population":212935,"osm_type":"node","osm_id":299682062,"type":"city","location":[-0.6341153,35.1907399],"bbox":[-0.7941153,35.0307399,-0.4741153,35.3507399],"border":{"name":"Sidi Bel Abbès ⵙⵉⴷⵉ ⴱⵍⵄⴰⴱⴰⵙ سيدي بلعباس","other_names":{"ref":"2201","name:ar":"سيدي بلعباس","name:be":"Горад Сіды-Бель-Абес","name:bg":"Сиди Бел Абес","name:ca":"Sidi Bel Abbès","name:da":"Sidi Bel Abbès","name:de":"Sidi bel Abbès","name:en":"Sidi Bel Abbès","name:eo":"Sidi Bel Abes","name:es":"Sidi Bel Abbes","name:eu":"Sidi Bel Abbes","name:fa":"سیدی بلعباس","name:fi":"Sidi Bel Abbès","name:fr":"Sidi Bel Abbès","name:he":"סידי בל-עבאס","name:id":"Sidi Bel Abbès","name:it":"Sidi Bel Abbes","name:ja":"シディ・ベル・アッベス","name:kk":"Сиди-Бель-Аббес қаласы","name:ko":"시디벨아베스","name:lt":"Sidi bel Abesas","name:mk":"Сиди Бел Абес","name:ms":"Sidi Bel Abbès","name:nl":"Sidi-bel-Abbès","name:no":"Sidi bel Abbès","name:pl":"Sidi Bu-l-Abbas","name:pt":"Sidi Bel Abbès","name:ro":"Sidi Bel Abbès","name:ru":"Сиди-Бель-Аббес","name:sv":"Sidi Bel Abbès","name:tr":"Sidi Belabbas","name:uk":"Сіді-Бель-Аббес","name:ur":"سیدی بلعباس","name:vi":"Sidi Bel Abbes","name:zh":"西迪贝勒阿巴斯","name:ber":"ⵙⵉⴷⵉ ⴱⵍⵄⴰⴱⴰⵙ","name:kab":"Sidi Belɛebbas","name:el":"Σίντι Μπελ Αμπές","name:ks":"سیدی بلعباس","name:azb":"سیدی بلعباس","name:pnb":"سیدی بلعباس","name:zgh":"ⵙⵉⴷⵉ ⴱⵍⵄⴰⴱⴰⵙ","alt:en":"Sidi Bel Abbes","alt:ro":"Sidi Bel Abbes"},"display_name":"Sidi Bel Abbès ⵙⵉⴷⵉ ⴱⵍⵄⴰⴱⴰⵙ سيدي بلعباس, Daïra Sidi Bel Abbès, Sidi Bel Abbès, Algérie ⵍⵣⵣⴰⵢⴻⵔ الجزائر","address":{"city":"Sidi Bel Abbès ⵙⵉⴷⵉ ⴱⵍⵄⴰⴱⴰⵙ سيدي بلعباس","county":"Daïra Sidi Bel Abbès","state":"Sidi Bel Abbès","ISO3166-2-lvl4":"DZ-22","country":"Algérie ⵍⵣⵣⴰⵢⴻⵔ الجزائر","country_code":"dz"},"population":212935,"osm_type":"relation","osm_id":2361464,"type":"administrative","location":[-0.6341153,35.1907399],"bbox":[-0.6909076,35.160385,-0.5732636,35.250972]}}
{"name":"Sidi M'hamed ⵙⵉⴷⵉ ⵎⵃⴻⵎⵎⴻⴷ سيدي محمد","other_names":{"ref":"2838","name:ar":"سيدي محمد","name:en":"Sidi M'Hamed","name:fr":"Sidi M'hamed","name:it":"Sidi M'Hamed (M'Sila)","name:pt":"Sidi M'Hamed (M'Sila)","name:ro":"Sidi M'Hamed (M'Sila)","name:ber":"ⵙⵉⴷⵉ ⵎⵃⴻⵎⵎⴻⴷ","name:kab":"Sidi Mḥemmed"},"display_name":"Sidi M'hamed ⵙⵉⴷⵉ ⵎⵃⴻⵎⵎⴻⴷ سيدي محمد, Daïra Aïn El Melh, M'Sila, 28066, Algérie ⵍⵣⵣⴰⵢⴻⵔ الجزائر","address":{"city":"Sidi M'hamed ⵙⵉⴷⵉ ⵎⵃⴻⵎⵎⴻⴷ سيدي محمد","county":"Daïra Aïn El Melh","state":"M'Sila","ISO3166-2-lvl4":"DZ-28","postcode":"28066","country":"Algérie ⵍⵣⵣⴰⵢⴻⵔ الجزائر","country_code":"dz"},"population":8300,"osm_type":"relation","osm_id":5528024,"type":"administrative","location":[4.321723390996785,34.7735074],"bbox":[4.168675,34.619883,4.3976326,34.927834],"inferred_type":"city"}
{"name":"Sidi Slimane ⵙⵉⴷⵉ ⵙⵍⵉⵎⴰⵏ سيدي سليمان","other_names":{"ref":"3820","name:ar":"سيدي سليمان","name:en":"Sidi Slimane","name:fr":"Sidi Slimane","name:it":"Sidi Slimane (Tissemsilt)","name:ms":"Sidi Slimane, Tissemsilt","name:pt":"Sidi Slimane (Tissemsilt)","name:ro":"Sidi Slimane (Tissemsilt)","name:ber":"ⵙⵉⴷⵉ ⵙⵍⵉⵎⴰⵏ","name:kab":"Sidi Sliman"},"display_name":"Sidi Slimane ⵙⵉⴷⵉ ⵙⵍⵉⵎⴰⵏ سيدي سليمان, Daïra Bordj Bou Naama, Tissemsilt, Algérie ⵍⵣⵣⴰⵢⴻⵔ الجزائر","address":{"city":"Sidi Slimane ⵙⵉⴷⵉ ⵙⵍⵉⵎⴰⵏ سيدي سليمان","county":"Daïra Bordj Bou Naama","state":"Tissemsilt","ISO3166-2-lvl4":"DZ-38","country":"Algérie ⵍⵣⵣⴰⵢⴻⵔ الجزائر","country_code":"dz"},"population":8461,"osm_type":"relation","osm_id":6534592,"type":"administrative","location":[1.7237870722455773,35.8544291],"bbox":[1.6725148,35.8086895,1.7724841,35.8989225],"inferred_type":"city"}
{"name":"Skikda ⵙⴽⵉⴽⴷⴰ سكيكدة","other_names":{"name:ar":"سكيكدة","name:de":"Skikda","name:el":"Σκίκντα","name:en":"Skikda","name:es":"Skikda","name:fa":"سکیکده","name:fr":"Skikda","name:it":"Skikda","name:ja":"スキクダ","name:la":"Rusicade","name:lt":"Skikda","name:pl":"Sukajkida","name:ru":"Скикда","name:ur":"سکیکدہ","name:zh":"斯基克达","name:azb":"سکیکده","name:ber":"ⵙⴽⵉⴽⴷⴰ","name:kab":"Skikda","name:pnb":"سکیکدہ","old_name":"Philippeville","old_name:ar":"فليب فيل","old_name:el":"Ρουσικαδα","old_name:fr":"Philippeville","old_name:fr:1838-11-17--":"Philippeville"},"display_name":"Skikda ⵙⴽⵉⴽⴷⴰ سكيكدة, Daïra Skikda, Skikda, Algérie ⵍⵣⵣⴰⵢⴻⵔ الجزائر","address":{"city":"Skikda ⵙⴽⵉⴽⴷⴰ سكيكدة","county":"Daïra Skikda","state":"Skikda","ISO3166-2-lvl4":"DZ-21","country":"Algérie ⵍⵣⵣⴰⵢⴻⵔ الجزائر","country_code":"dz"},"population":188467,"osm_type":"node","osm_id":299692217,"type":"city","location":[6.9077363,36.8801317],"bbox":[6.7477363,36.7201317,7.0677363,37.0401317],"border":{"name":"Skikda ⵙⴽⵉⴽⴷⴰ سكيكدة","other_names":{"ref":"2101","name:af":"Skikda","name:ar":"سكيكدة","name:be":"Горад Скікда","name:bg":"Скикда","name:bn":"স্কিকদা","name:br":"Skikda","name:ca":"Skikda","name:cs":"Skikda","name:de":"Skikda","name:en":"Skikda","name:eo":"Skikda","name:es":"Skikda","name:fa":"سکیکده","name:fr":"Skikda","name:it":"Skikda","name:ja":"スキクダ","name:kk":"Скикда қаласы","name:ko":"스킥다","name:la":"Rusicade","name:lt":"Skikda","name:mk":"Скикда","name:ms":"Skikda","name:nl":"Skikda","name:no":"Skikda","name:pl":"Sukajkida","name:pt":"Skikda","name:ro":"Skikda","name:ru":"Скикда","name:sv":"Skikda","name:tr":"Skikda","name:uk":"Скікда","name:ur":"سکیکدہ","name:vi":"Skikda","name:zh":"斯基克达","name:azb":"سکیکده","name:ber":"ⵙⴽⵉⴽⴷⴰ","name:kab":"Skikda","name:pnb":"سکیکدہ","old_name":"فليب فيل","old_name:ar":"فليب فيل","old_name:fr":"Philippeville","name:el":"Σκίκντα","_place_old_name":"Philippeville","old_name:el":"Ρουσικαδα","old_name:fr:1838-11-17--":"Philippeville"},"display_name":"Skikda ⵙⴽⵉⴽⴷⴰ سكيكدة, Daïra Skikda, Skikda, 21001, Algérie ⵍⵣⵣⴰⵢⴻⵔ الجزائر","address":{"city":"Skikda ⵙⴽⵉⴽⴷⴰ سكيكدة","county":"Daïra Skikda","state":"Skikda","ISO3166-2-lvl4":"DZ-21","postcode":"21001","country":"Algérie ⵍⵣⵣⴰⵢⴻⵔ الجزائر","country_code":"dz"},"population":163618,"osm_type":"relation","osm_id":2514757,"type":"administrative","location":[6.9077363,36.8801317],"bbox":[6.844226,36.8385522,7.02798,36.91846]}}
{"name":"Souk Ahras","other_names":{"name:ar":"سوق أهراس","name:el":"Σουκ Αχράς","name:en":"Souk Ahras","name:fr":"Souk Ahras","name:ja":"スーク・アフラース","name:ko":"수크아라스","name:lt":"Suk Ahrasas","name:ru":"Сук-Ахрас","name:zh":"苏格艾赫拉斯","name:ber":"ⵜⴰⴳⴰⵙⵜ","name:kab":"Tagast"},"display_name":"Souk Ahras, سوق أهراس, Daïra Souk Ahras, Souk Ahras, 41000, Algérie ⵍⵣⵣⴰⵢⴻⵔ الجزائر","address":{"city":"Souk Ahras","county":"Daïra Souk Ahras","state":"Souk Ahras","ISO3166-2-lvl4":"DZ-41","postcode":"41000","country":"Algérie ⵍⵣⵣⴰⵢⴻⵔ الجزائر","country_code":"dz"},"population":155259,"osm_type":"node","osm_id":299698224,"type":"city","location":[7.9537896,36.282865],"bbox":[7.7937896,36.122865,8.1137896,36.442865],"border":{"name":"سوق أهراس","other_names":{"ref":"4101","name:ar":"سوق أهراس","name:br":"Souk Ahras","name:cy":"Souk-Ahras","name:de":"Souq Ahras","name:el":"Σουκ Αχράς","name:en":"Souk Ahras","name:eo":"Souk Ahras","name:es":"Suq Ahras","name:fa":"سوق اهراس","name:fr":"Souk Ahras","name:he":"סוק אחרס","name:hu":"Szúk Ahrász","name:id":"Souk Ahras","name:it":"Souk Ahras","name:ja":"スーク・アフラース","name:ko":"수크아라스","name:la":"Tagaste","name:lt":"Suk Ahrasas","name:ms":"Souk Ahras","name:nb":"Souk Ahras","name:nl":"Souk Ahras","name:pl":"Suk Ahras","name:pt":"Souk Ahras","name:ro":"Souk Ahras","name:ru":"Сук-Ахрас","name:sv":"Souk Ahras","name:sw":"Souk Ahras","name:uk":"Сук-Ахрас","name:ur":"سوق اہراس","name:vi":"Souk Ahras","name:zh":"苏格艾赫拉斯","name:azb":"سوق اهراس","name:ber":"ⵙⵓⵇ ⵀⵔⴰⵙ","name:kab":"Suq Hras","name:pnb":"سوق اہراس","old_name":"طاغاست","old_name:ar":"طاغاست","alt":"Souk Ahras","alt:ber":"ⵜⴰⴳⴰⵙⵜ","alt:kab":"Tagast"},"display_name":"سوق أهراس, Daïra Souk Ahras, Souk Ahras, 41000, Algérie ⵍⵣⵣⴰⵢⴻⵔ الجزائر","address":{"city":"سوق أهراس","county":"Daïra Souk Ahras","state":"Souk Ahras","ISO3166-2-lvl4":"DZ-41","postcode":"41000","country":"Algérie ⵍⵣⵣⴰⵢⴻⵔ الجزائر","country_code":"dz"},"population":155259,"osm_type":"relation","osm_id":6663208,"type":"administrative","location":[7.9537896,36.282865],"bbox":[7.8997843,36.2448661,8.00739,36.320684]}}
{"name":"TAGHZOUT","other_names":{"name:ar":"تغزوت","name:fr":"TAGHZOUT"},"display_name":"TAGHZOUT, Taghzout ⵜⴰⵖⵣⵓⵜ تغزوت, Daïra Guemar, El Oued, 39040, Algérie ⵍⵣⵣⴰⵢⴻⵔ الجزائر","address":{"city":"TAGHZOUT","town":"Taghzout ⵜⴰⵖⵣⵓⵜ تغزوت","county":"Daïra Guemar","state":"El Oued","ISO3166-2-lvl4":"DZ-39","postcode":"39040","country":"Algérie ⵍⵣⵣⴰⵢⴻⵔ الجزائر","country_code":"dz"},"population":18000,"osm_type":"way","osm_id":1144636403,"type":"city","location":[6.7960561582176355,33.4685887],"bbox":[6.7843846,33.4560058,6.8091498,33.4818183]}
{"name":"Tamanrasset","other_names":{"name:ar":"تمنراست","name:da":"Tamanrasset","name:de":"Tamanrasset","name:el":"Ταμανρασσέτ","name:en":"Tamanrasset","name:es":"Tamanrasset","name:fa":"تمنراست","name:fr":"Tamanrasset","name:ks":"تمنراست","name:lt":"Tamanrasetas","name:ru":"Таманрассет","name:uk":"Таманрассет","name:ur":"تمنراست","name:azb":"تمنراست","name:ber":"ⵜⴰⵎⴻⵏⵔⴰⵙⴻⵜ","name:kab":"Tamenɣest","name:pnb":"تمنراست","old_name":"Fort-Laperrine","alt_name:ar":"تامنغاست","alt_name:fr":"Tamanghasset","old_name:ar":"فور لابرين","old_name:fr":"Fort-Laperrine"},"display_name":"Tamanrasset, Tamanrasset ⵜⴰⵎⴻⵏⵖⴻⵙⵜ تمنراست, Daïra Tamanrasset, Tamanrasset, Algérie ⵍⵣⵣⴰⵢⴻⵔ الجزائر","address":{"city":"Tamanrasset","county":"Daïra Tamanrasset","state":"Tamanrasset","ISO3166-2-lvl4":"DZ-11","country":"Algérie ⵍⵣⵣⴰⵢⴻⵔ الجزائر","country_code":"dz"},"population":92635,"osm_type":"node","osm_id":89369215,"type":"city","location":[5.5291395,22.7859372],"bbox":[5.3691395,22.6259372,5.6891395,22.9459372],"border":{"name":"Tamanrasset ⵜⴰⵎⴻⵏⵖⴻⵙⵜ تمنراست","other_names":{"ref":"1101","name:ar":"تمنراست","name:bg":"Таманрасет","name:ca":"Tamanrasset","name:cs":"Tamanrasset","name:cy":"Tamanrasset","name:da":"Tamanrasset","name:de":"Tamanrasset","name:en":"Tamanghasset","name:eo":"Tamanrasset","name:es":"Tamanrasset","name:eu":"Tamanrasset","name:fa":"تمنراست","name:fi":"Tamanrasset","name:fr":"Tamanrasset","name:he":"תאמאנראסט","name:hu":"Tamanrasset","name:it":"Tamanrasset","name:ja":"タマンラセット","name:ko":"타만라세트","name:ks":"تمنراست","name:lt":"Tamanrasetas","name:ms":"Tamanrasset","name:nl":"Tamanrasset","name:no":"Tamanrasset","name:oc":"Tamanrasset","name:pl":"Tamanrasset","name:pt":"Tamanrasset","name:ro":"Tamanrasset","name:ru":"Таманрассет","name:sv":"Tamanrasset","name:tr":"Tamanrasset","name:uk":"Таманрассет","name:ur":"تمنراست","name:vi":"Tamenghasset","name:zh":"塔曼拉塞特","alt_name":"تامنراست;تامنغاست;تامنغست;بلدية تامنغست","name:azb":"تمنراست","name:ber":"ⵜⴰⵎⴻⵏⵖⴻⵙⵜ","name:kab":"Tamenɣest","name:pnb":"تمنراست","alt_name:ar":"تامنراست;تامنغاست;تامنغست;بلدية تامنغست","name:el":"Ταμανρασσέτ","old_name":"Fort-Laperrine","_place_alt_name:ar":"تامنغاست","alt_name:fr":"Tamanghasset","old_name:ar":"فور لابرين","old_name:fr":"Fort-Laperrine","alt":"Tamanrasset","alt:en":"Tamanrasset","alt:ber":"ⵜⴰⵎⴻⵏⵔⴰⵙⴻⵜ"},"display_name":"Tamanrasset ⵜⴰⵎⴻⵏⵖⴻⵙⵜ تمنراست, Daïra Tamanrasset, Tamanrasset, Algérie ⵍⵣⵣⴰⵢⴻⵔ الجزائر","address":{"city":"Tamanrasset ⵜⴰⵎⴻⵏⵖⴻⵙⵜ تمنراست","county":"Daïra Tamanrasset","state":"Tamanrasset","ISO3166-2-lvl4":"DZ-11","country":"Algérie ⵍⵣⵣⴰⵢⴻⵔ الجزائر","country_code":"dz"},"population":92635,"osm_type":"relation","osm_id":4175374,"type":"administrative","location":[5.5291395,22.7859372],"bbox":[4.721894,20.894854,6.667542,23.649235]}}
{"name":"Taskriout","other_names":{"ref":"0631","name:ar":"تاسقريوت","name:en":"Taskriout","name:fr":"Taskriout","name:ber":"ⵝⴰⵙⴰⵅⵔⵉⵡⵝ","name:kab":"Tasaxriwt"},"display_name":"Taskriout, Daïra Darguina, Béjaïa, 06621, Algérie ⵍⵣⵣⴰⵢⴻⵔ الجزائر","address":{"city":"Taskriout","county":"Daïra Darguina","state":"Béjaïa","ISO3166-2-lvl4":"DZ-06","postcode":"06621","country":"Algérie ⵍⵣⵣⴰⵢⴻⵔ الجزائر","country_code":"dz"},"population":16141,"osm_type":"relation","osm_id":4112874,"type":"administrative","location":[5.279911166731502,36.555858650000005],"bbox":[5.2121092,36.5182796,5.3038894,36.5929967],"inferred_type":"city"}
{"name":"Tébessa ⵜⴱⴻⵙⵙⴰ تبسة","other_names":{"name:ar":"تبسة","name:de":"Tibissa","name:el":"Τεμπέσα","name:en":"Tebessa","name:fa":"تبسه","name:fr":"Tébessa","name:la":"Theveste","name:lt":"Tebesa","name:pl":"Tibissa","name:ru":"Тебесса","name:ur":"تبسہ","name:zh":"泰贝萨","name:ber":"ⵜⴱⴻⵙⵙⴰ","name:kab":"Tbessa","alt_name:fr":"Tbessa"},"display_name":"Tébessa ⵜⴱⴻⵙⵙⴰ تبسة, Daïra Tébessa, Tébessa, Algérie ⵍⵣⵣⴰⵢⴻⵔ الجزائر","address":{"city":"Tébessa ⵜⴱⴻⵙⵙⴰ تبسة","county":"Daïra Tébessa","state":"Tébessa","ISO3166-2-lvl4":"DZ-12","country":"Algérie ⵍⵣⵣⴰⵢⴻⵔ الجزائر","country_code":"dz"},"population":196537,"osm_type":"node","osm_id":299683227,"type":"city","location":[8.1212322,35.4035956],"bbox":[7.9612322,35.2435956,8.2812322,35.5635956],"border":[{"name":"Daïra Tébessa","other_names":{"name:ar":"دائرة تبسة","name:de":"Da'ira Tibissa","name:en":"Tébessa District","name:fr":"Daïra Tébessa","name:ber":"ⵜⴱⴻⵙⵙⴰ","name:kab":"Tbessa"},"display_name":"Daïra Tébessa, Tébessa, 12000, Algérie ⵍⵣⵣⴰⵢⴻⵔ الجزائر","address":{"county":"Daïra Tébessa","state":"Tébessa","ISO3166-2-lvl4":"DZ-12","postcode":"12000","country":"Algérie ⵍⵣⵣⴰⵢⴻⵔ الجزائر","country_code":"dz"},"osm_type":"relation","osm_id":6812311,"type":"administrative","location":[8.088500509803751,35.3983243],"bbox":[7.9594469,35.3194033,8.1951709,35.477636]},{"name":"Tébessa ⵜⴱⴻⵙⵙⴰ تبسة","other_names":{"ref":"1201","name:ar":"تبسة","name:ca":"Tebessa","name:de":"Tibissa","name:en":"Tebessa","name:eo":"Tebesa","name:fa":"تبسه","name:fr":"Tébessa","name:ja":"テベッサ","name:kk":"Тебесса қаласы","name:ko":"테베사","name:la":"Theveste","name:lt":"Tebesa","name:pl":"Tibissa","name:ru":"Тебесса","name:uk":"Тебесса","name:ur":"تبسہ","name:zh":"泰贝萨","alt_name":"التبسة;تبسه","name:ber":"ⵜⴱⴻⵙⵙⴰ","name:kab":"Tbessa","alt_name:ar":"التبسة;تبسه","alt_name:fr":"Tebessa","name:el":"Τεμπέσα","_place_alt_name:fr":"Tbessa"},"display_name":"Tébessa ⵜⴱⴻⵙⵙⴰ تبسة, Daïra Tébessa, Tébessa, 12000, Algérie ⵍⵣⵣⴰⵢⴻⵔ الجزائر","address":{"city":"Tébessa ⵜⴱⴻⵙⵙⴰ تبسة","county":"Daïra Tébessa","state":"Tébessa","ISO3166-2-lvl4":"DZ-12","postcode":"12000","country":"Algérie ⵍⵣⵣⴰⵢⴻⵔ الجزائر","country_code":"dz"},"population":196537,"osm_type":"relation","osm_id":2814580,"type":"administrative","location":[8.1212322,35.4035956],"bbox":[7.9594469,35.3194033,8.1951709,35.477636]}]}
{"name":"Terrai Bainen ⵜⴻⵔⵄⵉ ⴱⴰⵢⵏⴰⵏ ترعي باينان","other_names":{"ref":"4323","name:ar":"ترعي باينان","name:en":"Terrai Bainen","name:fr":"Terrai Bainen","name:vi":"Terrai Bainnane","name:ber":"ⵜⴻⵔⵄⵉ ⴱⴰⵢⵏⴰⵏ","name:kab":"Terɛi Baynan"},"display_name":"Terrai Bainen ⵜⴻⵔⵄⵉ ⴱⴰⵢⵏⴰⵏ ترعي باينان, Daïra Terrai Bainen, Mila, Algérie ⵍⵣⵣⴰⵢⴻⵔ الجزائر","address":{"city":"Terrai Bainen ⵜⴻⵔⵄⵉ ⴱⴰⵢⵏⴰⵏ ترعي باينان","county":"Daïra Terrai Bainen","state":"Mila","ISO3166-2-lvl4":"DZ-43","country":"Algérie ⵍⵣⵣⴰⵢⴻⵔ الجزائر","country_code":"dz"},"population":23299,"osm_type":"relation","osm_id":2254248,"type":"administrative","location":[6.13846892762162,36.549943999999996],"bbox":[6.081243,36.497004,6.210393,36.6030188],"inferred_type":"city"}
{"name":"Tiaret ⵜⴰⵀⴻⵔⵜ تيارت","other_names":{"name:ar":"تيارت","name:de":"Tiaret","name:el":"Τιαρέτ","name:en":"Tiaret","name:es":"Tiaret","name:fa":"تیارت","name:fr":"Tiaret","name:ks":"تیارت","name:lt":"Tiaretas","name:ru":"Тиарет","name:tr":"Tâhert","name:ur":"تیارت","name:zh":"提亚雷特","name:azb":"تیارت","name:ber":"ⵜⴰⵀⴻⵔⵜ","name:kab":"Tihert","name:pnb":"تیارت","alt_name:ar":"تيهرت;تاهرت","name:kab-Arab":"تيارت"},"display_name":"Tiaret ⵜⴰⵀⴻⵔⵜ تيارت, Daïra Tiaret, Tiaret, Algérie ⵍⵣⵣⴰⵢⴻⵔ الجزائر","address":{"city":"Tiaret ⵜⴰⵀⴻⵔⵜ تيارت","county":"Daïra Tiaret","state":"Tiaret","ISO3166-2-lvl4":"DZ-14","country":"Algérie ⵍⵣⵣⴰⵢⴻⵔ الجزائر","country_code":"dz"},"population":201263,"osm_type":"node","osm_id":299684626,"type":"city","location":[1.3194687,35.3661448],"bbox":[1.1594687,35.2061448,1.4794687,35.5261448],"border":{"name":"Tiaret ⵜⴰⵀⴻⵔⵜ تيارت","other_names":{"ref":"1401","name:ar":"تيارت","name:en":"Tiaret","name:fa":"تیارت","name:fr":"Tiaret","name:ja":"ティアレット","name:kk":"Тиарет","name:ko":"티아레","name:ks":"تیارت","name:lt":"Tiaretas","name:pl":"Tijarat","name:ru":"Тиарет","name:uk":"Тіарет","name:ur":"تیارت","name:zh":"提亚雷特-","name:azb":"تیارت","name:ber":"ⵜⴰⵀⴻⵔⵜ","name:kab":"Tihert","name:pnb":"تیارت","name:de":"Tiaret","name:el":"Τιαρέτ","name:es":"Tiaret","name:tr":"Tâhert","alt_name:ar":"تيهرت;تاهرت","name:kab-Arab":"تيارت","alt:zh":"提亚雷特"},"display_name":"Tiaret ⵜⴰⵀⴻⵔⵜ تيارت, Daïra Tiaret, Tiaret, Algérie ⵍⵣⵣⴰⵢⴻⵔ الجزائر","address":{"city":"Tiaret ⵜⴰⵀⴻⵔⵜ تيارت","county":"Daïra Tiaret","state":"Tiaret","ISO3166-2-lvl4":"DZ-14","country":"Algérie ⵍⵣⵣⴰⵢⴻⵔ الجزائر","country_code":"dz"},"population":201263,"osm_type":"relation","osm_id":6545450,"type":"administrative","location":[1.3194687,35.3661448],"bbox":[1.2711542,35.2802348,1.4053065,35.4132098]}}
{"name":"Tighanimine ⵜⵉⵖⴰⵏⵉⵎⵉⵏ تيغانيمين","other_names":{"ref":"0526","name:ar":"تيغانيمين","name:en":"Tighanimine","name:fr":"Tighanimine","name:ber":"ⵜⵉⵖⴰⵏⵉⵎⵉⵏ","name:kab":"Tiɣanimin"},"display_name":"Tighanimine ⵜⵉⵖⴰⵏⵉⵎⵉⵏ تيغانيمين, Daïra d'Arris, Batna, Algérie ⵍⵣⵣⴰⵢⴻⵔ الجزائر","address":{"city":"Tighanimine ⵜⵉⵖⴰⵏⵉⵎⵉⵏ تيغانيمين","county":"Daïra d'Arris","state":"Batna","ISO3166-2-lvl4":"DZ-05","country":"Algérie ⵍⵣⵣⴰⵢⴻⵔ الجزائر","country_code":"dz"},"population":4142,"osm_type":"relation","osm_id":5201437,"type":"administrative","location":[6.249225011399553,35.185343149999994],"bbox":[6.1579555,35.1202164,6.4341027,35.2496512],"inferred_type":"city"}
{"name":"Tigherghar ⵜⵉⵖⴻⵔⵖⴰⵔ تيغرغار","other_names":{"ref":"0521","name:ar":"تيغرغار","name:en":"Tigherghar","name:fr":"Tigherghar","name:ber":"ⵜⵉⵖⴻⵔⵖⴰⵔ","name:kab":"Tiɣeɣar"},"display_name":"Tigherghar ⵜⵉⵖⴻⵔⵖⴰⵔ تيغرغار, Daïra de Menaa, Batna, Algérie ⵍⵣⵣⴰⵢⴻⵔ الجزائر","address":{"city":"Tigherghar ⵜⵉⵖⴻⵔⵖⴰⵔ تيغرغار","county":"Daïra de Menaa","state":"Batna","ISO3166-2-lvl4":"DZ-05","country":"Algérie ⵍⵣⵣⴰⵢⴻⵔ الجزائر","country_code":"dz"},"population":6800,"osm_type":"relation","osm_id":5200635,"type":"administrative","location":[5.979792503890864,35.077372],"bbox":[5.858059,34.964,6.0644456,35.1910397],"inferred_type":"city"}
{"name":"Timezrit","other_names":{"ref":"0607","name:ar":"تيمزريت","name:en":"Timezrit","name:fr":"Timezrit","name:ber":"ⵜⵉⵎⴻⵣⵔⵉⵜ","name:kab":"Timezṛit"},"display_name":"Timezrit, Daïra Timezrit, Béjaïa, 06019, Algérie ⵍⵣⵣⴰⵢⴻⵔ الجزائر","address":{"city":"Timezrit","county":"Daïra Timezrit","state":"Béjaïa","ISO3166-2-lvl4":"DZ-06","postcode":"06019","country":"Algérie ⵍⵣⵣⴰⵢⴻⵔ الجزائر","country_code":"dz"},"population":25853,"osm_type":"relation","osm_id":4070118,"type":"administrative","location":[4.768282615771256,36.61620685],"bbox":[4.7249153,36.5819732,4.8109376,36.6502843],"inferred_type":"city"}
{"name":"Timimoune","other_names":{"name:ar":"تيميمون","name:de":"Timimoun","name:el":"Τιμιμούν","name:en":"Timimoun","name:fa":"تیمیمون","name:fr":"Timimoun","name:lt":"Timimunas","name:ur":"تیمیمون","name:zh":"提米蒙","name:azb":"تیمیمون","name:ber":"ⵜⵉⵎⵉⵎⵓⵏ","name:kab":"Timimun","alt_name:ar":"تميمون"},"display_name":"Timimoune, Timimoun ⵜⵉⵎⵉⵎⵓⵏ تيميمون, Daïra Timimoun, Timimoune, 1001, Algérie ⵍⵣⵣⴰⵢⴻⵔ الجزائر","address":{"city":"Timimoune","county":"Daïra Timimoun","state":"Timimoune","ISO3166-2-lvl4":"DZ-49","postcode":"1001","country":"Algérie ⵍⵣⵣⴰⵢⴻⵔ الجزائر","country_code":"dz"},"population":33060,"osm_type":"node","osm_id":264575953,"type":"city","location":[0.2285923,29.2605117],"bbox":[0.0685923,29.1005117,0.3885923,29.4205117],"border":{"name":"Timimoun ⵜⵉⵎⵉⵎⵓⵏ تيميمون","other_names":{"ref":"0109","name:ar":"تيميمون","name:en":"Timimoun","name:fa":"تیمیمون","name:fr":"Timimoun","name:lt":"Timimunas","name:pl":"Timimun","name:sv":"Timimoun (ort i Algeriet)","name:ur":"تیمیمون","name:vi":"Timmimoun","name:zh":"提米蒙","alt_name":"تميمون","name:azb":"تیمیمون","name:ber":"ⵜⵉⵎⵉⵎⵓⵏ","name:kab":"Timimun","alt_name:ar":"تميمون","name:de":"Timimoun","name:el":"Τιμιμούν","alt":"Timimoune"},"display_name":"Timimoun ⵜⵉⵎⵉⵎⵓⵏ تيميمون, Daïra Timimoun, Timimoune, Algérie ⵍⵣⵣⴰⵢⴻⵔ الجزائر","address":{"city":"Timimoun ⵜⵉⵎⵉⵎⵓⵏ تيميمون","county":"Daïra Timimoun","state":"Timimoune","ISO3166-2-lvl4":"DZ-49","country":"Algérie ⵍⵣⵣⴰⵢⴻⵔ الجزائر","country_code":"dz"},"population":33060,"osm_type":"relation","osm_id":4171624,"type":"administrative","location":[0.2285923,29.2605117],"bbox":[0.102216,28.982325,2.0225716,30.3803204]}}
{"name":"Tindouf ⵜⵉⵏⴷⵓⴼ تندوف","other_names":{"name:ar":"تندوف","name:cs":"Tindúf","name:de":"Tinduf","name:el":"Τιντούφ","name:en":"Tindouf","name:es":"Tinduf","name:fa":"تندوف","name:fr":"Tindouf","name:ja":"ティンドゥフ","name:ko":"틴두프","name:ks":"تندوف","name:lt":"Tindufas","name:ps":"تندوف","name:ru":"Тиндуф","name:uk":"Тіндуф","name:ur":"تندوف","name:zh":"廷杜夫","name:azb":"تندوف","name:ber":"ⵜⵉⵏⴷⵓⴼ","name:kab":"Tinduf","name:ota":"تندوف","name:pnb":"تندوف","alt_name:ar":"تيندوف"},"display_name":"Tindouf ⵜⵉⵏⴷⵓⴼ تندوف, Daïra Tindouf, Tindouf, Algérie ⵍⵣⵣⴰⵢⴻⵔ الجزائر","address":{"city":"Tindouf ⵜⵉⵏⴷⵓⴼ تندوف","county":"Daïra Tindouf","state":"Tindouf","ISO3166-2-lvl4":"DZ-37","country":"Algérie ⵍⵣⵣⴰⵢⴻⵔ الجزائر","country_code":"dz"},"population":45966,"osm_type":"node","osm_id":288825235,"type":"city","location":[-8.1404163,27.6721823],"bbox":[-8.3004163,27.5121823,-7.9804163,27.8321823],"border":{"name":"Tindouf ⵜⵉⵏⴷⵓⴼ تندوف","other_names":{"ref":"3701","name:ar":"تندوف","name:cs":"Tindúf","name:de":"Tinduf","name:en":"Tinduf","name:eo":"Tinduf","name:es":"Tinduf","name:eu":"Tinduf","name:fa":"تندوف","name:fr":"Tindouf","name:he":"טינדוף","name:ja":"ティンドゥフ","name:ko":"틴두프","name:ks":"تندوف","name:lt":"Tindufas","name:pl":"Tinduf","name:ps":"تندوف","name:ru":"Тиндуф","name:sr":"Тиндуф","name:uk":"Тіндуф","name:ur":"تندوف","name:zh":"廷杜夫","alt_name":"تيندوف","name:azb":"تندوف","name:ber":"ⵜⵉⵏⴷⵓⴼ","name:kab":"Tinduf","name:ota":"تندوف","name:pnb":"تندوف","alt_name:ar":"تيندوف","name:el":"Τιντούφ","alt:en":"Tindouf"},"display_name":"Tindouf ⵜⵉⵏⴷⵓⴼ تندوف, Daïra Tindouf, Tindouf, Algérie ⵍⵣⵣⴰⵢⴻⵔ الجزائر","address":{"city":"Tindouf ⵜⵉⵏⴷⵓⴼ تندوف","county":"Daïra Tindouf","state":"Tindouf","ISO3166-2-lvl4":"DZ-37","country":"Algérie ⵍⵣⵣⴰⵢⴻⵔ الجزائر","country_code":"dz"},"population":45966,"osm_type":"relation","osm_id":4101596,"type":"administrative","location":[-8.1404163,27.6721823],"bbox":[-8.668908,25.513483,-3.9861,28.921015]}}
{"name":"Tinerkouk","other_names":{"ref":"0116","name:ar":"تنيركوك","name:en":"Tinerkouk","name:fr":"Tinerkouk","name:ur":"تنیرکوک","name:ber":"ⵜⵉⵏⴻⵔⴽⵓⴽ","name:kab":"Tinerkuk"},"display_name":"Tinerkouk, Daïra de Tinerkouk, Timimoune, 01013, Algérie ⵍⵣⵣⴰⵢⴻⵔ الجزائر","address":{"city":"Tinerkouk","county":"Daïra de Tinerkouk","state":"Timimoune","ISO3166-2-lvl4":"DZ-49","postcode":"01013","country":"Algérie ⵍⵣⵣⴰⵢⴻⵔ الجزائر","country_code":"dz"},"population":15980,"osm_type":"relation","osm_id":4171625,"type":"administrative","location":[1.3611995986099488,30.461939],"bbox":[0.483565,29.282213,2.058992,31.659608],"inferred_type":"city"}
{"name":"Tipaza ⵜⵉⵒⴰⵣⴰ تيبازة","other_names":{"name:ar":"تيبازة","name:be":"Тыпаса","name:bg":"Типаза","name:de":"Tipasa","name:el":"Τιπαζά","name:en":"Tipaza","name:es":"Tipasa","name:eu":"Tipasa","name:fa":"تی‌پازه","name:fr":"Tipaza","name:hy":"Տիպազա","name:id":"Tipasa","name:ja":"ティパサ","name:ks":"تیبازہ","name:ru":"Типаза","name:sh":"Tipasa","name:sk":"Tipasa","name:sr":"Типаса","name:uk":"Тіпаза","name:ur":"تیبازہ","name:zh":"提帕薩","name:azb":"تیپازه","name:ber":"ⵜⵉⵒⴰⵣⴰ","name:kab":"Tibaẓa","name:ota":"تیپازه","name:pnb":"تبسہ","name:az-Arab":"تیپازه","name:kab-Arab":"تيبازة"},"display_name":"Tipaza ⵜⵉⵒⴰⵣⴰ تيبازة, Tipaza تيبازة, Daïra Tipaza, Tipaza, 42000, Algérie ⵍⵣⵣⴰⵢⴻⵔ الجزائر","address":{"city":"Tipaza ⵜⵉⵒⴰⵣⴰ تيبازة","county":"Daïra Tipaza","state":"Tipaza","ISO3166-2-lvl4":"DZ-42","postcode":"42000","country":"Algérie ⵍⵣⵣⴰⵢⴻⵔ الجزائر","country_code":"dz"},"population":25225,"osm_type":"node","osm_id":418165557,"type":"city","location":[2.4482509,36.5918179],"bbox":[2.2882509,36.4318179,2.6082509,36.7518179],"border":{"name":"Tipaza تيبازة","other_names":{"ref":"4201","name:ar":"تيبازة","name:be":"Тыпаса","name:bg":"Типаза","name:ca":"Tipasa","name:cs":"Tipasa","name:da":"Tipasa","name:de":"Tipasa","name:el":"Τιπαζά","name:en":"Tipaza","name:eo":"Tipazo","name:es":"Tipasa","name:eu":"Tipasa","name:fa":"تی‌پازه","name:fi":"Tipasa","name:fr":"Tipaza","name:he":"תיפאזה","name:hr":"Tipasa","name:hu":"Tipáza","name:hy":"Տիպազա","name:id":"Tipasa","name:it":"Tipasa","name:ja":"ティパサ","name:ka":"ტიპასა","name:ko":"티파자","name:ks":"تیبازہ","name:ky":"Типаса","name:la":"Tipasa","name:ne":"तिपजा","name:no":"Tipasa","name:pl":"Tipasa","name:pt":"Tipasa","name:ru":"Типаза","name:sh":"Tipasa","name:sk":"Tipasa","name:sr":"Типаса","name:uk":"Тіпаза","name:ur":"تیبازہ","name:zh":"提帕薩","name:azb":"تیپازه","name:ber":"ⵜⵉⵒⴰⵣⴰ","name:kab":"Tibaẓa","name:ota":"تیپازه","name:pnb":"تبسہ","name:az-Arab":"تیپازه","name:kab-Arab":"تيبازة","alt":"Tipaza ⵜⵉⵒⴰⵣⴰ تيبازة"},"display_name":"Tipaza تيبازة, Daïra Tipaza, Tipaza, 42000, Algérie ⵍⵣⵣⴰⵢⴻⵔ الجزائر","address":{"city":"Tipaza تيبازة","county":"Daïra Tipaza","state":"Tipaza","ISO3166-2-lvl4":"DZ-42","postcode":"42000","country":"Algérie ⵍⵣⵣⴰⵢⴻⵔ الجزائر","country_code":"dz"},"population":25225,"osm_type":"relation","osm_id":2312615,"type":"administrative","location":[2.4482509,36.5918179],"bbox":[2.3003536,36.5483322,2.5177575,36.6454792]}}
{"name":"Tirmitine","other_names":{"ref":"1543","name:ar":"تيرمتين","name:en":"Tirmitine","name:fr":"Tirmitine","name:ber":"ⵜⵉⵎⵉⵣⴰⵔⵜ","name:kab":"Tirmitin"},"display_name":"Tirmitine, Daïra Draa Ben Khedda, Tizi Ouzou, Algérie ⵍⵣⵣⴰⵢⴻⵔ الجزائر","address":{"city":"Tirmitine","county":"Daïra Draa Ben Khedda","state":"Tizi Ouzou","ISO3166-2-lvl4":"DZ-15","country":"Algérie ⵍⵣⵣⴰⵢⴻⵔ الجزائر","country_code":"dz"},"population":19027,"osm_type":"relation","osm_id":4293797,"type":"administrative","location":[3.9653731455019696,36.6686811],"bbox":[3.9245315,36.6325708,4.0014329,36.7044977],"inferred_type":"city"}
{"name":"Tissemsilt","other_names":{"name:ar":"تسمسيلت","name:el":"Τισεμσίλτ","name:en":"Tissemsilt","name:fa":"تسمسیلت","name:fr":"Tissemsilt","name:ja":"ティセムシルト","name:ko":"티셈실트","name:ks":"تسمسیلت","name:pl":"Tisamsilt","name:ru":"Тисемсильт","name:uk":"Тіссемсілт","name:ur":"تسمسیلت","name:zh":"提塞姆西勒特","name:azb":"تسمسیلت","name:ber":"ⵝⵉⵙⴻⵎⵙⵉⵍⵜ","name:kab":"Tisemsilt","name:ota":"تسمسيلت","name:pnb":"تسمسیلت","old_name":"فيالار","alt_name:ar":"تيسمسيلت","alt_name:fa":"تیسمسیلت","old_name:ar":"فيالار","old_name:fr":"Vialar","alt_name:azb":"تیسمسیلت","name:kab-Arab":"تسمسيلت"},"display_name":"Tissemsilt, تسمسیلت ⵝⵉⵙⴻⵎⵙⵉⵍⵜ تسمسيلت, Daïra Tissemsilt, Tissemsilt, Algérie ⵍⵣⵣⴰⵢⴻⵔ الجزائر","address":{"city":"Tissemsilt","county":"Daïra Tissemsilt","state":"Tissemsilt","ISO3166-2-lvl4":"DZ-38","country":"Algérie ⵍⵣⵣⴰⵢⴻⵔ الجزائر","country_code":"dz"},"population":75197,"osm_type":"node","osm_id":442976540,"type":"city","location":[1.810476,35.604813],"bbox":[1.650476,35.444813,1.970476,35.764813],"border":[{"name":"Daïra Tissemsilt","other_names":{"name:ar":"دائرة تسمسيلت","name:en":"Tissemsilt District","name:fa":"ناحیه تسمسیلت","name:fr":"Daïra Tissemsilt","name:pt":"Tissemsilt","name:zu":"Tissemsilt District","alt_name":"دائرة تيسمسيلت","name:ber":"ⵝⴰⴷⴰⵢⵔⴰ ⵏ ⵝⵉⵙⴻⵎⵙⵉⵍⵜ","name:kab":"Tadayṛa n Tisemsilt","alt_name:ar":"دائرة تيسمسيلت","alt_name:fa":"ناحیه تیسمسیلت"},"display_name":"Daïra Tissemsilt, Tissemsilt, 38000, Algérie ⵍⵣⵣⴰⵢⴻⵔ الجزائر","address":{"county":"Daïra Tissemsilt","state":"Tissemsilt","ISO3166-2-lvl4":"DZ-38","postcode":"38000","country":"Algérie ⵍⵣⵣⴰⵢⴻⵔ الجزائر","country_code":"dz"},"osm_type":"relation","osm_id":6822759,"type":"administrative","location":[1.8300235378302343,35.64742885],"bbox":[1.704635,35.539595,1.9541619,35.7545979]},{"name":"تسمسیلت ⵝⵉⵙⴻⵎⵙⵉⵍⵜ تسمسيلت","other_names":{"ref":"3801","name:ar":"تسمسيلت","name:en":"Tissemsilt","name:fa":"تسمسیلت","name:fr":"Tissemsilt","name:ko":"티셈실트","name:ks":"تسمسیلت","name:pl":"Tisamsilt","name:ru":"Тисемсильт","name:uk":"Тіссемсілт","name:ur":"تسمسیلت","name:zh":"提塞姆西勒特","alt_name":"تيسمسيلت","name:azb":"تسمسیلت","name:ber":"ⵝⵉⵙⴻⵎⵙⵉⵍⵜ","name:kab":"Tisemsilt","name:ota":"تسمسيلت","name:pnb":"تسمسیلت","old_name":"فيالار","alt_name:ar":"تيسمسيلت","alt_name:fa":"تیسمسیلت","old_name:ar":"فيالار","alt_name:azb":"تیسمسیلت","name:kab-Arab":"تسمسيلت","name:el":"Τισεμσίλτ","name:ja":"ティセムシルト","old_name:fr":"Vialar","alt":"Tissemsilt"},"display_name":"تسمسیلت ⵝⵉⵙⴻⵎⵙⵉⵍⵜ تسمسيلت, Daïra Tissemsilt, Tissemsilt, 38000, Algérie ⵍⵣⵣⴰⵢⴻⵔ الجزائر","address":{"city":"تسمسیلت ⵝⵉⵙⴻⵎⵙⵉⵍⵜ تسمسيلت","county":"Daïra Tissemsilt","state":"Tissemsilt","ISO3166-2-lvl4":"DZ-38","postcode":"38000","country":"Algérie ⵍⵣⵣⴰⵢⴻⵔ الجزائر","country_code":"dz"},"population":75197,"osm_type":"relation","osm_id":6534595,"type":"administrative","location":[1.810476,35.604813],"bbox":[1.704635,35.539595,1.9541619,35.6862368]}]}
{"name":"Tizi Ouzou ⵝⵉⵣⵉ ⵡⴻⵣⵓ تيزي وزو","other_names":{"name:ar":"تيزي وزو","name:de":"Tizi Ouzou","name:el":"Τίζι Ούζου","name:en":"Tizi Ouzou","name:es":"Tizi Uzu","name:fa":"تیزی وزو","name:fr":"Tizi Ouzou","name:it":"Tizi Ouzou","name:ja":"ティジ・ウズー","name:ks":"تیزی وزو","name:lt":"Tizi Ouzou","name:ru":"Тизи-Узу","name:ur":"تیزی وزو","name:zh":"提济乌祖","name:azb":"تیزی وزو","name:ber":"ⵝⵉⵣⵉ ⵡⴻⵣⵓ","name:kab":"Tizi Wezzu","name:pnb":"تیزی وزو"},"display_name":"Tizi Ouzou ⵝⵉⵣⵉ ⵡⴻⵣⵓ تيزي وزو, Tizi Ouzou, Daïra Tizi Ouzou, Tizi Ouzou, Algérie ⵍⵣⵣⴰⵢⴻⵔ الجزائر","address":{"city":"Tizi Ouzou ⵝⵉⵣⵉ ⵡⴻⵣⵓ تيزي وزو","county":"Daïra Tizi Ouzou","state":"Tizi Ouzou","ISO3166-2-lvl4":"DZ-15","country":"Algérie ⵍⵣⵣⴰⵢⴻⵔ الجزائر","country_code":"dz"},"population":135088,"osm_type":"node","osm_id":253292160,"type":"city","location":[4.0493919,36.7137843],"bbox":[3.8893919,36.5537843,4.2093919,36.8737843],"border":{"name":"Tizi Ouzou","other_names":{"ref":"1501","name:ar":"تيزي وزو","name:de":"Tizi Ouzou","name:el":"Τίζι Ούζου","name:en":"Tizi Ouzou","name:eo":"Tizi Uzu","name:es":"Tizi Uzu","name:eu":"Tizi Uzu","name:fa":"تیزی وزو","name:fr":"Tizi Ouzou","name:ja":"ティジ・ウズー","name:ko":"티지우주","name:ks":"تیزی وزو","name:lt":"Tizi Uzu","name:mk":"Тизи Узу","name:pl":"Tizi Wuzu","name:ru":"Тизи-Узу","name:uk":"Тізі-Узу","name:ur":"تیزی وزو","name:zh":"提济乌祖","name:azb":"تیزی وزو","name:ber":"ⵜⵉⵣⵉ ⵡⵣⵣⵓ","name:kab":"Tizi Wezzu","name:pnb":"تیزی وزو","name:az-Arab":"تیزی وزو","name:pa-Arab":"تیزی وزو","name:it":"Tizi Ouzou","alt":"Tizi Ouzou ⵝⵉⵣⵉ ⵡⴻⵣⵓ تيزي وزو","alt:lt":"Tizi Ouzou","alt:ber":"ⵝⵉⵣⵉ ⵡⴻⵣⵓ"},"display_name":"Tizi Ouzou, Daïra Tizi Ouzou, Tizi Ouzou, Algérie ⵍⵣⵣⴰⵢⴻⵔ الجزائر","address":{"city":"Tizi Ouzou","county":"Daïra Tizi Ouzou","state":"Tizi Ouzou","ISO3166-2-lvl4":"DZ-15","country":"Algérie ⵍⵣⵣⴰⵢⴻⵔ الجزائر","country_code":"dz"},"population":135088,"osm_type":"relation","osm_id":3081643,"type":"administrative","location":[4.0493919,36.7137843],"bbox":[3.9761773,36.6437181,4.1746238,36.7558481]}}
{"name":"Tlemcen ⵜⴰⵍⴰ ⵉⵎⵙⴰⵏ تلمسان","other_names":{"name:an":"Termicén","name:ar":"تلمسان","name:el":"Τλέμσεν","name:en":"Tlemcen","name:es":"Tremecén","name:fr":"Tlemcen","name:he":"תלמסאן","name:it":"Tlemcen","name:ja":"トレムセン","name:ko":"틀렘센","name:lt":"Tlemsenas","name:ru":"Тлемсен","name:tr":"Tilimsan","name:zh":"特莱姆森","name:ber":"ⵜⴰⵍⴰ ⵉⵎⵙⴰⵏ","name:kab":"Tlemsan"},"display_name":"Tlemcen ⵜⴰⵍⴰ ⵉⵎⵙⴰⵏ تلمسان, Tlemcen, Daïra Tlemcen, Tlemcen ⵜⵍⴻⵎⵙⴻⵏ تلمسان, Algérie ⵍⵣⵣⴰⵢⴻⵔ الجزائر","address":{"city":"Tlemcen ⵜⴰⵍⴰ ⵉⵎⵙⴰⵏ تلمسان","county":"Daïra Tlemcen","state":"Tlemcen ⵜⵍⴻⵎⵙⴻⵏ تلمسان","ISO3166-2-lvl4":"DZ-13","country":"Algérie ⵍⵣⵣⴰⵢⴻⵔ الجزائر","country_code":"dz"},"population":140158,"osm_type":"node","osm_id":3110093634,"type":"city","location":[-1.316699,34.881789],"bbox":[-1.476699,34.721789,-1.156699,35.041789],"border":{"name":"Tlemcen","other_names":{"ref":"1301","name:an":"Termicén","name:ar":"تلمسان","name:be":"Горад Тлемсен","name:ca":"Tilimsen","name:en":"Tlemcen","name:eo":"Tlemecen","name:es":"Tremecén","name:eu":"Tilimsen","name:fa":"تلمسان","name:fr":"Tlemcen","name:he":"תלמסאן","name:ja":"トレムセン","name:kk":"Тлемсен қаласы","name:ko":"틀렘센","name:lt":"Tlemsenas","name:mk":"Тлемсен","name:nl":"Tlemcen","name:pl":"Tilimsan","name:ru":"Тлемсен","name:sw":"Wilaya ya Tlemcen","name:th":"ตแลมแซน","name:tr":"Tilimsan","name:uk":"Тлемсен","name:ur":"تلمسان","name:zh":"特莱姆森","name:ber":"ⵜⴰⵍⴰ ⵉⵎⵙⴻⵏ","name:kab":"Tlemsan","name:el":"Τλέμσεν","name:it":"Tlemcen","alt":"Tlemcen ⵜⴰⵍⴰ ⵉⵎⵙⴰⵏ تلمسان","alt:ber":"ⵜⴰⵍⴰ ⵉⵎⵙⴰⵏ"},"display_name":"Tlemcen, Daïra Tlemcen, Tlemcen ⵜⵍⴻⵎⵙⴻⵏ تلمسان, 13000, Algérie ⵍⵣⵣⴰⵢⴻⵔ الجزائر","address":{"city":"Tlemcen","county":"Daïra Tlemcen","state":"Tlemcen ⵜⵍⴻⵎⵙⴻⵏ تلمسان","ISO3166-2-lvl4":"DZ-13","postcode":"13000","country":"Algérie ⵍⵣⵣⴰⵢⴻⵔ الجزائر","country_code":"dz"},"population":140158,"osm_type":"relation","osm_id":4291172,"type":"administrative","location":[-1.316699,34.881789],"bbox":[-1.3706815,34.8575021,-1.2594593,34.9352287]}}
{"name":"Touggourt","other_names":{"name:ar":"تقرت","name:de":"Touggourt","name:el":"Τουγκούρτ","name:en":"Touggourt","name:eo":"Tugurt","name:es":"Touggourt","name:fa":"تقرت","name:fr":"Touggourt","name:ja":"トゥーグラ","name:ko":"투구르트","name:ks":"تقرت","name:lt":"Tugurtas","name:ru":"Туггурт","name:uk":"Туггурт","name:ur":"تقرت","name:zh":"图古尔特","alt_name":"تقورت","name:azb":"تقرت","name:ber":"ⵜⵓⴳⵓⵔⵜ","name:kab":"Tegert","alt_name:ar":"تقورت","name:kab-Arab":"تقرت"},"display_name":"Touggourt, Touggourt ⵜⵓⴳⵓⵔⵜ تقرت, Daïra Touggourt, Touggourt, Algérie ⵍⵣⵣⴰⵢⴻⵔ الجزائر","address":{"city":"Touggourt","county":"Daïra Touggourt","state":"Touggourt","ISO3166-2-lvl4":"DZ-55","country":"Algérie ⵍⵣⵣⴰⵢⴻⵔ الجزائر","country_code":"dz"},"population":143270,"osm_type":"node","osm_id":262964638,"type":"city","location":[6.0667276,33.1048574],"bbox":[5.9067276,32.9448574,6.2267276,33.2648574],"border":{"name":"Touggourt ⵜⵓⴳⵓⵔⵜ تقرت","other_names":{"ref":"3013","name:ar":"تقرت","name:ca":"Tuggurt","name:de":"Tuqurt","name:en":"Touggourt","name:eo":"Tugurt","name:es":"Tuqurt","name:fa":"تقورت","name:fr":"Touggourt","name:ja":"トゥーグラ","name:kk":"Туггурт қаласы","name:ko":"투구르트","name:lt":"Tugurtas","name:pl":"Tukkurt","name:ru":"Туггурт","name:zh":"图古尔特","alt_name":"تقورت;تڨرت;بلدية تڨرت","name:azb":"تقورت","name:ber":"ⵜⵓⴳⵓⵔⵜ","name:kab":"Tugurt","name:el":"Τουγκούρτ","name:ks":"تقرت","name:uk":"Туггурт","name:ur":"تقرت","_place_alt_name":"تقورت","alt_name:ar":"تقورت","name:kab-Arab":"تقرت","alt":"Touggourt","alt:de":"Touggourt","alt:es":"Touggourt","alt:fa":"تقرت","alt:azb":"تقرت","alt:kab":"Tegert"},"display_name":"Touggourt ⵜⵓⴳⵓⵔⵜ تقرت, Daïra Touggourt, Touggourt, Algérie ⵍⵣⵣⴰⵢⴻⵔ الجزائر","address":{"city":"Touggourt ⵜⵓⴳⵓⵔⵜ تقرت","county":"Daïra Touggourt","state":"Touggourt","ISO3166-2-lvl4":"DZ-55","country":"Algérie ⵍⵣⵣⴰⵢⴻⵔ الجزائر","country_code":"dz"},"population":39409,"osm_type":"relation","osm_id":5711077,"type":"administrative","location":[6.0667276,33.1048574],"bbox":[5.7568191,33.0782995,6.0797409,33.1770796]}}
{"name":"Zbarbar","other_names":{"ref":"1024","name:ar":"الزبربر","name:en":"Zbarbar","name:fr":"Zbarbar","name:ur":"زبربر","name:ber":"ⵣⴱⴻⵔⴱⴻⵔ","name:kab":"Zberber"},"display_name":"Zbarbar, Daïra Lakhdaria, Bouira, Algérie ⵍⵣⵣⴰⵢⴻⵔ الجزائر","address":{"city":"Zbarbar","county":"Daïra Lakhdaria","state":"Bouira","ISO3166-2-lvl4":"DZ-10","country":"Algérie ⵍⵣⵣⴰⵢⴻⵔ الجزائر","country_code":"dz"},"population":3768,"osm_type":"relation","osm_id":3441846,"type":"administrative","location":[3.513905013682527,36.4726655],"bbox":[3.460934,36.428861,3.569853,36.51721],"inferred_type":"city"}
{"name":"Zouabi","other_names":{"ref":"4126","name:ar":"الزوابى","name:en":"Zouabi","name:fr":"Zouabi","name:ber":"ⵣⵣⵡⴰⴱⵉ","name:kab":"Zzwabi"},"display_name":"Zouabi, daïra Bir Bouhouche, Souk Ahras, Algérie ⵍⵣⵣⴰⵢⴻⵔ الجزائر","address":{"city":"Zouabi","county":"daïra Bir Bouhouche","state":"Souk Ahras","ISO3166-2-lvl4":"DZ-41","country":"Algérie ⵍⵣⵣⴰⵢⴻⵔ الجزائر","country_code":"dz"},"population":2792,"osm_type":"relation","osm_id":6663213,"type":"administrative","location":[7.398393525668717,36.122168],"bbox":[7.313835,36.0582362,7.5193887,36.1853112],"inferred_type":"city"}
