{"name":"Abadilah - عبادلة","other_names":{"name:ar":"عبادلة","name:de":"Abadila","name:en":"Abadilah","name:es":"Abadilah","name:fr":"Abadilah"},"display_name":"Abadilah - عبادلة, الفجيرة, الإمارات العربية المتحدة","address":{"town":"Abadilah - عبادلة","state":"الفجيرة","ISO3166-2-lvl4":"AE-FU","country":"الإمارات العربية المتحدة","country_code":"ae"},"osm_type":"node","osm_id":5619098262,"type":"town","location":[56.1884272,25.4549581],"bbox":[56.1484272,25.4149581,56.2284272,25.4949581]}
{"name":"Ad Daqdaqah","other_names":{"name:ar":"Ad Daqdaqah","name:en":"Ad Daqdaqah","name:es":"Ad Daqdaqah","name:fr":"Ad Daqdaqah","alt_name":"Ad Daqdāqah;Ad Daqdaqah;Diqdaqah;Al Diqdaqah;Digdaga;Diqdāqah"},"display_name":"Ad Daqdaqah, رأس الخيمة, الإمارات العربية المتحدة","address":{"town":"Ad Daqdaqah","state":"رأس الخيمة","ISO3166-2-lvl4":"AE-RK","country":"الإمارات العربية المتحدة","country_code":"ae"},"osm_type":"node","osm_id":12289978543,"type":"town","location":[55.9653814,25.6693136],"bbox":[55.9253814,25.6293136,56.0053814,25.7093136],"border":{"name":"الدقداقة","other_names":{"name:ar":"الدقداقه","name:en":"Digdaga","alt:ar":"الدقداقة"},"display_name":"الدقداقة, رأس الخيمة, الإمارات العربية المتحدة","address":{"suburb":"الدقداقة","state":"رأس الخيمة","ISO3166-2-lvl4":"AE-RK","country":"الإمارات العربية المتحدة","country_code":"ae"},"osm_type":"relation","osm_id":18471762,"type":"administrative","location":[55.9317396,25.6551443],"bbox":[55.8739334,25.5968875,55.9734998,25.7059957]}}
{"name":"Al Dafain","other_names":{"name:ar":"Al Dafain","name:en":"Al Dafain","name:es":"Al Dafain","name:fr":"Al Dafain","alt_name":"Ad Dafin;Dafain;Dafin;Sha'biyyat Ad Dafin"},"display_name":"Al Dafain, المدام, الشارقة, الإمارات العربية المتحدة","address":{"town":"Al Dafain","city":"المدام","state":"الشارقة","ISO3166-2-lvl4":"AE-SH","country":"الإمارات العربية المتحدة","country_code":"ae"},"osm_type":"node","osm_id":12249280362,"type":"town","location":[55.7795463,24.9648028],"bbox":[55.7395463,24.9248028,55.8195463,25.0048028]}
{"name":"Al Dhaid الذيد","other_names":{"name:ar":"الذيد","name:en":"Al Dhaid","name:es":"Al Dhaid","name:fr":"Al Dhaid","name:ml":"അൽ ദൈദ്"},"display_name":"Al Dhaid الذيد, الذيد, الشارقة, الإمارات العربية المتحدة","address":{"town":"Al Dhaid الذيد","city":"الذيد","state":"الشارقة","ISO3166-2-lvl4":"AE-SH","country":"الإمارات العربية المتحدة","country_code":"ae"},"population":20165,"osm_type":"node","osm_id":8143186389,"type":"town","location":[55.8780955,25.2806866],"bbox":[55.8380955,25.2406866,55.9180955,25.3206866],"border":{"name":"الذيد","other_names":{"name:ar":"الذيد","name:en":"Al Dhaid"},"display_name":"الذيد, الشارقة, الإمارات العربية المتحدة","address":{"city":"الذيد","state":"الشارقة","ISO3166-2-lvl4":"AE-SH","country":"الإمارات العربية المتحدة","country_code":"ae"},"osm_type":"relation","osm_id":12905764,"type":"administrative","location":[55.91467597112131,25.284097199999998],"bbox":[55.8154163,25.1774944,56.015995,25.3918838]}}
{"name":"Al Ghail - الغيل","other_names":{"name:ar":"الغيل","name:de":"Al Ghail","name:en":"Al Ghail","name:es":"Al Ghail","name:fa":"الغیل","name:fr":"Al Ghail","name:ml":"അൽ-ഗെയ്ൽ","alt_name":"Al Ghel;Al Ghēl;Al-Ghil;Al-Ghīl;Ghail;Ghayl","name:arz":"الغيل"},"display_name":"Al Ghail - الغيل, رأس الخيمة, الإمارات العربية المتحدة","address":{"town":"Al Ghail - الغيل","state":"رأس الخيمة","ISO3166-2-lvl4":"AE-RK","country":"الإمارات العربية المتحدة","country_code":"ae"},"osm_type":"node","osm_id":1464143702,"type":"town","location":[56.0593739,25.4003246],"bbox":[56.0193739,25.3603246,56.0993739,25.4403246]}
{"name":"Al Halah - الحلاة","other_names":{"name:ar":"الحلاة","name:de":"Al-Hala","name:en":"Al Halah","name:es":"Al Halah","name:fr":"Al-Halah","name:ml":"അൽ-ഹല","alt_name":"Al Ḩalāh;Alhala"},"display_name":"Al Halah - الحلاة, الفجيرة, الإمارات العربية المتحدة","address":{"town":"Al Halah - الحلاة","state":"الفجيرة","ISO3166-2-lvl4":"AE-FU","country":"الإمارات العربية المتحدة","country_code":"ae"},"osm_type":"node","osm_id":2386418485,"type":"town","location":[56.1830372,25.4791631],"bbox":[56.1430372,25.4391631,56.2230372,25.5191631],"border":{"name":"Al Halah","other_names":{"name:ar":"الحلاة","name:en":"Al Halah","name:es":"Al Halah","name:fr":"Al Halah","alt_name":"Al Ḩalāh;Alhala"},"display_name":"Al Halah, الفجيرة, الإمارات العربية المتحدة","address":{"town":"Al Halah","state":"الفجيرة","ISO3166-2-lvl4":"AE-FU","country":"الإمارات العربية المتحدة","country_code":"ae"},"osm_type":"way","osm_id":601252648,"type":"town","location":[56.1821555951622,25.47692695],"bbox":[56.1727524,25.4688877,56.1860776,25.4849076]}}
{"name":"Al Hayilah","other_names":{"name:ar":"حييله","name:en":"Al Hayilah","name:es":"Al Hayilah","name:fr":"Al Hayilah","alt_name":"Al Hila;Hila;Al Hayīlah;Hiyaila"},"display_name":"Al Hayilah, رأس الخيمة, الإمارات العربية المتحدة","address":{"town":"Al Hayilah","state":"رأس الخيمة","ISO3166-2-lvl4":"AE-RK","country":"الإمارات العربية المتحدة","country_code":"ae"},"osm_type":"node","osm_id":12288689808,"type":"town","location":[56.1024195,25.7980557],"bbox":[56.0624195,25.7580557,56.1424195,25.8380557]}
{"name":"Al Manzafah","other_names":{"name:ar":"Al Manzafah","name:en":"Al Manzafah","name:es":"Al Manzafah","name:fr":"Al Manzafah","alt_name":"Sha'biyyāt Al Manzafah"},"display_name":"Al Manzafah, رأس الخيمة, الإمارات العربية المتحدة","address":{"town":"Al Manzafah","state":"رأس الخيمة","ISO3166-2-lvl4":"AE-RK","country":"الإمارات العربية المتحدة","country_code":"ae"},"osm_type":"node","osm_id":12247847625,"type":"town","location":[56.1960864,25.1054266],"bbox":[56.1560864,25.0654266,56.2360864,25.1454266]}
{"name":"Al Miherbani","other_names":{"name:ar":"Al Miherbani","name:en":"Al Miherbani","name:es":"Al Miherbani","name:fr":"Al Miherbani","alt_name":"Al Miḥе̄rbānī"},"display_name":"Al Miherbani, رأس الخيمة, الإمارات العربية المتحدة","address":{"town":"Al Miherbani","state":"رأس الخيمة","ISO3166-2-lvl4":"AE-RK","country":"الإمارات العربية المتحدة","country_code":"ae"},"osm_type":"node","osm_id":11640138056,"type":"town","location":[56.0945565,25.8036875],"bbox":[56.0545565,25.7636875,56.1345565,25.8436875]}
{"name":"Al Qurayyah","other_names":{"name:ar":"Al Qurayyah","name:en":"Al Qurayyah","name:es":"Al Qurayyah","name:fr":"Al Qurayyah","name:ml":"അൽ ഖുറയ്യ","alt_name":"Al Qirayyah;Qurayyah"},"display_name":"Al Qurayyah, الفجيرة, الإمارات العربية المتحدة","address":{"town":"Al Qurayyah","state":"الفجيرة","ISO3166-2-lvl4":"AE-FU","country":"الإمارات العربية المتحدة","country_code":"ae"},"osm_type":"node","osm_id":12116296802,"type":"town","location":[56.3513684,25.2326114],"bbox":[56.3113684,25.1926114,56.3913684,25.2726114]}
{"name":"Al Subaygha","other_names":{"name:ar":"Al Subaygha","name:en":"Al Subaygha","name:es":"Al Subaygha","name:fr":"Al Subaygha","alt:ar":"الصبيغه"},"display_name":"Al Subaygha, إمارة عجمان, الإمارات العربية المتحدة","address":{"village":"Al Subaygha","state":"إمارة عجمان","ISO3166-2-lvl4":"AE-AJ","country":"الإمارات العربية المتحدة","country_code":"ae"},"osm_type":"way","osm_id":360485991,"type":"town","location":[55.9889741,24.876963],"bbox":[55.9844291,24.8750391,55.9934419,24.8799475]}
{"name":"Al Tayyibah","other_names":{"name:ar":"Al Tayyibah","name:en":"Al Tayyibah","name:es":"Al Tayyibah","name:fr":"Al Tayyibah","alt_name":"Aţ Ţaybah, Taiyibah, Tayibah, Tayiban, Tayyibah, Ţayyibah"},"display_name":"Al Tayyibah, الفجيرة, الإمارات العربية المتحدة","address":{"town":"Al Tayyibah","state":"الفجيرة","ISO3166-2-lvl4":"AE-FU","country":"الإمارات العربية المتحدة","country_code":"ae"},"osm_type":"way","osm_id":360622523,"type":"town","location":[56.16180428010085,25.39282475],"bbox":[56.1496917,25.3797035,56.1758064,25.4080875]}
{"name":"Al Usayli - العسيلي","other_names":{"name:ar":"العسيلي","name:es":"Al Usayli","name:fr":"Al Usayli","name:ml":"അൽ-ഉസൈലി","name:ru":"Ал Усайли","alt_name":"Lisaili"},"display_name":"Al Usayli - العسيلي, Khatt خت, رأس الخيمة, الإمارات العربية المتحدة","address":{"town":"Al Usayli - العسيلي","city":"Khatt خت","state":"رأس الخيمة","ISO3166-2-lvl4":"AE-RK","country":"الإمارات العربية المتحدة","country_code":"ae"},"osm_type":"node","osm_id":1583581172,"type":"town","location":[56.008144,25.62676],"bbox":[55.968144,25.58676,56.048144,25.66676]}
{"name":"Ar Rufaysah","other_names":{"name:ar":"Ar Rufaysah","name:en":"Ar Rufaysah","name:es":"Ar Rufaysah","name:fr":"Ar Rufaysah","name:ml":"അർ-റുഫൈസ","alt_name":"Ar Rufaysah;Ar Rufayşah"},"display_name":"Ar Rufaysah, خورفكان, الشارقة, الإمارات العربية المتحدة","address":{"town":"Ar Rufaysah","city":"خورفكان","state":"الشارقة","ISO3166-2-lvl4":"AE-SH","country":"الإمارات العربية المتحدة","country_code":"ae"},"osm_type":"node","osm_id":10788146170,"type":"town","location":[56.322249,25.3450376],"bbox":[56.282249,25.3050376,56.362249,25.3850376]}
{"name":"As Saman","other_names":{"name:ar":"As Saman","name:en":"As Saman","name:es":"As Saman","name:fr":"As Saman","name:ml":"അസ്സാമാൻ","alt_name":"Sha'biyyat As Sāmān;As Sāmān;Al Saman"},"display_name":"As Saman, البطائح, الشارقة, الإمارات العربية المتحدة","address":{"town":"As Saman","state":"الشارقة","ISO3166-2-lvl4":"AE-SH","country":"الإمارات العربية المتحدة","country_code":"ae"},"osm_type":"node","osm_id":12250559277,"type":"town","location":[55.8162727,25.2325576],"bbox":[55.7762727,25.1925576,55.8562727,25.2725576]}
{"name":"As Simsimānīyah","other_names":{"name:ar":"As Simsimānīyah","name:en":"As Simsimānīyah","name:es":"As Simsimānīyah","name:fr":"As Simsimānīyah","alt_name":"As Simsimsaniyyah;As Simsimaniyah"},"display_name":"As Simsimānīyah, رأس الخيمة, الإمارات العربية المتحدة","address":{"town":"As Simsimānīyah","state":"رأس الخيمة","ISO3166-2-lvl4":"AE-RK","country":"الإمارات العربية المتحدة","country_code":"ae"},"osm_type":"node","osm_id":12378630274,"type":"town","location":[56.1392356,24.8832607],"bbox":[56.0992356,24.8432607,56.1792356,24.9232607]}
{"name":"Ash Shubah","other_names":{"name:ar":"Ash Shubah","name:en":"Ash Shubah","name:es":"Ash Shubah","name:fr":"Ash Shubah","alt_name":"Ash Shu'bah"},"display_name":"Ash Shubah, الفجيرة, الإمارات العربية المتحدة","address":{"town":"Ash Shubah","state":"الفجيرة","ISO3166-2-lvl4":"AE-FU","country":"الإمارات العربية المتحدة","country_code":"ae"},"osm_type":"node","osm_id":11850584985,"type":"town","location":[56.1429176,25.4344927],"bbox":[56.1029176,25.3944927,56.1829176,25.4744927]}
{"name":"Birkat Ad Dassah","other_names":{"name:ar":"Birkat Ad Dassah","name:en":"Birkat Ad Dassah","name:es":"Birkat Ad Dassah","name:fr":"Birkat Ad Dassah"},"display_name":"Birkat Ad Dassah, رأس الخيمة, الإمارات العربية المتحدة","address":{"town":"Birkat Ad Dassah","state":"رأس الخيمة","ISO3166-2-lvl4":"AE-RK","country":"الإمارات العربية المتحدة","country_code":"ae"},"osm_type":"node","osm_id":11776512642,"type":"town","location":[56.0516008,25.692279],"bbox":[56.0116008,25.652279,56.0916008,25.732279]}
{"name":"Daftah - دفتا","other_names":{"name:ar":"دفتا","name:de":"Dafta","name:en":"Daftah","name:es":"Daftah","name:fa":"دفته","name:fr":"Dafta","name:ml":"ദഫ്ത","name:ur":"دفتہ","alt_name":"Difta;Diftah","name:pnb":"دفتہ"},"display_name":"Daftah - دفتا, الفجيرة, الإمارات العربية المتحدة","address":{"town":"Daftah - دفتا","state":"الفجيرة","ISO3166-2-lvl4":"AE-FU","country":"الإمارات العربية المتحدة","country_code":"ae"},"osm_type":"node","osm_id":5616999659,"type":"town","location":[56.1778399,25.267154],"bbox":[56.1378399,25.227154,56.2178399,25.307154],"border":{"name":"Daftah","other_names":{"name:ar":"Daftah","name:en":"Daftah","name:es":"Daftah","name:fr":"Daftah","name:ml":"ദഫ്ത","alt_name":"Diftah"},"display_name":"Daftah, الفجيرة, الإمارات العربية المتحدة","address":{"town":"Daftah","state":"الفجيرة","ISO3166-2-lvl4":"AE-FU","country":"الإمارات العربية المتحدة","country_code":"ae"},"osm_type":"way","osm_id":360622481,"type":"town","location":[56.1771789632046,25.2672222],"bbox":[56.1716565,25.2604797,56.1846236,25.274674]}}
{"name":"Dhaya","other_names":{"name:ar":"Dhaya","name:en":"Dhaya","name:es":"Dhaya","name:fr":"Dhaya","alt_name":"Dhayah;Dayah;Dhaiah;Dhaiyah;Zayah"},"display_name":"Dhaya, رأس الخيمة, الإمارات العربية المتحدة","address":{"town":"Dhaya","state":"رأس الخيمة","ISO3166-2-lvl4":"AE-RK","country":"الإمارات العربية المتحدة","country_code":"ae"},"osm_type":"node","osm_id":12237429437,"type":"town","location":[56.0578977,25.8880136],"bbox":[56.0178977,25.8480136,56.0978977,25.9280136]}
{"name":"Ghub غوب","other_names":{"name:ar":"غوب","name:de":"Ghub","name:en":"Ghub","name:es":"Ghub","name:fr":"Ghub","name:ml":"ഗൂബ്","alt_name":"Ghūb"},"display_name":"Ghub غوب, الفجيرة, الإمارات العربية المتحدة","address":{"town":"Ghub غوب","state":"الفجيرة","ISO3166-2-lvl4":"AE-FU","country":"الإمارات العربية المتحدة","country_code":"ae"},"osm_type":"node","osm_id":5606151594,"type":"town","location":[56.2010781,25.5639226],"bbox":[56.1610781,25.5239226,56.2410781,25.6039226]}
{"name":"Ghura الغورة","other_names":{"name:ar":"الغورة","name:de":"Ghura","name:en":"Ghura","name:es":"Ghura","name:fr":"Ghura","name:ml":"അൽ-ഗൂറ"},"display_name":"Ghura الغورة, الفجيرة, الإمارات العربية المتحدة","address":{"town":"Ghura الغورة","state":"الفجيرة","ISO3166-2-lvl4":"AE-FU","country":"الإمارات العربية المتحدة","country_code":"ae"},"osm_type":"node","osm_id":10788336026,"type":"town","location":[56.2076475,25.2193597],"bbox":[56.1676475,25.1793597,56.2476475,25.2593597]}
{"name":"Harat Al Awalah - حارة عوالي","other_names":{"name:ar":"حارة عوالي","name:en":"Ḩārat ‘Awālī","name:es":"Harat Awali","name:fr":"Hârat Awâlî","alt_name":"Ḥārat Al Awalah;Al Awalah;Harat Al Awalah"},"display_name":"Harat Al Awalah - حارة عوالي, رأس الخيمة, الإمارات العربية المتحدة","address":{"town":"Harat Al Awalah - حارة عوالي","state":"رأس الخيمة","ISO3166-2-lvl4":"AE-RK","country":"الإمارات العربية المتحدة","country_code":"ae"},"osm_type":"node","osm_id":10652051592,"type":"town","location":[56.1300253,26.0172021],"bbox":[56.0900253,25.9772021,56.1700253,26.0572021]}
{"name":"Himer Al ‘Alam","other_names":{"name:ar":"Himer Al ‘Alam","name:en":"Himer Al ‘Alam","name:es":"Himе̄r Al ‘Alam","name:fr":"Himer Al ‘Alam","alt_name":"Himе̄r Al ‘Alam, Hmair Al ‘Alam"},"display_name":"Himer Al ‘Alam, رأس الخيمة, الإمارات العربية المتحدة","address":{"town":"Himer Al ‘Alam","state":"رأس الخيمة","ISO3166-2-lvl4":"AE-RK","country":"الإمارات العربية المتحدة","country_code":"ae"},"osm_type":"node","osm_id":11781618971,"type":"town","location":[56.0015441,25.5962625],"bbox":[55.9615441,25.5562625,56.0415441,25.6362625]}
{"name":"Huwaylat","other_names":{"name:ar":"Huwaylat","name:en":"Huwaylat","name:es":"Huwaylat","name:fr":"Huwaylat","alt_name":"Al Hiwiylat, Al Huwaylat, Al Ḥiwiylāt, Al Ḩuwaylāt, alhwylat, الحويلات"},"display_name":"Huwaylat, رأس الخيمة, الإمارات العربية المتحدة","address":{"town":"Huwaylat","state":"رأس الخيمة","ISO3166-2-lvl4":"AE-RK","country":"الإمارات العربية المتحدة","country_code":"ae"},"osm_type":"way","osm_id":360445265,"type":"town","location":[56.17110916128911,24.881725000000003],"bbox":[56.1698988,24.8797318,56.1724359,24.8836134]}
{"name":"Kadrah","other_names":{"name:ar":"كدرا","name:en":"Kadrah","name:es":"Kadrah","name:fr":"Kadrah","alt_name":"Kadra;Kadrah;Khadra;Khaḑrā’;Sha'biyyat Kadrah","name:de":"Kadrah","alt:ar":"كدرة"},"display_name":"Kadrah, رأس الخيمة, الإمارات العربية المتحدة","address":{"village":"Kadrah","state":"رأس الخيمة","ISO3166-2-lvl4":"AE-RK","country":"الإمارات العربية المتحدة","country_code":"ae"},"osm_type":"way","osm_id":360633790,"type":"town","location":[56.0032439,25.1901305],"bbox":[55.9985907,25.1865416,56.0091919,25.1935609]}
{"name":"Khannur","other_names":{"name:ar":"خنور","name:en":"Khannur","name:es":"Khannur","name:fr":"Khannur","alt_name":"Khannūr"},"display_name":"Khannur, المحاضر الغربية, منطقة الظفرة, أبو ظبي, الإمارات العربية المتحدة","address":{"town":"Khannur","county":"منطقة الظفرة","state":"أبو ظبي","ISO3166-2-lvl4":"AE-AZ","country":"الإمارات العربية المتحدة","country_code":"ae"},"osm_type":"node","osm_id":12320454283,"type":"town","location":[53.5842443,23.1059004],"bbox":[53.5442443,23.0659004,53.6242443,23.1459004]}
{"name":"Mahafiz","other_names":{"name:ar":"Mahafiz","name:en":"Mahafiz","name:es":"Mahafiz","name:fr":"Mahafiz","name:ml":"മഹാഫിസ്","alt_name":"Sha'biyyat Maḩāfiz;Maḩāfiz"},"display_name":"Mahafiz, البطائح, الشارقة, الإمارات العربية المتحدة","address":{"town":"Mahafiz","state":"الشارقة","ISO3166-2-lvl4":"AE-SH","country":"الإمارات العربية المتحدة","country_code":"ae"},"osm_type":"node","osm_id":12050730622,"type":"town","location":[55.748169,25.1349429],"bbox":[55.708169,25.0949429,55.788169,25.1749429]}
{"name":"Maqawwarah","other_names":{"name:ar":"Maqawwarah","name:en":"Maqawwarah","name:es":"Maqawwarah","name:fr":"Maqawwarah","alt_name":"Al Mukawwrah"},"display_name":"Maqawwarah, رأس الخيمة, الإمارات العربية المتحدة","address":{"town":"Maqawwarah","state":"رأس الخيمة","ISO3166-2-lvl4":"AE-RK","country":"الإمارات العربية المتحدة","country_code":"ae"},"osm_type":"node","osm_id":12279655757,"type":"town","location":[55.9223552,25.6368772],"bbox":[55.8823552,25.5968772,55.9623552,25.6768772]}
{"name":"Marbad","other_names":{"name:ar":"Marbad","name:en":"Marbad","name:es":"Marbad","name:fr":"Marbad","alt_name":"Marbad;Murbad;Murbaḑ","alt_name:en":"Murbad","name:de":"Marbad","_place_alt_name":"Marbad, Murbad, Murbaḑ","alt":"Marbad مربض","alt:ar":"مربض"},"display_name":"Marbad, الفجيرة, الإمارات العربية المتحدة","address":{"village":"Marbad","state":"الفجيرة","ISO3166-2-lvl4":"AE-FU","country":"الإمارات العربية المتحدة","country_code":"ae"},"osm_type":"way","osm_id":360622547,"type":"town","location":[56.1311138,25.3213638],"bbox":[56.1285396,25.3151442,56.1370044,25.3283174]}
{"name":"Masafi مسافي","other_names":{"name:ar":"مسافي","name:de":"Masafi","name:en":"Masafi","name:es":"Masafi","name:fr":"Masafi","name:he":"מסאפי","name:ml":"മസാഫി","alt_name":"Masafi, Masāfī, Musafi, Musaifi"},"display_name":"Masafi مسافي, الفجيرة, الإمارات العربية المتحدة","address":{"town":"Masafi مسافي","state":"الفجيرة","ISO3166-2-lvl4":"AE-FU","country":"الإمارات العربية المتحدة","country_code":"ae"},"osm_type":"node","osm_id":8128209865,"type":"town","location":[56.1650172,25.3049807],"bbox":[56.1250172,25.2649807,56.2050172,25.3449807]}
{"name":"Mu'taridah","other_names":{"name:ar":"Mu'taridah","name:en":"Mu'taridah","name:es":"Mu'taridah","name:fr":"Mu'taridah"},"display_name":"Mu'taridah, الفجيرة, الإمارات العربية المتحدة","address":{"town":"Mu'taridah","state":"الفجيرة","ISO3166-2-lvl4":"AE-FU","country":"الإمارات العربية المتحدة","country_code":"ae"},"osm_type":"node","osm_id":5614905198,"type":"town","location":[56.1095701,25.5075337],"bbox":[56.0695701,25.4675337,56.1495701,25.5475337]}
{"name":"Nahwa النحوة","other_names":{"name:ar":"النحوة","name:de":"Nahwa","name:en":"Nahwa","name:es":"Nahwa","name:fr":"Nahwa","name:ml":"നഹ്വ","alt_name":"Sha'biyyāt Nahwā;Nahawa"},"display_name":"Nahwa النحوة, خورفكان, الشارقة, الإمارات العربية المتحدة","address":{"town":"Nahwa النحوة","city":"خورفكان","state":"الشارقة","ISO3166-2-lvl4":"AE-SH","country":"الإمارات العربية المتحدة","country_code":"ae"},"osm_type":"node","osm_id":578244933,"type":"town","location":[56.284377,25.2737209],"bbox":[56.244377,25.2337209,56.324377,25.3137209]}
{"name":"Naseem","other_names":{"name:ar":"Naseem","name:en":"Naseem","name:es":"Naseem","name:fr":"Naseem","name:ml":"നസീം","alt_name":"Al Naseem, An Nasīm, An Nasim"},"display_name":"Naseem, إمارة عجمان, الإمارات العربية المتحدة","address":{"town":"Naseem","state":"إمارة عجمان","ISO3166-2-lvl4":"AE-AJ","country":"الإمارات العربية المتحدة","country_code":"ae"},"osm_type":"node","osm_id":11734341003,"type":"town","location":[55.9754454,25.3278463],"bbox":[55.9354454,25.2878463,56.0154454,25.3678463]}
{"name":"Qimah","other_names":{"name:ar":"Qimah","name:en":"Qimah","name:es":"Qimah","name:fr":"Qimah","name:ml":"ഖീമ","alt_name":"Qamḩ;Qīmá;Qimh"},"display_name":"Qimah, دبي, الإمارات العربية المتحدة","address":{"town":"Qimah","state":"دبي","ISO3166-2-lvl4":"AE-DU","country":"الإمارات العربية المتحدة","country_code":"ae"},"osm_type":"node","osm_id":12253428479,"type":"town","location":[56.1416027,24.7864804],"bbox":[56.1016027,24.7464804,56.1816027,24.8264804]}
{"name":"Ra'alat Ad Darah","other_names":{"name:ar":"Ra'alat Ad Darah","name:en":"Ra'alat Ad Darah","name:es":"Ra'alat Ad Darah","name:fr":"Ra'alat Ad Darah","name:ml":"റാലത്ത് അദ്ദറ","alt_name":"Ras Al Dahrah;Ra'alat Ad Dārah;Ras Al Dahrah"},"display_name":"Ra'alat Ad Darah, رأس الخيمة, الإمارات العربية المتحدة","address":{"town":"Ra'alat Ad Darah","state":"رأس الخيمة","ISO3166-2-lvl4":"AE-RK","country":"الإمارات العربية المتحدة","country_code":"ae"},"osm_type":"node","osm_id":11795284219,"type":"town","location":[56.0894052,26.0501053],"bbox":[56.0494052,26.0101053,56.1294052,26.0901053]}
{"name":"Rafadah","other_names":{"name:ar":"Rafadah","name:en":"Rafadah","name:es":"Rafadah","name:fr":"Rafadah","alt_name":"Rafādah;Refadeh;Sha'biyyat Rafādah"},"display_name":"Rafadah, المدام, الشارقة, الإمارات العربية المتحدة","address":{"town":"Rafadah","city":"المدام","state":"الشارقة","ISO3166-2-lvl4":"AE-SH","country":"الإمارات العربية المتحدة","country_code":"ae"},"osm_type":"node","osm_id":12249081957,"type":"town","location":[55.7391018,24.9107767],"bbox":[55.6991018,24.8707767,55.7791018,24.9507767]}
{"name":"Riyamah - ربامة","other_names":{"name:ar":"ربامة","name:en":"Riyamah","name:es":"Riyama","name:fr":"Riyama","name:ml":"റിയാമ","alt_name":"Riyama;Riyamah;Riyāmah","name:de":"Riyama"},"display_name":"Riyamah - ربامة, الفجيرة, الإمارات العربية المتحدة","address":{"village":"Riyamah - ربامة","state":"الفجيرة","ISO3166-2-lvl4":"AE-FU","country":"الإمارات العربية المتحدة","country_code":"ae"},"osm_type":"way","osm_id":118682773,"type":"town","location":[56.0580307,25.5460432],"bbox":[56.0566004,25.5440649,56.0598446,25.5473157]}
{"name":"Rumayli رميلي","other_names":{"name:ar":"رميلي","name:de":"Rumayli","name:en":"Rumaylī","name:es":"Rumayli","name:fr":"Rumayli","alt_name":"Rumaylī"},"display_name":"Rumayli رميلي, رأس الخيمة, الإمارات العربية المتحدة","address":{"town":"Rumayli رميلي","state":"رأس الخيمة","ISO3166-2-lvl4":"AE-RK","country":"الإمارات العربية المتحدة","country_code":"ae"},"osm_type":"node","osm_id":10840128311,"type":"town","location":[56.1101655,26.0242085],"bbox":[56.0701655,25.9842085,56.1501655,26.0642085]}
{"name":"Saham","other_names":{"name:ar":"Saham","name:en":"Saham","name:es":"Saham","name:fr":"Saham","alt_name":"Sha'biyyāt Saham"},"display_name":"Saham, رأس الخيمة, الإمارات العربية المتحدة","address":{"town":"Saham","state":"رأس الخيمة","ISO3166-2-lvl4":"AE-RK","country":"الإمارات العربية المتحدة","country_code":"ae"},"osm_type":"node","osm_id":12247846608,"type":"town","location":[56.2023455,25.106653],"bbox":[56.1623455,25.066653,56.2423455,25.146653]}
{"name":"Sakamkam","other_names":{"name:ar":"سكمكم","name:en":"Sakamkam","name:es":"Sakamkam","name:fr":"Sakamkam","name:ml":"സകംകം","alt_name":"Sha'biyyat Sakamkam;Skamkam;Saqamqam"},"display_name":"Sakamkam, الفجيرة, الإمارات العربية المتحدة","address":{"town":"Sakamkam","state":"الفجيرة","ISO3166-2-lvl4":"AE-FU","country":"الإمارات العربية المتحدة","country_code":"ae"},"osm_type":"node","osm_id":12250317973,"type":"town","location":[56.3367241,25.1631581],"bbox":[56.2967241,25.1231581,56.3767241,25.2031581]}
{"name":"Sha'biyyah Al 'Ijе̄lī","other_names":{"name:ar":"Sha'biyyah Al 'Ijе̄lī","name:en":"Sha'biyyah Al 'Ijе̄lī","name:es":"Sha'biyyah Al 'Ijе̄lī","name:fr":"Sha'biyyah Al 'Ijе̄lī","alt_name":"Sha'biyyah Al 'Ijе̄lī;Al 'Ijе̄lī;Al Ijeli;Al Ejili;Al Ejeili;Al Ejili"},"display_name":"Sha'biyyah Al 'Ijе̄lī, رأس الخيمة, الإمارات العربية المتحدة","address":{"town":"Sha'biyyah Al 'Ijе̄lī","state":"رأس الخيمة","ISO3166-2-lvl4":"AE-RK","country":"الإمارات العربية المتحدة","country_code":"ae"},"osm_type":"node","osm_id":12378959364,"type":"town","location":[56.150695,25.0413367],"bbox":[56.110695,25.0013367,56.190695,25.0813367]}
{"name":"Sha'biyyat  Bahayis","other_names":{"name:ar":"Sha'biyyat  Bahayis","name:en":"Sha'biyyat  Bahayis","name:es":"Sha'biyyat  Bahayis","name:fr":"Sha'biyyat  Bahayis","alt_name":"Sha'biyyat  Bahāyiṣ;Al Bahaes;Al Bhaes"},"display_name":"Sha'biyyat  Bahayis, المدام, الشارقة, الإمارات العربية المتحدة","address":{"town":"Sha'biyyat  Bahayis","city":"المدام","state":"الشارقة","ISO3166-2-lvl4":"AE-SH","country":"الإمارات العربية المتحدة","country_code":"ae"},"osm_type":"node","osm_id":12473731501,"type":"town","location":[55.822812,25.0173831],"bbox":[55.782812,24.9773831,55.862812,25.0573831]}
{"name":"Sha'biyyat Al Khawālid","other_names":{"name:ar":"Sha'biyyat Al Khawālid","name:en":"Sha'biyyat Al Khawālid","name:es":"Sha'biyyat Al Khawālid","name:fr":"Sha'biyyat Al Khawālid","alt_name":"Sha'biyyat Al Khawālid;Al Khawālid;Al Khawaled;Al Khawalid"},"display_name":"Sha'biyyat Al Khawālid, المدام, الشارقة, الإمارات العربية المتحدة","address":{"town":"Sha'biyyat Al Khawālid","city":"المدام","state":"الشارقة","ISO3166-2-lvl4":"AE-SH","country":"الإمارات العربية المتحدة","country_code":"ae"},"osm_type":"node","osm_id":12328658769,"type":"town","location":[55.8378368,24.9765695],"bbox":[55.7978368,24.9365695,55.8778368,25.0165695]}
{"name":"Sha'biyyat Al Qor (new village)","other_names":{"name:ar":"Sha'biyyat Al Qor (new village)","name:en":"Sha'biyyat Al Qor (new village)","name:es":"Sha'biyyat Al Qor (new village)","name:fr":"Sha'biyyat Al Qor (new village)"},"display_name":"Sha'biyyat Al Qor (new village), رأس الخيمة, الإمارات العربية المتحدة","address":{"town":"Sha'biyyat Al Qor (new village)","state":"رأس الخيمة","ISO3166-2-lvl4":"AE-RK","country":"الإمارات العربية المتحدة","country_code":"ae"},"osm_type":"way","osm_id":360442886,"type":"town","location":[56.091208135875206,24.892181049999998],"bbox":[56.0897313,24.8897575,56.0936974,24.8946444]}
{"name":"Sha'biyyat as Rashidiyyah","other_names":{"name:ar":"ابن رشيد","name:en":"Sha'biyyat as Rashidiyyah","name:es":"Sha'biyyat as Rashidiyyah","name:fr":"Sha'biyyat as Rashidiyyah","alt_name":"Sha'biyyat as Rashīdiyyah;Bin Rasheed;Ibn Rasheed;ابن رشيد"},"display_name":"Sha'biyyat as Rashidiyyah, البطائح, الشارقة, الإمارات العربية المتحدة","address":{"town":"Sha'biyyat as Rashidiyyah","state":"الشارقة","ISO3166-2-lvl4":"AE-SH","country":"الإمارات العربية المتحدة","country_code":"ae"},"osm_type":"node","osm_id":12473609830,"type":"town","location":[55.7306637,25.2093938],"bbox":[55.6906637,25.1693938,55.7706637,25.2493938]}
{"name":"Sha'biyyat Ash Shiweb","other_names":{"name:ar":"شعبية الشويب","name:en":"Sha'biyyat Ash Shiweb","name:es":"Sha'biyyat Ash Shiweb","name:fr":"Sha'biyyat Ash Shiweb","name:ml":"അൽ ഷുവൈബ്","alt_name":"Sha'biyyat Ash Shiwе̄b;Shabiat Al Shuwaib;Al Shuwaib;Al Shiwayb"},"display_name":"Sha'biyyat Ash Shiweb, الشِّوَيْب, العين, أبو ظبي, الإمارات العربية المتحدة","address":{"town":"Sha'biyyat Ash Shiweb","city":"الشِّوَيْب","county":"العين","state":"أبو ظبي","ISO3166-2-lvl4":"AE-AZ","country":"الإمارات العربية المتحدة","country_code":"ae"},"osm_type":"node","osm_id":12473600188,"type":"town","location":[55.8155985,24.7469573],"bbox":[55.7755985,24.7069573,55.8555985,24.7869573],"border":{"name":"الشِّوَيْب","other_names":{"name:ar":"الشِّوَيْب","name:en":"Al Shiwayb"},"display_name":"الشِّوَيْب, العين, أبو ظبي, الإمارات العربية المتحدة","address":{"city":"الشِّوَيْب","county":"العين","state":"أبو ظبي","ISO3166-2-lvl4":"AE-AZ","country":"الإمارات العربية المتحدة","country_code":"ae"},"osm_type":"relation","osm_id":13251427,"type":"administrative","location":[55.770190427021355,24.727471299999998],"bbox":[55.7063709,24.6616989,55.8364805,24.7936466]}}
{"name":"Sha'biyyat Milе̄hah مليحة","other_names":{"name:ar":"مليحة","name:en":"Milehah","name:es":"Milehah","name:fr":"Milehah","name:ml":"മിലേഹ","alt_name":"Mleiha;Malaihah;Milehah;Sha'biyyāt Milе̄hah;Milе̄hah;Maleiha;Mleiha"},"display_name":"Sha'biyyat Milе̄hah مليحة, مليحة, الشارقة, الإمارات العربية المتحدة","address":{"town":"Sha'biyyat Milе̄hah مليحة","city":"مليحة","state":"الشارقة","ISO3166-2-lvl4":"AE-SH","country":"الإمارات العربية المتحدة","country_code":"ae"},"osm_type":"node","osm_id":4828018175,"type":"town","location":[55.8842962,25.1351801],"bbox":[55.8442962,25.0951801,55.9242962,25.1751801],"border":{"name":"مليحة","other_names":{"name:ar":"مليحة","name:en":"Milehah","name:es":"Milehah","name:fr":"Milehah","name:ml":"മിലേഹ","alt_name":"Mleiha;Malaihah;Milehah;Sha'biyyāt Milе̄hah;Milе̄hah;Maleiha;Mleiha","alt":"Sha'biyyat Milе̄hah مليحة"},"display_name":"مليحة, الشارقة, الإمارات العربية المتحدة","address":{"city":"مليحة","state":"الشارقة","ISO3166-2-lvl4":"AE-SH","country":"الإمارات العربية المتحدة","country_code":"ae"},"osm_type":"relation","osm_id":12905766,"type":"administrative","location":[55.8842962,25.1351801],"bbox":[55.8046127,25.0056314,56.006659,25.2029053]}}
{"name":"Sha'biyyat Qabr al Yahūdī","other_names":{"name:ar":"Sha'biyyat Qabr al Yahūdī","name:en":"Sha'biyyat Qabr al Yahūdī","name:es":"Sha'biyyat Qabr al Yahūdī","name:fr":"Sha'biyyat Qabr al Yahūdī","alt_name":"Qabr al Yahūdī"},"display_name":"Sha'biyyat Qabr al Yahūdī, الفجيرة, الإمارات العربية المتحدة","address":{"town":"Sha'biyyat Qabr al Yahūdī","state":"الفجيرة","ISO3166-2-lvl4":"AE-FU","country":"الإمارات العربية المتحدة","country_code":"ae"},"osm_type":"node","osm_id":12307640710,"type":"town","location":[56.1351274,25.4292527],"bbox":[56.0951274,25.3892527,56.1751274,25.4692527]}
{"name":"Sha'biyyāt Wishāh","other_names":{"name:ar":"Sha'biyyāt Wishāh","name:en":"Sha'biyyāt Wishāh","name:es":"Sha'biyyāt Wishāh","name:fr":"Sha'biyyāt Wishāh","name:ml":"ഷാബിയ്യത്ത് വിഷ","alt_name":"Wishāh;Weshah"},"display_name":"Sha'biyyāt Wishāh, الذيد, الشارقة, الإمارات العربية المتحدة","address":{"town":"Sha'biyyāt Wishāh","city":"الذيد","state":"الشارقة","ISO3166-2-lvl4":"AE-SH","country":"الإمارات العربية المتحدة","country_code":"ae"},"osm_type":"node","osm_id":12401338429,"type":"town","location":[55.9104581,25.2245806],"bbox":[55.8704581,25.1845806,55.9504581,25.2645806]}
{"name":"Sharm - شرم","other_names":{"name:ar":"شرم","name:de":"Sharm","name:en":"Sharm","name:es":"Sharm","name:fr":"Sharm","name:ml":"ഷറം","alt_name":"Sha'biyyah Sharm;Sharam"},"display_name":"Sharm - شرم, الفجيرة, الإمارات العربية المتحدة","address":{"town":"Sharm - شرم","state":"الفجيرة","ISO3166-2-lvl4":"AE-FU","country":"الإمارات العربية المتحدة","country_code":"ae"},"osm_type":"node","osm_id":8128209874,"type":"town","location":[56.3489264,25.4707982],"bbox":[56.3089264,25.4307982,56.3889264,25.5107982],"border":{"name":"Sharm شرم","other_names":{"name:ar":"شرم","name:de":"Sharm","name:en":"Sharm","name:es":"Sharm","name:fr":"Sharm","alt_name":"Sharam;Sharm;"},"display_name":"Sharm شرم, الفجيرة, الإمارات العربية المتحدة","address":{"town":"Sharm شرم","state":"الفجيرة","ISO3166-2-lvl4":"AE-FU","country":"الإمارات العربية المتحدة","country_code":"ae"},"osm_type":"way","osm_id":872858698,"type":"town","location":[56.34336872361935,25.46882265],"bbox":[56.3227594,25.4529734,56.3643789,25.4853966]}}
{"name":"Sharmatah","other_names":{"name:ar":"شرماتة","name:en":"Sharmatah","name:es":"Sharmatah","name:fr":"Sharmatah","alt_name":"Ash Sharmātah"},"display_name":"Sharmatah, الفجيرة, الإمارات العربية المتحدة","address":{"town":"Sharmatah","state":"الفجيرة","ISO3166-2-lvl4":"AE-FU","country":"الإمارات العربية المتحدة","country_code":"ae"},"osm_type":"node","osm_id":12136672282,"type":"town","location":[56.1765137,25.4610647],"bbox":[56.1365137,25.4210647,56.2165137,25.5010647]}
{"name":"Shawīyah","other_names":{"name:ar":"Shawīyah","name:en":"Shawīyah","name:es":"Shawīyah","name:fr":"Shawīyah","alt_name":"Shawiyah"},"display_name":"Shawīyah, الفجيرة, الإمارات العربية المتحدة","address":{"town":"Shawīyah","state":"الفجيرة","ISO3166-2-lvl4":"AE-FU","country":"الإمارات العربية المتحدة","country_code":"ae"},"osm_type":"node","osm_id":12318671094,"type":"town","location":[56.08107,25.2680003],"bbox":[56.04107,25.2280003,56.12107,25.3080003]}
{"name":"Suhе̄lah سهيلة","other_names":{"name:ar":"سهيلة","name:de":"Suhе̄lah","name:en":"Suhе̄lah","name:es":"Suhе̄lah","name:fr":"Suhе̄lah","alt_name":"Suhila;Suhaila"},"display_name":"Suhе̄lah سهيلة, الذيد, الشارقة, الإمارات العربية المتحدة","address":{"village":"Suhе̄lah سهيلة","city":"الذيد","state":"الشارقة","ISO3166-2-lvl4":"AE-SH","country":"الإمارات العربية المتحدة","country_code":"ae"},"osm_type":"way","osm_id":637836622,"type":"town","location":[55.9589041,25.3581144],"bbox":[55.9543679,25.3530058,55.9684759,25.3602605]}
{"name":"Thoban  شوبان","other_names":{"name:ar":"شوبان","name:de":"Thoban","name:en":"Thoban","name:es":"Thoban","name:fr":"Thoban","name:ml":"തോബാൻ","alt_name":"Thobån;Touban;Thouban;Thawban"},"display_name":"Thoban  شوبان, الفجيرة, الإمارات العربية المتحدة","address":{"town":"Thoban  شوبان","state":"الفجيرة","ISO3166-2-lvl4":"AE-FU","country":"الإمارات العربية المتحدة","country_code":"ae"},"osm_type":"node","osm_id":5621436090,"type":"town","location":[56.0302106,25.3034265],"bbox":[55.9902106,25.2634265,56.0702106,25.3434265]}
{"name":"Wasideh","other_names":{"name:ar":"Wasideh","name:en":"Wasideh","name:es":"Wasideh","name:fr":"Wasideh","name:ml":"വസീദേ"},"display_name":"Wasideh, رأس الخيمة, الإمارات العربية المتحدة","address":{"town":"Wasideh","state":"رأس الخيمة","ISO3166-2-lvl4":"AE-RK","country":"الإمارات العربية المتحدة","country_code":"ae"},"osm_type":"node","osm_id":11590955170,"type":"town","location":[56.1253796,25.97793],"bbox":[56.0853796,25.93793,56.1653796,26.01793]}
{"name":"Zahir al Ya'ad","other_names":{"name:ar":"زاهر الياد","name:de":"Zahir al Ya'ad","name:en":"Zahir al Ya'ad","name:es":"Zahir al Ya'ad","name:fa":"داهیر","name:fr":"Zahir al Ya'ad","name:ml":"സാഹിർ അൽ-യദ്","alt_name":"Dahir al Ya'ad, Ḑāhir Al Ya'ad, Zāhir Al Ya'ad","name:azb":"داهیر"},"display_name":"Zahir al Ya'ad, الفجيرة, الإمارات العربية المتحدة","address":{"town":"Zahir al Ya'ad","state":"الفجيرة","ISO3166-2-lvl4":"AE-FU","country":"الإمارات العربية المتحدة","country_code":"ae"},"osm_type":"node","osm_id":5614905202,"type":"town","location":[56.1541232,25.5328961],"bbox":[56.1141232,25.4928961,56.1941232,25.5728961]}
{"name":"Zahir As Safwah","other_names":{"name:ar":"Zahir As Safwah","name:en":"Zahir As Safwah","name:es":"Zahir As Safwah","name:fr":"Zahir As Safwah","name:ml":"സാഹിർ അസ്സഫ്വ","alt_name":"Dhahir Al Safwah, Z̧āhir Aş Şafwah"},"display_name":"Zahir As Safwah, الفجيرة, الإمارات العربية المتحدة","address":{"town":"Zahir As Safwah","state":"الفجيرة","ISO3166-2-lvl4":"AE-FU","country":"الإمارات العربية المتحدة","country_code":"ae"},"osm_type":"node","osm_id":11878302271,"type":"town","location":[56.1793586,25.5546298],"bbox":[56.1393586,25.5146298,56.2193586,25.5946298]}
{"name":"أبو الأبيض","other_names":{"name:ar":"أبو الأبيض","name:en":"Abu Al Abyad","name:ml":"അബു അൽ അബ്യദ്","name:ur":"ابو الابیض"},"display_name":"أبو الأبيض, جزيرة أبو الأبيض, أبوظبي, أبو ظبي, الإمارات العربية المتحدة","address":{"town":"أبو الأبيض","city":"جزيرة أبو الأبيض","county":"أبوظبي","state":"أبو ظبي","ISO3166-2-lvl4":"AE-AZ","country":"الإمارات العربية المتحدة","country_code":"ae"},"osm_type":"node","osm_id":6279392270,"type":"town","location":[53.7732053,24.1924137],"bbox":[53.7332053,24.1524137,53.8132053,24.2324137]}
{"name":"أبو حريبة","other_names":{"name:ar":"أبو حريبة","name:en":"Abu Hiraybah"},"display_name":"أبو حريبة, أبو حِرَيْبَة, العين, أبو ظبي, الإمارات العربية المتحدة","address":{"town":"أبو حريبة","city":"أبو حِرَيْبَة","county":"العين","state":"أبو ظبي","ISO3166-2-lvl4":"AE-AZ","country":"الإمارات العربية المتحدة","country_code":"ae"},"osm_type":"node","osm_id":9976937718,"type":"town","location":[55.1245853,23.7099266],"bbox":[55.0845853,23.6699266,55.1645853,23.7499266],"border":{"name":"أبو حِرَيْبَة","other_names":{"name:ar":"أبو حِرَيْبَة","name:en":"Abu Hiraybah"},"display_name":"أبو حِرَيْبَة, العين, أبو ظبي, الإمارات العربية المتحدة","address":{"city":"أبو حِرَيْبَة","county":"العين","state":"أبو ظبي","ISO3166-2-lvl4":"AE-AZ","country":"الإمارات العربية المتحدة","country_code":"ae"},"osm_type":"relation","osm_id":13251466,"type":"administrative","location":[55.14477692900561,23.7354901],"bbox":[54.940831,23.4807695,55.2803446,23.993342]}}
{"name":"أبو قرين","other_names":{"name:ar":"أبو قرين","name:en":"Abu Qrayn"},"display_name":"أبو قرين, أبو قْرَيْن, منطقة الظفرة, أبو ظبي, الإمارات العربية المتحدة","address":{"town":"أبو قرين","city":"أبو قْرَيْن","county":"منطقة الظفرة","state":"أبو ظبي","ISO3166-2-lvl4":"AE-AZ","country":"الإمارات العربية المتحدة","country_code":"ae"},"osm_type":"node","osm_id":9976911331,"type":"town","location":[54.5979302,23.2325135],"bbox":[54.5579302,23.1925135,54.6379302,23.2725135],"border":{"name":"أبو قْرَيْن","other_names":{"name:ar":"أبو قْرَيْن","name:en":"Abu Qrayn"},"display_name":"أبو قْرَيْن, منطقة الظفرة, أبو ظبي, الإمارات العربية المتحدة","address":{"city":"أبو قْرَيْن","county":"منطقة الظفرة","state":"أبو ظبي","ISO3166-2-lvl4":"AE-AZ","country":"الإمارات العربية المتحدة","country_code":"ae"},"osm_type":"relation","osm_id":13251494,"type":"administrative","location":[54.60128880552387,23.23600435],"bbox":[54.3065094,22.8003654,54.9146366,23.6723225]}}
{"name":"أم الأشطان","other_names":{"name:ar":"أم الأشطان","name:en":"Um Al Ashtan","name:ml":"ഉമ്മുൽ അഷ്ത്താൻ"},"display_name":"أم الأشطان, منطقة الظفرة, أبو ظبي, الإمارات العربية المتحدة","address":{"town":"أم الأشطان","county":"منطقة الظفرة","state":"أبو ظبي","ISO3166-2-lvl4":"AE-AZ","country":"الإمارات العربية المتحدة","country_code":"ae"},"osm_type":"node","osm_id":9976911319,"type":"town","location":[52.3278795,23.843139],"bbox":[52.2878795,23.803139,52.3678795,23.883139],"border":{"name":"أم الأشطان","other_names":{"name:ar":"أم الأشطان","name:en":"Um Al Ashtan","name:ml":"ഉമ്മുൽ അഷ്ത്താൻ"},"display_name":"أم الأشطان, منطقة الظفرة, أبو ظبي, الإمارات العربية المتحدة","address":{"town":"أم الأشطان","county":"منطقة الظفرة","state":"أبو ظبي","ISO3166-2-lvl4":"AE-AZ","country":"الإمارات العربية المتحدة","country_code":"ae"},"osm_type":"relation","osm_id":13251511,"type":"administrative","location":[52.3278795,23.843139],"bbox":[52.2311983,23.6988319,52.4828299,24.0283729]}}
{"name":"أم الزمول","other_names":{"name:ar":"أم الزمول","name:en":"Um Al Zumoul"},"display_name":"أم الزمول, العين, أبو ظبي, الإمارات العربية المتحدة","address":{"town":"أم الزمول","county":"العين","state":"أبو ظبي","ISO3166-2-lvl4":"AE-AZ","country":"الإمارات العربية المتحدة","country_code":"ae"},"osm_type":"node","osm_id":9976937719,"type":"town","location":[54.9412523,22.8951543],"bbox":[54.9012523,22.8551543,54.9812523,22.9351543],"border":{"name":"أم الزمول","other_names":{"name:ar":"أم الزمول","name:en":"Um Al Zumoul"},"display_name":"أم الزمول, العين, أبو ظبي, الإمارات العربية المتحدة","address":{"town":"أم الزمول","county":"العين","state":"أبو ظبي","ISO3166-2-lvl4":"AE-AZ","country":"الإمارات العربية المتحدة","country_code":"ae"},"osm_type":"relation","osm_id":13251496,"type":"administrative","location":[54.9412523,22.8951543],"bbox":[54.6535943,22.6316214,55.2297253,23.0536048]}}
{"name":"أم ليله","other_names":{"name:ar":"أم ليله","name:en":"Um Laylah"},"display_name":"أم ليله, منطقة الظفرة, أبو ظبي, الإمارات العربية المتحدة","address":{"town":"أم ليله","county":"منطقة الظفرة","state":"أبو ظبي","ISO3166-2-lvl4":"AE-AZ","country":"الإمارات العربية المتحدة","country_code":"ae"},"osm_type":"node","osm_id":9976911333,"type":"town","location":[54.0472405,23.9178541],"bbox":[54.0072405,23.8778541,54.0872405,23.9578541],"border":{"name":"أم ليله","other_names":{"name:ar":"أم ليله","name:en":"Um Laylah"},"display_name":"أم ليله, منطقة الظفرة, أبو ظبي, الإمارات العربية المتحدة","address":{"town":"أم ليله","county":"منطقة الظفرة","state":"أبو ظبي","ISO3166-2-lvl4":"AE-AZ","country":"الإمارات العربية المتحدة","country_code":"ae"},"osm_type":"relation","osm_id":13251486,"type":"administrative","location":[54.0472405,23.9178541],"bbox":[53.8618116,23.7353532,54.2434659,24.0916664]}}
{"name":"البديعة","other_names":{"name:ar":"البديعة","name:en":"Al Bday'ah"},"display_name":"البديعة, البْدَيْعَة, منطقة الظفرة, أبو ظبي, الإمارات العربية المتحدة","address":{"town":"البديعة","city":"البْدَيْعَة","county":"منطقة الظفرة","state":"أبو ظبي","ISO3166-2-lvl4":"AE-AZ","country":"الإمارات العربية المتحدة","country_code":"ae"},"osm_type":"node","osm_id":9976911340,"type":"town","location":[53.8374707,23.6643366],"bbox":[53.7974707,23.6243366,53.8774707,23.7043366],"border":{"name":"البْدَيْعَة","other_names":{"name:ar":"البْدَيْعَة","name:en":"Al Bday'ah"},"display_name":"البْدَيْعَة, منطقة الظفرة, أبو ظبي, الإمارات العربية المتحدة","address":{"city":"البْدَيْعَة","county":"منطقة الظفرة","state":"أبو ظبي","ISO3166-2-lvl4":"AE-AZ","country":"الإمارات العربية المتحدة","country_code":"ae"},"osm_type":"relation","osm_id":13251489,"type":"administrative","location":[53.849207591968394,23.638458200000002],"bbox":[53.7651311,23.5421925,53.9027871,23.7359411]}}
{"name":"البطائح","other_names":{"name:ar":"البطائح","name:en":"Al Batayih","name:ml":"അൽ ബത്തായിഹ്"},"display_name":"البطائح, الشارقة, الإمارات العربية المتحدة","address":{"town":"البطائح","state":"الشارقة","ISO3166-2-lvl4":"AE-SH","country":"الإمارات العربية المتحدة","country_code":"ae"},"osm_type":"node","osm_id":8559635603,"type":"town","location":[55.7380384,25.2793096],"bbox":[55.6980384,25.2393096,55.7780384,25.3193096],"border":{"name":"البطائح","other_names":{"name:ar":"البطائح","name:en":"Al Batayih","name:ml":"അൽ ബത്തായിഹ്"},"display_name":"البطائح, الشارقة, الإمارات العربية المتحدة","address":{"town":"البطائح","state":"الشارقة","ISO3166-2-lvl4":"AE-SH","country":"الإمارات العربية المتحدة","country_code":"ae"},"osm_type":"relation","osm_id":12905784,"type":"administrative","location":[55.7380384,25.2793096],"bbox":[55.6293319,25.0554565,55.8449941,25.4191729]}}
{"name":"الثيب","other_names":{"name:ar":"الثيب","name:en":"Al Theeb"},"display_name":"الثيب, الفجيرة, الإمارات العربية المتحدة","address":{"town":"الثيب","state":"الفجيرة","ISO3166-2-lvl4":"AE-FU","country":"الإمارات العربية المتحدة","country_code":"ae"},"osm_type":"node","osm_id":8128209867,"type":"town","location":[56.3570576,25.2373643],"bbox":[56.3170576,25.1973643,56.3970576,25.2773643],"border":{"name":"Al Theeb","other_names":{"name:ar":"الثيب","name:en":"Al Theeb"},"display_name":"Al Theeb, الفجيرة, الإمارات العربية المتحدة","address":{"town":"Al Theeb","state":"الفجيرة","ISO3166-2-lvl4":"AE-FU","country":"الإمارات العربية المتحدة","country_code":"ae"},"osm_type":"way","osm_id":872858705,"type":"town","location":[56.35561893765498,25.23773835],"bbox":[56.3366764,25.2220038,56.3693289,25.2532892]}}
{"name":"الجدة","other_names":{"name:ar":"الجدة","name:de":"Algida","name:en":"Al Jaddah","name:es":"Algida","name:fr":"Algida"},"display_name":"الجدة, رأس الخيمة, الإمارات العربية المتحدة","address":{"town":"الجدة","state":"رأس الخيمة","ISO3166-2-lvl4":"AE-RK","country":"الإمارات العربية المتحدة","country_code":"ae"},"osm_type":"node","osm_id":10840139323,"type":"town","location":[56.0832357,25.9962307],"bbox":[56.0432357,25.9562307,56.1232357,26.0362307]}
{"name":"الجزيرة","other_names":{"name:ar":"الجزيرة","name:en":"Al Jazeerah"},"display_name":"الجزيرة, الجَزيرَة, منطقة الظفرة, أبو ظبي, الإمارات العربية المتحدة","address":{"town":"الجزيرة","city":"الجَزيرَة","county":"منطقة الظفرة","state":"أبو ظبي","ISO3166-2-lvl4":"AE-AZ","country":"الإمارات العربية المتحدة","country_code":"ae"},"osm_type":"node","osm_id":9976911321,"type":"town","location":[52.2853075,23.4972562],"bbox":[52.2453075,23.4572562,52.3253075,23.5372562],"border":{"name":"الجَزيرَة","other_names":{"name:ar":"الجَزيرَة","name:en":"Al Jazeerah"},"display_name":"الجَزيرَة, منطقة الظفرة, أبو ظبي, الإمارات العربية المتحدة","address":{"city":"الجَزيرَة","county":"منطقة الظفرة","state":"أبو ظبي","ISO3166-2-lvl4":"AE-AZ","country":"الإمارات العربية المتحدة","country_code":"ae"},"osm_type":"relation","osm_id":13251512,"type":"administrative","location":[52.36966516149916,23.351909],"bbox":[51.9203648,23.0288128,52.5069094,23.7477099]}}
{"name":"الحمرية","other_names":{"name:ar":"الحمرية","name:en":"Al Hamriyah","name:fr":"Al Hamriyah","name:ml":"അൽ-ഹമറിയ"},"display_name":"الحمرية, الشارقة, الإمارات العربية المتحدة","address":{"town":"الحمرية","city":"الحمرية","state":"الشارقة","ISO3166-2-lvl4":"AE-SH","country":"الإمارات العربية المتحدة","country_code":"ae"},"osm_type":"node","osm_id":8560566489,"type":"town","location":[55.5133594,25.4565135],"bbox":[55.4733594,25.4165135,55.5533594,25.4965135],"border":[{"name":"الحمرية","other_names":{"name:ar":"الحمرية","name:en":"Al Hamriyah","name:fr":"Al Hamriyah","name:ml":"അൽ-ഹമറിയ"},"display_name":"الحمرية, الشارقة, الإمارات العربية المتحدة","address":{"city":"الحمرية","state":"الشارقة","ISO3166-2-lvl4":"AE-SH","country":"الإمارات العربية المتحدة","country_code":"ae"},"osm_type":"relation","osm_id":12905786,"type":"administrative","location":[55.5133594,25.4565135],"bbox":[55.4718254,25.4142195,55.6413959,25.519705]},{"name":"الحمرية","other_names":{"name:ar":"الحمرية","name:en":"Al Hamriya"},"display_name":"الحمرية, الشارقة, الإمارات العربية المتحدة","address":{"suburb":"الحمرية","town":"الحمرية","state":"الشارقة","ISO3166-2-lvl4":"AE-SH","country":"الإمارات العربية المتحدة","country_code":"ae"},"osm_type":"relation","osm_id":12905746,"type":"administrative","location":[55.5114726,25.4816974],"bbox":[55.4718254,25.4420045,55.5468163,25.519705]}]}
{"name":"الحيل","other_names":{"name:ar":"الحيل","name:en":"Al Heel"},"display_name":"الحيل, الفجيرة, الإمارات العربية المتحدة","address":{"town":"الحيل","state":"الفجيرة","ISO3166-2-lvl4":"AE-FU","country":"الإمارات العربية المتحدة","country_code":"ae"},"osm_type":"way","osm_id":872858701,"type":"town","location":[56.29522879498235,25.09796885],"bbox":[56.2273489,25.068036,56.318523,25.127617]}
{"name":"الختم","other_names":{"name:ar":"الختم","name:en":"Al Khatm","name:ml":"അൽ ഖത്തം"},"display_name":"الختم, الخَتْم, أبوظبي, أبو ظبي, الإمارات العربية المتحدة","address":{"town":"الختم","city":"الخَتْم","county":"أبوظبي","state":"أبو ظبي","ISO3166-2-lvl4":"AE-AZ","country":"الإمارات العربية المتحدة","country_code":"ae"},"osm_type":"node","osm_id":1503800705,"type":"town","location":[54.9936763,24.1900101],"bbox":[54.9536763,24.1500101,55.0336763,24.2300101],"border":{"name":"الخَتْم","other_names":{"name:ar":"الخَتْم","name:en":"Al Khatm"},"display_name":"الخَتْم, أبوظبي, أبو ظبي, الإمارات العربية المتحدة","address":{"city":"الخَتْم","county":"أبوظبي","state":"أبو ظبي","ISO3166-2-lvl4":"AE-AZ","country":"الإمارات العربية المتحدة","country_code":"ae"},"osm_type":"relation","osm_id":13251367,"type":"administrative","location":[54.98392217899923,24.1788485],"bbox":[54.9059863,24.1557194,55.0494478,24.2019723]}}
{"name":"الخزنة","other_names":{"name:ar":"الخزنة","name:en":"Al Khaznah","name:ml":"അൽ ഖസ്ന"},"display_name":"الخزنة, الخَزنة, العين, أبو ظبي, الإمارات العربية المتحدة","address":{"town":"الخزنة","city":"الخَزنة","county":"العين","state":"أبو ظبي","ISO3166-2-lvl4":"AE-AZ","country":"الإمارات العربية المتحدة","country_code":"ae"},"osm_type":"node","osm_id":1503800709,"type":"town","location":[55.134002,24.1690881],"bbox":[55.094002,24.1290881,55.174002,24.2090881],"border":{"name":"الخَزنة","other_names":{"name:ar":"الخَزنة","name:en":"Al Khaznah"},"display_name":"الخَزنة, العين, أبو ظبي, الإمارات العربية المتحدة","address":{"city":"الخَزنة","county":"العين","state":"أبو ظبي","ISO3166-2-lvl4":"AE-AZ","country":"الإمارات العربية المتحدة","country_code":"ae"},"osm_type":"relation","osm_id":13251446,"type":"administrative","location":[55.16035276038397,24.1425564],"bbox":[55.0360593,23.9813621,55.2501238,24.3033464]}}
{"name":"الروضة","other_names":{"name:ar":"الروضة","name:en":"Al Rawdah","name:ml":"അൽ-റൗദ"},"display_name":"الروضة, العين, أبو ظبي, الإمارات العربية المتحدة","address":{"town":"الروضة","county":"العين","state":"أبو ظبي","ISO3166-2-lvl4":"AE-AZ","country":"الإمارات العربية المتحدة","country_code":"ae"},"osm_type":"node","osm_id":9976881212,"type":"town","location":[55.5028864,24.1045713],"bbox":[55.4628864,24.0645713,55.5428864,24.1445713],"border":{"name":"الروضة","other_names":{"name:ar":"الروضة","name:en":"Al Rawdah","name:ml":"അൽ-റൗദ"},"display_name":"الروضة, العين, أبو ظبي, الإمارات العربية المتحدة","address":{"town":"الروضة","county":"العين","state":"أبو ظبي","ISO3166-2-lvl4":"AE-AZ","country":"الإمارات العربية المتحدة","country_code":"ae"},"osm_type":"relation","osm_id":13251442,"type":"administrative","location":[55.5028864,24.1045713],"bbox":[55.4029892,24.0124905,55.6175398,24.1403939]}}
{"name":"الرويس","other_names":{"name:ar":"الرويس","name:en":"Al Ruwais","name:fa":"الرویس","name:ml":"അൽ-റുവൈസ്","name:ur":"الرویس"},"display_name":"الرويس, مدينة الرويس الصناعية, منطقة الظفرة, أبو ظبي, الإمارات العربية المتحدة","address":{"town":"الرويس","city":"مدينة الرويس الصناعية","county":"منطقة الظفرة","state":"أبو ظبي","ISO3166-2-lvl4":"AE-AZ","country":"الإمارات العربية المتحدة","country_code":"ae"},"osm_type":"node","osm_id":6279196240,"type":"town","location":[52.720803,24.0858473],"bbox":[52.680803,24.0458473,52.760803,24.1258473],"border":{"name":"الظنة","other_names":{"name:ar":"الظنة","name:de":"Al Dhannah","name:en":"Al Dhannah","name:es":"Al Dhannah","name:fr":"Al Dhannah","name:ur":"الظنہ","old_name":"الرويس","old_name:ar":"الرويس","old_name:de":"Ruwais","old_name:en":"Al Ruwais","old_name:fa":"الرویس","old_name:ur":"الرویس"},"display_name":"الظنة, منطقة الظفرة, أبو ظبي, الإمارات العربية المتحدة","address":{"town":"الظنة","county":"منطقة الظفرة","state":"أبو ظبي","ISO3166-2-lvl4":"AE-AZ","country":"الإمارات العربية المتحدة","country_code":"ae"},"osm_type":"relation","osm_id":11900266,"type":"town","location":[52.74257901483773,24.1121412],"bbox":[52.6072895,24.0441719,52.8827359,24.1752545]}}
{"name":"الزبير","other_names":{"name:ar":"الزبير","name:de":"Al Zubair","name:en":"Al Zubair","name:es":"Al Zubair","name:fr":"Al Zubair","name:ur":"الزبیر","alt_name":"Ar Zibе̄r;Al Zubair;Ziber;Al Ziber"},"display_name":"الزبير, الشارقة, الإمارات العربية المتحدة","address":{"town":"الزبير","state":"الشارقة","ISO3166-2-lvl4":"AE-SH","country":"الإمارات العربية المتحدة","country_code":"ae"},"osm_type":"node","osm_id":12455913869,"type":"town","location":[55.634697,25.3783881],"bbox":[55.594697,25.3383881,55.674697,25.4183881]}
{"name":"الزراف","other_names":{"name:ar":"الزراف","name:en":"Al Zarraf"},"display_name":"الزراف, الزَّرَّافْ, منطقة الظفرة, أبو ظبي, الإمارات العربية المتحدة","address":{"town":"الزراف","city":"الزَّرَّافْ","county":"منطقة الظفرة","state":"أبو ظبي","ISO3166-2-lvl4":"AE-AZ","country":"الإمارات العربية المتحدة","country_code":"ae"},"osm_type":"node","osm_id":9976911334,"type":"town","location":[54.0808862,23.6778577],"bbox":[54.0408862,23.6378577,54.1208862,23.7178577],"border":{"name":"الزَّرَّافْ","other_names":{"name:ar":"الزَّرَّافْ","name:en":"Al Zarraf"},"display_name":"الزَّرَّافْ, منطقة الظفرة, أبو ظبي, الإمارات العربية المتحدة","address":{"city":"الزَّرَّافْ","county":"منطقة الظفرة","state":"أبو ظبي","ISO3166-2-lvl4":"AE-AZ","country":"الإمارات العربية المتحدة","country_code":"ae"},"osm_type":"relation","osm_id":13251487,"type":"administrative","location":[54.270155821969496,23.630748150000002],"bbox":[53.890995,23.4350877,54.4007099,23.8277091]}}
{"name":"السلع","other_names":{"name:ar":"السلع","name:de":"Sila","name:en":"Sila","name:es":"Sila","name:fr":"Sila","name:ml":"സില"},"display_name":"السلع, السِّلَع, منطقة الظفرة, أبو ظبي, الإمارات العربية المتحدة","address":{"town":"السلع","city":"السِّلَع","county":"منطقة الظفرة","state":"أبو ظبي","ISO3166-2-lvl4":"AE-AZ","country":"الإمارات العربية المتحدة","country_code":"ae"},"population":7900,"osm_type":"node","osm_id":4454361289,"type":"town","location":[51.7622566,24.0650196],"bbox":[51.7222566,24.0250196,51.8022566,24.1050196],"border":{"name":"السلع Sila","other_names":{"name:ar":"السلع","name:de":"Sila","name:en":"Sila"},"display_name":"السلع Sila, السِّلَع, منطقة الظفرة, أبو ظبي, الإمارات العربية المتحدة","address":{"town":"السلع Sila","city":"السِّلَع","county":"منطقة الظفرة","state":"أبو ظبي","ISO3166-2-lvl4":"AE-AZ","country":"الإمارات العربية المتحدة","country_code":"ae"},"population":7900,"osm_type":"way","osm_id":391953160,"type":"town","location":[51.752986938729464,24.069590249999997],"bbox":[51.7379135,24.0407435,51.7744378,24.0898423]}}
{"name":"السودة","other_names":{"name:ar":"السودة","name:en":"Assawda","name:ml":"അസ്സൗദ"},"display_name":"السودة, الفجيرة, الإمارات العربية المتحدة","address":{"town":"السودة","state":"الفجيرة","ISO3166-2-lvl4":"AE-FU","country":"الإمارات العربية المتحدة","country_code":"ae"},"osm_type":"node","osm_id":8128209866,"type":"town","location":[56.3546275,25.2113867],"bbox":[56.3146275,25.1713867,56.3946275,25.2513867],"border":{"name":"Assawda","other_names":{"name:ar":"السودة","name:en":"Assawda"},"display_name":"Assawda, الفجيرة, الإمارات العربية المتحدة","address":{"town":"Assawda","state":"الفجيرة","ISO3166-2-lvl4":"AE-FU","country":"الإمارات العربية المتحدة","country_code":"ae"},"osm_type":"way","osm_id":872858704,"type":"town","location":[56.35388223102815,25.208779800000002],"bbox":[56.3404699,25.1920639,56.3702859,25.2260537]}}
{"name":"الشناين","other_names":{"name:ar":"الشناين","name:en":"Al Shinayin"},"display_name":"الشناين, الشِّنَايِن, أبوظبي, أبو ظبي, الإمارات العربية المتحدة","address":{"town":"الشناين","city":"الشِّنَايِن","county":"أبوظبي","state":"أبو ظبي","ISO3166-2-lvl4":"AE-AZ","country":"الإمارات العربية المتحدة","country_code":"ae"},"osm_type":"node","osm_id":9976911332,"type":"town","location":[54.3095391,23.915971],"bbox":[54.2695391,23.875971,54.3495391,23.955971],"border":{"name":"الشِّنَايِن","other_names":{"name:ar":"الشِّنَايِن","name:en":"Al Shinayin"},"display_name":"الشِّنَايِن, أبوظبي, أبو ظبي, الإمارات العربية المتحدة","address":{"city":"الشِّنَايِن","county":"أبوظبي","state":"أبو ظبي","ISO3166-2-lvl4":"AE-AZ","country":"الإمارات العربية المتحدة","country_code":"ae"},"osm_type":"relation","osm_id":13251468,"type":"administrative","location":[54.299344461397055,23.94150865],"bbox":[54.1156668,23.667871,54.4202748,24.2131345]}}
{"name":"الظاهرة","other_names":{"name:ar":"الظاهرة","name:en":"Al Dhahrah"},"display_name":"الظاهرة, الظَّاهْرة, العين, أبو ظبي, الإمارات العربية المتحدة","address":{"town":"الظاهرة","city":"الظَّاهْرة","county":"العين","state":"أبو ظبي","ISO3166-2-lvl4":"AE-AZ","country":"الإمارات العربية المتحدة","country_code":"ae"},"osm_type":"node","osm_id":9976881214,"type":"town","location":[55.5319398,23.9900173],"bbox":[55.4919398,23.9500173,55.5719398,24.0300173],"border":{"name":"الظَّاهْرة","other_names":{"name:ar":"الظَّاهْرة","name:en":"Al Dhahrah"},"display_name":"الظَّاهْرة, العين, أبو ظبي, الإمارات العربية المتحدة","address":{"city":"الظَّاهْرة","county":"العين","state":"أبو ظبي","ISO3166-2-lvl4":"AE-AZ","country":"الإمارات العربية المتحدة","country_code":"ae"},"osm_type":"relation","osm_id":13251444,"type":"administrative","location":[55.477643638892104,23.96771325],"bbox":[55.4255594,23.8935694,55.6748875,24.0435725]}}
{"name":"العايف","other_names":{"name:ar":"العايف","name:en":"Al 'Ayif"},"display_name":"العايف, العَايِف, منطقة الظفرة, أبو ظبي, الإمارات العربية المتحدة","address":{"town":"العايف","city":"العَايِف","county":"منطقة الظفرة","state":"أبو ظبي","ISO3166-2-lvl4":"AE-AZ","country":"الإمارات العربية المتحدة","country_code":"ae"},"osm_type":"node","osm_id":9976911323,"type":"town","location":[52.656096,23.1706651],"bbox":[52.616096,23.1306651,52.696096,23.2106651],"border":{"name":"العَايِف","other_names":{"name:ar":"العَايِف","name:en":"Al 'Ayif"},"display_name":"العَايِف, منطقة الظفرة, أبو ظبي, الإمارات العربية المتحدة","address":{"city":"العَايِف","county":"منطقة الظفرة","state":"أبو ظبي","ISO3166-2-lvl4":"AE-AZ","country":"الإمارات العربية المتحدة","country_code":"ae"},"osm_type":"relation","osm_id":13251504,"type":"administrative","location":[52.64990797093784,23.10649825],"bbox":[52.5021656,22.9392035,53.0309598,23.2916531]}}
{"name":"العجبان","other_names":{"name:ar":"العجبان","name:en":"Al 'Ajban","name:ml":"അൽ അജ്ബാൻ"},"display_name":"العجبان, العَجْبَان, العين, أبو ظبي, الإمارات العربية المتحدة","address":{"town":"العجبان","city":"العَجْبَان","county":"العين","state":"أبو ظبي","ISO3166-2-lvl4":"AE-AZ","country":"الإمارات العربية المتحدة","country_code":"ae"},"osm_type":"node","osm_id":6279392590,"type":"town","location":[55.2572822,24.5361046],"bbox":[55.2172822,24.4961046,55.2972822,24.5761046],"border":{"name":"العَجْبَان","other_names":{"name:ar":"العَجْبَان","name:en":"Al 'Ajban"},"display_name":"العَجْبَان, العين, أبو ظبي, الإمارات العربية المتحدة","address":{"city":"العَجْبَان","county":"العين","state":"أبو ظبي","ISO3166-2-lvl4":"AE-AZ","country":"الإمارات العربية المتحدة","country_code":"ae"},"osm_type":"relation","osm_id":13251429,"type":"administrative","location":[55.3527144772285,24.5803742],"bbox":[55.1268747,24.4669157,55.5620734,24.6940024]}}
{"name":"العراد","other_names":{"name:ar":"العراد","name:en":"Al 'Arad"},"display_name":"العراد, العَراد, العين, أبو ظبي, الإمارات العربية المتحدة","address":{"town":"العراد","city":"العَراد","county":"العين","state":"أبو ظبي","ISO3166-2-lvl4":"AE-AZ","country":"الإمارات العربية المتحدة","country_code":"ae"},"osm_type":"node","osm_id":9976881216,"type":"town","location":[55.4122918,23.8142451],"bbox":[55.3722918,23.7742451,55.4522918,23.8542451],"border":{"name":"العَراد","other_names":{"name:ar":"العَراد","name:en":"Al 'Arad"},"display_name":"العَراد, العين, أبو ظبي, الإمارات العربية المتحدة","address":{"city":"العَراد","county":"العين","state":"أبو ظبي","ISO3166-2-lvl4":"AE-AZ","country":"الإمارات العربية المتحدة","country_code":"ae"},"osm_type":"relation","osm_id":13251464,"type":"administrative","location":[55.40413013514118,23.815718949999997],"bbox":[55.2746486,23.7292513,55.5357468,23.9044912]}}
{"name":"العزيزة","other_names":{"name:ar":"العزيزة","name:en":"Al 'Azeezah"},"display_name":"العزيزة, منطقة الظفرة, أبو ظبي, الإمارات العربية المتحدة","address":{"town":"العزيزة","county":"منطقة الظفرة","state":"أبو ظبي","ISO3166-2-lvl4":"AE-AZ","country":"الإمارات العربية المتحدة","country_code":"ae"},"osm_type":"node","osm_id":9976911335,"type":"town","location":[54.0685265,23.3561256],"bbox":[54.0285265,23.3161256,54.1085265,23.3961256],"border":{"name":"العزيزة","other_names":{"name:ar":"العزيزة","name:en":"Al 'Azeezah"},"display_name":"العزيزة, منطقة الظفرة, أبو ظبي, الإمارات العربية المتحدة","address":{"town":"العزيزة","county":"منطقة الظفرة","state":"أبو ظبي","ISO3166-2-lvl4":"AE-AZ","country":"الإمارات العربية المتحدة","country_code":"ae"},"osm_type":"relation","osm_id":13251493,"type":"administrative","location":[54.0685265,23.3561256],"bbox":[53.7616965,23.0457824,54.3978977,23.635133]}}
{"name":"العقة","other_names":{"name:ar":"العقة","name:en":"Al Aqqah","name:es":"Al Aqqah","name:ml":"അൽ-അഖ","alt_name":"Sha'biyyah Al'Aqqah;Al Aqah","alt_name:es":"Al Aqqah","alt_name:fr":"Al Aqqah"},"display_name":"العقة, Aqqah, Al Badīyah, الفجيرة, الإمارات العربية المتحدة","address":{"town":"العقة","city":"Al Badīyah","state":"الفجيرة","ISO3166-2-lvl4":"AE-FU","country":"الإمارات العربية المتحدة","country_code":"ae"},"osm_type":"node","osm_id":8128209875,"type":"town","location":[56.3584221,25.5004828],"bbox":[56.3184221,25.4604828,56.3984221,25.5404828],"border":[{"name":"Aqqah","other_names":{"name:ar":"Aqqah","name:en":"Aqqah","name:es":"Aqqah","name:fr":"Aqqah","alt_name":"Sha'biyyah Al'Aqqah;Al Aqah","name:ml":"അൽ-അഖ","alt_name:es":"Al Aqqah","alt_name:fr":"Al Aqqah","alt":"العقة","alt:ar":"العقة","alt:en":"Al Aqqah","alt:es":"Al Aqqah"},"display_name":"Aqqah, Al Badīyah, الفجيرة, الإمارات العربية المتحدة","address":{"town":"Aqqah","city":"Al Badīyah","state":"الفجيرة","ISO3166-2-lvl4":"AE-FU","country":"الإمارات العربية المتحدة","country_code":"ae"},"osm_type":"way","osm_id":584925183,"type":"town","location":[56.3584221,25.5004828],"bbox":[56.3541287,25.4972262,56.3587662,25.5018429]},{"name":"Al Aqah - العقة","other_names":{"name:ar":"العقة","name:de":"Al Aqah","name:en":"Al Aqah","name:fr":"Al Aqah"},"display_name":"Al Aqah - العقة, الفجيرة, الإمارات العربية المتحدة","address":{"town":"Al Aqah - العقة","state":"الفجيرة","ISO3166-2-lvl4":"AE-FU","country":"الإمارات العربية المتحدة","country_code":"ae"},"osm_type":"way","osm_id":872858697,"type":"town","location":[56.34415613882524,25.4973384],"bbox":[56.3259298,25.4819982,56.367014,25.5127114]}]}
{"name":"الغمرة","other_names":{"name:ar":"الغمرة","name:en":"Al Ghamarah","name:es":"Al Ghamarah","name:fr":"Al Ghamarah","name:ml":"അൽ-ഗമറ","alt_name":"Ghamrah;Ghamara"},"display_name":"الغمرة, الفجيرة, الإمارات العربية المتحدة","address":{"town":"الغمرة","state":"الفجيرة","ISO3166-2-lvl4":"AE-FU","country":"الإمارات العربية المتحدة","country_code":"ae"},"osm_type":"node","osm_id":5617074738,"type":"town","location":[56.1688488,25.2942623],"bbox":[56.1288488,25.2542623,56.2088488,25.3342623]}
{"display_name":"الفجيرة, الإمارات العربية المتحدة","address":{"state":"الفجيرة","ISO3166-2-lvl4":"AE-FU","country":"الإمارات العربية المتحدة","country_code":"ae"},"osm_type":"node","osm_id":12307709116,"type":"town","location":[56.1350919,25.4296369],"bbox":[56.0950919,25.3896369,56.1750919,25.4696369]}
{"display_name":"الفجيرة, الإمارات العربية المتحدة","address":{"state":"الفجيرة","ISO3166-2-lvl4":"AE-FU","country":"الإمارات العربية المتحدة","country_code":"ae"},"osm_type":"way","osm_id":1341331482,"type":"town","location":[56.13113869853795,25.53851505],"bbox":[56.1277625,25.5335938,56.1328542,25.543478]}
{"name":"الفرفار","other_names":{"name:ar":"الفرفار","name:de":"Al Farfar","name:en":"Al Farfar","name:es":"Al Farfar","name:fr":"Al Farfar","name:ml":"അൽ-ഫർഫാർ"},"display_name":"الفرفار, الفجيرة, الإمارات العربية المتحدة","address":{"town":"الفرفار","state":"الفجيرة","ISO3166-2-lvl4":"AE-FU","country":"الإمارات العربية المتحدة","country_code":"ae"},"osm_type":"node","osm_id":8128209862,"type":"town","location":[56.2491414,25.1430646],"bbox":[56.2091414,25.1030646,56.2891414,25.1830646]}
{"name":"الفرفار","other_names":{"name:ar":"الفرفار","name:en":"Al Farfar","name:es":"Al Farfar","name:fr":"Al Farfar"},"display_name":"الفرفار, الفجيرة, الإمارات العربية المتحدة","address":{"town":"الفرفار","state":"الفجيرة","ISO3166-2-lvl4":"AE-FU","country":"الإمارات العربية المتحدة","country_code":"ae"},"osm_type":"way","osm_id":872858702,"type":"town","location":[56.26831799978009,25.15055975],"bbox":[56.2496745,25.123171,56.2870762,25.1800995]}
{"name":"الفقع","other_names":{"name:ar":"الفقع","name:de":"Fiqa","name:en":"Al Faqa'","name:ml":"അൽ-ഫഖ","alt_name:en":"Al Faqa'"},"display_name":"الفقع, العين, أبو ظبي, الإمارات العربية المتحدة","address":{"town":"الفقع","county":"العين","state":"أبو ظبي","ISO3166-2-lvl4":"AE-AZ","country":"الإمارات العربية المتحدة","country_code":"ae"},"osm_type":"node","osm_id":2518533888,"type":"town","location":[55.6216238,24.716533],"bbox":[55.5816238,24.676533,55.6616238,24.756533],"border":{"name":"الفقع","other_names":{"name:ar":"الفقع","name:en":"Al Faqa'","name:de":"Fiqa","name:ml":"അൽ-ഫഖ","alt_name:en":"Al Faqa'"},"display_name":"الفقع, العين, أبو ظبي, الإمارات العربية المتحدة","address":{"town":"الفقع","county":"العين","state":"أبو ظبي","ISO3166-2-lvl4":"AE-AZ","country":"الإمارات العربية المتحدة","country_code":"ae"},"osm_type":"relation","osm_id":13251426,"type":"administrative","location":[55.6216238,24.716533],"bbox":[55.5226168,24.5841704,55.7361256,24.7428607]}}
{"name":"القوع","other_names":{"name:ar":"القوع","name:en":"Al Qou'"},"display_name":"القوع, العين, أبو ظبي, الإمارات العربية المتحدة","address":{"town":"القوع","county":"العين","state":"أبو ظبي","ISO3166-2-lvl4":"AE-AZ","country":"الإمارات العربية المتحدة","country_code":"ae"},"osm_type":"node","osm_id":6279392589,"type":"town","location":[55.4293513,23.4151903],"bbox":[55.3893513,23.3751903,55.4693513,23.4551903],"border":{"name":"القوع","other_names":{"name:ar":"القوع","name:en":"Al Qou'"},"display_name":"القوع, العين, أبو ظبي, الإمارات العربية المتحدة","address":{"town":"القوع","county":"العين","state":"أبو ظبي","ISO3166-2-lvl4":"AE-AZ","country":"الإمارات العربية المتحدة","country_code":"ae"},"osm_type":"relation","osm_id":13251495,"type":"administrative","location":[55.4293513,23.4151903],"bbox":[54.7751112,23.0479186,55.4842238,23.5757547]}}
{"name":"المحاضر الشرقية","other_names":{"name:ar":"المحاضر الشرقية","name:en":"Eastern Mahadir"},"display_name":"المحاضر الشرقية, منطقة الظفرة, أبو ظبي, الإمارات العربية المتحدة","address":{"town":"المحاضر الشرقية","county":"منطقة الظفرة","state":"أبو ظبي","ISO3166-2-lvl4":"AE-AZ","country":"الإمارات العربية المتحدة","country_code":"ae"},"osm_type":"node","osm_id":9976911328,"type":"town","location":[54.0238946,23.0677298],"bbox":[53.9838946,23.0277298,54.0638946,23.1077298],"border":{"name":"المحاضر الشرقية","other_names":{"name:ar":"المحاضر الشرقية","name:en":"Eastern Mahadir"},"display_name":"المحاضر الشرقية, منطقة الظفرة, أبو ظبي, الإمارات العربية المتحدة","address":{"town":"المحاضر الشرقية","county":"منطقة الظفرة","state":"أبو ظبي","ISO3166-2-lvl4":"AE-AZ","country":"الإمارات العربية المتحدة","country_code":"ae"},"osm_type":"relation","osm_id":13251499,"type":"administrative","location":[54.0238946,23.0677298],"bbox":[53.8592727,22.93519,54.2278195,23.20195]}}
{"name":"المحاضر الغربية","other_names":{"name:ar":"المحاضر الغربية","name:en":"Western Mahadir"},"display_name":"المحاضر الغربية, منطقة الظفرة, أبو ظبي, الإمارات العربية المتحدة","address":{"town":"المحاضر الغربية","county":"منطقة الظفرة","state":"أبو ظبي","ISO3166-2-lvl4":"AE-AZ","country":"الإمارات العربية المتحدة","country_code":"ae"},"osm_type":"node","osm_id":9976911326,"type":"town","location":[53.4553521,23.0001164],"bbox":[53.4153521,22.9601164,53.4953521,23.0401164],"border":{"name":"المحاضر الغربية","other_names":{"name:ar":"المحاضر الغربية","name:en":"Western Mahadir"},"display_name":"المحاضر الغربية, منطقة الظفرة, أبو ظبي, الإمارات العربية المتحدة","address":{"town":"المحاضر الغربية","county":"منطقة الظفرة","state":"أبو ظبي","ISO3166-2-lvl4":"AE-AZ","country":"الإمارات العربية المتحدة","country_code":"ae"},"osm_type":"relation","osm_id":13251502,"type":"administrative","location":[53.4553521,23.0001164],"bbox":[53.1385302,22.8483519,53.7132099,23.1857075]}}
{"name":"المدينة الصناعية","other_names":{"name:ar":"المدينة الصناعية","name:en":"Industrial City"},"display_name":"المدينة الصناعية, شارع المدينة الصناعية 3, العين, أبو ظبي, الإمارات العربية المتحدة","address":{"town":"المدينة الصناعية","city":"شارع المدينة الصناعية 3","county":"العين","state":"أبو ظبي","ISO3166-2-lvl4":"AE-AZ","country":"الإمارات العربية المتحدة","country_code":"ae"},"osm_type":"node","osm_id":9976881213,"type":"town","location":[55.5548571,24.0238882],"bbox":[55.5148571,23.9838882,55.5948571,24.0638882]}
{"name":"المرفأ","other_names":{"name:ar":"المرفأ","name:en":"Al Mirfa","name:ml":"അൽ മിർഫ"},"display_name":"المرفأ, منطقة الظفرة, أبو ظبي, الإمارات العربية المتحدة","address":{"town":"المرفأ","county":"منطقة الظفرة","state":"أبو ظبي","ISO3166-2-lvl4":"AE-AZ","country":"الإمارات العربية المتحدة","country_code":"ae"},"osm_type":"node","osm_id":1388349998,"type":"town","location":[53.487065,24.0961596],"bbox":[53.447065,24.0561596,53.527065,24.1361596],"border":{"name":"المرفأ","other_names":{"name:ar":"المرفأ","name:en":"Al Mirfa","name:ml":"അൽ മിർഫ"},"display_name":"المرفأ, منطقة الظفرة, أبو ظبي, الإمارات العربية المتحدة","address":{"town":"المرفأ","county":"منطقة الظفرة","state":"أبو ظبي","ISO3166-2-lvl4":"AE-AZ","country":"الإمارات العربية المتحدة","country_code":"ae"},"osm_type":"relation","osm_id":11900265,"type":"town","location":[53.487065,24.0961596],"bbox":[53.43022,24.0043368,53.7769996,24.1250706]}}
{"name":"المرير","other_names":{"name:ar":"المرير","name:en":"Al Mirayr"},"display_name":"المرير, المِرَيْر, منطقة الظفرة, أبو ظبي, الإمارات العربية المتحدة","address":{"town":"المرير","city":"المِرَيْر","county":"منطقة الظفرة","state":"أبو ظبي","ISO3166-2-lvl4":"AE-AZ","country":"الإمارات العربية المتحدة","country_code":"ae"},"osm_type":"node","osm_id":9976911330,"type":"town","location":[54.4997399,22.798972],"bbox":[54.4597399,22.758972,54.5397399,22.838972],"border":{"name":"المِرَيْر","other_names":{"name:ar":"المِرَيْر","name:en":"Al Mirayr"},"display_name":"المِرَيْر, منطقة الظفرة, أبو ظبي, الإمارات العربية المتحدة","address":{"city":"المِرَيْر","county":"منطقة الظفرة","state":"أبو ظبي","ISO3166-2-lvl4":"AE-AZ","country":"الإمارات العربية المتحدة","country_code":"ae"},"osm_type":"relation","osm_id":13251497,"type":"administrative","location":[54.439043965522174,22.8538927],"bbox":[54.2993623,22.6927844,54.6898158,23.0167571]}}
{"name":"المنامة","other_names":{"name:ar":"المنامة","name:de":"Manama","name:en":"Manama","name:es":"Manama","name:fa":"منامه","name:fr":"Manama","name:ml":"മനാമ","alt_name":"منامة;Al Manamah;Al Manāmah;Manama;Manamah;Manāmah","alt_name:ar":"منامة"},"display_name":"المنامة, Al Manamah - المنامة, إمارة عجمان, الإمارات العربية المتحدة","address":{"town":"المنامة","state":"إمارة عجمان","ISO3166-2-lvl4":"AE-AJ","country":"الإمارات العربية المتحدة","country_code":"ae"},"osm_type":"node","osm_id":8128209864,"type":"town","location":[56.013377,25.3275755],"bbox":[55.973377,25.2875755,56.053377,25.3675755],"border":{"name":"Al Manamah - المنامة","other_names":{"name:ar":"المنامة","name:en":"Al Manamah","name:es":"Al Manamah","name:fa":"منامه","name:fr":"Al Manamah","alt_name":"Al Manamah, Al Manāmah, Manama, Manamah, Manāmah","alt_name:ar":"منامة","name:de":"Manama","name:ml":"മനാമ","_place_alt_name":"منامة;Al Manamah;Al Manāmah;Manama;Manamah;Manāmah","alt":"المنامة","alt:en":"Manama","alt:es":"Manama","alt:fr":"Manama"},"display_name":"Al Manamah - المنامة, إمارة عجمان, الإمارات العربية المتحدة","address":{"town":"Al Manamah - المنامة","state":"إمارة عجمان","ISO3166-2-lvl4":"AE-AJ","country":"الإمارات العربية المتحدة","country_code":"ae"},"osm_type":"way","osm_id":872858710,"type":"town","location":[56.013377,25.3275755],"bbox":[55.9649965,25.3032078,56.0360375,25.3486755]}}
{"name":"الهير","other_names":{"name:ar":"الهير","name:en":"Sha'biyyat Al Hiyar","name:es":"Sha'biyyat Al Hiyar","name:fr":"Sha'biyyat Al Hiyar","name:ml":"അൽ ഹിയാർ"},"display_name":"الهير, الهِيَر, العين, أبو ظبي, الإمارات العربية المتحدة","address":{"town":"الهير","city":"الهِيَر","county":"العين","state":"أبو ظبي","ISO3166-2-lvl4":"AE-AZ","country":"الإمارات العربية المتحدة","country_code":"ae"},"osm_type":"node","osm_id":914472821,"type":"town","location":[55.7441575,24.5888856],"bbox":[55.7041575,24.5488856,55.7841575,24.6288856]}
{"name":"الوقن","other_names":{"name:ar":"الوقن","name:en":"Al Wiqan"},"display_name":"الوقن, الوِقن, العين, أبو ظبي, الإمارات العربية المتحدة","address":{"town":"الوقن","city":"الوِقن","county":"العين","state":"أبو ظبي","ISO3166-2-lvl4":"AE-AZ","country":"الإمارات العربية المتحدة","country_code":"ae"},"osm_type":"node","osm_id":9976937717,"type":"town","location":[55.4397576,23.6432668],"bbox":[55.3997576,23.6032668,55.4797576,23.6832668],"border":{"name":"الوِقن","other_names":{"name:ar":"الوِقن","name:en":"Al Wiqan"},"display_name":"الوِقن, العين, أبو ظبي, الإمارات العربية المتحدة","address":{"city":"الوِقن","county":"العين","state":"أبو ظبي","ISO3166-2-lvl4":"AE-AZ","country":"الإمارات العربية المتحدة","country_code":"ae"},"osm_type":"relation","osm_id":13251465,"type":"administrative","location":[55.42559279498222,23.6470422],"bbox":[55.2605032,23.5139339,55.5723085,23.7594868]}}
{"name":"بدع المطاوعة","other_names":{"name:ar":"بدع المطاوعة","name:en":"Bad' Al Mutaw'ah"},"display_name":"بدع المطاوعة, بَدْع المُطاوْعة, منطقة الظفرة, أبو ظبي, الإمارات العربية المتحدة","address":{"town":"بدع المطاوعة","city":"بَدْع المُطاوْعة","county":"منطقة الظفرة","state":"أبو ظبي","ISO3166-2-lvl4":"AE-AZ","country":"الإمارات العربية المتحدة","country_code":"ae"},"osm_type":"node","osm_id":9976911318,"type":"town","location":[52.5201402,23.8205274],"bbox":[52.4801402,23.7805274,52.5601402,23.8605274],"border":{"name":"بَدْع المُطاوْعة","other_names":{"name:ar":"بَدْع المُطاوْعة","name:en":"Bad' Al Mutaw'ah"},"display_name":"بَدْع المُطاوْعة, منطقة الظفرة, أبو ظبي, الإمارات العربية المتحدة","address":{"city":"بَدْع المُطاوْعة","county":"منطقة الظفرة","state":"أبو ظبي","ISO3166-2-lvl4":"AE-AZ","country":"الإمارات العربية المتحدة","country_code":"ae"},"osm_type":"relation","osm_id":13251506,"type":"administrative","location":[52.544502297818994,23.814895200000002],"bbox":[52.4774264,23.7383325,52.6108814,23.8918804]}}
{"name":"بطين ليوا","other_names":{"name:ar":"بطين ليوا","name:en":"Bateen Liwa"},"display_name":"بطين ليوا, بَطين ليوا, منطقة الظفرة, أبو ظبي, الإمارات العربية المتحدة","address":{"town":"بطين ليوا","city":"بَطين ليوا","county":"منطقة الظفرة","state":"أبو ظبي","ISO3166-2-lvl4":"AE-AZ","country":"الإمارات العربية المتحدة","country_code":"ae"},"osm_type":"node","osm_id":9976911325,"type":"town","location":[53.9277642,22.8698493],"bbox":[53.8877642,22.8298493,53.9677642,22.9098493],"border":{"name":"بَطين ليوا","other_names":{"name:ar":"بَطين ليوا","name:en":"Bateen Liwa"},"display_name":"بَطين ليوا, منطقة الظفرة, أبو ظبي, الإمارات العربية المتحدة","address":{"city":"بَطين ليوا","county":"منطقة الظفرة","state":"أبو ظبي","ISO3166-2-lvl4":"AE-AZ","country":"الإمارات العربية المتحدة","country_code":"ae"},"osm_type":"relation","osm_id":13251500,"type":"administrative","location":[53.854902198626576,22.870794],"bbox":[53.372937,22.7259249,54.4277191,23.0156389]}}
{"name":"بلجعان","other_names":{"name:ar":"بلجعان","name:en":"Bilji'an"},"display_name":"بلجعان, بِلْجِعان, منطقة الظفرة, أبو ظبي, الإمارات العربية المتحدة","address":{"town":"بلجعان","city":"بِلْجِعان","county":"منطقة الظفرة","state":"أبو ظبي","ISO3166-2-lvl4":"AE-AZ","country":"الإمارات العربية المتحدة","country_code":"ae"},"osm_type":"node","osm_id":9976911339,"type":"town","location":[53.8731762,23.7944555],"bbox":[53.8331762,23.7544555,53.9131762,23.8344555],"border":{"name":"بِلْجِعان","other_names":{"name:ar":"بِلْجِعان","name:en":"Bilji'an"},"display_name":"بِلْجِعان, منطقة الظفرة, أبو ظبي, الإمارات العربية المتحدة","address":{"city":"بِلْجِعان","county":"منطقة الظفرة","state":"أبو ظبي","ISO3166-2-lvl4":"AE-AZ","country":"الإمارات العربية المتحدة","country_code":"ae"},"osm_type":"relation","osm_id":13251488,"type":"administrative","location":[53.86694694722047,23.824399999999997],"bbox":[53.7132196,23.6760839,53.9242967,23.9738931]}}
{"name":"بو الذياب","other_names":{"name:ar":"بو الذياب","name:en":"Bu Al Dhiyab"},"display_name":"بو الذياب, منطقة الظفرة, أبو ظبي, الإمارات العربية المتحدة","address":{"town":"بو الذياب","county":"منطقة الظفرة","state":"أبو ظبي","ISO3166-2-lvl4":"AE-AZ","country":"الإمارات العربية المتحدة","country_code":"ae"},"osm_type":"node","osm_id":9976911336,"type":"town","location":[53.5281365,23.2937032],"bbox":[53.4881365,23.2537032,53.5681365,23.3337032],"border":{"name":"بو الذياب","other_names":{"name:ar":"بو الذياب","name:en":"Bu Al Dhiyab"},"display_name":"بو الذياب, منطقة الظفرة, أبو ظبي, الإمارات العربية المتحدة","address":{"town":"بو الذياب","county":"منطقة الظفرة","state":"أبو ظبي","ISO3166-2-lvl4":"AE-AZ","country":"الإمارات العربية المتحدة","country_code":"ae"},"osm_type":"relation","osm_id":13251492,"type":"administrative","location":[53.5281365,23.2937032],"bbox":[53.1145191,23.0298723,53.7882972,23.4014435]}}
{"name":"بو حصا","other_names":{"name:ar":"بو حصا","name:en":"Bu Hasa"},"display_name":"بو حصا, بُو حَصَا, منطقة الظفرة, أبو ظبي, الإمارات العربية المتحدة","address":{"town":"بو حصا","city":"بُو حَصَا","county":"منطقة الظفرة","state":"أبو ظبي","ISO3166-2-lvl4":"AE-AZ","country":"الإمارات العربية المتحدة","country_code":"ae"},"osm_type":"node","osm_id":9976911337,"type":"town","location":[53.3890911,23.5995431],"bbox":[53.3490911,23.5595431,53.4290911,23.6395431],"border":{"name":"بُو حَصَا","other_names":{"name:ar":"بُو حَصَا","name:en":"Bu Hasa"},"display_name":"بُو حَصَا, منطقة الظفرة, أبو ظبي, الإمارات العربية المتحدة","address":{"city":"بُو حَصَا","county":"منطقة الظفرة","state":"أبو ظبي","ISO3166-2-lvl4":"AE-AZ","country":"الإمارات العربية المتحدة","country_code":"ae"},"osm_type":"relation","osm_id":13251491,"type":"administrative","location":[53.25694902299705,23.53150475],"bbox":[52.9261469,23.358932,53.581215,23.7046586]}}
{"name":"بو كرية","other_names":{"name:ar":"بو كرية","name:en":"Bu Kirayyah"},"display_name":"بو كرية, بو كِرَيَّة, العين, أبو ظبي, الإمارات العربية المتحدة","address":{"town":"بو كرية","city":"بو كِرَيَّة","county":"العين","state":"أبو ظبي","ISO3166-2-lvl4":"AE-AZ","country":"الإمارات العربية المتحدة","country_code":"ae"},"osm_type":"node","osm_id":9976881215,"type":"town","location":[55.4057563,23.9149206],"bbox":[55.3657563,23.8749206,55.4457563,23.9549206],"border":{"name":"بو كِرَيَّة","other_names":{"name:ar":"بو كِرَيَّة","name:en":"Bu Kirayyah"},"display_name":"بو كِرَيَّة, العين, أبو ظبي, الإمارات العربية المتحدة","address":{"city":"بو كِرَيَّة","county":"العين","state":"أبو ظبي","ISO3166-2-lvl4":"AE-AZ","country":"الإمارات العربية المتحدة","country_code":"ae"},"osm_type":"relation","osm_id":13251463,"type":"administrative","location":[55.33728894657882,23.9379898],"bbox":[55.2250977,23.868668,55.4454379,24.0067953]}}
{"name":"حبشان","other_names":{"name:ar":"حبشان","name:en":"Habshan"},"display_name":"حبشان, حَبْشَان, منطقة الظفرة, أبو ظبي, الإمارات العربية المتحدة","address":{"town":"حبشان","city":"حَبْشَان","county":"منطقة الظفرة","state":"أبو ظبي","ISO3166-2-lvl4":"AE-AZ","country":"الإمارات العربية المتحدة","country_code":"ae"},"osm_type":"node","osm_id":9976911338,"type":"town","location":[53.5851284,23.8239813],"bbox":[53.5451284,23.7839813,53.6251284,23.8639813]}
{"name":"حبشان","other_names":{"name:ar":"حبشان","name:en":"Habshan"},"display_name":"حبشان, حَبْشَان, منطقة الظفرة, أبو ظبي, الإمارات العربية المتحدة","address":{"town":"حبشان","city":"حَبْشَان","county":"منطقة الظفرة","state":"أبو ظبي","ISO3166-2-lvl4":"AE-AZ","country":"الإمارات العربية المتحدة","country_code":"ae"},"osm_type":"node","osm_id":6279392272,"type":"town","location":[53.5099411,23.7297656],"bbox":[53.4699411,23.6897656,53.5499411,23.7697656],"border":{"name":"حَبْشَان","other_names":{"name:ar":"حَبْشَان","name:en":"Habshan"},"display_name":"حَبْشَان, منطقة الظفرة, أبو ظبي, الإمارات العربية المتحدة","address":{"city":"حَبْشَان","county":"منطقة الظفرة","state":"أبو ظبي","ISO3166-2-lvl4":"AE-AZ","country":"الإمارات العربية المتحدة","country_code":"ae"},"osm_type":"relation","osm_id":13251480,"type":"administrative","location":[53.47883398350069,23.81150915],"bbox":[53.1333572,23.6549234,53.8873651,23.9676731]}}
{"name":"حميم","other_names":{"name:ar":"حميم","name:en":"Hameem"},"display_name":"حميم, منطقة الظفرة, أبو ظبي, الإمارات العربية المتحدة","address":{"town":"حميم","county":"منطقة الظفرة","state":"أبو ظبي","ISO3166-2-lvl4":"AE-AZ","country":"الإمارات العربية المتحدة","country_code":"ae"},"osm_type":"node","osm_id":9976911329,"type":"town","location":[54.2463677,22.9685097],"bbox":[54.2063677,22.9285097,54.2863677,23.0085097],"border":{"name":"حميم","other_names":{"name:ar":"حميم","name:en":"Hameem"},"display_name":"حميم, منطقة الظفرة, أبو ظبي, الإمارات العربية المتحدة","address":{"town":"حميم","county":"منطقة الظفرة","state":"أبو ظبي","ISO3166-2-lvl4":"AE-AZ","country":"الإمارات العربية المتحدة","country_code":"ae"},"osm_type":"relation","osm_id":13251498,"type":"administrative","location":[54.2463677,22.9685097],"bbox":[54.1384803,22.8971317,54.3395649,23.0636863]}}
{"name":"حميم","other_names":{"name:ar":"حميم","name:en":"Hameem"},"display_name":"حميم, منطقة الظفرة, أبو ظبي, الإمارات العربية المتحدة","address":{"town":"حميم","county":"منطقة الظفرة","state":"أبو ظبي","ISO3166-2-lvl4":"AE-AZ","country":"الإمارات العربية المتحدة","country_code":"ae"},"osm_type":"node","osm_id":953558256,"type":"town","location":[54.2812073,22.9487533],"bbox":[54.2412073,22.9087533,54.3212073,22.9887533]}
{"name":"دلما","other_names":{"name:ar":"دلما","name:en":"Dalma"},"display_name":"دلما, منطقة الظفرة, أبو ظبي, الإمارات العربية المتحدة","address":{"town":"دلما","county":"منطقة الظفرة","state":"أبو ظبي","ISO3166-2-lvl4":"AE-AZ","country":"الإمارات العربية المتحدة","country_code":"ae"},"osm_type":"node","osm_id":6279392591,"type":"town","location":[52.316688,24.4741547],"bbox":[52.276688,24.4341547,52.356688,24.5141547],"border":{"name":"دلما","other_names":{"name:ar":"دلما","name:en":"Delma","alt:en":"Dalma"},"display_name":"دلما, منطقة الظفرة, أبو ظبي, الإمارات العربية المتحدة","address":{"town":"دلما","county":"منطقة الظفرة","state":"أبو ظبي","ISO3166-2-lvl4":"AE-AZ","country":"الإمارات العربية المتحدة","country_code":"ae"},"osm_type":"relation","osm_id":18471630,"type":"administrative","location":[52.316688,24.4741547],"bbox":[52.2707738,24.4081971,52.3530662,24.5505817]}}
{"name":"ديرة","other_names":{"name:ar":"ديرة","name:en":"Deira","name:he":"דעירה","name:ml":"ദെയ്റ","name:sr":"Деира"},"display_name":"ديرة, دبي, الإمارات العربية المتحدة","address":{"town":"ديرة","state":"دبي","ISO3166-2-lvl4":"AE-DU","country":"الإمارات العربية المتحدة","country_code":"ae"},"osm_type":"node","osm_id":7826901099,"type":"town","location":[55.305334,25.2727936],"bbox":[55.265334,25.2327936,55.345334,25.3127936]}
{"display_name":"رأس الخيمة, الإمارات العربية المتحدة","address":{"state":"رأس الخيمة","ISO3166-2-lvl4":"AE-RK","country":"الإمارات العربية المتحدة","country_code":"ae"},"osm_type":"node","osm_id":10853999307,"type":"town","location":[56.0392475,25.6830097],"bbox":[55.9992475,25.6430097,56.0792475,25.7230097]}
{"display_name":"رأس الخيمة, الإمارات العربية المتحدة","address":{"state":"رأس الخيمة","ISO3166-2-lvl4":"AE-RK","country":"الإمارات العربية المتحدة","country_code":"ae"},"osm_type":"node","osm_id":10840424135,"type":"town","location":[56.0644081,25.382134],"bbox":[56.0244081,25.342134,56.1044081,25.422134]}
{"display_name":"رأس الخيمة, الإمارات العربية المتحدة","address":{"state":"رأس الخيمة","ISO3166-2-lvl4":"AE-RK","country":"الإمارات العربية المتحدة","country_code":"ae"},"osm_type":"node","osm_id":12248423029,"type":"town","location":[56.1207985,24.9909709],"bbox":[56.0807985,24.9509709,56.1607985,25.0309709]}
{"display_name":"رأس الخيمة, الإمارات العربية المتحدة","address":{"state":"رأس الخيمة","ISO3166-2-lvl4":"AE-RK","country":"الإمارات العربية المتحدة","country_code":"ae"},"osm_type":"node","osm_id":11861575762,"type":"town","location":[56.0993682,25.3421817],"bbox":[56.0593682,25.3021817,56.1393682,25.3821817]}
{"name":"رماح","other_names":{"name:ar":"رماح","name:en":"Rimah","name:ml":"റിമാഹ്"},"display_name":"رماح, رِمَاح, العين, أبو ظبي, الإمارات العربية المتحدة","address":{"town":"رماح","city":"رِمَاح","county":"العين","state":"أبو ظبي","ISO3166-2-lvl4":"AE-AZ","country":"الإمارات العربية المتحدة","country_code":"ae"},"osm_type":"node","osm_id":9976881211,"type":"town","location":[55.3123852,24.1066475],"bbox":[55.2723852,24.0666475,55.3523852,24.1466475],"border":{"name":"رِمَاح","other_names":{"name:ar":"رِمَاح","name:en":"Rimah"},"display_name":"رِمَاح, العين, أبو ظبي, الإمارات العربية المتحدة","address":{"city":"رِمَاح","county":"العين","state":"أبو ظبي","ISO3166-2-lvl4":"AE-AZ","country":"الإمارات العربية المتحدة","country_code":"ae"},"osm_type":"relation","osm_id":13251445,"type":"administrative","location":[55.32628056212084,24.1351285],"bbox":[55.1952606,23.9862466,55.4864308,24.2840977]}}
{"name":"رملة سويحان","other_names":{"name:ar":"رملة سويحان","name:en":"Ramlat Sweihan"},"display_name":"رملة سويحان, العين, أبو ظبي, الإمارات العربية المتحدة","address":{"town":"رملة سويحان","county":"العين","state":"أبو ظبي","ISO3166-2-lvl4":"AE-AZ","country":"الإمارات العربية المتحدة","country_code":"ae"},"osm_type":"node","osm_id":9976881210,"type":"town","location":[55.2553926,24.3611726],"bbox":[55.2153926,24.3211726,55.2953926,24.4011726],"border":{"name":"رملة سويحان","other_names":{"name:ar":"رملة سويحان","name:en":"Ramlat Sweihan"},"display_name":"رملة سويحان, العين, أبو ظبي, الإمارات العربية المتحدة","address":{"town":"رملة سويحان","county":"العين","state":"أبو ظبي","ISO3166-2-lvl4":"AE-AZ","country":"الإمارات العربية المتحدة","country_code":"ae"},"osm_type":"relation","osm_id":13251432,"type":"administrative","location":[55.2553926,24.3611726],"bbox":[55.0546749,24.2610495,55.4156821,24.4669157]}}
{"name":"سويحان","other_names":{"name:ar":"سويحان","name:en":"Sweihan","name:es":"Sweihan","name:fr":"Sweihan","name:he":"סוויחאן","name:ml":"സ്വീഹാൻ","alt_name":"Siwēḩān, Swaihan"},"display_name":"سويحان, سوِيحَان, العين, أبو ظبي, الإمارات العربية المتحدة","address":{"town":"سويحان","city":"سوِيحَان","county":"العين","state":"أبو ظبي","ISO3166-2-lvl4":"AE-AZ","country":"الإمارات العربية المتحدة","country_code":"ae"},"osm_type":"node","osm_id":914493080,"type":"town","location":[55.3393223,24.4676071],"bbox":[55.2993223,24.4276071,55.3793223,24.5076071],"border":{"name":"سوِيحَان","other_names":{"name:ar":"سوِيحَان","name:en":"Sweihan"},"display_name":"سوِيحَان, العين, أبو ظبي, الإمارات العربية المتحدة","address":{"city":"سوِيحَان","county":"العين","state":"أبو ظبي","ISO3166-2-lvl4":"AE-AZ","country":"الإمارات العربية المتحدة","country_code":"ae"},"osm_type":"relation","osm_id":13251430,"type":"administrative","location":[55.46774288742435,24.382588050000003],"bbox":[55.3264492,24.2704979,55.5893984,24.5021968]}}
{"name":"شريات","other_names":{"name:ar":"شريات","name:de":"Sharyat","name:en":"Sharyāt","name:es":"Sharyat","name:fr":"Sharyat"},"display_name":"شريات, رأس الخيمة, الإمارات العربية المتحدة","address":{"town":"شريات","state":"رأس الخيمة","ISO3166-2-lvl4":"AE-RK","country":"الإمارات العربية المتحدة","country_code":"ae"},"osm_type":"node","osm_id":10840173354,"type":"town","location":[56.1080106,26.0431126],"bbox":[56.0680106,26.0031126,56.1480106,26.0831126]}
{"name":"شمال","other_names":{"name:ar":"شمال","name:en":"Shimal","name:es":"Shimal","name:fr":"Shimal","alt_name":"Shamal","alt_name:ar":"شمال جلفار"},"display_name":"شمال, رأس الخيمة, الإمارات العربية المتحدة","address":{"town":"شمال","suburb":"شمال","state":"رأس الخيمة","ISO3166-2-lvl4":"AE-RK","country":"الإمارات العربية المتحدة","country_code":"ae"},"osm_type":"node","osm_id":8143186353,"type":"town","location":[56.023364,25.8175473],"bbox":[55.983364,25.7775473,56.063364,25.8575473],"border":{"name":"شمال","other_names":{"name:ar":"شمال","name:en":"Shimal","alt_name":"شمال جلفار","alt_name:ar":"شمال جلفار","name:es":"Shimal","name:fr":"Shimal","_place_alt_name":"Shamal"},"display_name":"شمال, رأس الخيمة, الإمارات العربية المتحدة","address":{"suburb":"شمال","state":"رأس الخيمة","ISO3166-2-lvl4":"AE-RK","country":"الإمارات العربية المتحدة","country_code":"ae"},"osm_type":"relation","osm_id":18471679,"type":"administrative","location":[56.023364,25.8175473],"bbox":[55.995594,25.7914206,56.0380919,25.8409494]}}
{"name":"شيص","other_names":{"name:ar":"شيص","name:de":"Shis","name:en":"Shis","name:es":"Shis","name:fa":"شيص","name:fr":"Shis","name:ur":"شيص","alt_name":"Ash Shīṣ;Shīs;Shees;Shiis","name:azb":"شيص","alt_name:ar":"وادي شيص"},"display_name":"شيص, خورفكان, الشارقة, الإمارات العربية المتحدة","address":{"town":"شيص","city":"خورفكان","state":"الشارقة","ISO3166-2-lvl4":"AE-SH","country":"الإمارات العربية المتحدة","country_code":"ae"},"osm_type":"node","osm_id":5601870113,"type":"town","location":[56.2454992,25.2913835],"bbox":[56.2054992,25.2513835,56.2854992,25.3313835]}
{"name":"ضدنا","other_names":{"name:ar":"ضدنا","name:de":"Dhadna","name:en":"Dhadna","name:es":"Dhadna","name:fr":"Dhadna"},"display_name":"ضدنا, الفجيرة, الإمارات العربية المتحدة","address":{"town":"ضدنا","state":"الفجيرة","ISO3166-2-lvl4":"AE-FU","country":"الإمارات العربية المتحدة","country_code":"ae"},"osm_type":"way","osm_id":872858696,"type":"town","location":[56.33528690004569,25.5424064],"bbox":[56.3039142,25.4984875,56.3705398,25.5855968]}
{"name":"عصب","other_names":{"name:ar":"عصب","name:en":"Asab"},"display_name":"عصب, العزيزة, منطقة الظفرة, أبو ظبي, الإمارات العربية المتحدة","address":{"town":"عصب","county":"منطقة الظفرة","state":"أبو ظبي","ISO3166-2-lvl4":"AE-AZ","country":"الإمارات العربية المتحدة","country_code":"ae"},"osm_type":"node","osm_id":6279392586,"type":"town","location":[54.237206,23.2787084],"bbox":[54.197206,23.2387084,54.277206,23.3187084]}
{"name":"غياثي","other_names":{"name:ar":"غياثي","name:en":"Ghiyathi"},"display_name":"غياثي, غِيَّاثِي, منطقة الظفرة, أبو ظبي, الإمارات العربية المتحدة","address":{"town":"غياثي","city":"غِيَّاثِي","county":"منطقة الظفرة","state":"أبو ظبي","ISO3166-2-lvl4":"AE-AZ","country":"الإمارات العربية المتحدة","country_code":"ae"},"osm_type":"node","osm_id":9976893616,"type":"town","location":[52.7700799,23.8789319],"bbox":[52.7300799,23.8389319,52.8100799,23.9189319],"border":{"name":"غِيَّاثِي","other_names":{"name:ar":"غِيَّاثِي","name:en":"Ghiyathi"},"display_name":"غِيَّاثِي, منطقة الظفرة, أبو ظبي, الإمارات العربية المتحدة","address":{"city":"غِيَّاثِي","county":"منطقة الظفرة","state":"أبو ظبي","ISO3166-2-lvl4":"AE-AZ","country":"الإمارات العربية المتحدة","country_code":"ae"},"osm_type":"relation","osm_id":13251478,"type":"administrative","location":[52.789553452161016,23.88238855],"bbox":[52.6103141,23.6604562,53.096491,24.1022028]}}
{"name":"فلج المعلا","other_names":{"name:ar":"فلج المعلا","name:en":"Falaj Al-Mu'alla","name:es":"Falaj Al-Mu'alla","name:fa":"فلج المعلا","name:fr":"Falaj Al-Mu'alla","name:ml":"ഫലജ് അൽ മുഅല്ല","name:ur":"فلج المعلا","alt_name":"Falaj Al Ma'allā, Falaj Al Ma'alla, Falaj Ibn Mu’allá"},"display_name":"فلج المعلا, أم القيوين, الإمارات العربية المتحدة","address":{"town":"فلج المعلا","state":"أم القيوين","ISO3166-2-lvl4":"AE-UQ","country":"الإمارات العربية المتحدة","country_code":"ae"},"osm_type":"node","osm_id":1334295200,"type":"town","location":[55.8537346,25.350317],"bbox":[55.8137346,25.310317,55.8937346,25.390317]}
{"name":"قدفع","other_names":{"name:ar":"قدفع","name:en":"Qidfa"},"display_name":"قدفع, الفجيرة, الإمارات العربية المتحدة","address":{"town":"قدفع","state":"الفجيرة","ISO3166-2-lvl4":"AE-FU","country":"الإمارات العربية المتحدة","country_code":"ae"},"osm_type":"way","osm_id":872858693,"type":"town","location":[56.36257397820416,25.3015219],"bbox":[56.3462507,25.2804622,56.3810187,25.3262107]}
{"name":"قرية النحوة القديمة","other_names":{"name:ar":"قرية النحوة القديمة","name:de":"Alter Weiler von Nahwa","name:en":"Al Nahwa Old Hamlet","name:es":"Aldea vieja de Nahwa","name:fr":"Ancien hameau de Nahwa","name:ml":"പഴയ നഹ്വ","alt_name":"Sha'biyyāt Nahwā;Nahawa;Nahwa;Nahwā;Nahwah;Al Nahwa;Nahwá;Naḩwah,"},"display_name":"قرية النحوة القديمة, خورفكان, الشارقة, الإمارات العربية المتحدة","address":{"town":"قرية النحوة القديمة","city":"خورفكان","state":"الشارقة","ISO3166-2-lvl4":"AE-SH","country":"الإمارات العربية المتحدة","country_code":"ae"},"osm_type":"node","osm_id":10853472892,"type":"town","location":[56.2804859,25.2684208],"bbox":[56.2404859,25.2284208,56.3204859,25.3084208]}
{"name":"قرية","other_names":{"name:ar":"قرية","name:en":"Qurayyah"},"display_name":"قرية, الفجيرة, الإمارات العربية المتحدة","address":{"town":"قرية","state":"الفجيرة","ISO3166-2-lvl4":"AE-FU","country":"الإمارات العربية المتحدة","country_code":"ae"},"osm_type":"node","osm_id":8128209868,"type":"town","location":[56.3606357,25.2606875],"bbox":[56.3206357,25.2206875,56.4006357,25.3006875],"border":{"name":"قرية","other_names":{"name:ar":"قرية","name:en":"Qurayyah"},"display_name":"قرية, الفجيرة, الإمارات العربية المتحدة","address":{"town":"قرية","state":"الفجيرة","ISO3166-2-lvl4":"AE-FU","country":"الإمارات العربية المتحدة","country_code":"ae"},"osm_type":"way","osm_id":872858706,"type":"town","location":[56.3606357,25.2606875],"bbox":[56.3458513,25.2470352,56.3744457,25.270214]}}
{"name":"قريطيسه","other_names":{"name:ar":"قريطيسه","name:en":"Qaraytaysah","name:es":"Qaraytaysah","name:fr":"Qaraytaysah","name:ml":"ഖറൈതൈസ","alt_name":"Qraitish;Qaraytaysah;Qarayţaysah"},"display_name":"قريطيسه, دبي, الإمارات العربية المتحدة","address":{"town":"قريطيسه","state":"دبي","ISO3166-2-lvl4":"AE-DU","country":"الإمارات العربية المتحدة","country_code":"ae"},"osm_type":"node","osm_id":3649765991,"type":"town","location":[55.5495944,24.8694567],"bbox":[55.5095944,24.8294567,55.5895944,24.9094567]}
{"name":"قفعة","other_names":{"name:ar":"قفعة","name:en":"Qaf'a","name:es":"Qaf'a","name:fr":"Qaf'a","alt_name":"Qaf’ah"},"display_name":"قفعة, رأس الخيمة, الإمارات العربية المتحدة","address":{"town":"قفعة","state":"رأس الخيمة","ISO3166-2-lvl4":"AE-RK","country":"الإمارات العربية المتحدة","country_code":"ae"},"osm_type":"node","osm_id":10840124200,"type":"town","location":[56.1092976,26.0382154],"bbox":[56.0692976,25.9982154,56.1492976,26.0782154]}
{"name":"لهباب","other_names":{"name:ar":"لهباب","name:en":"Lahbab","name:ml":"ലഹ്ബാബ്","name:sr":"Лахбаб","name:ur":"لہباب"},"display_name":"لهباب, دبي, الإمارات العربية المتحدة","address":{"town":"لهباب","state":"دبي","ISO3166-2-lvl4":"AE-DU","country":"الإمارات العربية المتحدة","country_code":"ae"},"osm_type":"node","osm_id":1487267662,"type":"town","location":[55.5923766,25.0415422],"bbox":[55.5523766,25.0015422,55.6323766,25.0815422]}
{"name":"ليوا","other_names":{"name:ar":"ليوا","name:en":"Liwa","name:uk":"Ліва","name:ar1":"ليوا الغربية"},"display_name":"ليوا, مْزِيرْعَة, منطقة الظفرة, أبو ظبي, الإمارات العربية المتحدة","address":{"town":"ليوا","city":"مْزِيرْعَة","county":"منطقة الظفرة","state":"أبو ظبي","ISO3166-2-lvl4":"AE-AZ","country":"الإمارات العربية المتحدة","country_code":"ae"},"osm_type":"node","osm_id":1253986403,"type":"town","location":[53.7881048,23.1358335],"bbox":[53.7481048,23.0958335,53.8281048,23.1758335]}
{"name":"مخيرز","other_names":{"name:ar":"مخيرز","name:en":"Mkhayriz"},"display_name":"مخيرز, مْخَيرِز, منطقة الظفرة, أبو ظبي, الإمارات العربية المتحدة","address":{"town":"مخيرز","city":"مْخَيرِز","county":"منطقة الظفرة","state":"أبو ظبي","ISO3166-2-lvl4":"AE-AZ","country":"الإمارات العربية المتحدة","country_code":"ae"},"osm_type":"node","osm_id":9976911324,"type":"town","location":[53.0213914,23.0607811],"bbox":[52.9813914,23.0207811,53.0613914,23.1007811],"border":{"name":"مْخَيرِز","other_names":{"name:ar":"مْخَيرِز","name:en":"Mkhayriz"},"display_name":"مْخَيرِز, منطقة الظفرة, أبو ظبي, الإمارات العربية المتحدة","address":{"city":"مْخَيرِز","county":"منطقة الظفرة","state":"أبو ظبي","ISO3166-2-lvl4":"AE-AZ","country":"الإمارات العربية المتحدة","country_code":"ae"},"osm_type":"relation","osm_id":13251503,"type":"administrative","location":[53.061140794042075,23.1174222],"bbox":[52.5810404,22.8753546,53.3963612,23.358932]}}
{"name":"مدينة زايد","other_names":{"name:ar":"مدينة زايد","name:en":"Zayed City","name:fa":"مدینه زاید","name:he":"מדינת זיידה","name:ml":"സായിദ് സിറ്റി","name:ur":"مدینہ زائد"},"display_name":"مدينة زايد, منطقة الظفرة, أبو ظبي, الإمارات العربية المتحدة","address":{"town":"مدينة زايد","county":"منطقة الظفرة","state":"أبو ظبي","ISO3166-2-lvl4":"AE-AZ","country":"الإمارات العربية المتحدة","country_code":"ae"},"osm_type":"node","osm_id":1192612011,"type":"town","location":[53.7019687,23.6515354],"bbox":[53.6619687,23.6115354,53.7419687,23.6915354],"border":[{"name":"Zayed City","other_names":{"name:ar":"مدينة زايد","name:en":"Zayed City"},"display_name":"Zayed City, منطقة الظفرة, أبو ظبي, الإمارات العربية المتحدة","address":{"town":"Zayed City","county":"منطقة الظفرة","state":"أبو ظبي","ISO3166-2-lvl4":"AE-AZ","country":"الإمارات العربية المتحدة","country_code":"ae"},"osm_type":"way","osm_id":872506070,"type":"town","location":[53.734455790296224,23.60165035],"bbox":[53.5565676,23.4462512,53.9014214,23.7903196]},{"name":"مدينة زايد","other_names":{"name:ar":"مدينة زايد","name:en":"Zayed City","name:fa":"مدینه زاید","name:he":"מדינת זיידה","name:ml":"സായിദ് സിറ്റി","name:ur":"مدینہ زائد"},"display_name":"مدينة زايد, منطقة الظفرة, أبو ظبي, الإمارات العربية المتحدة","address":{"town":"مدينة زايد","county":"منطقة الظفرة","state":"أبو ظبي","ISO3166-2-lvl4":"AE-AZ","country":"الإمارات العربية المتحدة","country_code":"ae"},"osm_type":"relation","osm_id":13251490,"type":"administrative","location":[53.7019687,23.6515354],"bbox":[53.4755796,23.3855781,53.890995,23.7314418]}]}
{"name":"مربح","other_names":{"name:ar":"مربح","name:en":"Mirbah","name:es":"Mirbah","name:fr":"Mirbah","alt_name":"Sha'biyyāt Mirbah"},"display_name":"مربح, الفجيرة, الإمارات العربية المتحدة","address":{"town":"مربح","state":"الفجيرة","ISO3166-2-lvl4":"AE-FU","country":"الإمارات العربية المتحدة","country_code":"ae"},"osm_type":"way","osm_id":872858703,"type":"town","location":[56.359032535146966,25.278174749999998],"bbox":[56.3452237,25.2678159,56.3738673,25.2887716]}
{"name":"مزيرعة","other_names":{"name:ar":"مزيرعة","name:en":"Mzeerʻah"},"display_name":"مزيرعة, مْزِيرْعَة, منطقة الظفرة, أبو ظبي, الإمارات العربية المتحدة","address":{"town":"مزيرعة","city":"مْزِيرْعَة","county":"منطقة الظفرة","state":"أبو ظبي","ISO3166-2-lvl4":"AE-AZ","country":"الإمارات العربية المتحدة","country_code":"ae"},"osm_type":"node","osm_id":9976911327,"type":"town","location":[53.7794488,23.0974185],"bbox":[53.7394488,23.0574185,53.8194488,23.1374185],"border":{"name":"مْزِيرْعَة","other_names":{"name:ar":"مْزِيرْعَة","name:en":"Mzeerʻah"},"display_name":"مْزِيرْعَة, منطقة الظفرة, أبو ظبي, الإمارات العربية المتحدة","address":{"city":"مْزِيرْعَة","county":"منطقة الظفرة","state":"أبو ظبي","ISO3166-2-lvl4":"AE-AZ","country":"الإمارات العربية المتحدة","country_code":"ae"},"osm_type":"relation","osm_id":13251501,"type":"administrative","location":[53.79265006989423,23.09347345],"bbox":[53.6774958,22.976357,53.9460796,23.2117909]}}
{"name":"ميداق","other_names":{"name:ar":"ميداق","name:de":"Maidaq","name:en":"Maydaq","name:es":"Maidaq","name:fa":"میداق","name:fr":"Maidaq","name:ur":"میداق","alt_name":"Madaq, Madāq, Maidaq, Maydaq","name:azb":"میداق"},"display_name":"ميداق, الفجيرة, الإمارات العربية المتحدة","address":{"town":"ميداق","state":"الفجيرة","ISO3166-2-lvl4":"AE-FU","country":"الإمارات العربية المتحدة","country_code":"ae"},"osm_type":"node","osm_id":5614905199,"type":"town","location":[56.1050263,25.3375509],"bbox":[56.0650263,25.2975509,56.1450263,25.3775509]}
{"name":"ناهل","other_names":{"name:ar":"ناهل","name:en":"Nahil","name:ml":"നാഹിൽ"},"display_name":"ناهل, نَاهِل, العين, أبو ظبي, الإمارات العربية المتحدة","address":{"town":"ناهل","city":"نَاهِل","county":"العين","state":"أبو ظبي","ISO3166-2-lvl4":"AE-AZ","country":"الإمارات العربية المتحدة","country_code":"ae"},"osm_type":"node","osm_id":914484895,"type":"town","location":[55.4880997,24.5039738],"bbox":[55.4480997,24.4639738,55.5280997,24.5439738],"border":{"name":"نَاهِل","other_names":{"name:ar":"نَاهِل","name:en":"Nahil"},"display_name":"نَاهِل, العين, أبو ظبي, الإمارات العربية المتحدة","address":{"city":"نَاهِل","county":"العين","state":"أبو ظبي","ISO3166-2-lvl4":"AE-AZ","country":"الإمارات العربية المتحدة","country_code":"ae"},"osm_type":"relation","osm_id":13251428,"type":"administrative","location":[55.534205864886374,24.479374],"bbox":[55.4353583,24.3698944,55.6655388,24.588541]}}
{"name":"نزوى","other_names":{"name:ar":"نزوى","name:de":"Nazwa","name:en":"Nazwa","name:es":"Nazwa","name:fr":"Nazwa","name:ml":"നസ്വ","name:sr":"Назва","alt_name":"Nazwā;Tawi Nazwa;Tawi Nezwa;Tawi Nizwa;Ţawī Nazwá;Ţāwī Nezwa"},"display_name":"نزوى, دبي, الإمارات العربية المتحدة","address":{"town":"نزوى","state":"دبي","ISO3166-2-lvl4":"AE-DU","country":"الإمارات العربية المتحدة","country_code":"ae"},"osm_type":"node","osm_id":1487267663,"type":"town","location":[55.6617278,25.0052995],"bbox":[55.6217278,24.9652995,55.7017278,25.0452995]}
{"name":"نقا الذيب","other_names":{"name:ar":"نقا الذيب","name:en":"Niqa Al Dheeb"},"display_name":"نقا الذيب, نقا الذِّيب, العين, أبو ظبي, الإمارات العربية المتحدة","address":{"town":"نقا الذيب","city":"نقا الذِّيب","county":"العين","state":"أبو ظبي","ISO3166-2-lvl4":"AE-AZ","country":"الإمارات العربية المتحدة","country_code":"ae"},"osm_type":"node","osm_id":9976881209,"type":"town","location":[55.1784893,24.4740256],"bbox":[55.1384893,24.4340256,55.2184893,24.5140256],"border":{"name":"نقا الذِّيب","other_names":{"name:ar":"نقا الذِّيب","name:en":"Niqa Al Dheeb"},"display_name":"نقا الذِّيب, العين, أبو ظبي, الإمارات العربية المتحدة","address":{"city":"نقا الذِّيب","county":"العين","state":"أبو ظبي","ISO3166-2-lvl4":"AE-AZ","country":"الإمارات العربية المتحدة","country_code":"ae"},"osm_type":"relation","osm_id":13251431,"type":"administrative","location":[55.183637207925344,24.50806235],"bbox":[55.0287247,24.411411,55.3264492,24.6014186]}}
{"name":"ود ويد","other_names":{"name:ar":"ود ويد","name:en":"Wad Wid","name:es":"Wad Wid","name:ru":"Wад Wид"},"display_name":"ود ويد, Khatt خت, رأس الخيمة, الإمارات العربية المتحدة","address":{"town":"ود ويد","city":"Khatt خت","state":"رأس الخيمة","ISO3166-2-lvl4":"AE-RK","country":"الإمارات العربية المتحدة","country_code":"ae"},"osm_type":"node","osm_id":1583581170,"type":"town","location":[56.013964,25.625149],"bbox":[55.973964,25.585149,56.053964,25.665149]}
{"name":"يو الغدر","other_names":{"name:ar":"يو الغدر","name:en":"Yaw Al Ghadar"},"display_name":"يو الغدر, يَو الغَدَر, منطقة الظفرة, أبو ظبي, الإمارات العربية المتحدة","address":{"town":"يو الغدر","city":"يَو الغَدَر","county":"منطقة الظفرة","state":"أبو ظبي","ISO3166-2-lvl4":"AE-AZ","country":"الإمارات العربية المتحدة","country_code":"ae"},"osm_type":"node","osm_id":9976911317,"type":"town","location":[52.5146478,23.9693137],"bbox":[52.4746478,23.9293137,52.5546478,24.0093137],"border":{"name":"يَو الغَدَر","other_names":{"name:ar":"يَو الغَدَر","name:en":"Yaw Al Ghadar"},"display_name":"يَو الغَدَر, منطقة الظفرة, أبو ظبي, الإمارات العربية المتحدة","address":{"city":"يَو الغَدَر","county":"منطقة الظفرة","state":"أبو ظبي","ISO3166-2-lvl4":"AE-AZ","country":"الإمارات العربية المتحدة","country_code":"ae"},"osm_type":"relation","osm_id":13251507,"type":"administrative","location":[52.53898737918904,23.96268595],"bbox":[52.4504038,23.8872255,52.6121816,24.0434283]}}
{"name":"يو النظرة","other_names":{"name:ar":"يو النظرة","name:en":"Yaw Al Nadhrah"},"display_name":"يو النظرة, يَوْ النَّظْرَة, منطقة الظفرة, أبو ظبي, الإمارات العربية المتحدة","address":{"town":"يو النظرة","city":"يَوْ النَّظْرَة","county":"منطقة الظفرة","state":"أبو ظبي","ISO3166-2-lvl4":"AE-AZ","country":"الإمارات العربية المتحدة","country_code":"ae"},"osm_type":"node","osm_id":9976911322,"type":"town","location":[52.731627,23.5111091],"bbox":[52.691627,23.4711091,52.771627,23.5511091],"border":{"name":"يَوْ النَّظْرَة","other_names":{"name:ar":"يَوْ النَّظْرَة","name:en":"Yaw Al Nadhrah"},"display_name":"يَوْ النَّظْرَة, منطقة الظفرة, أبو ظبي, الإمارات العربية المتحدة","address":{"city":"يَوْ النَّظْرَة","county":"منطقة الظفرة","state":"أبو ظبي","ISO3166-2-lvl4":"AE-AZ","country":"الإمارات العربية المتحدة","country_code":"ae"},"osm_type":"relation","osm_id":13251505,"type":"administrative","location":[52.75219300629395,23.50642925],"bbox":[52.482556,23.2649128,53.1173314,23.7626304]}}
