{"name":"‘Arādah","display_name":"‘Arādah, المحاضر الغربية, منطقة الظفرة, أبو ظبي, الإمارات العربية المتحدة","address":{"village":"‘Arādah","town":"المحاضر الغربية","county":"منطقة الظفرة","state":"أبو ظبي","ISO3166-2-lvl4":"AE-AZ","country":"الإمارات العربية المتحدة","country_code":"ae"},"osm_type":"node","osm_id":9968776330,"type":"village","location":[53.4232596,23.0021945],"bbox":[53.4032596,22.9821945,53.4432596,23.0221945]}
{"name":"ADCO BAC Habshan","other_names":{"name:ar":"ADCO BAC Habshan","name:en":"ADCO BAC Habshan"},"display_name":"ADCO BAC Habshan, حَبْشَان, منطقة الظفرة, أبو ظبي, الإمارات العربية المتحدة","address":{"village":"ADCO BAC Habshan","city":"حَبْشَان","county":"منطقة الظفرة","state":"أبو ظبي","ISO3166-2-lvl4":"AE-AZ","country":"الإمارات العربية المتحدة","country_code":"ae"},"osm_type":"node","osm_id":4339386800,"type":"village","location":[53.5642418,23.7805598],"bbox":[53.5442418,23.7605598,53.5842418,23.8005598]}
{"name":"Adhan اذن","other_names":{"name:ar":"اذن","name:en":"Adhan","name:es":"Adhan","name:fr":"Adhan","alt_name":"Idhn;Idhen;Adhen"},"display_name":"Adhan اذن, رأس الخيمة, الإمارات العربية المتحدة","address":{"village":"Adhan اذن","state":"رأس الخيمة","ISO3166-2-lvl4":"AE-RK","country":"الإمارات العربية المتحدة","country_code":"ae"},"osm_type":"node","osm_id":2386418484,"type":"village","location":[55.9947649,25.4638326],"bbox":[55.9747649,25.4438326,56.0147649,25.4838326]}
{"name":"Aflaj","other_names":{"name:ar":"افلاج","name:en":"Aflaj"},"display_name":"Aflaj, العين, أبو ظبي, الإمارات العربية المتحدة","address":{"village":"Aflaj","county":"العين","state":"أبو ظبي","ISO3166-2-lvl4":"AE-AZ","country":"الإمارات العربية المتحدة","country_code":"ae"},"osm_type":"way","osm_id":854517388,"type":"village","location":[55.8143740584904,24.17276975],"bbox":[55.7919173,24.1489535,55.8810299,24.1965554]}
{"name":"Al ain Al Fiyada","other_names":{"name:ar":"العين الفايضة","name:en":"Al ain Al Fiyada","name:ckb":"عەین فازیە"},"display_name":"Al ain Al Fiyada, العين, أبو ظبي, الإمارات العربية المتحدة","address":{"village":"Al ain Al Fiyada","county":"العين","state":"أبو ظبي","ISO3166-2-lvl4":"AE-AZ","country":"الإمارات العربية المتحدة","country_code":"ae"},"osm_type":"way","osm_id":854517408,"type":"village","location":[55.709052674990446,24.082227699999997],"bbox":[55.6877867,24.060807,55.7281242,24.1040189]}
{"name":"Al Baha الباحة","other_names":{"name:ar":"الباحة","name:en":"Al Baha"},"display_name":"Al Baha الباحة, الفجيرة, الإمارات العربية المتحدة","address":{"village":"Al Baha الباحة","state":"الفجيرة","ISO3166-2-lvl4":"AE-FU","country":"الإمارات العربية المتحدة","country_code":"ae"},"osm_type":"node","osm_id":5857156496,"type":"village","location":[56.1666369,25.3851504],"bbox":[56.1466369,25.3651504,56.1866369,25.4051504]}
{"name":"Al Bithnah البثنة","other_names":{"name:ar":"البثنة","name:de":"Al Bithna","name:en":"Al Bithnah","name:es":"Al Bithnah","name:fa":"بثنه","name:fr":"Al Bithnah","alt_name":"Al Bithnah, Bithna, Bithnah, Bitnah, Biţnah","name:azb":"بثنه"},"display_name":"Al Bithnah البثنة, الفجيرة, الإمارات العربية المتحدة","address":{"village":"Al Bithnah البثنة","state":"الفجيرة","ISO3166-2-lvl4":"AE-FU","country":"الإمارات العربية المتحدة","country_code":"ae"},"osm_type":"node","osm_id":5490723797,"type":"village","location":[56.2347543,25.1902628],"bbox":[56.2147543,25.1702628,56.2547543,25.2102628]}
{"name":"Al Ejili","other_names":{"name:ar":"Al Ejili","name:en":"Al Ejili","name:es":"Al Ejili","name:fr":"Al Ejili","alt_name":"Sha'biyyah Al 'Ijе̄lī;Al 'Ijе̄lī;Al Ijeli;Al Ejili;Al Ejeili"},"display_name":"Al Ejili, رأس الخيمة, الإمارات العربية المتحدة","address":{"village":"Al Ejili","state":"رأس الخيمة","ISO3166-2-lvl4":"AE-RK","country":"الإمارات العربية المتحدة","country_code":"ae"},"osm_type":"way","osm_id":1262523996,"type":"village","location":[56.15196580406274,25.040805900000002],"bbox":[56.1452779,25.0355287,56.1561428,25.0464116]}
{"name":"Al Fara‘","other_names":{"name:ar":"Al Fara‘","name:en":"Al Fara‘","name:es":"Al Fara‘"},"display_name":"Al Fara‘, الفجيرة, الإمارات العربية المتحدة","address":{"village":"Al Fara‘","state":"الفجيرة","ISO3166-2-lvl4":"AE-FU","country":"الإمارات العربية المتحدة","country_code":"ae"},"osm_type":"node","osm_id":10693723013,"type":"village","location":[56.0910192,25.4140971],"bbox":[56.0710192,25.3940971,56.1110192,25.4340971]}
{"name":"Al Feriya","other_names":{"name:ar":"الفرية","name:en":"Al Feriya","name:es":"Al Feriya","name:fr":"Al Feriya","alt_name":"Al Faryah"},"display_name":"Al Feriya, رأس الخيمة, الإمارات العربية المتحدة","address":{"village":"Al Feriya","state":"رأس الخيمة","ISO3166-2-lvl4":"AE-RK","country":"الإمارات العربية المتحدة","country_code":"ae"},"osm_type":"node","osm_id":11583898364,"type":"village","location":[56.0382749,25.777879],"bbox":[56.0182749,25.757879,56.0582749,25.797879]}
{"name":"Al Ghizaimri","other_names":{"name:ar":"الغزيمرى","name:de":"Al Ghizaimri","name:en":"Al Ghizaimri","name:es":"Al Ghizaimri","name:fr":"Al Ghizaimri","alt_name":"Al Gizemri;Al Ghizaimri;Sha'biyyat Lighzēmrī;Lighzēmrī;Lighzemri;Al Gissemari"},"display_name":"Al Ghizaimri, الفجيرة, الإمارات العربية المتحدة","address":{"village":"Al Ghizaimri","state":"الفجيرة","ISO3166-2-lvl4":"AE-FU","country":"الإمارات العربية المتحدة","country_code":"ae"},"osm_type":"node","osm_id":5492669086,"type":"village","location":[56.2406424,25.1493955],"bbox":[56.2206424,25.1293955,56.2606424,25.1693955]}
{"name":"Al Ghunah الغونة","other_names":{"name:ar":"الغونة","name:de":"Al Ghunah","name:en":"Al Ghūnah","name:es":"Al Ghunah","name:fr":"Al Ghunah","alt_name":"Al Ghunah;Al Ghūnah;Al Ghuna;Ghuna;Ghunah;Al Ghonah;Al Ghona","alt_name:en":"Al Ghona"},"display_name":"Al Ghunah الغونة, الفجيرة, الإمارات العربية المتحدة","address":{"village":"Al Ghunah الغونة","state":"الفجيرة","ISO3166-2-lvl4":"AE-FU","country":"الإمارات العربية المتحدة","country_code":"ae"},"osm_type":"node","osm_id":6503790052,"type":"village","location":[56.1871367,25.4145035],"bbox":[56.1671367,25.3945035,56.2071367,25.4345035]}
{"name":"Al Hayir الحاير","other_names":{"name:ar":"الحاير","name:de":"Al Hayir","name:en":"Al Hayir","name:es":"Al Hayir","name:fr":"Al Hayir","alt_name":"Al Hayir;Al Ḩāyir;Al Ḥāyir"},"display_name":"Al Hayir الحاير, رأس الخيمة, الإمارات العربية المتحدة","address":{"village":"Al Hayir الحاير","state":"رأس الخيمة","ISO3166-2-lvl4":"AE-RK","country":"الإمارات العربية المتحدة","country_code":"ae"},"osm_type":"node","osm_id":7008871335,"type":"village","location":[56.0829504,25.985374],"bbox":[56.0629504,25.965374,56.1029504,26.005374]}
{"name":"Al Jaroof - الجروف","other_names":{"name:ar":"الجروف","name:de":"Al Jaroof","name:en":"Al Jaroof","name:es":"Al Jaroof","name:fr":"Al Jaroof","alt_name":"Sha'biyyat Al Yaruf;Al-Yaruuf","int_name":"Al Jaroof"},"display_name":"Al Jaroof - الجروف, الفجيرة, الإمارات العربية المتحدة","address":{"village":"Al Jaroof - الجروف","state":"الفجيرة","ISO3166-2-lvl4":"AE-FU","country":"الإمارات العربية المتحدة","country_code":"ae"},"osm_type":"node","osm_id":5714880180,"type":"village","location":[56.1371648,25.4823216],"bbox":[56.1171648,25.4623216,56.1571648,25.5023216]}
{"name":"Al jazeera heritage village","display_name":"Al jazeera heritage village, رأس الخيمة, الإمارات العربية المتحدة","address":{"village":"Al jazeera heritage village","state":"رأس الخيمة","ISO3166-2-lvl4":"AE-RK","country":"الإمارات العربية المتحدة","country_code":"ae"},"osm_type":"node","osm_id":12042955509,"type":"village","location":[55.7971989,25.7083985],"bbox":[55.7771989,25.6883985,55.8171989,25.7283985]}
{"name":"Al Khalabiya الخليبية","other_names":{"name:ar":"الخليبية","name:de":"Al Khalabiya","name:en":"Al Khalabiya","name:es":"Al Khalabiya","name:fr":"Al Khalabiya"},"display_name":"Al Khalabiya الخليبية, الفجيرة, الإمارات العربية المتحدة","address":{"village":"Al Khalabiya الخليبية","state":"الفجيرة","ISO3166-2-lvl4":"AE-FU","country":"الإمارات العربية المتحدة","country_code":"ae"},"osm_type":"node","osm_id":5619053537,"type":"village","location":[56.1717063,25.3812587],"bbox":[56.1517063,25.3612587,56.1917063,25.4012587]}
{"name":"Al Khashfah","other_names":{"name:ar":"Al Khashfah","name:en":"Al Khashfah","name:es":"Al Khashfah"},"display_name":"Al Khashfah, رأس الخيمة, الإمارات العربية المتحدة","address":{"village":"Al Khashfah","state":"رأس الخيمة","ISO3166-2-lvl4":"AE-RK","country":"الإمارات العربية المتحدة","country_code":"ae"},"osm_type":"node","osm_id":10693108418,"type":"village","location":[56.1366906,26.0282123],"bbox":[56.1166906,26.0082123,56.1566906,26.0482123]}
{"name":"Al Khirayr","other_names":{"name:ae":"الخرير","name:ar":"Al Khirayr","name:en":"Al Khirayr","name:ckb":"خەریر"},"display_name":"Al Khirayr, العين, أبو ظبي, الإمارات العربية المتحدة","address":{"village":"Al Khirayr","county":"العين","state":"أبو ظبي","ISO3166-2-lvl4":"AE-AZ","country":"الإمارات العربية المتحدة","country_code":"ae"},"osm_type":"way","osm_id":854517420,"type":"village","location":[55.849040039257176,24.1365755],"bbox":[55.8022462,24.1104445,55.9015653,24.1655861],"border":{"name":"الخِرَيْر","other_names":{"name:ar":"الخِرَيْر","name:en":"Al Khirayr"},"display_name":"الخِرَيْر, العين, أبو ظبي, الإمارات العربية المتحدة","address":{"city":"الخِرَيْر","county":"العين","state":"أبو ظبي","ISO3166-2-lvl4":"AE-AZ","country":"الإمارات العربية المتحدة","country_code":"ae"},"osm_type":"relation","osm_id":13251396,"type":"administrative","location":[55.848981388938824,24.1368723],"bbox":[55.8030149,24.1104362,55.9021721,24.1646587]}}
{"name":"Al Mutaredh","other_names":{"name:ar":"Al Mutaredh","name:en":"Al Mutaredh","name:ckb":"موتاریز"},"display_name":"Al Mutaredh, العين, أبو ظبي, الإمارات العربية المتحدة","address":{"village":"Al Mutaredh","county":"العين","state":"أبو ظبي","ISO3166-2-lvl4":"AE-AZ","country":"الإمارات العربية المتحدة","country_code":"ae"},"osm_type":"way","osm_id":224823333,"type":"village","location":[55.74187249946249,24.2216692],"bbox":[55.7300627,24.2031268,55.7532841,24.2399253]}
{"name":"Al Rimmani الرماني","other_names":{"name:ar":"الرماني","name:de":"Al Rimmani","name:en":"Al Rimmani","name:es":"Al Rimmani","name:fr":"Al Rimmani"},"display_name":"Al Rimmani الرماني, الفجيرة, الإمارات العربية المتحدة","address":{"village":"Al Rimmani الرماني","state":"الفجيرة","ISO3166-2-lvl4":"AE-FU","country":"الإمارات العربية المتحدة","country_code":"ae"},"osm_type":"node","osm_id":5840177682,"type":"village","location":[56.2004757,25.2287607],"bbox":[56.1804757,25.2087607,56.2204757,25.2487607]}
{"name":"Al Salamat","other_names":{"name:ar":"السلامات","name:en":"Al Salamat","name:ckb":"سەلامات"},"display_name":"Al Salamat, العين, أبو ظبي, الإمارات العربية المتحدة","address":{"village":"Al Salamat","county":"العين","state":"أبو ظبي","ISO3166-2-lvl4":"AE-AZ","country":"الإمارات العربية المتحدة","country_code":"ae"},"osm_type":"way","osm_id":854517416,"type":"village","location":[55.54142744223708,24.17198815],"bbox":[55.4791024,24.1153732,55.6202966,24.2284015],"border":{"name":"السَّلاَمَات","other_names":{"name:ar":"السَّلاَمَات","name:en":"Al Salamat"},"display_name":"السَّلاَمَات, العين, أبو ظبي, الإمارات العربية المتحدة","address":{"city":"السَّلاَمَات","county":"العين","state":"أبو ظبي","ISO3166-2-lvl4":"AE-AZ","country":"الإمارات العربية المتحدة","country_code":"ae"},"osm_type":"relation","osm_id":13251437,"type":"administrative","location":[55.55936414039894,24.183252850000002],"bbox":[55.4779883,24.130868,55.6240107,24.2342114]}}
{"name":"Al Sharyah","other_names":{"name:ar":"Al Sharyah","name:en":"Al Sharyah","name:es":"Al Sharyah","name:fr":"Al Sharyah"},"display_name":"Al Sharyah, الفجيرة, الإمارات العربية المتحدة","address":{"village":"Al Sharyah","state":"الفجيرة","ISO3166-2-lvl4":"AE-FU","country":"الإمارات العربية المتحدة","country_code":"ae"},"osm_type":"node","osm_id":12504242499,"type":"village","location":[56.1461234,25.61078],"bbox":[56.1261234,25.59078,56.1661234,25.63078]}
{"name":"Al Subaygha","other_names":{"name:ar":"الصبيغه","name:en":"Al Subaygha","name:es":"Al Subaygha","name:fr":"Al Subaygha"},"display_name":"Al Subaygha, إمارة عجمان, الإمارات العربية المتحدة","address":{"village":"Al Subaygha","state":"إمارة عجمان","ISO3166-2-lvl4":"AE-AJ","country":"الإمارات العربية المتحدة","country_code":"ae"},"osm_type":"node","osm_id":6144727686,"type":"village","location":[55.9889741,24.876963],"bbox":[55.9689741,24.856963,56.0089741,24.896963]}
{"name":"Al Tayyibah الطيبة","other_names":{"name:ar":"الطيبة","name:de":"Al Taiba","name:en":"Al Tayyibah","name:es":"Al Tayyibah","name:fr":"Al Tayyibah","alt_name":"Taiyibah;Tayibah;Tayiban;Tayyibah;Ţayyibah"},"display_name":"Al Tayyibah الطيبة, الفجيرة, الإمارات العربية المتحدة","address":{"village":"Al Tayyibah الطيبة","state":"الفجيرة","ISO3166-2-lvl4":"AE-FU","country":"الإمارات العربية المتحدة","country_code":"ae"},"osm_type":"node","osm_id":2386338009,"type":"village","location":[56.1614049,25.3968221],"bbox":[56.1414049,25.3768221,56.1814049,25.4168221]}
{"name":"Al Uqdah","other_names":{"name:ar":"Al Uqdah","name:en":"Al Uqdah","name:es":"Al Uqdah","name:fr":"Al Uqdah","alt_name":"Al Aqdah;Al 'Uqdah"},"display_name":"Al Uqdah, الفجيرة, الإمارات العربية المتحدة","address":{"village":"Al Uqdah","state":"الفجيرة","ISO3166-2-lvl4":"AE-FU","country":"الإمارات العربية المتحدة","country_code":"ae"},"osm_type":"node","osm_id":5699350808,"type":"village","location":[56.2753569,25.0229013],"bbox":[56.2553569,25.0029013,56.2953569,25.0429013]}
{"name":"Al Uyaynah العوينة","other_names":{"name:ar":"العوينة","name:de":"Ayaina","name:en":"Al Uyaynah","name:es":"Al Uyaynah","name:fr":"Al Uyaynah","alt_name":"Al `Uyaynah;Al ‘Uyaynah, Ayaina;`Uyaynah;‘Uyaynah"},"display_name":"Al Uyaynah العوينة, الفجيرة, الإمارات العربية المتحدة","address":{"village":"Al Uyaynah العوينة","state":"الفجيرة","ISO3166-2-lvl4":"AE-FU","country":"الإمارات العربية المتحدة","country_code":"ae"},"osm_type":"node","osm_id":2386418486,"type":"village","location":[56.1684447,25.4530085],"bbox":[56.1484447,25.4330085,56.1884447,25.4730085]}
{"name":"Al-Madam Ghost Town","other_names":{"name:ar":"Al-Madam Ghost Town","name:en":"Ghost Town"},"display_name":"Al-Madam Ghost Town, المدام, الشارقة, الإمارات العربية المتحدة","address":{"village":"Al-Madam Ghost Town","city":"المدام","state":"الشارقة","ISO3166-2-lvl4":"AE-SH","country":"الإمارات العربية المتحدة","country_code":"ae"},"osm_type":"node","osm_id":4470260975,"type":"village","location":[55.7641645,24.8945391],"bbox":[55.7441645,24.8745391,55.7841645,24.9145391]}
{"name":"Ayim - العيم","other_names":{"name:ar":"العيم","name:en":"Ayim","name:es":"Ayim","name:fr":"Ayim","alt_name:en":"Ayim"},"display_name":"Ayim - العيم, رأس الخيمة, الإمارات العربية المتحدة","address":{"village":"Ayim - العيم","state":"رأس الخيمة","ISO3166-2-lvl4":"AE-RK","country":"الإمارات العربية المتحدة","country_code":"ae"},"osm_type":"node","osm_id":5714856842,"type":"village","location":[56.0581684,25.4459098],"bbox":[56.0381684,25.4259098,56.0781684,25.4659098]}
{"name":"Bulaidha البليدة","other_names":{"name:ar":"البليدة","name:de":"Bulaidha","name:en":"Bulaidha","name:es":"Bulaidha","name:fr":"Bulaidha","alt_name":"Bilaida;Bilaidah;Bulaidha;Bulaydah"},"display_name":"Bulaidha البليدة, الفجيرة, الإمارات العربية المتحدة","address":{"village":"Bulaidha البليدة","state":"الفجيرة","ISO3166-2-lvl4":"AE-FU","country":"الإمارات العربية المتحدة","country_code":"ae"},"osm_type":"node","osm_id":5492689026,"type":"village","location":[56.2021864,25.2238403],"bbox":[56.1821864,25.2038403,56.2221864,25.2438403]}
{"name":"Esfai","other_names":{"name:ar":"اِصفي","name:en":"Esfai","name:es":"Esfai","name:fr":"Esfai","alt_name":"Isfay;Sfai;Esfai"},"display_name":"Esfai, رأس الخيمة, الإمارات العربية المتحدة","address":{"village":"Esfai","state":"رأس الخيمة","ISO3166-2-lvl4":"AE-RK","country":"الإمارات العربية المتحدة","country_code":"ae"},"osm_type":"node","osm_id":5573883977,"type":"village","location":[56.1414961,25.1101015],"bbox":[56.1214961,25.0901015,56.1614961,25.1301015]}
{"name":"Esfini","other_names":{"name:ar":"اصفني","name:en":"Esfini","name:es":"Esfini","name:fr":"Esfini","alt_name":"Sifuni;Sifni;Esfini;Sfuni;Sha'biyyāt Işfany;Işfany;شعبية إصفني"},"display_name":"Esfini, رأس الخيمة, الإمارات العربية المتحدة","address":{"village":"Esfini","state":"رأس الخيمة","ISO3166-2-lvl4":"AE-RK","country":"الإمارات العربية المتحدة","country_code":"ae"},"osm_type":"node","osm_id":5573962861,"type":"village","location":[56.0959072,25.1703223],"bbox":[56.0759072,25.1503223,56.1159072,25.1903223]}
{"name":"Fashrah","other_names":{"name:ar":"Fashrah","name:en":"Fashrah","name:es":"Fashrah","name:fr":"Fashrah","alt_name":"Fashrah;Fashra;Al Fashqah;Fashqah"},"display_name":"Fashrah, رأس الخيمة, الإمارات العربية المتحدة","address":{"village":"Fashrah","state":"رأس الخيمة","ISO3166-2-lvl4":"AE-RK","country":"الإمارات العربية المتحدة","country_code":"ae"},"osm_type":"node","osm_id":5712979577,"type":"village","location":[56.2053895,24.8839352],"bbox":[56.1853895,24.8639352,56.2253895,24.9039352]}
{"name":"Fayyad","other_names":{"name:ar":"Fayyad","name:en":"Fayyad","name:es":"Fayyad","name:fr":"Fayyad","alt_name":"Al Faiyada;Faiyada;Fayyad;Fayyadah;Fayyāḑ;Fayyāḑah;Shabiat Al Haseen"},"display_name":"Fayyad, Kalba كلباء, الشارقة, الإمارات العربية المتحدة","address":{"village":"Fayyad","city":"Kalba كلباء","state":"الشارقة","ISO3166-2-lvl4":"AE-SH","country":"الإمارات العربية المتحدة","country_code":"ae"},"osm_type":"node","osm_id":5700213569,"type":"village","location":[56.2065213,24.9574883],"bbox":[56.1865213,24.9374883,56.2265213,24.9774883]}
{"name":"Ghadf","other_names":{"name:ar":"Ghadf","name:en":"Ghadf","name:es":"Ghadf","name:fr":"Ghadf","alt_name":"Ghadaf;Al Ghadf"},"display_name":"Ghadf, الفجيرة, الإمارات العربية المتحدة","address":{"village":"Ghadf","state":"الفجيرة","ISO3166-2-lvl4":"AE-FU","country":"الإمارات العربية المتحدة","country_code":"ae"},"osm_type":"node","osm_id":5617074739,"type":"village","location":[56.172764,25.2842589],"bbox":[56.152764,25.2642589,56.192764,25.3042589]}
{"name":"Ghubbat Khawrah","other_names":{"name:ar":"Ghubbat Khawrah","name:en":"Ghubbat Khawrah","name:es":"Ghubbat Khawrah","name:fr":"Ghubbat Khawrah","alt_name":"Ghubbat Khawarah"},"display_name":"Ghubbat Khawrah, رأس الخيمة, الإمارات العربية المتحدة","address":{"village":"Ghubbat Khawrah","state":"رأس الخيمة","ISO3166-2-lvl4":"AE-RK","country":"الإمارات العربية المتحدة","country_code":"ae"},"osm_type":"node","osm_id":12475174013,"type":"village","location":[56.1329922,26.0428781],"bbox":[56.1129922,26.0228781,56.1529922,26.0628781]}
{"display_name":"Grayteesah, قريطيسه, دبي, الإمارات العربية المتحدة","address":{"suburb":"Grayteesah","town":"قريطيسه","state":"دبي","ISO3166-2-lvl4":"AE-DU","country":"الإمارات العربية المتحدة","country_code":"ae"},"osm_type":"way","osm_id":360430330,"type":"village","location":[55.53752885346591,24.887468650000002],"bbox":[55.5344706,24.8855218,55.5396746,24.889476]}
{"name":"Habhab - حبحب","other_names":{"name:ar":"حبحب","name:de":"Habhab","name:en":"Habhab","name:es":"Habhab","name:fa":"حبحب","name:fr":"Habhab","name:ur":"ہب ہب","alt_name":"Ḩabḩab","name:azb":"حبحب"},"display_name":"Habhab - حبحب, حبحب, رأس الخيمة, الإمارات العربية المتحدة","address":{"village":"Habhab - حبحب","state":"رأس الخيمة","ISO3166-2-lvl4":"AE-RK","country":"الإمارات العربية المتحدة","country_code":"ae"},"osm_type":"node","osm_id":5759479250,"type":"village","location":[56.0000186,25.6073501],"bbox":[55.9800186,25.5873501,56.0200186,25.6273501]}
{"name":"Halhal - حلحل","other_names":{"name:ar":"حلحل","name:en":"Halhal","name:es":"Halhal","name:fr":"Halhal"},"display_name":"Halhal - حلحل, رأس الخيمة, الإمارات العربية المتحدة","address":{"village":"Halhal - حلحل","state":"رأس الخيمة","ISO3166-2-lvl4":"AE-RK","country":"الإمارات العربية المتحدة","country_code":"ae"},"osm_type":"node","osm_id":10648428470,"type":"village","location":[56.1055997,25.9596756],"bbox":[56.0855997,25.9396756,56.1255997,25.9796756]}
{"name":"Hiyar","other_names":{"name:ar":"Hiyar","name:en":"Hiyar","name:es":"Hiyar","name:fr":"Hiyar"},"display_name":"Hiyar, الفجيرة, الإمارات العربية المتحدة","address":{"village":"Hiyar","state":"الفجيرة","ISO3166-2-lvl4":"AE-FU","country":"الإمارات العربية المتحدة","country_code":"ae"},"osm_type":"node","osm_id":12318008283,"type":"village","location":[56.117166,25.5647967],"bbox":[56.097166,25.5447967,56.137166,25.5847967]}
{"name":"Huwaylat الحويلات","other_names":{"name:ar":"الحويلات","name:de":"Huwaylat","name:en":"Huwaylat","name:es":"Huwaylat","name:fa":"الحویلات","name:fr":"Huwaylat"},"display_name":"Huwaylat الحويلات, رأس الخيمة, الإمارات العربية المتحدة","address":{"village":"Huwaylat الحويلات","state":"رأس الخيمة","ISO3166-2-lvl4":"AE-RK","country":"الإمارات العربية المتحدة","country_code":"ae"},"osm_type":"node","osm_id":5712979576,"type":"village","location":[56.1714489,24.8818523],"bbox":[56.1514489,24.8618523,56.1914489,24.9018523]}
{"name":"Jareef جريف","other_names":{"name:ar":"جريف","name:de":"Jareef","name:en":"Jerief","name:es":"Jareef","name:fr":"Jareef","alt_name":"Al Jareef;Al Jerief;Al Jireef;Jerief;Jareef","alt_name:ar":"الجريف","alt_name:en":"Jareef"},"display_name":"Jareef جريف, الفجيرة, الإمارات العربية المتحدة","address":{"village":"Jareef جريف","state":"الفجيرة","ISO3166-2-lvl4":"AE-FU","country":"الإمارات العربية المتحدة","country_code":"ae"},"osm_type":"node","osm_id":5951106571,"type":"village","location":[56.0724894,25.5148721],"bbox":[56.0524894,25.4948721,56.0924894,25.5348721]}
{"name":"Kabdah كبده","other_names":{"name:ar":"كبده","name:de":"Kabdah","name:en":"Kabdah","name:es":"Kabdah","name:fr":"Kabdah","alt_name":"Kebdah"},"display_name":"Kabdah كبده, رأس الخيمة, الإمارات العربية المتحدة","address":{"village":"Kabdah كبده","state":"رأس الخيمة","ISO3166-2-lvl4":"AE-RK","country":"الإمارات العربية المتحدة","country_code":"ae"},"osm_type":"node","osm_id":7008102484,"type":"village","location":[56.0635462,25.9126344],"bbox":[56.0435462,25.8926344,56.0835462,25.9326344]}
{"name":"Kadrah","other_names":{"name:ar":"كدرة","name:de":"Kadrah","name:en":"Kadrah","name:es":"Kadrah","name:fr":"Kadrah","alt_name":"Kadra;Kadrah;Khadra;Khaḑrā’;Sha'biyyat Kadrah"},"display_name":"Kadrah, رأس الخيمة, الإمارات العربية المتحدة","address":{"village":"Kadrah","state":"رأس الخيمة","ISO3166-2-lvl4":"AE-RK","country":"الإمارات العربية المتحدة","country_code":"ae"},"osm_type":"node","osm_id":5612143852,"type":"village","location":[56.0032439,25.1901305],"bbox":[55.9832439,25.1701305,56.0232439,25.2101305]}
{"display_name":"Kalba كلباء, الشارقة, الإمارات العربية المتحدة","address":{"city":"Kalba كلباء","state":"الشارقة","ISO3166-2-lvl4":"AE-SH","country":"الإمارات العربية المتحدة","country_code":"ae"},"osm_type":"node","osm_id":5884570768,"type":"village","location":[56.1972483,24.9650679],"bbox":[56.1772483,24.9450679,56.2172483,24.9850679]}
{"name":"Khabb","other_names":{"name:ar":"Khabb","name:en":"Khabb","name:es":"Khabb","name:fr":"Khabb"},"display_name":"Khabb, رأس الخيمة, الإمارات العربية المتحدة","address":{"village":"Khabb","state":"رأس الخيمة","ISO3166-2-lvl4":"AE-RK","country":"الإمارات العربية المتحدة","country_code":"ae"},"osm_type":"node","osm_id":11547100701,"type":"village","location":[56.1469627,25.9934957],"bbox":[56.1269627,25.9734957,56.1669627,26.0134957]}
{"name":"Kub كوب","other_names":{"name:ar":"كوب","name:de":"Kub","name:en":"Kub","name:es":"Kub","name:fr":"Kub","name:ml":"കൂബ്"},"display_name":"Kub كوب, رأس الخيمة, الإمارات العربية المتحدة","address":{"village":"Kub كوب","state":"رأس الخيمة","ISO3166-2-lvl4":"AE-RK","country":"الإمارات العربية المتحدة","country_code":"ae"},"osm_type":"node","osm_id":5714880181,"type":"village","location":[56.0830057,25.4729849],"bbox":[56.0630057,25.4529849,56.1030057,25.4929849]}
{"name":"Madouk مدوك","other_names":{"name:ar":"مدوك","name:de":"Madouk","name:en":"Madouk","name:es":"Madouk","name:fr":"Madouk"},"display_name":"Madouk مدوك, الفجيرة, الإمارات العربية المتحدة","address":{"village":"Madouk مدوك","state":"الفجيرة","ISO3166-2-lvl4":"AE-FU","country":"الإمارات العربية المتحدة","country_code":"ae"},"osm_type":"node","osm_id":8009660120,"type":"village","location":[56.2199646,25.1408461],"bbox":[56.1999646,25.1208461,56.2399646,25.1608461]}
{"name":"Maḩḑah Al Yabbānah","other_names":{"name:ar":"Maḩḑah Al Yabbānah","name:en":"Maḩḑah Al Yabbānah","name:es":"Maḩḑah Al Yabbānah","name:fr":"Maḩḑah Al Yabbānah","alt_name":"Mahdah Al Yabbanah"},"display_name":"Maḩḑah Al Yabbānah, المحاضر الشرقية, منطقة الظفرة, أبو ظبي, الإمارات العربية المتحدة","address":{"village":"Maḩḑah Al Yabbānah","town":"المحاضر الشرقية","county":"منطقة الظفرة","state":"أبو ظبي","ISO3166-2-lvl4":"AE-AZ","country":"الإمارات العربية المتحدة","country_code":"ae"},"osm_type":"way","osm_id":121650346,"type":"village","location":[54.0752932497179,23.06542015],"bbox":[54.0562064,23.0593267,54.0792529,23.0714258]}
{"name":"Mamduh","other_names":{"name:ar":"شعبية ممدوح","name:en":"Mamduh","name:es":"Mamduh","name:fr":"Mamduh","alt_name":"Sha'biyyah Mamdūḩ;Mamduh;Mamdūḩ"},"display_name":"Mamduh, رأس الخيمة, الإمارات العربية المتحدة","address":{"village":"Mamduh","state":"رأس الخيمة","ISO3166-2-lvl4":"AE-RK","country":"الإمارات العربية المتحدة","country_code":"ae"},"osm_type":"node","osm_id":5572777679,"type":"village","location":[56.1318863,25.1664958],"bbox":[56.1118863,25.1464958,56.1518863,25.1864958]}
{"name":"Marbad مربض","other_names":{"name:ar":"مربض","name:de":"Marbad","name:en":"Marbad","name:fr":"Marbad","alt_name":"Marbad, Murbad, Murbaḑ","alt_name:en":"Murbad"},"display_name":"Marbad مربض, Marbad, الفجيرة, الإمارات العربية المتحدة","address":{"village":"Marbad مربض","state":"الفجيرة","ISO3166-2-lvl4":"AE-FU","country":"الإمارات العربية المتحدة","country_code":"ae"},"osm_type":"node","osm_id":5953367917,"type":"village","location":[56.1311138,25.3213638],"bbox":[56.1111138,25.3013638,56.1511138,25.3413638]}
{"name":"Margham","other_names":{"name:ar":"مرغم","name:en":"Margham","name:es":"Margham","name:fr":"Margham","alt_name":"Murgham;Sha'biyyat Murgham"},"display_name":"Margham, دبي, الإمارات العربية المتحدة","address":{"village":"Margham","state":"دبي","ISO3166-2-lvl4":"AE-DU","country":"الإمارات العربية المتحدة","country_code":"ae"},"osm_type":"node","osm_id":1487267661,"type":"village","location":[55.6254536,24.899518],"bbox":[55.6054536,24.879518,55.6454536,24.919518],"border":{"name":"مرغم","other_names":{"name:ar":"مرغم","name:en":"Margham"},"display_name":"مرغم, دبي, الإمارات العربية المتحدة","address":{"suburb":"مرغم","state":"دبي","ISO3166-2-lvl4":"AE-DU","country":"الإمارات العربية المتحدة","country_code":"ae"},"osm_type":"relation","osm_id":18471845,"type":"administrative","location":[55.5940388,24.9454275],"bbox":[55.4943572,24.8758383,55.6612871,25.0231192]}}
{"name":"Mawrid","other_names":{"name:ar":"Mawrid","name:en":"Mawrid","name:es":"Mawrid","name:fr":"Mawrid"},"display_name":"Mawrid, الفجيرة, الإمارات العربية المتحدة","address":{"village":"Mawrid","state":"الفجيرة","ISO3166-2-lvl4":"AE-FU","country":"الإمارات العربية المتحدة","country_code":"ae"},"osm_type":"node","osm_id":5933844327,"type":"village","location":[56.118679,25.4343417],"bbox":[56.098679,25.4143417,56.138679,25.4543417]}
{"name":"Mayya","other_names":{"name:ar":"قَرْيَة ٱلْمِيَة","name:en":"Mayya","name:es":"Mayya","name:fr":"Mayya","alt_name":"Mayyah;Al-Mayah;Al Mayah;Mayya"},"display_name":"Mayya, الفجيرة, الإمارات العربية المتحدة","address":{"village":"Mayya","state":"الفجيرة","ISO3166-2-lvl4":"AE-FU","country":"الإمارات العربية المتحدة","country_code":"ae"},"osm_type":"node","osm_id":11838422692,"type":"village","location":[56.114296,25.6069867],"bbox":[56.094296,25.5869867,56.134296,25.6269867]}
{"name":"Munay المنيعي","other_names":{"name:ar":"المنيعي","name:en":"Munay","name:es":"Munay","name:fa":"مونای","name:fr":"Munay","name:ml":"മുനയീ","alt_name":"Manai;Manai'i;Manai’i;Munay`i;Munay‘ī;Sha'biyyat Al Minē'ī"},"display_name":"Munay المنيعي, رأس الخيمة, الإمارات العربية المتحدة","address":{"village":"Munay المنيعي","state":"رأس الخيمة","ISO3166-2-lvl4":"AE-RK","country":"الإمارات العربية المتحدة","country_code":"ae"},"osm_type":"node","osm_id":5713026025,"type":"village","location":[56.1492937,24.9511364],"bbox":[56.1292937,24.9311364,56.1692937,24.9711364]}
{"name":"Musseili","other_names":{"name:ar":"مصيلي","name:es":"Musseili","name:fr":"Musseili","alt_name":"Al Musally;Musseili;Al Mussili;Massili","alt_name:en":"Musseili"},"display_name":"Musseili, رأس الخيمة, الإمارات العربية المتحدة","address":{"village":"Musseili","state":"رأس الخيمة","ISO3166-2-lvl4":"AE-RK","country":"الإمارات العربية المتحدة","country_code":"ae"},"osm_type":"node","osm_id":6503812681,"type":"village","location":[56.0170991,25.0357052],"bbox":[55.9970991,25.0157052,56.0370991,25.0557052]}
{"name":"Orange Grove","other_names":{"name:ar":"Orange Grove","name:en":"Orange Grove"},"display_name":"Orange Grove, دبي, الإمارات العربية المتحدة","address":{"village":"Orange Grove","state":"دبي","ISO3166-2-lvl4":"AE-DU","country":"الإمارات العربية المتحدة","country_code":"ae"},"osm_type":"way","osm_id":360197403,"type":"administrative","location":[55.20763919011641,25.02531145],"bbox":[55.2059188,25.0244347,55.2087497,25.0265523],"inferred_type":"village"}
{"name":"Rahbah","other_names":{"name:ar":"Rahbah","name:en":"Rahbah","name:es":"Rahbah","name:fr":"Rahbah","alt_name":"Raḩbah"},"display_name":"Rahbah, رأس الخيمة, الإمارات العربية المتحدة","address":{"village":"Rahbah","state":"رأس الخيمة","ISO3166-2-lvl4":"AE-RK","country":"الإمارات العربية المتحدة","country_code":"ae"},"osm_type":"node","osm_id":5018676864,"type":"village","location":[56.0677562,25.9295925],"bbox":[56.0477562,25.9095925,56.0877562,25.9495925]}
{"name":"Ramlah","other_names":{"name:ar":"Ramlah","name:de":"Ramlah","name:fr":"Ramlah","alt_name":"Ramla;Ramlā"},"display_name":"Ramlah, رأس الخيمة, الإمارات العربية المتحدة","address":{"village":"Ramlah","state":"رأس الخيمة","ISO3166-2-lvl4":"AE-RK","country":"الإمارات العربية المتحدة","country_code":"ae"},"osm_type":"node","osm_id":5614905195,"type":"village","location":[56.0446624,25.3618997],"bbox":[56.0246624,25.3418997,56.0646624,25.3818997]}
{"name":"Ras Khumais","other_names":{"name:ar":"Ras Khumais","name:en":"Ras Khumais"},"display_name":"Ras Khumais, رأس غُمِيس, منطقة الظفرة, أبو ظبي, الإمارات العربية المتحدة","address":{"village":"Ras Khumais","city":"رأس غُمِيس","county":"منطقة الظفرة","state":"أبو ظبي","ISO3166-2-lvl4":"AE-AZ","country":"الإمارات العربية المتحدة","country_code":"ae"},"osm_type":"node","osm_id":1937613663,"type":"village","location":[51.5767193,24.3838152],"bbox":[51.5567193,24.3638152,51.5967193,24.4038152]}
{"name":"Rima","other_names":{"name:ar":"Rima","name:en":"Rima","name:es":"Rima","name:fr":"Rima","alt_name":"Rimá"},"display_name":"Rima, رأس الخيمة, الإمارات العربية المتحدة","address":{"village":"Rima","state":"رأس الخيمة","ISO3166-2-lvl4":"AE-RK","country":"الإمارات العربية المتحدة","country_code":"ae"},"osm_type":"node","osm_id":5616718025,"type":"village","location":[56.1169138,25.1700656],"bbox":[56.0969138,25.1500656,56.1369138,25.1900656]}
{"name":"Riyamah - ربامة","other_names":{"name:ar":"ربامة","name:de":"Riyama","name:en":"Riyamah","name:es":"Riyama","name:fr":"Riyama","name:ml":"റിയാമ","alt_name":"Riyama;Riyamah;Riyāmah"},"display_name":"Riyamah - ربامة, الفجيرة, الإمارات العربية المتحدة","address":{"village":"Riyamah - ربامة","state":"الفجيرة","ISO3166-2-lvl4":"AE-FU","country":"الإمارات العربية المتحدة","country_code":"ae"},"osm_type":"node","osm_id":5614905194,"type":"village","location":[56.0580307,25.5460432],"bbox":[56.0380307,25.5260432,56.0780307,25.5660432]}
{"name":"Rul Dadna رول ضدنا","other_names":{"name:ar":"رول ضدنا","name:de":"Rol Ḍadnā","name:en":"Rul Dadna","name:es":"Rul Dadna","name:fr":"Rul Dadna","name:ru":"Рул Дадна","alt_name":"Rol Ḍadnā;Rul Dhadna;Rul Dadnah;Rol Dadnah;Rol Ḍadnah;Rūl Ḑadnah;Rūl Ḑadnā","alt_name:ru":"Рул Дгадна;Рул Даднаг;Рол Даднаг"},"display_name":"Rul Dadna رول ضدنا, الفجيرة, الإمارات العربية المتحدة","address":{"village":"Rul Dadna رول ضدنا","state":"الفجيرة","ISO3166-2-lvl4":"AE-FU","country":"الإمارات العربية المتحدة","country_code":"ae"},"osm_type":"node","osm_id":1583597492,"type":"village","location":[56.3451317,25.5543775],"bbox":[56.3251317,25.5343775,56.3651317,25.5743775]}
{"name":"Sa'if","other_names":{"name:ar":"Sa'if","name:en":"Sa'if","name:es":"Sa'if","name:fr":"Sa'if","alt_name":"Sā’if"},"display_name":"Sa'if, الفجيرة, الإمارات العربية المتحدة","address":{"village":"Sa'if","state":"الفجيرة","ISO3166-2-lvl4":"AE-FU","country":"الإمارات العربية المتحدة","country_code":"ae"},"osm_type":"node","osm_id":10836211852,"type":"village","location":[56.2412594,25.1839621],"bbox":[56.2212594,25.1639621,56.2612594,25.2039621]}
{"name":"Safad Al Qrayyah","other_names":{"name:ar":"Safad Al Qrayyah","name:en":"Safad Al Qrayyah","name:es":"Safad Al Qrayyah","name:fr":"Safad Al Qrayyah","alt_name":"Şafad"},"display_name":"Safad Al Qrayyah, الفجيرة, الإمارات العربية المتحدة","address":{"village":"Safad Al Qrayyah","state":"الفجيرة","ISO3166-2-lvl4":"AE-FU","country":"الإمارات العربية المتحدة","country_code":"ae"},"osm_type":"node","osm_id":11593976694,"type":"village","location":[56.3230797,25.2229774],"bbox":[56.3030797,25.2029774,56.3430797,25.2429774]}
{"name":"Sanaiya Industrial","other_names":{"name:ar":"Sanaiya Industrial","name:en":"Sanaiya Industrial"},"display_name":"Sanaiya Industrial, المنطقة الصناعية, العين, أبو ظبي, الإمارات العربية المتحدة","address":{"village":"Sanaiya Industrial","city":"المنطقة الصناعية","county":"العين","state":"أبو ظبي","ISO3166-2-lvl4":"AE-AZ","country":"الإمارات العربية المتحدة","country_code":"ae"},"osm_type":"way","osm_id":224819052,"type":"village","location":[55.76004625094656,24.1925162],"bbox":[55.7506606,24.187646,55.7683876,24.1969134]}
{"name":"Saram - الصرم","other_names":{"name:ar":"الصرم","name:de":"Saram","name:en":"Saram","name:es":"Saram","name:fr":"Saram"},"display_name":"Saram - الصرم, الفجيرة, الإمارات العربية المتحدة","address":{"village":"Saram - الصرم","state":"الفجيرة","ISO3166-2-lvl4":"AE-FU","country":"الإمارات العربية المتحدة","country_code":"ae"},"osm_type":"node","osm_id":6049302965,"type":"village","location":[56.0312146,25.4988295],"bbox":[56.0112146,25.4788295,56.0512146,25.5188295]}
{"name":"Sha‘bīyat Naslah","other_names":{"name:ar":"النصلة","name:de":"Al Nasla","name:en":"Al Naslah","name:es":"Al Naslah","name:fr":"Al Naslah","alt_name":"Al-Naslah;Al-Naṣlah;An Naslah;An Naşlah;Nasla;Naslah;Naşlah, Nuslah, Sha`biyat Naslah;Sha‘bīyat Naşlah"},"display_name":"Sha‘bīyat Naslah, رأس الخيمة, الإمارات العربية المتحدة","address":{"village":"Sha‘bīyat Naslah","state":"رأس الخيمة","ISO3166-2-lvl4":"AE-RK","country":"الإمارات العربية المتحدة","country_code":"ae"},"osm_type":"node","osm_id":6780547801,"type":"village","location":[56.2606302,24.866096],"bbox":[56.2406302,24.846096,56.2806302,24.886096]}
{"name":"Sha'biyyah Waḩala","other_names":{"name:ar":"اوحلة","name:de":"Wahala","name:en":"Sha'biyyah Waḩala","name:es":"Sha'biyyah Waḩala","name:fr":"Sha'biyyah Waḩala","alt_name":"Sha'biyyah Waḩala;Wahala;Wahlah;Waḩlah","alt_name:ar":"الشركة العامة, Sha'biyyah Waḩala"},"display_name":"Sha'biyyah Waḩala, رأس الخيمة, الإمارات العربية المتحدة","address":{"village":"Sha'biyyah Waḩala","state":"رأس الخيمة","ISO3166-2-lvl4":"AE-RK","country":"الإمارات العربية المتحدة","country_code":"ae"},"osm_type":"node","osm_id":5712970311,"type":"village","location":[56.3025498,24.9088389],"bbox":[56.2825498,24.8888389,56.3225498,24.9288389]}
{"name":"Sha'biyyat Al Ḥе̄l الحيل","other_names":{"name:ar":"الحيل","name:en":"Al Hayl","name:es":"Al Hayl","alt_name":"Hail;Hayl;Ḩayl;Al Heel;Sha'biyyat Al Ḥе̄l","alt_name:en":"Al Heel"},"display_name":"Sha'biyyat Al Ḥе̄l الحيل, الفجيرة, الإمارات العربية المتحدة","address":{"village":"Sha'biyyat Al Ḥе̄l الحيل","state":"الفجيرة","ISO3166-2-lvl4":"AE-FU","country":"الإمارات العربية المتحدة","country_code":"ae"},"osm_type":"node","osm_id":1641518201,"type":"village","location":[56.2438916,25.0925302],"bbox":[56.2238916,25.0725302,56.2638916,25.1125302]}
{"name":"Sha'biyyat Al Qilē'ī","other_names":{"name:ar":"Sha'biyyat Al Qilē'ī","name:en":"Sha'biyyat Al Qilē'ī","name:es":"Sha'biyyat Al Qilē'ī","name:fr":"Sha'biyyat Al Qilē'ī","alt_name":"Sha'biyyat Al Qilē'ī;Al Qulaiee;Shabiat Al Qulaiee"},"display_name":"Sha'biyyat Al Qilē'ī, Kalba كلباء, الشارقة, الإمارات العربية المتحدة","address":{"village":"Sha'biyyat Al Qilē'ī","city":"Kalba كلباء","state":"الشارقة","ISO3166-2-lvl4":"AE-SH","country":"الإمارات العربية المتحدة","country_code":"ae"},"osm_type":"node","osm_id":5884570766,"type":"village","location":[56.2049409,24.9428654],"bbox":[56.1849409,24.9228654,56.2249409,24.9628654]}
{"name":"Sha'biyyat Al Qor","other_names":{"name:ar":"القور","name:de":"Al Qor","name:en":"Al Qor","name:es":"Al Qor","name:fr":"Al Qor","alt_name":"Al Qur;Al Qawr;Quor;Qur;Qūr;Sha'biyyat Al Qor"},"display_name":"Sha'biyyat Al Qor, رأس الخيمة, الإمارات العربية المتحدة","address":{"village":"Sha'biyyat Al Qor","state":"رأس الخيمة","ISO3166-2-lvl4":"AE-RK","country":"الإمارات العربية المتحدة","country_code":"ae"},"osm_type":"node","osm_id":5713026022,"type":"village","location":[56.0950112,24.9123322],"bbox":[56.0750112,24.8923322,56.1150112,24.9323322]}
{"name":"Sha'biyyat Al Wa'ab","other_names":{"name:ar":"شعبية الوعب‎","name:en":"Sha'biyyat Al Wa'ab","name:es":"Sha'biyyat Al Wa'ab","name:fr":"Sha'biyyat Al Wa'ab","alt_name":"Al Waab;Alwaab;Shabiyat Al Waab;Sha'biyya al-Wa'ab"},"display_name":"Sha'biyyat Al Wa'ab, رأس الخيمة, الإمارات العربية المتحدة","address":{"village":"Sha'biyyat Al Wa'ab","state":"رأس الخيمة","ISO3166-2-lvl4":"AE-RK","country":"الإمارات العربية المتحدة","country_code":"ae"},"osm_type":"node","osm_id":12853411067,"type":"village","location":[56.1587765,24.9286039],"bbox":[56.1387765,24.9086039,56.1787765,24.9486039]}
{"name":"Sha'biyyat Milāḩ","other_names":{"name:ar":"Sha'biyyat Milāḩ","name:en":"Sha'biyyat Milāḩ","name:es":"Sha'biyyat Milāḩ","name:fr":"Sha'biyyat Milāḩ","alt_name":"Milāḩ;Milah;Melah;Melha"},"display_name":"Sha'biyyat Milāḩ, رأس الخيمة, الإمارات العربية المتحدة","address":{"village":"Sha'biyyat Milāḩ","state":"رأس الخيمة","ISO3166-2-lvl4":"AE-RK","country":"الإمارات العربية المتحدة","country_code":"ae"},"osm_type":"node","osm_id":7772435055,"type":"village","location":[56.1201516,24.915553],"bbox":[56.1001516,24.895553,56.1401516,24.935553]}
{"name":"Sha'biyyāt Rāfāq","other_names":{"name:ar":"رافاق","name:de":"Sha'biyyāt Rāfāq","name:en":"Sha'biyyāt Rāfāq","name:es":"Sha'biyyāt Rāfāq","name:fa":"رافاق","name:fr":"Sha'biyyāt Rāfāq","alt_name":"Sha'biyyāt Rāfāq;Rafaq;Rāfāq","name:arz":"رافاق"},"display_name":"Sha'biyyāt Rāfāq, رأس الخيمة, الإمارات العربية المتحدة","address":{"village":"Sha'biyyāt Rāfāq","state":"رأس الخيمة","ISO3166-2-lvl4":"AE-RK","country":"الإمارات العربية المتحدة","country_code":"ae"},"osm_type":"node","osm_id":5712979578,"type":"village","location":[56.2456709,24.8755976],"bbox":[56.2256709,24.8555976,56.2656709,24.8955976]}
{"name":"Sha'biyyat Sikhе̄bar","other_names":{"name:ar":"صخيبر","name:en":"Sha'biyyat Sikhе̄bar","name:es":"Sha'biyyat Sikhе̄bar","name:fr":"Sha'biyyat Sikhе̄bar","alt_name":"Skhibar;Sha'biyyat Sikhе̄bar;Sikhе̄bar;صخيبر;Sikhebar;Suhaybah"},"display_name":"Sha'biyyat Sikhе̄bar, رأس الخيمة, الإمارات العربية المتحدة","address":{"village":"Sha'biyyat Sikhе̄bar","state":"رأس الخيمة","ISO3166-2-lvl4":"AE-RK","country":"الإمارات العربية المتحدة","country_code":"ae"},"osm_type":"node","osm_id":12328238283,"type":"village","location":[56.1692732,24.926814],"bbox":[56.1492732,24.906814,56.1892732,24.946814]}
{"name":"Shakh","other_names":{"name:ar":"Shakh","name:en":"Shakh","name:es":"Shakh","name:fr":"Shakh"},"display_name":"Shakh, الفجيرة, الإمارات العربية المتحدة","address":{"village":"Shakh","state":"الفجيرة","ISO3166-2-lvl4":"AE-FU","country":"الإمارات العربية المتحدة","country_code":"ae"},"osm_type":"node","osm_id":10860558494,"type":"village","location":[56.1479807,25.5878105],"bbox":[56.1279807,25.5678105,56.1679807,25.6078105]}
{"name":"Sidr - السدر","other_names":{"name:ar":"السدر","name:de":"Sidr","name:en":"Sidr","name:es":"Sidr","name:fr":"Sidr"},"display_name":"Sidr - السدر, الفجيرة, الإمارات العربية المتحدة","address":{"village":"Sidr - السدر","state":"الفجيرة","ISO3166-2-lvl4":"AE-FU","country":"الإمارات العربية المتحدة","country_code":"ae"},"osm_type":"node","osm_id":5714914376,"type":"village","location":[56.1306739,25.4491165],"bbox":[56.1106739,25.4291165,56.1506739,25.4691165]}
{"name":"Siji","other_names":{"name:ar":"السيجي","name:en":"Siji","name:es":"Siji","name:fr":"Siji","alt_name":"Al Seeji;Siji;Sījī;Tawi Siji;Tawi as Siji;Ţawī as Sījī"},"display_name":"Siji, الفجيرة, الإمارات العربية المتحدة","address":{"village":"Siji","state":"الفجيرة","ISO3166-2-lvl4":"AE-FU","country":"الإمارات العربية المتحدة","country_code":"ae"},"osm_type":"node","osm_id":5561591055,"type":"village","location":[56.0771659,25.2469421],"bbox":[56.0571659,25.2269421,56.0971659,25.2669421]}
{"name":"Suhaylah - سهيلة","other_names":{"name:ar":"سهيلة","name:de":"Suhaila","name:en":"Suhaylah","name:es":"Suhaylah","name:fr":"Suhaylah","name:ml":"സുഹൈല","alt_name":"Suhaila;Suhaylah;Suhayla;Suheila"},"display_name":"Suhaylah - سهيلة, دبي, الإمارات العربية المتحدة","address":{"village":"Suhaylah - سهيلة","state":"دبي","ISO3166-2-lvl4":"AE-DU","country":"الإمارات العربية المتحدة","country_code":"ae"},"osm_type":"node","osm_id":5951094171,"type":"village","location":[56.1825798,24.8081236],"bbox":[56.1625798,24.7881236,56.2025798,24.8281236]}
{"name":"Suhе̄lah سهيلة","other_names":{"name:ar":"سهيلة","name:de":"Suhе̄lah","name:en":"Suhе̄lah","name:es":"Suhе̄lah","name:fr":"Suhе̄lah","alt_name":"Suhila;Suhaila"},"display_name":"Suhе̄lah سهيلة, الذيد, الشارقة, الإمارات العربية المتحدة","address":{"village":"Suhе̄lah سهيلة","city":"الذيد","state":"الشارقة","ISO3166-2-lvl4":"AE-SH","country":"الإمارات العربية المتحدة","country_code":"ae"},"osm_type":"node","osm_id":6012396841,"type":"village","location":[55.9589041,25.3581144],"bbox":[55.9389041,25.3381144,55.9789041,25.3781144]}
{"name":"Tawi Ghadaya","other_names":{"name:ar":"Tawi Ghadaya","name:en":"Tawi Ghadaya"},"display_name":"Tawi Ghadaya, المدام, الشارقة, الإمارات العربية المتحدة","address":{"village":"Tawi Ghadaya","city":"المدام","state":"الشارقة","ISO3166-2-lvl4":"AE-SH","country":"الإمارات العربية المتحدة","country_code":"ae"},"osm_type":"node","osm_id":4621312760,"type":"village","location":[55.7391614,24.915029],"bbox":[55.7191614,24.895029,55.7591614,24.935029]}
{"name":"Theeb","other_names":{"name:ar":"Theeb","name:en":"Theeb","alt_name":"Thayb","alt_name:en":"Theeb"},"display_name":"Theeb, الفجيرة, الإمارات العربية المتحدة","address":{"village":"Theeb","state":"الفجيرة","ISO3166-2-lvl4":"AE-FU","country":"الإمارات العربية المتحدة","country_code":"ae"},"osm_type":"node","osm_id":6263312932,"type":"village","location":[56.3425255,25.2445989],"bbox":[56.3225255,25.2245989,56.3625255,25.2645989]}
{"name":"Wa‘bayn","other_names":{"name:ar":"Wa‘bayn","name:en":"Wa‘bayn","name:es":"Wa‘bayn","name:fr":"Wa‘bayn","alt_name":"Wa'abain;Wa`bayn;Wa‘bayn;Wa’abain"},"display_name":"Wa‘bayn, الفجيرة, الإمارات العربية المتحدة","address":{"village":"Wa‘bayn","state":"الفجيرة","ISO3166-2-lvl4":"AE-FU","country":"الإمارات العربية المتحدة","country_code":"ae"},"osm_type":"node","osm_id":10740184131,"type":"village","location":[56.1349132,25.5702463],"bbox":[56.1149132,25.5502463,56.1549132,25.5902463]}
{"name":"Wam - وم","other_names":{"name:ar":"وم","name:de":"Wam","name:en":"Wam","name:es":"Wam","name:fr":"Wam","name:ml":"വം","alt_name":"Wamm"},"display_name":"Wam - وم, الفجيرة, الإمارات العربية المتحدة","address":{"village":"Wam - وم","state":"الفجيرة","ISO3166-2-lvl4":"AE-FU","country":"الإمارات العربية المتحدة","country_code":"ae"},"osm_type":"node","osm_id":5606155425,"type":"village","location":[56.226425,25.5999214],"bbox":[56.206425,25.5799214,56.246425,25.6199214]}
{"name":"Zikt زكت","other_names":{"name:ar":"زكت","name:de":"Zikt","name:en":"Zikt","name:fr":"Zikt"},"display_name":"Zikt زكت, الفجيرة, الإمارات العربية المتحدة","address":{"village":"Zikt زكت","state":"الفجيرة","ISO3166-2-lvl4":"AE-FU","country":"الإمارات العربية المتحدة","country_code":"ae"},"osm_type":"node","osm_id":5760845568,"type":"village","location":[56.3228649,25.5112815],"bbox":[56.3028649,25.4912815,56.3428649,25.5312815]}
{"name":"أبو سمرة","other_names":{"name:ar":"أبو سمرة","name:en":"Abu Samrah"},"display_name":"أبو سمرة, أبو سمْرة, العين, أبو ظبي, الإمارات العربية المتحدة","address":{"village":"أبو سمرة","city":"أبو سمْرة","county":"العين","state":"أبو ظبي","ISO3166-2-lvl4":"AE-AZ","country":"الإمارات العربية المتحدة","country_code":"ae"},"osm_type":"node","osm_id":7968830840,"type":"village","location":[55.3928946,24.2004704],"bbox":[55.3728946,24.1804704,55.4128946,24.2204704],"border":[{"name":"Abu Samrah","other_names":{"name:ar":"أبو سمرة","name:en":"Abu Samrah"},"display_name":"Abu Samrah, العين, أبو ظبي, الإمارات العربية المتحدة","address":{"village":"Abu Samrah","county":"العين","state":"أبو ظبي","ISO3166-2-lvl4":"AE-AZ","country":"الإمارات العربية المتحدة","country_code":"ae"},"osm_type":"way","osm_id":854517425,"type":"village","location":[55.392967731675036,24.20075245],"bbox":[55.3599403,24.1697117,55.4147043,24.2317972]},{"name":"أبو سمْرة","other_names":{"name:ar":"أبو سمْرة","name:en":"Abu Samrah"},"display_name":"أبو سمْرة, العين, أبو ظبي, الإمارات العربية المتحدة","address":{"city":"أبو سمْرة","county":"العين","state":"أبو ظبي","ISO3166-2-lvl4":"AE-AZ","country":"الإمارات العربية المتحدة","country_code":"ae"},"osm_type":"relation","osm_id":13251440,"type":"administrative","location":[55.39905220606245,24.20057405],"bbox":[55.3592405,24.171294,55.4289368,24.2296705]}]}
{"name":"أم الغاف","other_names":{"name:ar":"أم الغاف","name:de":"Um al Ghaf","name:en":"Um al Ghaf","name:es":"Um al Ghaf","name:fr":"Um al Ghaf","alt_name":"Um al Ghaf, Um al Ghāf, Umm al Ghaf, Umm al Ghāf, am alghaf, أم الغاف"},"display_name":"أم الغاف, رأس الخيمة, الإمارات العربية المتحدة","address":{"village":"أم الغاف","state":"رأس الخيمة","ISO3166-2-lvl4":"AE-RK","country":"الإمارات العربية المتحدة","country_code":"ae"},"osm_type":"node","osm_id":5849659742,"type":"village","location":[56.277041,24.8788313],"bbox":[56.257041,24.8588313,56.297041,24.8988313]}
{"name":"أم عرج","other_names":{"name:ar":"أم عرج","name:de":"Umm Urage","name:en":"Umm Urage","name:es":"Umm Urage","name:fr":"Umm Urage"},"display_name":"أم عرج, رأس الخيمة, الإمارات العربية المتحدة","address":{"village":"أم عرج","state":"رأس الخيمة","ISO3166-2-lvl4":"AE-RK","country":"الإمارات العربية المتحدة","country_code":"ae"},"osm_type":"node","osm_id":6480046700,"type":"village","location":[55.9631911,25.4900116],"bbox":[55.9431911,25.4700116,55.9831911,25.5100116]}
{"name":"أم غافة","other_names":{"name:ar":"أم غافة","name:en":"Um Ghafah"},"display_name":"أم غافة, العين, أبو ظبي, الإمارات العربية المتحدة","address":{"village":"أم غافة","county":"العين","state":"أبو ظبي","ISO3166-2-lvl4":"AE-AZ","country":"الإمارات العربية المتحدة","country_code":"ae"},"osm_type":"node","osm_id":7968830824,"type":"village","location":[55.9420393,24.0820446],"bbox":[55.9220393,24.0620446,55.9620393,24.1020446],"border":[{"name":"أم غافة","other_names":{"name:ar":"أم غافة","name:en":"Um Ghafah"},"display_name":"أم غافة, العين, أبو ظبي, الإمارات العربية المتحدة","address":{"village":"أم غافة","county":"العين","state":"أبو ظبي","ISO3166-2-lvl4":"AE-AZ","country":"الإمارات العربية المتحدة","country_code":"ae"},"osm_type":"way","osm_id":854517396,"type":"village","location":[55.9420393,24.0820446],"bbox":[55.8666281,24.0524286,55.9829284,24.1281429]},{"name":"أم غَافة","other_names":{"name:ar":"أم غَافة","name:en":"Um Ghafah"},"display_name":"أم غَافة, العين, أبو ظبي, الإمارات العربية المتحدة","address":{"city":"أم غَافة","county":"العين","state":"أبو ظبي","ISO3166-2-lvl4":"AE-AZ","country":"الإمارات العربية المتحدة","country_code":"ae"},"osm_type":"relation","osm_id":13251402,"type":"administrative","location":[55.90713206089887,24.0931064],"bbox":[55.8666126,24.052257,55.9829537,24.1342743]}]}
{"name":"احفرة","other_names":{"name:ar":"احفرة","name:en":"Ihfarah","name:es":"Ihfarah","name:fa":"حفراه","name:fr":"Ihfarah","alt_name":"Afarah;Hafarah;Ḩafarah"},"display_name":"احفرة, الفجيرة, الإمارات العربية المتحدة","address":{"village":"احفرة","state":"الفجيرة","ISO3166-2-lvl4":"AE-FU","country":"الإمارات العربية المتحدة","country_code":"ae"},"osm_type":"node","osm_id":5699130009,"type":"village","location":[56.3115299,25.0416903],"bbox":[56.2915299,25.0216903,56.3315299,25.0616903]}
{"name":"اعسمة","other_names":{"name:ar":"اعسمة","name:de":"Asima","name:en":"Asimah","name:es":"Asimah","name:fr":"Asima","alt_name":"Aasmah;Ajima;`Asamah;‘Asamah;`Asimah;‘Asimah;'Isimmah;Isimmah;'Ismah"},"display_name":"اعسمة, الفجيرة, الإمارات العربية المتحدة","address":{"village":"اعسمة","state":"الفجيرة","ISO3166-2-lvl4":"AE-FU","country":"الإمارات العربية المتحدة","country_code":"ae"},"osm_type":"node","osm_id":2386338008,"type":"village","location":[56.1455128,25.4033864],"bbox":[56.1255128,25.3833864,56.1655128,25.4233864]}
{"name":"الأفلاج","other_names":{"name:ar":"الأفلاج","name:en":"Al Aflaj"},"display_name":"الأفلاج, الأفْلاج, العين, أبو ظبي, الإمارات العربية المتحدة","address":{"village":"الأفلاج","city":"الأفْلاج","county":"العين","state":"أبو ظبي","ISO3166-2-lvl4":"AE-AZ","country":"الإمارات العربية المتحدة","country_code":"ae"},"osm_type":"node","osm_id":2336792906,"type":"village","location":[55.8113968,24.1718911],"bbox":[55.7913968,24.1518911,55.8313968,24.1918911],"border":{"name":"الأفْلاج","other_names":{"name:ar":"الأفْلاج","name:en":"Al Aflaj"},"display_name":"الأفْلاج, العين, أبو ظبي, الإمارات العربية المتحدة","address":{"city":"الأفْلاج","county":"العين","state":"أبو ظبي","ISO3166-2-lvl4":"AE-AZ","country":"الإمارات العربية المتحدة","country_code":"ae"},"osm_type":"relation","osm_id":13251394,"type":"administrative","location":[55.85546302784894,24.16303075],"bbox":[55.7919803,24.1376353,55.880649,24.1879634]}}
{"name":"البرير","other_names":{"name:ar":"البرير","name:en":"Bareer","alt_name:en":"Al Barir"},"display_name":"البرير, البطائح, الشارقة, الإمارات العربية المتحدة","address":{"village":"البرير","town":"البطائح","state":"الشارقة","ISO3166-2-lvl4":"AE-SH","country":"الإمارات العربية المتحدة","country_code":"ae"},"osm_type":"node","osm_id":2565612440,"type":"village","location":[55.790778,25.2776131],"bbox":[55.770778,25.2576131,55.810778,25.2976131]}
{"name":"البصيرة","other_names":{"name:ar":"البصيرة","name:de":"Al Basera","name:en":"Al Busserah","name:es":"Basera","name:fr":"Al Basera","alt_name":"Al Basera;Al Basserah;Al Busserah","alt_name:en":"Al Bussera"},"display_name":"البصيرة, الفجيرة, الإمارات العربية المتحدة","address":{"village":"البصيرة","state":"الفجيرة","ISO3166-2-lvl4":"AE-FU","country":"الإمارات العربية المتحدة","country_code":"ae"},"osm_type":"node","osm_id":5868714767,"type":"village","location":[56.1966286,25.5276191],"bbox":[56.1766286,25.5076191,56.2166286,25.5476191]}
{"name":"البطين","other_names":{"name:ar":"البطين","name:en":"Al Bateen"},"display_name":"البطين, العين, أبو ظبي, الإمارات العربية المتحدة","address":{"village":"البطين","county":"العين","state":"أبو ظبي","ISO3166-2-lvl4":"AE-AZ","country":"الإمارات العربية المتحدة","country_code":"ae"},"osm_type":"node","osm_id":2337197863,"type":"village","location":[55.6196612,24.2048941],"bbox":[55.5996612,24.1848941,55.6396612,24.2248941],"border":[{"name":"Al Bateen","other_names":{"name:ar":"البطين","name:en":"Al Bateen","name:ckb":"بەتین"},"display_name":"Al Bateen, العين, أبو ظبي, الإمارات العربية المتحدة","address":{"village":"Al Bateen","county":"العين","state":"أبو ظبي","ISO3166-2-lvl4":"AE-AZ","country":"الإمارات العربية المتحدة","country_code":"ae"},"osm_type":"way","osm_id":854517424,"type":"village","location":[55.62030706048354,24.2099291],"bbox":[55.5871479,24.184455,55.651245,24.2339819]},{"name":"البطين","other_names":{"name:ar":"البطين","name:en":"Al Bateen"},"display_name":"البطين, العين, أبو ظبي, الإمارات العربية المتحدة","address":{"village":"البطين","county":"العين","state":"أبو ظبي","ISO3166-2-lvl4":"AE-AZ","country":"الإمارات العربية المتحدة","country_code":"ae"},"osm_type":"relation","osm_id":13251413,"type":"administrative","location":[55.6196612,24.2048941],"bbox":[55.5847975,24.1842961,55.6454201,24.220943]}]}
{"name":"الجاهلي","other_names":{"name:ar":"الجاهلي","name:en":"Al Jahili","name:es":"Al Jahili","name:fr":"Al Jahili"},"display_name":"الجاهلي, الجَاهلِي, العين, أبو ظبي, الإمارات العربية المتحدة","address":{"village":"الجاهلي","city":"الجَاهلِي","county":"العين","state":"أبو ظبي","ISO3166-2-lvl4":"AE-AZ","country":"الإمارات العربية المتحدة","country_code":"ae"},"osm_type":"node","osm_id":10044281898,"type":"village","location":[55.7513236,24.2138568],"bbox":[55.7313236,24.1938568,55.7713236,24.2338568],"border":[{"name":"الجاهلي","other_names":{"name:ar":"الجاهلي","name:en":"Al Jahili"},"display_name":"الجاهلي, العين, أبو ظبي, الإمارات العربية المتحدة","address":{"village":"الجاهلي","county":"العين","state":"أبو ظبي","ISO3166-2-lvl4":"AE-AZ","country":"الإمارات العربية المتحدة","country_code":"ae"},"osm_type":"way","osm_id":854517423,"type":"village","location":[55.753109253413555,24.2119928],"bbox":[55.7451218,24.2032333,55.760131,24.2207703]},{"name":"الجَاهلِي","other_names":{"name:ar":"الجَاهلِي","name:en":"Al Jahili"},"display_name":"الجَاهلِي, العين, أبو ظبي, الإمارات العربية المتحدة","address":{"city":"الجَاهلِي","county":"العين","state":"أبو ظبي","ISO3166-2-lvl4":"AE-AZ","country":"الإمارات العربية المتحدة","country_code":"ae"},"osm_type":"relation","osm_id":13251385,"type":"administrative","location":[55.753149951935995,24.21208845],"bbox":[55.7452286,24.2036325,55.7601267,24.2207676]}]}
{"name":"الجيمي","other_names":{"name:ar":"الجيمي","name:en":"Al Jimi"},"display_name":"الجيمي, العين, أبو ظبي, الإمارات العربية المتحدة","address":{"village":"الجيمي","county":"العين","state":"أبو ظبي","ISO3166-2-lvl4":"AE-AZ","country":"الإمارات العربية المتحدة","country_code":"ae"},"osm_type":"node","osm_id":7968830836,"type":"village","location":[55.7355308,24.2509558],"bbox":[55.7155308,24.2309558,55.7555308,24.2709558],"border":[{"name":"الجيمي","other_names":{"name:ar":"الجيمي","name:en":"Al Jimi","name:ckb":"جیمی"},"display_name":"الجيمي, العين, أبو ظبي, الإمارات العربية المتحدة","address":{"village":"الجيمي","county":"العين","state":"أبو ظبي","ISO3166-2-lvl4":"AE-AZ","country":"الإمارات العربية المتحدة","country_code":"ae"},"osm_type":"way","osm_id":854517422,"type":"village","location":[55.73738932632601,24.24970135],"bbox":[55.7192913,24.2288854,55.7558405,24.2711942]},{"name":"الجيمي","other_names":{"name:ar":"الجيمي","name:en":"Al Jimi"},"display_name":"الجيمي, العين, أبو ظبي, الإمارات العربية المتحدة","address":{"village":"الجيمي","county":"العين","state":"أبو ظبي","ISO3166-2-lvl4":"AE-AZ","country":"الإمارات العربية المتحدة","country_code":"ae"},"osm_type":"relation","osm_id":13251416,"type":"administrative","location":[55.7355308,24.2509558],"bbox":[55.7194267,24.2288415,55.7557378,24.2693475]}]}
{"display_name":"الحَفَّار, أبوظبي, أبو ظبي, الإمارات العربية المتحدة","address":{"city":"الحَفَّار","county":"أبوظبي","state":"أبو ظبي","ISO3166-2-lvl4":"AE-AZ","country":"الإمارات العربية المتحدة","country_code":"ae"},"osm_type":"node","osm_id":3344100322,"type":"village","location":[54.937453,24.2480757],"bbox":[54.917453,24.2280757,54.957453,24.2680757]}
{"name":"الحمرا","other_names":{"name:ar":"الحمرا","name:en":"Al Hamra"},"display_name":"الحمرا, الحَمْرَا, منطقة الظفرة, أبو ظبي, الإمارات العربية المتحدة","address":{"village":"الحمرا","city":"الحَمْرَا","county":"منطقة الظفرة","state":"أبو ظبي","ISO3166-2-lvl4":"AE-AZ","country":"الإمارات العربية المتحدة","country_code":"ae"},"osm_type":"node","osm_id":2168545208,"type":"village","location":[52.4554153,24.0623011],"bbox":[52.4354153,24.0423011,52.4754153,24.0823011],"border":{"name":"الحَمْرَا","other_names":{"name:ar":"الحَمْرَا","name:en":"Al Hamra"},"display_name":"الحَمْرَا, منطقة الظفرة, أبو ظبي, الإمارات العربية المتحدة","address":{"city":"الحَمْرَا","county":"منطقة الظفرة","state":"أبو ظبي","ISO3166-2-lvl4":"AE-AZ","country":"الإمارات العربية المتحدة","country_code":"ae"},"osm_type":"relation","osm_id":13251508,"type":"administrative","location":[52.55269489768435,24.063137599999997],"bbox":[52.3167432,24.0039033,52.6301886,24.120812]}}
{"name":"الحنية","other_names":{"name:ar":"الحنية","name:de":"Al Hinya","name:en":"Al Haniyah","name:es":"Al Hinya","name:fr":"Al Hinya"},"display_name":"الحنية, رأس الخيمة, الإمارات العربية المتحدة","address":{"village":"الحنية","state":"رأس الخيمة","ISO3166-2-lvl4":"AE-RK","country":"الإمارات العربية المتحدة","country_code":"ae"},"osm_type":"node","osm_id":6012396831,"type":"village","location":[56.0252369,25.3511229],"bbox":[56.0052369,25.3311229,56.0452369,25.3711229]}
{"name":"الخبيصي","other_names":{"name:ar":"الخبيصي","name:en":"Al Khibeesi"},"display_name":"الخبيصي, العين, أبو ظبي, الإمارات العربية المتحدة","address":{"village":"الخبيصي","county":"العين","state":"أبو ظبي","ISO3166-2-lvl4":"AE-AZ","country":"الإمارات العربية المتحدة","country_code":"ae"},"osm_type":"node","osm_id":6437261947,"type":"village","location":[55.6996149,24.2323462],"bbox":[55.6796149,24.2123462,55.7196149,24.2523462],"border":[{"name":"الخبيصي","other_names":{"name:ar":"الخبيصي","name:en":"Al Khabisi","alt:en":"Al Khibeesi"},"display_name":"الخبيصي, العين, أبو ظبي, الإمارات العربية المتحدة","address":{"village":"الخبيصي","county":"العين","state":"أبو ظبي","ISO3166-2-lvl4":"AE-AZ","country":"الإمارات العربية المتحدة","country_code":"ae"},"osm_type":"way","osm_id":854517421,"type":"village","location":[55.6996149,24.2323462],"bbox":[55.6792651,24.2158969,55.7202382,24.2428867]},{"name":"الخِبِيصِي","other_names":{"name:ar":"الخِبِيصِي","name:en":"Al Khibeesi"},"display_name":"الخِبِيصِي, العين, أبو ظبي, الإمارات العربية المتحدة","address":{"city":"الخِبِيصِي","county":"العين","state":"أبو ظبي","ISO3166-2-lvl4":"AE-AZ","country":"الإمارات العربية المتحدة","country_code":"ae"},"osm_type":"relation","osm_id":13251411,"type":"administrative","location":[55.69900306821435,24.22982055],"bbox":[55.6793438,24.2169888,55.7195543,24.2428529]}]}
{"name":"الخيس","other_names":{"name:ar":"الخيس"},"display_name":"الخيس, حميم, منطقة الظفرة, أبو ظبي, الإمارات العربية المتحدة","address":{"village":"الخيس","town":"حميم","county":"منطقة الظفرة","state":"أبو ظبي","ISO3166-2-lvl4":"AE-AZ","country":"الإمارات العربية المتحدة","country_code":"ae"},"osm_type":"node","osm_id":5344686042,"type":"village","location":[54.2301453,22.9954024],"bbox":[54.2101453,22.9754024,54.2501453,23.0154024]}
{"name":"الدهماء","other_names":{"name:ar":"الدهماء","name:en":"Al Dahma"},"display_name":"الدهماء, الدَّهْماء, العين, أبو ظبي, الإمارات العربية المتحدة","address":{"village":"الدهماء","city":"الدَّهْماء","county":"العين","state":"أبو ظبي","ISO3166-2-lvl4":"AE-AZ","country":"الإمارات العربية المتحدة","country_code":"ae"},"osm_type":"node","osm_id":2343966550,"type":"village","location":[55.6512372,24.2494145],"bbox":[55.6312372,24.2294145,55.6712372,24.2694145],"border":[{"name":"Al Dahma","other_names":{"name:ar":"الدهماء","name:en":"Al Dahma"},"display_name":"Al Dahma, العين, أبو ظبي, الإمارات العربية المتحدة","address":{"village":"Al Dahma","county":"العين","state":"أبو ظبي","ISO3166-2-lvl4":"AE-AZ","country":"الإمارات العربية المتحدة","country_code":"ae"},"osm_type":"way","osm_id":854517418,"type":"village","location":[55.653282735382845,24.24350835],"bbox":[55.6258017,24.2251366,55.6760677,24.2627492]},{"name":"الدَّهْماء","other_names":{"name:ar":"الدَّهْماء","name:en":"Al Dahma"},"display_name":"الدَّهْماء, العين, أبو ظبي, الإمارات العربية المتحدة","address":{"city":"الدَّهْماء","county":"العين","state":"أبو ظبي","ISO3166-2-lvl4":"AE-AZ","country":"الإمارات العربية المتحدة","country_code":"ae"},"osm_type":"relation","osm_id":13251414,"type":"administrative","location":[55.649529342688176,24.2316468],"bbox":[55.594005,24.2018055,55.6793438,24.2627896]}]}
{"name":"الراشدية","other_names":{"name:ar":"الراشدية","name:en":"Al Rashidiya"},"display_name":"الراشدية, أم القيوين, الإمارات العربية المتحدة","address":{"village":"الراشدية","state":"أم القيوين","ISO3166-2-lvl4":"AE-UQ","country":"الإمارات العربية المتحدة","country_code":"ae"},"osm_type":"node","osm_id":5717612060,"type":"village","location":[55.8363533,25.3923269],"bbox":[55.8163533,25.3723269,55.8563533,25.4123269]}
{"name":"الرحيب","other_names":{"name:ar":"الرحيب","name:en":"Al Raheeb","name:es":"Al Raheeb"},"display_name":"الرحيب, الفجيرة, الإمارات العربية المتحدة","address":{"village":"الرحيب","state":"الفجيرة","ISO3166-2-lvl4":"AE-FU","country":"الإمارات العربية المتحدة","country_code":"ae"},"osm_type":"node","osm_id":7047507168,"type":"village","location":[56.3385133,25.5326401],"bbox":[56.3185133,25.5126401,56.3585133,25.5526401]}
{"name":"الرفيعة 1","other_names":{"name:ar":"الرفيعة 1","name:en":"Al Rafee'a 1"},"display_name":"الرفيعة 1, البطائح, الشارقة, الإمارات العربية المتحدة","address":{"village":"الرفيعة 1","town":"البطائح","state":"الشارقة","ISO3166-2-lvl4":"AE-SH","country":"الإمارات العربية المتحدة","country_code":"ae"},"osm_type":"node","osm_id":5898666972,"type":"village","location":[55.7221974,25.312976],"bbox":[55.7021974,25.292976,55.7421974,25.332976]}
{"name":"الرفيعة 2","other_names":{"name:ar":"الرفيعة 2","name:en":"Al Rafee'a 2"},"display_name":"الرفيعة 2, البطائح, الشارقة, الإمارات العربية المتحدة","address":{"village":"الرفيعة 2","town":"البطائح","state":"الشارقة","ISO3166-2-lvl4":"AE-SH","country":"الإمارات العربية المتحدة","country_code":"ae"},"osm_type":"node","osm_id":5898666973,"type":"village","location":[55.7433975,25.3307428],"bbox":[55.7233975,25.3107428,55.7633975,25.3507428]}
{"name":"الروضة الشرقية","other_names":{"name:ar":"الروضة الشرقية","name:en":"Al Rawdah Al Sharqiyah"},"display_name":"الروضة الشرقية, العين, أبو ظبي, الإمارات العربية المتحدة","address":{"village":"الروضة الشرقية","county":"العين","state":"أبو ظبي","ISO3166-2-lvl4":"AE-AZ","country":"الإمارات العربية المتحدة","country_code":"ae"},"osm_type":"node","osm_id":2344031848,"type":"village","location":[55.6570786,24.1451513],"bbox":[55.6370786,24.1251513,55.6770786,24.1651513],"border":[{"name":"Al Rawdah Al Sharqiyah","other_names":{"name:ar":"الروضة الشرقية","name:en":"Al Rawdah Al Sharqiyah","name:ckb":"ڕەوزەی ڕۆژهەڵات"},"display_name":"Al Rawdah Al Sharqiyah, العين, أبو ظبي, الإمارات العربية المتحدة","address":{"village":"Al Rawdah Al Sharqiyah","county":"العين","state":"أبو ظبي","ISO3166-2-lvl4":"AE-AZ","country":"الإمارات العربية المتحدة","country_code":"ae"},"osm_type":"way","osm_id":854517415,"type":"village","location":[55.65533731947893,24.1484037],"bbox":[55.6274596,24.1223777,55.6761422,24.1741054]},{"name":"الروضة الشرقية","other_names":{"name:ar":"الروضة الشرقية","name:en":"Al Rawdah Al Sharqiyah"},"display_name":"الروضة الشرقية, العين, أبو ظبي, الإمارات العربية المتحدة","address":{"village":"الروضة الشرقية","county":"العين","state":"أبو ظبي","ISO3166-2-lvl4":"AE-AZ","country":"الإمارات العربية المتحدة","country_code":"ae"},"osm_type":"relation","osm_id":13251433,"type":"administrative","location":[55.6570786,24.1451513],"bbox":[55.6206699,24.1266432,55.6765619,24.1740067]}]}
{"name":"الرويضات","other_names":{"name:ar":"الرويضات","name:en":"Al Ruwaydat"},"display_name":"الرويضات, Al Ruwaydat, العين, أبو ظبي, الإمارات العربية المتحدة","address":{"village":"الرويضات","county":"العين","state":"أبو ظبي","ISO3166-2-lvl4":"AE-AZ","country":"الإمارات العربية المتحدة","country_code":"ae"},"osm_type":"node","osm_id":2336792904,"type":"village","location":[55.7914841,24.1404947],"bbox":[55.7714841,24.1204947,55.8114841,24.1604947],"border":[{"name":"Al Ruwaydat","other_names":{"name:ar":"الرويضات","name:en":"Al Ruwaydat","name:ckb":"ڕوەیزات"},"display_name":"Al Ruwaydat, العين, أبو ظبي, الإمارات العربية المتحدة","address":{"village":"Al Ruwaydat","county":"العين","state":"أبو ظبي","ISO3166-2-lvl4":"AE-AZ","country":"الإمارات العربية المتحدة","country_code":"ae"},"osm_type":"way","osm_id":854517419,"type":"village","location":[55.79251339117164,24.149634849999998],"bbox":[55.7667548,24.0995604,55.8247627,24.1993853]},{"name":"الرُّويضات","other_names":{"name:ar":"الرُّويضات","name:en":"Al Ruwaydat"},"display_name":"الرُّويضات, العين, أبو ظبي, الإمارات العربية المتحدة","address":{"city":"الرُّويضات","county":"العين","state":"أبو ظبي","ISO3166-2-lvl4":"AE-AZ","country":"الإمارات العربية المتحدة","country_code":"ae"},"osm_type":"relation","osm_id":13251395,"type":"administrative","location":[55.78288117600372,24.14807865],"bbox":[55.7519878,24.0990623,55.8256058,24.1995419]}]}
{"name":"الساد","other_names":{"name:ar":"الساد","name:en":"Al Sad"},"display_name":"الساد, العين, أبو ظبي, الإمارات العربية المتحدة","address":{"village":"الساد","county":"العين","state":"أبو ظبي","ISO3166-2-lvl4":"AE-AZ","country":"الإمارات العربية المتحدة","country_code":"ae"},"osm_type":"node","osm_id":7968830839,"type":"village","location":[55.4370115,24.2208235],"bbox":[55.4170115,24.2008235,55.4570115,24.2408235],"border":[{"name":"Al Sad","other_names":{"name:ar":"الساد","name:en":"Al Sad"},"display_name":"Al Sad, العين, أبو ظبي, الإمارات العربية المتحدة","address":{"village":"Al Sad","county":"العين","state":"أبو ظبي","ISO3166-2-lvl4":"AE-AZ","country":"الإمارات العربية المتحدة","country_code":"ae"},"osm_type":"way","osm_id":854517417,"type":"village","location":[55.46028792239717,24.23078075],"bbox":[55.3620848,24.1665835,55.5286612,24.2938252]},{"name":"الساد","other_names":{"name:ar":"الساد","name:en":"Al Sad"},"display_name":"الساد, العين, أبو ظبي, الإمارات العربية المتحدة","address":{"village":"الساد","county":"العين","state":"أبو ظبي","ISO3166-2-lvl4":"AE-AZ","country":"الإمارات العربية المتحدة","country_code":"ae"},"osm_type":"relation","osm_id":13251439,"type":"administrative","location":[55.4370115,24.2208235],"bbox":[55.3652235,24.1611804,55.5301886,24.319294]}]}
{"name":"الساعدي","other_names":{"name:ar":"الساعدي","name:en":"Al Sa'adi"},"display_name":"الساعدي, رأس الخيمة, الإمارات العربية المتحدة","address":{"village":"الساعدي","state":"رأس الخيمة","ISO3166-2-lvl4":"AE-RK","country":"الإمارات العربية المتحدة","country_code":"ae"},"osm_type":"node","osm_id":6480048680,"type":"village","location":[55.9092617,25.5226508],"bbox":[55.8892617,25.5026508,55.9292617,25.5426508]}
{"name":"السرة","other_names":{"name:ar":"السرة","name:en":"Al Surrah"},"display_name":"السرة, أم القيوين, الإمارات العربية المتحدة","address":{"village":"السرة","state":"أم القيوين","ISO3166-2-lvl4":"AE-UQ","country":"الإمارات العربية المتحدة","country_code":"ae"},"osm_type":"node","osm_id":7125452096,"type":"village","location":[55.6325612,25.4455103],"bbox":[55.6125612,25.4255103,55.6525612,25.4655103]}
{"name":"الشويمة","other_names":{"name:ar":"الشويمة","name:en":"Al Shuwaymah"},"display_name":"الشويمة, العين, أبو ظبي, الإمارات العربية المتحدة","address":{"village":"الشويمة","county":"العين","state":"أبو ظبي","ISO3166-2-lvl4":"AE-AZ","country":"الإمارات العربية المتحدة","country_code":"ae"},"osm_type":"node","osm_id":7968830827,"type":"village","location":[55.8352232,24.1873564],"bbox":[55.8152232,24.1673564,55.8552232,24.2073564],"border":[{"name":"الشويمة","other_names":{"name:ar":"الشويمة","name:en":"Al Shuwaymah"},"display_name":"الشويمة, العين, أبو ظبي, الإمارات العربية المتحدة","address":{"village":"الشويمة","county":"العين","state":"أبو ظبي","ISO3166-2-lvl4":"AE-AZ","country":"الإمارات العربية المتحدة","country_code":"ae"},"osm_type":"way","osm_id":854517414,"type":"village","location":[55.8352232,24.1873564],"bbox":[55.8061327,24.1699783,55.8523137,24.2065436]},{"name":"الشُّوَيْمَة","other_names":{"name:ar":"الشُّوَيْمَة","name:en":"Al Shuwaymah"},"display_name":"الشُّوَيْمَة, العين, أبو ظبي, الإمارات العربية المتحدة","address":{"city":"الشُّوَيْمَة","county":"العين","state":"أبو ظبي","ISO3166-2-lvl4":"AE-AZ","country":"الإمارات العربية المتحدة","country_code":"ae"},"osm_type":"relation","osm_id":13251393,"type":"administrative","location":[55.836582665394005,24.1878286],"bbox":[55.8061415,24.170075,55.854351,24.2064355]}]}
{"name":"الصاروج","other_names":{"name:ar":"الصاروج","name:en":"Al Sarouj"},"display_name":"الصاروج, العين, أبو ظبي, الإمارات العربية المتحدة","address":{"village":"الصاروج","county":"العين","state":"أبو ظبي","ISO3166-2-lvl4":"AE-AZ","country":"الإمارات العربية المتحدة","country_code":"ae"},"osm_type":"node","osm_id":7968830828,"type":"village","location":[55.787115,24.2028972],"bbox":[55.767115,24.1828972,55.807115,24.2228972],"border":[{"name":"الصاروج","other_names":{"name:ar":"الصاروج","name:en":"Al Sarooj","name:ckb":"ساروج","alt:en":"Al Sarouj"},"display_name":"الصاروج, العين, أبو ظبي, الإمارات العربية المتحدة","address":{"village":"الصاروج","county":"العين","state":"أبو ظبي","ISO3166-2-lvl4":"AE-AZ","country":"الإمارات العربية المتحدة","country_code":"ae"},"osm_type":"way","osm_id":854517413,"type":"village","location":[55.787115,24.2028972],"bbox":[55.7667572,24.1862777,55.8157313,24.2138663]},{"name":"الصَّارُوج","other_names":{"name:ar":"الصَّارُوج","name:en":"Al Sarouj"},"display_name":"الصَّارُوج, العين, أبو ظبي, الإمارات العربية المتحدة","address":{"city":"الصَّارُوج","county":"العين","state":"أبو ظبي","ISO3166-2-lvl4":"AE-AZ","country":"الإمارات العربية المتحدة","country_code":"ae"},"osm_type":"relation","osm_id":13251392,"type":"administrative","location":[55.79794647143727,24.1983609],"bbox":[55.7663893,24.1833573,55.8207994,24.2133011]}]}
{"name":"الصناعية","other_names":{"name:ar":"الصناعية","name:en":"Industrial Area"},"display_name":"الصناعية, المنطقة الصناعية, العين, أبو ظبي, الإمارات العربية المتحدة","address":{"village":"الصناعية","city":"المنطقة الصناعية","county":"العين","state":"أبو ظبي","ISO3166-2-lvl4":"AE-AZ","country":"الإمارات العربية المتحدة","country_code":"ae"},"osm_type":"node","osm_id":2336781825,"type":"village","location":[55.7630786,24.1843826],"bbox":[55.7430786,24.1643826,55.7830786,24.2043826],"border":{"name":"المنطقة الصناعية","other_names":{"name:ar":"المنطقة الصناعية","name:en":"Industrial Area"},"display_name":"المنطقة الصناعية, العين, أبو ظبي, الإمارات العربية المتحدة","address":{"city":"المنطقة الصناعية","county":"العين","state":"أبو ظبي","ISO3166-2-lvl4":"AE-AZ","country":"الإمارات العربية المتحدة","country_code":"ae"},"osm_type":"relation","osm_id":13251387,"type":"administrative","location":[55.759957741020415,24.1588822],"bbox":[55.7367386,24.1119917,55.775301,24.205649]}}
{"display_name":"الطف الغربي, منطقة الظفرة, أبو ظبي, الإمارات العربية المتحدة","address":{"city":"الطف الغربي","county":"منطقة الظفرة","state":"أبو ظبي","ISO3166-2-lvl4":"AE-AZ","country":"الإمارات العربية المتحدة","country_code":"ae"},"osm_type":"way","osm_id":451508601,"type":"village","location":[53.72732560921712,23.99445745],"bbox":[53.7258152,23.9935606,53.7288515,23.9956385]}
{"name":"الطوية","other_names":{"name:ar":"الطوية","name:en":"Al Tiwayya"},"display_name":"الطوية, العين, أبو ظبي, الإمارات العربية المتحدة","address":{"village":"الطوية","county":"العين","state":"أبو ظبي","ISO3166-2-lvl4":"AE-AZ","country":"الإمارات العربية المتحدة","country_code":"ae"},"osm_type":"node","osm_id":2343966800,"type":"village","location":[55.7053213,24.2579599],"bbox":[55.6853213,24.2379599,55.7253213,24.2779599],"border":[{"name":"الطوية","other_names":{"name:ar":"الطوية","name:en":"Al Tiwayya"},"display_name":"الطوية, العين, أبو ظبي, الإمارات العربية المتحدة","address":{"village":"الطوية","county":"العين","state":"أبو ظبي","ISO3166-2-lvl4":"AE-AZ","country":"الإمارات العربية المتحدة","country_code":"ae"},"osm_type":"way","osm_id":854517412,"type":"village","location":[55.7053213,24.2579599],"bbox":[55.6692856,24.2334663,55.7204353,24.2874188]},{"name":"الطِّوَيَّة","other_names":{"name:ar":"الطِّوَيَّة","name:en":"Al Tiwayya"},"display_name":"الطِّوَيَّة, العين, أبو ظبي, الإمارات العربية المتحدة","address":{"city":"الطِّوَيَّة","county":"العين","state":"أبو ظبي","ISO3166-2-lvl4":"AE-AZ","country":"الإمارات العربية المتحدة","country_code":"ae"},"osm_type":"relation","osm_id":13251415,"type":"administrative","location":[55.696543958861675,24.2512439],"bbox":[55.6693596,24.2334535,55.7205118,24.2746004]}]}
{"name":"الظاهر","other_names":{"name:ar":"الظاهر","name:en":"Al Dhahir"},"display_name":"الظاهر, الظَّاهِر, العين, أبو ظبي, الإمارات العربية المتحدة","address":{"village":"الظاهر","city":"الظَّاهِر","county":"العين","state":"أبو ظبي","ISO3166-2-lvl4":"AE-AZ","country":"الإمارات العربية المتحدة","country_code":"ae"},"osm_type":"node","osm_id":2344099593,"type":"village","location":[55.8405806,24.0782909],"bbox":[55.8205806,24.0582909,55.8605806,24.0982909],"border":[{"name":"Al Dhahir","other_names":{"name:ar":"الظاهر","name:en":"Al Dhahir"},"display_name":"Al Dhahir, العين, أبو ظبي, الإمارات العربية المتحدة","address":{"village":"Al Dhahir","county":"العين","state":"أبو ظبي","ISO3166-2-lvl4":"AE-AZ","country":"الإمارات العربية المتحدة","country_code":"ae"},"osm_type":"way","osm_id":854517411,"type":"village","location":[55.85042263995007,24.089536600000002],"bbox":[55.8198946,24.0627805,55.8794549,24.1194586]},{"name":"الظَّاهِر","other_names":{"name:ar":"الظَّاهِر","name:en":"Al Dhahir"},"display_name":"الظَّاهِر, العين, أبو ظبي, الإمارات العربية المتحدة","address":{"city":"الظَّاهِر","county":"العين","state":"أبو ظبي","ISO3166-2-lvl4":"AE-AZ","country":"الإمارات العربية المتحدة","country_code":"ae"},"osm_type":"relation","osm_id":13251400,"type":"administrative","location":[55.85000843004462,24.088557350000002],"bbox":[55.8214526,24.0641006,55.8767756,24.1193451]}]}
{"name":"العامرة","other_names":{"name:ar":"العامرة","name:en":"Al Aamerah"},"display_name":"العامرة, العين, أبو ظبي, الإمارات العربية المتحدة","address":{"village":"العامرة","county":"العين","state":"أبو ظبي","ISO3166-2-lvl4":"AE-AZ","country":"الإمارات العربية المتحدة","country_code":"ae"},"osm_type":"node","osm_id":2344031677,"type":"village","location":[55.5543479,24.2331896],"bbox":[55.5343479,24.2131896,55.5743479,24.2531896],"border":[{"name":"العامرة","other_names":{"name:ar":"العامرة","name:en":"Al Aamerah"},"display_name":"العامرة, العين, أبو ظبي, الإمارات العربية المتحدة","address":{"village":"العامرة","county":"العين","state":"أبو ظبي","ISO3166-2-lvl4":"AE-AZ","country":"الإمارات العربية المتحدة","country_code":"ae"},"osm_type":"way","osm_id":854517397,"type":"village","location":[55.55228378874078,24.234062],"bbox":[55.4745176,24.1620663,55.6013481,24.3088372]},{"name":"العامرة","other_names":{"name:ar":"العامرة","name:en":"Al Aamerah"},"display_name":"العامرة, العين, أبو ظبي, الإمارات العربية المتحدة","address":{"village":"العامرة","county":"العين","state":"أبو ظبي","ISO3166-2-lvl4":"AE-AZ","country":"الإمارات العربية المتحدة","country_code":"ae"},"osm_type":"relation","osm_id":13251438,"type":"administrative","location":[55.5543479,24.2331896],"bbox":[55.4857775,24.1649956,55.601606,24.3064085]}]}
{"name":"العقابية","other_names":{"name:ar":"العقابية","name:en":"Al 'Iqabiyyah"},"display_name":"العقابية, العين, أبو ظبي, الإمارات العربية المتحدة","address":{"village":"العقابية","county":"العين","state":"أبو ظبي","ISO3166-2-lvl4":"AE-AZ","country":"الإمارات العربية المتحدة","country_code":"ae"},"osm_type":"node","osm_id":7968830832,"type":"village","location":[55.6818866,24.1761988],"bbox":[55.6618866,24.1561988,55.7018866,24.1961988],"border":[{"name":"العقابية","other_names":{"name:ar":"العقابية","name:en":"Al 'Iqabiyyah","name:ckb":"العقابية"},"display_name":"العقابية, العين, أبو ظبي, الإمارات العربية المتحدة","address":{"village":"العقابية","county":"العين","state":"أبو ظبي","ISO3166-2-lvl4":"AE-AZ","country":"الإمارات العربية المتحدة","country_code":"ae"},"osm_type":"way","osm_id":854517410,"type":"village","location":[55.6818866,24.1761988],"bbox":[55.6594487,24.152943,55.7042772,24.1978836]},{"name":"العِقَابِيَّة","other_names":{"name:ar":"العِقَابِيَّة","name:en":"Al 'Iqabiyyah"},"display_name":"العِقَابِيَّة, العين, أبو ظبي, الإمارات العربية المتحدة","address":{"city":"العِقَابِيَّة","county":"العين","state":"أبو ظبي","ISO3166-2-lvl4":"AE-AZ","country":"الإمارات العربية المتحدة","country_code":"ae"},"osm_type":"relation","osm_id":13251409,"type":"administrative","location":[55.680963390812636,24.17558995],"bbox":[55.6594043,24.153206,55.7044556,24.1979501]}]}
{"display_name":"العين, أبو ظبي, الإمارات العربية المتحدة","address":{"county":"العين","state":"أبو ظبي","ISO3166-2-lvl4":"AE-AZ","country":"الإمارات العربية المتحدة","country_code":"ae"},"osm_type":"way","osm_id":854517400,"type":"village","location":[55.76270083591616,24.15886975],"bbox":[55.730304,24.1120247,55.775518,24.2056861]}
{"name":"الغدير","other_names":{"name:ar":"الغدير","name:en":"Al Ghadeer","name:ur":"الغدیر"},"display_name":"الغدير, اللَّيان, أبوظبي, أبو ظبي, الإمارات العربية المتحدة","address":{"village":"الغدير","city":"اللَّيان","county":"أبوظبي","state":"أبو ظبي","ISO3166-2-lvl4":"AE-AZ","country":"الإمارات العربية المتحدة","country_code":"ae"},"osm_type":"node","osm_id":9463521644,"type":"village","location":[55.0275655,24.8426539],"bbox":[55.0075655,24.8226539,55.0475655,24.8626539]}
{"name":"الفاية","other_names":{"name:ar":"الفاية","name:en":"Al Fayah","alt_name:en":"Elfaya"},"display_name":"الفاية, المدام, الشارقة, الإمارات العربية المتحدة","address":{"village":"الفاية","city":"المدام","state":"الشارقة","ISO3166-2-lvl4":"AE-SH","country":"الإمارات العربية المتحدة","country_code":"ae"},"osm_type":"node","osm_id":6355173069,"type":"village","location":[55.8016634,25.051177],"bbox":[55.7816634,25.031177,55.8216634,25.071177]}
{"display_name":"الفجيرة, الإمارات العربية المتحدة","address":{"state":"الفجيرة","ISO3166-2-lvl4":"AE-FU","country":"الإمارات العربية المتحدة","country_code":"ae"},"osm_type":"node","osm_id":12504242500,"type":"village","location":[56.1375789,25.5894651],"bbox":[56.1175789,25.5694651,56.1575789,25.6094651]}
{"name":"الفقيت","other_names":{"name:ar":"الفقيت","name:en":"Al Fiqait","name:ml":"അൽ-ഫിഖൈത്","alt_name:en":"Fiqit"},"display_name":"الفقيت, الفجيرة, الإمارات العربية المتحدة","address":{"village":"الفقيت","state":"الفجيرة","ISO3166-2-lvl4":"AE-FU","country":"الإمارات العربية المتحدة","country_code":"ae"},"osm_type":"node","osm_id":5619114806,"type":"village","location":[56.3452077,25.595884],"bbox":[56.3252077,25.575884,56.3652077,25.615884]}
{"name":"الفوعة","other_names":{"name:ar":"الفوعة","name:en":"Al Fou'ah"},"display_name":"الفوعة, Al Foaa, العين, أبو ظبي, الإمارات العربية المتحدة","address":{"village":"الفوعة","county":"العين","state":"أبو ظبي","ISO3166-2-lvl4":"AE-AZ","country":"الإمارات العربية المتحدة","country_code":"ae"},"osm_type":"node","osm_id":2344579476,"type":"village","location":[55.8079989,24.342739],"bbox":[55.7879989,24.322739,55.8279989,24.362739],"border":[{"name":"Al Foaa","other_names":{"name:ar":"الفوعة","name:en":"Al Foaa","name:ckb":"فەوعە"},"display_name":"Al Foaa, العين, أبو ظبي, الإمارات العربية المتحدة","address":{"village":"Al Foaa","county":"العين","state":"أبو ظبي","ISO3166-2-lvl4":"AE-AZ","country":"الإمارات العربية المتحدة","country_code":"ae"},"osm_type":"way","osm_id":854517409,"type":"village","location":[55.80908167411782,24.3546686],"bbox":[55.7776978,24.3242491,55.8346144,24.3842933]},{"name":"الفُوعَة","other_names":{"name:ar":"الفُوعَة","name:en":"Al Fou'ah"},"display_name":"الفُوعَة, العين, أبو ظبي, الإمارات العربية المتحدة","address":{"city":"الفُوعَة","county":"العين","state":"أبو ظبي","ISO3166-2-lvl4":"AE-AZ","country":"الإمارات العربية المتحدة","country_code":"ae"},"osm_type":"relation","osm_id":13251422,"type":"administrative","location":[55.81078978290357,24.3602138],"bbox":[55.7778752,24.3159333,55.8342017,24.4095602]}]}
{"name":"القسيس","other_names":{"name:ar":"القسيس","name:en":"Al Qisees"},"display_name":"القسيس, القِسِيس, العين, أبو ظبي, الإمارات العربية المتحدة","address":{"village":"القسيس","city":"القِسِيس","county":"العين","state":"أبو ظبي","ISO3166-2-lvl4":"AE-AZ","country":"الإمارات العربية المتحدة","country_code":"ae"},"osm_type":"node","osm_id":7968830834,"type":"village","location":[55.615797,24.1139331],"bbox":[55.595797,24.0939331,55.635797,24.1339331],"border":[{"name":"Al Qisees","other_names":{"name:ar":"القسيس","name:en":"Al Qisees"},"display_name":"Al Qisees, العين, أبو ظبي, الإمارات العربية المتحدة","address":{"village":"Al Qisees","county":"العين","state":"أبو ظبي","ISO3166-2-lvl4":"AE-AZ","country":"الإمارات العربية المتحدة","country_code":"ae"},"osm_type":"way","osm_id":854517407,"type":"village","location":[55.61357321789201,24.1131682],"bbox":[55.5818942,24.0899177,55.6422892,24.1377372]},{"name":"القِسِيس","other_names":{"name:ar":"القِسِيس","name:en":"Al Qisees"},"display_name":"القِسِيس, العين, أبو ظبي, الإمارات العربية المتحدة","address":{"city":"القِسِيس","county":"العين","state":"أبو ظبي","ISO3166-2-lvl4":"AE-AZ","country":"الإمارات العربية المتحدة","country_code":"ae"},"osm_type":"relation","osm_id":13251434,"type":"administrative","location":[55.612671362918604,24.1140206],"bbox":[55.5825972,24.0903134,55.6414314,24.137491]}]}
{"name":"القطارة","other_names":{"name:ar":"القطارة","name:en":"Al Qattarah"},"display_name":"القطارة, العين, أبو ظبي, الإمارات العربية المتحدة","address":{"village":"القطارة","county":"العين","state":"أبو ظبي","ISO3166-2-lvl4":"AE-AZ","country":"الإمارات العربية المتحدة","country_code":"ae"},"osm_type":"node","osm_id":2336776715,"type":"village","location":[55.7515345,24.2682879],"bbox":[55.7315345,24.2482879,55.7715345,24.2882879],"border":[{"name":"القطارة","other_names":{"name:ar":"القطارة","name:en":"Al Qattara","alt:en":"Al Qattarah"},"display_name":"القطارة, العين, أبو ظبي, الإمارات العربية المتحدة","address":{"village":"القطارة","county":"العين","state":"أبو ظبي","ISO3166-2-lvl4":"AE-AZ","country":"الإمارات العربية المتحدة","country_code":"ae"},"osm_type":"way","osm_id":854517406,"type":"village","location":[55.7515345,24.2682879],"bbox":[55.7402277,24.2517123,55.7671514,24.2817608]},{"name":"القطارة","other_names":{"name:ar":"القطارة","name:en":"Al Qattara","name:ckb":"قەتارە","alt:en":"Al Qattarah"},"display_name":"القطارة, العين, أبو ظبي, الإمارات العربية المتحدة","address":{"village":"القطارة","county":"العين","state":"أبو ظبي","ISO3166-2-lvl4":"AE-AZ","country":"الإمارات العربية المتحدة","country_code":"ae"},"osm_type":"way","osm_id":224819845,"type":"village","location":[55.7515345,24.2682879],"bbox":[55.7404985,24.2518791,55.7672629,24.2817645]},{"name":"القَطَّارَة","other_names":{"name:ar":"القَطَّارَة","name:en":"Al Qattarah"},"display_name":"القَطَّارَة, العين, أبو ظبي, الإمارات العربية المتحدة","address":{"city":"القَطَّارَة","county":"العين","state":"أبو ظبي","ISO3166-2-lvl4":"AE-AZ","country":"الإمارات العربية المتحدة","country_code":"ae"},"osm_type":"relation","osm_id":13251417,"type":"administrative","location":[55.7568158754211,24.262457050000002],"bbox":[55.7403205,24.2517338,55.7670555,24.2732126]}]}
{"name":"اللبسة","other_names":{"name:ar":"اللبسة","name:en":"Al Lebsa","name:es":"Al Lebsa","alt_name:en":"Al Lubsah"},"display_name":"اللبسة, أم القيوين, الإمارات العربية المتحدة","address":{"village":"اللبسة","state":"أم القيوين","ISO3166-2-lvl4":"AE-UQ","country":"الإمارات العربية المتحدة","country_code":"ae"},"osm_type":"node","osm_id":6036032101,"type":"village","location":[55.7273751,25.4347288],"bbox":[55.7073751,25.4147288,55.7473751,25.4547288]}
{"name":"الليسيلي","other_names":{"name:ar":"الليسيلي","name:de":"Al Lisaili","name:en":"Al Lisaili","name:fr":"Al Lisaili"},"display_name":"الليسيلي, دبي, الإمارات العربية المتحدة","address":{"village":"الليسيلي","state":"دبي","ISO3166-2-lvl4":"AE-DU","country":"الإمارات العربية المتحدة","country_code":"ae"},"osm_type":"node","osm_id":5243981238,"type":"village","location":[55.4732537,24.930673],"bbox":[55.4532537,24.910673,55.4932537,24.950673],"border":{"name":"الليسيلي","other_names":{"name:ar":"الليسيلي","name:en":"Al Lesaily"},"display_name":"الليسيلي, دبي, الإمارات العربية المتحدة","address":{"suburb":"الليسيلي","state":"دبي","ISO3166-2-lvl4":"AE-DU","country":"الإمارات العربية المتحدة","country_code":"ae"},"osm_type":"relation","osm_id":18471841,"type":"administrative","location":[55.4599777,24.9200568],"bbox":[55.3764381,24.8534343,55.5213809,24.9642245]}}
{"name":"المرخانية","other_names":{"name:ar":"المرخانية","name:en":"Al Markhaniyyah"},"display_name":"المرخانية, العين, أبو ظبي, الإمارات العربية المتحدة","address":{"village":"المرخانية","county":"العين","state":"أبو ظبي","ISO3166-2-lvl4":"AE-AZ","country":"الإمارات العربية المتحدة","country_code":"ae"},"osm_type":"node","osm_id":2343966783,"type":"village","location":[55.6718538,24.2242757],"bbox":[55.6518538,24.2042757,55.6918538,24.2442757],"border":[{"name":"المرخانية","other_names":{"name:ar":"المرخانية","name:en":"Al Marakhaniya","alt:en":"Al Markhaniyyah"},"display_name":"المرخانية, العين, أبو ظبي, الإمارات العربية المتحدة","address":{"village":"المرخانية","county":"العين","state":"أبو ظبي","ISO3166-2-lvl4":"AE-AZ","country":"الإمارات العربية المتحدة","country_code":"ae"},"osm_type":"way","osm_id":854517405,"type":"village","location":[55.6718538,24.2242757],"bbox":[55.6289946,24.1964863,55.6831144,24.242934]},{"name":"المَرْخَانِيَّة","other_names":{"name:ar":"المَرْخَانِيَّة","name:en":"Al Markhaniyyah"},"display_name":"المَرْخَانِيَّة, العين, أبو ظبي, الإمارات العربية المتحدة","address":{"city":"المَرْخَانِيَّة","county":"العين","state":"أبو ظبي","ISO3166-2-lvl4":"AE-AZ","country":"الإمارات العربية المتحدة","country_code":"ae"},"osm_type":"relation","osm_id":13251412,"type":"administrative","location":[55.65909024717482,24.21521575],"bbox":[55.629133,24.1964756,55.6832208,24.2334535]}]}
{"name":"المسعودي","other_names":{"name:ar":"المسعودي","name:en":"Al Mas'oudi"},"display_name":"المسعودي, Al Masoudi, العين, أبو ظبي, الإمارات العربية المتحدة","address":{"village":"المسعودي","county":"العين","state":"أبو ظبي","ISO3166-2-lvl4":"AE-AZ","country":"الإمارات العربية المتحدة","country_code":"ae"},"osm_type":"node","osm_id":6426898369,"type":"village","location":[55.7375914,24.2842593],"bbox":[55.7175914,24.2642593,55.7575914,24.3042593],"border":[{"name":"Al Masoudi","other_names":{"name:ar":"المسعودي","name:en":"Al Masoudi","name:ckb":"مەسعودی"},"display_name":"Al Masoudi, العين, أبو ظبي, الإمارات العربية المتحدة","address":{"village":"Al Masoudi","county":"العين","state":"أبو ظبي","ISO3166-2-lvl4":"AE-AZ","country":"الإمارات العربية المتحدة","country_code":"ae"},"osm_type":"way","osm_id":854517404,"type":"village","location":[55.75977521687028,24.32483245],"bbox":[55.707589,24.2657154,55.8022934,24.3845106]},{"name":"المَسْعُودِي","other_names":{"name:ar":"المَسْعُودِي","name:en":"Al Mas'oudi"},"display_name":"المَسْعُودِي, العين, أبو ظبي, الإمارات العربية المتحدة","address":{"city":"المَسْعُودِي","county":"العين","state":"أبو ظبي","ISO3166-2-lvl4":"AE-AZ","country":"الإمارات العربية المتحدة","country_code":"ae"},"osm_type":"relation","osm_id":13251418,"type":"administrative","location":[55.744330011172266,24.28528175],"bbox":[55.7195499,24.2651893,55.759138,24.3049944]}]}
{"name":"المطاوعة","other_names":{"name:ar":"المطاوعة","name:en":"Al Mutaw'ah"},"display_name":"المطاوعة, العين, أبو ظبي, الإمارات العربية المتحدة","address":{"village":"المطاوعة","county":"العين","state":"أبو ظبي","ISO3166-2-lvl4":"AE-AZ","country":"الإمارات العربية المتحدة","country_code":"ae"},"osm_type":"node","osm_id":10044281897,"type":"village","location":[55.7601642,24.2079857],"bbox":[55.7401642,24.1879857,55.7801642,24.2279857],"border":[{"name":"المطاوعة","other_names":{"name:ar":"المطاوعة","name:en":"Al Mutawaa","name:ckb":"متاوعە","alt:en":"Al Mutaw'ah"},"display_name":"المطاوعة, العين, أبو ظبي, الإمارات العربية المتحدة","address":{"village":"المطاوعة","county":"العين","state":"أبو ظبي","ISO3166-2-lvl4":"AE-AZ","country":"الإمارات العربية المتحدة","country_code":"ae"},"osm_type":"way","osm_id":854517403,"type":"village","location":[55.7601642,24.2079857],"bbox":[55.7498583,24.2050583,55.7697976,24.2146839]},{"name":"المُطَاوْعَة","other_names":{"name:ar":"المُطَاوْعَة","name:en":"Al Mutaw'ah"},"display_name":"المُطَاوْعَة, العين, أبو ظبي, الإمارات العربية المتحدة","address":{"city":"المُطَاوْعَة","county":"العين","state":"أبو ظبي","ISO3166-2-lvl4":"AE-AZ","country":"الإمارات العربية المتحدة","country_code":"ae"},"osm_type":"relation","osm_id":13251386,"type":"administrative","location":[55.7625672641408,24.209871149999998],"bbox":[55.7495996,24.2051333,55.7696343,24.2145059]}]}
{"name":"المعترض","other_names":{"name:ar":"المعترض","name:en":"Al Mu'tarid"},"display_name":"المعترض, المُعْتَرِض, العين, أبو ظبي, الإمارات العربية المتحدة","address":{"village":"المعترض","city":"المُعْتَرِض","county":"العين","state":"أبو ظبي","ISO3166-2-lvl4":"AE-AZ","country":"الإمارات العربية المتحدة","country_code":"ae"},"osm_type":"node","osm_id":2336776727,"type":"village","location":[55.7370559,24.2223678],"bbox":[55.7170559,24.2023678,55.7570559,24.2423678],"border":{"name":"المُعْتَرِض","other_names":{"name:ar":"المُعْتَرِض","name:en":"Al Mu'tarid"},"display_name":"المُعْتَرِض, العين, أبو ظبي, الإمارات العربية المتحدة","address":{"city":"المُعْتَرِض","county":"العين","state":"أبو ظبي","ISO3166-2-lvl4":"AE-AZ","country":"الإمارات العربية المتحدة","country_code":"ae"},"osm_type":"relation","osm_id":13251406,"type":"administrative","location":[55.741665909515476,24.22075955],"bbox":[55.730165,24.2027112,55.7548999,24.2398378]}}
{"name":"المقام","other_names":{"name:ar":"المقام","name:en":"Al Maqam"},"display_name":"المقام, Al Maqam, العين, أبو ظبي, الإمارات العربية المتحدة","address":{"village":"المقام","county":"العين","state":"أبو ظبي","ISO3166-2-lvl4":"AE-AZ","country":"الإمارات العربية المتحدة","country_code":"ae"},"osm_type":"node","osm_id":7968830823,"type":"village","location":[55.6412028,24.1858297],"bbox":[55.6212028,24.1658297,55.6612028,24.2058297],"border":[{"name":"Al Maqam","other_names":{"name:ar":"المقام","name:en":"Al Maqam","name:ckb":"مەقام"},"display_name":"Al Maqam, العين, أبو ظبي, الإمارات العربية المتحدة","address":{"village":"Al Maqam","county":"العين","state":"أبو ظبي","ISO3166-2-lvl4":"AE-AZ","country":"الإمارات العربية المتحدة","country_code":"ae"},"osm_type":"way","osm_id":854517401,"type":"village","location":[55.629423606569176,24.185811100000002],"bbox":[55.5963819,24.1663422,55.66467,24.2045558]},{"name":"المَقَام","other_names":{"name:ar":"المَقَام","name:en":"Al Maqam"},"display_name":"المَقَام, العين, أبو ظبي, الإمارات العربية المتحدة","address":{"city":"المَقَام","county":"العين","state":"أبو ظبي","ISO3166-2-lvl4":"AE-AZ","country":"الإمارات العربية المتحدة","country_code":"ae"},"osm_type":"relation","osm_id":13251410,"type":"administrative","location":[55.62940502656067,24.1856255],"bbox":[55.5963494,24.1662031,55.664223,24.2044588]}]}
{"name":"المويجعي","other_names":{"name:ar":"المويجعي","name:en":"Al Muwaij'i"},"display_name":"المويجعي, العين, أبو ظبي, الإمارات العربية المتحدة","address":{"village":"المويجعي","county":"العين","state":"أبو ظبي","ISO3166-2-lvl4":"AE-AZ","country":"الإمارات العربية المتحدة","country_code":"ae"},"osm_type":"node","osm_id":7968830831,"type":"village","location":[55.70755,24.2114301],"bbox":[55.68755,24.1914301,55.72755,24.2314301],"border":[{"name":"المويجعي","other_names":{"name:ar":"المويجعي","name:en":"Al Muwaiji","name:ckb":"موەیجعی","alt:en":"Al Muwaij'i"},"display_name":"المويجعي, العين, أبو ظبي, الإمارات العربية المتحدة","address":{"village":"المويجعي","county":"العين","state":"أبو ظبي","ISO3166-2-lvl4":"AE-AZ","country":"الإمارات العربية المتحدة","country_code":"ae"},"osm_type":"way","osm_id":854517399,"type":"village","location":[55.70755,24.2114301],"bbox":[55.6831144,24.1889808,55.7390654,24.2321057]},{"name":"المُويجْعِي","other_names":{"name:ar":"المُويجْعِي","name:en":"Al Muwaij'i"},"display_name":"المُويجْعِي, العين, أبو ظبي, الإمارات العربية المتحدة","address":{"city":"المُويجْعِي","county":"العين","state":"أبو ظبي","ISO3166-2-lvl4":"AE-AZ","country":"الإمارات العربية المتحدة","country_code":"ae"},"osm_type":"relation","osm_id":13251407,"type":"administrative","location":[55.71156379491347,24.2104806],"bbox":[55.6832208,24.1889363,55.7374135,24.2337833]}]}
{"name":"النباغ","other_names":{"name:ar":"النباغ","name:en":"Al Nabbagh"},"display_name":"النباغ, النَّبَّاغ, العين, أبو ظبي, الإمارات العربية المتحدة","address":{"village":"النباغ","city":"النَّبَّاغ","county":"العين","state":"أبو ظبي","ISO3166-2-lvl4":"AE-AZ","country":"الإمارات العربية المتحدة","country_code":"ae"},"osm_type":"node","osm_id":7968830837,"type":"village","location":[55.6992244,24.3050196],"bbox":[55.6792244,24.2850196,55.7192244,24.3250196],"border":[{"name":"Al Nabbagh","other_names":{"name:ar":"النباغ","name:en":"Al Nabbagh"},"display_name":"Al Nabbagh, العين, أبو ظبي, الإمارات العربية المتحدة","address":{"village":"Al Nabbagh","county":"العين","state":"أبو ظبي","ISO3166-2-lvl4":"AE-AZ","country":"الإمارات العربية المتحدة","country_code":"ae"},"osm_type":"way","osm_id":854517387,"type":"village","location":[55.68821394303182,24.30537705],"bbox":[55.6366333,24.2627594,55.7409745,24.347521]},{"name":"النَّبَّاغ","other_names":{"name:ar":"النَّبَّاغ","name:en":"Al Nabbagh"},"display_name":"النَّبَّاغ, العين, أبو ظبي, الإمارات العربية المتحدة","address":{"city":"النَّبَّاغ","county":"العين","state":"أبو ظبي","ISO3166-2-lvl4":"AE-AZ","country":"الإمارات العربية المتحدة","country_code":"ae"},"osm_type":"relation","osm_id":13251420,"type":"administrative","location":[55.723734688682484,24.3236709],"bbox":[55.654204,24.2627896,55.7985345,24.3842792]}]}
{"name":"النود","other_names":{"name:ar":"النود","name:en":"Al Noud"},"display_name":"النود, الخِرَيْر, العين, أبو ظبي, الإمارات العربية المتحدة","address":{"village":"النود","city":"الخِرَيْر","county":"العين","state":"أبو ظبي","ISO3166-2-lvl4":"AE-AZ","country":"الإمارات العربية المتحدة","country_code":"ae"},"osm_type":"node","osm_id":2336792899,"type":"village","location":[55.8206579,24.152564],"bbox":[55.8006579,24.132564,55.8406579,24.172564]}
{"display_name":"النوف, أبوظبي, أبو ظبي, الإمارات العربية المتحدة","address":{"city":"النوف","county":"أبوظبي","state":"أبو ظبي","ISO3166-2-lvl4":"AE-AZ","country":"الإمارات العربية المتحدة","country_code":"ae"},"osm_type":"node","osm_id":3132053029,"type":"village","location":[54.0915169,24.1979846],"bbox":[54.0715169,24.1779846,54.1115169,24.2179846]}
{"name":"الهيلي","other_names":{"name:ar":"الهيلي","name:en":"Al Hili","name:ckb":"هیلی"},"display_name":"الهيلي, العين, أبو ظبي, الإمارات العربية المتحدة","address":{"village":"الهيلي","county":"العين","state":"أبو ظبي","ISO3166-2-lvl4":"AE-AZ","country":"الإمارات العربية المتحدة","country_code":"ae"},"osm_type":"way","osm_id":854517385,"type":"village","location":[55.779646929302125,24.29587635],"bbox":[55.747481,24.2620783,55.8333175,24.3296263]}
{"name":"الوثبة","other_names":{"name:ar":"الوثبة","name:en":"Al Wathba"},"display_name":"الوثبة, الوَثْبَة, أبوظبي, أبو ظبي, الإمارات العربية المتحدة","address":{"village":"الوثبة","city":"الوَثْبَة","county":"أبوظبي","state":"أبو ظبي","ISO3166-2-lvl4":"AE-AZ","country":"الإمارات العربية المتحدة","country_code":"ae"},"osm_type":"node","osm_id":6279392587,"type":"village","location":[54.7036609,24.2219216],"bbox":[54.6836609,24.2019216,54.7236609,24.2419216]}
{"name":"اليارية","other_names":{"name:ar":"اليارية"},"display_name":"اليارية, حميم, منطقة الظفرة, أبو ظبي, الإمارات العربية المتحدة","address":{"village":"اليارية","town":"حميم","county":"منطقة الظفرة","state":"أبو ظبي","ISO3166-2-lvl4":"AE-AZ","country":"الإمارات العربية المتحدة","country_code":"ae"},"osm_type":"node","osm_id":5344686043,"type":"village","location":[54.2033928,23.0026178],"bbox":[54.1833928,22.9826178,54.2233928,23.0226178]}
{"name":"بدع بنت سعود","other_names":{"name:ar":"بدع بنت سعود","name:en":"Bad' Bint Sa'oud"},"display_name":"بدع بنت سعود, بَدْع بِنت سَعود, العين, أبو ظبي, الإمارات العربية المتحدة","address":{"village":"بدع بنت سعود","city":"بَدْع بِنت سَعود","county":"العين","state":"أبو ظبي","ISO3166-2-lvl4":"AE-AZ","country":"الإمارات العربية المتحدة","country_code":"ae"},"osm_type":"node","osm_id":10044372939,"type":"village","location":[55.6804272,24.3686776],"bbox":[55.6604272,24.3486776,55.7004272,24.3886776],"border":{"name":"بَدْع بِنت سَعود","other_names":{"name:ar":"بَدْع بِنت سَعود","name:en":"Bad' Bint Sa'oud"},"display_name":"بَدْع بِنت سَعود, العين, أبو ظبي, الإمارات العربية المتحدة","address":{"city":"بَدْع بِنت سَعود","county":"العين","state":"أبو ظبي","ISO3166-2-lvl4":"AE-AZ","country":"الإمارات العربية المتحدة","country_code":"ae"},"osm_type":"relation","osm_id":13251423,"type":"administrative","location":[55.666459393838295,24.3738222],"bbox":[55.5555809,24.3072241,55.7687071,24.440214]}}
{"name":"بو حصا","other_names":{"name:ar":"بو حصا"},"display_name":"بو حصا, بُو حَصَا, منطقة الظفرة, أبو ظبي, الإمارات العربية المتحدة","address":{"village":"بو حصا","city":"بُو حَصَا","county":"منطقة الظفرة","state":"أبو ظبي","ISO3166-2-lvl4":"AE-AZ","country":"الإمارات العربية المتحدة","country_code":"ae"},"osm_type":"node","osm_id":5344644821,"type":"village","location":[53.3144152,23.5497827],"bbox":[53.2944152,23.5297827,53.3344152,23.5697827]}
{"name":"بو حمرا","other_names":{"name:ar":"بو حمرا","name:en":"Bu Humrah"},"display_name":"بو حمرا, أبو قْرَيْن, منطقة الظفرة, أبو ظبي, الإمارات العربية المتحدة","address":{"village":"بو حمرا","city":"أبو قْرَيْن","county":"منطقة الظفرة","state":"أبو ظبي","ISO3166-2-lvl4":"AE-AZ","country":"الإمارات العربية المتحدة","country_code":"ae"},"osm_type":"node","osm_id":6279196239,"type":"village","location":[54.5314658,23.5104585],"bbox":[54.5114658,23.4904585,54.5514658,23.5304585]}
{"name":"بياتة","other_names":{"name:ar":"بياتة","name:en":"Al Biyatah"},"display_name":"بياتة, أم القيوين, الإمارات العربية المتحدة","address":{"village":"بياتة","state":"أم القيوين","ISO3166-2-lvl4":"AE-UQ","country":"الإمارات العربية المتحدة","country_code":"ae"},"osm_type":"node","osm_id":5717616691,"type":"village","location":[55.7971287,25.4163228],"bbox":[55.7771287,25.3963228,55.8171287,25.4363228]}
{"name":"جبل حفيت","other_names":{"name:ar":"جبل حفيت","name:en":"Jabal Hafeet","name:fa":"جبل حفيت"},"display_name":"جبل حفيت, جبل حَفيت, العين, أبو ظبي, الإمارات العربية المتحدة","address":{"village":"جبل حفيت","city":"جبل حَفيت","county":"العين","state":"أبو ظبي","ISO3166-2-lvl4":"AE-AZ","country":"الإمارات العربية المتحدة","country_code":"ae"},"osm_type":"node","osm_id":2344099531,"type":"village","location":[55.7693411,24.0684952],"bbox":[55.7493411,24.0484952,55.7893411,24.0884952],"border":{"name":"جبل حَفيت","other_names":{"name:ar":"جبل حَفيت","name:en":"Jabal Hafeet"},"display_name":"جبل حَفيت, العين, أبو ظبي, الإمارات العربية المتحدة","address":{"city":"جبل حَفيت","county":"العين","state":"أبو ظبي","ISO3166-2-lvl4":"AE-AZ","country":"الإمارات العربية المتحدة","country_code":"ae"},"osm_type":"relation","osm_id":13251399,"type":"administrative","location":[55.78876091560224,24.07005505],"bbox":[55.7391579,24.0146301,55.8391938,24.1257526]}}
{"name":"جريرة","other_names":{"name:ar":"جريرة"},"display_name":"جريرة, حميم, منطقة الظفرة, أبو ظبي, الإمارات العربية المتحدة","address":{"village":"جريرة","town":"حميم","county":"منطقة الظفرة","state":"أبو ظبي","ISO3166-2-lvl4":"AE-AZ","country":"الإمارات العربية المتحدة","country_code":"ae"},"osm_type":"node","osm_id":5344686040,"type":"village","location":[54.3188764,22.9378626],"bbox":[54.2988764,22.9178626,54.3388764,22.9578626]}
{"name":"جسيورة","other_names":{"name:ar":"جسيورة","name:en":"Gasyoura"},"display_name":"جسيورة, أم الزمول, العين, أبو ظبي, الإمارات العربية المتحدة","address":{"village":"جسيورة","town":"أم الزمول","county":"العين","state":"أبو ظبي","ISO3166-2-lvl4":"AE-AZ","country":"الإمارات العربية المتحدة","country_code":"ae"},"osm_type":"node","osm_id":6279196243,"type":"village","location":[54.819366,22.8266202],"bbox":[54.799366,22.8066202,54.839366,22.8466202]}
{"name":"حمدة","other_names":{"name:ar":"حمدة","name:en":"Hamda","name:es":"Hamda"},"display_name":"حمدة, مليحة, الشارقة, الإمارات العربية المتحدة","address":{"village":"حمدة","town":"مليحة","state":"الشارقة","ISO3166-2-lvl4":"AE-SH","country":"الإمارات العربية المتحدة","country_code":"ae"},"osm_type":"node","osm_id":5700313310,"type":"village","location":[55.8775136,25.1685016],"bbox":[55.8575136,25.1485016,55.8975136,25.1885016]}
{"name":"خضيره","other_names":{"name:ar":"خضيره","name:en":"Khudairah"},"display_name":"خضيره, مليحة, الشارقة, الإمارات العربية المتحدة","address":{"village":"خضيره","town":"مليحة","state":"الشارقة","ISO3166-2-lvl4":"AE-SH","country":"الإمارات العربية المتحدة","country_code":"ae"},"osm_type":"node","osm_id":5614650003,"type":"village","location":[55.9584948,25.1701189],"bbox":[55.9384948,25.1501189,55.9784948,25.1901189]}
{"name":"خطم الشكلة","other_names":{"name:ar":"خطم الشكلة","name:de":"Khatm Al Shiklah","name:en":"Khatm Al Shiklah","name:fr":"Khatm Al Shiklah","alt_name":"خطم الشكلة","int_name":"Khatm Al Shiklah","name:ar1":"خطم الشكلة"},"display_name":"خطم الشكلة, خَطْم الشِّكْلَة, العين, أبو ظبي, الإمارات العربية المتحدة","address":{"village":"خطم الشكلة","city":"خَطْم الشِّكْلَة","county":"العين","state":"أبو ظبي","ISO3166-2-lvl4":"AE-AZ","country":"الإمارات العربية المتحدة","country_code":"ae"},"osm_type":"node","osm_id":1720853433,"type":"village","location":[55.9443316,24.196194],"bbox":[55.9243316,24.176194,55.9643316,24.216194],"border":{"name":"خَطْم الشِّكْلَة","other_names":{"name:ar":"خَطْم الشِّكْلَة","name:en":"Khatm Al Shiklah"},"display_name":"خَطْم الشِّكْلَة, العين, أبو ظبي, الإمارات العربية المتحدة","address":{"city":"خَطْم الشِّكْلَة","county":"العين","state":"أبو ظبي","ISO3166-2-lvl4":"AE-AZ","country":"الإمارات العربية المتحدة","country_code":"ae"},"osm_type":"relation","osm_id":13251404,"type":"administrative","location":[55.931036908114514,24.1961933],"bbox":[55.8333816,24.1700168,55.9696731,24.2225682]}}
{"name":"رماح","other_names":{"name:ar":"رماح","name:en":"Rimah"},"display_name":"رماح, رِمَاح, العين, أبو ظبي, الإمارات العربية المتحدة","address":{"village":"رماح","city":"رِمَاح","county":"العين","state":"أبو ظبي","ISO3166-2-lvl4":"AE-AZ","country":"الإمارات العربية المتحدة","country_code":"ae"},"osm_type":"node","osm_id":7968830841,"type":"village","location":[55.2837179,24.1834025],"bbox":[55.2637179,24.1634025,55.3037179,24.2034025],"border":{"name":"Remah","other_names":{"name:ar":"رماح","name:en":"Remah"},"display_name":"Remah, العين, أبو ظبي, الإمارات العربية المتحدة","address":{"village":"Remah","county":"العين","state":"أبو ظبي","ISO3166-2-lvl4":"AE-AZ","country":"الإمارات العربية المتحدة","country_code":"ae"},"osm_type":"way","osm_id":854517395,"type":"village","location":[55.30765140752132,24.1888473],"bbox":[55.2099569,24.1674783,55.3807591,24.2098727]}}
{"name":"زاخر","other_names":{"name:ar":"زاخر","name:en":"Zakhir"},"display_name":"زاخر, العين, أبو ظبي, الإمارات العربية المتحدة","address":{"village":"زاخر","county":"العين","state":"أبو ظبي","ISO3166-2-lvl4":"AE-AZ","country":"الإمارات العربية المتحدة","country_code":"ae"},"osm_type":"node","osm_id":2344067335,"type":"village","location":[55.6881661,24.1388308],"bbox":[55.6681661,24.1188308,55.7081661,24.1588308],"border":[{"name":"زاخر","other_names":{"name:ar":"زاخر","name:en":"Zakhir","name:ckb":"زاخیر"},"display_name":"زاخر, العين, أبو ظبي, الإمارات العربية المتحدة","address":{"village":"زاخر","county":"العين","state":"أبو ظبي","ISO3166-2-lvl4":"AE-AZ","country":"الإمارات العربية المتحدة","country_code":"ae"},"osm_type":"way","osm_id":854517394,"type":"village","location":[55.6881661,24.1388308],"bbox":[55.6188063,24.0771634,55.7194425,24.1792061]},{"name":"زاخِر","other_names":{"name:ar":"زاخِر","name:en":"Zakhir"},"display_name":"زاخِر, العين, أبو ظبي, الإمارات العربية المتحدة","address":{"city":"زاخِر","county":"العين","state":"أبو ظبي","ISO3166-2-lvl4":"AE-AZ","country":"الإمارات العربية المتحدة","country_code":"ae"},"osm_type":"relation","osm_id":13251673,"type":"administrative","location":[55.680169022653814,24.128041449999998],"bbox":[55.6178631,24.0771588,55.7134284,24.1789124]}]}
{"name":"زبيدة","other_names":{"name:ar":"زبيدة","name:de":"Zubaida","name:en":"Zubaidah","name:es":"Zubaida","name:fr":"Zubaida"},"display_name":"زبيدة, الذيد, الشارقة, الإمارات العربية المتحدة","address":{"village":"زبيدة","city":"الذيد","state":"الشارقة","ISO3166-2-lvl4":"AE-SH","country":"الإمارات العربية المتحدة","country_code":"ae"},"osm_type":"node","osm_id":6012396842,"type":"village","location":[55.906763,25.3326228],"bbox":[55.886763,25.3126228,55.926763,25.3526228]}
{"name":"زعبة","other_names":{"name:ar":"زعبة","name:de":"Zabah","name:en":"Zabah","name:fr":"Zabah","alt_name":"زعبة","int_name":"Zabah, Zabah","name:ar1":"زعبة"},"display_name":"زعبة, الوِقن, العين, أبو ظبي, الإمارات العربية المتحدة","address":{"village":"زعبة","city":"الوِقن","county":"العين","state":"أبو ظبي","ISO3166-2-lvl4":"AE-AZ","country":"الإمارات العربية المتحدة","country_code":"ae"},"osm_type":"node","osm_id":1719546658,"type":"village","location":[55.51,23.72],"bbox":[55.49,23.7,55.53,23.74]}
{"name":"شعاب الأشخر","other_names":{"name:ar":"شعاب الأشخر","name:en":"Shiab Al Ashkhar"},"display_name":"شعاب الأشخر, العين, أبو ظبي, الإمارات العربية المتحدة","address":{"village":"شعاب الأشخر","county":"العين","state":"أبو ظبي","ISO3166-2-lvl4":"AE-AZ","country":"الإمارات العربية المتحدة","country_code":"ae"},"osm_type":"node","osm_id":2344099559,"type":"village","location":[55.7278806,24.1555565],"bbox":[55.7078806,24.1355565,55.7478806,24.1755565],"border":[{"name":"شعاب الأشخر","other_names":{"name:ar":"شعاب الأشخر","name:en":"Shiab Al Ashkhar","name:ckb":"شەغاب ئەشخەر"},"display_name":"شعاب الأشخر, العين, أبو ظبي, الإمارات العربية المتحدة","address":{"village":"شعاب الأشخر","county":"العين","state":"أبو ظبي","ISO3166-2-lvl4":"AE-AZ","country":"الإمارات العربية المتحدة","country_code":"ae"},"osm_type":"way","osm_id":854517393,"type":"village","location":[55.73126647423517,24.1593188],"bbox":[55.7112567,24.132687,55.7545386,24.1857688]},{"name":"شعاب الأشخر","other_names":{"name:ar":"شعاب الأشخر","name:en":"Shiab Al Ashkhar"},"display_name":"شعاب الأشخر, العين, أبو ظبي, الإمارات العربية المتحدة","address":{"village":"شعاب الأشخر","county":"العين","state":"أبو ظبي","ISO3166-2-lvl4":"AE-AZ","country":"الإمارات العربية المتحدة","country_code":"ae"},"osm_type":"relation","osm_id":13251390,"type":"administrative","location":[55.7278806,24.1555565],"bbox":[55.7112572,24.1325282,55.7567031,24.1868746]}]}
{"name":"شعبة الوطاه","other_names":{"name:ar":"شعبة الوطاه","name:en":"Shi'bat Al Wutah"},"display_name":"شعبة الوطاه, شعبة الوُطَاه, العين, أبو ظبي, الإمارات العربية المتحدة","address":{"village":"شعبة الوطاه","city":"شعبة الوُطَاه","county":"العين","state":"أبو ظبي","ISO3166-2-lvl4":"AE-AZ","country":"الإمارات العربية المتحدة","country_code":"ae"},"osm_type":"node","osm_id":10044214882,"type":"village","location":[55.7225905,24.1220003],"bbox":[55.7025905,24.1020003,55.7425905,24.1420003],"border":{"name":"شعبة الوُطَاه","other_names":{"name:ar":"شعبة الوُطَاه","name:en":"Shi'bat Al Wutah"},"display_name":"شعبة الوُطَاه, العين, أبو ظبي, الإمارات العربية المتحدة","address":{"city":"شعبة الوُطَاه","county":"العين","state":"أبو ظبي","ISO3166-2-lvl4":"AE-AZ","country":"الإمارات العربية المتحدة","country_code":"ae"},"osm_type":"relation","osm_id":13251388,"type":"administrative","location":[55.72415675144016,24.11975845],"bbox":[55.7134257,24.1040286,55.7369833,24.1360499]}}
{"name":"شوكة","other_names":{"name:ar":"شوكة","name:de":"Shawka","name:en":"Shawka","name:es":"Shawka","name:fr":"Shawka","alt_name":"Sha'biyyah Shokah, Showka;Shawqah;Shokah;Showkah;شوكه","alt_name:ar":"شوكه"},"display_name":"شوكة, رأس الخيمة, الإمارات العربية المتحدة","address":{"village":"شوكة","state":"رأس الخيمة","ISO3166-2-lvl4":"AE-RK","country":"الإمارات العربية المتحدة","country_code":"ae"},"osm_type":"node","osm_id":5572630168,"type":"village","location":[56.0284276,25.097191],"bbox":[56.0084276,25.077191,56.0484276,25.117191]}
{"name":"صاع","other_names":{"name:ar":"صاع","name:de":"Sa'","name:en":"Sa'","name:fr":"Sa'","alt_name":"صاع","int_name":"Sa'","name:ar1":"صاع"},"display_name":"صاع, صَاع, العين, أبو ظبي, الإمارات العربية المتحدة","address":{"village":"صاع","city":"صَاع","county":"العين","state":"أبو ظبي","ISO3166-2-lvl4":"AE-AZ","country":"الإمارات العربية المتحدة","country_code":"ae"},"osm_type":"node","osm_id":10044324090,"type":"village","location":[55.9671875,24.1306972],"bbox":[55.9471875,24.1106972,55.9871875,24.1506972],"border":{"name":"صَاع","other_names":{"name:ar":"صَاع","name:en":"Sa'"},"display_name":"صَاع, العين, أبو ظبي, الإمارات العربية المتحدة","address":{"city":"صَاع","county":"العين","state":"أبو ظبي","ISO3166-2-lvl4":"AE-AZ","country":"الإمارات العربية المتحدة","country_code":"ae"},"osm_type":"relation","osm_id":13251403,"type":"administrative","location":[55.964680498209034,24.11958635],"bbox":[55.9231974,24.0624874,56.0173982,24.1804314]}}
{"name":"صفد","other_names":{"name:ar":"صفد","name:en":"Safad"},"display_name":"صفد, الفجيرة, الإمارات العربية المتحدة","address":{"village":"صفد","state":"الفجيرة","ISO3166-2-lvl4":"AE-FU","country":"الإمارات العربية المتحدة","country_code":"ae"},"osm_type":"node","osm_id":5761824969,"type":"village","location":[56.2992453,25.2269651],"bbox":[56.2792453,25.2069651,56.3192453,25.2469651]}
{"name":"طريف","other_names":{"name:ar":"طريف","name:en":"Tarif Kalba"},"display_name":"طريف, Kalba كلباء, الشارقة, الإمارات العربية المتحدة","address":{"village":"طريف","city":"Kalba كلباء","state":"الشارقة","ISO3166-2-lvl4":"AE-SH","country":"الإمارات العربية المتحدة","country_code":"ae"},"osm_type":"node","osm_id":5672433215,"type":"village","location":[56.330316,25.0701287],"bbox":[56.310316,25.0501287,56.350316,25.0901287]}
{"name":"طوي خدرق","other_names":{"name:ar":"طوي خدرق","name:de":"Tawi Khadaraq","name:en":"Tawi Khadaraq","name:fr":"Tawi Khadaraq","alt_name":"طوي خدرق","int_name":"Ţawī Khadaraq, Tawi Khadaraq","name:ar1":"طوي خدرق"},"display_name":"طوي خدرق, الوِقن, العين, أبو ظبي, الإمارات العربية المتحدة","address":{"village":"طوي خدرق","city":"الوِقن","county":"العين","state":"أبو ظبي","ISO3166-2-lvl4":"AE-AZ","country":"الإمارات العربية المتحدة","country_code":"ae"},"osm_type":"node","osm_id":1719546657,"type":"village","location":[55.53,23.73],"bbox":[55.51,23.71,55.55,23.75]}
{"name":"عشارج","other_names":{"name:ar":"عشارج","name:en":"'Asharij"},"display_name":"عشارج, عَشَارِج, العين, أبو ظبي, الإمارات العربية المتحدة","address":{"village":"عشارج","city":"عَشَارِج","county":"العين","state":"أبو ظبي","ISO3166-2-lvl4":"AE-AZ","country":"الإمارات العربية المتحدة","country_code":"ae"},"osm_type":"node","osm_id":2344031753,"type":"village","location":[55.6699489,24.1955452],"bbox":[55.6499489,24.1755452,55.6899489,24.2155452],"border":[{"name":"Asharej","other_names":{"name:ar":"عشارج","name:en":"Asharej","name:ckb":"عەشارج"},"display_name":"Asharej, العين, أبو ظبي, الإمارات العربية المتحدة","address":{"village":"Asharej","county":"العين","state":"أبو ظبي","ISO3166-2-lvl4":"AE-AZ","country":"الإمارات العربية المتحدة","country_code":"ae"},"osm_type":"way","osm_id":854517392,"type":"village","location":[55.671057100967914,24.2017436],"bbox":[55.6504673,24.1851647,55.6925063,24.2170678]},{"name":"عَشَارِج","other_names":{"name:ar":"عَشَارِج","name:en":"'Asharij"},"display_name":"عَشَارِج, العين, أبو ظبي, الإمارات العربية المتحدة","address":{"city":"عَشَارِج","county":"العين","state":"أبو ظبي","ISO3166-2-lvl4":"AE-AZ","country":"الإمارات العربية المتحدة","country_code":"ae"},"osm_type":"relation","osm_id":13251408,"type":"administrative","location":[55.67146324497128,24.2009285],"bbox":[55.6503873,24.1850444,55.6925048,24.2169888]}]}
{"name":"عين الفايضة","other_names":{"name:ar":"عين الفايضة","name:en":"Ain Al Faydah"},"display_name":"عين الفايضة, عَيْن الفَايْضَة, العين, أبو ظبي, الإمارات العربية المتحدة","address":{"village":"عين الفايضة","city":"عَيْن الفَايْضَة","county":"العين","state":"أبو ظبي","ISO3166-2-lvl4":"AE-AZ","country":"الإمارات العربية المتحدة","country_code":"ae"},"osm_type":"node","osm_id":2344067316,"type":"village","location":[55.7115768,24.0777418],"bbox":[55.6915768,24.0577418,55.7315768,24.0977418],"border":{"name":"عَيْن الفَايْضَة","other_names":{"name:ar":"عَيْن الفَايْضَة","name:en":"Ain Al Faydah"},"display_name":"عَيْن الفَايْضَة, العين, أبو ظبي, الإمارات العربية المتحدة","address":{"city":"عَيْن الفَايْضَة","county":"العين","state":"أبو ظبي","ISO3166-2-lvl4":"AE-AZ","country":"الإمارات العربية المتحدة","country_code":"ae"},"osm_type":"relation","osm_id":13251441,"type":"administrative","location":[55.69624135658229,24.06859115],"bbox":[55.6289687,24.0343606,55.7282659,24.1040286]}}
{"name":"غريبة","other_names":{"name:ar":"غريبة","name:en":"Ghireebah"},"display_name":"غريبة, Ghireebah, العين, أبو ظبي, الإمارات العربية المتحدة","address":{"village":"غريبة","county":"العين","state":"أبو ظبي","ISO3166-2-lvl4":"AE-AZ","country":"الإمارات العربية المتحدة","country_code":"ae"},"osm_type":"node","osm_id":7968830835,"type":"village","location":[55.59494,24.1505131],"bbox":[55.57494,24.1305131,55.61494,24.1705131],"border":[{"name":"Ghireebah","other_names":{"name:ar":"غريبه","name:en":"Ghireebah","name:ckb":"غەریبە"},"display_name":"Ghireebah, العين, أبو ظبي, الإمارات العربية المتحدة","address":{"village":"Ghireebah","county":"العين","state":"أبو ظبي","ISO3166-2-lvl4":"AE-AZ","country":"الإمارات العربية المتحدة","country_code":"ae"},"osm_type":"way","osm_id":854517391,"type":"village","location":[55.597773604150674,24.14985535],"bbox":[55.5207066,24.1150943,55.6557407,24.1844119]},{"name":"غِرِيْبَة","other_names":{"name:ar":"غِرِيْبَة","name:en":"Ghireebah"},"display_name":"غِرِيْبَة, العين, أبو ظبي, الإمارات العربية المتحدة","address":{"city":"غِرِيْبَة","county":"العين","state":"أبو ظبي","ISO3166-2-lvl4":"AE-AZ","country":"الإمارات العربية المتحدة","country_code":"ae"},"osm_type":"relation","osm_id":13251436,"type":"administrative","location":[55.594120490986334,24.153815350000002],"bbox":[55.534694,24.123218,55.6578308,24.1842961]}]}
{"name":"غنتوت","other_names":{"name:ar":"غنتوت","name:en":"Ghantoot","name:ml":"ഗന്തൂത്ത്"},"display_name":"غنتوت, غَنْتُوت, أبوظبي, أبو ظبي, الإمارات العربية المتحدة","address":{"village":"غنتوت","city":"غَنْتُوت","county":"أبوظبي","state":"أبو ظبي","ISO3166-2-lvl4":"AE-AZ","country":"الإمارات العربية المتحدة","country_code":"ae"},"osm_type":"node","osm_id":1280214391,"type":"village","location":[54.9008316,24.8647295],"bbox":[54.8808316,24.8447295,54.9208316,24.8847295]}
{"name":"غنيمة","other_names":{"name:ar":"غنيمة","name:en":"Ghnaymah"},"display_name":"غنيمة, Ghireebah, العين, أبو ظبي, الإمارات العربية المتحدة","address":{"village":"غنيمة","county":"العين","state":"أبو ظبي","ISO3166-2-lvl4":"AE-AZ","country":"الإمارات العربية المتحدة","country_code":"ae"},"osm_type":"node","osm_id":10044122067,"type":"village","location":[55.6296535,24.1476641],"bbox":[55.6096535,24.1276641,55.6496535,24.1676641],"border":{"name":"غْنَيْمَة","other_names":{"name:ar":"غْنَيْمَة","name:en":"Ghnaymah"},"display_name":"غْنَيْمَة, العين, أبو ظبي, الإمارات العربية المتحدة","address":{"city":"غْنَيْمَة","county":"العين","state":"أبو ظبي","ISO3166-2-lvl4":"AE-AZ","country":"الإمارات العربية المتحدة","country_code":"ae"},"osm_type":"relation","osm_id":13251435,"type":"administrative","location":[55.62414104253044,24.145624599999998],"bbox":[55.5723424,24.1159231,55.6648736,24.1752005]}}
{"name":"فلج هزاع","other_names":{"name:ar":"فلج هزاع","name:en":"Falaj Hazza'"},"display_name":"فلج هزاع, العين, أبو ظبي, الإمارات العربية المتحدة","address":{"village":"فلج هزاع","county":"العين","state":"أبو ظبي","ISO3166-2-lvl4":"AE-AZ","country":"الإمارات العربية المتحدة","country_code":"ae"},"osm_type":"node","osm_id":7968830830,"type":"village","location":[55.7197273,24.187924],"bbox":[55.6997273,24.167924,55.7397273,24.207924],"border":[{"name":"فلج هزاع","other_names":{"name:ar":"فلج هزاع","name:en":"Falaj Hazzaa","name:ckb":"فەلەج هەزاع","alt:en":"Falaj Hazza'"},"display_name":"فلج هزاع, العين, أبو ظبي, الإمارات العربية المتحدة","address":{"village":"فلج هزاع","county":"العين","state":"أبو ظبي","ISO3166-2-lvl4":"AE-AZ","country":"الإمارات العربية المتحدة","country_code":"ae"},"osm_type":"way","osm_id":854517390,"type":"village","location":[55.7197273,24.187924],"bbox":[55.6979942,24.1683294,55.7511104,24.2055213]},{"name":"فَلَج هَزَّاع","other_names":{"name:ar":"فَلَج هَزَّاع","name:en":"Falaj Hazza'"},"display_name":"فَلَج هَزَّاع, العين, أبو ظبي, الإمارات العربية المتحدة","address":{"city":"فَلَج هَزَّاع","county":"العين","state":"أبو ظبي","ISO3166-2-lvl4":"AE-AZ","country":"الإمارات العربية المتحدة","country_code":"ae"},"osm_type":"relation","osm_id":13251391,"type":"administrative","location":[55.72701901472617,24.187130449999998],"bbox":[55.6980375,24.1682612,55.7549571,24.2058617]}]}
{"name":"فلي","other_names":{"name:ar":"فلي","name:en":"Filli","name:es":"Filli","name:fr":"Filli"},"display_name":"فلي, المدام, الشارقة, الإمارات العربية المتحدة","address":{"village":"فلي","city":"المدام","state":"الشارقة","ISO3166-2-lvl4":"AE-SH","country":"الإمارات العربية المتحدة","country_code":"ae"},"osm_type":"node","osm_id":3649872491,"type":"village","location":[55.9203759,24.9965995],"bbox":[55.9003759,24.9765995,55.9403759,25.0165995]}
{"name":"قراط","other_names":{"name:ar":"قراط","name:en":"Sha'biyyāt Qirat","name:es":"Qirat","name:fr":"Qirat","alt_name":"Sha'biyyāt Qirat"},"display_name":"قراط, الفجيرة, الإمارات العربية المتحدة","address":{"village":"قراط","state":"الفجيرة","ISO3166-2-lvl4":"AE-FU","country":"الإمارات العربية المتحدة","country_code":"ae"},"osm_type":"node","osm_id":7047507167,"type":"village","location":[56.3491777,25.2639332],"bbox":[56.3291777,25.2439332,56.3691777,25.2839332]}
{"name":"قطاة","other_names":{"name:ar":"قطاة","name:en":"Qatah"},"display_name":"قطاة, البطائح, الشارقة, الإمارات العربية المتحدة","address":{"village":"قطاة","town":"البطائح","state":"الشارقة","ISO3166-2-lvl4":"AE-SH","country":"الإمارات العربية المتحدة","country_code":"ae"},"osm_type":"node","osm_id":5679118445,"type":"village","location":[55.6541312,25.2068147],"bbox":[55.6341312,25.1868147,55.6741312,25.2268147]}
{"name":"مبزرة الخضراء","other_names":{"name:ar":"مبزرة الخضراء","name:en":"Mbazzarah Al Khadra"},"display_name":"مبزرة الخضراء, مْبَزَّرَة الخَضْراء, العين, أبو ظبي, الإمارات العربية المتحدة","address":{"village":"مبزرة الخضراء","county":"العين","state":"أبو ظبي","ISO3166-2-lvl4":"AE-AZ","country":"الإمارات العربية المتحدة","country_code":"ae"},"osm_type":"node","osm_id":7968830833,"type":"village","location":[55.7362174,24.0843953],"bbox":[55.7162174,24.0643953,55.7562174,24.1043953],"border":[{"name":"مْبَزَّرَة الخَضْراء","other_names":{"name:ar":"مْبَزَّرَة الخَضْراء","name:en":"Mbazzarah Al Khadra"},"display_name":"مْبَزَّرَة الخَضْراء, العين, أبو ظبي, الإمارات العربية المتحدة","address":{"village":"مْبَزَّرَة الخَضْراء","county":"العين","state":"أبو ظبي","ISO3166-2-lvl4":"AE-AZ","country":"الإمارات العربية المتحدة","country_code":"ae"},"osm_type":"way","osm_id":854517383,"type":"village","location":[55.73499533091348,24.08021865],"bbox":[55.7194415,24.0536863,55.7521853,24.1088884]},{"name":"مْبَزَّرَة الخَضْراء","other_names":{"name:ar":"مْبَزَّرَة الخَضْراء","name:en":"Mbazzarah Al Khadra"},"display_name":"مْبَزَّرَة الخَضْراء, العين, أبو ظبي, الإمارات العربية المتحدة","address":{"city":"مْبَزَّرَة الخَضْراء","county":"العين","state":"أبو ظبي","ISO3166-2-lvl4":"AE-AZ","country":"الإمارات العربية المتحدة","country_code":"ae"},"osm_type":"relation","osm_id":13251398,"type":"administrative","location":[55.73621823728051,24.09722935],"bbox":[55.7194669,24.0542954,55.7602099,24.1400197]}]}
{"name":"محافز","other_names":{"name:ar":"محافز","name:en":"Mahafiz"},"display_name":"محافز, البطائح, الشارقة, الإمارات العربية المتحدة","address":{"village":"محافز","town":"البطائح","state":"الشارقة","ISO3166-2-lvl4":"AE-SH","country":"الإمارات العربية المتحدة","country_code":"ae"},"osm_type":"node","osm_id":6036684577,"type":"village","location":[55.7466866,25.1398475],"bbox":[55.7266866,25.1198475,55.7666866,25.1598475]}
{"name":"محضر بن عصيان","other_names":{"name:ar":"محضر بن عصيان"},"display_name":"محضر بن عصيان, حميم, منطقة الظفرة, أبو ظبي, الإمارات العربية المتحدة","address":{"village":"محضر بن عصيان","town":"حميم","county":"منطقة الظفرة","state":"أبو ظبي","ISO3166-2-lvl4":"AE-AZ","country":"الإمارات العربية المتحدة","country_code":"ae"},"osm_type":"node","osm_id":5344686041,"type":"village","location":[54.3260673,22.9283671],"bbox":[54.3060673,22.9083671,54.3460673,22.9483671]}
{"name":"مدينة الامارات","other_names":{"name:ar":"مدينة الامارات","name:en":"Emirates City"},"display_name":"مدينة الامارات, إمارة عجمان, الإمارات العربية المتحدة","address":{"village":"مدينة الامارات","state":"إمارة عجمان","ISO3166-2-lvl4":"AE-AJ","country":"الإمارات العربية المتحدة","country_code":"ae"},"osm_type":"node","osm_id":4365869014,"type":"village","location":[55.5731868,25.3920307],"bbox":[55.5531868,25.3720307,55.5931868,25.4120307]}
{"name":"مدينة زايد العسكرية","other_names":{"name:ar":"مدينة زايد العسكرية","name:en":"Zayed Military City"},"display_name":"مدينة زايد العسكرية, مَدينة زايد العسكرية, أبوظبي, أبو ظبي, الإمارات العربية المتحدة","address":{"village":"مدينة زايد العسكرية","city":"مَدينة زايد العسكرية","county":"أبوظبي","state":"أبو ظبي","ISO3166-2-lvl4":"AE-AZ","country":"الإمارات العربية المتحدة","country_code":"ae"},"osm_type":"node","osm_id":3414475925,"type":"village","location":[54.8980709,24.4966453],"bbox":[54.8780709,24.4766453,54.9180709,24.5166453],"border":{"name":"مَدينة زايد العسكرية","other_names":{"name:ar":"مَدينة زايد العسكرية","name:en":"Zayed Military City"},"display_name":"مَدينة زايد العسكرية, أبوظبي, أبو ظبي, الإمارات العربية المتحدة","address":{"city":"مَدينة زايد العسكرية","county":"أبوظبي","state":"أبو ظبي","ISO3166-2-lvl4":"AE-AZ","country":"الإمارات العربية المتحدة","country_code":"ae"},"osm_type":"relation","osm_id":13251384,"type":"administrative","location":[54.91642601932985,24.51930335],"bbox":[54.7453626,24.4193,55.1268747,24.6193687]}}
{"name":"مرقب","other_names":{"name:ar":"مرقب","name:en":"Marqab"},"display_name":"مرقب, دبي, الإمارات العربية المتحدة","address":{"village":"مرقب","state":"دبي","ISO3166-2-lvl4":"AE-DU","country":"الإمارات العربية المتحدة","country_code":"ae"},"osm_type":"node","osm_id":1487267659,"type":"village","location":[55.5865401,24.8208094],"bbox":[55.5665401,24.8008094,55.6065401,24.8408094]}
{"name":"مزيد","other_names":{"name:ar":"مزيد","name:en":"Mazyad"},"display_name":"مزيد, العين, أبو ظبي, الإمارات العربية المتحدة","address":{"village":"مزيد","county":"العين","state":"أبو ظبي","ISO3166-2-lvl4":"AE-AZ","country":"الإمارات العربية المتحدة","country_code":"ae"},"osm_type":"node","osm_id":7968830825,"type":"village","location":[55.8700275,24.0520291],"bbox":[55.8500275,24.0320291,55.8900275,24.0720291],"border":[{"name":"مزيد","other_names":{"name:ar":"مزيد","name:en":"Mazyad"},"display_name":"مزيد, العين, أبو ظبي, الإمارات العربية المتحدة","address":{"village":"مزيد","county":"العين","state":"أبو ظبي","ISO3166-2-lvl4":"AE-AZ","country":"الإمارات العربية المتحدة","country_code":"ae"},"osm_type":"relation","osm_id":16065554,"type":"village","location":[55.8700275,24.0520291],"bbox":[55.8318071,24.0225617,55.9271629,24.0701652]},{"name":"مَزْيَد","other_names":{"name:ar":"مَزْيَد","name:en":"Mazyad"},"display_name":"مَزْيَد, العين, أبو ظبي, الإمارات العربية المتحدة","address":{"city":"مَزْيَد","county":"العين","state":"أبو ظبي","ISO3166-2-lvl4":"AE-AZ","country":"الإمارات العربية المتحدة","country_code":"ae"},"osm_type":"relation","osm_id":13251401,"type":"administrative","location":[55.86485298342344,24.04254155],"bbox":[55.8329867,24.0156016,55.9279082,24.0699894]}]}
{"name":"مزيرعة","other_names":{"name:ar":"مزيرعة","name:en":"Mezaira"},"display_name":"مزيرعة, مْزِيرْعَة, منطقة الظفرة, أبو ظبي, الإمارات العربية المتحدة","address":{"village":"مزيرعة","city":"مْزِيرْعَة","county":"منطقة الظفرة","state":"أبو ظبي","ISO3166-2-lvl4":"AE-AZ","country":"الإمارات العربية المتحدة","country_code":"ae"},"osm_type":"node","osm_id":6279196242,"type":"village","location":[53.7769416,23.144501],"bbox":[53.7569416,23.124501,53.7969416,23.164501]}
{"name":"مطار العين الدولي","other_names":{"name:ar":"مطار العين الدولي","name:en":"Al Ain International Airport"},"display_name":"مطار العين الدولي, العين, أبو ظبي, الإمارات العربية المتحدة","address":{"village":"مطار العين الدولي","county":"العين","state":"أبو ظبي","ISO3166-2-lvl4":"AE-AZ","country":"الإمارات العربية المتحدة","country_code":"ae"},"osm_type":"node","osm_id":10044347680,"type":"village","location":[55.6189724,24.2691885],"bbox":[55.5989724,24.2491885,55.6389724,24.2891885],"border":{"name":"مطار العين الدولي","other_names":{"name:ar":"مطار العين الدولي","name:en":"Al Ain International Airport"},"display_name":"مطار العين الدولي, العين, أبو ظبي, الإمارات العربية المتحدة","address":{"village":"مطار العين الدولي","county":"العين","state":"أبو ظبي","ISO3166-2-lvl4":"AE-AZ","country":"الإمارات العربية المتحدة","country_code":"ae"},"osm_type":"relation","osm_id":13251421,"type":"administrative","location":[55.6189724,24.2691885],"bbox":[55.5785328,24.2307802,55.6693596,24.3497827]}}
{"name":"ملاقط","other_names":{"name:ar":"ملاقط","name:en":"Malaqit"},"display_name":"ملاقط, العين, أبو ظبي, الإمارات العربية المتحدة","address":{"village":"ملاقط","county":"العين","state":"أبو ظبي","ISO3166-2-lvl4":"AE-AZ","country":"الإمارات العربية المتحدة","country_code":"ae"},"osm_type":"node","osm_id":7968830826,"type":"village","location":[55.8828163,24.1827761],"bbox":[55.8628163,24.1627761,55.9028163,24.2027761],"border":[{"name":"ملاقط","other_names":{"name:ar":"ملاقط","name:en":"Malaqit"},"display_name":"ملاقط, العين, أبو ظبي, الإمارات العربية المتحدة","address":{"village":"ملاقط","county":"العين","state":"أبو ظبي","ISO3166-2-lvl4":"AE-AZ","country":"الإمارات العربية المتحدة","country_code":"ae"},"osm_type":"way","osm_id":854517398,"type":"village","location":[55.8828163,24.1827761],"bbox":[55.8337267,24.1698861,55.9180785,24.219799]},{"name":"مَلاقط","other_names":{"name:ar":"مَلاقط","name:en":"Malaqit"},"display_name":"مَلاقط, العين, أبو ظبي, الإمارات العربية المتحدة","address":{"city":"مَلاقط","county":"العين","state":"أبو ظبي","ISO3166-2-lvl4":"AE-AZ","country":"الإمارات العربية المتحدة","country_code":"ae"},"osm_type":"relation","osm_id":13251397,"type":"administrative","location":[55.90117051036981,24.15950355],"bbox":[55.8522637,24.1193175,55.9429649,24.1992434]}]}
{"name":"مهذب","other_names":{"name:ar":"مهذب","name:en":"Mohadhub"},"display_name":"مهذب, أم القيوين, الإمارات العربية المتحدة","address":{"village":"مهذب","state":"أم القيوين","ISO3166-2-lvl4":"AE-UQ","country":"الإمارات العربية المتحدة","country_code":"ae"},"osm_type":"node","osm_id":7125567213,"type":"village","location":[55.6692559,25.4334238],"bbox":[55.6492559,25.4134238,55.6892559,25.4534238]}
{"name":"نعمة","other_names":{"name:ar":"نعمة","name:en":"Ni'mah"},"display_name":"نعمة, نِعْمة, العين, أبو ظبي, الإمارات العربية المتحدة","address":{"village":"نعمة","city":"نِعْمة","county":"العين","state":"أبو ظبي","ISO3166-2-lvl4":"AE-AZ","country":"الإمارات العربية المتحدة","country_code":"ae"},"osm_type":"node","osm_id":10044214883,"type":"village","location":[55.7061458,24.1134059],"bbox":[55.6861458,24.0934059,55.7261458,24.1334059],"border":{"name":"نِعْمة","other_names":{"name:ar":"نِعْمة","name:en":"Ni'mah"},"display_name":"نِعْمة, العين, أبو ظبي, الإمارات العربية المتحدة","address":{"city":"نِعْمة","county":"العين","state":"أبو ظبي","ISO3166-2-lvl4":"AE-AZ","country":"الإمارات العربية المتحدة","country_code":"ae"},"osm_type":"relation","osm_id":13251389,"type":"administrative","location":[55.708951260049204,24.11760085],"bbox":[55.6940681,24.0996657,55.7194669,24.1359779]}}
{"name":"نهي","other_names":{"name:ar":"نهي","name:en":"Nehay"},"display_name":"نهي, الفجيرة, الإمارات العربية المتحدة","address":{"village":"نهي","state":"الفجيرة","ISO3166-2-lvl4":"AE-FU","country":"الإمارات العربية المتحدة","country_code":"ae"},"osm_type":"node","osm_id":6252175085,"type":"village","location":[56.3504541,25.4469464],"bbox":[56.3304541,25.4269464,56.3704541,25.4669464]}
{"name":"هوية","other_names":{"name:ar":"هوية","name:en":"Huwayyah"},"display_name":"هوية, البطائح, الشارقة, الإمارات العربية المتحدة","address":{"village":"هوية","town":"البطائح","state":"الشارقة","ISO3166-2-lvl4":"AE-SH","country":"الإمارات العربية المتحدة","country_code":"ae"},"osm_type":"node","osm_id":5898666974,"type":"village","location":[55.7470239,25.3237024],"bbox":[55.7270239,25.3037024,55.7670239,25.3437024]}
{"name":"هيلي","other_names":{"name:ar":"هيلي","name:en":"Hili"},"display_name":"هيلي, هِيلِي, العين, أبو ظبي, الإمارات العربية المتحدة","address":{"village":"هيلي","city":"هِيلِي","county":"العين","state":"أبو ظبي","ISO3166-2-lvl4":"AE-AZ","country":"الإمارات العربية المتحدة","country_code":"ae"},"osm_type":"node","osm_id":2344579451,"type":"village","location":[55.7764491,24.2934614],"bbox":[55.7564491,24.2734614,55.7964491,24.3134614],"border":{"name":"هِيلِي","other_names":{"name:ar":"هِيلِي","name:en":"Hili"},"display_name":"هِيلِي, العين, أبو ظبي, الإمارات العربية المتحدة","address":{"city":"هِيلِي","county":"العين","state":"أبو ظبي","ISO3166-2-lvl4":"AE-AZ","country":"الإمارات العربية المتحدة","country_code":"ae"},"osm_type":"relation","osm_id":13251419,"type":"administrative","location":[55.77511733031457,24.3044346],"bbox":[55.7445029,24.262092,55.8157208,24.3466405]}}
{"name":"وتييد","other_names":{"name:ar":"وتييد","name:en":"Owtaid"},"display_name":"وتييد, بُو حَصَا, منطقة الظفرة, أبو ظبي, الإمارات العربية المتحدة","address":{"village":"وتييد","city":"بُو حَصَا","county":"منطقة الظفرة","state":"أبو ظبي","ISO3166-2-lvl4":"AE-AZ","country":"الإمارات العربية المتحدة","country_code":"ae"},"osm_type":"node","osm_id":6279196241,"type":"village","location":[53.0906528,23.4078209],"bbox":[53.0706528,23.3878209,53.1106528,23.4278209]}
{"name":"وسط المدينة","other_names":{"name:ar":"وسط المدينة","name:en":"Central District"},"display_name":"وسط المدينة, العين, أبو ظبي, الإمارات العربية المتحدة","address":{"village":"وسط المدينة","county":"العين","state":"أبو ظبي","ISO3166-2-lvl4":"AE-AZ","country":"الإمارات العربية المتحدة","country_code":"ae"},"osm_type":"node","osm_id":7968830829,"type":"village","location":[55.7717514,24.2232499],"bbox":[55.7517514,24.2032499,55.7917514,24.2432499],"border":[{"name":"وسط المدينة","other_names":{"name:ar":"وسط المدينة","name:en":"Central District","name:ckb":"ناوەندی شار"},"display_name":"وسط المدينة, العين, أبو ظبي, الإمارات العربية المتحدة","address":{"village":"وسط المدينة","county":"العين","state":"أبو ظبي","ISO3166-2-lvl4":"AE-AZ","country":"الإمارات العربية المتحدة","country_code":"ae"},"osm_type":"way","osm_id":854517384,"type":"village","location":[55.78113129584061,24.2173788],"bbox":[55.7507724,24.2004999,55.8345724,24.2348717]},{"name":"وسط المدينة","other_names":{"name:ar":"وسط المدينة","name:en":"Central District"},"display_name":"وسط المدينة, العين, أبو ظبي, الإمارات العربية المتحدة","address":{"village":"وسط المدينة","county":"العين","state":"أبو ظبي","ISO3166-2-lvl4":"AE-AZ","country":"الإمارات العربية المتحدة","country_code":"ae"},"osm_type":"relation","osm_id":13251405,"type":"administrative","location":[55.7717514,24.2232499],"bbox":[55.7507864,24.2004244,55.8333956,24.2347302]}]}
{"name":"وشاح","other_names":{"name:ar":"وشاح","name:en":"Al Weshah","name:ml":"അൽ വിഷാ","alt_name:en":"Al Wushah"},"display_name":"وشاح, الذيد, الشارقة, الإمارات العربية المتحدة","address":{"village":"وشاح","city":"الذيد","state":"الشارقة","ISO3166-2-lvl4":"AE-SH","country":"الإمارات العربية المتحدة","country_code":"ae"},"osm_type":"node","osm_id":5717632101,"type":"village","location":[55.9234754,25.2371312],"bbox":[55.9034754,25.2171312,55.9434754,25.2571312]}
{"name":"يبسة","other_names":{"name:ar":"يبسة","name:en":"Yabsa","name:es":"Yabsa"},"display_name":"يبسة, الفجيرة, الإمارات العربية المتحدة","address":{"village":"يبسة","state":"الفجيرة","ISO3166-2-lvl4":"AE-FU","country":"الإمارات العربية المتحدة","country_code":"ae"},"osm_type":"node","osm_id":6060515273,"type":"village","location":[56.2876019,25.1702781],"bbox":[56.2676019,25.1502781,56.3076019,25.1902781]}
{"name":"يعلة","other_names":{"name:ar":"يعلة","name:de":"Yala","name:en":"Yalah","name:es":"Yalah","name:fr":"Yala"},"display_name":"يعلة, الفجيرة, الإمارات العربية المتحدة","address":{"village":"يعلة","state":"الفجيرة","ISO3166-2-lvl4":"AE-FU","country":"الإمارات العربية المتحدة","country_code":"ae"},"osm_type":"node","osm_id":5857156497,"type":"village","location":[56.1549318,25.4155146],"bbox":[56.1349318,25.3955146,56.1749318,25.4355146]}
