{"name":"Al Badīyah","other_names":{"name:ar":"البدية","name:en":"Al Badīyah","name:es":"Al Badīyah","name:fr":"Al Badīyah","name:ml":"ബദിയ","alt_name":"Sha'biyyah Al Bidyah, Al Bidyah, Badya, Al Badīyah, Badīya, Badīyah, Badiyyah, Bidiya, Bidyah, Budayyah"},"display_name":"Al Badīyah, الفجيرة, الإمارات العربية المتحدة","address":{"city":"Al Badīyah","state":"الفجيرة","ISO3166-2-lvl4":"AE-FU","country":"الإمارات العربية المتحدة","country_code":"ae"},"osm_type":"node","osm_id":8128209873,"type":"city","location":[56.3426968,25.4380044],"bbox":[56.1826968,25.2780044,56.5026968,25.5980044],"border":{"name":"البدية","other_names":{"name:ar":"البدية","name:en":"Al Badīyah","name:es":"Al Badīyah","name:fr":"Al Badīyah","alt_name":"Sha'biyyah Al Bidyah, Al Bidyah, Badya, Al Badīyah, Badīya, Badīyah, Badiyyah, Bidiya, Bidyah, Budayyah"},"display_name":"البدية, الفجيرة, الإمارات العربية المتحدة","address":{"city":"البدية","state":"الفجيرة","ISO3166-2-lvl4":"AE-FU","country":"الإمارات العربية المتحدة","country_code":"ae"},"osm_type":"way","osm_id":872858699,"type":"city","location":[56.343457058374085,25.42263205],"bbox":[56.3140287,25.3867225,56.3651416,25.4589932]}}
{"name":"Al Jeer الجير","other_names":{"name:ar":"الجير","name:en":"Al Jeer","name:es":"Al Jeer","name:fa":"القیر","name:fr":"Al Jeer","name:ur":"القیر","alt_name":"Al Jir;Al Jeer;Al Jīr;Al-Jir","name:azb":"القیر","name:pnb":"القیر"},"display_name":"Al Jeer الجير, رأس الخيمة, الإمارات العربية المتحدة","address":{"city":"Al Jeer الجير","state":"رأس الخيمة","ISO3166-2-lvl4":"AE-RK","country":"الإمارات العربية المتحدة","country_code":"ae"},"osm_type":"node","osm_id":5759499173,"type":"city","location":[56.0979187,26.035673],"bbox":[55.9379187,25.875673,56.2579187,26.195673]}
{"name":"Dadna","other_names":{"name:ar":"Dadna","name:en":"Dadna","name:es":"Dadna","name:fr":"Dadna","alt_name":"Dadnā;Dhadna;Dadnah;Dhadnah"},"display_name":"Dadna, ضدنا, الفجيرة, الإمارات العربية المتحدة","address":{"city":"Dadna","town":"ضدنا","state":"الفجيرة","ISO3166-2-lvl4":"AE-FU","country":"الإمارات العربية المتحدة","country_code":"ae"},"osm_type":"way","osm_id":117812208,"type":"city","location":[56.35829767835304,25.5226048],"bbox":[56.3548972,25.5139139,56.3624407,25.5301792]}
{"name":"Dibba Al Fujairah دبا الفجيرة","other_names":{"name:ar":"دبا الفجيرة","name:en":"Dibba Al Fujairah","name:es":"Dibba Al Fujairah","name:fr":"Dibba Al Fujairah","name:ml":"ദിബ്ബ അൽ ഫുജൈറ"},"display_name":"Dibba Al Fujairah دبا الفجيرة, الفجيرة, الإمارات العربية المتحدة","address":{"city":"Dibba Al Fujairah دبا الفجيرة","state":"الفجيرة","ISO3166-2-lvl4":"AE-FU","country":"الإمارات العربية المتحدة","country_code":"ae"},"osm_type":"node","osm_id":9889603000,"type":"city","location":[56.3070733,25.602261],"bbox":[56.1470733,25.442261,56.4670733,25.762261]}
{"name":"Kalba كلباء","other_names":{"name:ar":"كلباء","name:de":"Kalba","name:en":"Kalba","name:es":"Kalba","name:fa":"کلبا","name:fr":"Kalba","name:he":"כלבה","name:ml":"കൽബ","name:sr":"Калба","name:ur":"کلبا","alt_name":"Kalbā","name:arz":"كلباء","name:pnb":"کلبہ"},"display_name":"Kalba كلباء, الشارقة, الإمارات العربية المتحدة","address":{"city":"Kalba كلباء","state":"الشارقة","ISO3166-2-lvl4":"AE-SH","country":"الإمارات العربية المتحدة","country_code":"ae"},"osm_type":"node","osm_id":8559776151,"type":"city","location":[56.3542189,25.0512959],"bbox":[56.1942189,24.8912959,56.5142189,25.2112959],"border":{"name":"Kalba كلباء","other_names":{"name:ar":"كلباء","name:en":"Kalba","name:es":"Kalba","alt_name":"Kalbā","name:de":"Kalba","name:fa":"کلبا","name:fr":"Kalba","name:he":"כלבה","name:ml":"കൽബ","name:sr":"Калба","name:ur":"کلبا","name:arz":"كلباء","name:pnb":"کلبہ"},"display_name":"Kalba كلباء, الشارقة, الإمارات العربية المتحدة","address":{"city":"Kalba كلباء","state":"الشارقة","ISO3166-2-lvl4":"AE-SH","country":"الإمارات العربية المتحدة","country_code":"ae"},"osm_type":"relation","osm_id":12482829,"type":"administrative","location":[56.3542189,25.0512959],"bbox":[56.1693555,24.8907126,56.3748987,25.1021872]}}
{"name":"Khatt خت","other_names":{"name:ar":"خت","name:en":"Khatt","name:es":"Khatt","name:fr":"Khatt","alt_name":"Khat, Al Khatt, Al Khaṭṭ, Khatt"},"display_name":"Khatt خت, رأس الخيمة, الإمارات العربية المتحدة","address":{"city":"Khatt خت","state":"رأس الخيمة","ISO3166-2-lvl4":"AE-RK","country":"الإمارات العربية المتحدة","country_code":"ae"},"osm_type":"relation","osm_id":18471822,"type":"administrative","location":[55.98837811571808,25.63477565],"bbox":[55.9441562,25.6090719,56.0278618,25.6654828],"inferred_type":"city"}
{"name":"Khor Fakkan - خورفكان","other_names":{"name:ar":"خورفكان","name:cs":"Chór Fakkán","name:de":"Khor Fakkan","name:en":"Khor Fakkan","name:es":"Khor Fakkan","name:fa":"خور فکان","name:fr":"Khor Fakkan","name:hi":"खोर फक्कान","name:hy":"Խոր-Ֆակկան","name:ml":"ഖോർ ഫക്കാൻ","name:ru":"Хаур-Факкан","name:sr":"Хор Факан","name:ta":"கோர்பக்கான்","name:uk":"Хор-Факкан","name:ur":"خورفکان","name:zh":"豪尔费坎港","alt_name":"Khawr Fakkan;Khawr Fakkān;Khor al Fākhān;Khor al Fākkān;Khor Fakkān;Khorfakhan;Khor'fakkan","name:azb":"خور فکان","alt_name:ar":"خور فكان","alt_name:de":"Chaur Fakkan"},"display_name":"Khor Fakkan - خورفكان, خورفكان, الشارقة, الإمارات العربية المتحدة","address":{"city":"Khor Fakkan - خورفكان","state":"الشارقة","ISO3166-2-lvl4":"AE-SH","country":"الإمارات العربية المتحدة","country_code":"ae"},"population":39515,"osm_type":"node","osm_id":8128209870,"type":"city","location":[56.3478105,25.3491721],"bbox":[56.1878105,25.1891721,56.5078105,25.5091721],"border":{"name":"خورفكان","other_names":{"name:ar":"خورفكان","name:cs":"Chór Fakkán","name:de":"Khor Fakkan","name:en":"Khor Fakkan","name:es":"Khor Fakkan","name:fa":"خور فکان","name:fr":"Khor Fakkan","name:hi":"खोर फक्कान","name:hy":"Խոր-Ֆակկան","name:ml":"ഖോർ ഫക്കാൻ","name:ru":"Хаур-Факкан","name:sr":"Хор Факан","name:ta":"கோர்பக்கான்","name:uk":"Хор-Факкан","name:ur":"خورفکان","name:zh":"豪尔费坎港","alt_name":"خور فكان","name:azb":"خور فکان","alt_name:ar":"خور فكان","alt_name:de":"Chaur Fakkan","_place_alt_name":"Khawr Fakkan;Khawr Fakkān;Khor al Fākhān;Khor al Fākkān;Khor Fakkān;Khorfakhan;Khor'fakkan","alt":"Khor Fakkan - خورفكان"},"display_name":"خورفكان, الشارقة, الإمارات العربية المتحدة","address":{"city":"خورفكان","state":"الشارقة","ISO3166-2-lvl4":"AE-SH","country":"الإمارات العربية المتحدة","country_code":"ae"},"population":39515,"osm_type":"relation","osm_id":12497695,"type":"administrative","location":[56.3478105,25.3491721],"bbox":[56.2095438,25.2605724,56.3812886,25.4201951]}}
{"name":"Khor Khwair خور خوير","other_names":{"name:ar":"خور خوير","name:de":"Khor Khwair","name:en":"Khor Khwair","name:es":"Khor Khwair","name:fa":"خور خویر","name:fr":"Khor Khwair","name:ml":"ഖോർ ഖുവൈർ","alt_name":"Khawr Khuwayr;Khor Khuwair;Khuwair"},"display_name":"Khor Khwair خور خوير, رأس الخيمة, الإمارات العربية المتحدة","address":{"city":"Khor Khwair خور خوير","state":"رأس الخيمة","ISO3166-2-lvl4":"AE-RK","country":"الإمارات العربية المتحدة","country_code":"ae"},"osm_type":"node","osm_id":7015304054,"type":"city","location":[56.0543258,25.9658776],"bbox":[55.8943258,25.8058776,56.2143258,26.1258776]}
{"name":"Khuzam","other_names":{"name:ar":"Khuzam","name:en":"Khuzam","name:es":"Khuzam","name:fr":"Khuzam","name:ml":"ഖുസാം","alt_name":"Khuzām"},"display_name":"Khuzam, رأس الخيمة, الإمارات العربية المتحدة","address":{"city":"Khuzam","state":"رأس الخيمة","ISO3166-2-lvl4":"AE-RK","country":"الإمارات العربية المتحدة","country_code":"ae"},"osm_type":"node","osm_id":12323371754,"type":"city","location":[55.9343224,25.7640773],"bbox":[55.7743224,25.6040773,56.0943224,25.9240773]}
{"name":"Lulayyah - اللؤلؤية","other_names":{"name:ar":"اللؤلؤية","name:en":"Lulayyah","name:es":"Lulayyah","name:fr":"Lulayyah","name:ml":"ലൂലയ്യ","alt_name":"Sha'biyyat Lūliyyah;Hay Alloleya;Al Lou Alou;Al Luolo'aya;Alluluyah;Lu'lu'iyah;Lulaiyah;Luliyyah;Luluya;Lu’lu’īyah;Lūlaiyah;Lūlayyah;Lūliyyah"},"display_name":"Lulayyah - اللؤلؤية, خورفكان, الشارقة, الإمارات العربية المتحدة","address":{"city":"Lulayyah - اللؤلؤية","state":"الشارقة","ISO3166-2-lvl4":"AE-SH","country":"الإمارات العربية المتحدة","country_code":"ae"},"osm_type":"node","osm_id":5617204023,"type":"city","location":[56.3555672,25.3958107],"bbox":[56.1955672,25.2358107,56.5155672,25.5558107]}
{"name":"Mirbah مربح","other_names":{"name:ar":"مربح","name:en":"Mirbah","name:es":"Mirbah","name:fr":"Mirbah","name:ml":"മിർബ","alt_name":"Sha'biyyāt Mirbah;Murbah"},"display_name":"Mirbah مربح, الفجيرة, الإمارات العربية المتحدة","address":{"city":"Mirbah مربح","state":"الفجيرة","ISO3166-2-lvl4":"AE-FU","country":"الإمارات العربية المتحدة","country_code":"ae"},"osm_type":"node","osm_id":8128209869,"type":"city","location":[56.3605496,25.2760561],"bbox":[56.2005496,25.1160561,56.5205496,25.4360561]}
{"name":"Sha'am - شعم","other_names":{"name:ar":"شعم","name:en":"Sha'am","name:es":"Sha'am","name:fr":"Sha'am","name:ml":"ഷാം"},"display_name":"Sha'am - شعم, رأس الخيمة, الإمارات العربية المتحدة","address":{"city":"Sha'am - شعم","state":"رأس الخيمة","ISO3166-2-lvl4":"AE-RK","country":"الإمارات العربية المتحدة","country_code":"ae"},"osm_type":"node","osm_id":5759499172,"type":"city","location":[56.0857749,26.0288628],"bbox":[55.9257749,25.8688628,56.2457749,26.1888628]}
{"name":"Tawiyean - الطويين","other_names":{"name:ar":"الطويين","name:de":"Tawian","name:en":"Tawiyean","name:es":"Tawiyayn","name:fr":"Tawiyean","name:ml":"തൗയീൻ","alt_name":"Aţ Ţawyēn;Tawyen;Tawiyain;Tawiyayn;Tawyayn;Tuwiyain;Ţawīyayn"},"display_name":"Tawiyean - الطويين, الفجيرة, الإمارات العربية المتحدة","address":{"city":"Tawiyean - الطويين","state":"الفجيرة","ISO3166-2-lvl4":"AE-FU","country":"الإمارات العربية المتحدة","country_code":"ae"},"osm_type":"node","osm_id":5963364651,"type":"city","location":[56.0768012,25.553532],"bbox":[55.9168012,25.393532,56.2368012,25.713532]}
{"name":"آل نَهيان","other_names":{"name:ar":"آل نَهيان","name:en":"Al Nahyan"},"display_name":"آل نَهيان, أبوظبي, أبو ظبي, الإمارات العربية المتحدة","address":{"city":"آل نَهيان","county":"أبوظبي","state":"أبو ظبي","ISO3166-2-lvl4":"AE-AZ","country":"الإمارات العربية المتحدة","country_code":"ae"},"osm_type":"relation","osm_id":13251310,"type":"administrative","location":[54.386838884744236,24.46446185],"bbox":[54.3706722,24.4470932,54.4031014,24.4804504],"inferred_type":"city"}
{"name":"أبو ظبي","other_names":{"name:af":"Aboe Dhabi","name:am":"አቡ ዳቢ","name:ar":"أبو ظبي","name:az":"Əbu-Dabi","name:be":"Абу-Дабі","name:bg":"Абу Даби","name:bn":"আবুধাবি","name:bo":"ཨ་པོའུ་དྷ་པེ།","name:br":"Abu Dhabi","name:bs":"Abu Dabi","name:ca":"Abu Dhabi","name:cs":"Abú Zabí","name:de":"Abu Dhabi","name:el":"Αμπού Ντάμπι","name:en":"Abu Dhabi","name:eo":"Abu-Dabio","name:es":"Abu Dabi","name:et":"Abu Dhabi","name:eu":"Abu Dhabi","name:fa":"ابوظبی","name:fi":"Abu Dhabi","name:fr":"Abou Dabi","name:fy":"Abû Daby","name:ga":"Abú Daibí","name:he":"אבו דאבי","name:hi":"अबू धाबी","name:hr":"Abu Dhabi","name:ht":"Abou Dabi","name:hu":"Abu-Dzabi","name:hy":"Աբու Դաբի","name:is":"Abú Dabí","name:it":"Abu Dhabi","name:ja":"アブダビ","name:ka":"აბუ-ზაბი","name:kk":"Абу-Даби","name:kn":"ಅಬು ಧಾಬಿ","name:ko":"아부다비","name:ks":"ابوظہبی","name:ku":"Abû Zebî","name:lt":"Abu Dabis","name:lv":"Abū Dabī","name:mk":"Абу Даби","name:ml":"അബുദാബി","name:mn":"Абу Даби","name:mr":"अबु धाबी","name:my":"အဘူဒါဘီမြို့","name:oc":"Abu Dhabi","name:or":"ଆବୁଧାବି","name:os":"Абу-Даби","name:pa":"ਅਬੂ ਧਾਬੀ","name:pl":"Abu Zabi","name:ps":"ابوظبی","name:pt":"Abu Dhabi","name:ru":"Абу-Даби","name:sh":"Abu Dabi","name:si":"අබුඩාබි","name:sk":"Abú Zabí","name:sl":"Abu Dabi","name:sq":"Abu Dabi","name:sr":"Абу Даби","name:sv":"Abu Dhabi","name:ta":"அபுதாபி","name:tg":"Абу Даби","name:th":"อาบูดาบี","name:tr":"Abu Dabi","name:tt":"Әбү-Дәби шәһәре","name:ug":"ئەبۇ زەبى","name:uk":"Абу-Дабі","name:ur":"ابو ظہبی","name:vi":"Abu Dhabi","name:vo":"Äbu Saby","name:zh":"阿布扎比","alt_name":"أبوظبي","name:azb":"ابوظبی","name:ckb":"ئەبووزەبی","name:frp":"Abou Dabi","name:hyw":"Ապու Տապի","name:kab":"Abu Ḍabi","name:kmr":"ئابوو زەبی","name:lrc":"ٱبۊزٱبی","name:mzn":"ابوظبی","name:nov":"Abu Dabi","name:pnb":"ابوظہبی","name:sah":"Абу Даби","name:vep":"Abu Dabi","reg_name":"بوظبي","alt_name:ar":"أبوظبي","alt_name:cs":"Abú Dhabí","alt_name:ur":"ابوظہبی","reg_name:ar":"بوظبي","name:az-Arab":"ابوظبی","name:bat-smg":"Abu Dabis","name:kk-Arab":"ابۋ-دابىي","name:kab-Arab":"أبو ظبي","name:be-tarask":"Абу Дабі"},"display_name":"أبو ظبي, الإمارات العربية المتحدة","address":{"city":"أبو ظبي","state":"أبو ظبي","ISO3166-2-lvl4":"AE-AZ","country":"الإمارات العربية المتحدة","country_code":"ae"},"population":921000,"osm_type":"node","osm_id":261611194,"type":"city","location":[54.3774014,24.4538352],"bbox":[54.2174014,24.2938352,54.5374014,24.6138352],"border":[{"name":"أبو ظبي","other_names":{"name:af":"Aboe Dhabi","name:am":"አቡ ዳቢ","name:ar":"أبو ظبي","name:ay":"Abu Dhabi Marka","name:az":"Əbu-Dabi","name:ba":"Әбү-Дәби","name:be":"Абу-Дабі","name:bg":"Абу Даби","name:bh":"अबू धाबी","name:bn":"আবুধাবি","name:bo":"ཨ་པོའུ་དྷ་པེ།","name:br":"Abu Dhabi","name:bs":"Abu Dabi","name:ca":"Abu Dhabi","name:ce":"Абу-Даби","name:cs":"Abú Dhabí","name:cy":"Abu Dhabi","name:da":"Abu Dhabi","name:de":"Abu Dhabi","name:el":"Αμπού Ντάμπι","name:en":"Abu Dhabi","name:eo":"Abu-Dabio","name:es":"Abu Dabi","name:et":"Abu Dhabi","name:eu":"Abu Dhabi","name:fa":"ابوظبی","name:fi":"Abu Dhabi","name:fo":"Abu Dhabi","name:fr":"Abou Dabi","name:fy":"Abû Daby","name:ga":"Abú Daibí","name:gd":"Abu Dhabi","name:gl":"Abu Zabi","name:ha":"Abu Dhabi","name:he":"אבו דאבי","name:hi":"अबू धाबी","name:hr":"Abu Dhabi","name:ht":"Abou Dabi","name:hu":"Abu-Dzabi","name:hy":"Աբու Դաբի","name:id":"Abu Dhabi","name:ie":"Abu Dhabi","name:io":"Abu Dhabi","name:is":"Abú Dabí","name:it":"Abu Dhabi","name:ja":"アブダビ","name:ka":"აბუ-ზაბი","name:ki":"Abu Dhabi","name:kk":"Абу-Даби","name:kn":"ಅಬು ಧಾಬಿ","name:ko":"아부다비","name:ks":"ابوظہبی","name:ku":"Abû Zebî","name:lt":"Abu Dabis","name:lv":"Abū Dabī","name:mk":"Абу Даби","name:ml":"അബുദാബി","name:mn":"Абу Даби","name:mr":"अबु धाबी","name:my":"အဘူဒါဘီမြို့","name:ne":"अबु धाबी","name:nl":"Abu Dhabi","name:no":"Abu Dhabi","name:oc":"Abu Dhabi","name:or":"ଆବୁଧାବି","name:os":"Абу-Даби","name:pa":"ਅਬੂ ਧਾਬੀ","name:pl":"Abu Zabi","name:ps":"ابوظبی","name:pt":"Abu Dhabi","name:ro":"Abu Dhabi","name:ru":"Абу-Даби","name:sc":"Abu Dhabi","name:sh":"Abu Dabi","name:si":"අබුඩාබි","name:sk":"Abú Zabí","name:sl":"Abu Dabi","name:sn":"Abu Dhabi","name:so":"Abu Dabi","name:sq":"Abu Dabi","name:sr":"Абу Даби","name:sv":"Abu Dhabi","name:sw":"Abu Dhabi","name:ta":"அபூ ழபீ","name:te":"అబు దాబి","name:tg":"Абу Даби","name:th":"อาบูดาบี","name:tl":"Abu Dhabi","name:tr":"Abu Dabi","name:tt":"Әбү-Дәби","name:ug":"ئەبۇ زەبى","name:uk":"Абу-Дабі","name:ur":"ابوظبی","name:uz":"Abu-Dabi","name:vi":"Abu Dhabi","name:vo":"Äbu Saby","name:yo":"Abu Dhabi","name:zh":"阿布扎比","alt_name":"أبوظبي","name:ace":"Abu Dhabi","name:ast":"Abu Dhabi","name:azb":"ابوظبی","name:bjn":"Abu Dhabi","name:ckb":"ئەبووزەبی","name:frp":"Abou Dabi","name:hak":"Abu Dhabi","name:hyw":"Ապու Տապի","name:kaa":"Abu Dabi","name:kab":"Abu Ḍabi","name:lfn":"Abu Dabi","name:lij":"Abu Dhabi","name:lmo":"Abu Dhabi","name:mai":"अबु धाबी","name:min":"Abu Dhabi","name:mzn":"ابوظبی","name:nov":"Abu Dabi","name:pam":"Abu Dhabi","name:pap":"Abu Dhabi","name:pnb":"ابوظہبی","name:sah":"Абу Даби","name:sat":"ᱟᱵᱩ ᱫᱷᱟᱵᱤ","name:scn":"Abu Dhabi","name:sco":"Abu Dhabi","name:szl":"Abu Zabi","name:udm":"Абу-Даби","name:vep":"Abu Dabi","name:war":"Abu Dhabi","name:wuu":"阿布扎比","name:xmf":"აბუ-დაბი","reg_name":"بوظبي","alt_name:ar":"أبوظبي","alt_name:ur":"ابوظہبی","reg_name:ar":"بوظبي","name:az-Arab":"ابوظبی","name:bat-smg":"Abu Dabis","name:kk-Arab":"ابۋ-دابىي","name:kab-Arab":"أبو ظبي","name:be-tarask":"Абу Дабі","name:kmr":"ئابوو زەبی","name:lrc":"ٱبۊزٱبی","alt_name:cs":"Abú Dhabí","alt:cs":"Abú Zabí","alt:ta":"அபுதாபி","alt:tt":"Әбү-Дәби шәһәре","alt:ur":"ابو ظہبی"},"display_name":"أبو ظبي, الإمارات العربية المتحدة","address":{"city":"أبو ظبي","state":"أبو ظبي","ISO3166-2-lvl4":"AE-AZ","country":"الإمارات العربية المتحدة","country_code":"ae"},"population":921000,"osm_type":"relation","osm_id":4479763,"type":"administrative","location":[54.3774014,24.4538352],"bbox":[54.2971553,24.2810331,54.7659108,24.601854]},{"name":"أبوظبي","other_names":{"name:ar":"أبوظبي","name:en":"Abu Dhabi","name:ur":"ابو ظہبی"},"display_name":"أبوظبي, أبو ظبي, الإمارات العربية المتحدة","address":{"county":"أبوظبي","state":"أبو ظبي","ISO3166-2-lvl4":"AE-AZ","country":"الإمارات العربية المتحدة","country_code":"ae"},"osm_type":"relation","osm_id":13249273,"type":"administrative","location":[54.37357846722885,24.26840395],"bbox":[53.5953858,23.4519795,55.1706292,25.0693387]}]}
{"name":"أبو مريخة","other_names":{"name:ar":"أبو مريخة","name:en":"Abu Mreikhah"},"display_name":"أبو مريخة, أبوظبي, أبو ظبي, الإمارات العربية المتحدة","address":{"city":"أبو مريخة","county":"أبوظبي","state":"أبو ظبي","ISO3166-2-lvl4":"AE-AZ","country":"الإمارات العربية المتحدة","country_code":"ae"},"osm_type":"relation","osm_id":13251373,"type":"administrative","location":[54.72600798788919,24.5878191],"bbox":[54.6949794,24.5547634,54.7635329,24.6209055],"inferred_type":"city"}
{"name":"أم القيوين","other_names":{"name:ar":"أم القيوين","name:cs":"Umm al-Kuvajn","name:de":"Umm al-Qaiwain","name:en":"Umm Al Quwain","name:es":"Um el Kaiwain","name:fr":"Oumm al Qaïwaïn","name:he":"אום אל קוווואן","name:ko":"움알쿠와인","name:ml":"ഉമ്മുൽ ഖുവൈൻ","name:ru":"Умм-эль-Кайвайн","name:uk":"Умм-ель-Кайвайн","name:zh":"烏姆蓋萬"},"display_name":"أم القيوين, الإمارات العربية المتحدة","address":{"city":"أم القيوين","state":"أم القيوين","ISO3166-2-lvl4":"AE-UQ","country":"الإمارات العربية المتحدة","country_code":"ae"},"population":34637,"osm_type":"node","osm_id":896422314,"type":"city","location":[55.5474977,25.5520435],"bbox":[55.3874977,25.3920435,55.7074977,25.7120435]}
{"name":"البَاهية","other_names":{"name:ar":"البَاهية","name:en":"Al Bahyah"},"display_name":"البَاهية, أبوظبي, أبو ظبي, الإمارات العربية المتحدة","address":{"city":"البَاهية","county":"أبوظبي","state":"أبو ظبي","ISO3166-2-lvl4":"AE-AZ","country":"الإمارات العربية المتحدة","country_code":"ae"},"osm_type":"relation","osm_id":13251343,"type":"administrative","location":[54.66416290383747,24.5565323],"bbox":[54.5998849,24.4849133,54.6959231,24.6287318],"inferred_type":"city"}
{"name":"البِحوث","other_names":{"name:ar":"البِحوث","name:en":"Al Bihouth"},"display_name":"البِحوث, أبوظبي, أبو ظبي, الإمارات العربية المتحدة","address":{"city":"البِحوث","county":"أبوظبي","state":"أبو ظبي","ISO3166-2-lvl4":"AE-AZ","country":"الإمارات العربية المتحدة","country_code":"ae"},"osm_type":"relation","osm_id":13251461,"type":"administrative","location":[54.4923845767117,24.1872857],"bbox":[54.4148455,24.0873717,54.6045514,24.2878967],"inferred_type":"city"}
{"name":"البطين","other_names":{"name:ar":"البطين","name:en":"Al Bateen"},"display_name":"البطين, أبوظبي, أبو ظبي, الإمارات العربية المتحدة","address":{"city":"البطين","county":"أبوظبي","state":"أبو ظبي","ISO3166-2-lvl4":"AE-AZ","country":"الإمارات العربية المتحدة","country_code":"ae"},"osm_type":"relation","osm_id":13251348,"type":"administrative","location":[54.33796581892305,24.45138385],"bbox":[54.3146337,24.4257915,54.3766749,24.4768418],"inferred_type":"city"}
{"name":"الحِدَيريات","other_names":{"name:ar":"الحِدَيريات","name:en":"Al Hidayriyyat"},"display_name":"الحِدَيريات, أبوظبي, أبو ظبي, الإمارات العربية المتحدة","address":{"city":"الحِدَيريات","county":"أبوظبي","state":"أبو ظبي","ISO3166-2-lvl4":"AE-AZ","country":"الإمارات العربية المتحدة","country_code":"ae"},"osm_type":"relation","osm_id":13251452,"type":"administrative","location":[54.409566987635,24.3664565],"bbox":[54.3172061,24.2831109,54.4642619,24.4487645],"inferred_type":"city"}
{"name":"الحِصِن","other_names":{"name:ar":"الحِصِن","name:en":"Al Hisn"},"display_name":"الحِصِن, أبوظبي, أبو ظبي, الإمارات العربية المتحدة","address":{"city":"الحِصِن","county":"أبوظبي","state":"أبو ظبي","ISO3166-2-lvl4":"AE-AZ","country":"الإمارات العربية المتحدة","country_code":"ae"},"osm_type":"relation","osm_id":13251312,"type":"administrative","location":[54.35084717450985,24.48250165],"bbox":[54.3419332,24.4714723,54.3620473,24.4938576],"inferred_type":"city"}
{"name":"الحَفَّار","other_names":{"name:ar":"الحَفَّار","name:en":"Al Haffar"},"display_name":"الحَفَّار, أبوظبي, أبو ظبي, الإمارات العربية المتحدة","address":{"city":"الحَفَّار","county":"أبوظبي","state":"أبو ظبي","ISO3166-2-lvl4":"AE-AZ","country":"الإمارات العربية المتحدة","country_code":"ae"},"osm_type":"relation","osm_id":13251365,"type":"administrative","location":[54.78681786482316,24.27618],"bbox":[54.737505,24.2061981,54.9745788,24.3462317],"inferred_type":"city"}
{"name":"الحَنْيُورَة","other_names":{"name:ar":"الحَنْيُورَة","name:en":"Al Hanyourah"},"display_name":"الحَنْيُورَة, أبوظبي, أبو ظبي, الإمارات العربية المتحدة","address":{"city":"الحَنْيُورَة","county":"أبوظبي","state":"أبو ظبي","ISO3166-2-lvl4":"AE-AZ","country":"الإمارات العربية المتحدة","country_code":"ae"},"osm_type":"relation","osm_id":13251351,"type":"administrative","location":[54.63527681391746,24.7215124],"bbox":[54.5994523,24.699749,54.6715232,24.743204],"inferred_type":"city"}
{"name":"الخَالِدية","other_names":{"name:ar":"الخَالِدية","name:en":"Al Khalidiyah"},"display_name":"الخَالِدية, أبوظبي, أبو ظبي, الإمارات العربية المتحدة","address":{"city":"الخَالِدية","county":"أبوظبي","state":"أبو ظبي","ISO3166-2-lvl4":"AE-AZ","country":"الإمارات العربية المتحدة","country_code":"ae"},"osm_type":"relation","osm_id":13251313,"type":"administrative","location":[54.34880593499775,24.46934445],"bbox":[54.3377409,24.4565513,54.3613648,24.4818065],"inferred_type":"city"}
{"name":"الخليج التجاري","other_names":{"name:ar":"الخليج التجاري","name:en":"Business Bay","name:fa":"الخلیج التجاری","name:he":"מפרץ עסקים","name:ml":"ബിസിനസ്സ് ബേ","name:ur":"تجارتی خلیج"},"display_name":"الخليج التجاري, دبي, الإمارات العربية المتحدة","address":{"city":"الخليج التجاري","state":"دبي","ISO3166-2-lvl4":"AE-DU","country":"الإمارات العربية المتحدة","country_code":"ae"},"osm_type":"relation","osm_id":18471755,"type":"administrative","location":[55.26481901527489,25.18942655],"bbox":[55.2550965,25.1829246,55.2908299,25.1961521],"inferred_type":"city"}
{"name":"الخِيران","other_names":{"name:ar":"الخِيران","name:en":"Al Kheeran"},"display_name":"الخِيران, أبوظبي, أبو ظبي, الإمارات العربية المتحدة","address":{"city":"الخِيران","county":"أبوظبي","state":"أبو ظبي","ISO3166-2-lvl4":"AE-AZ","country":"الإمارات العربية المتحدة","country_code":"ae"},"osm_type":"relation","osm_id":13251319,"type":"administrative","location":[54.45712945710038,24.44418755],"bbox":[54.4102707,24.4192539,54.485933,24.4690799],"inferred_type":"city"}
{"name":"الدَّانَةْ","other_names":{"name:ar":"الدَّانَةْ","name:en":"Al Danah"},"display_name":"الدَّانَةْ, أبوظبي, أبو ظبي, الإمارات العربية المتحدة","address":{"city":"الدَّانَةْ","county":"أبوظبي","state":"أبو ظبي","ISO3166-2-lvl4":"AE-AZ","country":"الإمارات العربية المتحدة","country_code":"ae"},"osm_type":"relation","osm_id":13251311,"type":"administrative","location":[54.36988806464398,24.485288750000002],"bbox":[54.3504597,24.4701905,54.3868741,24.5003807],"inferred_type":"city"}
{"name":"الرأس الأخضر","other_names":{"name:ar":"الرأس الأخضر","name:en":"Al Ras Al Akhdar"},"display_name":"الرأس الأخضر, أبوظبي, أبو ظبي, الإمارات العربية المتحدة","address":{"city":"الرأس الأخضر","county":"أبوظبي","state":"أبو ظبي","ISO3166-2-lvl4":"AE-AZ","country":"الإمارات العربية المتحدة","country_code":"ae"},"osm_type":"relation","osm_id":13251453,"type":"administrative","location":[54.31019066780701,24.46213075],"bbox":[54.2971553,24.4485573,54.3242313,24.47549],"inferred_type":"city"}
{"name":"الراحة","other_names":{"name:ar":"الراحة","name:en":"Al Rahah"},"display_name":"الراحة, أبوظبي, أبو ظبي, الإمارات العربية المتحدة","address":{"city":"الراحة","county":"أبوظبي","state":"أبو ظبي","ISO3166-2-lvl4":"AE-AZ","country":"الإمارات العربية المتحدة","country_code":"ae"},"osm_type":"relation","osm_id":13251330,"type":"administrative","location":[54.61535500902316,24.455334],"bbox":[54.5190886,24.4228543,54.6439344,24.4874276],"inferred_type":"city"}
{"name":"الرَّحبة","other_names":{"name:ar":"الرَّحبة","name:en":"Al Rahbah"},"display_name":"الرَّحبة, أبوظبي, أبو ظبي, الإمارات العربية المتحدة","address":{"city":"الرَّحبة","county":"أبوظبي","state":"أبو ظبي","ISO3166-2-lvl4":"AE-AZ","country":"الإمارات العربية المتحدة","country_code":"ae"},"osm_type":"relation","osm_id":13251352,"type":"administrative","location":[54.69182262523738,24.5993758],"bbox":[54.6692826,24.5639661,54.7170197,24.6343754],"inferred_type":"city"}
{"name":"الرِّدِيم","other_names":{"name:ar":"الرِّدِيم","name:en":"Al Rideem"},"display_name":"الرِّدِيم, منطقة الظفرة, أبو ظبي, الإمارات العربية المتحدة","address":{"city":"الرِّدِيم","county":"منطقة الظفرة","state":"أبو ظبي","ISO3166-2-lvl4":"AE-AZ","country":"الإمارات العربية المتحدة","country_code":"ae"},"osm_type":"relation","osm_id":13251483,"type":"administrative","location":[53.63722016244004,24.0390802],"bbox":[53.5584519,24.0042668,53.7103235,24.0744032],"inferred_type":"city"}
{"name":"الروضة","other_names":{"name:ar":"الروضة","name:en":"Al Rawdah"},"display_name":"الروضة, أبوظبي, أبو ظبي, الإمارات العربية المتحدة","address":{"city":"الروضة","county":"أبوظبي","state":"أبو ظبي","ISO3166-2-lvl4":"AE-AZ","country":"الإمارات العربية المتحدة","country_code":"ae"},"osm_type":"relation","osm_id":13251344,"type":"administrative","location":[54.44787716857337,24.41796585],"bbox":[54.4099398,24.4033796,54.4889821,24.4326024],"inferred_type":"city"}
{"name":"الريف","other_names":{"name:ar":"الريف","name:en":"Al Reef"},"display_name":"الريف, أبوظبي, أبو ظبي, الإمارات العربية المتحدة","address":{"city":"الريف","county":"أبوظبي","state":"أبو ظبي","ISO3166-2-lvl4":"AE-AZ","country":"الإمارات العربية المتحدة","country_code":"ae"},"osm_type":"relation","osm_id":13251354,"type":"administrative","location":[54.65689142777212,24.4664366],"bbox":[54.6338144,24.4472567,54.6788032,24.4849133],"inferred_type":"city"}
{"name":"الزَّاهية","other_names":{"name:ar":"الزَّاهية","name:en":"Al Zahiyah"},"display_name":"الزَّاهية, أبوظبي, أبو ظبي, الإمارات العربية المتحدة","address":{"city":"الزَّاهية","county":"أبوظبي","state":"أبو ظبي","ISO3166-2-lvl4":"AE-AZ","country":"الإمارات العربية المتحدة","country_code":"ae"},"osm_type":"relation","osm_id":13251306,"type":"administrative","location":[54.379479816719254,24.496480050000002],"bbox":[54.3613743,24.4804504,54.3953723,24.5125362],"inferred_type":"city"}
{"name":"الزُّبَارَة","other_names":{"name:ar":"الزُّبَارَة","name:en":"Al Zubarah"},"display_name":"الزُّبَارَة, أبوظبي, أبو ظبي, الإمارات العربية المتحدة","address":{"city":"الزُّبَارَة","county":"أبوظبي","state":"أبو ظبي","ISO3166-2-lvl4":"AE-AZ","country":"الإمارات العربية المتحدة","country_code":"ae"},"osm_type":"relation","osm_id":13251336,"type":"administrative","location":[54.62470000293332,24.624919300000002],"bbox":[54.6011639,24.5964961,54.651286,24.6532665],"inferred_type":"city"}
{"name":"السَّعادة","other_names":{"name:ar":"السَّعادة","name:en":"Al Sa'adah"},"display_name":"السَّعادة, أبوظبي, أبو ظبي, الإمارات العربية المتحدة","address":{"city":"السَّعادة","county":"أبوظبي","state":"أبو ظبي","ISO3166-2-lvl4":"AE-AZ","country":"الإمارات العربية المتحدة","country_code":"ae"},"osm_type":"relation","osm_id":13251317,"type":"administrative","location":[54.427060914809715,24.435618050000002],"bbox":[54.4137544,24.4262127,54.4451148,24.4450236],"inferred_type":"city"}
{"name":"السلامات","other_names":{"name:ar":"السلامات","name:en":"Sha'biyyat As Silēmāt","name:es":"Sha'biyyat As Silēmāt","name:fr":"Sha'biyyat As Silēmāt","name:ml":"അൽ-സലാമാത്ത്","alt_name":"Sha'biyyat As Silēmāt;As Silēmāt;As Silemat;Al Salamat;Sulaymāt;As SulaymātAl Selimat;"},"display_name":"السلامات, السَّلاَمَات, العين, أبو ظبي, الإمارات العربية المتحدة","address":{"city":"السلامات","county":"العين","state":"أبو ظبي","ISO3166-2-lvl4":"AE-AZ","country":"الإمارات العربية المتحدة","country_code":"ae"},"osm_type":"node","osm_id":12250602098,"type":"city","location":[55.5887895,24.2087276],"bbox":[55.4287895,24.0487276,55.7487895,24.3687276]}
{"name":"السِّلَع","other_names":{"name:ar":"السِّلَع","name:en":"Al Sila'"},"display_name":"السِّلَع, منطقة الظفرة, أبو ظبي, الإمارات العربية المتحدة","address":{"city":"السِّلَع","county":"منطقة الظفرة","state":"أبو ظبي","ISO3166-2-lvl4":"AE-AZ","country":"الإمارات العربية المتحدة","country_code":"ae"},"osm_type":"relation","osm_id":13251518,"type":"administrative","location":[51.75202453356373,24.0965166],"bbox":[51.6906905,24.0009005,51.8050096,24.1954727],"inferred_type":"city"}
{"name":"السَّلَمِيَّة","other_names":{"name:ar":"السَّلَمِيَّة","name:en":"Al Selmiyyah"},"display_name":"السَّلَمِيَّة, أبوظبي, أبو ظبي, الإمارات العربية المتحدة","address":{"city":"السَّلَمِيَّة","county":"أبوظبي","state":"أبو ظبي","ISO3166-2-lvl4":"AE-AZ","country":"الإمارات العربية المتحدة","country_code":"ae"},"osm_type":"relation","osm_id":13251458,"type":"administrative","location":[54.346373881252376,24.2186399],"bbox":[54.2593819,24.163918,54.4148455,24.2735094],"inferred_type":"city"}
{"name":"السَّمْحة","other_names":{"name:ar":"السَّمْحة","name:en":"Al Samhah"},"display_name":"السَّمْحة, أبوظبي, أبو ظبي, الإمارات العربية المتحدة","address":{"city":"السَّمْحة","county":"أبوظبي","state":"أبو ظبي","ISO3166-2-lvl4":"AE-AZ","country":"الإمارات العربية المتحدة","country_code":"ae"},"osm_type":"relation","osm_id":13251374,"type":"administrative","location":[54.746596076345625,24.666049700000002],"bbox":[54.6990581,24.6209055,54.8030545,24.7108082],"inferred_type":"city"}
{"name":"السِّمَيح","other_names":{"name:ar":"السِّمَيح","name:en":"Al Smeeh"},"display_name":"السِّمَيح, أبوظبي, أبو ظبي, الإمارات العربية المتحدة","address":{"city":"السِّمَيح","county":"أبوظبي","state":"أبو ظبي","ISO3166-2-lvl4":"AE-AZ","country":"الإمارات العربية المتحدة","country_code":"ae"},"osm_type":"relation","osm_id":13251379,"type":"administrative","location":[54.81516219861801,24.76262705],"bbox":[54.7740835,24.7011258,54.8628554,24.8241525],"inferred_type":"city"}
{"name":"السُّوت","other_names":{"name:ar":"السُّوت","name:en":"Al Sout"},"display_name":"السُّوت, أبوظبي, أبو ظبي, الإمارات العربية المتحدة","address":{"city":"السُّوت","county":"أبوظبي","state":"أبو ظبي","ISO3166-2-lvl4":"AE-AZ","country":"الإمارات العربية المتحدة","country_code":"ae"},"osm_type":"relation","osm_id":13251467,"type":"administrative","location":[54.701923361415275,23.71545905],"bbox":[54.4007099,23.4519795,55.0417543,23.9784405],"inferred_type":"city"}
{"name":"الشارقة","other_names":{"name:ar":"الشارقة","name:bn":"শারজাহ","name:cs":"Šardžá","name:de":"Schardscha","name:en":"Sharjah","name:es":"Sarja","name:et":"Ash-Shāriqah","name:fr":"Charjah","name:he":"שארג׳ה","name:hi":"शारजा","name:hu":"Sardzsa","name:kn":"ಶಾರ್ಜಾ","name:ko":"샤르자","name:ku":"Şarîqe","name:ml":"ഷാർജ","name:pt":"Sharjah","name:ru":"Аш-Шарджа","name:ta":"ஷார்ஜா","name:te":"షార్జా","name:uk":"Шарджа","name:ur":"شارجہ","name:zh":"沙迦"},"display_name":"الشارقة, مدينة الشارقة, الشارقة, الإمارات العربية المتحدة","address":{"city":"الشارقة","state":"الشارقة","ISO3166-2-lvl4":"AE-SH","country":"الإمارات العربية المتحدة","country_code":"ae"},"population":1400000,"osm_type":"node","osm_id":847933749,"type":"city","location":[55.4210633,25.3461498],"bbox":[55.2610633,25.1861498,55.5810633,25.5061498],"border":{"name":"مدينة الشارقة","other_names":{"name:ar":"مدينة الشارقة","name:en":"Sharjah","name:uk":"Шарджа","name:ur":"شارجہ شہر","name:bn":"শারজাহ","name:cs":"Šardžá","name:de":"Schardscha","name:es":"Sarja","name:et":"Ash-Shāriqah","name:fr":"Charjah","name:he":"שארג׳ה","name:hi":"शारजा","name:hu":"Sardzsa","name:kn":"ಶಾರ್ಜಾ","name:ko":"샤르자","name:ku":"Şarîqe","name:ml":"ഷാർജ","name:pt":"Sharjah","name:ru":"Аш-Шарджа","name:ta":"ஷார்ஜா","name:te":"షార్జా","name:zh":"沙迦","alt":"الشارقة","alt:ar":"الشارقة","alt:ur":"شارجہ"},"display_name":"مدينة الشارقة, الشارقة, الإمارات العربية المتحدة","address":{"city":"مدينة الشارقة","state":"الشارقة","ISO3166-2-lvl4":"AE-SH","country":"الإمارات العربية المتحدة","country_code":"ae"},"population":1400000,"osm_type":"relation","osm_id":12905785,"type":"city","location":[55.4210633,25.3461498],"bbox":[55.3490689,25.2071799,55.7434648,25.432078]}}
{"name":"الشَّامْخَة","other_names":{"name:ar":"الشَّامْخَة","name:en":"Al Shamkhah"},"display_name":"الشَّامْخَة, أبوظبي, أبو ظبي, الإمارات العربية المتحدة","address":{"city":"الشَّامْخَة","county":"أبوظبي","state":"أبو ظبي","ISO3166-2-lvl4":"AE-AZ","country":"الإمارات العربية المتحدة","country_code":"ae"},"osm_type":"relation","osm_id":13251360,"type":"administrative","location":[54.70437233987246,24.37830835],"bbox":[54.6659817,24.3372766,54.7629279,24.4193],"inferred_type":"city"}
{"name":"الشهامة","other_names":{"name:ar":"الشهامة","name:en":"Al Shahamah"},"display_name":"الشهامة, أبوظبي, أبو ظبي, الإمارات العربية المتحدة","address":{"city":"الشهامة","county":"أبوظبي","state":"أبو ظبي","ISO3166-2-lvl4":"AE-AZ","country":"الإمارات العربية المتحدة","country_code":"ae"},"osm_type":"relation","osm_id":13251353,"type":"administrative","location":[54.672070576936406,24.50590455],"bbox":[54.6439344,24.4640709,54.6941096,24.5477429],"inferred_type":"city"}
{"name":"الشَّوامخ","other_names":{"name:ar":"الشَّوامخ","name:en":"Al Shawamekh"},"display_name":"الشَّوامخ, أبوظبي, أبو ظبي, الإمارات العربية المتحدة","address":{"city":"الشَّوامخ","county":"أبوظبي","state":"أبو ظبي","ISO3166-2-lvl4":"AE-AZ","country":"الإمارات العربية المتحدة","country_code":"ae"},"osm_type":"relation","osm_id":13251361,"type":"administrative","location":[54.66280179038579,24.34873545],"bbox":[54.6301179,24.3030728,54.699508,24.3943164],"inferred_type":"city"}
{"name":"الشُّوِيهَات","other_names":{"name:ar":"الشُّوِيهَات","name:en":"Al Shuweehat"},"display_name":"الشُّوِيهَات, منطقة الظفرة, أبو ظبي, الإمارات العربية المتحدة","address":{"city":"الشُّوِيهَات","county":"منطقة الظفرة","state":"أبو ظبي","ISO3166-2-lvl4":"AE-AZ","country":"الإمارات العربية المتحدة","country_code":"ae"},"osm_type":"relation","osm_id":13251510,"type":"administrative","location":[52.47820824260367,24.0916209],"bbox":[52.4167804,24.0407594,52.534162,24.1434298],"inferred_type":"city"}
{"name":"الصَّدر","other_names":{"name:ar":"الصَّدر","name:en":"Al Sader"},"display_name":"الصَّدر, أبوظبي, أبو ظبي, الإمارات العربية المتحدة","address":{"city":"الصَّدر","county":"أبوظبي","state":"أبو ظبي","ISO3166-2-lvl4":"AE-AZ","country":"الإمارات العربية المتحدة","country_code":"ae"},"osm_type":"relation","osm_id":13251342,"type":"administrative","location":[54.68466309714654,24.64832035],"bbox":[54.635526,24.5765104,54.7301039,24.7206985],"inferred_type":"city"}
{"name":"الطف الغربي","other_names":{"name:ar":"الطف الغربي","name:en":"Al Taf Al Gharbi"},"display_name":"الطف الغربي, منطقة الظفرة, أبو ظبي, الإمارات العربية المتحدة","address":{"city":"الطف الغربي","county":"منطقة الظفرة","state":"أبو ظبي","ISO3166-2-lvl4":"AE-AZ","country":"الإمارات العربية المتحدة","country_code":"ae"},"osm_type":"relation","osm_id":13251482,"type":"administrative","location":[53.557299505977184,23.981973099999998],"bbox":[53.3519886,23.9036322,53.7331756,24.059771],"inferred_type":"city"}
{"name":"الطَّوِيلَة","other_names":{"name:ar":"الطَّوِيلَة","name:en":"Al Taweelah"},"display_name":"الطَّوِيلَة, أبوظبي, أبو ظبي, الإمارات العربية المتحدة","address":{"city":"الطَّوِيلَة","county":"أبوظبي","state":"أبو ظبي","ISO3166-2-lvl4":"AE-AZ","country":"الإمارات العربية المتحدة","country_code":"ae"},"osm_type":"relation","osm_id":13251376,"type":"administrative","location":[54.685247520775405,24.73584645],"bbox":[54.6266086,24.6832285,54.7300293,24.7882411],"inferred_type":"city"}
{"name":"الظنة","other_names":{"name:ar":"الظنة","name:de":"Al Dhannah","name:en":"Al Dhannah","name:es":"Al Dhannah","name:fr":"Al Dhannah","name:ur":"الظنہ","alt_name":"Aẓ Ẓannah","old_name":"الرويس","old_name:ar":"الرويس","old_name:de":"Ruwais","old_name:fa":"الرویس","old_name:ur":"الرویس"},"display_name":"الظنة, مدينة الظنة, منطقة الظفرة, أبو ظبي, الإمارات العربية المتحدة","address":{"city":"الظنة","county":"منطقة الظفرة","state":"أبو ظبي","ISO3166-2-lvl4":"AE-AZ","country":"الإمارات العربية المتحدة","country_code":"ae"},"osm_type":"node","osm_id":12455279025,"type":"city","location":[52.628207,24.1697648],"bbox":[52.468207,24.0097648,52.788207,24.3297648]}
{"name":"العَدلَة","other_names":{"name:ar":"العَدلَة","name:en":"Al 'Adlah"},"display_name":"العَدلَة, أبوظبي, أبو ظبي, الإمارات العربية المتحدة","address":{"city":"العَدلَة","county":"أبوظبي","state":"أبو ظبي","ISO3166-2-lvl4":"AE-AZ","country":"الإمارات العربية المتحدة","country_code":"ae"},"osm_type":"relation","osm_id":13251371,"type":"administrative","location":[54.88223361258046,24.398564399999998],"bbox":[54.8381407,24.3562152,55.0267254,24.4406305],"inferred_type":"city"}
{"name":"العَشيش","other_names":{"name:ar":"العَشيش","name:en":"Al 'Asheesh"},"display_name":"العَشيش, أبوظبي, أبو ظبي, الإمارات العربية المتحدة","address":{"city":"العَشيش","county":"أبوظبي","state":"أبو ظبي","ISO3166-2-lvl4":"AE-AZ","country":"الإمارات العربية المتحدة","country_code":"ae"},"osm_type":"relation","osm_id":13251369,"type":"administrative","location":[54.88359228264477,24.343748849999997],"bbox":[54.834676,24.2776391,55.0203846,24.4096233],"inferred_type":"city"}
{"name":"العين","other_names":{"name:ar":"العين","name:bn":"আল আইন","name:cs":"al-Ajn","name:de":"al-Ain","name:en":"Al Ain","name:es":"Al Ain","name:et":"Al-‘Ayn","name:fa":"العین","name:fi":"Al-Ain","name:fr":"Al-Aïn","name:he":"אל עין","name:hi":"अल-एइन","name:ko":"알아인","name:ku":"'Eyn","name:ml":"അൽ-ഐൻ","name:nl":"Al Ain","name:ru":"Аль-Айн","name:uk":"Аль-Айн","name:zh":"艾因","name:ckb":"عەین"},"display_name":"العين, المُعْتَرِض, العين, أبو ظبي, الإمارات العربية المتحدة","address":{"city":"العين","county":"العين","state":"أبو ظبي","ISO3166-2-lvl4":"AE-AZ","country":"الإمارات العربية المتحدة","country_code":"ae"},"population":631005,"osm_type":"node","osm_id":82799640,"type":"city","location":[55.7452211,24.2248697],"bbox":[55.5852211,24.0648697,55.9052211,24.3848697],"border":{"name":"العين","other_names":{"name:ar":"العين","name:en":"Al Ain"},"display_name":"العين, أبو ظبي, الإمارات العربية المتحدة","address":{"county":"العين","state":"أبو ظبي","ISO3166-2-lvl4":"AE-AZ","country":"الإمارات العربية المتحدة","country_code":"ae"},"osm_type":"relation","osm_id":13249272,"type":"administrative","location":[55.28484083517138,23.70939755],"bbox":[54.6535943,22.6316214,56.0173982,24.7936466]}}
{"name":"الغويفات","other_names":{"name:ar":"الغويفات","name:en":"Al Ghuweifat"},"display_name":"الغويفات, منطقة الظفرة, أبو ظبي, الإمارات العربية المتحدة","address":{"city":"الغويفات","county":"منطقة الظفرة","state":"أبو ظبي","ISO3166-2-lvl4":"AE-AZ","country":"الإمارات العربية المتحدة","country_code":"ae"},"osm_type":"relation","osm_id":13251517,"type":"administrative","location":[51.64050772344891,24.1657991],"bbox":[51.5900332,24.0740331,51.6910776,24.2019984],"inferred_type":"city"}
{"name":"الفَايَة","other_names":{"name:ar":"الفَايَة","name:en":"Al Fayah"},"display_name":"الفَايَة, أبوظبي, أبو ظبي, الإمارات العربية المتحدة","address":{"city":"الفَايَة","county":"أبوظبي","state":"أبو ظبي","ISO3166-2-lvl4":"AE-AZ","country":"الإمارات العربية المتحدة","country_code":"ae"},"osm_type":"relation","osm_id":13251370,"type":"administrative","location":[54.99671602570062,24.33685145],"bbox":[54.8341585,24.2538458,55.091964,24.419895],"inferred_type":"city"}
{"name":"الفجيرة","other_names":{"name:ar":"الفجيرة","name:cs":"Fudžajra","name:de":"Fudschaira","name:en":"Fujairah","name:es":"Fuyaira","name:fa":"فجیره","name:fr":"Fujaïrah","name:he":"פוג'ירה","name:hi":"फ़ुजैरा","name:kn":"ಫುಜೈರಾ","name:ko":"푸자이라","name:ml":"ഫുജൈറ","name:ru":"Эль-Фуджайра","name:ta":"புஜைரா","name:te":"ఫుజైరా","name:ur":"فجیرہ","alt_name:en":"Fujeira"},"display_name":"الفجيرة, Fujairah City - مدينة الفجيرة, الفجيرة, الإمارات العربية المتحدة","address":{"city":"الفجيرة","state":"الفجيرة","ISO3166-2-lvl4":"AE-FU","country":"الإمارات العربية المتحدة","country_code":"ae"},"population":93673,"osm_type":"node","osm_id":4388736118,"type":"city","location":[56.3355085,25.1244604],"bbox":[56.1755085,24.9644604,56.4955085,25.2844604],"border":{"name":"Fujairah City - مدينة الفجيرة","other_names":{"name:ar":"مدينة الفجيرة","name:de":"Fudschaira","name:en":"Fujairah City","name:es":"Fuyaira","name:fa":"فجیره شهر","name:fr":"Fujaïrah","name:pt":"Fujeira (cidade)","name:ro":"Fujairah","name:uk":"Ель-Фуджайра","name:ur":"فجیرہ شہر","name:cs":"Fudžajra","name:he":"פוג'ירה","name:hi":"फ़ुजैरा","name:kn":"ಫುಜೈರಾ","name:ko":"푸자이라","name:ml":"ഫുജൈറ","name:ru":"Эль-Фуджайра","name:ta":"புஜைரா","name:te":"ఫుజైరా","alt_name:en":"Fujeira","alt":"الفجيرة","alt:ar":"الفجيرة","alt:en":"Fujairah","alt:fa":"فجیره","alt:ur":"فجیرہ"},"display_name":"Fujairah City - مدينة الفجيرة, الفجيرة, الإمارات العربية المتحدة","address":{"city":"Fujairah City - مدينة الفجيرة","state":"الفجيرة","ISO3166-2-lvl4":"AE-FU","country":"الإمارات العربية المتحدة","country_code":"ae"},"population":93673,"osm_type":"way","osm_id":872858707,"type":"city","location":[56.3355085,25.1244604],"bbox":[56.2775959,25.0992973,56.3778419,25.1989877]}}
{"name":"الفلاح","other_names":{"name:ar":"الفلاح","name:en":"Al Falah"},"display_name":"الفلاح, أبوظبي, أبو ظبي, الإمارات العربية المتحدة","address":{"city":"الفلاح","county":"أبوظبي","state":"أبو ظبي","ISO3166-2-lvl4":"AE-AZ","country":"الإمارات العربية المتحدة","country_code":"ae"},"osm_type":"relation","osm_id":13251359,"type":"administrative","location":[54.71181786089038,24.43711305],"bbox":[54.67304,24.4095299,54.7659108,24.4647014],"inferred_type":"city"}
{"name":"القُرْم","other_names":{"name:ar":"القُرْم","name:en":"Al Qurm"},"display_name":"القُرْم, أبوظبي, أبو ظبي, الإمارات العربية المتحدة","address":{"city":"القُرْم","county":"أبوظبي","state":"أبو ظبي","ISO3166-2-lvl4":"AE-AZ","country":"الإمارات العربية المتحدة","country_code":"ae"},"osm_type":"relation","osm_id":13251347,"type":"administrative","location":[54.39705440707142,24.420617399999998],"bbox":[54.3671727,24.409662,54.4148947,24.434612],"inferred_type":"city"}
{"name":"الكَاسِر","other_names":{"name:ar":"الكَاسِر","name:en":"Al Kasir"},"display_name":"الكَاسِر, أبوظبي, أبو ظبي, الإمارات العربية المتحدة","address":{"city":"الكَاسِر","county":"أبوظبي","state":"أبو ظبي","ISO3166-2-lvl4":"AE-AZ","country":"الإمارات العربية المتحدة","country_code":"ae"},"osm_type":"relation","osm_id":13251349,"type":"administrative","location":[54.3187137017464,24.48018065],"bbox":[54.3060031,24.4701221,54.3387784,24.4900926],"inferred_type":"city"}
{"name":"اللَّيان","other_names":{"name:ar":"اللَّيان","name:en":"Al Layyan"},"display_name":"اللَّيان, أبوظبي, أبو ظبي, الإمارات العربية المتحدة","address":{"city":"اللَّيان","county":"أبوظبي","state":"أبو ظبي","ISO3166-2-lvl4":"AE-AZ","country":"الإمارات العربية المتحدة","country_code":"ae"},"osm_type":"relation","osm_id":13251382,"type":"administrative","location":[54.98224390306153,24.77893435],"bbox":[54.8516736,24.658188,55.1706292,24.8975286],"inferred_type":"city"}
{"name":"المِحسِنة","other_names":{"name:ar":"المِحسِنة","name:en":"Al Mihsinah"},"display_name":"المِحسِنة, أبوظبي, أبو ظبي, الإمارات العربية المتحدة","address":{"city":"المِحسِنة","county":"أبوظبي","state":"أبو ظبي","ISO3166-2-lvl4":"AE-AZ","country":"الإمارات العربية المتحدة","country_code":"ae"},"osm_type":"relation","osm_id":13251337,"type":"administrative","location":[54.582819893378144,24.624334750000003],"bbox":[54.5234853,24.5766021,54.6186707,24.6724322],"inferred_type":"city"}
{"name":"المدام","other_names":{"name:ar":"المدام","name:en":"Al Madam","name:ml":"അൽ മദാം"},"display_name":"المدام, الشارقة, الإمارات العربية المتحدة","address":{"city":"المدام","state":"الشارقة","ISO3166-2-lvl4":"AE-SH","country":"الإمارات العربية المتحدة","country_code":"ae"},"osm_type":"node","osm_id":1334365116,"type":"city","location":[55.776299,24.9120153],"bbox":[55.616299,24.7520153,55.936299,25.0720153],"border":{"name":"المدام","other_names":{"name:ar":"المدام","name:en":"Al Madam","name:ml":"അൽ മദാം"},"display_name":"المدام, الشارقة, الإمارات العربية المتحدة","address":{"city":"المدام","state":"الشارقة","ISO3166-2-lvl4":"AE-SH","country":"الإمارات العربية المتحدة","country_code":"ae"},"osm_type":"relation","osm_id":12905765,"type":"administrative","location":[55.776299,24.9120153],"bbox":[55.6555792,24.7572612,55.961137,25.0857302]}}
{"name":"المرْفَأ","other_names":{"name:ar":"المرْفَأ","name:en":"Al Marfa"},"display_name":"المرْفَأ, منطقة الظفرة, أبو ظبي, الإمارات العربية المتحدة","address":{"city":"المرْفَأ","county":"منطقة الظفرة","state":"أبو ظبي","ISO3166-2-lvl4":"AE-AZ","country":"الإمارات العربية المتحدة","country_code":"ae"},"osm_type":"relation","osm_id":13251481,"type":"administrative","location":[53.49159548389636,24.087579849999997],"bbox":[53.3991323,24.0303453,53.5894928,24.1446894],"inferred_type":"city"}
{"name":"المُزُون","other_names":{"name:ar":"المُزُون","name:en":"Al Muzoun"},"display_name":"المُزُون, أبوظبي, أبو ظبي, الإمارات العربية المتحدة","address":{"city":"المُزُون","county":"أبوظبي","state":"أبو ظبي","ISO3166-2-lvl4":"AE-AZ","country":"الإمارات العربية المتحدة","country_code":"ae"},"osm_type":"relation","osm_id":13251346,"type":"administrative","location":[54.4428892393251,24.407968949999997],"bbox":[54.410717,24.3931297,54.4862124,24.42313],"inferred_type":"city"}
{"name":"المُشرِف","other_names":{"name:ar":"المُشرِف","name:en":"Al Mushrif"},"display_name":"المُشرِف, أبوظبي, أبو ظبي, الإمارات العربية المتحدة","address":{"city":"المُشرِف","county":"أبوظبي","state":"أبو ظبي","ISO3166-2-lvl4":"AE-AZ","country":"الإمارات العربية المتحدة","country_code":"ae"},"osm_type":"relation","osm_id":13251315,"type":"administrative","location":[54.38421822124704,24.44108515],"bbox":[54.3663856,24.4245037,54.4137544,24.4577854],"inferred_type":"city"}
{"name":"المطار","other_names":{"name:ar":"المطار","name:en":"Al Matar"},"display_name":"المطار, أبوظبي, أبو ظبي, الإمارات العربية المتحدة","address":{"city":"المطار","county":"أبوظبي","state":"أبو ظبي","ISO3166-2-lvl4":"AE-AZ","country":"الإمارات العربية المتحدة","country_code":"ae"},"osm_type":"relation","osm_id":13251356,"type":"administrative","location":[54.6502508116853,24.43949245],"bbox":[54.6159637,24.4073046,54.67871,24.4716965],"inferred_type":"city"}
{"name":"المِعْرَاض","other_names":{"name:ar":"المِعْرَاض","name:en":"Al Mi'rad"},"display_name":"المِعْرَاض, أبوظبي, أبو ظبي, الإمارات العربية المتحدة","address":{"city":"المِعْرَاض","county":"أبوظبي","state":"أبو ظبي","ISO3166-2-lvl4":"AE-AZ","country":"الإمارات العربية المتحدة","country_code":"ae"},"osm_type":"relation","osm_id":13251362,"type":"administrative","location":[54.791627962052175,24.3875465],"bbox":[54.7428794,24.3386266,54.8414872,24.4365876],"inferred_type":"city"}
{"name":"المَعْمُورَة","other_names":{"name:ar":"المَعْمُورَة","name:en":"Al Ma'mourah"},"display_name":"المَعْمُورَة, أبوظبي, أبو ظبي, الإمارات العربية المتحدة","address":{"city":"المَعْمُورَة","county":"أبوظبي","state":"أبو ظبي","ISO3166-2-lvl4":"AE-AZ","country":"الإمارات العربية المتحدة","country_code":"ae"},"osm_type":"relation","osm_id":13251377,"type":"administrative","location":[54.723659245845155,24.77539505],"bbox":[54.6121365,24.6954156,54.7649638,24.8553868],"inferred_type":"city"}
{"name":"المُنتَزه","other_names":{"name:ar":"المُنتَزه","name:en":"Al Muntazah"},"display_name":"المُنتَزه, أبوظبي, أبو ظبي, الإمارات العربية المتحدة","address":{"city":"المُنتَزه","county":"أبوظبي","state":"أبو ظبي","ISO3166-2-lvl4":"AE-AZ","country":"الإمارات العربية المتحدة","country_code":"ae"},"osm_type":"relation","osm_id":13251318,"type":"administrative","location":[54.45555514302664,24.430149450000002],"bbox":[54.4384659,24.4163615,54.4775405,24.4441383],"inferred_type":"city"}
{"name":"المَنهَل","other_names":{"name:ar":"المَنهَل","name:en":"Al Manhal"},"display_name":"المَنهَل, أبوظبي, أبو ظبي, الإمارات العربية المتحدة","address":{"city":"المَنهَل","county":"أبوظبي","state":"أبو ظبي","ISO3166-2-lvl4":"AE-AZ","country":"الإمارات العربية المتحدة","country_code":"ae"},"osm_type":"relation","osm_id":13251314,"type":"administrative","location":[54.36941599272163,24.4623693],"bbox":[54.3519884,24.4451305,54.3823873,24.4794261],"inferred_type":"city"}
{"name":"النَّهضة","other_names":{"name:ar":"النَّهضة","name:en":"Al Nahdah"},"display_name":"النَّهضة, أبوظبي, أبو ظبي, الإمارات العربية المتحدة","address":{"city":"النَّهضة","county":"أبوظبي","state":"أبو ظبي","ISO3166-2-lvl4":"AE-AZ","country":"الإمارات العربية المتحدة","country_code":"ae"},"osm_type":"relation","osm_id":13251364,"type":"administrative","location":[54.71956222121591,24.31553685],"bbox":[54.6478206,24.2384624,54.7612037,24.3904586],"inferred_type":"city"}
{"name":"النوف","other_names":{"name:ar":"النوف","name:en":"Al Nouf"},"display_name":"النوف, أبوظبي, أبو ظبي, الإمارات العربية المتحدة","address":{"city":"النوف","county":"أبوظبي","state":"أبو ظبي","ISO3166-2-lvl4":"AE-AZ","country":"الإمارات العربية المتحدة","country_code":"ae"},"osm_type":"relation","osm_id":13251459,"type":"administrative","location":[54.115125400142475,24.25403445],"bbox":[53.9881793,24.1339943,54.3551263,24.3744965],"inferred_type":"city"}
{"name":"الهدوانية","other_names":{"name:ar":"الهدوانية","name:en":"Al Hadwaniyyah"},"display_name":"الهدوانية, منطقة الظفرة, أبو ظبي, الإمارات العربية المتحدة","address":{"city":"الهدوانية","county":"منطقة الظفرة","state":"أبو ظبي","ISO3166-2-lvl4":"AE-AZ","country":"الإمارات العربية المتحدة","country_code":"ae"},"osm_type":"relation","osm_id":13251476,"type":"administrative","location":[53.23919716833997,23.9913158],"bbox":[53.0289312,23.8851202,53.4343751,24.0963096],"inferred_type":"city"}
{"name":"الهَرميَّة","other_names":{"name:ar":"الهَرميَّة","name:en":"Al Harmiyyah"},"display_name":"الهَرميَّة, منطقة الظفرة, أبو ظبي, الإمارات العربية المتحدة","address":{"city":"الهَرميَّة","county":"منطقة الظفرة","state":"أبو ظبي","ISO3166-2-lvl4":"AE-AZ","country":"الإمارات العربية المتحدة","country_code":"ae"},"osm_type":"relation","osm_id":13251472,"type":"administrative","location":[53.35640418939745,24.0984031],"bbox":[53.2975173,24.0648671,53.4151859,24.1323501],"inferred_type":"city"}
{"name":"الهِيَر","other_names":{"name:ar":"الهِيَر","name:en":"Al Hiyar"},"display_name":"الهِيَر, العين, أبو ظبي, الإمارات العربية المتحدة","address":{"city":"الهِيَر","county":"العين","state":"أبو ظبي","ISO3166-2-lvl4":"AE-AZ","country":"الإمارات العربية المتحدة","country_code":"ae"},"osm_type":"relation","osm_id":13251425,"type":"administrative","location":[55.67770565795384,24.5772986],"bbox":[55.5526015,24.4641417,55.8365813,24.6906122],"inferred_type":"city"}
{"name":"الوَثْبَة","other_names":{"name:ar":"الوَثْبَة","name:en":"Al Wathbah"},"display_name":"الوَثْبَة, أبوظبي, أبو ظبي, الإمارات العربية المتحدة","address":{"city":"الوَثْبَة","county":"أبوظبي","state":"أبو ظبي","ISO3166-2-lvl4":"AE-AZ","country":"الإمارات العربية المتحدة","country_code":"ae"},"osm_type":"relation","osm_id":13251460,"type":"administrative","location":[54.70406210195607,24.20803425],"bbox":[54.5533049,24.1350276,54.8577227,24.2810331],"inferred_type":"city"}
{"name":"الوُهَيْدَة","other_names":{"name:ar":"الوُهَيْدَة","name:en":"Al Wuhaydah"},"display_name":"الوُهَيْدَة, منطقة الظفرة, أبو ظبي, الإمارات العربية المتحدة","address":{"city":"الوُهَيْدَة","county":"منطقة الظفرة","state":"أبو ظبي","ISO3166-2-lvl4":"AE-AZ","country":"الإمارات العربية المتحدة","country_code":"ae"},"osm_type":"relation","osm_id":13251516,"type":"administrative","location":[51.84831130300158,24.00893045],"bbox":[51.778215,23.9341949,51.9341765,24.0848728],"inferred_type":"city"}
{"name":"بَرَاكَة","other_names":{"name:ar":"بَرَاكَة","name:en":"Barakah"},"display_name":"بَرَاكَة, منطقة الظفرة, أبو ظبي, الإمارات العربية المتحدة","address":{"city":"بَرَاكَة","county":"منطقة الظفرة","state":"أبو ظبي","ISO3166-2-lvl4":"AE-AZ","country":"الإمارات العربية المتحدة","country_code":"ae"},"osm_type":"relation","osm_id":13251513,"type":"administrative","location":[52.20447369622556,23.9865139],"bbox":[52.0950665,23.9334757,52.3440822,24.0423524],"inferred_type":"city"}
{"name":"بني ياس","other_names":{"name:ar":"بني ياس","name:en":"Bani Yas"},"display_name":"بني ياس, أبوظبي, أبو ظبي, الإمارات العربية المتحدة","address":{"city":"بني ياس","county":"أبوظبي","state":"أبو ظبي","ISO3166-2-lvl4":"AE-AZ","country":"الإمارات العربية المتحدة","country_code":"ae"},"osm_type":"relation","osm_id":13251447,"type":"administrative","location":[54.6348592868832,24.30648015],"bbox":[54.6011601,24.2810331,54.6680393,24.3318471],"inferred_type":"city"}
{"name":"بو نِيَيدة","other_names":{"name:ar":"بو نِيَيدة","name:en":"Bu Niyaydah"},"display_name":"بو نِيَيدة, أبوظبي, أبو ظبي, الإمارات العربية المتحدة","address":{"city":"بو نِيَيدة","county":"أبوظبي","state":"أبو ظبي","ISO3166-2-lvl4":"AE-AZ","country":"الإمارات العربية المتحدة","country_code":"ae"},"osm_type":"relation","osm_id":13251333,"type":"administrative","location":[54.502493678945,24.59660675],"bbox":[54.474445,24.5847017,54.5311201,24.6087477],"inferred_type":"city"}
{"name":"بينونة","other_names":{"name:ar":"بينونة","name:en":"Baynounah"},"display_name":"بينونة, منطقة الظفرة, أبو ظبي, الإمارات العربية المتحدة","address":{"city":"بينونة","county":"منطقة الظفرة","state":"أبو ظبي","ISO3166-2-lvl4":"AE-AZ","country":"الإمارات العربية المتحدة","country_code":"ae"},"osm_type":"relation","osm_id":13251477,"type":"administrative","location":[52.9981165395539,23.992540400000003],"bbox":[52.8896845,23.8793578,53.1333572,24.1021966],"inferred_type":"city"}
{"name":"جَرْن يَافُور","other_names":{"name:ar":"جَرْن يَافُور","name:en":"Jarn Yafour"},"display_name":"جَرْن يَافُور, أبوظبي, أبو ظبي, الإمارات العربية المتحدة","address":{"city":"جَرْن يَافُور","county":"أبوظبي","state":"أبو ظبي","ISO3166-2-lvl4":"AE-AZ","country":"الإمارات العربية المتحدة","country_code":"ae"},"osm_type":"relation","osm_id":13251448,"type":"administrative","location":[54.60358390465885,24.2776155],"bbox":[54.5529063,24.2465728,54.6478206,24.3088731],"inferred_type":"city"}
{"name":"جزيرة أبو الأبيض","other_names":{"name:ar":"جزيرة أبو الأبيض","name:en":"Abu Al Abyad Island"},"display_name":"جزيرة أبو الأبيض, أبوظبي, أبو ظبي, الإمارات العربية المتحدة","address":{"city":"جزيرة أبو الأبيض","county":"أبوظبي","state":"أبو ظبي","ISO3166-2-lvl4":"AE-AZ","country":"الإمارات العربية المتحدة","country_code":"ae"},"osm_type":"relation","osm_id":13251471,"type":"administrative","location":[53.797718431895646,24.2240002],"bbox":[53.5953858,24.0934957,53.9881793,24.3507951],"inferred_type":"city"}
{"name":"جزيرة أبو الحبل","other_names":{"name:ar":"جزيرة أبو الحبل","name:en":"Abu Al Habl Island"},"display_name":"جزيرة أبو الحبل, أبوظبي, أبو ظبي, الإمارات العربية المتحدة","address":{"city":"جزيرة أبو الحبل","county":"أبوظبي","state":"أبو ظبي","ISO3166-2-lvl4":"AE-AZ","country":"الإمارات العربية المتحدة","country_code":"ae"},"osm_type":"relation","osm_id":13251329,"type":"administrative","location":[54.5617432738709,24.47179255],"bbox":[54.532458,24.4458626,54.5913005,24.4982299],"inferred_type":"city"}
{"name":"جزيرة أرزنة","other_names":{"name:ar":"جزيرة أرزنة","name:en":"Arzanah Island"},"display_name":"جزيرة أرزنة, منطقة الظفرة, أبو ظبي, الإمارات العربية المتحدة","address":{"city":"جزيرة أرزنة","county":"منطقة الظفرة","state":"أبو ظبي","ISO3166-2-lvl4":"AE-AZ","country":"الإمارات العربية المتحدة","country_code":"ae"},"osm_type":"relation","osm_id":18471635,"type":"administrative","location":[52.560252531752056,24.7892066],"bbox":[52.5463856,24.7741074,52.5733866,24.8041528],"inferred_type":"city"}
{"name":"جزيرة أم الحطب","other_names":{"name:ar":"جزيرة أم الحطب","name:en":"Um Al Hatab Island"},"display_name":"جزيرة أم الحطب, منطقة الظفرة, أبو ظبي, الإمارات العربية المتحدة","address":{"city":"جزيرة أم الحطب","county":"منطقة الظفرة","state":"أبو ظبي","ISO3166-2-lvl4":"AE-AZ","country":"الإمارات العربية المتحدة","country_code":"ae"},"osm_type":"relation","osm_id":18471633,"type":"administrative","location":[51.863413691352434,24.2171303],"bbox":[51.8522596,24.2066752,51.8746639,24.2270699],"inferred_type":"city"}
{"name":"جزيرة أم قصار","other_names":{"name:ar":"جزيرة أم قصار","name:en":"Um Qassar Island"},"display_name":"جزيرة أم قصار, منطقة الظفرة, أبو ظبي, الإمارات العربية المتحدة","address":{"city":"جزيرة أم قصار","county":"منطقة الظفرة","state":"أبو ظبي","ISO3166-2-lvl4":"AE-AZ","country":"الإمارات العربية المتحدة","country_code":"ae"},"osm_type":"relation","osm_id":18471627,"type":"administrative","location":[52.76662531782233,24.37865565],"bbox":[52.7422651,24.3476656,52.790665,24.4105179],"inferred_type":"city"}
{"name":"جَزيرَة أم يِفينَة","other_names":{"name:ar":"جَزيرَة أم يِفينَة","name:en":"Um Yifeenah Island"},"display_name":"جَزيرَة أم يِفينَة, أبوظبي, أبو ظبي, الإمارات العربية المتحدة","address":{"city":"جَزيرَة أم يِفينَة","county":"أبوظبي","state":"أبو ظبي","ISO3166-2-lvl4":"AE-AZ","country":"الإمارات العربية المتحدة","country_code":"ae"},"osm_type":"relation","osm_id":13251320,"type":"administrative","location":[54.45684362759509,24.47262895],"bbox":[54.4221551,24.4442368,54.4882393,24.501643],"inferred_type":"city"}
{"name":"جزيرة الأريام","other_names":{"name:ar":"جزيرة الأريام","name:en":"Al Aryam Island"},"display_name":"جزيرة الأريام, أبوظبي, أبو ظبي, الإمارات العربية المتحدة","address":{"city":"جزيرة الأريام","county":"أبوظبي","state":"أبو ظبي","ISO3166-2-lvl4":"AE-AZ","country":"الإمارات العربية المتحدة","country_code":"ae"},"osm_type":"relation","osm_id":13251457,"type":"administrative","location":[54.216910030652954,24.3120622],"bbox":[54.1128803,24.237333,54.3074034,24.3877584],"inferred_type":"city"}
{"name":"جزيرة البزم","other_names":{"name:ar":"جزيرة البزم","name:en":"Al Bazam Island"},"display_name":"جزيرة البزم, منطقة الظفرة, أبو ظبي, الإمارات العربية المتحدة","address":{"city":"جزيرة البزم","county":"منطقة الظفرة","state":"أبو ظبي","ISO3166-2-lvl4":"AE-AZ","country":"الإمارات العربية المتحدة","country_code":"ae"},"osm_type":"relation","osm_id":18471622,"type":"administrative","location":[53.085167419600396,24.326654400000002],"bbox":[53.0520348,24.2761989,53.1241105,24.3787844],"inferred_type":"city"}
{"name":"جزيرة الجبيل","other_names":{"name:ar":"جزيرة الجبيل","name:en":"Al Jubail Island"},"display_name":"جزيرة الجبيل, أبوظبي, أبو ظبي, الإمارات العربية المتحدة","address":{"city":"جزيرة الجبيل","county":"أبوظبي","state":"أبو ظبي","ISO3166-2-lvl4":"AE-AZ","country":"الإمارات العربية المتحدة","country_code":"ae"},"osm_type":"relation","osm_id":13251327,"type":"administrative","location":[54.486156497090434,24.53170985],"bbox":[54.4568063,24.4725486,54.5340631,24.5872359],"inferred_type":"city"}
{"name":"جزيرة الحالة","other_names":{"name:ar":"جزيرة الحالة","name:en":"Al Halah Island"},"display_name":"جزيرة الحالة, أبوظبي, أبو ظبي, الإمارات العربية المتحدة","address":{"city":"جزيرة الحالة","county":"أبوظبي","state":"أبو ظبي","ISO3166-2-lvl4":"AE-AZ","country":"الإمارات العربية المتحدة","country_code":"ae"},"osm_type":"relation","osm_id":13251456,"type":"administrative","location":[54.247536116708645,24.3604304],"bbox":[54.1851894,24.267023,54.3297607,24.454335],"inferred_type":"city"}
{"name":"جَزِيرَة الحِيل","other_names":{"name:ar":"جَزِيرَة الحِيل","name:en":"Al Heel Island"},"display_name":"جَزِيرَة الحِيل, أبوظبي, أبو ظبي, الإمارات العربية المتحدة","address":{"city":"جَزِيرَة الحِيل","county":"أبوظبي","state":"أبو ظبي","ISO3166-2-lvl4":"AE-AZ","country":"الإمارات العربية المتحدة","country_code":"ae"},"osm_type":"relation","osm_id":13251341,"type":"administrative","location":[54.59888018957486,24.67373235],"bbox":[54.5393327,24.6377603,54.6188122,24.7086718],"inferred_type":"city"}
{"name":"جزيرة الريم شرق","other_names":{"name:ar":"جزيرة الريم شرق","name:en":"Al Reem East Island"},"display_name":"جزيرة الريم شرق, أبوظبي, أبو ظبي, الإمارات العربية المتحدة","address":{"city":"جزيرة الريم شرق","county":"أبوظبي","state":"أبو ظبي","ISO3166-2-lvl4":"AE-AZ","country":"الإمارات العربية المتحدة","country_code":"ae"},"osm_type":"relation","osm_id":13251324,"type":"administrative","location":[54.433252258109704,24.50533995],"bbox":[54.414401,24.4989027,54.4484364,24.5131223],"inferred_type":"city"}
{"name":"جَزِيرَة الرِّيم","other_names":{"name:ar":"جَزِيرَة الرِّيم","name:en":"Al Reem Island"},"display_name":"جَزِيرَة الرِّيم, أبوظبي, أبو ظبي, الإمارات العربية المتحدة","address":{"city":"جَزِيرَة الرِّيم","county":"أبوظبي","state":"أبو ظبي","ISO3166-2-lvl4":"AE-AZ","country":"الإمارات العربية المتحدة","country_code":"ae"},"osm_type":"relation","osm_id":13251308,"type":"administrative","location":[54.40784050903402,24.4935984],"bbox":[54.3893194,24.4707879,54.4271158,24.5175267],"inferred_type":"city"}
{"name":"جزيرة السعديات","other_names":{"name:ar":"جزيرة السعديات","name:en":"Al Saadiyat Island"},"display_name":"جزيرة السعديات, أبوظبي, أبو ظبي, الإمارات العربية المتحدة","address":{"city":"جزيرة السعديات","county":"أبوظبي","state":"أبو ظبي","ISO3166-2-lvl4":"AE-AZ","country":"الإمارات العربية المتحدة","country_code":"ae"},"osm_type":"relation","osm_id":13251326,"type":"administrative","location":[54.43974795941624,24.545107549999997],"bbox":[54.3860195,24.488685,54.4811501,24.601854],"inferred_type":"city"}
{"name":"جزيرة السمالية","other_names":{"name:ar":"جزيرة السمالية","name:en":"Al Sammaliyyah Island"},"display_name":"جزيرة السمالية, أبوظبي, أبو ظبي, الإمارات العربية المتحدة","address":{"city":"جزيرة السمالية","county":"أبوظبي","state":"أبو ظبي","ISO3166-2-lvl4":"AE-AZ","country":"الإمارات العربية المتحدة","country_code":"ae"},"osm_type":"relation","osm_id":13251323,"type":"administrative","location":[54.537666853261584,24.4590289],"bbox":[54.4878082,24.4370746,54.570615,24.4814698],"inferred_type":"city"}
{"name":"جزيرة الشليلة","other_names":{"name:ar":"جزيرة الشليلة","name:en":"Al Shelaylah Island"},"display_name":"جزيرة الشليلة, أبوظبي, أبو ظبي, الإمارات العربية المتحدة","address":{"city":"جزيرة الشليلة","county":"أبوظبي","state":"أبو ظبي","ISO3166-2-lvl4":"AE-AZ","country":"الإمارات العربية المتحدة","country_code":"ae"},"osm_type":"relation","osm_id":13251340,"type":"administrative","location":[54.645478057276854,24.671170150000002],"bbox":[54.609928,24.6372007,54.6842862,24.7046858],"inferred_type":"city"}
{"name":"جزيرة العالية","other_names":{"name:ar":"جزيرة العالية","name:en":"Al Aliah Island"},"display_name":"جزيرة العالية, أبوظبي, أبو ظبي, الإمارات العربية المتحدة","address":{"city":"جزيرة العالية","county":"أبوظبي","state":"أبو ظبي","ISO3166-2-lvl4":"AE-AZ","country":"الإمارات العربية المتحدة","country_code":"ae"},"osm_type":"relation","osm_id":13251338,"type":"administrative","location":[54.53058985271522,24.6189058],"bbox":[54.4955185,24.5924226,54.5612465,24.6455819],"inferred_type":"city"}
{"name":"جَزيرَة الفْطَيسِي","other_names":{"name:ar":"جَزيرَة الفْطَيسِي","name:en":"Al Fteysi Island"},"display_name":"جَزيرَة الفْطَيسِي, أبوظبي, أبو ظبي, الإمارات العربية المتحدة","address":{"city":"جَزيرَة الفْطَيسِي","county":"أبوظبي","state":"أبو ظبي","ISO3166-2-lvl4":"AE-AZ","country":"الإمارات العربية المتحدة","country_code":"ae"},"osm_type":"relation","osm_id":13251455,"type":"administrative","location":[54.32291258097921,24.347756500000003],"bbox":[54.243678,24.2680012,54.4089288,24.4296392],"inferred_type":"city"}
{"name":"جزيرة اللولو","other_names":{"name:ar":"جزيرة اللولو","name:en":"Al Lulu Island"},"display_name":"جزيرة اللولو, أبوظبي, أبو ظبي, الإمارات العربية المتحدة","address":{"city":"جزيرة اللولو","county":"أبوظبي","state":"أبو ظبي","ISO3166-2-lvl4":"AE-AZ","country":"الإمارات العربية المتحدة","country_code":"ae"},"osm_type":"relation","osm_id":13251305,"type":"administrative","location":[54.347891039641,24.5025141],"bbox":[54.3245935,24.4778448,54.3662973,24.5246975],"inferred_type":"city"}
{"name":"جزيرة المارية","other_names":{"name:ar":"جزيرة المارية","name:en":"Al Maryah Island"},"display_name":"جزيرة المارية, أبوظبي, أبو ظبي, الإمارات العربية المتحدة","address":{"city":"جزيرة المارية","county":"أبوظبي","state":"أبو ظبي","ISO3166-2-lvl4":"AE-AZ","country":"الإمارات العربية المتحدة","country_code":"ae"},"osm_type":"relation","osm_id":13251307,"type":"administrative","location":[54.38997320324428,24.502980450000003],"bbox":[54.3857178,24.4898336,54.3970536,24.5143385],"inferred_type":"city"}
{"name":"جزيرة الياس السافلي","other_names":{"name:ar":"جزيرة الياس السافلي","name:en":"Al Yas Al Safli Island"},"display_name":"جزيرة الياس السافلي, منطقة الظفرة, أبو ظبي, الإمارات العربية المتحدة","address":{"city":"جزيرة الياس السافلي","county":"منطقة الظفرة","state":"أبو ظبي","ISO3166-2-lvl4":"AE-AZ","country":"الإمارات العربية المتحدة","country_code":"ae"},"osm_type":"relation","osm_id":13251470,"type":"administrative","location":[51.99504848237779,24.17781825],"bbox":[51.9781667,24.143937,52.0069417,24.2125305],"inferred_type":"city"}
{"name":"جزيرة الياس العالي","other_names":{"name:ar":"جزيرة الياس العالي","name:en":"Al Yas Al 'Ali Island"},"display_name":"جزيرة الياس العالي, منطقة الظفرة, أبو ظبي, الإمارات العربية المتحدة","address":{"city":"جزيرة الياس العالي","county":"منطقة الظفرة","state":"أبو ظبي","ISO3166-2-lvl4":"AE-AZ","country":"الإمارات العربية المتحدة","country_code":"ae"},"osm_type":"relation","osm_id":13251469,"type":"administrative","location":[52.01320860136519,24.2315361],"bbox":[51.9929878,24.2063583,52.0290373,24.2578621],"inferred_type":"city"}
{"name":"جزيرة بالرميد","other_names":{"name:ar":"جزيرة بالرميد","name:en":"Bilrimaid Island"},"display_name":"جزيرة بالرميد, أبوظبي, أبو ظبي, الإمارات العربية المتحدة","address":{"city":"جزيرة بالرميد","county":"أبوظبي","state":"أبو ظبي","ISO3166-2-lvl4":"AE-AZ","country":"الإمارات العربية المتحدة","country_code":"ae"},"osm_type":"relation","osm_id":13251321,"type":"administrative","location":[54.479796730267445,24.480681949999997],"bbox":[54.4707918,24.4718575,54.4882939,24.488685],"inferred_type":"city"}
{"name":"جزيرة بلغيلم","other_names":{"name:ar":"جزيرة بلغيلم","name:en":"Bilghaylam Island"},"display_name":"جزيرة بلغيلم, أبوظبي, أبو ظبي, الإمارات العربية المتحدة","address":{"city":"جزيرة بلغيلم","county":"أبوظبي","state":"أبو ظبي","ISO3166-2-lvl4":"AE-AZ","country":"الإمارات العربية المتحدة","country_code":"ae"},"osm_type":"relation","osm_id":13251332,"type":"administrative","location":[54.55656467827051,24.55865405],"bbox":[54.4807878,24.5246245,54.6017918,24.5915782],"inferred_type":"city"}
{"name":"جزيرة جنانة","other_names":{"name:ar":"جزيرة جنانة","name:en":"Jinanah Island"},"display_name":"جزيرة جنانة, منطقة الظفرة, أبو ظبي, الإمارات العربية المتحدة","address":{"city":"جزيرة جنانة","county":"منطقة الظفرة","state":"أبو ظبي","ISO3166-2-lvl4":"AE-AZ","country":"الإمارات العربية المتحدة","country_code":"ae"},"osm_type":"relation","osm_id":18471624,"type":"administrative","location":[53.40826590911709,24.2261622],"bbox":[53.3607451,24.1856642,53.4743712,24.2669771],"inferred_type":"city"}
{"name":"جزيرة داس","other_names":{"name:ar":"جزيرة داس","name:en":"Das Island"},"display_name":"جزيرة داس, منطقة الظفرة, أبو ظبي, الإمارات العربية المتحدة","address":{"city":"جزيرة داس","county":"منطقة الظفرة","state":"أبو ظبي","ISO3166-2-lvl4":"AE-AZ","country":"الإمارات العربية المتحدة","country_code":"ae"},"osm_type":"relation","osm_id":18471640,"type":"administrative","location":[52.87754029432629,25.141930950000003],"bbox":[52.8598448,25.1145894,52.8898716,25.1697911],"inferred_type":"city"}
{"name":"جزيرة ديينة","other_names":{"name:ar":"جزيرة ديينة","name:en":"Diyeenah Island"},"display_name":"جزيرة ديينة, منطقة الظفرة, أبو ظبي, الإمارات العربية المتحدة","address":{"city":"جزيرة ديينة","county":"منطقة الظفرة","state":"أبو ظبي","ISO3166-2-lvl4":"AE-AZ","country":"الإمارات العربية المتحدة","country_code":"ae"},"osm_type":"relation","osm_id":18471644,"type":"administrative","location":[52.39764430548019,24.95696695],"bbox":[52.3851388,24.9435825,52.4082679,24.9707077],"inferred_type":"city"}
{"name":"جزيرة رمحان","other_names":{"name:ar":"جزيرة رمحان","name:en":"Ramhan Island"},"display_name":"جزيرة رمحان, أبوظبي, أبو ظبي, الإمارات العربية المتحدة","address":{"city":"جزيرة رمحان","county":"أبوظبي","state":"أبو ظبي","ISO3166-2-lvl4":"AE-AZ","country":"الإمارات العربية المتحدة","country_code":"ae"},"osm_type":"relation","osm_id":13251331,"type":"administrative","location":[54.52697003951475,24.542926],"bbox":[54.4936027,24.5122415,54.6004104,24.5736723],"inferred_type":"city"}
{"name":"جزيرة زركوه","other_names":{"name:ar":"جزيرة زركوه","name:en":"Zirku Island"},"display_name":"جزيرة زركوه, منطقة الظفرة, أبو ظبي, الإمارات العربية المتحدة","address":{"city":"جزيرة زركوه","county":"منطقة الظفرة","state":"أبو ظبي","ISO3166-2-lvl4":"AE-AZ","country":"الإمارات العربية المتحدة","country_code":"ae"},"osm_type":"relation","osm_id":18471642,"type":"administrative","location":[53.07512928869188,24.8781444],"bbox":[53.0558819,24.8542643,53.0931715,24.9010919],"inferred_type":"city"}
{"name":"جَزِيرَة صَلاَحَة","other_names":{"name:ar":"جَزِيرَة صَلاَحَة","name:en":"Jazeerat Salahah"},"display_name":"جَزِيرَة صَلاَحَة, منطقة الظفرة, أبو ظبي, الإمارات العربية المتحدة","address":{"city":"جَزِيرَة صَلاَحَة","county":"منطقة الظفرة","state":"أبو ظبي","ISO3166-2-lvl4":"AE-AZ","country":"الإمارات العربية المتحدة","country_code":"ae"},"osm_type":"relation","osm_id":18471625,"type":"administrative","location":[53.524780284107436,24.19098915],"bbox":[53.5014437,24.1694665,53.5474484,24.2124937],"inferred_type":"city"}
{"name":"جزيرة عش","other_names":{"name:ar":"جزيرة عش","name:en":"Ish Island"},"display_name":"جزيرة عش, منطقة الظفرة, أبو ظبي, الإمارات العربية المتحدة","address":{"city":"جزيرة عش","county":"منطقة الظفرة","state":"أبو ظبي","ISO3166-2-lvl4":"AE-AZ","country":"الإمارات العربية المتحدة","country_code":"ae"},"osm_type":"relation","osm_id":18471628,"type":"administrative","location":[52.87577547787389,24.33350305],"bbox":[52.8349801,24.2869509,52.9055804,24.3810404],"inferred_type":"city"}
{"name":"جزيرة غشا","other_names":{"name:ar":"جزيرة غشا","name:en":"Ghasha Island"},"display_name":"جزيرة غشا, منطقة الظفرة, أبو ظبي, الإمارات العربية المتحدة","address":{"city":"جزيرة غشا","county":"منطقة الظفرة","state":"أبو ظبي","ISO3166-2-lvl4":"AE-AZ","country":"الإمارات العربية المتحدة","country_code":"ae"},"osm_type":"relation","osm_id":18471634,"type":"administrative","location":[52.66322621347214,24.404696450000003],"bbox":[52.6368567,24.3860415,52.6874155,24.4234415],"inferred_type":"city"}
{"name":"جزيرة فاهد","other_names":{"name:ar":"جزيرة فاهد","name:en":"Fahid Island"},"display_name":"جزيرة فاهد, أبوظبي, أبو ظبي, الإمارات العربية المتحدة","address":{"city":"جزيرة فاهد","county":"أبوظبي","state":"أبو ظبي","ISO3166-2-lvl4":"AE-AZ","country":"الإمارات العربية المتحدة","country_code":"ae"},"osm_type":"relation","osm_id":13251328,"type":"administrative","location":[54.54848352440948,24.5091212],"bbox":[54.5171549,24.4956931,54.5755188,24.522891],"inferred_type":"city"}
{"name":"جزيرة قرنين","other_names":{"name:ar":"جزيرة قرنين","name:en":"Qarnayn Island"},"display_name":"جزيرة قرنين, منطقة الظفرة, أبو ظبي, الإمارات العربية المتحدة","address":{"city":"جزيرة قرنين","county":"منطقة الظفرة","state":"أبو ظبي","ISO3166-2-lvl4":"AE-AZ","country":"الإمارات العربية المتحدة","country_code":"ae"},"osm_type":"relation","osm_id":18471641,"type":"administrative","location":[52.854047491569084,24.9311479],"bbox":[52.8412819,24.9167621,52.8618377,24.9455634],"inferred_type":"city"}
{"name":"جزيرة قفاي","other_names":{"name:ar":"جزيرة قفاي","name:en":"Qaffay Island"},"display_name":"جزيرة قفاي, منطقة الظفرة, أبو ظبي, الإمارات العربية المتحدة","address":{"city":"جزيرة قفاي","county":"منطقة الظفرة","state":"أبو ظبي","ISO3166-2-lvl4":"AE-AZ","country":"الإمارات العربية المتحدة","country_code":"ae"},"osm_type":"relation","osm_id":18471638,"type":"administrative","location":[51.719445709642734,24.57915665],"bbox":[51.703853,24.5544458,51.7368296,24.60457],"inferred_type":"city"}
{"name":"جزيرة مبرز","other_names":{"name:ar":"جزيرة مبرز","name:en":"Mbarraz Island"},"display_name":"جزيرة مبرز, منطقة الظفرة, أبو ظبي, الإمارات العربية المتحدة","address":{"city":"جزيرة مبرز","county":"منطقة الظفرة","state":"أبو ظبي","ISO3166-2-lvl4":"AE-AZ","country":"الإمارات العربية المتحدة","country_code":"ae"},"osm_type":"relation","osm_id":18471629,"type":"administrative","location":[53.334836672911834,24.5327873],"bbox":[53.2759327,24.4296596,53.3900455,24.6326943],"inferred_type":"city"}
{"name":"جزيرة مروح","other_names":{"name:ar":"جزيرة مروح"},"display_name":"جزيرة مروح, منطقة الظفرة, أبو ظبي, الإمارات العربية المتحدة","address":{"city":"جزيرة مروح","county":"منطقة الظفرة","state":"أبو ظبي","ISO3166-2-lvl4":"AE-AZ","country":"الإمارات العربية المتحدة","country_code":"ae"},"osm_type":"relation","osm_id":18471623,"type":"administrative","location":[53.259435502687374,24.2865423],"bbox":[53.1742568,24.2432558,53.3611526,24.3290952],"inferred_type":"city"}
{"name":"جزيرة مكاسب","other_names":{"name:ar":"جزيرة مكاسب","name:en":"Makasib Island"},"display_name":"جزيرة مكاسب, منطقة الظفرة, أبو ظبي, الإمارات العربية المتحدة","address":{"city":"جزيرة مكاسب","county":"منطقة الظفرة","state":"أبو ظبي","ISO3166-2-lvl4":"AE-AZ","country":"الإمارات العربية المتحدة","country_code":"ae"},"osm_type":"relation","osm_id":18471636,"type":"administrative","location":[51.81939812319588,24.66330475],"bbox":[51.8150357,24.659248,51.823666,24.6674582],"inferred_type":"city"}
{"name":"جزيرة مهملية","other_names":{"name:ar":"جزيرة مهملية","name:en":"Mhammaliyyah Island"},"display_name":"جزيرة مهملية, منطقة الظفرة, أبو ظبي, الإمارات العربية المتحدة","address":{"city":"جزيرة مهملية","county":"منطقة الظفرة","state":"أبو ظبي","ISO3166-2-lvl4":"AE-AZ","country":"الإمارات العربية المتحدة","country_code":"ae"},"osm_type":"relation","osm_id":18471631,"type":"administrative","location":[51.89689486323907,24.1142769],"bbox":[51.892694,24.109024,51.8997546,24.119765],"inferred_type":"city"}
{"name":"جزيرة مهيمات","other_names":{"name:ar":"جزيرة مهيمات","name:en":"Mehimat Island"},"display_name":"جزيرة مهيمات, منطقة الظفرة, أبو ظبي, الإمارات العربية المتحدة","address":{"city":"جزيرة مهيمات","county":"منطقة الظفرة","state":"أبو ظبي","ISO3166-2-lvl4":"AE-AZ","country":"الإمارات العربية المتحدة","country_code":"ae"},"osm_type":"relation","osm_id":18471639,"type":"administrative","location":[51.72689982255953,24.499663599999998],"bbox":[51.7131105,24.4777504,51.7420486,24.5215775],"inferred_type":"city"}
{"name":"جزيرة نُوراي","other_names":{"name:ar":"جزيرة نُوراي","name:en":"Nourai Island"},"display_name":"جزيرة نُوراي, أبوظبي, أبو ظبي, الإمارات العربية المتحدة","address":{"city":"جزيرة نُوراي","county":"أبوظبي","state":"أبو ظبي","ISO3166-2-lvl4":"AE-AZ","country":"الإمارات العربية المتحدة","country_code":"ae"},"osm_type":"relation","osm_id":13251339,"type":"administrative","location":[54.4868411096064,24.6146599],"bbox":[54.4690645,24.6045977,54.5031422,24.624559],"inferred_type":"city"}
{"name":"جزيرة ياس","other_names":{"name:ar":"جزيرة ياس","name:en":"Yas Island"},"display_name":"جزيرة ياس, أبوظبي, أبو ظبي, الإمارات العربية المتحدة","address":{"city":"جزيرة ياس","county":"أبوظبي","state":"أبو ظبي","ISO3166-2-lvl4":"AE-AZ","country":"الإمارات العربية المتحدة","country_code":"ae"},"osm_type":"relation","osm_id":13251334,"type":"administrative","location":[54.607230729391674,24.4883715],"bbox":[54.5713709,24.4520525,54.6347689,24.5246245],"inferred_type":"city"}
{"name":"حتا","other_names":{"name:ar":"حتا","name:de":"Hatta","name:en":"Hatta","name:es":"Hatta","name:fa":"حتا","name:fr":"Hatta","name:he":"האטה","name:ml":"ഹത്ത","name:sr":"Хата","name:ur":"حتا","alt_name":"Al Hagarein, Al Hajarayn, Al Ḥagarein, Al Ḩajarayn, Hajarain, Hajarayn, Hajrain, Hatta, hta, حتا, Ḩajarayn, Ḩattā","name:azb":"حتا"},"display_name":"حتا, Hatta, دبي, الإمارات العربية المتحدة","address":{"city":"حتا","state":"دبي","ISO3166-2-lvl4":"AE-DU","country":"الإمارات العربية المتحدة","country_code":"ae"},"osm_type":"node","osm_id":8128209859,"type":"city","location":[56.1206383,24.7975573],"bbox":[55.9606383,24.6375573,56.2806383,24.9575573],"border":{"name":"Hatta","other_names":{"name:ar":"Hatta","name:en":"Hatta","name:es":"Hatta","name:fr":"Hatta","alt_name":"Al Hagarein;Al Hajarayn;Al Ḥagarein;Al Ḩajarayn;Hajarain;Hajarayn;Hajrain;Hatta;hta;حتا;Ḩajarayn;Ḩattā","name:de":"Hatta","name:fa":"حتا","name:he":"האטה","name:ml":"ഹത്ത","name:sr":"Хата","name:ur":"حتا","_place_alt_name":"Al Hagarein, Al Hajarayn, Al Ḥagarein, Al Ḩajarayn, Hajarain, Hajarayn, Hajrain, Hatta, hta, حتا, Ḩajarayn, Ḩattā","name:azb":"حتا","alt":"حتا","alt:ar":"حتا"},"display_name":"Hatta, دبي, الإمارات العربية المتحدة","address":{"city":"Hatta","state":"دبي","ISO3166-2-lvl4":"AE-DU","country":"الإمارات العربية المتحدة","country_code":"ae"},"population":15324,"osm_type":"way","osm_id":1312389250,"type":"city","location":[56.1206383,24.7975573],"bbox":[56.105444,24.7762857,56.1516557,24.8242998]}}
{"name":"حَدْبَة الزَّعْفَرَانَة","other_names":{"name:ar":"حَدْبَة الزَّعْفَرَانَة","name:en":"Hadbat Al Za'faranah"},"display_name":"حَدْبَة الزَّعْفَرَانَة, أبوظبي, أبو ظبي, الإمارات العربية المتحدة","address":{"city":"حَدْبَة الزَّعْفَرَانَة","county":"أبوظبي","state":"أبو ظبي","ISO3166-2-lvl4":"AE-AZ","country":"الإمارات العربية المتحدة","country_code":"ae"},"osm_type":"relation","osm_id":13251316,"type":"administrative","location":[54.40731505925845,24.443935250000003],"bbox":[54.3924875,24.4326024,54.4193937,24.4554983],"inferred_type":"city"}
{"name":"خَصبة الرِّيم","other_names":{"name:ar":"خَصبة الرِّيم","name:en":"Khasbat Al Reem"},"display_name":"خَصبة الرِّيم, منطقة الظفرة, أبو ظبي, الإمارات العربية المتحدة","address":{"city":"خَصبة الرِّيم","county":"منطقة الظفرة","state":"أبو ظبي","ISO3166-2-lvl4":"AE-AZ","country":"الإمارات العربية المتحدة","country_code":"ae"},"osm_type":"relation","osm_id":13251473,"type":"administrative","location":[53.26366648072059,24.132433849999998],"bbox":[53.2156207,24.0981425,53.3169626,24.167127],"inferred_type":"city"}
{"name":"خِضَيرة","other_names":{"name:ar":"خِضَيرة","name:en":"Al Khidayrah"},"display_name":"خِضَيرة, أبوظبي, أبو ظبي, الإمارات العربية المتحدة","address":{"city":"خِضَيرة","county":"أبوظبي","state":"أبو ظبي","ISO3166-2-lvl4":"AE-AZ","country":"الإمارات العربية المتحدة","country_code":"ae"},"osm_type":"relation","osm_id":13251485,"type":"administrative","location":[53.98424283150382,24.11466655],"bbox":[53.8028107,24.0285803,54.1898226,24.2008598],"inferred_type":"city"}
{"name":"خليفة الصِّناعية","other_names":{"name:ar":"خليفة الصِّناعية","name:en":"Khalifa Industrial"},"display_name":"خليفة الصِّناعية, أبوظبي, أبو ظبي, الإمارات العربية المتحدة","address":{"city":"خليفة الصِّناعية","county":"أبوظبي","state":"أبو ظبي","ISO3166-2-lvl4":"AE-AZ","country":"الإمارات العربية المتحدة","country_code":"ae"},"osm_type":"relation","osm_id":13251383,"type":"administrative","location":[54.89412928280215,24.696577050000002],"bbox":[54.7664926,24.5965875,55.1421577,24.7976495],"inferred_type":"city"}
{"name":"دبا الحصن","other_names":{"name:ar":"Dibba Al Hisn دبا الحصن","name:de":"Dibba Al Hisn","name:en":"Dibba Al Hisn","name:es":"Dibba Al Hisn","name:fr":"Dibba Al Hisn","name:ml":"ദിബ്ബ അൽ ഹിസ്ൻ","alt_name":"Dibā Al Ḩişn, Dibbā Al Ḩişn"},"display_name":"دبا الحصن, الشارقة, الإمارات العربية المتحدة","address":{"city":"دبا الحصن","state":"الشارقة","ISO3166-2-lvl4":"AE-SH","country":"الإمارات العربية المتحدة","country_code":"ae"},"osm_type":"node","osm_id":8560554403,"type":"city","location":[56.2672918,25.6153314],"bbox":[56.1072918,25.4553314,56.4272918,25.7753314],"border":{"name":"دبا الحصن","other_names":{"name:ar":"دبا الحصن","name:en":"Dibba Al Hisn","name:es":"Dibba Al Hisn","alt_name":"المدينة الفاضلة","name:de":"Dibba Al Hisn","name:fr":"Dibba Al Hisn","name:ml":"ദിബ്ബ അൽ ഹിസ്ൻ","_place_alt_name":"Dibā Al Ḩişn, Dibbā Al Ḩişn","alt:ar":"Dibba Al Hisn دبا الحصن"},"display_name":"دبا الحصن, الشارقة, الإمارات العربية المتحدة","address":{"city":"دبا الحصن","state":"الشارقة","ISO3166-2-lvl4":"AE-SH","country":"الإمارات العربية المتحدة","country_code":"ae"},"osm_type":"relation","osm_id":18471676,"type":"administrative","location":[56.2672918,25.6153314],"bbox":[56.2591459,25.6050611,56.2838434,25.6258872]}}
{"name":"دبا","other_names":{"name:ar":"دبا","name:en":"Dibba","name:es":"Dibba","name:ml":"ദിബ്ബ"},"display_name":"دبا, الفجيرة, الإمارات العربية المتحدة","address":{"city":"دبا","state":"الفجيرة","ISO3166-2-lvl4":"AE-FU","country":"الإمارات العربية المتحدة","country_code":"ae"},"osm_type":"node","osm_id":8128209877,"type":"city","location":[56.2842464,25.5977225],"bbox":[56.1242464,25.4377225,56.4442464,25.7577225]}
{"name":"دبي","other_names":{"name:af":"Doebai","name:am":"ዱባይ","name:an":"Dubai","name:ar":"دبي","name:as":"ডুবাই","name:ba":"Дубай","name:be":"Дубай","name:bg":"Дубай","name:bh":"दुबई","name:bn":"দুবাই","name:br":"Dubai","name:bs":"Dubai","name:cs":"Dubaj","name:cv":"Дубай","name:cy":"Dubai","name:da":"Dubai","name:de":"Dubai","name:el":"Ντουμπάι","name:en":"Dubai","name:eo":"Dubajurbo","name:es":"Dubái","name:et":"Dubai","name:eu":"Dubai","name:fa":"دبی","name:fi":"Dubai","name:fo":"Dubai","name:fr":"Doubaï","name:fy":"ELDûbai","name:ga":"Dubai","name:gd":"Dubai","name:gl":"Dubai","name:gn":"Nduvái","name:gu":"દુબઇ","name:ha":"Dubai","name:he":"דובאי","name:hi":"दुबई","name:hr":"Dubai","name:hu":"Dubaj","name:hy":"Դուբայ","name:id":"Dubai","name:ie":"Dubai","name:io":"Dubai","name:is":"Dúbaí","name:it":"Dubai","name:ja":"ドバイ","name:jv":"Dubai","name:ka":"დუბაი","name:ki":"Dubai","name:kk":"Дубай","name:kn":"ದುಬೈ","name:ko":"두바이","name:ks":"دبئی","name:ku":"Dubey","name:kw":"Dubai","name:ky":"Дубай","name:lb":"Dubai","name:li":"Dubai","name:lt":"Dubajus","name:lv":"Dubaija","name:mk":"Дубаи","name:ml":"ദുബായ്","name:mn":"Дубай","name:mr":"दुबई","name:ms":"Dubai","name:my":"ဒူဘိုင်းမြို့","name:ne":"दुबई","name:nl":"Dubai","name:no":"Dubai","name:ny":"Dubai","name:oc":"Dubai","name:os":"Дубай","name:pa":"ਦੁਬਈ","name:pl":"Dubaj","name:ps":"دوبۍ","name:pt":"Dubai","name:ro":"Dubai","name:ru":"Дубай","name:sd":"دبئي","name:se":"Dubai","name:si":"ඩුබායි","name:sk":"Dubaj","name:sl":"Dubaj","name:so":"Dubay","name:sq":"Dubai","name:sr":"Дубаи","name:sv":"Dubai","name:sw":"Dubai","name:ta":"துபாய்","name:te":"దుబాయ్","name:tg":"Дубай","name:th":"ดูไบ","name:tk":"Dubaý","name:tl":"Dubai","name:tr":"Dubai","name:tt":"Дөбәй","name:ug":"دۇبائى","name:uk":"Дубай","name:ur":"دبئی","name:uz":"Dubay","name:vi":"Dubai","name:vo":"Dubayy","name:yi":"דוביי","name:yo":"Dubai","name:zh":"迪拜","name:ace":"Dubai","name:ast":"Dubái","name:azb":"دوبی","name:ceb":"Dubai","name:ckb":"دوبەی","name:ext":"Dubai","name:frp":"Doubayi","name:ilo":"Dubai","name:kaa":"Dubai","name:kab":"Dubay","name:kmr":"دوبای","name:lez":"Дубай","name:lij":"Dubai","name:lmo":"Dubai","name:mai":"दुबई","name:mzn":"دوبی","name:pap":"Dubai","name:pms":"Dubai","name:pnb":"دبئی","name:rue":"Дубай","name:sah":"Дубай","name:sat":"ᱫᱩᱵᱟᱭ","name:scn":"Dubai","name:sco":"Dubai","name:szl":"Dubaj","name:vep":"Dubai","name:war":"Dubai","name:wuu":"迪拜","name:xmf":"დუბაი","ISO3166-2":"AE-DU","alt_name:ar":"دبى","alt_name:en":"Dubayy","alt_name:fr":"Dubaï","alt_name:pa":"ਡੁਬਈ","name:az-Arab":"دوبی","name:kk-Arab":"دۋباي"},"display_name":"دبي, الإمارات العربية المتحدة","address":{"city":"دبي","ISO3166-2-lvl10":"AE-DU","state":"دبي","ISO3166-2-lvl4":"AE-DU","country":"الإمارات العربية المتحدة","country_code":"ae"},"population":3396194,"osm_type":"node","osm_id":31248510,"type":"city","location":[55.2924146,25.2647227],"bbox":[55.1324146,25.1047227,55.4524146,25.4247227],"border":{"name":"دبي","other_names":{"name:ar":"دبي","name:de":"Dubai","name:el":"Ντουμπάι","name:en":"Dubai","name:fa":"دبی","name:fr":"Doubaï","name:he":"דובאי","name:it":"Dubai","name:ko":"두바이","name:ks":"دبئی","name:pa":"ਦੁਬਈ","name:pl":"Dubaj","name:ps":"دوبۍ","name:sd":"دبئي","name:sk":"Dubaj","name:ug":"دۇبائى","name:ur":"دبئی","name:azb":"دوبی","name:mzn":"دوبی","name:pnb":"دبئی","name:az-Arab":"دوبی","name:kk-Arab":"دۋباي"},"display_name":"دبي, الإمارات العربية المتحدة","address":{"administrative":"دبي","state":"دبي","ISO3166-2-lvl4":"AE-DU","country":"الإمارات العربية المتحدة","country_code":"ae"},"osm_type":"relation","osm_id":4479752,"type":"administrative","location":[55.18853865430702,25.074282349999997],"bbox":[54.7153981,24.6230661,56.205298,25.5250676]}}
{"name":"دِهان","other_names":{"name:ar":"دِهان","name:en":"Dihan"},"display_name":"دِهان, أبوظبي, أبو ظبي, الإمارات العربية المتحدة","address":{"city":"دِهان","county":"أبوظبي","state":"أبو ظبي","ISO3166-2-lvl4":"AE-AZ","country":"الإمارات العربية المتحدة","country_code":"ae"},"osm_type":"relation","osm_id":13251368,"type":"administrative","location":[55.01437756500815,24.225216699999997],"bbox":[54.897619,24.1805927,55.1028211,24.2731785],"inferred_type":"city"}
{"name":"رأس الخيمة","other_names":{"ref":"RAK","name:ar":"رأس الخيمة","name:bn":"রাস আল-খাইমা","name:cs":"Rás al-Chajma","name:de":"Ra’s al-Chaima","name:en":"Ras Al Khaimah","name:es":"Ras al-Jaima","name:et":"Ra’s al-Khaymah","name:fa":"رأس‌الخیمه","name:fr":"Ras al-Khaïma","name:he":"ראס אל-חיימה","name:hi":"रास अल खैमा","name:kn":"ರಃಸ್ ಅಲ್ ಖೈಮಾ","name:ko":"라스알카이마","name:ml":"റാസൽ ഖൈമ","name:ru":"Рас-эль-Хайма","name:ta":"ரஃஸ் அல் கைமா","name:uk":"Рас-ель-Хайма","name:ur":"راس الخیمہ","name:zh":"哈伊馬角","name:pnb":"راس الخیمہ","alt_name:ml":"റാസ് അൽ-ഖൈമ","official_name":"مدينة رأس الخيمة","official_name:ar":"مدينة رأس الخيمة"},"display_name":"رأس الخيمة, الإمارات العربية المتحدة","address":{"city":"رأس الخيمة","state":"رأس الخيمة","ISO3166-2-lvl4":"AE-RK","country":"الإمارات العربية المتحدة","country_code":"ae"},"population":241000,"osm_type":"node","osm_id":262479317,"type":"city","location":[55.938232,25.7737705],"bbox":[55.778232,25.6137705,56.098232,25.9337705]}
{"name":"رأس غُمِيس","other_names":{"name:ar":"رأس غُمِيس","name:en":"Ras Ghumeis"},"display_name":"رأس غُمِيس, منطقة الظفرة, أبو ظبي, الإمارات العربية المتحدة","address":{"city":"رأس غُمِيس","county":"منطقة الظفرة","state":"أبو ظبي","ISO3166-2-lvl4":"AE-AZ","country":"الإمارات العربية المتحدة","country_code":"ae"},"osm_type":"relation","osm_id":13251520,"type":"administrative","location":[51.533794903099825,24.3737275],"bbox":[51.4160714,24.1990072,51.6481236,24.5311155],"inferred_type":"city"}
{"name":"رَأس مْشَيْرِب","other_names":{"name:ar":"رَأس مْشَيْرِب","name:en":"Ras Mshayrib"},"display_name":"رَأس مْشَيْرِب, منطقة الظفرة, أبو ظبي, الإمارات العربية المتحدة","address":{"city":"رَأس مْشَيْرِب","county":"منطقة الظفرة","state":"أبو ظبي","ISO3166-2-lvl4":"AE-AZ","country":"الإمارات العربية المتحدة","country_code":"ae"},"osm_type":"relation","osm_id":13251519,"type":"administrative","location":[51.724944765592326,24.25242275],"bbox":[51.6393644,24.1938346,51.8048867,24.3509492],"inferred_type":"city"}
{"name":"ربدان","other_names":{"name:ar":"ربدان","name:en":"Rabdan"},"display_name":"ربدان, أبوظبي, أبو ظبي, الإمارات العربية المتحدة","address":{"city":"ربدان","county":"أبوظبي","state":"أبو ظبي","ISO3166-2-lvl4":"AE-AZ","country":"الإمارات العربية المتحدة","country_code":"ae"},"osm_type":"relation","osm_id":13251350,"type":"administrative","location":[54.4953385887036,24.3935446],"bbox":[54.4630947,24.3836322,54.5242401,24.4033796],"inferred_type":"city","border":{"name":"ربدان","other_names":{"name:ar":"ربدان","name:en":"Rabdan"},"display_name":"ربدان, أبوظبي, أبو ظبي, الإمارات العربية المتحدة","address":{"city":"ربدان","county":"أبوظبي","state":"أبو ظبي","ISO3166-2-lvl4":"AE-AZ","country":"الإمارات العربية المتحدة","country_code":"ae"},"osm_type":"relation","osm_id":13251345,"type":"administrative","location":[54.505773076622674,24.4054839],"bbox":[54.4858949,24.3901481,54.5385938,24.4207067]}}
{"name":"رُوْضَة الرِّيْف","other_names":{"name:ar":"رُوْضَة الرِّيْف","name:en":"Rawdat Al Reef"},"display_name":"رُوْضَة الرِّيْف, أبوظبي, أبو ظبي, الإمارات العربية المتحدة","address":{"city":"رُوْضَة الرِّيْف","county":"أبوظبي","state":"أبو ظبي","ISO3166-2-lvl4":"AE-AZ","country":"الإمارات العربية المتحدة","country_code":"ae"},"osm_type":"relation","osm_id":13251372,"type":"administrative","location":[54.71597323802103,24.50807665],"bbox":[54.6752263,24.4606201,54.7474015,24.5556206],"inferred_type":"city"}
{"name":"ساس النَّخْل","other_names":{"name:ar":"ساس النَّخْل","name:en":"Sas Al Nakhl"},"display_name":"ساس النَّخْل, أبوظبي, أبو ظبي, الإمارات العربية المتحدة","address":{"city":"ساس النَّخْل","county":"أبوظبي","state":"أبو ظبي","ISO3166-2-lvl4":"AE-AZ","country":"الإمارات العربية المتحدة","country_code":"ae"},"osm_type":"relation","osm_id":13251322,"type":"administrative","location":[54.50772940121703,24.443376999999998],"bbox":[54.473949,24.4144741,54.5424163,24.4718575],"inferred_type":"city"}
{"name":"سَبْخَة مَطِّي","other_names":{"name:ar":"سَبْخَة مَطِّي","name:en":"Sabkhat Matti"},"display_name":"سَبْخَة مَطِّي, منطقة الظفرة, أبو ظبي, الإمارات العربية المتحدة","address":{"city":"سَبْخَة مَطِّي","county":"منطقة الظفرة","state":"أبو ظبي","ISO3166-2-lvl4":"AE-AZ","country":"الإمارات العربية المتحدة","country_code":"ae"},"osm_type":"relation","osm_id":13251514,"type":"administrative","location":[52.06373130000194,23.8880082],"bbox":[51.6354012,23.6756549,52.3349229,24.1024121],"inferred_type":"city"}
{"name":"شارع المدينة الصناعية 3","other_names":{"name:ar":"شارع المدينة الصناعية 3","name:en":"Al Madeenah As Sina'iyah 3 Street"},"display_name":"شارع المدينة الصناعية 3, العين, أبو ظبي, الإمارات العربية المتحدة","address":{"city":"شارع المدينة الصناعية 3","county":"العين","state":"أبو ظبي","ISO3166-2-lvl4":"AE-AZ","country":"الإمارات العربية المتحدة","country_code":"ae"},"osm_type":"relation","osm_id":13251443,"type":"administrative","location":[55.584506346831645,24.0341251],"bbox":[55.4191466,23.97699,55.6688702,24.0904544],"inferred_type":"city"}
{"name":"صير بني ياس","other_names":{"name:ar":"صير بني ياس","name:en":"Sir Bani Yas","name:ru":"Сир-Бани-Яс"},"display_name":"صير بني ياس, منطقة الظفرة, أبو ظبي, الإمارات العربية المتحدة","address":{"city":"صير بني ياس","county":"منطقة الظفرة","state":"أبو ظبي","ISO3166-2-lvl4":"AE-AZ","country":"الإمارات العربية المتحدة","country_code":"ae"},"osm_type":"relation","osm_id":18471626,"type":"administrative","location":[52.60109681511909,24.309324850000003],"bbox":[52.5489473,24.2475361,52.6534993,24.3749685],"inferred_type":"city"}
{"name":"طَرِيف","other_names":{"name:ar":"طَرِيف","name:en":"Tarif"},"display_name":"طَرِيف, منطقة الظفرة, أبو ظبي, الإمارات العربية المتحدة","address":{"city":"طَرِيف","county":"منطقة الظفرة","state":"أبو ظبي","ISO3166-2-lvl4":"AE-AZ","country":"الإمارات العربية المتحدة","country_code":"ae"},"osm_type":"relation","osm_id":13251484,"type":"administrative","location":[53.79046911065804,24.012411450000002],"bbox":[53.6763659,23.9280455,53.8883015,24.0971957],"inferred_type":"city"}
{"name":"ظَهارة الطِّيب","other_names":{"name:ar":"ظَهارة الطِّيب","name:en":"Dhaharat Al Teeb"},"display_name":"ظَهارة الطِّيب, أبوظبي, أبو ظبي, الإمارات العربية المتحدة","address":{"city":"ظَهارة الطِّيب","county":"أبوظبي","state":"أبو ظبي","ISO3166-2-lvl4":"AE-AZ","country":"الإمارات العربية المتحدة","country_code":"ae"},"osm_type":"relation","osm_id":13251366,"type":"administrative","location":[54.88274129062978,24.202047049999997],"bbox":[54.8212949,24.1822184,54.9133464,24.221886],"inferred_type":"city"}
{"name":"عجمان","other_names":{"name:ar":"عجمان","name:cs":"Adžmán","name:de":"Adschman","name:en":"Ajman","name:es":"Ajmán","name:et":"‘Ajmān","name:fr":"Ajman","name:he":"אג'מן","name:hi":"अजमान","name:ko":"아지만","name:ml":"അജ്മാൻ","name:ru":"Аджман","name:uk":"Аджман","name:zh":"阿治曼"},"display_name":"عجمان, إمارة عجمان, الإمارات العربية المتحدة","address":{"city":"عجمان","state":"إمارة عجمان","ISO3166-2-lvl4":"AE-AJ","country":"الإمارات العربية المتحدة","country_code":"ae"},"population":238119,"osm_type":"node","osm_id":262479959,"type":"city","location":[55.4451432,25.3936557],"bbox":[55.2851432,25.2336557,55.6051432,25.5536557]}
{"name":"عجَيِّج","other_names":{"name:ar":"عجَيِّج","name:en":"Ujaij"},"display_name":"عجَيِّج, أبوظبي, أبو ظبي, الإمارات العربية المتحدة","address":{"city":"عجَيِّج","county":"أبوظبي","state":"أبو ظبي","ISO3166-2-lvl4":"AE-AZ","country":"الإمارات العربية المتحدة","country_code":"ae"},"osm_type":"relation","osm_id":13251335,"type":"administrative","location":[54.61541400048166,24.57510605],"bbox":[54.5892434,24.5446815,54.6461151,24.6074636],"inferred_type":"city"}
{"name":"غَدِير الطَّيْر","other_names":{"name:ar":"غَدِير الطَّيْر","name:en":"Ghadeer Al Tayr"},"display_name":"غَدِير الطَّيْر, أبوظبي, أبو ظبي, الإمارات العربية المتحدة","address":{"city":"غَدِير الطَّيْر","county":"أبوظبي","state":"أبو ظبي","ISO3166-2-lvl4":"AE-AZ","country":"الإمارات العربية المتحدة","country_code":"ae"},"osm_type":"relation","osm_id":13251380,"type":"administrative","location":[54.83374292624593,24.85042195],"bbox":[54.7629739,24.7976495,54.8942593,24.9021576],"inferred_type":"city"}
{"name":"غليلة","other_names":{"name:ar":"غليلة","name:de":"Ghalila","name:en":"Ghalilah","name:es":"Ghalilah","name:fa":"غلیله","name:fr":"Ghalila","name:ml":"ഗലീല","alt_name":"Ghalīlah;الجليل","alt_name:ar":"الجليل"},"display_name":"غليلة, رأس الخيمة, الإمارات العربية المتحدة","address":{"city":"غليلة","state":"رأس الخيمة","ISO3166-2-lvl4":"AE-RK","country":"الإمارات العربية المتحدة","country_code":"ae"},"osm_type":"node","osm_id":5759509856,"type":"city","location":[56.0742868,25.9974973],"bbox":[55.9142868,25.8374973,56.2342868,26.1574973],"border":{"name":"Ghalilah - غليلة","other_names":{"name:ar":"غليلة","name:de":"Ghalila","name:en":"Ghalilah","name:es":"Ghalilah","name:fa":"غلیله","name:fr":"Ghalila","alt_name":"Ghalīlah;الجليل","alt_name:ar":"الجليل","alt":"غليلة"},"display_name":"Ghalilah - غليلة, رأس الخيمة, الإمارات العربية المتحدة","address":{"suburb":"Ghalilah - غليلة","state":"رأس الخيمة","ISO3166-2-lvl4":"AE-RK","country":"الإمارات العربية المتحدة","country_code":"ae"},"osm_type":"relation","osm_id":18471775,"type":"administrative","location":[56.0669231,25.9564241],"bbox":[56.034708,25.9147434,56.0973673,26.0082581]}}
{"name":"غناضة","other_names":{"name:ar":"غناضة","name:en":"Ghanadhah"},"display_name":"غناضة, أبوظبي, أبو ظبي, الإمارات العربية المتحدة","address":{"city":"غناضة","county":"أبوظبي","state":"أبو ظبي","ISO3166-2-lvl4":"AE-AZ","country":"الإمارات العربية المتحدة","country_code":"ae"},"osm_type":"relation","osm_id":13251378,"type":"administrative","location":[54.765319166795464,24.78992195],"bbox":[54.6890128,24.7023083,54.79897,24.8776695],"inferred_type":"city"}
{"name":"غَنْتُوت","other_names":{"name:ar":"غَنْتُوت","name:en":"Ghantout"},"display_name":"غَنْتُوت, أبوظبي, أبو ظبي, الإمارات العربية المتحدة","address":{"city":"غَنْتُوت","county":"أبوظبي","state":"أبو ظبي","ISO3166-2-lvl4":"AE-AZ","country":"الإمارات العربية المتحدة","country_code":"ae"},"osm_type":"relation","osm_id":13251381,"type":"administrative","location":[54.89126771724814,24.8830636],"bbox":[54.8431183,24.8443489,54.9407482,24.922865],"inferred_type":"city"}
{"name":"غنتوت","other_names":{"name:ar":"غنتوت","name:de":"Gantout","name:en":"Gantout","name:es":"Gantout","name:fr":"Gantout","name:ml":"ഗന്തൂത്ത്","alt_name":"Gantūt"},"display_name":"غنتوت, غَنْتُوت, أبوظبي, أبو ظبي, الإمارات العربية المتحدة","address":{"city":"غنتوت","county":"أبوظبي","state":"أبو ظبي","ISO3166-2-lvl4":"AE-AZ","country":"الإمارات العربية المتحدة","country_code":"ae"},"osm_type":"node","osm_id":9984642548,"type":"city","location":[54.8846184,24.8866899],"bbox":[54.7246184,24.7266899,55.0446184,25.0466899]}
{"name":"قِرقِشان","other_names":{"name:ar":"قِرقِشان","name:en":"Qirqishan"},"display_name":"قِرقِشان, أبوظبي, أبو ظبي, الإمارات العربية المتحدة","address":{"city":"قِرقِشان","county":"أبوظبي","state":"أبو ظبي","ISO3166-2-lvl4":"AE-AZ","country":"الإمارات العربية المتحدة","country_code":"ae"},"osm_type":"relation","osm_id":13251454,"type":"administrative","location":[54.27597673346263,24.44442565],"bbox":[54.232785,24.4094163,54.3287976,24.4800876],"inferred_type":"city"}
{"name":"قِرَيْنْ العَيْشْ","other_names":{"name:ar":"قِرَيْنْ العَيْشْ","name:en":"Qirayn Al 'Aysh"},"display_name":"قِرَيْنْ العَيْشْ, منطقة الظفرة, أبو ظبي, الإمارات العربية المتحدة","address":{"city":"قِرَيْنْ العَيْشْ","county":"منطقة الظفرة","state":"أبو ظبي","ISO3166-2-lvl4":"AE-AZ","country":"الإمارات العربية المتحدة","country_code":"ae"},"osm_type":"relation","osm_id":13251474,"type":"administrative","location":[53.12466752864851,24.12176555],"bbox":[53.0281557,24.057013,53.3306426,24.1859025],"inferred_type":"city"}
{"name":"قَصر البَحر","other_names":{"name:ar":"قَصر البَحر","name:en":"Qasr Al Bahr"},"display_name":"قَصر البَحر, أبوظبي, أبو ظبي, الإمارات العربية المتحدة","address":{"city":"قَصر البَحر","county":"أبوظبي","state":"أبو ظبي","ISO3166-2-lvl4":"AE-AZ","country":"الإمارات العربية المتحدة","country_code":"ae"},"osm_type":"relation","osm_id":13251309,"type":"administrative","location":[54.41304182165053,24.46568555],"bbox":[54.3868741,24.4466717,54.4312703,24.4849895],"inferred_type":"city"}
{"name":"مَحْمِيَّة الصُّقُور","other_names":{"name:ar":"مَحْمِيَّة الصُّقُور","name:en":"Mahmiyyat Al Suqour"},"display_name":"مَحْمِيَّة الصُّقُور, منطقة الظفرة, أبو ظبي, الإمارات العربية المتحدة","address":{"city":"مَحْمِيَّة الصُّقُور","county":"منطقة الظفرة","state":"أبو ظبي","ISO3166-2-lvl4":"AE-AZ","country":"الإمارات العربية المتحدة","country_code":"ae"},"osm_type":"relation","osm_id":13251515,"type":"administrative","location":[52.00203211847102,24.0233942],"bbox":[51.9151206,23.9344486,52.111543,24.1298678],"inferred_type":"city"}
{"name":"مَدينة أبوظبي الصناعية","other_names":{"name:ar":"مَدينة أبوظبي الصناعية","name:en":"Abu Dhabi Industrial City"},"display_name":"مَدينة أبوظبي الصناعية, أبوظبي, أبو ظبي, الإمارات العربية المتحدة","address":{"city":"مَدينة أبوظبي الصناعية","county":"أبوظبي","state":"أبو ظبي","ISO3166-2-lvl4":"AE-AZ","country":"الإمارات العربية المتحدة","country_code":"ae"},"osm_type":"relation","osm_id":13251451,"type":"administrative","location":[54.46483935612041,24.279237350000002],"bbox":[54.3780314,24.2131345,54.5529063,24.3453665],"inferred_type":"city"}
{"name":"مدينة الرويس الصناعية","other_names":{"name:ar":"مدينة الرويس الصناعية","name:en":"Al Ruways Industrial City"},"display_name":"مدينة الرويس الصناعية, منطقة الظفرة, أبو ظبي, الإمارات العربية المتحدة","address":{"city":"مدينة الرويس الصناعية","county":"منطقة الظفرة","state":"أبو ظبي","ISO3166-2-lvl4":"AE-AZ","country":"الإمارات العربية المتحدة","country_code":"ae"},"osm_type":"relation","osm_id":13251475,"type":"administrative","location":[52.828406985379274,24.13580285],"bbox":[52.6073261,24.044541,53.0629122,24.2260721],"inferred_type":"city"}
{"name":"مدينة الظنة","other_names":{"name:ar":"مدينة الظنة","name:en":"Al Dhannah City"},"display_name":"مدينة الظنة, منطقة الظفرة, أبو ظبي, الإمارات العربية المتحدة","address":{"city":"مدينة الظنة","county":"منطقة الظفرة","state":"أبو ظبي","ISO3166-2-lvl4":"AE-AZ","country":"الإمارات العربية المتحدة","country_code":"ae"},"osm_type":"relation","osm_id":13251509,"type":"administrative","location":[52.59461234419938,24.16962795],"bbox":[52.5290529,24.0969456,52.665019,24.2298293],"inferred_type":"city"}
{"name":"مدينة خليفة","other_names":{"name:ar":"مدينة خليفة","name:en":"Khalifa City"},"display_name":"مدينة خليفة, أبوظبي, أبو ظبي, الإمارات العربية المتحدة","address":{"city":"مدينة خليفة","county":"أبوظبي","state":"أبو ظبي","ISO3166-2-lvl4":"AE-AZ","country":"الإمارات العربية المتحدة","country_code":"ae"},"osm_type":"relation","osm_id":13251355,"type":"administrative","location":[54.57495352587594,24.420131400000002],"bbox":[54.5039534,24.3904936,54.6422253,24.4496112],"inferred_type":"city"}
{"name":"مدينة زايد","other_names":{"name:ar":"مدينة زايد","name:en":"Zayed City"},"display_name":"مدينة زايد, أبوظبي, أبو ظبي, الإمارات العربية المتحدة","address":{"city":"مدينة زايد","county":"أبوظبي","state":"أبو ظبي","ISO3166-2-lvl4":"AE-AZ","country":"الإمارات العربية المتحدة","country_code":"ae"},"osm_type":"relation","osm_id":13251357,"type":"administrative","location":[54.590591793613115,24.36917605],"bbox":[54.5385938,24.3279652,54.6551282,24.410458],"inferred_type":"city"}
{"name":"مدينة شخبوط","other_names":{"name:ar":"مدينة شخبوط","name:en":"Shakhbout City"},"display_name":"مدينة شخبوط, أبوظبي, أبو ظبي, الإمارات العربية المتحدة","address":{"city":"مدينة شخبوط","county":"أبوظبي","state":"أبو ظبي","ISO3166-2-lvl4":"AE-AZ","country":"الإمارات العربية المتحدة","country_code":"ae"},"osm_type":"relation","osm_id":13251358,"type":"administrative","location":[54.63233435459003,24.3594999],"bbox":[54.5854948,24.3088731,54.67304,24.4099392],"inferred_type":"city"}
{"name":"مدينة محمد بن زايد","other_names":{"name:ar":"مدينة محمد بن زايد","name:en":"Mohamed Bin Zayed City"},"display_name":"مدينة محمد بن زايد, أبوظبي, أبو ظبي, الإمارات العربية المتحدة","address":{"city":"مدينة محمد بن زايد","county":"أبوظبي","state":"أبو ظبي","ISO3166-2-lvl4":"AE-AZ","country":"الإمارات العربية المتحدة","country_code":"ae"},"osm_type":"relation","osm_id":13251449,"type":"administrative","location":[54.5516096419751,24.3403679],"bbox":[54.523917,24.2878967,54.6011601,24.3928896],"inferred_type":"city"}
{"name":"مركز دبي المالي العالمي","other_names":{"name:ar":"مركز دبي المالي العالمي","name:en":"Dubai International Financial Centre"},"display_name":"مركز دبي المالي العالمي, دبي, الإمارات العربية المتحدة","address":{"city":"مركز دبي المالي العالمي","state":"دبي","ISO3166-2-lvl4":"AE-DU","country":"الإمارات العربية المتحدة","country_code":"ae"},"osm_type":"relation","osm_id":18471688,"type":"administrative","location":[55.28135912750682,25.21348775],"bbox":[55.2782266,25.2110941,55.2840328,25.2159109],"inferred_type":"city"}
{"name":"مزيرع","other_names":{"name:ar":"مزيرع","name:en":"Mudayrah","name:es":"Mudayrah","name:fr":"Mudayrah","name:ml":"മുസൈറ","alt_name":"Muzairah;Muzaira;Sayh Mudayrah;Muzayri';Muḑayrah;Muzeira;Muzeera;Muzaira'a;Mizaira"},"display_name":"مزيرع, Mudayrah / Muzairah, إمارة عجمان, الإمارات العربية المتحدة","address":{"city":"مزيرع","state":"إمارة عجمان","ISO3166-2-lvl4":"AE-AJ","country":"الإمارات العربية المتحدة","country_code":"ae"},"osm_type":"node","osm_id":5951067703,"type":"city","location":[56.0359823,24.830655],"bbox":[55.8759823,24.670655,56.1959823,24.990655],"border":{"name":"Mudayrah / Muzairah","other_names":{"name:ar":"مُزَيْرَع","name:en":"Mudayrah / Muzairah","name:es":"Mudayrah / Muzairah","name:fr":"Mudayrah / Muzairah","alt_name":"Muzairah;Muzaira;Sayh Mudayrah;Muzayri';Muḑayrah;Muzeira;Muzeera;Muzaira'a;Mizaira","name:ml":"മുസൈറ","alt":"مزيرع","alt:en":"Mudayrah","alt:es":"Mudayrah","alt:fr":"Mudayrah"},"display_name":"Mudayrah / Muzairah, إمارة عجمان, الإمارات العربية المتحدة","address":{"city":"Mudayrah / Muzairah","state":"إمارة عجمان","ISO3166-2-lvl4":"AE-AJ","country":"الإمارات العربية المتحدة","country_code":"ae"},"osm_type":"way","osm_id":134932917,"type":"city","location":[56.0359823,24.830655],"bbox":[56.0268804,24.8236964,56.0465223,24.8357777]}}
{"name":"مَسَاكِن","other_names":{"name:ar":"مَسَاكِن","name:en":"Masakin"},"display_name":"مَسَاكِن, العين, أبو ظبي, الإمارات العربية المتحدة","address":{"city":"مَسَاكِن","county":"العين","state":"أبو ظبي","ISO3166-2-lvl4":"AE-AZ","country":"الإمارات العربية المتحدة","country_code":"ae"},"osm_type":"relation","osm_id":13251424,"type":"administrative","location":[55.75286812037013,24.426681549999998],"bbox":[55.6354047,24.3669706,55.8289591,24.4895183],"inferred_type":"city"}
{"name":"مْشَيْرِف","other_names":{"name:ar":"مْشَيْرِف","name:en":"Mshayrif"},"display_name":"مْشَيْرِف, أبوظبي, أبو ظبي, الإمارات العربية المتحدة","address":{"city":"مْشَيْرِف","county":"أبوظبي","state":"أبو ظبي","ISO3166-2-lvl4":"AE-AZ","country":"الإمارات العربية المتحدة","country_code":"ae"},"osm_type":"relation","osm_id":13251462,"type":"administrative","location":[54.75870622933475,24.0095572],"bbox":[54.4124248,23.8172373,55.1047338,24.2021204],"inferred_type":"city"}
{"name":"مُصَفَح","other_names":{"name:ar":"مُصَفَح","name:en":"Musaffah"},"display_name":"مُصَفَح, أبوظبي, أبو ظبي, الإمارات العربية المتحدة","address":{"city":"مُصَفَح","county":"أبوظبي","state":"أبو ظبي","ISO3166-2-lvl4":"AE-AZ","country":"الإمارات العربية المتحدة","country_code":"ae"},"osm_type":"relation","osm_id":13251450,"type":"administrative","location":[54.49043800470386,24.3488731],"bbox":[54.4471872,24.3118438,54.526523,24.3858954],"inferred_type":"city"}
{"name":"مصفوت","other_names":{"name:ar":"مصفوت","name:en":"Masfut","name:es":"Masfut","name:fr":"Masfout","name:ml":"മസ്ഫൂത്ത്","alt_name":"Sha'biyyāt Maşfūt, Maşfūt;Masfout;Maṣfūṭ"},"display_name":"مصفوت, Masfut, إمارة عجمان, الإمارات العربية المتحدة","address":{"city":"مصفوت","state":"إمارة عجمان","ISO3166-2-lvl4":"AE-AJ","country":"الإمارات العربية المتحدة","country_code":"ae"},"osm_type":"node","osm_id":12153504632,"type":"city","location":[56.0971043,24.8154269],"bbox":[55.9371043,24.6554269,56.2571043,24.9754269],"border":{"name":"Masfut","other_names":{"name:ar":"Masfut","name:en":"Masfut","name:es":"Masfut","name:fr":"Masfout","alt_name":"Sha'biyyāt Maṣfūt, Maşfūt, Masfout, Maṣfūṭ","name:ml":"മസ്ഫൂത്ത്","_place_alt_name":"Sha'biyyāt Maşfūt, Maşfūt;Masfout;Maṣfūṭ","alt":"مصفوت"},"display_name":"Masfut, إمارة عجمان, الإمارات العربية المتحدة","address":{"city":"Masfut","state":"إمارة عجمان","ISO3166-2-lvl4":"AE-AJ","country":"الإمارات العربية المتحدة","country_code":"ae"},"osm_type":"way","osm_id":177791457,"type":"city","location":[56.0971043,24.8154269],"bbox":[56.0838697,24.8112171,56.1039381,24.8215636]}}
{"name":"مِلَيسَة","other_names":{"name:ar":"مِلَيسَة","name:en":"Milaysah"},"display_name":"مِلَيسَة, منطقة الظفرة, أبو ظبي, الإمارات العربية المتحدة","address":{"city":"مِلَيسَة","county":"منطقة الظفرة","state":"أبو ظبي","ISO3166-2-lvl4":"AE-AZ","country":"الإمارات العربية المتحدة","country_code":"ae"},"osm_type":"relation","osm_id":13251479,"type":"administrative","location":[53.0877875160799,23.7909261],"bbox":[52.9700478,23.6979223,53.1631209,23.8851202],"inferred_type":"city"}
{"name":"مُوَيلح","other_names":{"name:ar":"مُوَيلح","name:en":"Muwaylih"},"display_name":"مُوَيلح, أبوظبي, أبو ظبي, الإمارات العربية المتحدة","address":{"city":"مُوَيلح","county":"أبوظبي","state":"أبو ظبي","ISO3166-2-lvl4":"AE-AZ","country":"الإمارات العربية المتحدة","country_code":"ae"},"osm_type":"relation","osm_id":13251375,"type":"administrative","location":[54.801236646570246,24.6270514],"bbox":[54.7170197,24.5965868,54.903381,24.6571132],"inferred_type":"city"}
{"name":"ميناء زايد","other_names":{"name:ar":"ميناء زايد","name:en":"Zayed Port"},"display_name":"ميناء زايد, أبوظبي, أبو ظبي, الإمارات العربية المتحدة","address":{"city":"ميناء زايد","county":"أبوظبي","state":"أبو ظبي","ISO3166-2-lvl4":"AE-AZ","country":"الإمارات العربية المتحدة","country_code":"ae"},"osm_type":"relation","osm_id":13251325,"type":"administrative","location":[54.37991342792026,24.5243932],"bbox":[54.352981,24.5045822,54.4084787,24.5444386],"inferred_type":"city"}
{"name":"هيلي","other_names":{"name:ar":"هيلي","name:en":"Al Hili","name:es":"Al Hili","name:fr":"Al Hili","name:ml":"ഹീലി","alt_name":"Al Hīlī;Hili"},"display_name":"هيلي, الهيلي, العين, أبو ظبي, الإمارات العربية المتحدة","address":{"city":"هيلي","village":"الهيلي","county":"العين","state":"أبو ظبي","ISO3166-2-lvl4":"AE-AZ","country":"الإمارات العربية المتحدة","country_code":"ae"},"osm_type":"node","osm_id":12278452815,"type":"city","location":[55.7675258,24.287123],"bbox":[55.6075258,24.127123,55.9275258,24.447123]}
