{"name":"Ad Daqāyiq","other_names":{"name:ar":"Ad Daqāyiq","name:en":"Ad Daqayiq","name:es":"Ad Daqayiq","name:fr":"Ad Daqayiq"},"display_name":"Ad Daqāyiq, Khor Khwair خور خوير, رأس الخيمة, الإمارات العربية المتحدة","address":{"hamlet":"Ad Daqāyiq","city":"Khor Khwair خور خوير","state":"رأس الخيمة","ISO3166-2-lvl4":"AE-RK","country":"الإمارات العربية المتحدة","country_code":"ae"},"osm_type":"node","osm_id":10899597969,"type":"hamlet","location":[56.1016053,25.8833919],"bbox":[56.0816053,25.8633919,56.1216053,25.9033919]}
{"name":"Ad Dīrḩī","other_names":{"name:ar":"الدّيرحي","name:de":"Dirhi","name:en":"Ad Dīrḩī","name:es":"Ad Dirhi","name:fr":"Dirhi","alt_name":"Ad Dirhi;Ad Dīrḥī;Ad Dīrḩī;Dirhi;Dirhī;Umm Saghrain;Umm Şaghraīn;aldyrhy;الدّيرحي"},"display_name":"Ad Dīrḩī, الفجيرة, الإمارات العربية المتحدة","address":{"hamlet":"Ad Dīrḩī","state":"الفجيرة","ISO3166-2-lvl4":"AE-FU","country":"الإمارات العربية المتحدة","country_code":"ae"},"osm_type":"node","osm_id":10680976483,"type":"hamlet","location":[56.1765575,25.6498805],"bbox":[56.1565575,25.6298805,56.1965575,25.6698805]}
{"name":"Al ‘Ayn al Ghumūr","other_names":{"name:ar":"Al ‘Ayn al Ghumūr","name:en":"Al ‘Ayn al Ghumūr","name:es":"Al ‘Ayn al Ghumūr","name:fr":"Al ‘Ayn al Ghumūr","alt_name":"Ain al Ghamur;Al ‘Ayn;Al ‘Ayn al Ghamur;Al ‘Ayn al Ghumūr;‘Ayn al Ghumur"},"display_name":"Al ‘Ayn al Ghumūr, رأس الخيمة, الإمارات العربية المتحدة","address":{"hamlet":"Al ‘Ayn al Ghumūr","state":"رأس الخيمة","ISO3166-2-lvl4":"AE-RK","country":"الإمارات العربية المتحدة","country_code":"ae"},"osm_type":"node","osm_id":12323771503,"type":"hamlet","location":[56.3159798,24.959685],"bbox":[56.2959798,24.939685,56.3359798,24.979685]}
{"name":"Al Badaia","other_names":{"name:ar":"Al Badaia","name:en":"Al Badaia"},"display_name":"Al Badaia, البديع, مدينة الشارقة, الشارقة, الإمارات العربية المتحدة","address":{"hamlet":"Al Badaia","suburb":"البديع","city":"مدينة الشارقة","state":"الشارقة","ISO3166-2-lvl4":"AE-SH","country":"الإمارات العربية المتحدة","country_code":"ae"},"osm_type":"node","osm_id":2144976699,"type":"hamlet","location":[55.5636775,25.2535069],"bbox":[55.5436775,25.2335069,55.5836775,25.2735069]}
{"name":"Al Baqil","other_names":{"name:ar":"البقيل‬‎","name:en":"Al Baqil","name:es":"Al Baqil","name:fr":"Al Baqil","alt_name":"Baqil;Al Baqīl;Baqeel"},"display_name":"Al Baqil, Al Sharyah, الفجيرة, الإمارات العربية المتحدة","address":{"hamlet":"Al Baqil","village":"Al Sharyah","state":"الفجيرة","ISO3166-2-lvl4":"AE-FU","country":"الإمارات العربية المتحدة","country_code":"ae"},"osm_type":"node","osm_id":11838822973,"type":"hamlet","location":[56.1591715,25.614198],"bbox":[56.1391715,25.594198,56.1791715,25.634198]}
{"name":"Al Ghabah","other_names":{"name:ar":"Al Ghabah","name:en":"Al Ghabah","name:es":"Al Ghabah","name:fr":"Al Ghabah","alt_name":"Ghubbah;Al Ghābah"},"display_name":"Al Ghabah, Al Jeer الجير, رأس الخيمة, الإمارات العربية المتحدة","address":{"hamlet":"Al Ghabah","city":"Al Jeer الجير","state":"رأس الخيمة","ISO3166-2-lvl4":"AE-RK","country":"الإمارات العربية المتحدة","country_code":"ae"},"osm_type":"node","osm_id":11851017839,"type":"hamlet","location":[56.1499516,26.050199],"bbox":[56.1299516,26.030199,56.1699516,26.070199]}
{"display_name":"Al Halah - الحلاة, الفجيرة, الإمارات العربية المتحدة","address":{"town":"Al Halah - الحلاة","state":"الفجيرة","ISO3166-2-lvl4":"AE-FU","country":"الإمارات العربية المتحدة","country_code":"ae"},"osm_type":"node","osm_id":12309615699,"type":"hamlet","location":[56.1693086,25.4928385],"bbox":[56.1493086,25.4728385,56.1893086,25.5128385]}
{"name":"Al Harr","other_names":{"name:ar":"Al Harr","name:en":"Al Harr","name:es":"Al Harr","name:fr":"Al Harr"},"display_name":"Al Harr, Tawiyean - الطويين, الفجيرة, الإمارات العربية المتحدة","address":{"hamlet":"Al Harr","city":"Tawiyean - الطويين","state":"الفجيرة","ISO3166-2-lvl4":"AE-FU","country":"الإمارات العربية المتحدة","country_code":"ae"},"osm_type":"node","osm_id":12500346516,"type":"hamlet","location":[56.0996838,25.5839854],"bbox":[56.0796838,25.5639854,56.1196838,25.6039854]}
{"display_name":"Al Hayilah, رأس الخيمة, الإمارات العربية المتحدة","address":{"town":"Al Hayilah","state":"رأس الخيمة","ISO3166-2-lvl4":"AE-RK","country":"الإمارات العربية المتحدة","country_code":"ae"},"osm_type":"node","osm_id":11584192908,"type":"hamlet","location":[56.1164579,25.8082438],"bbox":[56.0964579,25.7882438,56.1364579,25.8282438]}
{"display_name":"Al Hayilah, رأس الخيمة, الإمارات العربية المتحدة","address":{"town":"Al Hayilah","state":"رأس الخيمة","ISO3166-2-lvl4":"AE-RK","country":"الإمارات العربية المتحدة","country_code":"ae"},"osm_type":"node","osm_id":11751114960,"type":"hamlet","location":[56.125031,25.777858],"bbox":[56.105031,25.757858,56.145031,25.797858]}
{"display_name":"Al Hayilah, رأس الخيمة, الإمارات العربية المتحدة","address":{"town":"Al Hayilah","state":"رأس الخيمة","ISO3166-2-lvl4":"AE-RK","country":"الإمارات العربية المتحدة","country_code":"ae"},"osm_type":"node","osm_id":12290650953,"type":"hamlet","location":[56.1134263,25.7871453],"bbox":[56.0934263,25.7671453,56.1334263,25.8071453]}
{"display_name":"Al Jaroof - الجروف, الفجيرة, الإمارات العربية المتحدة","address":{"village":"Al Jaroof - الجروف","state":"الفجيرة","ISO3166-2-lvl4":"AE-FU","country":"الإمارات العربية المتحدة","country_code":"ae"},"osm_type":"node","osm_id":11861845259,"type":"hamlet","location":[56.1473175,25.4712515],"bbox":[56.1273175,25.4512515,56.1673175,25.4912515]}
{"display_name":"Al Jaroof - الجروف, الفجيرة, الإمارات العربية المتحدة","address":{"village":"Al Jaroof - الجروف","state":"الفجيرة","ISO3166-2-lvl4":"AE-FU","country":"الإمارات العربية المتحدة","country_code":"ae"},"osm_type":"node","osm_id":11816206526,"type":"hamlet","location":[56.1279117,25.4806277],"bbox":[56.1079117,25.4606277,56.1479117,25.5006277]}
{"display_name":"Al Jaroof - الجروف, الفجيرة, الإمارات العربية المتحدة","address":{"village":"Al Jaroof - الجروف","state":"الفجيرة","ISO3166-2-lvl4":"AE-FU","country":"الإمارات العربية المتحدة","country_code":"ae"},"osm_type":"node","osm_id":11813732313,"type":"hamlet","location":[56.1277787,25.4745629],"bbox":[56.1077787,25.4545629,56.1477787,25.4945629]}
{"display_name":"Al Jeer الجير, رأس الخيمة, الإمارات العربية المتحدة","address":{"city":"Al Jeer الجير","state":"رأس الخيمة","ISO3166-2-lvl4":"AE-RK","country":"الإمارات العربية المتحدة","country_code":"ae"},"osm_type":"node","osm_id":11851040609,"type":"hamlet","location":[56.1500798,26.0551052],"bbox":[56.1300798,26.0351052,56.1700798,26.0751052]}
{"display_name":"Al Jeer الجير, رأس الخيمة, الإمارات العربية المتحدة","address":{"city":"Al Jeer الجير","state":"رأس الخيمة","ISO3166-2-lvl4":"AE-RK","country":"الإمارات العربية المتحدة","country_code":"ae"},"osm_type":"node","osm_id":11566214101,"type":"hamlet","location":[56.1690096,25.9852748],"bbox":[56.1490096,25.9652748,56.1890096,26.0052748]}
{"name":"Al Latabah","other_names":{"name:ar":"Al Latabah","name:en":"Al Latabah","name:es":"Al Latabah","name:fr":"Al Latabah"},"display_name":"Al Latabah, Birkat Ad Dassah, رأس الخيمة, الإمارات العربية المتحدة","address":{"hamlet":"Al Latabah","town":"Birkat Ad Dassah","state":"رأس الخيمة","ISO3166-2-lvl4":"AE-RK","country":"الإمارات العربية المتحدة","country_code":"ae"},"osm_type":"node","osm_id":11587021202,"type":"hamlet","location":[56.0450876,25.6939596],"bbox":[56.0250876,25.6739596,56.0650876,25.7139596]}
{"name":"Al Marah","other_names":{"name:ar":"المرح","name:en":"Al Marah","name:es":"Al Marah","name:fr":"Al Marah","alt_name":"Al Maraḩ;Al-Marah;Marā"},"display_name":"Al Marah, رأس الخيمة, الإمارات العربية المتحدة","address":{"hamlet":"Al Marah","state":"رأس الخيمة","ISO3166-2-lvl4":"AE-RK","country":"الإمارات العربية المتحدة","country_code":"ae"},"osm_type":"node","osm_id":10739904672,"type":"hamlet","location":[56.1172322,25.6547782],"bbox":[56.0972322,25.6347782,56.1372322,25.6747782]}
{"name":"Al Miʻli","other_names":{"name:ar":"Al Miʻli","name:en":"Al Miʻli","name:es":"Al Miʻli","name:fr":"Al Miʻli","alt_name":"Al Miʻlī"},"display_name":"Al Miʻli, رأس الخيمة, الإمارات العربية المتحدة","address":{"hamlet":"Al Miʻli","state":"رأس الخيمة","ISO3166-2-lvl4":"AE-RK","country":"الإمارات العربية المتحدة","country_code":"ae"},"osm_type":"node","osm_id":11640062363,"type":"hamlet","location":[56.0932327,25.7513866],"bbox":[56.0732327,25.7313866,56.1132327,25.7713866]}
{"name":"Al Muhtarqah - المحترقة","other_names":{"name:ar":"المحترقة","name:de":"Al Muhtarqah","name:en":"Al Muhtarqah","name:es":"Mukhtaraqah","name:fa":"مختاراقاه","name:fr":"Al Muhtarqah","name:ml":"മുഖ്തറഖ","alt_name":"Al Miḥtarqah;Mahtarraqah;Muhtarqah;Mukhtaraja;Al Mihtarqah;Al Mihtaraqah;Al Mihtirqah;Al Muhtarqah","alt_name:en":"Al Mihtaraqah","alt_name_1:en":"Al Mahtaraqah"},"display_name":"Al Muhtarqah - المحترقة, Zahir al Ya'ad, الفجيرة, الإمارات العربية المتحدة","address":{"hamlet":"Al Muhtarqah - المحترقة","town":"Zahir al Ya'ad","state":"الفجيرة","ISO3166-2-lvl4":"AE-FU","country":"الإمارات العربية المتحدة","country_code":"ae"},"osm_type":"node","osm_id":5614905197,"type":"hamlet","location":[56.1307828,25.5406858],"bbox":[56.1107828,25.5206858,56.1507828,25.5606858]}
{"name":"Al Sanat - ديرة السنت","other_names":{"name:ar":"ديرة السنت","name:de":"Al Sanat","name:en":"Al Sanat","name:es":"Al Sanat","name:fr":"Al Sanat"},"display_name":"Al Sanat - ديرة السنت, رأس الخيمة, الإمارات العربية المتحدة","address":{"hamlet":"Al Sanat - ديرة السنت","state":"رأس الخيمة","ISO3166-2-lvl4":"AE-RK","country":"الإمارات العربية المتحدة","country_code":"ae"},"osm_type":"node","osm_id":10688215563,"type":"hamlet","location":[56.1424951,25.7194026],"bbox":[56.1224951,25.6994026,56.1624951,25.7394026]}
{"display_name":"Al Sharyah, الفجيرة, الإمارات العربية المتحدة","address":{"village":"Al Sharyah","state":"الفجيرة","ISO3166-2-lvl4":"AE-FU","country":"الإمارات العربية المتحدة","country_code":"ae"},"osm_type":"node","osm_id":12511857288,"type":"hamlet","location":[56.1428097,25.5996933],"bbox":[56.1228097,25.5796933,56.1628097,25.6196933]}
{"display_name":"Al Sharyah, الفجيرة, الإمارات العربية المتحدة","address":{"village":"Al Sharyah","state":"الفجيرة","ISO3166-2-lvl4":"AE-FU","country":"الإمارات العربية المتحدة","country_code":"ae"},"osm_type":"node","osm_id":11832681548,"type":"hamlet","location":[56.1363318,25.6148972],"bbox":[56.1163318,25.5948972,56.1563318,25.6348972]}
{"display_name":"Al Sharyah, الفجيرة, الإمارات العربية المتحدة","address":{"village":"Al Sharyah","state":"الفجيرة","ISO3166-2-lvl4":"AE-FU","country":"الإمارات العربية المتحدة","country_code":"ae"},"osm_type":"node","osm_id":11832701259,"type":"hamlet","location":[56.1349684,25.6198741],"bbox":[56.1149684,25.5998741,56.1549684,25.6398741]}
{"display_name":"Al Sharyah, الفجيرة, الإمارات العربية المتحدة","address":{"village":"Al Sharyah","state":"الفجيرة","ISO3166-2-lvl4":"AE-FU","country":"الإمارات العربية المتحدة","country_code":"ae"},"osm_type":"node","osm_id":11838822972,"type":"hamlet","location":[56.1541774,25.6095779],"bbox":[56.1341774,25.5895779,56.1741774,25.6295779]}
{"display_name":"Al Sharyah, الفجيرة, الإمارات العربية المتحدة","address":{"village":"Al Sharyah","state":"الفجيرة","ISO3166-2-lvl4":"AE-FU","country":"الإمارات العربية المتحدة","country_code":"ae"},"osm_type":"way","osm_id":1341509010,"type":"hamlet","location":[56.15914655514612,25.61403885],"bbox":[56.1584783,25.6135906,56.1596678,25.6144788]}
{"name":"Al Wahi","other_names":{"name:ar":"Al Wahi","name:en":"Al Wahi","name:es":"Al Wahi","name:fr":"Al Wahi","alt_name":"Al Wāhī"},"display_name":"Al Wahi, Tawiyean - الطويين, الفجيرة, الإمارات العربية المتحدة","address":{"hamlet":"Al Wahi","city":"Tawiyean - الطويين","state":"الفجيرة","ISO3166-2-lvl4":"AE-FU","country":"الإمارات العربية المتحدة","country_code":"ae"},"osm_type":"node","osm_id":10837168201,"type":"hamlet","location":[56.129555,25.4679415],"bbox":[56.109555,25.4479415,56.149555,25.4879415]}
{"name":"Al Yabbānah","other_names":{"name:ar":"Al Yabbānah","name:en":"Al Yabbanah","name:es":"Al Yabbanah","name:fr":"Al Yabbanah"},"display_name":"Al Yabbānah, رأس الخيمة, الإمارات العربية المتحدة","address":{"hamlet":"Al Yabbānah","state":"رأس الخيمة","ISO3166-2-lvl4":"AE-RK","country":"الإمارات العربية المتحدة","country_code":"ae"},"osm_type":"node","osm_id":11539722000,"type":"hamlet","location":[56.1302697,25.8455558],"bbox":[56.1102697,25.8255558,56.1502697,25.8655558]}
{"name":"Al Yafnah","other_names":{"name:ar":"اليفنه","name:en":"Al Yafnah","name:es":"Al Yafnah","name:fr":"Al Yafnah","alt_name":"Al Yafnah;Yafnah;Yifnah;Yanas;Yinas"},"display_name":"Al Yafnah, رأس الخيمة, الإمارات العربية المتحدة","address":{"hamlet":"Al Yafnah","state":"رأس الخيمة","ISO3166-2-lvl4":"AE-RK","country":"الإمارات العربية المتحدة","country_code":"ae"},"osm_type":"node","osm_id":11548762329,"type":"hamlet","location":[56.0991996,25.7345342],"bbox":[56.0791996,25.7145342,56.1191996,25.7545342]}
{"name":"Al Yanhah","other_names":{"name:ar":"Al Yanhah","name:en":"Al Yanhah","name:es":"Al Yanhah","name:fr":"Al Yanhah","alt_name":"Al Yānḩah"},"display_name":"Al Yanhah, Al Jaroof - الجروف, الفجيرة, الإمارات العربية المتحدة","address":{"hamlet":"Al Yanhah","village":"Al Jaroof - الجروف","state":"الفجيرة","ISO3166-2-lvl4":"AE-FU","country":"الإمارات العربية المتحدة","country_code":"ae"},"osm_type":"node","osm_id":11769812124,"type":"hamlet","location":[56.123186,25.4787423],"bbox":[56.103186,25.4587423,56.143186,25.4987423]}
{"name":"An-Nahr","other_names":{"name:ar":"An-Nahr","name:en":"An-Nahr","name:es":"An-Nahr","name:fr":"An-Nahr"},"display_name":"An-Nahr, رأس الخيمة, الإمارات العربية المتحدة","address":{"hamlet":"An-Nahr","state":"رأس الخيمة","ISO3166-2-lvl4":"AE-RK","country":"الإمارات العربية المتحدة","country_code":"ae"},"osm_type":"node","osm_id":11923496172,"type":"hamlet","location":[56.1252014,25.7398196],"bbox":[56.1052014,25.7198196,56.1452014,25.7598196]}
{"name":"Ar Rafisah","other_names":{"name:ar":"رفيصه","name:en":"Ar Rafisah","name:es":"Ar Rafisah","name:fr":"Ar Rafisah","alt_name":"Rafisa;Al-Rafisah"},"display_name":"Ar Rafisah, رأس الخيمة, الإمارات العربية المتحدة","address":{"hamlet":"Ar Rafisah","state":"رأس الخيمة","ISO3166-2-lvl4":"AE-RK","country":"الإمارات العربية المتحدة","country_code":"ae"},"osm_type":"node","osm_id":10831641351,"type":"hamlet","location":[56.0867302,25.7466608],"bbox":[56.0667302,25.7266608,56.1067302,25.7666608]}
{"name":"Ar Riwedah","other_names":{"name:ar":"Ar Riwedah","name:en":"Ar Riwedah","name:es":"Ar Riwedah","name:fr":"Ar Riwedah","alt_name":"Ar Riwе̄ḍah;Ruwaydah;Ruwayḑah;Riwе̄ḍah"},"display_name":"Ar Riwedah, Tawiyean - الطويين, الفجيرة, الإمارات العربية المتحدة","address":{"hamlet":"Ar Riwedah","city":"Tawiyean - الطويين","state":"الفجيرة","ISO3166-2-lvl4":"AE-FU","country":"الإمارات العربية المتحدة","country_code":"ae"},"osm_type":"node","osm_id":12309223686,"type":"hamlet","location":[56.0820438,25.5067122],"bbox":[56.0620438,25.4867122,56.1020438,25.5267122]}
{"name":"As Sarm","other_names":{"name:ar":"As Sarm","name:en":"As Sarm","name:es":"As Sarm","name:fr":"As Sarm","alt_name":"Aş Şarm"},"display_name":"As Sarm, Mu'taridah, الفجيرة, الإمارات العربية المتحدة","address":{"hamlet":"As Sarm","town":"Mu'taridah","state":"الفجيرة","ISO3166-2-lvl4":"AE-FU","country":"الإمارات العربية المتحدة","country_code":"ae"},"osm_type":"node","osm_id":11799914414,"type":"hamlet","location":[56.1325272,25.4984185],"bbox":[56.1125272,25.4784185,56.1525272,25.5184185]}
{"name":"As Siyyat","other_names":{"name:ar":"As Siyyat","name:en":"As Siyyat","name:es":"As Siyyat","name:fr":"As Siyyat","alt_name":"As Siyyāt"},"display_name":"As Siyyat, Al Miherbani, رأس الخيمة, الإمارات العربية المتحدة","address":{"hamlet":"As Siyyat","town":"Al Miherbani","state":"رأس الخيمة","ISO3166-2-lvl4":"AE-RK","country":"الإمارات العربية المتحدة","country_code":"ae"},"osm_type":"node","osm_id":11640040272,"type":"hamlet","location":[56.0800141,25.7877534],"bbox":[56.0600141,25.7677534,56.1000141,25.8077534]}
{"display_name":"Ash Shubah, الفجيرة, الإمارات العربية المتحدة","address":{"town":"Ash Shubah","state":"الفجيرة","ISO3166-2-lvl4":"AE-FU","country":"الإمارات العربية المتحدة","country_code":"ae"},"osm_type":"node","osm_id":11850687169,"type":"hamlet","location":[56.1491909,25.4374194],"bbox":[56.1291909,25.4174194,56.1691909,25.4574194]}
{"name":"Ashashah أشاشة","other_names":{"name:ar":"أشاشة","name:de":"Ashasha","name:en":"Ashashah","name:es":"Ashashah","name:fr":"Ashashah","alt_name":"`Ashashah;‘Ashashah;Ishasah;‘Ishasah;Ashashah"},"display_name":"Ashashah أشاشة, Sharmatah, الفجيرة, الإمارات العربية المتحدة","address":{"hamlet":"Ashashah أشاشة","town":"Sharmatah","state":"الفجيرة","ISO3166-2-lvl4":"AE-FU","country":"الإمارات العربية المتحدة","country_code":"ae"},"osm_type":"node","osm_id":2386418487,"type":"hamlet","location":[56.1671803,25.4598022],"bbox":[56.1471803,25.4398022,56.1871803,25.4798022]}
{"name":"Atmar","other_names":{"name:ar":"‫اتمار‬‎","name:en":"Atmar","name:es":"Atmar","name:fr":"Atmar","alt_name":"Atmār"},"display_name":"Atmar, Al Hayilah, رأس الخيمة, الإمارات العربية المتحدة","address":{"hamlet":"Atmar","town":"Al Hayilah","state":"رأس الخيمة","ISO3166-2-lvl4":"AE-RK","country":"الإمارات العربية المتحدة","country_code":"ae"},"osm_type":"node","osm_id":11584419721,"type":"hamlet","location":[56.1169891,25.8175812],"bbox":[56.0969891,25.7975812,56.1369891,25.8375812]}
{"name":"Az Zahar","other_names":{"name:ar":"Az Zahar","name:en":"Az Zahar","name:es":"Az Zahar","name:fr":"Az Zahar"},"display_name":"Az Zahar, رأس الخيمة, الإمارات العربية المتحدة","address":{"hamlet":"Az Zahar","state":"رأس الخيمة","ISO3166-2-lvl4":"AE-RK","country":"الإمارات العربية المتحدة","country_code":"ae"},"osm_type":"node","osm_id":11594531283,"type":"hamlet","location":[56.153561,25.7549522],"bbox":[56.133561,25.7349522,56.173561,25.7749522]}
{"name":"Azhabat","other_names":{"name:ar":"عزابات","name:en":"Azhabat","name:es":"Azhabat","name:fr":"Azhabat","alt_name":"Azabat"},"display_name":"Azhabat, رأس الخيمة, الإمارات العربية المتحدة","address":{"hamlet":"Azhabat","state":"رأس الخيمة","ISO3166-2-lvl4":"AE-RK","country":"الإمارات العربية المتحدة","country_code":"ae"},"osm_type":"node","osm_id":10666312640,"type":"hamlet","location":[56.1336854,25.7300324],"bbox":[56.1136854,25.7100324,56.1536854,25.7500324]}
{"name":"Baighit","other_names":{"name:ar":"Baighit","name:en":"Baighit","name:es":"Baighit","name:fr":"Baighit"},"display_name":"Baighit, غليلة, رأس الخيمة, الإمارات العربية المتحدة","address":{"hamlet":"Baighit","city":"غليلة","state":"رأس الخيمة","ISO3166-2-lvl4":"AE-RK","country":"الإمارات العربية المتحدة","country_code":"ae"},"population":5,"osm_type":"node","osm_id":10603055812,"type":"hamlet","location":[56.1538078,25.9293803],"bbox":[56.1338078,25.9093803,56.1738078,25.9493803]}
{"name":"Baqal","other_names":{"name:ar":"Baqal","name:en":"Baqal","name:es":"Baqal","alt_name":"Al Baqqāl;Baqqāl"},"display_name":"Baqal, رأس الخيمة, الإمارات العربية المتحدة","address":{"hamlet":"Baqal","state":"رأس الخيمة","ISO3166-2-lvl4":"AE-RK","country":"الإمارات العربية المتحدة","country_code":"ae"},"osm_type":"node","osm_id":10666009982,"type":"hamlet","location":[56.0882059,25.690031],"bbox":[56.0682059,25.670031,56.1082059,25.710031]}
{"name":"Barut","display_name":"Barut, Wasideh, رأس الخيمة, الإمارات العربية المتحدة","address":{"hamlet":"Barut","town":"Wasideh","state":"رأس الخيمة","ISO3166-2-lvl4":"AE-RK","country":"الإمارات العربية المتحدة","country_code":"ae"},"osm_type":"node","osm_id":11553629885,"type":"hamlet","location":[56.149335,25.9761061],"bbox":[56.129335,25.9561061,56.169335,25.9961061]}
{"name":"Batha Al Ali","other_names":{"name:ar":"Batha Al Ali","name:en":"Batha Al Ali","name:es":"Batha Al Ali","name:fr":"Batha Al Ali","alt_name":"Bayatah;Bayātah"},"display_name":"Batha Al Ali, أم القيوين, الإمارات العربية المتحدة","address":{"hamlet":"Batha Al Ali","state":"أم القيوين","ISO3166-2-lvl4":"AE-UQ","country":"الإمارات العربية المتحدة","country_code":"ae"},"osm_type":"node","osm_id":12345149030,"type":"hamlet","location":[55.7882273,25.4031174],"bbox":[55.7682273,25.3831174,55.8082273,25.4231174]}
{"display_name":"Birkat Ad Dassah, رأس الخيمة, الإمارات العربية المتحدة","address":{"town":"Birkat Ad Dassah","state":"رأس الخيمة","ISO3166-2-lvl4":"AE-RK","country":"الإمارات العربية المتحدة","country_code":"ae"},"osm_type":"node","osm_id":12556000043,"type":"hamlet","location":[56.0658611,25.7054834],"bbox":[56.0458611,25.6854834,56.0858611,25.7254834]}
{"display_name":"Birkat Ad Dassah, رأس الخيمة, الإمارات العربية المتحدة","address":{"town":"Birkat Ad Dassah","state":"رأس الخيمة","ISO3166-2-lvl4":"AE-RK","country":"الإمارات العربية المتحدة","country_code":"ae"},"osm_type":"node","osm_id":12556123171,"type":"hamlet","location":[56.0298037,25.7141385],"bbox":[56.0098037,25.6941385,56.0498037,25.7341385]}
{"name":"Dab‘ah","other_names":{"name:ar":"ضبعة","name:en":"Dab‘ah","name:es":"Dab‘ah","name:fr":"Dab‘ah","alt_name":"Ḑab‘ah;Dhabba"},"display_name":"Dab‘ah, Al Halah - الحلاة, الفجيرة, الإمارات العربية المتحدة","address":{"hamlet":"Dab‘ah","town":"Al Halah - الحلاة","state":"الفجيرة","ISO3166-2-lvl4":"AE-FU","country":"الإمارات العربية المتحدة","country_code":"ae"},"osm_type":"node","osm_id":12309555287,"type":"hamlet","location":[56.1762705,25.4948732],"bbox":[56.1562705,25.4748732,56.1962705,25.5148732]}
{"name":"Dafalas","other_names":{"name:ar":"Dafalas","name:de":"Dafalas","name:en":"Dafalas","name:es":"Dafalas","name:fr":"Dafalas","alt_name":"Dīrat Dafalas, Dirat Dafalas, Defels"},"display_name":"Dafalas, Wasideh, رأس الخيمة, الإمارات العربية المتحدة","address":{"hamlet":"Dafalas","town":"Wasideh","state":"رأس الخيمة","ISO3166-2-lvl4":"AE-RK","country":"الإمارات العربية المتحدة","country_code":"ae"},"population":20,"osm_type":"node","osm_id":10683448627,"type":"hamlet","location":[56.1486072,25.9525299],"bbox":[56.1286072,25.9325299,56.1686072,25.9725299],"border":{"name":"Dafalas","other_names":{"name:ar":"Dafalas","name:en":"Dafalas","name:es":"Dafalas","name:fr":"Dafalas","alt_name":"Dīrat Dafalas","name:de":"Dafalas","_place_alt_name":"Dīrat Dafalas, Dirat Dafalas, Defels"},"display_name":"Dafalas, Wasideh, رأس الخيمة, الإمارات العربية المتحدة","address":{"hamlet":"Dafalas","town":"Wasideh","state":"رأس الخيمة","ISO3166-2-lvl4":"AE-RK","country":"الإمارات العربية المتحدة","country_code":"ae"},"population":20,"osm_type":"way","osm_id":1297221406,"type":"hamlet","location":[56.1486072,25.9525299],"bbox":[56.1454292,25.9489264,56.1515995,25.9545075]}}
{"name":"Danam","other_names":{"name:ar":"Danam","name:en":"Danam","name:es":"Danam","name:fr":"Danam"},"display_name":"Danam, رأس الخيمة, الإمارات العربية المتحدة","address":{"hamlet":"Danam","state":"رأس الخيمة","ISO3166-2-lvl4":"AE-RK","country":"الإمارات العربية المتحدة","country_code":"ae"},"osm_type":"node","osm_id":11586519912,"type":"hamlet","location":[56.1351963,25.753526],"bbox":[56.1151963,25.733526,56.1551963,25.773526]}
{"name":"Ḍanḥah","other_names":{"name:ar":"ضنحه","name:en":"Ḍanḥah","name:es":"Ḍanḥah","name:fr":"Ḍanḥah","alt_name":"Z̧anḩah;Dhanhah;ظنحة;Ẓanḥah;Ḍanḥah"},"display_name":"Ḍanḥah, Ghub غوب, الفجيرة, الإمارات العربية المتحدة","address":{"hamlet":"Ḍanḥah","town":"Ghub غوب","state":"الفجيرة","ISO3166-2-lvl4":"AE-FU","country":"الإمارات العربية المتحدة","country_code":"ae"},"osm_type":"node","osm_id":12012351239,"type":"hamlet","location":[56.1850613,25.579163],"bbox":[56.1650613,25.559163,56.2050613,25.599163]}
{"name":"Dardur","other_names":{"name:ar":"ديرة الدردور","name:en":"Dardur","name:es":"Dardur","name:fr":"Dardur","alt_name":"Deira Al Durdur;Deira Al Dardur;Durdur;Dardūr"},"display_name":"Dardur, رأس الخيمة, الإمارات العربية المتحدة","address":{"hamlet":"Dardur","state":"رأس الخيمة","ISO3166-2-lvl4":"AE-RK","country":"الإمارات العربية المتحدة","country_code":"ae"},"osm_type":"node","osm_id":12500922916,"type":"hamlet","location":[56.1302144,25.6552673],"bbox":[56.1102144,25.6352673,56.1502144,25.6752673]}
{"name":"Deira Al Ghayl","other_names":{"name:ar":"ديره الغيل","name:en":"Deira Al Ghayl","name:es":"Deira Al Ghayl","name:fr":"Deira Al Ghayl","alt_name":"Deira Al Ghail"},"display_name":"Deira Al Ghayl, رأس الخيمة, الإمارات العربية المتحدة","address":{"hamlet":"Deira Al Ghayl","state":"رأس الخيمة","ISO3166-2-lvl4":"AE-RK","country":"الإمارات العربية المتحدة","country_code":"ae"},"osm_type":"node","osm_id":11648965954,"type":"hamlet","location":[56.1352669,25.7727405],"bbox":[56.1152669,25.7527405,56.1552669,25.7927405]}
{"name":"Deira Al Takam","other_names":{"name:ar":"ديرة التاكم"},"display_name":"Deira Al Takam, Khor Khwair خور خوير, رأس الخيمة, الإمارات العربية المتحدة","address":{"hamlet":"Deira Al Takam","city":"Khor Khwair خور خوير","state":"رأس الخيمة","ISO3166-2-lvl4":"AE-RK","country":"الإمارات العربية المتحدة","country_code":"ae"},"osm_type":"node","osm_id":10605283288,"type":"hamlet","location":[56.1572194,25.8905829],"bbox":[56.1372194,25.8705829,56.1772194,25.9105829]}
{"name":"Deira Al-Dairi","other_names":{"name:ar":"ديرة الديري","name:en":"Deira Al-Dairi","name:es":"Deira Al-Dairi","name:fr":"Deira Al-Dairi","alt_name":"Deira Al-Diri"},"display_name":"Deira Al-Dairi, Al Hayilah, رأس الخيمة, الإمارات العربية المتحدة","address":{"hamlet":"Deira Al-Dairi","town":"Al Hayilah","state":"رأس الخيمة","ISO3166-2-lvl4":"AE-RK","country":"الإمارات العربية المتحدة","country_code":"ae"},"osm_type":"node","osm_id":11572394174,"type":"hamlet","location":[56.0996865,25.7848432],"bbox":[56.0796865,25.7648432,56.1196865,25.8048432]}
{"name":"Deira Al-Rakba","other_names":{"name:en":"Deira Al-Rakba","name:es":"Deira Al-Rakba","name:fr":"Deira Al-Rakba"},"display_name":"Deira Al-Rakba, Wasideh, رأس الخيمة, الإمارات العربية المتحدة","address":{"hamlet":"Deira Al-Rakba","town":"Wasideh","state":"رأس الخيمة","ISO3166-2-lvl4":"AE-RK","country":"الإمارات العربية المتحدة","country_code":"ae"},"osm_type":"node","osm_id":10857515812,"type":"hamlet","location":[56.1481133,25.9689716],"bbox":[56.1281133,25.9489716,56.1681133,25.9889716],"border":{"name":"Deira Al-Rakba","other_names":{"name:ar":"Deira Al-Rakba","name:en":"Deira Al-Rakba","name:es":"Deira Al-Rakba","name:fr":"Deira Al-Rakba"},"display_name":"Deira Al-Rakba, Wasideh, رأس الخيمة, الإمارات العربية المتحدة","address":{"hamlet":"Deira Al-Rakba","town":"Wasideh","state":"رأس الخيمة","ISO3166-2-lvl4":"AE-RK","country":"الإمارات العربية المتحدة","country_code":"ae"},"osm_type":"way","osm_id":1255919561,"type":"hamlet","location":[56.1481133,25.9689716],"bbox":[56.1472422,25.9678043,56.1492018,25.9697831]}}
{"name":"Deira Al-Tamba","other_names":{"name:ar":"ديرة الطمب","name:en":"Deira Al-Tamba","name:es":"Deira Al-Tamba","name:fr":"Deira Al-Tamba","alt_name":"Deira Al Tamb"},"display_name":"Deira Al-Tamba, Tawiyean - الطويين, الفجيرة, الإمارات العربية المتحدة","address":{"hamlet":"Deira Al-Tamba","city":"Tawiyean - الطويين","state":"الفجيرة","ISO3166-2-lvl4":"AE-FU","country":"الإمارات العربية المتحدة","country_code":"ae"},"osm_type":"node","osm_id":11655521949,"type":"hamlet","location":[56.1293701,25.6288596],"bbox":[56.1093701,25.6088596,56.1493701,25.6488596]}
{"name":"Deira Hayaneh","other_names":{"name:ar":"ديرة حيانه","name:en":"Deira Hayaneh","name:es":"Deira Hayaneh","name:fr":"Deira Hayaneh","alt_name":"Hayana;Deira Hayana;dīrt ḥīānh"},"display_name":"Deira Hayaneh, رأس الخيمة, الإمارات العربية المتحدة","address":{"hamlet":"Deira Hayaneh","state":"رأس الخيمة","ISO3166-2-lvl4":"AE-RK","country":"الإمارات العربية المتحدة","country_code":"ae"},"osm_type":"node","osm_id":10897747286,"type":"hamlet","location":[56.112143,25.7480477],"bbox":[56.092143,25.7280477,56.132143,25.7680477]}
{"name":"Deira Sadur","other_names":{"name:ar":"ديرة صدور","name:en":"Deira Sadur","name:es":"Deira Sadur","name:fr":"Deira Sadur"},"display_name":"Deira Sadur, رأس الخيمة, الإمارات العربية المتحدة","address":{"hamlet":"Deira Sadur","state":"رأس الخيمة","ISO3166-2-lvl4":"AE-RK","country":"الإمارات العربية المتحدة","country_code":"ae"},"osm_type":"node","osm_id":12547781536,"type":"hamlet","location":[56.0765991,25.7702174],"bbox":[56.0565991,25.7502174,56.0965991,25.7902174]}
{"name":"Deira Samarat","other_names":{"name:ar":"دیرا سمرات","name:en":"Deira Samarat","name:es":"Deira Samarat","name:fr":"Deira Samarat","alt_name":"Samarat;Deira Samrat;Samrat"},"display_name":"Deira Samarat, رأس الخيمة, الإمارات العربية المتحدة","address":{"hamlet":"Deira Samarat","state":"رأس الخيمة","ISO3166-2-lvl4":"AE-RK","country":"الإمارات العربية المتحدة","country_code":"ae"},"osm_type":"node","osm_id":10800382379,"type":"hamlet","location":[56.1516029,25.7265074],"bbox":[56.1316029,25.7065074,56.1716029,25.7465074]}
{"display_name":"Dhaya, رأس الخيمة, الإمارات العربية المتحدة","address":{"town":"Dhaya","state":"رأس الخيمة","ISO3166-2-lvl4":"AE-RK","country":"الإمارات العربية المتحدة","country_code":"ae"},"osm_type":"node","osm_id":11808077645,"type":"hamlet","location":[56.0779833,25.8977612],"bbox":[56.0579833,25.8777612,56.0979833,25.9177612]}
{"display_name":"Dhaya, رأس الخيمة, الإمارات العربية المتحدة","address":{"town":"Dhaya","state":"رأس الخيمة","ISO3166-2-lvl4":"AE-RK","country":"الإمارات العربية المتحدة","country_code":"ae"},"osm_type":"node","osm_id":10824640930,"type":"hamlet","location":[56.0810648,25.8819324],"bbox":[56.0610648,25.8619324,56.1010648,25.9019324]}
{"display_name":"Dhaya, رأس الخيمة, الإمارات العربية المتحدة","address":{"town":"Dhaya","state":"رأس الخيمة","ISO3166-2-lvl4":"AE-RK","country":"الإمارات العربية المتحدة","country_code":"ae"},"osm_type":"node","osm_id":10824660906,"type":"hamlet","location":[56.0763871,25.8692994],"bbox":[56.0563871,25.8492994,56.0963871,25.8892994]}
{"name":"Dirat Ad Difan","other_names":{"name:ar":"ديفـان","name:en":"Dirat Ad Difan","name:es":"Dirat Ad Difan","name:fr":"Dirat Ad Difan","alt_name":"Difan;Difān;Dirāt Ad Dīfān","name:ar1":"صدقة"},"display_name":"Dirat Ad Difan, Tawiyean - الطويين, الفجيرة, الإمارات العربية المتحدة","address":{"hamlet":"Dirat Ad Difan","city":"Tawiyean - الطويين","state":"الفجيرة","ISO3166-2-lvl4":"AE-FU","country":"الإمارات العربية المتحدة","country_code":"ae"},"osm_type":"node","osm_id":1718026889,"type":"hamlet","location":[56.1663005,25.6361002],"bbox":[56.1463005,25.6161002,56.1863005,25.6561002]}
{"name":"Dirat al-Ba'iybah","other_names":{"name:ar":"ديرة البعيبه","name:de":"Dirat al-Ba'iybah","name:en":"Dirat al-Ba'iybah","name:es":"Dirat al-Ba'iybah","name:fr":"Dirat al-Ba'iybah","alt_name":"Ba'iybah;Dirat al-Ba'iybah;Bai´ba;Deira Al-Buaiba;"},"display_name":"Dirat al-Ba'iybah, رأس الخيمة, الإمارات العربية المتحدة","address":{"hamlet":"Dirat al-Ba'iybah","state":"رأس الخيمة","ISO3166-2-lvl4":"AE-RK","country":"الإمارات العربية المتحدة","country_code":"ae"},"osm_type":"node","osm_id":6288511475,"type":"hamlet","location":[56.1260907,25.7156777],"bbox":[56.1060907,25.6956777,56.1460907,25.7356777]}
{"name":"Dirat as-Sal","other_names":{"name:ar":"ديرة السل","name:en":"Dirat as-Sal","name:es":"Dirat as-Sal","name:fr":"Dirat as-Sal","alt_name":"Deira Al Sal;Sal;Sall;Dirat as-Sal;Deira as-Sal"},"display_name":"Dirat as-Sal, رأس الخيمة, الإمارات العربية المتحدة","address":{"hamlet":"Dirat as-Sal","state":"رأس الخيمة","ISO3166-2-lvl4":"AE-RK","country":"الإمارات العربية المتحدة","country_code":"ae"},"osm_type":"node","osm_id":10825243260,"type":"hamlet","location":[56.0929052,25.7491206],"bbox":[56.0729052,25.7291206,56.1129052,25.7691206]}
{"name":"Dirat Az Zil'","other_names":{"name:ar":"Dirat Az Zil'","name:en":"Dirat Az Zil'","name:es":"Dirat Az Zil'","name:fr":"Dirat Az Zil'"},"display_name":"Dirat Az Zil', Tawiyean - الطويين, الفجيرة, الإمارات العربية المتحدة","address":{"hamlet":"Dirat Az Zil'","city":"Tawiyean - الطويين","state":"الفجيرة","ISO3166-2-lvl4":"AE-FU","country":"الإمارات العربية المتحدة","country_code":"ae"},"osm_type":"node","osm_id":11593712026,"type":"hamlet","location":[56.1402078,25.6265012],"bbox":[56.1202078,25.6065012,56.1602078,25.6465012]}
{"name":"Dirat Hiyayyah","other_names":{"name:ar":"Dirat Hiyayyah","name:en":"Dirat Hiyayyah","name:es":"Dirat Hiyayyah","name:fr":"Dirat Hiyayyah"},"display_name":"Dirat Hiyayyah, Tawiyean - الطويين, الفجيرة, الإمارات العربية المتحدة","address":{"hamlet":"Dirat Hiyayyah","city":"Tawiyean - الطويين","state":"الفجيرة","ISO3166-2-lvl4":"AE-FU","country":"الإمارات العربية المتحدة","country_code":"ae"},"osm_type":"node","osm_id":11593721340,"type":"hamlet","location":[56.0699388,25.6205585],"bbox":[56.0499388,25.6005585,56.0899388,25.6405585]}
{"name":"Dirat Jarhi","other_names":{"name:ar":"Dirat Jarhi","name:en":"Dirat Jarhi","name:es":"Dirat Jarhi","name:fr":"Dirat Jarhi","alt_name":"Jarhi;Dīrat Jārḩi"},"display_name":"Dirat Jarhi, Tawiyean - الطويين, الفجيرة, الإمارات العربية المتحدة","address":{"hamlet":"Dirat Jarhi","city":"Tawiyean - الطويين","state":"الفجيرة","ISO3166-2-lvl4":"AE-FU","country":"الإمارات العربية المتحدة","country_code":"ae"},"osm_type":"node","osm_id":12560584473,"type":"hamlet","location":[56.1765371,25.6492121],"bbox":[56.1565371,25.6292121,56.1965371,25.6692121]}
{"name":"Dirat Sabah","other_names":{"name:ar":"ديرة صباح","name:en":"Dirat Sabah","name:es":"Dirat Sabah","name:fr":"Dirat Sabah","alt_name":"Deira Sabah;Dīrat Ṣabāḥ;Ṣabāḥ"},"display_name":"Dirat Sabah, رأس الخيمة, الإمارات العربية المتحدة","address":{"hamlet":"Dirat Sabah","state":"رأس الخيمة","ISO3166-2-lvl4":"AE-RK","country":"الإمارات العربية المتحدة","country_code":"ae"},"osm_type":"node","osm_id":11774670900,"type":"hamlet","location":[56.0761223,25.7590376],"bbox":[56.0561223,25.7390376,56.0961223,25.7790376]}
{"name":"Euro Camp","other_names":{"name:ar":"Euro Camp","name:pa":"ਯੂਰੋ ਕੈਂਪ","name:ur":"یورو کیمپ"},"display_name":"Euro Camp, الظنة, مدينة الظنة, منطقة الظفرة, أبو ظبي, الإمارات العربية المتحدة","address":{"hamlet":"Euro Camp","city":"الظنة","county":"منطقة الظفرة","state":"أبو ظبي","ISO3166-2-lvl4":"AE-AZ","country":"الإمارات العربية المتحدة","country_code":"ae"},"osm_type":"node","osm_id":3419623864,"type":"hamlet","location":[52.5759063,24.174319],"bbox":[52.5559063,24.154319,52.5959063,24.194319]}
{"name":"Fāqī","other_names":{"name:ar":"Fāqī","name:en":"Fāqī","name:es":"Fāqī","name:fr":"Fāqī","alt_name":"Faqi"},"display_name":"Fāqī, Sha'biyyat Qabr al Yahūdī, الفجيرة, الإمارات العربية المتحدة","address":{"hamlet":"Fāqī","town":"Sha'biyyat Qabr al Yahūdī","state":"الفجيرة","ISO3166-2-lvl4":"AE-FU","country":"الإمارات العربية المتحدة","country_code":"ae"},"osm_type":"node","osm_id":12312273349,"type":"hamlet","location":[56.1370109,25.4106241],"bbox":[56.1170109,25.3906241,56.1570109,25.4306241]}
{"name":"Far`ah","other_names":{"name:ar":"Far`ah","name:en":"Far`ah","name:es":"Far`ah","name:fr":"Far`ah"},"display_name":"Far`ah, الفرفار, الفجيرة, الإمارات العربية المتحدة","address":{"hamlet":"Far`ah","town":"الفرفار","state":"الفجيرة","ISO3166-2-lvl4":"AE-FU","country":"الإمارات العربية المتحدة","country_code":"ae"},"osm_type":"node","osm_id":10755439228,"type":"hamlet","location":[56.2379005,25.1364682],"bbox":[56.2179005,25.1164682,56.2579005,25.1564682]}
{"display_name":"Fayyad, Kalba كلباء, الشارقة, الإمارات العربية المتحدة","address":{"village":"Fayyad","city":"Kalba كلباء","state":"الشارقة","ISO3166-2-lvl4":"AE-SH","country":"الإمارات العربية المتحدة","country_code":"ae"},"osm_type":"way","osm_id":1262501483,"type":"hamlet","location":[56.21646684508872,24.9695063],"bbox":[56.2139501,24.9675313,56.2186324,24.9716668]}
{"name":"Gargaha","other_names":{"name:ar":"Gargaha","name:en":"Gargaha","name:es":"Gargaha","name:fr":"Gargaha","alt_name":"Gargaha, Ghaghah, Ghāghah"},"display_name":"Gargaha, رأس الخيمة, الإمارات العربية المتحدة","address":{"hamlet":"Gargaha","state":"رأس الخيمة","ISO3166-2-lvl4":"AE-RK","country":"الإمارات العربية المتحدة","country_code":"ae"},"osm_type":"node","osm_id":10693071427,"type":"hamlet","location":[56.0676333,25.7674967],"bbox":[56.0476333,25.7474967,56.0876333,25.7874967]}
{"display_name":"Ghalilah - غليلة, Rahbah, رأس الخيمة, الإمارات العربية المتحدة","address":{"suburb":"Ghalilah - غليلة","village":"Rahbah","state":"رأس الخيمة","ISO3166-2-lvl4":"AE-RK","country":"الإمارات العربية المتحدة","country_code":"ae"},"osm_type":"node","osm_id":5018676873,"type":"hamlet","location":[56.0605349,25.9276173],"bbox":[56.0405349,25.9076173,56.0805349,25.9476173]}
{"display_name":"Ghura الغورة, الفجيرة, الإمارات العربية المتحدة","address":{"town":"Ghura الغورة","state":"الفجيرة","ISO3166-2-lvl4":"AE-FU","country":"الإمارات العربية المتحدة","country_code":"ae"},"osm_type":"node","osm_id":12384265808,"type":"hamlet","location":[56.2211911,25.2332886],"bbox":[56.2011911,25.2132886,56.2411911,25.2532886]}
{"display_name":"Ghura الغورة, الفجيرة, الإمارات العربية المتحدة","address":{"town":"Ghura الغورة","state":"الفجيرة","ISO3166-2-lvl4":"AE-FU","country":"الإمارات العربية المتحدة","country_code":"ae"},"osm_type":"node","osm_id":12384265809,"type":"hamlet","location":[56.2290117,25.2298427],"bbox":[56.2090117,25.2098427,56.2490117,25.2498427]}
{"display_name":"Ghura الغورة, الفجيرة, الإمارات العربية المتحدة","address":{"town":"Ghura الغورة","state":"الفجيرة","ISO3166-2-lvl4":"AE-FU","country":"الإمارات العربية المتحدة","country_code":"ae"},"osm_type":"node","osm_id":12328184588,"type":"hamlet","location":[56.2093281,25.2255834],"bbox":[56.1893281,25.2055834,56.2293281,25.2455834]}
{"name":"Hans Esser Camp","other_names":{"name:ar":"Hans Esser Camp","name:ur":"ہنس ایسر کیمپ"},"display_name":"Hans Esser Camp, الظنة, مدينة الظنة, منطقة الظفرة, أبو ظبي, الإمارات العربية المتحدة","address":{"hamlet":"Hans Esser Camp","city":"الظنة","county":"منطقة الظفرة","state":"أبو ظبي","ISO3166-2-lvl4":"AE-AZ","country":"الإمارات العربية المتحدة","country_code":"ae"},"osm_type":"node","osm_id":3419647056,"type":"hamlet","location":[52.5742397,24.170897],"bbox":[52.5542397,24.150897,52.5942397,24.190897]}
{"display_name":"Harat Al Awalah - حارة عوالي, رأس الخيمة, الإمارات العربية المتحدة","address":{"town":"Harat Al Awalah - حارة عوالي","state":"رأس الخيمة","ISO3166-2-lvl4":"AE-RK","country":"الإمارات العربية المتحدة","country_code":"ae"},"osm_type":"node","osm_id":12050673314,"type":"hamlet","location":[56.1505555,26.0139161],"bbox":[56.1305555,25.9939161,56.1705555,26.0339161]}
{"name":"Harrah - حرة","other_names":{"name:ar":"حرة","name:en":"Harrah","name:es":"Harrah","name:fr":"Harrah","alt_name":"Harra;Harrah;Ḩarrah;Al Kherra;الخرا"},"display_name":"Harrah - حرة, Kalba كلباء, الشارقة, الإمارات العربية المتحدة","address":{"hamlet":"Harrah - حرة","city":"Kalba كلباء","state":"الشارقة","ISO3166-2-lvl4":"AE-SH","country":"الإمارات العربية المتحدة","country_code":"ae"},"osm_type":"node","osm_id":5713087439,"type":"hamlet","location":[56.2180495,24.9886927],"bbox":[56.1980495,24.9686927,56.2380495,25.0086927]}
{"name":"Ḩatīyah","other_names":{"name:ar":"Ḩatīyah","name:en":"Ḩatīyah","name:es":"Ḩatīyah","name:fr":"Ḩatīyah","alt_name":"Hatiyah"},"display_name":"Ḩatīyah, Sha'biyyat Qabr al Yahūdī, الفجيرة, الإمارات العربية المتحدة","address":{"hamlet":"Ḩatīyah","town":"Sha'biyyat Qabr al Yahūdī","state":"الفجيرة","ISO3166-2-lvl4":"AE-FU","country":"الإمارات العربية المتحدة","country_code":"ae"},"osm_type":"node","osm_id":12312222755,"type":"hamlet","location":[56.1268442,25.4079442],"bbox":[56.1068442,25.3879442,56.1468442,25.4279442]}
{"display_name":"Hiyar, الفجيرة, الإمارات العربية المتحدة","address":{"village":"Hiyar","state":"الفجيرة","ISO3166-2-lvl4":"AE-FU","country":"الإمارات العربية المتحدة","country_code":"ae"},"osm_type":"node","osm_id":11613079840,"type":"hamlet","location":[56.1143446,25.5604242],"bbox":[56.0943446,25.5404242,56.1343446,25.5804242]}
{"name":"Hospitality Village Camp","other_names":{"name:ar":"Hospitality Village Camp","name:en":"Hospitality Village Camp"},"display_name":"Hospitality Village Camp, مدينة الرويس الصناعية, منطقة الظفرة, أبو ظبي, الإمارات العربية المتحدة","address":{"hamlet":"Hospitality Village Camp","city":"مدينة الرويس الصناعية","county":"منطقة الظفرة","state":"أبو ظبي","ISO3166-2-lvl4":"AE-AZ","country":"الإمارات العربية المتحدة","country_code":"ae"},"osm_type":"node","osm_id":2168323966,"type":"hamlet","location":[52.6815243,24.0880928],"bbox":[52.6615243,24.0680928,52.7015243,24.1080928]}
{"name":"Jiddat Silayyah","other_names":{"name:ar":"Jiddat Silayyah","name:en":"Jiddat Silayyah","name:es":"Jiddat Silayyah","name:fr":"Jiddat Silayyah"},"display_name":"Jiddat Silayyah, Al Miherbani, رأس الخيمة, الإمارات العربية المتحدة","address":{"hamlet":"Jiddat Silayyah","town":"Al Miherbani","state":"رأس الخيمة","ISO3166-2-lvl4":"AE-RK","country":"الإمارات العربية المتحدة","country_code":"ae"},"osm_type":"node","osm_id":11587659919,"type":"hamlet","location":[56.0835024,25.7901437],"bbox":[56.0635024,25.7701437,56.1035024,25.8101437]}
{"display_name":"Kalba كلباء, الشارقة, الإمارات العربية المتحدة","address":{"city":"Kalba كلباء","state":"الشارقة","ISO3166-2-lvl4":"AE-SH","country":"الإمارات العربية المتحدة","country_code":"ae"},"osm_type":"node","osm_id":12387486341,"type":"hamlet","location":[56.2761363,24.9784822],"bbox":[56.2561363,24.9584822,56.2961363,24.9984822]}
{"name":"Kar Khanaan","other_names":{"name:ar":"كار خانان","name:en":"Kar Khanaan","name:es":"Kar Khanaan","name:fr":"Kar Khanaan"},"display_name":"Kar Khanaan, رأس الخيمة, الإمارات العربية المتحدة","address":{"hamlet":"Kar Khanaan","state":"رأس الخيمة","ISO3166-2-lvl4":"AE-RK","country":"الإمارات العربية المتحدة","country_code":"ae"},"osm_type":"node","osm_id":12553274869,"type":"hamlet","location":[56.1353794,25.6738511],"bbox":[56.1153794,25.6538511,56.1553794,25.6938511]}
{"name":"Karas","other_names":{"name:ar":"Karas","alt_name":"Karās"},"display_name":"Karas, رأس الخيمة, الإمارات العربية المتحدة","address":{"hamlet":"Karas","state":"رأس الخيمة","ISO3166-2-lvl4":"AE-RK","country":"الإمارات العربية المتحدة","country_code":"ae"},"osm_type":"node","osm_id":10837125742,"type":"hamlet","location":[56.1134219,25.4639095],"bbox":[56.0934219,25.4439095,56.1334219,25.4839095]}
{"name":"Khab Al Lis","other_names":{"name:ar":"Khab Al Lis","name:en":"Khab Al Lis","name:es":"Khab Al Lis","name:fr":"Khab Al Lis","alt_name":"Khab Al Liş"},"display_name":"Khab Al Lis, رأس الخيمة, الإمارات العربية المتحدة","address":{"hamlet":"Khab Al Lis","state":"رأس الخيمة","ISO3166-2-lvl4":"AE-RK","country":"الإمارات العربية المتحدة","country_code":"ae"},"osm_type":"node","osm_id":11732213970,"type":"hamlet","location":[56.0618262,25.8426544],"bbox":[56.0418262,25.8226544,56.0818262,25.8626544]}
{"name":"Khabakhib","other_names":{"name:ar":"Khabakhib","name:en":"Khabakhib","name:es":"Khabakhib","name:fr":"Khabakhib","alt_name":"Khabakhib, Khabākhib, Khubakhib"},"display_name":"Khabakhib, رأس الخيمة, الإمارات العربية المتحدة","address":{"hamlet":"Khabakhib","state":"رأس الخيمة","ISO3166-2-lvl4":"AE-RK","country":"الإمارات العربية المتحدة","country_code":"ae"},"osm_type":"node","osm_id":10837168685,"type":"hamlet","location":[56.0936488,25.4516973],"bbox":[56.0736488,25.4316973,56.1136488,25.4716973]}
{"display_name":"Khabb, رأس الخيمة, الإمارات العربية المتحدة","address":{"village":"Khabb","state":"رأس الخيمة","ISO3166-2-lvl4":"AE-RK","country":"الإمارات العربية المتحدة","country_code":"ae"},"osm_type":"node","osm_id":11546355665,"type":"hamlet","location":[56.1462153,26.0017531],"bbox":[56.1262153,25.9817531,56.1662153,26.0217531]}
{"name":"Khanaan","other_names":{"name:ar":"خنان","name:en":"Khanaan","name:es":"Khanaan","name:fr":"Khanaan","alt_name":"Khanan;Khanaan;Khnān;Kanaan;Khanana"},"display_name":"Khanaan, رأس الخيمة, الإمارات العربية المتحدة","address":{"hamlet":"Khanaan","state":"رأس الخيمة","ISO3166-2-lvl4":"AE-RK","country":"الإمارات العربية المتحدة","country_code":"ae"},"osm_type":"node","osm_id":10740030758,"type":"hamlet","location":[56.1268744,25.6776752],"bbox":[56.1068744,25.6576752,56.1468744,25.6976752]}
{"display_name":"Khor Khwair خور خوير, رأس الخيمة, الإمارات العربية المتحدة","address":{"city":"Khor Khwair خور خوير","state":"رأس الخيمة","ISO3166-2-lvl4":"AE-RK","country":"الإمارات العربية المتحدة","country_code":"ae"},"osm_type":"node","osm_id":11976496855,"type":"hamlet","location":[56.1282063,25.8861692],"bbox":[56.1082063,25.8661692,56.1482063,25.9061692]}
{"display_name":"Khor Khwair خور خوير, رأس الخيمة, الإمارات العربية المتحدة","address":{"city":"Khor Khwair خور خوير","state":"رأس الخيمة","ISO3166-2-lvl4":"AE-RK","country":"الإمارات العربية المتحدة","country_code":"ae"},"osm_type":"node","osm_id":10860827107,"type":"hamlet","location":[56.0836775,25.9178009],"bbox":[56.0636775,25.8978009,56.1036775,25.9378009]}
{"display_name":"Khor Khwair خور خوير, رأس الخيمة, الإمارات العربية المتحدة","address":{"city":"Khor Khwair خور خوير","state":"رأس الخيمة","ISO3166-2-lvl4":"AE-RK","country":"الإمارات العربية المتحدة","country_code":"ae"},"osm_type":"node","osm_id":11808050598,"type":"hamlet","location":[56.0809843,25.909707],"bbox":[56.0609843,25.889707,56.1009843,25.929707]}
{"name":"Kub (old village)","other_names":{"name:ar":"Kub (old village)","name:en":"Kub (old village)","name:es":"Kub (old village)","name:fr":"Kub (old village)","alt_name":"Kūb"},"display_name":"Kub (old village), Tawiyean - الطويين, الفجيرة, الإمارات العربية المتحدة","address":{"hamlet":"Kub (old village)","city":"Tawiyean - الطويين","state":"الفجيرة","ISO3166-2-lvl4":"AE-FU","country":"الإمارات العربية المتحدة","country_code":"ae"},"osm_type":"node","osm_id":10837125732,"type":"hamlet","location":[56.1197709,25.4707253],"bbox":[56.0997709,25.4507253,56.1397709,25.4907253]}
{"name":"Lahsa, Wadi Jib","other_names":{"name:ar":"Lahsa, Wadi Jib","name:en":"Lahsa, Wadi Jib","name:es":"Lahsa, Wadi Jib","name:fr":"Lahsa, Ouadi Jib"},"display_name":"Lahsa, Wadi Jib, Khor Khwair خور خوير, رأس الخيمة, الإمارات العربية المتحدة","address":{"hamlet":"Lahsa, Wadi Jib","city":"Khor Khwair خور خوير","state":"رأس الخيمة","ISO3166-2-lvl4":"AE-RK","country":"الإمارات العربية المتحدة","country_code":"ae"},"osm_type":"node","osm_id":11417096188,"type":"hamlet","location":[56.1423769,25.9094411],"bbox":[56.1223769,25.8894411,56.1623769,25.9294411]}
{"name":"Ma'yrik","other_names":{"name:ar":"معيرك","name:en":"Ma'yrik","name:es":"Ma'yrik","name:fr":"Ma'yrik","alt_name":"Ma'erik;Ma'rik;Ma'yrik;Mairk"},"display_name":"Ma'yrik, Tawiyean - الطويين, الفجيرة, الإمارات العربية المتحدة","address":{"hamlet":"Ma'yrik","city":"Tawiyean - الطويين","state":"الفجيرة","ISO3166-2-lvl4":"AE-FU","country":"الإمارات العربية المتحدة","country_code":"ae"},"osm_type":"node","osm_id":10825302153,"type":"hamlet","location":[56.1541944,25.6456456],"bbox":[56.1341944,25.6256456,56.1741944,25.6656456]}
{"name":"Magam / Hebs Village Upper","other_names":{"name:ar":"Magam / Hebs Village Upper","name:de":"Magam / Hebs Village Upper","name:en":"Magam / Hebs Village Upper","name:es":"Magam / Hebs Village Upper","name:fr":"Magam / Hebs Village Upper","int_name":"Hebs Village Upper"},"display_name":"Magam / Hebs Village Upper, رأس الخيمة, الإمارات العربية المتحدة","address":{"hamlet":"Magam / Hebs Village Upper","state":"رأس الخيمة","ISO3166-2-lvl4":"AE-RK","country":"الإمارات العربية المتحدة","country_code":"ae"},"osm_type":"node","osm_id":1718026697,"type":"hamlet","location":[56.1502765,25.7840674],"bbox":[56.1302765,25.7640674,56.1702765,25.8040674]}
{"name":"Mak Sikek","other_names":{"name:ar":"Mak Sikek","name:en":"Mak Sikek","name:es":"Mak Sikek","name:fr":"Mak Sikek","alt_name":"Mak Sikēk","int_name":"Mak Sikek"},"display_name":"Mak Sikek, رأس الخيمة, الإمارات العربية المتحدة","address":{"hamlet":"Mak Sikek","state":"رأس الخيمة","ISO3166-2-lvl4":"AE-RK","country":"الإمارات العربية المتحدة","country_code":"ae"},"osm_type":"node","osm_id":11594633201,"type":"hamlet","location":[56.1171404,25.7605022],"bbox":[56.0971404,25.7405022,56.1371404,25.7805022],"border":{"name":"Mak Sikek","other_names":{"name:ar":"Mak Sikek","name:en":"Mak Sikek","name:es":"Mak Sikek","name:fr":"Mak Sikek","alt_name":"Mak Sikēk","int_name":"Mak Sikek"},"display_name":"Mak Sikek, رأس الخيمة, الإمارات العربية المتحدة","address":{"hamlet":"Mak Sikek","state":"رأس الخيمة","ISO3166-2-lvl4":"AE-RK","country":"الإمارات العربية المتحدة","country_code":"ae"},"osm_type":"way","osm_id":1335314064,"type":"hamlet","location":[56.1171404,25.7605022],"bbox":[56.1156825,25.7588889,56.1191119,25.7614002]}}
{"name":"Maserayn","other_names":{"name:ar":"مسرين","name:en":"Maserayn","name:es":"Maserayn","name:fr":"Maserayn","alt_name":"Maserain"},"display_name":"Maserayn, Tawiyean - الطويين, الفجيرة, الإمارات العربية المتحدة","address":{"hamlet":"Maserayn","city":"Tawiyean - الطويين","state":"الفجيرة","ISO3166-2-lvl4":"AE-FU","country":"الإمارات العربية المتحدة","country_code":"ae"},"osm_type":"node","osm_id":10681032453,"type":"hamlet","location":[56.1640529,25.6453286],"bbox":[56.1440529,25.6253286,56.1840529,25.6653286]}
{"display_name":"Mayya, الفجيرة, الإمارات العربية المتحدة","address":{"village":"Mayya","state":"الفجيرة","ISO3166-2-lvl4":"AE-FU","country":"الإمارات العربية المتحدة","country_code":"ae"},"osm_type":"node","osm_id":11840886833,"type":"hamlet","location":[56.1238545,25.6085229],"bbox":[56.1038545,25.5885229,56.1438545,25.6285229]}
{"display_name":"Mayya, الفجيرة, الإمارات العربية المتحدة","address":{"village":"Mayya","state":"الفجيرة","ISO3166-2-lvl4":"AE-FU","country":"الإمارات العربية المتحدة","country_code":"ae"},"osm_type":"node","osm_id":11612850314,"type":"hamlet","location":[56.1193726,25.6118841],"bbox":[56.0993726,25.5918841,56.1393726,25.6318841]}
{"display_name":"Mayya, الفجيرة, الإمارات العربية المتحدة","address":{"village":"Mayya","state":"الفجيرة","ISO3166-2-lvl4":"AE-FU","country":"الإمارات العربية المتحدة","country_code":"ae"},"osm_type":"node","osm_id":11691390610,"type":"hamlet","location":[56.1033745,25.5997169],"bbox":[56.0833745,25.5797169,56.1233745,25.6197169]}
{"name":"Medina","other_names":{"name:ar":"Medina","name:en":"Medina"},"display_name":"Medina, مَدينة زايد العسكرية, أبوظبي, أبو ظبي, الإمارات العربية المتحدة","address":{"hamlet":"Medina","city":"مَدينة زايد العسكرية","county":"أبوظبي","state":"أبو ظبي","ISO3166-2-lvl4":"AE-AZ","country":"الإمارات العربية المتحدة","country_code":"ae"},"osm_type":"way","osm_id":203761188,"type":"hamlet","location":[54.923618661258274,24.5006536],"bbox":[54.9231754,24.5002961,54.9240069,24.5009916]}
{"name":"Minazif","other_names":{"name:ar":"Minazif","name:en":"Minazif","name:es":"Minazif","name:fr":"Minazif"},"display_name":"Minazif, Sha'biyyat Al Qilē'ī, Kalba كلباء, الشارقة, الإمارات العربية المتحدة","address":{"hamlet":"Minazif","village":"Sha'biyyat Al Qilē'ī","city":"Kalba كلباء","state":"الشارقة","ISO3166-2-lvl4":"AE-SH","country":"الإمارات العربية المتحدة","country_code":"ae"},"osm_type":"node","osm_id":12250582090,"type":"hamlet","location":[56.2143222,24.9447278],"bbox":[56.1943222,24.9247278,56.2343222,24.9647278]}
{"name":"Minha","other_names":{"name:ar":"Minha","name:en":"Minha","name:es":"Minha","name:fr":"Minha","alt_name":"Minha, Minhā"},"display_name":"Minha, Esfini, رأس الخيمة, الإمارات العربية المتحدة","address":{"hamlet":"Minha","village":"Esfini","state":"رأس الخيمة","ISO3166-2-lvl4":"AE-RK","country":"الإمارات العربية المتحدة","country_code":"ae"},"osm_type":"node","osm_id":12092025329,"type":"hamlet","location":[56.082264,25.1590557],"bbox":[56.062264,25.1390557,56.102264,25.1790557]}
{"display_name":"Mu'taridah, الفجيرة, الإمارات العربية المتحدة","address":{"town":"Mu'taridah","state":"الفجيرة","ISO3166-2-lvl4":"AE-FU","country":"الإمارات العربية المتحدة","country_code":"ae"},"osm_type":"node","osm_id":12598126148,"type":"hamlet","location":[56.1328592,25.507674],"bbox":[56.1128592,25.487674,56.1528592,25.527674]}
{"display_name":"Mu'taridah, الفجيرة, الإمارات العربية المتحدة","address":{"town":"Mu'taridah","state":"الفجيرة","ISO3166-2-lvl4":"AE-FU","country":"الإمارات العربية المتحدة","country_code":"ae"},"osm_type":"node","osm_id":11799906578,"type":"hamlet","location":[56.1094004,25.5016034],"bbox":[56.0894004,25.4816034,56.1294004,25.5216034]}
{"display_name":"Mu'taridah, الفجيرة, الإمارات العربية المتحدة","address":{"town":"Mu'taridah","state":"الفجيرة","ISO3166-2-lvl4":"AE-FU","country":"الإمارات العربية المتحدة","country_code":"ae"},"osm_type":"node","osm_id":11769776462,"type":"hamlet","location":[56.1352402,25.5119871],"bbox":[56.1152402,25.4919871,56.1552402,25.5319871]}
{"display_name":"Mu'taridah, الفجيرة, الإمارات العربية المتحدة","address":{"town":"Mu'taridah","state":"الفجيرة","ISO3166-2-lvl4":"AE-FU","country":"الإمارات العربية المتحدة","country_code":"ae"},"osm_type":"node","osm_id":11799901783,"type":"hamlet","location":[56.1300324,25.5005044],"bbox":[56.1100324,25.4805044,56.1500324,25.5205044]}
{"display_name":"Mu'taridah, الفجيرة, الإمارات العربية المتحدة","address":{"town":"Mu'taridah","state":"الفجيرة","ISO3166-2-lvl4":"AE-FU","country":"الإمارات العربية المتحدة","country_code":"ae"},"osm_type":"node","osm_id":12598142917,"type":"hamlet","location":[56.1131369,25.513797],"bbox":[56.0931369,25.493797,56.1331369,25.533797]}
{"display_name":"Mu'taridah, الفجيرة, الإمارات العربية المتحدة","address":{"town":"Mu'taridah","state":"الفجيرة","ISO3166-2-lvl4":"AE-FU","country":"الإمارات العربية المتحدة","country_code":"ae"},"osm_type":"node","osm_id":11786934474,"type":"hamlet","location":[56.1147455,25.51802],"bbox":[56.0947455,25.49802,56.1347455,25.53802]}
{"display_name":"Mu'taridah, الفجيرة, الإمارات العربية المتحدة","address":{"town":"Mu'taridah","state":"الفجيرة","ISO3166-2-lvl4":"AE-FU","country":"الإمارات العربية المتحدة","country_code":"ae"},"osm_type":"node","osm_id":11769811789,"type":"hamlet","location":[56.1264269,25.5146381],"bbox":[56.1064269,25.4946381,56.1464269,25.5346381]}
{"name":"Murrah","other_names":{"name:ar":"Murrah","name:en":"Murrah","alt_name":"Wadi Murrah, Wādī Murrah"},"display_name":"Murrah, Ghura الغورة, الفجيرة, الإمارات العربية المتحدة","address":{"hamlet":"Murrah","town":"Ghura الغورة","state":"الفجيرة","ISO3166-2-lvl4":"AE-FU","country":"الإمارات العربية المتحدة","country_code":"ae"},"osm_type":"node","osm_id":5614905204,"type":"hamlet","location":[56.2190375,25.1954413],"bbox":[56.1990375,25.1754413,56.2390375,25.2154413]}
{"name":"Musaibat","display_name":"Musaibat, Khor Khwair خور خوير, رأس الخيمة, الإمارات العربية المتحدة","address":{"hamlet":"Musaibat","city":"Khor Khwair خور خوير","state":"رأس الخيمة","ISO3166-2-lvl4":"AE-RK","country":"الإمارات العربية المتحدة","country_code":"ae"},"population":2,"osm_type":"node","osm_id":10603022963,"type":"hamlet","location":[56.1560406,25.914404],"bbox":[56.1360406,25.894404,56.1760406,25.934404]}
{"name":"NCC Camp","other_names":{"name:ar":"NCC Camp","name:pa":"ਐਨ.ਸੀ.ਸੀ. ਕੈਂਪ","name:ur":"این سی سی کیمپ"},"display_name":"NCC Camp, الظنة, مدينة الظنة, منطقة الظفرة, أبو ظبي, الإمارات العربية المتحدة","address":{"hamlet":"NCC Camp","city":"الظنة","county":"منطقة الظفرة","state":"أبو ظبي","ISO3166-2-lvl4":"AE-AZ","country":"الإمارات العربية المتحدة","country_code":"ae"},"osm_type":"node","osm_id":3419623865,"type":"hamlet","location":[52.5739569,24.1788706],"bbox":[52.5539569,24.1588706,52.5939569,24.1988706]}
{"name":"Paradise Camp","other_names":{"name:ar":"Paradise Camp","name:en":"Paradise Camp","alt_name":"SIEMENS AG Camp","alt_name_1":"New Hans Esser Camp"},"display_name":"Paradise Camp, مدينة الرويس الصناعية, منطقة الظفرة, أبو ظبي, الإمارات العربية المتحدة","address":{"hamlet":"Paradise Camp","city":"مدينة الرويس الصناعية","county":"منطقة الظفرة","state":"أبو ظبي","ISO3166-2-lvl4":"AE-AZ","country":"الإمارات العربية المتحدة","country_code":"ae"},"osm_type":"node","osm_id":2168323962,"type":"hamlet","location":[52.6806885,24.0841553],"bbox":[52.6606885,24.0641553,52.7006885,24.1041553]}
{"name":"Qada'ah","other_names":{"name:ar":"Qada'ah","name:en":"Qada'ah","name:es":"Qada'ah","name:fr":"Qada'ah","alt_name":"Qada`a;Qada`ah;Qadda`a, Qada‘a, Qada‘ah;Qadda‘a;Kida'ah","int_name":"Kida'a"},"display_name":"Qada'ah, رأس الخيمة, الإمارات العربية المتحدة","address":{"hamlet":"Qada'ah","state":"رأس الخيمة","ISO3166-2-lvl4":"AE-RK","country":"الإمارات العربية المتحدة","country_code":"ae"},"osm_type":"node","osm_id":11594538943,"type":"hamlet","location":[56.1472024,25.7507167],"bbox":[56.1272024,25.7307167,56.1672024,25.7707167]}
{"name":"Ra's / Hebs Village Lower","other_names":{"name:ar":"Ra's / Hebs Village Lower","name:en":"Ra's / Hebs Village Lower","name:es":"Ra's / Hebs Village Lower","name:fr":"Ra's / Hebs Village Lower","int_name":"Ra's / Hebs Village Lower"},"display_name":"Ra's / Hebs Village Lower, رأس الخيمة, الإمارات العربية المتحدة","address":{"hamlet":"Ra's / Hebs Village Lower","state":"رأس الخيمة","ISO3166-2-lvl4":"AE-RK","country":"الإمارات العربية المتحدة","country_code":"ae"},"osm_type":"node","osm_id":11593745030,"type":"hamlet","location":[56.1487719,25.7940326],"bbox":[56.1287719,25.7740326,56.1687719,25.8140326]}
{"name":"Ra´alat Bani Mihriz","other_names":{"name:ar":"Ra´alat Bani Mihriz","name:en":"Ra´alat Bani Mihriz","name:es":"Ra´alat Bani Mihriz","name:fr":"Ra´alat Bani Mihriz"},"display_name":"Ra´alat Bani Mihriz, Al Jeer الجير, رأس الخيمة, الإمارات العربية المتحدة","address":{"hamlet":"Ra´alat Bani Mihriz","city":"Al Jeer الجير","state":"رأس الخيمة","ISO3166-2-lvl4":"AE-RK","country":"الإمارات العربية المتحدة","country_code":"ae"},"osm_type":"node","osm_id":11851033915,"type":"hamlet","location":[56.1487119,26.0528463],"bbox":[56.1287119,26.0328463,56.1687119,26.0728463]}
{"display_name":"Rahbah, رأس الخيمة, الإمارات العربية المتحدة","address":{"village":"Rahbah","state":"رأس الخيمة","ISO3166-2-lvl4":"AE-RK","country":"الإمارات العربية المتحدة","country_code":"ae"},"osm_type":"node","osm_id":10844645359,"type":"hamlet","location":[56.0780663,25.9291724],"bbox":[56.0580663,25.9091724,56.0980663,25.9491724]}
{"name":"Ras Ash","other_names":{"name:ar":"Ras Ash","name:en":"Ras Ash","name:es":"Ras Ash"},"display_name":"Ras Ash, Al Jeer الجير, رأس الخيمة, الإمارات العربية المتحدة","address":{"hamlet":"Ras Ash","city":"Al Jeer الجير","state":"رأس الخيمة","ISO3166-2-lvl4":"AE-RK","country":"الإمارات العربية المتحدة","country_code":"ae"},"population":1,"osm_type":"node","osm_id":10666033524,"type":"hamlet","location":[56.1678827,25.9677573],"bbox":[56.1478827,25.9477573,56.1878827,25.9877573]}
{"name":"RCC Camp","other_names":{"name:ar":"RCC Camp","name:en":"RCC Camp"},"display_name":"RCC Camp, غِيَّاثِي, منطقة الظفرة, أبو ظبي, الإمارات العربية المتحدة","address":{"hamlet":"RCC Camp","city":"غِيَّاثِي","county":"منطقة الظفرة","state":"أبو ظبي","ISO3166-2-lvl4":"AE-AZ","country":"الإمارات العربية المتحدة","country_code":"ae"},"osm_type":"node","osm_id":2168323958,"type":"hamlet","location":[52.7482338,24.0306374],"bbox":[52.7282338,24.0106374,52.7682338,24.0506374]}
{"name":"Sal Al Asum","other_names":{"name:ar":"Sal Al Asum","name:en":"Sal Al Asum","name:es":"Sal Al Asum","name:fr":"Sal Al Asum","alt_name":"Sal Al'Aşum"},"display_name":"Sal Al Asum, Al Jaroof - الجروف, الفجيرة, الإمارات العربية المتحدة","address":{"hamlet":"Sal Al Asum","village":"Al Jaroof - الجروف","state":"الفجيرة","ISO3166-2-lvl4":"AE-FU","country":"الإمارات العربية المتحدة","country_code":"ae"},"osm_type":"node","osm_id":11799857043,"type":"hamlet","location":[56.1385889,25.4863742],"bbox":[56.1185889,25.4663742,56.1585889,25.5063742]}
{"name":"Sal Dhayah","other_names":{"name:en":"Sal Dhayah","name:es":"Sal Dhayah","name:fr":"Sal Dhayah"},"display_name":"Sal Dhayah, Dhaya, رأس الخيمة, الإمارات العربية المتحدة","address":{"hamlet":"Sal Dhayah","town":"Dhaya","state":"رأس الخيمة","ISO3166-2-lvl4":"AE-RK","country":"الإمارات العربية المتحدة","country_code":"ae"},"osm_type":"node","osm_id":10807644030,"type":"hamlet","location":[56.0778864,25.8761894],"bbox":[56.0578864,25.8561894,56.0978864,25.8961894],"border":{"name":"Sal Dhayah","other_names":{"name:ar":"Sal Dhayah","name:en":"Sal Dhayah","name:es":"Sal Dhayah","name:fr":"Sal Dhayah","alt_name":"Sal Ḍāyah, Sal Dayah, Sal Dhayah"},"display_name":"Sal Dhayah, Dhaya, رأس الخيمة, الإمارات العربية المتحدة","address":{"hamlet":"Sal Dhayah","town":"Dhaya","state":"رأس الخيمة","ISO3166-2-lvl4":"AE-RK","country":"الإمارات العربية المتحدة","country_code":"ae"},"osm_type":"way","osm_id":1314588967,"type":"hamlet","location":[56.0778864,25.8761894],"bbox":[56.0747785,25.8684668,56.0853725,25.8847663]}}
{"name":"Sal Haqil","other_names":{"name:ar":"Sal Haqil","name:en":"Sal Haqil","name:es":"Sal Haqil","alt_name":"Sal Haqeel, Sal Ḩaqīd"},"display_name":"Sal Haqil, رأس الخيمة, الإمارات العربية المتحدة","address":{"hamlet":"Sal Haqil","state":"رأس الخيمة","ISO3166-2-lvl4":"AE-RK","country":"الإمارات العربية المتحدة","country_code":"ae"},"osm_type":"node","osm_id":10824658925,"type":"hamlet","location":[56.0814066,25.859717],"bbox":[56.0614066,25.839717,56.1014066,25.879717]}
{"name":"Saliya Al-Baqal","other_names":{"name:ar":"ديرة سليات الباقل","name:de":"Saliya Al-Baqal","name:en":"Saliya Al-Baqal","name:es":"Saliya Al-Baqal","name:fr":"Saliya Al-Baqal","alt_name":"Sulayyat Al-Baql;Sulayyat Al-Baqal;ديرة سليات الباقل"},"display_name":"Saliya Al-Baqal, رأس الخيمة, الإمارات العربية المتحدة","address":{"hamlet":"Saliya Al-Baqal","state":"رأس الخيمة","ISO3166-2-lvl4":"AE-RK","country":"الإمارات العربية المتحدة","country_code":"ae"},"osm_type":"node","osm_id":6288494842,"type":"hamlet","location":[56.157076,25.6990691],"bbox":[56.137076,25.6790691,56.177076,25.7190691]}
{"name":"Salmadan","other_names":{"name:ar":"سلمادان","name:en":"Salmadan","name:es":"Salmadan","alt_name":"Sal Madan;sl mdān"},"display_name":"Salmadan, رأس الخيمة, الإمارات العربية المتحدة","address":{"hamlet":"Salmadan","state":"رأس الخيمة","ISO3166-2-lvl4":"AE-RK","country":"الإمارات العربية المتحدة","country_code":"ae"},"osm_type":"node","osm_id":11760599566,"type":"hamlet","location":[56.1547926,25.6647157],"bbox":[56.1347926,25.6447157,56.1747926,25.6847157]}
{"name":"Samarat - سمرات","other_names":{"name:ar":"سمرات","name:de":"Samarat","name:en":"Samarat","name:es":"Samarat","name:fr":"Samarat"},"display_name":"Samarat - سمرات, رأس الخيمة, الإمارات العربية المتحدة","address":{"hamlet":"Samarat - سمرات","state":"رأس الخيمة","ISO3166-2-lvl4":"AE-RK","country":"الإمارات العربية المتحدة","country_code":"ae"},"osm_type":"node","osm_id":10669861112,"type":"hamlet","location":[56.1368094,25.688889],"bbox":[56.1168094,25.668889,56.1568094,25.708889]}
{"name":"Sawabi","other_names":{"name:ar":"Sawabi","name:en":"Sawabi","name:es":"Sawabi","name:fr":"Sawabi"},"display_name":"Sawabi, Shakh, الفجيرة, الإمارات العربية المتحدة","address":{"hamlet":"Sawabi","village":"Shakh","state":"الفجيرة","ISO3166-2-lvl4":"AE-FU","country":"الإمارات العربية المتحدة","country_code":"ae"},"osm_type":"node","osm_id":12506390793,"type":"hamlet","location":[56.1445669,25.5971617],"bbox":[56.1245669,25.5771617,56.1645669,25.6171617]}
{"name":"Scipco Residence Colony","other_names":{"name:ar":"Scipco Residence Colony","name:en":"Scipco Residence Colony"},"display_name":"Scipco Residence Colony, مدينة الرويس الصناعية, منطقة الظفرة, أبو ظبي, الإمارات العربية المتحدة","address":{"hamlet":"Scipco Residence Colony","city":"مدينة الرويس الصناعية","county":"منطقة الظفرة","state":"أبو ظبي","ISO3166-2-lvl4":"AE-AZ","country":"الإمارات العربية المتحدة","country_code":"ae"},"osm_type":"node","osm_id":2168394130,"type":"hamlet","location":[52.6888826,24.0856296],"bbox":[52.6688826,24.0656296,52.7088826,24.1056296]}
{"name":"Shaara","other_names":{"name:ar":"Shaara","name:en":"Shaara","name:es":"Shaara","name:fr":"Shaara"},"display_name":"Shaara, Kalba كلباء, الشارقة, الإمارات العربية المتحدة","address":{"hamlet":"Shaara","city":"Kalba كلباء","state":"الشارقة","ISO3166-2-lvl4":"AE-SH","country":"الإمارات العربية المتحدة","country_code":"ae"},"osm_type":"node","osm_id":12389498706,"type":"hamlet","location":[56.2150458,25.0067491],"bbox":[56.1950458,24.9867491,56.2350458,25.0267491]}
{"name":"Shairi - ديرة الشعيري","other_names":{"name:ar":"ديرة الشعيري","name:de":"Shairi","name:en":"Shairi","name:es":"Shairi","name:fr":"Shairi","alt_name":"Sariya, Deira Al Shairi, Shairi, Sheri"},"display_name":"Shairi - ديرة الشعيري, رأس الخيمة, الإمارات العربية المتحدة","address":{"hamlet":"Shairi - ديرة الشعيري","state":"رأس الخيمة","ISO3166-2-lvl4":"AE-RK","country":"الإمارات العربية المتحدة","country_code":"ae"},"osm_type":"node","osm_id":6288503986,"type":"hamlet","location":[56.1227958,25.7007021],"bbox":[56.1027958,25.6807021,56.1427958,25.7207021]}
{"name":"Shariyah","display_name":"Shariyah, شوكة, رأس الخيمة, الإمارات العربية المتحدة","address":{"hamlet":"Shariyah","village":"شوكة","state":"رأس الخيمة","ISO3166-2-lvl4":"AE-RK","country":"الإمارات العربية المتحدة","country_code":"ae"},"osm_type":"node","osm_id":5616718023,"type":"hamlet","location":[56.032126,25.0992422],"bbox":[56.012126,25.0792422,56.052126,25.1192422]}
{"name":"Shia","display_name":"Shia, Kalba كلباء, الشارقة, الإمارات العربية المتحدة","address":{"hamlet":"Shia","city":"Kalba كلباء","state":"الشارقة","ISO3166-2-lvl4":"AE-SH","country":"الإمارات العربية المتحدة","country_code":"ae"},"osm_type":"node","osm_id":12389483422,"type":"hamlet","location":[56.2170763,24.996419],"bbox":[56.1970763,24.976419,56.2370763,25.016419]}
{"name":"Sidfah","other_names":{"name:ar":"شِدفة","name:en":"Sidfah","name:es":"Sidfah","name:fr":"Sidfah","alt_name":"Şidfah;Shidfah;Sidakah;Sidaqah;Şidaqah;Sidqah;Şadqa"},"display_name":"Sidfah, دبا, الفجيرة, الإمارات العربية المتحدة","address":{"hamlet":"Sidfah","city":"دبا","state":"الفجيرة","ISO3166-2-lvl4":"AE-FU","country":"الإمارات العربية المتحدة","country_code":"ae"},"osm_type":"node","osm_id":10825314274,"type":"hamlet","location":[56.1804901,25.6252057],"bbox":[56.1604901,25.6052057,56.2004901,25.6452057]}
{"name":"Sidrat al Qorah","other_names":{"name:ar":"Sidrat al Qorah","name:en":"Sidrat al Qorah","name:es":"Sidrat al Qorah","name:fr":"Sidrat al Qorah"},"display_name":"Sidrat al Qorah, Al Jaroof - الجروف, الفجيرة, الإمارات العربية المتحدة","address":{"hamlet":"Sidrat al Qorah","village":"Al Jaroof - الجروف","state":"الفجيرة","ISO3166-2-lvl4":"AE-FU","country":"الإمارات العربية المتحدة","country_code":"ae"},"osm_type":"node","osm_id":11769807531,"type":"hamlet","location":[56.1241853,25.4731948],"bbox":[56.1041853,25.4531948,56.1441853,25.4931948]}
{"name":"Silay Al Khatami","other_names":{"name:ar":"ديرة سلي الخثعمي","name:de":"Silay Al Khatami","name:en":"Silay Al Khatami","name:es":"Silay Al Khatami","name:fr":"Silay Al Khatami"},"display_name":"Silay Al Khatami, رأس الخيمة, الإمارات العربية المتحدة","address":{"hamlet":"Silay Al Khatami","state":"رأس الخيمة","ISO3166-2-lvl4":"AE-RK","country":"الإمارات العربية المتحدة","country_code":"ae"},"osm_type":"node","osm_id":10825234326,"type":"hamlet","location":[56.1300106,25.7407869],"bbox":[56.1100106,25.7207869,56.1500106,25.7607869]}
{"name":"Slai Al-Ghalib","other_names":{"name:ar":"سلي الغالب","name:en":"Slai Al-Ghalib","name:es":"Slai Al-Ghalib","name:fr":"Slai Al-Ghalib","alt_name":"Slai al-Ghalib;Slai;Sulayy;Sulay;Slai Al-Ghalib"},"display_name":"Slai Al-Ghalib, رأس الخيمة, الإمارات العربية المتحدة","address":{"hamlet":"Slai Al-Ghalib","state":"رأس الخيمة","ISO3166-2-lvl4":"AE-RK","country":"الإمارات العربية المتحدة","country_code":"ae"},"osm_type":"node","osm_id":10825232540,"type":"hamlet","location":[56.0613303,25.744095],"bbox":[56.0413303,25.724095,56.0813303,25.764095]}
{"name":"Sram","other_names":{"name:ar":"Sram","name:en":"Sram","name:es":"Sram","name:fr":"Sram","alt_name":"Saram"},"display_name":"Sram, Tawiyean - الطويين, الفجيرة, الإمارات العربية المتحدة","address":{"hamlet":"Sram","city":"Tawiyean - الطويين","state":"الفجيرة","ISO3166-2-lvl4":"AE-FU","country":"الإمارات العربية المتحدة","country_code":"ae"},"osm_type":"node","osm_id":12309284035,"type":"hamlet","location":[56.0570118,25.4982841],"bbox":[56.0370118,25.4782841,56.0770118,25.5182841]}
{"name":"Tabara al-Kabir","other_names":{"name:ar":"Tabara al-Kabir","name:en":"Tabara al-Kabir","name:es":"Tabara al-Kabir","name:fr":"Tabara al-Kabir","alt_name":"Tabārah, Tabara, Tibara"},"display_name":"Tabara al-Kabir, رأس الخيمة, الإمارات العربية المتحدة","address":{"hamlet":"Tabara al-Kabir","state":"رأس الخيمة","ISO3166-2-lvl4":"AE-RK","country":"الإمارات العربية المتحدة","country_code":"ae"},"osm_type":"node","osm_id":10687832515,"type":"hamlet","location":[56.1212048,25.7374964],"bbox":[56.1012048,25.7174964,56.1412048,25.7574964]}
{"name":"Tabara as-Saghir","other_names":{"name:ar":"Tabara as-Saghir","name:en":"Tabara as-Saghir","name:es":"Tabara as-Saghir","name:fr":"Tabara as-Saghir","alt_name":"Tabārah;Tabara;Tibara"},"display_name":"Tabara as-Saghir, رأس الخيمة, الإمارات العربية المتحدة","address":{"hamlet":"Tabara as-Saghir","state":"رأس الخيمة","ISO3166-2-lvl4":"AE-RK","country":"الإمارات العربية المتحدة","country_code":"ae"},"osm_type":"node","osm_id":11923128545,"type":"hamlet","location":[56.1123161,25.7393341],"bbox":[56.0923161,25.7193341,56.1323161,25.7593341]}
{"name":"Tafif - ديرة الطفيف","other_names":{"name:ar":"ديرة الطفيف","name:de":"Tafif","name:en":"Tafif","name:es":"Tafif","name:fr":"Tafif","alt_name":"Aţ  Ţе̄f;At-Tayf"},"display_name":"Tafif - ديرة الطفيف, رأس الخيمة, الإمارات العربية المتحدة","address":{"hamlet":"Tafif - ديرة الطفيف","state":"رأس الخيمة","ISO3166-2-lvl4":"AE-RK","country":"الإمارات العربية المتحدة","country_code":"ae"},"osm_type":"node","osm_id":10858387790,"type":"hamlet","location":[56.1399027,25.7354864],"bbox":[56.1199027,25.7154864,56.1599027,25.7554864]}
{"name":"Tala","other_names":{"name:ar":"Tala","name:en":"Tala","name:es":"Tala","name:fr":"Tala","alt_name":"ديرة التلع;Deira Al Tala;Tallah;Tila"},"display_name":"Tala, رأس الخيمة, الإمارات العربية المتحدة","address":{"hamlet":"Tala","state":"رأس الخيمة","ISO3166-2-lvl4":"AE-RK","country":"الإمارات العربية المتحدة","country_code":"ae"},"osm_type":"node","osm_id":10801812995,"type":"hamlet","location":[56.1010833,25.675454],"bbox":[56.0810833,25.655454,56.1210833,25.695454]}
{"name":"Tariqat Ja`d","other_names":{"name:ar":"Tariqat Ja`d","name:en":"Tariqat Ja`d","name:es":"Tariqat Ja`d","name:fr":"Tariqat Ja`d","alt_name":"Ţarīqat Ja‘d"},"display_name":"Tariqat Ja`d, Zahir al Ya'ad, الفجيرة, الإمارات العربية المتحدة","address":{"hamlet":"Tariqat Ja`d","town":"Zahir al Ya'ad","state":"الفجيرة","ISO3166-2-lvl4":"AE-FU","country":"الإمارات العربية المتحدة","country_code":"ae"},"osm_type":"node","osm_id":10782653831,"type":"hamlet","location":[56.1511967,25.528542],"bbox":[56.1311967,25.508542,56.1711967,25.548542]}
{"name":"Tawi Ghel","other_names":{"name:ar":"Tawi Ghel","name:en":"Tawi Ghel","name:es":"Tawi Ghel","name:fr":"Tawi Ghel","alt_name":"Tāwī Ghēl"},"display_name":"Tawi Ghel, Birkat Ad Dassah, رأس الخيمة, الإمارات العربية المتحدة","address":{"hamlet":"Tawi Ghel","town":"Birkat Ad Dassah","state":"رأس الخيمة","ISO3166-2-lvl4":"AE-RK","country":"الإمارات العربية المتحدة","country_code":"ae"},"osm_type":"node","osm_id":11733844721,"type":"hamlet","location":[56.0385269,25.6691146],"bbox":[56.0185269,25.6491146,56.0585269,25.6891146]}
{"display_name":"Tawiyean - الطويين, الفجيرة, الإمارات العربية المتحدة","address":{"city":"Tawiyean - الطويين","state":"الفجيرة","ISO3166-2-lvl4":"AE-FU","country":"الإمارات العربية المتحدة","country_code":"ae"},"osm_type":"node","osm_id":11691249854,"type":"hamlet","location":[56.1026557,25.6224458],"bbox":[56.0826557,25.6024458,56.1226557,25.6424458]}
{"display_name":"Tawiyean - الطويين, الفجيرة, الإمارات العربية المتحدة","address":{"city":"Tawiyean - الطويين","state":"الفجيرة","ISO3166-2-lvl4":"AE-FU","country":"الإمارات العربية المتحدة","country_code":"ae"},"osm_type":"node","osm_id":11761062911,"type":"hamlet","location":[56.1278824,25.6269591],"bbox":[56.1078824,25.6069591,56.1478824,25.6469591]}
{"display_name":"Tawiyean - الطويين, الفجيرة, الإمارات العربية المتحدة","address":{"city":"Tawiyean - الطويين","state":"الفجيرة","ISO3166-2-lvl4":"AE-FU","country":"الإمارات العربية المتحدة","country_code":"ae"},"osm_type":"node","osm_id":11838432128,"type":"hamlet","location":[56.1204294,25.6286143],"bbox":[56.1004294,25.6086143,56.1404294,25.6486143]}
{"display_name":"Tawiyean - الطويين, الفجيرة, الإمارات العربية المتحدة","address":{"city":"Tawiyean - الطويين","state":"الفجيرة","ISO3166-2-lvl4":"AE-FU","country":"الإمارات العربية المتحدة","country_code":"ae"},"osm_type":"node","osm_id":12564724433,"type":"hamlet","location":[56.1457056,25.6401127],"bbox":[56.1257056,25.6201127,56.1657056,25.6601127]}
{"display_name":"Tawiyean - الطويين, الفجيرة, الإمارات العربية المتحدة","address":{"city":"Tawiyean - الطويين","state":"الفجيرة","ISO3166-2-lvl4":"AE-FU","country":"الإمارات العربية المتحدة","country_code":"ae"},"osm_type":"node","osm_id":11838688661,"type":"hamlet","location":[56.0633636,25.610746],"bbox":[56.0433636,25.590746,56.0833636,25.630746]}
{"display_name":"Tawiyean - الطويين, الفجيرة, الإمارات العربية المتحدة","address":{"city":"Tawiyean - الطويين","state":"الفجيرة","ISO3166-2-lvl4":"AE-FU","country":"الإمارات العربية المتحدة","country_code":"ae"},"osm_type":"node","osm_id":11693028118,"type":"hamlet","location":[56.0927594,25.609999],"bbox":[56.0727594,25.589999,56.1127594,25.629999]}
{"display_name":"Tawiyean - الطويين, الفجيرة, الإمارات العربية المتحدة","address":{"city":"Tawiyean - الطويين","state":"الفجيرة","ISO3166-2-lvl4":"AE-FU","country":"الإمارات العربية المتحدة","country_code":"ae"},"osm_type":"node","osm_id":11838653434,"type":"hamlet","location":[56.0723345,25.6317114],"bbox":[56.0523345,25.6117114,56.0923345,25.6517114]}
{"display_name":"Tawiyean - الطويين, الفجيرة, الإمارات العربية المتحدة","address":{"city":"Tawiyean - الطويين","state":"الفجيرة","ISO3166-2-lvl4":"AE-FU","country":"الإمارات العربية المتحدة","country_code":"ae"},"osm_type":"node","osm_id":11692229492,"type":"hamlet","location":[56.0594806,25.6000898],"bbox":[56.0394806,25.5800898,56.0794806,25.6200898]}
{"display_name":"Tawiyean - الطويين, الفجيرة, الإمارات العربية المتحدة","address":{"city":"Tawiyean - الطويين","state":"الفجيرة","ISO3166-2-lvl4":"AE-FU","country":"الإمارات العربية المتحدة","country_code":"ae"},"osm_type":"node","osm_id":11691403924,"type":"hamlet","location":[56.0939973,25.618271],"bbox":[56.0739973,25.598271,56.1139973,25.638271]}
{"display_name":"Tawiyean - الطويين, الفجيرة, الإمارات العربية المتحدة","address":{"city":"Tawiyean - الطويين","state":"الفجيرة","ISO3166-2-lvl4":"AE-FU","country":"الإمارات العربية المتحدة","country_code":"ae"},"osm_type":"node","osm_id":11761438672,"type":"hamlet","location":[56.1144122,25.541099],"bbox":[56.0944122,25.521099,56.1344122,25.561099]}
{"display_name":"Tawiyean - الطويين, الفجيرة, الإمارات العربية المتحدة","address":{"city":"Tawiyean - الطويين","state":"الفجيرة","ISO3166-2-lvl4":"AE-FU","country":"الإمارات العربية المتحدة","country_code":"ae"},"osm_type":"node","osm_id":11812134112,"type":"hamlet","location":[56.0730362,25.5879485],"bbox":[56.0530362,25.5679485,56.0930362,25.6079485]}
{"display_name":"Tawiyean - الطويين, الفجيرة, الإمارات العربية المتحدة","address":{"city":"Tawiyean - الطويين","state":"الفجيرة","ISO3166-2-lvl4":"AE-FU","country":"الإمارات العربية المتحدة","country_code":"ae"},"osm_type":"node","osm_id":11761044853,"type":"hamlet","location":[56.1092745,25.6252492],"bbox":[56.0892745,25.6052492,56.1292745,25.6452492]}
{"display_name":"Tawiyean - الطويين, الفجيرة, الإمارات العربية المتحدة","address":{"city":"Tawiyean - الطويين","state":"الفجيرة","ISO3166-2-lvl4":"AE-FU","country":"الإمارات العربية المتحدة","country_code":"ae"},"osm_type":"node","osm_id":11932915215,"type":"hamlet","location":[56.126918,25.5855709],"bbox":[56.106918,25.5655709,56.146918,25.6055709]}
{"display_name":"Tawiyean - الطويين, الفجيرة, الإمارات العربية المتحدة","address":{"city":"Tawiyean - الطويين","state":"الفجيرة","ISO3166-2-lvl4":"AE-FU","country":"الإمارات العربية المتحدة","country_code":"ae"},"osm_type":"node","osm_id":12766887100,"type":"hamlet","location":[56.038745,25.5276211],"bbox":[56.018745,25.5076211,56.058745,25.5476211]}
{"display_name":"Tawiyean - الطويين, الفجيرة, الإمارات العربية المتحدة","address":{"city":"Tawiyean - الطويين","state":"الفجيرة","ISO3166-2-lvl4":"AE-FU","country":"الإمارات العربية المتحدة","country_code":"ae"},"osm_type":"node","osm_id":11824436989,"type":"hamlet","location":[56.1125727,25.5927907],"bbox":[56.0925727,25.5727907,56.1325727,25.6127907]}
{"display_name":"Tawiyean - الطويين, الفجيرة, الإمارات العربية المتحدة","address":{"city":"Tawiyean - الطويين","state":"الفجيرة","ISO3166-2-lvl4":"AE-FU","country":"الإمارات العربية المتحدة","country_code":"ae"},"osm_type":"node","osm_id":11948390113,"type":"hamlet","location":[56.1348566,25.5563995],"bbox":[56.1148566,25.5363995,56.1548566,25.5763995]}
{"display_name":"Tawiyean - الطويين, الفجيرة, الإمارات العربية المتحدة","address":{"city":"Tawiyean - الطويين","state":"الفجيرة","ISO3166-2-lvl4":"AE-FU","country":"الإمارات العربية المتحدة","country_code":"ae"},"osm_type":"node","osm_id":12533042437,"type":"hamlet","location":[56.1161306,25.6295799],"bbox":[56.0961306,25.6095799,56.1361306,25.6495799]}
{"display_name":"Tawiyean - الطويين, الفجيرة, الإمارات العربية المتحدة","address":{"city":"Tawiyean - الطويين","state":"الفجيرة","ISO3166-2-lvl4":"AE-FU","country":"الإمارات العربية المتحدة","country_code":"ae"},"osm_type":"node","osm_id":11613044802,"type":"hamlet","location":[56.0799383,25.5803859],"bbox":[56.0599383,25.5603859,56.0999383,25.6003859]}
{"display_name":"Wa‘bayn, الفجيرة, الإمارات العربية المتحدة","address":{"village":"Wa‘bayn","state":"الفجيرة","ISO3166-2-lvl4":"AE-FU","country":"الإمارات العربية المتحدة","country_code":"ae"},"osm_type":"node","osm_id":11948387961,"type":"hamlet","location":[56.1393245,25.5597752],"bbox":[56.1193245,25.5397752,56.1593245,25.5797752]}
{"display_name":"Wa‘bayn, الفجيرة, الإمارات العربية المتحدة","address":{"village":"Wa‘bayn","state":"الفجيرة","ISO3166-2-lvl4":"AE-FU","country":"الإمارات العربية المتحدة","country_code":"ae"},"osm_type":"node","osm_id":11931280235,"type":"hamlet","location":[56.13411,25.5736777],"bbox":[56.11411,25.5536777,56.15411,25.5936777]}
{"name":"Wab Saqar","other_names":{"name:ar":"واب صقر","name:en":"Wab Saqar","name:es":"Wab Saqar","name:fr":"Wab Saqar","alt_name":"Wab Saqr"},"display_name":"Wab Saqar, رأس الخيمة, الإمارات العربية المتحدة","address":{"hamlet":"Wab Saqar","state":"رأس الخيمة","ISO3166-2-lvl4":"AE-RK","country":"الإمارات العربية المتحدة","country_code":"ae"},"osm_type":"node","osm_id":10908944099,"type":"hamlet","location":[56.1265588,25.6609677],"bbox":[56.1065588,25.6409677,56.1465588,25.6809677]}
{"name":"Wabain","other_names":{"name:ar":"Wabain","name:en":"Wabain","name:es":"Wabain","name:fr":"Wabain"},"display_name":"Wabain, Al Hayilah, رأس الخيمة, الإمارات العربية المتحدة","address":{"hamlet":"Wabain","town":"Al Hayilah","state":"رأس الخيمة","ISO3166-2-lvl4":"AE-RK","country":"الإمارات العربية المتحدة","country_code":"ae"},"osm_type":"node","osm_id":11582114963,"type":"hamlet","location":[56.1211198,25.806721],"bbox":[56.1011198,25.786721,56.1411198,25.826721]}
{"display_name":"Wasideh, رأس الخيمة, الإمارات العربية المتحدة","address":{"town":"Wasideh","state":"رأس الخيمة","ISO3166-2-lvl4":"AE-RK","country":"الإمارات العربية المتحدة","country_code":"ae"},"osm_type":"node","osm_id":10858717873,"type":"hamlet","location":[56.1434847,25.9636247],"bbox":[56.1234847,25.9436247,56.1634847,25.9836247]}
{"name":"Wassab","display_name":"Wassab, Khor Khwair خور خوير, رأس الخيمة, الإمارات العربية المتحدة","address":{"hamlet":"Wassab","city":"Khor Khwair خور خوير","state":"رأس الخيمة","ISO3166-2-lvl4":"AE-RK","country":"الإمارات العربية المتحدة","country_code":"ae"},"osm_type":"node","osm_id":10603794257,"type":"hamlet","location":[56.1240445,25.9146832],"bbox":[56.1040445,25.8946832,56.1440445,25.9346832]}
{"name":"Yaif","other_names":{"name:ar":"Yaif","name:en":"Yaif","name:es":"Yaif","name:fr":"Yaif","alt_name":"Yif;Al Jif;al-Yif"},"display_name":"Yaif, رأس الخيمة, الإمارات العربية المتحدة","address":{"hamlet":"Yaif","state":"رأس الخيمة","ISO3166-2-lvl4":"AE-RK","country":"الإمارات العربية المتحدة","country_code":"ae"},"osm_type":"node","osm_id":12282463656,"type":"hamlet","location":[56.0986947,24.9398243],"bbox":[56.0786947,24.9198243,56.1186947,24.9598243]}
{"name":"Yib Al Miselli","other_names":{"name:ar":"Yib Al Miselli","name:en":"Yib Al Miselli","name:es":"Yib Al Miselli","name:fr":"Yib Al Miselli","alt_name":"Yib Al Mişе̄llī"},"display_name":"Yib Al Miselli, رأس الخيمة, الإمارات العربية المتحدة","address":{"hamlet":"Yib Al Miselli","state":"رأس الخيمة","ISO3166-2-lvl4":"AE-RK","country":"الإمارات العربية المتحدة","country_code":"ae"},"osm_type":"node","osm_id":11673106125,"type":"hamlet","location":[56.0749537,25.7528156],"bbox":[56.0549537,25.7328156,56.0949537,25.7728156]}
{"name":"Yinainir - ينينير","other_names":{"name:ar":"ينينير","name:de":"Yinainir","name:en":"Yinainir","name:es":"Yinainir","name:fr":"Yinainir","alt_name":"Yinēnīr;Yanīnīr"},"display_name":"Yinainir - ينينير, غليلة, رأس الخيمة, الإمارات العربية المتحدة","address":{"hamlet":"Yinainir - ينينير","city":"غليلة","state":"رأس الخيمة","ISO3166-2-lvl4":"AE-RK","country":"الإمارات العربية المتحدة","country_code":"ae"},"osm_type":"node","osm_id":10653606147,"type":"hamlet","location":[56.1698794,25.908386],"bbox":[56.1498794,25.888386,56.1898794,25.928386]}
{"name":"Zaharat As Silewah","other_names":{"name:ar":"Zaharat As Silewah","name:en":"Zaharat As Silewah","name:es":"Zaharat As Silewah","name:fr":"Zaharat As Silewah","alt_name":"Ẓaharat As Silе̄wah"},"display_name":"Zaharat As Silewah, الفجيرة, الإمارات العربية المتحدة","address":{"hamlet":"Zaharat As Silewah","state":"الفجيرة","ISO3166-2-lvl4":"AE-FU","country":"الإمارات العربية المتحدة","country_code":"ae"},"osm_type":"node","osm_id":12444555283,"type":"hamlet","location":[56.2066103,25.2558274],"bbox":[56.1866103,25.2358274,56.2266103,25.2758274]}
{"name":"Zarub","other_names":{"name:ar":"Zarub","name:en":"Zarub","name:es":"Zarub","name:fr":"Zarub","alt_name":"Zarub;Zarūb;Zārūb;Al-Zarub;Zuroob;Al Zuroob;الزروب"},"display_name":"Zarub, Kalba كلباء, الشارقة, الإمارات العربية المتحدة","address":{"hamlet":"Zarub","city":"Kalba كلباء","state":"الشارقة","ISO3166-2-lvl4":"AE-SH","country":"الإمارات العربية المتحدة","country_code":"ae"},"osm_type":"node","osm_id":12389558912,"type":"hamlet","location":[56.2118882,25.017413],"bbox":[56.1918882,24.997413,56.2318882,25.037413]}
{"name":"الأبرق","other_names":{"name:ar":"الأبرق","name:en":"Al Abraq"},"display_name":"الأبرق, أم القيوين, الإمارات العربية المتحدة","address":{"hamlet":"الأبرق","city":"أم القيوين","state":"أم القيوين","ISO3166-2-lvl4":"AE-UQ","country":"الإمارات العربية المتحدة","country_code":"ae"},"osm_type":"way","osm_id":185409085,"type":"hamlet","location":[55.56283638629823,25.48704515],"bbox":[55.5580012,25.4820894,55.566514,25.4909239],"border":{"name":"الأبرق","other_names":{"name:ar":"الأبرق","name:en":"Al Abraq"},"display_name":"الأبرق, أم القيوين, الإمارات العربية المتحدة","address":{"suburb":"الأبرق","state":"أم القيوين","ISO3166-2-lvl4":"AE-UQ","country":"الإمارات العربية المتحدة","country_code":"ae"},"osm_type":"relation","osm_id":12905770,"type":"administrative","location":[55.5638694,25.4897693],"bbox":[55.5467155,25.4765705,55.5742753,25.4992703]}}
{"display_name":"البدية, الفجيرة, الإمارات العربية المتحدة","address":{"city":"البدية","state":"الفجيرة","ISO3166-2-lvl4":"AE-FU","country":"الإمارات العربية المتحدة","country_code":"ae"},"osm_type":"way","osm_id":1315113086,"type":"hamlet","location":[56.32184247050455,25.442616299999997],"bbox":[56.3211504,25.4422123,56.3226321,25.4431005]}
{"display_name":"الحَفَّار, أبوظبي, أبو ظبي, الإمارات العربية المتحدة","address":{"city":"الحَفَّار","county":"أبوظبي","state":"أبو ظبي","ISO3166-2-lvl4":"AE-AZ","country":"الإمارات العربية المتحدة","country_code":"ae"},"osm_type":"node","osm_id":3344099898,"type":"hamlet","location":[54.8951627,24.24879],"bbox":[54.8751627,24.22879,54.9151627,24.26879]}
{"display_name":"الحَفَّار, أبوظبي, أبو ظبي, الإمارات العربية المتحدة","address":{"city":"الحَفَّار","county":"أبوظبي","state":"أبو ظبي","ISO3166-2-lvl4":"AE-AZ","country":"الإمارات العربية المتحدة","country_code":"ae"},"osm_type":"node","osm_id":3344099604,"type":"hamlet","location":[54.8336,24.2544599],"bbox":[54.8136,24.2344599,54.8536,24.2744599]}
{"display_name":"الفجيرة, الإمارات العربية المتحدة","address":{"state":"الفجيرة","ISO3166-2-lvl4":"AE-FU","country":"الإمارات العربية المتحدة","country_code":"ae"},"osm_type":"node","osm_id":12384247318,"type":"hamlet","location":[56.2387605,25.2277239],"bbox":[56.2187605,25.2077239,56.2587605,25.2477239]}
{"display_name":"الفجيرة, الإمارات العربية المتحدة","address":{"state":"الفجيرة","ISO3166-2-lvl4":"AE-FU","country":"الإمارات العربية المتحدة","country_code":"ae"},"osm_type":"node","osm_id":11851174501,"type":"hamlet","location":[56.1473451,25.3838718],"bbox":[56.1273451,25.3638718,56.1673451,25.4038718]}
{"display_name":"الفجيرة, الإمارات العربية المتحدة","address":{"state":"الفجيرة","ISO3166-2-lvl4":"AE-FU","country":"الإمارات العربية المتحدة","country_code":"ae"},"osm_type":"node","osm_id":11895700265,"type":"hamlet","location":[56.0957957,25.2314775],"bbox":[56.0757957,25.2114775,56.1157957,25.2514775]}
{"display_name":"الفجيرة, الإمارات العربية المتحدة","address":{"state":"الفجيرة","ISO3166-2-lvl4":"AE-FU","country":"الإمارات العربية المتحدة","country_code":"ae"},"osm_type":"node","osm_id":12384268547,"type":"hamlet","location":[56.2456173,25.2217662],"bbox":[56.2256173,25.2017662,56.2656173,25.2417662]}
{"display_name":"الفجيرة, الإمارات العربية المتحدة","address":{"state":"الفجيرة","ISO3166-2-lvl4":"AE-FU","country":"الإمارات العربية المتحدة","country_code":"ae"},"osm_type":"node","osm_id":12384272806,"type":"hamlet","location":[56.2414817,25.2245549],"bbox":[56.2214817,25.2045549,56.2614817,25.2445549]}
{"display_name":"الفجيرة, الإمارات العربية المتحدة","address":{"state":"الفجيرة","ISO3166-2-lvl4":"AE-FU","country":"الإمارات العربية المتحدة","country_code":"ae"},"osm_type":"node","osm_id":11848067817,"type":"hamlet","location":[56.1188313,25.4035501],"bbox":[56.0988313,25.3835501,56.1388313,25.4235501]}
{"name":"القرم","other_names":{"name:ar":"القرم","name:en":"Al Quram"},"display_name":"القرم, أم القيوين, الإمارات العربية المتحدة","address":{"hamlet":"القرم","city":"أم القيوين","state":"أم القيوين","ISO3166-2-lvl4":"AE-UQ","country":"الإمارات العربية المتحدة","country_code":"ae"},"osm_type":"node","osm_id":1778288792,"type":"hamlet","location":[55.6018501,25.5460856],"bbox":[55.5818501,25.5260856,55.6218501,25.5660856]}
{"name":"بلد","other_names":{"name:ar":"بلد","name:en":"Country"},"display_name":"بلد, زاخر, العين, أبو ظبي, الإمارات العربية المتحدة","address":{"hamlet":"بلد","village":"زاخر","county":"العين","state":"أبو ظبي","ISO3166-2-lvl4":"AE-AZ","country":"الإمارات العربية المتحدة","country_code":"ae"},"osm_type":"node","osm_id":2099619746,"type":"hamlet","location":[55.6387155,24.0873987],"bbox":[55.6187155,24.0673987,55.6587155,24.1073987]}
{"name":"حقل","other_names":{"name:ar":"حقل","name:en":"Haqil"},"display_name":"حقل, البدية, الفجيرة, الإمارات العربية المتحدة","address":{"hamlet":"حقل","city":"البدية","state":"الفجيرة","ISO3166-2-lvl4":"AE-FU","country":"الإمارات العربية المتحدة","country_code":"ae"},"osm_type":"node","osm_id":1583597490,"type":"hamlet","location":[56.3580715,25.445791],"bbox":[56.3380715,25.425791,56.3780715,25.465791]}
{"display_name":"خضيره, مليحة, الشارقة, الإمارات العربية المتحدة","address":{"village":"خضيره","town":"مليحة","state":"الشارقة","ISO3166-2-lvl4":"AE-SH","country":"الإمارات العربية المتحدة","country_code":"ae"},"osm_type":"node","osm_id":2692619556,"type":"hamlet","location":[55.9516431,25.1647646],"bbox":[55.9316431,25.1447646,55.9716431,25.1847646]}
{"display_name":"دبا, الفجيرة, الإمارات العربية المتحدة","address":{"city":"دبا","state":"الفجيرة","ISO3166-2-lvl4":"AE-FU","country":"الإمارات العربية المتحدة","country_code":"ae"},"osm_type":"node","osm_id":10802499861,"type":"hamlet","location":[56.1792615,25.6529354],"bbox":[56.1592615,25.6329354,56.1992615,25.6729354]}
{"display_name":"دبي, الإمارات العربية المتحدة","address":{"state":"دبي","ISO3166-2-lvl4":"AE-DU","country":"الإمارات العربية المتحدة","country_code":"ae"},"osm_type":"node","osm_id":3649828782,"type":"hamlet","location":[55.5507941,24.9916098],"bbox":[55.5307941,24.9716098,55.5707941,25.0116098]}
{"display_name":"رأس الخيمة, الإمارات العربية المتحدة","address":{"state":"رأس الخيمة","ISO3166-2-lvl4":"AE-RK","country":"الإمارات العربية المتحدة","country_code":"ae"},"osm_type":"node","osm_id":11923427492,"type":"hamlet","location":[56.1438762,25.745302],"bbox":[56.1238762,25.725302,56.1638762,25.765302]}
{"display_name":"رأس الخيمة, الإمارات العربية المتحدة","address":{"state":"رأس الخيمة","ISO3166-2-lvl4":"AE-RK","country":"الإمارات العربية المتحدة","country_code":"ae"},"osm_type":"node","osm_id":10863039662,"type":"hamlet","location":[56.1094878,25.7004386],"bbox":[56.0894878,25.6804386,56.1294878,25.7204386]}
{"display_name":"رأس الخيمة, الإمارات العربية المتحدة","address":{"state":"رأس الخيمة","ISO3166-2-lvl4":"AE-RK","country":"الإمارات العربية المتحدة","country_code":"ae"},"osm_type":"node","osm_id":11828910506,"type":"hamlet","location":[56.1378433,25.8289744],"bbox":[56.1178433,25.8089744,56.1578433,25.8489744]}
{"display_name":"رأس الخيمة, الإمارات العربية المتحدة","address":{"state":"رأس الخيمة","ISO3166-2-lvl4":"AE-RK","country":"الإمارات العربية المتحدة","country_code":"ae"},"osm_type":"node","osm_id":11844621545,"type":"hamlet","location":[56.0502245,25.6138155],"bbox":[56.0302245,25.5938155,56.0702245,25.6338155]}
{"display_name":"رأس الخيمة, الإمارات العربية المتحدة","address":{"state":"رأس الخيمة","ISO3166-2-lvl4":"AE-RK","country":"الإمارات العربية المتحدة","country_code":"ae"},"osm_type":"node","osm_id":11888380304,"type":"hamlet","location":[56.0482087,25.6257299],"bbox":[56.0282087,25.6057299,56.0682087,25.6457299]}
{"display_name":"رأس الخيمة, الإمارات العربية المتحدة","address":{"state":"رأس الخيمة","ISO3166-2-lvl4":"AE-RK","country":"الإمارات العربية المتحدة","country_code":"ae"},"osm_type":"node","osm_id":11828902976,"type":"hamlet","location":[56.1209123,25.8307149],"bbox":[56.1009123,25.8107149,56.1409123,25.8507149]}
{"display_name":"رأس الخيمة, الإمارات العربية المتحدة","address":{"state":"رأس الخيمة","ISO3166-2-lvl4":"AE-RK","country":"الإمارات العربية المتحدة","country_code":"ae"},"osm_type":"node","osm_id":11662453018,"type":"hamlet","location":[56.1403959,25.6996569],"bbox":[56.1203959,25.6796569,56.1603959,25.7196569]}
{"display_name":"رأس الخيمة, الإمارات العربية المتحدة","address":{"state":"رأس الخيمة","ISO3166-2-lvl4":"AE-RK","country":"الإمارات العربية المتحدة","country_code":"ae"},"osm_type":"node","osm_id":12542961958,"type":"hamlet","location":[56.1486308,25.676788],"bbox":[56.1286308,25.656788,56.1686308,25.696788]}
{"display_name":"رأس الخيمة, الإمارات العربية المتحدة","address":{"state":"رأس الخيمة","ISO3166-2-lvl4":"AE-RK","country":"الإمارات العربية المتحدة","country_code":"ae"},"osm_type":"node","osm_id":11841373210,"type":"hamlet","location":[56.0804535,25.6524598],"bbox":[56.0604535,25.6324598,56.1004535,25.6724598]}
{"display_name":"رأس الخيمة, الإمارات العربية المتحدة","address":{"state":"رأس الخيمة","ISO3166-2-lvl4":"AE-RK","country":"الإمارات العربية المتحدة","country_code":"ae"},"osm_type":"node","osm_id":11689927348,"type":"hamlet","location":[56.1011155,25.6903379],"bbox":[56.0811155,25.6703379,56.1211155,25.7103379]}
{"display_name":"رأس الخيمة, الإمارات العربية المتحدة","address":{"state":"رأس الخيمة","ISO3166-2-lvl4":"AE-RK","country":"الإمارات العربية المتحدة","country_code":"ae"},"osm_type":"node","osm_id":11594595116,"type":"hamlet","location":[56.1014182,25.7582012],"bbox":[56.0814182,25.7382012,56.1214182,25.7782012]}
{"display_name":"رأس الخيمة, الإمارات العربية المتحدة","address":{"state":"رأس الخيمة","ISO3166-2-lvl4":"AE-RK","country":"الإمارات العربية المتحدة","country_code":"ae"},"osm_type":"node","osm_id":11572513700,"type":"hamlet","location":[56.1310345,25.7570489],"bbox":[56.1110345,25.7370489,56.1510345,25.7770489]}
{"display_name":"رأس الخيمة, الإمارات العربية المتحدة","address":{"state":"رأس الخيمة","ISO3166-2-lvl4":"AE-RK","country":"الإمارات العربية المتحدة","country_code":"ae"},"osm_type":"node","osm_id":10909062100,"type":"hamlet","location":[56.1222754,25.6871161],"bbox":[56.1022754,25.6671161,56.1422754,25.7071161]}
{"display_name":"رأس الخيمة, الإمارات العربية المتحدة","address":{"state":"رأس الخيمة","ISO3166-2-lvl4":"AE-RK","country":"الإمارات العربية المتحدة","country_code":"ae"},"osm_type":"node","osm_id":11597419840,"type":"hamlet","location":[56.1329167,25.7915602],"bbox":[56.1129167,25.7715602,56.1529167,25.8115602]}
{"display_name":"رأس الخيمة, الإمارات العربية المتحدة","address":{"state":"رأس الخيمة","ISO3166-2-lvl4":"AE-RK","country":"الإمارات العربية المتحدة","country_code":"ae"},"osm_type":"node","osm_id":11840206249,"type":"hamlet","location":[56.0955506,25.6436787],"bbox":[56.0755506,25.6236787,56.1155506,25.6636787]}
{"display_name":"رأس الخيمة, الإمارات العربية المتحدة","address":{"state":"رأس الخيمة","ISO3166-2-lvl4":"AE-RK","country":"الإمارات العربية المتحدة","country_code":"ae"},"osm_type":"node","osm_id":12533057710,"type":"hamlet","location":[56.0977963,25.6689365],"bbox":[56.0777963,25.6489365,56.1177963,25.6889365]}
{"display_name":"رأس الخيمة, الإمارات العربية المتحدة","address":{"state":"رأس الخيمة","ISO3166-2-lvl4":"AE-RK","country":"الإمارات العربية المتحدة","country_code":"ae"},"osm_type":"node","osm_id":12543429240,"type":"hamlet","location":[56.1097409,25.7097964],"bbox":[56.0897409,25.6897964,56.1297409,25.7297964]}
{"display_name":"رأس الخيمة, الإمارات العربية المتحدة","address":{"state":"رأس الخيمة","ISO3166-2-lvl4":"AE-RK","country":"الإمارات العربية المتحدة","country_code":"ae"},"osm_type":"node","osm_id":11774766441,"type":"hamlet","location":[56.0911654,25.7675433],"bbox":[56.0711654,25.7475433,56.1111654,25.7875433]}
{"display_name":"رأس الخيمة, الإمارات العربية المتحدة","address":{"state":"رأس الخيمة","ISO3166-2-lvl4":"AE-RK","country":"الإمارات العربية المتحدة","country_code":"ae"},"osm_type":"node","osm_id":11763997440,"type":"hamlet","location":[56.0690676,25.7752629],"bbox":[56.0490676,25.7552629,56.0890676,25.7952629]}
{"display_name":"رأس الخيمة, الإمارات العربية المتحدة","address":{"state":"رأس الخيمة","ISO3166-2-lvl4":"AE-RK","country":"الإمارات العربية المتحدة","country_code":"ae"},"osm_type":"node","osm_id":11841423787,"type":"hamlet","location":[56.0822685,25.6781236],"bbox":[56.0622685,25.6581236,56.1022685,25.6981236]}
{"display_name":"رأس الخيمة, الإمارات العربية المتحدة","address":{"state":"رأس الخيمة","ISO3166-2-lvl4":"AE-RK","country":"الإمارات العربية المتحدة","country_code":"ae"},"osm_type":"node","osm_id":10908976240,"type":"hamlet","location":[56.123163,25.6922256],"bbox":[56.103163,25.6722256,56.143163,25.7122256]}
{"display_name":"رأس الخيمة, الإمارات العربية المتحدة","address":{"state":"رأس الخيمة","ISO3166-2-lvl4":"AE-RK","country":"الإمارات العربية المتحدة","country_code":"ae"},"osm_type":"node","osm_id":11776450161,"type":"hamlet","location":[56.0470349,25.7233093],"bbox":[56.0270349,25.7033093,56.0670349,25.7433093]}
{"display_name":"رأس الخيمة, الإمارات العربية المتحدة","address":{"state":"رأس الخيمة","ISO3166-2-lvl4":"AE-RK","country":"الإمارات العربية المتحدة","country_code":"ae"},"osm_type":"node","osm_id":11583736932,"type":"hamlet","location":[56.1388114,25.8210303],"bbox":[56.1188114,25.8010303,56.1588114,25.8410303]}
{"display_name":"رأس الخيمة, الإمارات العربية المتحدة","address":{"state":"رأس الخيمة","ISO3166-2-lvl4":"AE-RK","country":"الإمارات العربية المتحدة","country_code":"ae"},"osm_type":"node","osm_id":12633685068,"type":"hamlet","location":[56.1497855,25.7691694],"bbox":[56.1297855,25.7491694,56.1697855,25.7891694]}
{"display_name":"رأس الخيمة, الإمارات العربية المتحدة","address":{"state":"رأس الخيمة","ISO3166-2-lvl4":"AE-RK","country":"الإمارات العربية المتحدة","country_code":"ae"},"osm_type":"node","osm_id":10824664306,"type":"hamlet","location":[56.107921,25.7033927],"bbox":[56.087921,25.6833927,56.127921,25.7233927]}
{"display_name":"رأس الخيمة, الإمارات العربية المتحدة","address":{"state":"رأس الخيمة","ISO3166-2-lvl4":"AE-RK","country":"الإمارات العربية المتحدة","country_code":"ae"},"osm_type":"node","osm_id":12546386604,"type":"hamlet","location":[56.105737,25.6593854],"bbox":[56.085737,25.6393854,56.125737,25.6793854]}
{"display_name":"رأس الخيمة, الإمارات العربية المتحدة","address":{"state":"رأس الخيمة","ISO3166-2-lvl4":"AE-RK","country":"الإمارات العربية المتحدة","country_code":"ae"},"osm_type":"node","osm_id":10845710007,"type":"hamlet","location":[56.1059682,25.8539793],"bbox":[56.0859682,25.8339793,56.1259682,25.8739793]}
{"display_name":"رأس الخيمة, الإمارات العربية المتحدة","address":{"state":"رأس الخيمة","ISO3166-2-lvl4":"AE-RK","country":"الإمارات العربية المتحدة","country_code":"ae"},"osm_type":"node","osm_id":10831631307,"type":"hamlet","location":[56.1218454,25.765231],"bbox":[56.1018454,25.745231,56.1418454,25.785231]}
{"display_name":"رأس الخيمة, الإمارات العربية المتحدة","address":{"state":"رأس الخيمة","ISO3166-2-lvl4":"AE-RK","country":"الإمارات العربية المتحدة","country_code":"ae"},"osm_type":"node","osm_id":11781270923,"type":"hamlet","location":[56.0925321,25.3513032],"bbox":[56.0725321,25.3313032,56.1125321,25.3713032]}
{"display_name":"رأس الخيمة, الإمارات العربية المتحدة","address":{"state":"رأس الخيمة","ISO3166-2-lvl4":"AE-RK","country":"الإمارات العربية المتحدة","country_code":"ae"},"osm_type":"node","osm_id":11896731026,"type":"hamlet","location":[56.1093987,25.4615867],"bbox":[56.0893987,25.4415867,56.1293987,25.4815867]}
{"display_name":"رأس الخيمة, الإمارات العربية المتحدة","address":{"state":"رأس الخيمة","ISO3166-2-lvl4":"AE-RK","country":"الإمارات العربية المتحدة","country_code":"ae"},"osm_type":"node","osm_id":11813458997,"type":"hamlet","location":[56.1038976,25.4626552],"bbox":[56.0838976,25.4426552,56.1238976,25.4826552]}
{"display_name":"رأس الخيمة, الإمارات العربية المتحدة","address":{"state":"رأس الخيمة","ISO3166-2-lvl4":"AE-RK","country":"الإمارات العربية المتحدة","country_code":"ae"},"osm_type":"node","osm_id":11813443597,"type":"hamlet","location":[56.0976444,25.4567651],"bbox":[56.0776444,25.4367651,56.1176444,25.4767651]}
{"display_name":"رأس الخيمة, الإمارات العربية المتحدة","address":{"state":"رأس الخيمة","ISO3166-2-lvl4":"AE-RK","country":"الإمارات العربية المتحدة","country_code":"ae"},"osm_type":"node","osm_id":11769788766,"type":"hamlet","location":[56.1029571,25.4661937],"bbox":[56.0829571,25.4461937,56.1229571,25.4861937]}
{"display_name":"رأس الخيمة, الإمارات العربية المتحدة","address":{"state":"رأس الخيمة","ISO3166-2-lvl4":"AE-RK","country":"الإمارات العربية المتحدة","country_code":"ae"},"osm_type":"node","osm_id":6288494840,"type":"hamlet","location":[56.1570588,25.6943147],"bbox":[56.1370588,25.6743147,56.1770588,25.7143147]}
{"display_name":"رأس الخيمة, الإمارات العربية المتحدة","address":{"state":"رأس الخيمة","ISO3166-2-lvl4":"AE-RK","country":"الإمارات العربية المتحدة","country_code":"ae"},"osm_type":"node","osm_id":10845710008,"type":"hamlet","location":[56.1116065,25.8477475],"bbox":[56.0916065,25.8277475,56.1316065,25.8677475]}
{"display_name":"رأس الخيمة, الإمارات العربية المتحدة","address":{"state":"رأس الخيمة","ISO3166-2-lvl4":"AE-RK","country":"الإمارات العربية المتحدة","country_code":"ae"},"osm_type":"node","osm_id":12308891757,"type":"hamlet","location":[56.0890529,25.3490364],"bbox":[56.0690529,25.3290364,56.1090529,25.3690364]}
{"display_name":"رأس الخيمة, الإمارات العربية المتحدة","address":{"state":"رأس الخيمة","ISO3166-2-lvl4":"AE-RK","country":"الإمارات العربية المتحدة","country_code":"ae"},"osm_type":"node","osm_id":11799459696,"type":"hamlet","location":[56.0855591,25.4331114],"bbox":[56.0655591,25.4131114,56.1055591,25.4531114]}
{"display_name":"رأس الخيمة, الإمارات العربية المتحدة","address":{"state":"رأس الخيمة","ISO3166-2-lvl4":"AE-RK","country":"الإمارات العربية المتحدة","country_code":"ae"},"osm_type":"node","osm_id":12555984414,"type":"hamlet","location":[56.1027134,25.7021513],"bbox":[56.0827134,25.6821513,56.1227134,25.7221513]}
{"display_name":"رأس الخيمة, الإمارات العربية المتحدة","address":{"state":"رأس الخيمة","ISO3166-2-lvl4":"AE-RK","country":"الإمارات العربية المتحدة","country_code":"ae"},"osm_type":"way","osm_id":1360826498,"type":"hamlet","location":[56.04689485219666,25.7233926],"bbox":[56.0462459,25.7226305,56.0475687,25.7240674]}
{"display_name":"رأس الخيمة, الإمارات العربية المتحدة","address":{"state":"رأس الخيمة","ISO3166-2-lvl4":"AE-RK","country":"الإمارات العربية المتحدة","country_code":"ae"},"osm_type":"way","osm_id":1255456742,"type":"hamlet","location":[56.103791987023136,25.71485455],"bbox":[56.102358,25.7140885,56.1050159,25.7156809]}
{"display_name":"رأس الخيمة, الإمارات العربية المتحدة","address":{"state":"رأس الخيمة","ISO3166-2-lvl4":"AE-RK","country":"الإمارات العربية المتحدة","country_code":"ae"},"osm_type":"way","osm_id":1338825357,"type":"hamlet","location":[56.133966028921094,25.772855999999997],"bbox":[56.1336047,25.7725934,56.1357406,25.7730617]}
{"display_name":"رأس الخيمة, الإمارات العربية المتحدة","address":{"state":"رأس الخيمة","ISO3166-2-lvl4":"AE-RK","country":"الإمارات العربية المتحدة","country_code":"ae"},"osm_type":"way","osm_id":1335314701,"type":"hamlet","location":[56.10585151180433,25.7655472],"bbox":[56.104989,25.765214,56.1067452,25.7658748]}
{"display_name":"رأس الخيمة, الإمارات العربية المتحدة","address":{"state":"رأس الخيمة","ISO3166-2-lvl4":"AE-RK","country":"الإمارات العربية المتحدة","country_code":"ae"},"osm_type":"way","osm_id":1255694338,"type":"hamlet","location":[56.076521081641005,25.7693586],"bbox":[56.0739528,25.7670216,56.0787647,25.7718351]}
{"name":"كابر","other_names":{"name:ar":"كابر","name:en":"Kabir"},"display_name":"كابر, أم القيوين, الإمارات العربية المتحدة","address":{"hamlet":"كابر","state":"أم القيوين","ISO3166-2-lvl4":"AE-UQ","country":"الإمارات العربية المتحدة","country_code":"ae"},"osm_type":"node","osm_id":1588385165,"type":"hamlet","location":[55.705133,25.432204],"bbox":[55.685133,25.412204,55.725133,25.452204]}
{"display_name":"مَدينة زايد العسكرية, أبوظبي, أبو ظبي, الإمارات العربية المتحدة","address":{"city":"مَدينة زايد العسكرية","county":"أبوظبي","state":"أبو ظبي","ISO3166-2-lvl4":"AE-AZ","country":"الإمارات العربية المتحدة","country_code":"ae"},"osm_type":"node","osm_id":2546636388,"type":"hamlet","location":[54.7960738,24.6077194],"bbox":[54.7760738,24.5877194,54.8160738,24.6277194]}
{"name":"منطقة الحزان","other_names":{"name:ar":"منطقة الحزان","name:en":"Al Hazzan Area"},"display_name":"منطقة الحزان, لعطين, أم القيوين, الإمارات العربية المتحدة","address":{"hamlet":"منطقة الحزان","suburb":"لعطين","city":"أم القيوين","state":"أم القيوين","ISO3166-2-lvl4":"AE-UQ","country":"الإمارات العربية المتحدة","country_code":"ae"},"osm_type":"node","osm_id":2145080044,"type":"hamlet","location":[55.5785765,25.5236201],"bbox":[55.5585765,25.5036201,55.5985765,25.5436201]}
{"name":"ميدرة","other_names":{"name:ar":"ميدرة","name:en":"Maydarah"},"display_name":"ميدرة, الجزيرة الحمرة, Khuzam, رأس الخيمة, الإمارات العربية المتحدة","address":{"hamlet":"ميدرة","suburb":"الجزيرة الحمرة","city":"Khuzam","state":"رأس الخيمة","ISO3166-2-lvl4":"AE-RK","country":"الإمارات العربية المتحدة","country_code":"ae"},"osm_type":"node","osm_id":2325603721,"type":"hamlet","location":[55.8322076,25.6800928],"bbox":[55.8122076,25.6600928,55.8522076,25.7000928]}
{"name":"هيليك","other_names":{"name:ar":"هيليك","name:de":"Helek","name:en":"Helek","name:es":"Helek","name:fr":"Helek"},"display_name":"هيليك, Khor Khwair خور خوير, رأس الخيمة, الإمارات العربية المتحدة","address":{"hamlet":"هيليك","city":"Khor Khwair خور خوير","state":"رأس الخيمة","ISO3166-2-lvl4":"AE-RK","country":"الإمارات العربية المتحدة","country_code":"ae"},"osm_type":"node","osm_id":10605298558,"type":"hamlet","location":[56.1539307,25.8832732],"bbox":[56.1339307,25.8632732,56.1739307,25.9032732]}
