{"name":"Berekua","other_names":{"name:en":"Berekua","alt_name":"Grand Bay"},"display_name":"Berekua, Saint Patrick Parish, Dominica","address":{"town":"Berekua","state":"Saint Patrick Parish","ISO3166-2-lvl4":"DM-09","country":"Dominica","country_code":"dm"},"population":2134,"osm_type":"node","osm_id":242414515,"type":"town","location":[-61.3153342,15.239927],"bbox":[-61.3553342,15.199927,-61.2753342,15.279927]}
{"name":"Canefield","display_name":"Canefield, Saint Paul Parish, Dominica","address":{"town":"Canefield","state":"Saint Paul Parish","ISO3166-2-lvl4":"DM-10","country":"Dominica","country_code":"dm"},"osm_type":"node","osm_id":242414054,"type":"town","location":[-61.3886297,15.3380393],"bbox":[-61.4286297,15.2980393,-61.3486297,15.3780393]}
{"name":"Colihaut","display_name":"Colihaut, Saint Peter Parish, Dominica","address":{"town":"Colihaut","state":"Saint Peter Parish","ISO3166-2-lvl4":"DM-11","country":"Dominica","country_code":"dm"},"population":679,"osm_type":"node","osm_id":246579112,"type":"town","location":[-61.4624925,15.4854849],"bbox":[-61.5024925,15.4454849,-61.4224925,15.5254849]}
{"name":"Mahaut","other_names":{"name:en":"Mahaut","name:gcf":"Mawo"},"display_name":"Mahaut, Saint Paul Parish, Dominica","address":{"town":"Mahaut","state":"Saint Paul Parish","ISO3166-2-lvl4":"DM-10","country":"Dominica","country_code":"dm"},"population":2113,"osm_type":"node","osm_id":242414057,"type":"town","location":[-61.3974541,15.3633066],"bbox":[-61.4374541,15.3233066,-61.3574541,15.4033066]}
{"name":"Pointe Michel","other_names":{"name:en":"Pointe Michel","name:gcf":"Pwent Michèl"},"display_name":"Pointe Michel, Saint Luke Parish, Dominica","address":{"town":"Pointe Michel","state":"Saint Luke Parish","ISO3166-2-lvl4":"DM-07","country":"Dominica","country_code":"dm"},"population":1664,"osm_type":"node","osm_id":240266371,"type":"town","location":[-61.376678,15.2604939],"bbox":[-61.416678,15.2204939,-61.336678,15.3004939]}
{"name":"Portsmouth","display_name":"Portsmouth, Saint John Parish, Dominica","address":{"town":"Portsmouth","state":"Saint John Parish","ISO3166-2-lvl4":"DM-05","country":"Dominica","country_code":"dm"},"osm_type":"node","osm_id":5486352294,"type":"town","location":[-61.455588,15.575915],"bbox":[-61.495588,15.535915,-61.415588,15.615915],"border":{"name":"Portsmouth","display_name":"Portsmouth, Saint John Parish, Dominica","address":{"town":"Portsmouth","state":"Saint John Parish","ISO3166-2-lvl4":"DM-05","country":"Dominica","country_code":"dm"},"osm_type":"way","osm_id":133470397,"type":"town","location":[-61.455588,15.575915],"bbox":[-61.4616077,15.5712887,-61.4484957,15.5868352]}}
{"name":"Roseau","other_names":{"name:af":"Roseau","name:am":"ሮዞ","name:ar":"روسو","name:ay":"Roseau","name:az":"Rozo","name:be":"Горад Разо","name:bg":"Розо","name:bo":"རུ་ཟོ།","name:br":"Roseau","name:bs":"Roseau","name:ca":"Roseau","name:ce":"Розо","name:cs":"Roseau","name:cy":"Roseau","name:da":"Roseau","name:de":"Roseau","name:el":"Ροζό","name:en":"Roseau","name:eo":"Roseo","name:es":"Roseau","name:et":"Roseau","name:eu":"Roseau","name:fi":"Roseau","name:fr":"Roseau","name:fy":"Roseau","name:ga":"Roseau","name:gd":"Roseau","name:gl":"Roseau","name:he":"רוזו","name:hr":"Roseau","name:ht":"Rozo","name:hu":"Roseau","name:hy":"Ռոզո","name:id":"Roseau","name:io":"Roseau","name:is":"Roseau","name:it":"Roseau","name:ja":"ロゾー","name:ka":"როზო","name:ko":"로조","name:ky":"Розо","name:lt":"Rozo","name:lv":"Rozo","name:mk":"Розо","name:mr":"रुसाउ","name:nb":"Roseau","name:nl":"Roseau","name:nn":"Roseau","name:no":"Roseau","name:oc":"Roseau","name:os":"Розо","name:pa":"ਰੋਜ਼ੋ","name:pl":"Roseau","name:pt":"Roseau","name:ro":"Roseau","name:ru":"Розо","name:sh":"Roseau","name:sk":"Roseau","name:sn":"Roseau","name:sq":"Roseau","name:sr":"Розо","name:sv":"Roseau","name:sw":"Roseau","name:ta":"உறொசோ","name:th":"โรโซ","name:tl":"Roseau","name:tr":"Roseau","name:uk":"Розо","name:uz":"Rozo","name:vi":"Roseau","name:yo":"Roseau","name:zh":"羅索","name:gcf":"Rozo"},"display_name":"Roseau, Saint George Parish, Dominica","address":{"town":"Roseau","county":"Roseau","state":"Saint George Parish","ISO3166-2-lvl4":"DM-04","country":"Dominica","country_code":"dm"},"population":15000,"osm_type":"node","osm_id":4950552057,"type":"town","location":[-61.3872868,15.2991923],"bbox":[-61.4272868,15.2591923,-61.3472868,15.3391923],"border":{"name":"Roseau","display_name":"Roseau, Saint George Parish, Dominica","address":{"county":"Roseau","state":"Saint George Parish","ISO3166-2-lvl4":"DM-04","country":"Dominica","country_code":"dm"},"osm_type":"relation","osm_id":14032396,"type":"administrative","location":[-61.37624486999658,15.30510855],"bbox":[-61.3909778,15.2913865,-61.3619578,15.3189768]}}
{"name":"Saint Joseph","other_names":{"name:en":"Saint Joseph","name:zh":"聖約瑟夫","alt_name":"St. Joseph"},"display_name":"Saint Joseph, Saint Joseph Parish, Dominica","address":{"town":"Saint Joseph","state":"Saint Joseph Parish","ISO3166-2-lvl4":"DM-06","country":"Dominica","country_code":"dm"},"population":1746,"osm_type":"node","osm_id":245923286,"type":"town","location":[-61.4239093,15.4063155],"bbox":[-61.4639093,15.3663155,-61.3839093,15.4463155]}
