{"name":"Aspang-Markt","other_names":{"name:de":"Aspang-Markt","alt_name":"Aspang"},"display_name":"Aspang-Markt, Bezirk Neunkirchen, Niederösterreich, 2780, Österreich","address":{"city":"Aspang-Markt","county":"Bezirk Neunkirchen","state":"Niederösterreich","ISO3166-2-lvl4":"AT-3","postcode":"2780","country":"Österreich","country_code":"at"},"osm_type":"relation","osm_id":910594,"type":"administrative","location":[16.091602470349354,47.55210945],"bbox":[16.0602919,47.5278582,16.1114489,47.5763666],"inferred_type":"city"}
{"name":"Aspangberg-St. Peter","display_name":"Aspangberg-St. Peter, Bezirk Neunkirchen, Niederösterreich, 2870, Österreich","address":{"city":"Aspangberg-St. Peter","county":"Bezirk Neunkirchen","state":"Niederösterreich","ISO3166-2-lvl4":"AT-3","postcode":"2870","country":"Österreich","country_code":"at"},"population":2049,"osm_type":"relation","osm_id":83775,"type":"administrative","location":[15.994065229722601,47.55328015],"bbox":[15.9023368,47.5139002,16.1311456,47.592609],"inferred_type":"city"}
{"name":"Bergern im Dunkelsteinerwald","other_names":{"name:de":"Bergern im Dunkelsteinerwald","official_name":"Bergern im Dunkelsteinerwald"},"display_name":"Bergern im Dunkelsteinerwald, Bezirk Krems, Niederösterreich, Österreich","address":{"city":"Bergern im Dunkelsteinerwald","county":"Bezirk Krems","state":"Niederösterreich","ISO3166-2-lvl4":"AT-3","country":"Österreich","country_code":"at"},"osm_type":"relation","osm_id":545987,"type":"administrative","location":[15.505632564807692,48.3459461],"bbox":[15.4284759,48.3069372,15.5717274,48.3847922],"inferred_type":"city"}
{"name":"Bildein","other_names":{"name:de":"Bildein","name:hu":"Beled"},"display_name":"Bildein, Bezirk Güssing, Burgenland, 7521, Österreich","address":{"city":"Bildein","county":"Bezirk Güssing","state":"Burgenland","ISO3166-2-lvl4":"AT-1","postcode":"7521","country":"Österreich","country_code":"at"},"osm_type":"relation","osm_id":109544,"type":"administrative","location":[16.48562891240856,47.133239950000004],"bbox":[16.4415931,47.1174338,16.5293271,47.1495614],"inferred_type":"city"}
{"name":"Burgauberg-Neudauberg","other_names":{"name:de":"Burgauberg-Neudauberg","name:hu":"Burgóhegy-Magashegy"},"display_name":"Burgauberg-Neudauberg, Bezirk Güssing, Burgenland, 7574, Österreich","address":{"city":"Burgauberg-Neudauberg","county":"Bezirk Güssing","state":"Burgenland","ISO3166-2-lvl4":"AT-1","postcode":"7574","country":"Österreich","country_code":"at"},"osm_type":"relation","osm_id":109734,"type":"administrative","location":[16.124122136303342,47.15774855],"bbox":[16.1021771,47.1308555,16.1426146,47.1846583],"inferred_type":"city"}
{"name":"Deutsch Schützen-Eisenberg","other_names":{"name:de":"Deutsch Schützen-Eisenberg","name:hr":"Livio","name:hu":"Németlövő-Csejke"},"display_name":"Deutsch Schützen-Eisenberg, Bezirk Oberwart, Burgenland, 7474, Österreich","address":{"city":"Deutsch Schützen-Eisenberg","county":"Bezirk Oberwart","state":"Burgenland","ISO3166-2-lvl4":"AT-1","postcode":"7474","country":"Österreich","country_code":"at"},"osm_type":"relation","osm_id":185387,"type":"administrative","location":[16.43462698425938,47.15869355],"bbox":[16.3924827,47.1180708,16.4643423,47.1991628],"inferred_type":"city"}
{"name":"Ehenbichl","other_names":{"name:de":"Ehenbichl","official_name":"Gemeinde Ehenbichl"},"display_name":"Ehenbichl, Bezirk Reutte, Tirol, Österreich","address":{"city":"Ehenbichl","county":"Bezirk Reutte","state":"Tirol","ISO3166-2-lvl4":"AT-7","country":"Österreich","country_code":"at"},"osm_type":"relation","osm_id":37467,"type":"administrative","location":[10.682567143497435,47.4584107],"bbox":[10.6441249,47.4369455,10.7243343,47.4800203],"inferred_type":"city"}
{"name":"Eisenkappel-Vellach","other_names":{"name:de":"Eisenkappel-Vellach","name:sl":"Železna Kapla-Bela"},"display_name":"Eisenkappel-Vellach, Bezirk Völkermarkt, Kärnten, 9135, Österreich","address":{"city":"Eisenkappel-Vellach","county":"Bezirk Völkermarkt","state":"Kärnten","ISO3166-2-lvl4":"AT-2","postcode":"9135","country":"Österreich","country_code":"at"},"osm_type":"relation","osm_id":317992,"type":"administrative","location":[14.56467274396056,46.45608545],"bbox":[14.4301403,46.3722987,14.759093,46.5399041],"inferred_type":"city"}
{"name":"Ellbögen","other_names":{"name:de":"Ellbögen","official_name":"Gemeinde Ellbögen"},"display_name":"Ellbögen, Bezirk Innsbruck-Land, Tirol, 6083, Österreich","address":{"city":"Ellbögen","county":"Bezirk Innsbruck-Land","state":"Tirol","ISO3166-2-lvl4":"AT-7","postcode":"6083","country":"Österreich","country_code":"at"},"osm_type":"relation","osm_id":78337,"type":"administrative","location":[11.481965913116952,47.18714275],"bbox":[11.4200094,47.1608963,11.5457085,47.2135984],"inferred_type":"city"}
{"name":"Frankenau-Unterpullendorf/Frakanava-Dolnja Pulja","other_names":{"name:de":"Frankenau-Unterpullendorf","name:hr":"Frakanava-Dolnja Pulja","name:hu":"Frankó-Alsópulya"},"display_name":"Frankenau-Unterpullendorf/Frakanava-Dolnja Pulja, Bezirk Oberpullendorf, Burgenland, 7452, Österreich","address":{"city":"Frankenau-Unterpullendorf/Frakanava-Dolnja Pulja","county":"Bezirk Oberpullendorf","state":"Burgenland","ISO3166-2-lvl4":"AT-1","postcode":"7452","country":"Österreich","country_code":"at"},"osm_type":"relation","osm_id":109537,"type":"administrative","location":[16.567944236597857,47.459547799999996],"bbox":[16.5164797,47.4221289,16.6174363,47.4968841],"inferred_type":"city"}
{"name":"Gaimberg","other_names":{"name:de":"Gaimberg","official_name":"Gemeinde Gaimberg"},"display_name":"Gaimberg, Bezirk Lienz, Tirol, 9905, Österreich","address":{"city":"Gaimberg","county":"Bezirk Lienz","state":"Tirol","ISO3166-2-lvl4":"AT-7","postcode":"9905","country":"Österreich","country_code":"at"},"osm_type":"relation","osm_id":1020829,"type":"administrative","location":[12.786594902836882,46.853196350000005],"bbox":[12.7603309,46.8335224,12.8057284,46.8727999],"inferred_type":"city"}
{"name":"Gerersdorf-Sulz","other_names":{"name:de":"Gerersdorf-Sulz","name:hu":"Németszentgrót-Sóskut"},"display_name":"Gerersdorf-Sulz, Bezirk Güssing, Burgenland, 7542, Österreich","address":{"city":"Gerersdorf-Sulz","county":"Bezirk Güssing","state":"Burgenland","ISO3166-2-lvl4":"AT-1","postcode":"7542","country":"Österreich","country_code":"at"},"osm_type":"relation","osm_id":109726,"type":"administrative","location":[16.25869189870641,47.0733116],"bbox":[16.2205596,47.0423176,16.2850004,47.1044515],"inferred_type":"city"}
{"name":"Gerlosberg","other_names":{"name:de":"Gerlosberg","official_name":"Gemeinde Gerlosberg"},"display_name":"Gerlosberg, Bezirk Schwaz, Tirol, Österreich","address":{"city":"Gerlosberg","county":"Bezirk Schwaz","state":"Tirol","ISO3166-2-lvl4":"AT-7","country":"Österreich","country_code":"at"},"osm_type":"relation","osm_id":80183,"type":"administrative","location":[11.953669467375548,47.23194245],"bbox":[11.8875733,47.210029,11.987303,47.2537284],"inferred_type":"city"}
{"name":"Going am Wilden Kaiser","other_names":{"name:de":"Going am Wilden Kaiser","official_name":"Gemeinde Going am Wilden Kaiser"},"display_name":"Going am Wilden Kaiser, Bezirk Kitzbühel, Tirol, 6353, Österreich","address":{"city":"Going am Wilden Kaiser","county":"Bezirk Kitzbühel","state":"Tirol","ISO3166-2-lvl4":"AT-7","postcode":"6353","country":"Österreich","country_code":"at"},"osm_type":"relation","osm_id":85655,"type":"administrative","location":[12.345026270277598,47.53295955],"bbox":[12.3137993,47.499834,12.3757526,47.5661165],"inferred_type":"city"}
{"name":"Graz","other_names":{"name:am":"ግራጽ","name:ar":"غراتس","name:az":"Qrats","name:ba":"Грац","name:be":"Грац","name:bg":"Грац","name:bn":"গ্রাৎস","name:ce":"Грац","name:cs":"Štýrský Hradec","name:cv":"Грац","name:de":"Graz","name:el":"Γκρατς","name:en":"Graz","name:fa":"گراتس","name:fr":"Graz","name:he":"גראץ","name:hr":"Graz","name:hu":"Grác","name:hy":"Գրաց","name:ja":"グラーツ","name:ka":"გრაცი","name:ko":"그라츠","name:la":"Graecia","name:lt":"Gracas","name:lv":"Grāca","name:mk":"Грац","name:ml":"ഗ്രാസ്","name:mn":"Грац","name:mr":"ग्रात्स","name:os":"Грац","name:ps":"گراڅ","name:ro":"Graz","name:ru":"Грац","name:sd":"گراتس","name:sl":"Gradec","name:sq":"Grac","name:sr":"Грац","name:ta":"க்ராத்ஸ்","name:tg":"Грас","name:th":"กราทซ์","name:tt":"Грац","name:ug":"گراز","name:uk":"Грац","name:ur":"گراتز","name:uz":"Grats","name:yi":"גראץ","name:zh":"格拉茨","name:hsb":"Štyrski Hródk","name:rmc":"Gereci","alt_name:hr":"Gradac","alt_name:la":"Graecium","alt_name:mk":"Градец","old_name:hr":"Gradac;Štajerski Gradac","name:zh-Hans":"格拉茨","name:zh-Hant":"格拉茨","name:be-tarask":"Грац"},"display_name":"Graz, Steiermark, Österreich","address":{"city":"Graz","state":"Steiermark","ISO3166-2-lvl4":"AT-6","country":"Österreich","country_code":"at"},"population":331359,"osm_type":"node","osm_id":21015489,"type":"city","location":[15.4382786,47.0708678],"bbox":[15.2782786,46.9108678,15.5982786,47.2308678],"border":{"name":"Graz","other_names":{"name:de":"Graz","name:ru":"Грац","name:zh":"格拉茨","name:zh-Hant":"格拉茲","name:am":"ግራጽ","name:ar":"غراتس","name:az":"Qrats","name:ba":"Грац","name:be":"Грац","name:bg":"Грац","name:bn":"গ্রাৎস","name:ce":"Грац","name:cs":"Štýrský Hradec","name:cv":"Грац","name:el":"Γκρατς","name:en":"Graz","name:fa":"گراتس","name:fr":"Graz","name:he":"גראץ","name:hr":"Graz","name:hu":"Grác","name:hy":"Գրաց","name:ja":"グラーツ","name:ka":"გრაცი","name:ko":"그라츠","name:la":"Graecia","name:lt":"Gracas","name:lv":"Grāca","name:mk":"Грац","name:ml":"ഗ്രാസ്","name:mn":"Грац","name:mr":"ग्रात्स","name:os":"Грац","name:ps":"گراڅ","name:ro":"Graz","name:sd":"گراتس","name:sl":"Gradec","name:sq":"Grac","name:sr":"Грац","name:ta":"க்ராத்ஸ்","name:tg":"Грас","name:th":"กราทซ์","name:tt":"Грац","name:ug":"گراز","name:uk":"Грац","name:ur":"گراتز","name:uz":"Grats","name:yi":"גראץ","name:hsb":"Štyrski Hródk","name:rmc":"Gereci","alt_name:hr":"Gradac","alt_name:la":"Graecium","alt_name:mk":"Градец","old_name:hr":"Gradac;Štajerski Gradac","name:zh-Hans":"格拉茨","name:be-tarask":"Грац","alt:zh-Hant":"格拉茨"},"display_name":"Graz, Steiermark, Österreich","address":{"city":"Graz","state":"Steiermark","ISO3166-2-lvl4":"AT-6","country":"Österreich","country_code":"at"},"population":331359,"osm_type":"relation","osm_id":34719,"type":"administrative","location":[15.4382786,47.0708678],"bbox":[15.3497141,47.0118864,15.5342006,47.1345]}}
{"name":"Großkirchheim","display_name":"Großkirchheim, Bezirk Spittal an der Drau, Kärnten, Österreich","address":{"city":"Großkirchheim","county":"Bezirk Spittal an der Drau","state":"Kärnten","ISO3166-2-lvl4":"AT-2","country":"Österreich","country_code":"at"},"population":1307,"osm_type":"relation","osm_id":384241,"type":"administrative","location":[12.897710039688793,46.993608449999996],"bbox":[12.7595158,46.9383146,13.0047153,47.0492627],"inferred_type":"city"}
{"name":"Hermagor-Pressegger See","other_names":{"name:de":"Hermagor-Pressegger See","name:sl":"Šmohor-Preseško jezero"},"display_name":"Hermagor-Pressegger See, Bezirk Hermagor, Kärnten, Österreich","address":{"city":"Hermagor-Pressegger See","county":"Bezirk Hermagor","state":"Kärnten","ISO3166-2-lvl4":"AT-2","country":"Österreich","country_code":"at"},"osm_type":"relation","osm_id":377327,"type":"administrative","location":[13.355188956890357,46.6126272],"bbox":[13.1683819,46.5512291,13.4947536,46.6743274],"inferred_type":"city"}
{"name":"Höflein an der Hohen Wand","other_names":{"name:de":"Höflein an der Hohen Wand","short_name":"Gemeinde Höflein"},"display_name":"Höflein an der Hohen Wand, Bezirk Neunkirchen, Niederösterreich, Österreich","address":{"city":"Höflein an der Hohen Wand","county":"Bezirk Neunkirchen","state":"Niederösterreich","ISO3166-2-lvl4":"AT-3","country":"Österreich","country_code":"at"},"osm_type":"relation","osm_id":111113,"type":"administrative","location":[16.022638558550366,47.799619],"bbox":[16.0021048,47.7815461,16.0508585,47.8178987],"inferred_type":"city"}
{"name":"Innsbruck","other_names":{"name:ar":"إنسبروك","name:az":"İnsbruk","name:be":"Інсбрук","name:bg":"Инсбрук","name:bn":"ইন্সব্রুক","name:cs":"Innsbruck","name:cv":"Инсбрук","name:de":"Innsbruck","name:el":"Ίνσμπρουκ","name:en":"Innsbruck","name:fa":"اینسبروک","name:fr":"Innsbruck","name:he":"אינסברוק","name:hu":"Innsbruck","name:it":"Innsbruck","name:ja":"インスブルック","name:ka":"ინსბრუკი","name:kk":"Инсбрук","name:ko":"인스브루크","name:la":"Pons Aeni","name:lt":"Insbrukas","name:lv":"Insbruka","name:mk":"Инсбрук","name:ml":"ഇൻസ്ബ്രൂക്ക്","name:mr":"इन्सब्रुक","name:os":"Инсбрук","name:rm":"Puntina","name:ru":"Инсбрук","name:sr":"Инзбрук","name:th":"อินส์บรุค","name:tr":"İnnsbruck","name:uk":"Інсбрук","name:zh":"因斯布鲁克","name:bar":"Innschbrugg","name:lld":"Dispruch","alt_name:cs":"Inomostí","old_name:hr":"Inomost;Inšpruk","old_name:it":"Ponte sull'Eno","old_name:sl":"Inomost;Inšpruk","name:zh-Hant":"因斯布魯克","name:be-tarask":"Інсбрук"},"display_name":"Innsbruck, Tirol, Österreich","address":{"city":"Innsbruck","state":"Tirol","ISO3166-2-lvl4":"AT-7","country":"Österreich","country_code":"at"},"population":130585,"osm_type":"node","osm_id":34840064,"type":"city","location":[11.3927685,47.2654296],"bbox":[11.2327685,47.1054296,11.5527685,47.4254296],"border":[{"name":"Innsbruck","other_names":{"ref":"I","name:cs":"Innsbruck","name:de":"Innsbruck","name:ru":"Инсбрук","alt_name":"Statutarstadt Innsbruck","name:lld":"Dispruch","alt_name:cs":"Inšpruk","official_name":"Stadt Innsbruck","name:ar":"إنسبروك","name:az":"İnsbruk","name:be":"Інсбрук","name:bg":"Инсбрук","name:bn":"ইন্সব্রুক","name:cv":"Инсбрук","name:el":"Ίνσμπρουκ","name:en":"Innsbruck","name:fa":"اینسبروک","name:fr":"Innsbruck","name:he":"אינסברוק","name:hu":"Innsbruck","name:it":"Innsbruck","name:ja":"インスブルック","name:ka":"ინსბრუკი","name:kk":"Инсбрук","name:ko":"인스브루크","name:la":"Pons Aeni","name:lt":"Insbrukas","name:lv":"Insbruka","name:mk":"Инсбрук","name:ml":"ഇൻസ്ബ്രൂക്ക്","name:mr":"इन्सब्रुक","name:os":"Инсбрук","name:rm":"Puntina","name:sr":"Инзбрук","name:th":"อินส์บรุค","name:tr":"İnnsbruck","name:uk":"Інсбрук","name:zh":"因斯布鲁克","name:bar":"Innschbrugg","_place_alt_name:cs":"Inomostí","old_name:hr":"Inomost;Inšpruk","old_name:it":"Ponte sull'Eno","old_name:sl":"Inomost;Inšpruk","name:zh-Hant":"因斯布魯克","name:be-tarask":"Інсбрук"},"display_name":"Innsbruck, Tirol, Österreich","address":{"city":"Innsbruck","state":"Tirol","ISO3166-2-lvl4":"AT-7","country":"Österreich","country_code":"at"},"population":130585,"osm_type":"relation","osm_id":4835169,"type":"administrative","location":[11.3927685,47.2654296],"bbox":[11.3016374,47.2107727,11.4559615,47.3601261]},{"name":"Innsbruck","other_names":{"name:cs":"Innsbruck","name:de":"Innsbruck","alt_name:cs":"Inšpruk"},"display_name":"Innsbruck, Tirol, Österreich","address":{"city_district":"Innsbruck","city":"Innsbruck","state":"Tirol","ISO3166-2-lvl4":"AT-7","country":"Österreich","country_code":"at"},"osm_type":"relation","osm_id":8182617,"type":"administrative","location":[11.397137204221064,47.26951525],"bbox":[11.3811871,47.2583715,11.4181209,47.2808566]}]}
{"name":"Iselsberg-Stronach","other_names":{"name:de":"Iselsberg-Stronach","official_name":"Gemeinde Iselsberg-Stronach"},"display_name":"Iselsberg-Stronach, Bezirk Lienz, Tirol, 9992, Österreich","address":{"city":"Iselsberg-Stronach","county":"Bezirk Lienz","state":"Tirol","ISO3166-2-lvl4":"AT-7","postcode":"9992","country":"Österreich","country_code":"at"},"osm_type":"relation","osm_id":1020719,"type":"administrative","location":[12.840795422552784,46.86987605],"bbox":[12.8137791,46.8226751,12.8956044,46.9170282],"inferred_type":"city"}
{"name":"Kaunertal","other_names":{"name:de":"Kaunertal","official_name":"Gemeinde Kaunertal"},"display_name":"Kaunertal, Bezirk Landeck, Tirol, 6524, Österreich","address":{"city":"Kaunertal","county":"Bezirk Landeck","state":"Tirol","ISO3166-2-lvl4":"AT-7","postcode":"6524","country":"Österreich","country_code":"at"},"population":593,"osm_type":"relation","osm_id":77823,"type":"administrative","location":[10.734868453783353,46.9470059],"bbox":[10.6615591,46.822513,10.8216248,47.0718524],"inferred_type":"city"}
{"name":"Klagenfurt","other_names":{"name:ar":"كلاغنفورت","name:be":"Клагенфурт","name:bs":"Celovec","name:cs":"Celovec","name:de":"Klagenfurt","name:en":"Klagenfurt","name:es":"Klagenfurt","name:fr":"Klagenfurt","name:hr":"Klagenfurt","name:hu":"Klagenfurt","name:ja":"クラーゲンフルト・アム・ヴェルターゼー","name:ka":"კლაგენფურთი;ცელოვწი","name:la":"Clagenfurtum","name:lt":"Clanforte","name:lv":"Klāgenfurte","name:mk":"Клагенфурт","name:ml":"ക്ലാഗൻഫുർട്ട്","name:ru":"Клагенфурт","name:sl":"Celovec ob Vrbskem jezeru","name:sr":"Клагенфурт","name:uk":"Клагенфурт","name:fur":"Clanfurt","name:hsb":"Celowc","alt_name:hr":"Celovac","old_name:cs":"Celovec","official_name":"Klagenfurt am Wörthersee","name:be-tarask":"Клягенфурт","official_name:de":"Klagenfurt am Wörthersee"},"display_name":"Klagenfurt, Klagenfurt am Wörthersee, Kärnten, 9020, Österreich","address":{"city":"Klagenfurt","state":"Kärnten","ISO3166-2-lvl4":"AT-2","postcode":"9020","country":"Österreich","country_code":"at"},"population":100316,"osm_type":"node","osm_id":29777988,"type":"city","location":[14.3075976,46.623943],"bbox":[14.1475976,46.463943,14.4675976,46.783943],"border":[{"name":"Bezirk Klagenfurt-Land","other_names":{"ref":"KL","name:de":"Bezirk Klagenfurt-Land","name:ru":"Клагенфурт","name:sl":"Celovec (okraj)"},"display_name":"Bezirk Klagenfurt-Land, Kärnten, Österreich","address":{"county":"Bezirk Klagenfurt-Land","state":"Kärnten","ISO3166-2-lvl4":"AT-2","country":"Österreich","country_code":"at"},"osm_type":"relation","osm_id":69648,"type":"administrative","location":[14.15084119791123,46.582138400000005],"bbox":[14.0482087,46.4304037,14.5428945,46.733819]},{"name":"Klagenfurt am Wörthersee","other_names":{"ref":"K","name:de":"Klagenfurt am Wörthersee","name:it":"Clanforte","name:ja":"クラーゲンフルト・アム・ヴェルターゼー","name:sl":"Celovec","name:zh":"克拉根福","name:fur":"Clanfurt","name:ar":"كلاغنفورت","name:be":"Клагенфурт","name:bs":"Celovec","name:cs":"Celovec","name:en":"Klagenfurt","name:es":"Klagenfurt","name:fr":"Klagenfurt","name:hr":"Klagenfurt","name:hu":"Klagenfurt","name:ka":"კლაგენფურთი;ცელოვწი","name:la":"Clagenfurtum","name:lt":"Clanforte","name:lv":"Klāgenfurte","name:mk":"Клагенфурт","name:ml":"ക്ലാഗൻഫുർട്ട്","name:ru":"Клагенфурт","name:sr":"Клагенфурт","name:uk":"Клагенфурт","name:hsb":"Celowc","alt_name:hr":"Celovac","old_name:cs":"Celovec","official_name":"Klagenfurt am Wörthersee","name:be-tarask":"Клягенфурт","official_name:de":"Klagenfurt am Wörthersee","alt":"Klagenfurt","alt:de":"Klagenfurt","alt:sl":"Celovec ob Vrbskem jezeru"},"display_name":"Klagenfurt am Wörthersee, Kärnten, Österreich","address":{"city":"Klagenfurt am Wörthersee","state":"Kärnten","ISO3166-2-lvl4":"AT-2","country":"Österreich","country_code":"at"},"population":100316,"osm_type":"relation","osm_id":105870,"type":"administrative","location":[14.3075976,46.623943],"bbox":[14.2102806,46.5743838,14.416258,46.7087065]}]}
{"name":"Langkampfen","other_names":{"name:de":"Langkampfen","official_name":"Gemeinde Langkampfen"},"display_name":"Langkampfen, Bezirk Kufstein, Tirol, 6336, Österreich","address":{"city":"Langkampfen","county":"Bezirk Kufstein","state":"Tirol","ISO3166-2-lvl4":"AT-7","postcode":"6336","country":"Österreich","country_code":"at"},"osm_type":"relation","osm_id":554552,"type":"administrative","location":[12.079723948042025,47.55163005],"bbox":[12.0351321,47.5176539,12.1511047,47.5857027],"inferred_type":"city"}
{"name":"Linz","other_names":{"name:ar":"لنتس","name:az":"Lins","name:ba":"Линц","name:be":"Лінц","name:bg":"Линц","name:bn":"লিনৎস","name:ce":"Линц","name:cs":"Linec","name:de":"Linz","name:el":"Λιντς","name:en":"Linz","name:fa":"لینتس","name:fr":"Linz","name:he":"לינץ","name:hi":"लिंज़","name:hu":"Linz","name:hy":"Լինց","name:ja":"リンツ","name:ka":"ლინყი","name:ko":"린츠","name:ky":"Линц","name:la":"Lentia","name:lt":"Lincas","name:lv":"Linca","name:mk":"Линц","name:ml":"ലിൻ്റ്സ്","name:mn":"Линц","name:mr":"लिंत्स","name:os":"Линц","name:ps":"لینڅ","name:ro":"Linz","name:ru":"Линц","name:sc":"Linz","name:sq":"Linc","name:sr":"Линц","name:th":"ลินทซ์","name:tt":"Линц","name:uk":"Лінц","name:ur":"لینتس","name:uz":"Lins","name:yi":"לינץ","name:zh":"林茨","alt_name:mk":"Линец","name:be-tarask":"Лінц"},"display_name":"Linz, Oberösterreich, Österreich","address":{"city":"Linz","state":"Oberösterreich","ISO3166-2-lvl4":"AT-4","country":"Österreich","country_code":"at"},"population":207812,"osm_type":"node","osm_id":25181326,"type":"city","location":[14.286198,48.3059078],"bbox":[14.126198,48.1459078,14.446198,48.4659078],"border":{"name":"Linz","other_names":{"ref":"L","name:ar":"لنتس","name:de":"Linz","name:zh":"林茨","name:zh-Hant":"林茲","name:az":"Lins","name:ba":"Линц","name:be":"Лінц","name:bg":"Линц","name:bn":"লিনৎস","name:ce":"Линц","name:cs":"Linec","name:el":"Λιντς","name:en":"Linz","name:fa":"لینتس","name:fr":"Linz","name:he":"לינץ","name:hi":"लिंज़","name:hu":"Linz","name:hy":"Լինց","name:ja":"リンツ","name:ka":"ლინყი","name:ko":"린츠","name:ky":"Линц","name:la":"Lentia","name:lt":"Lincas","name:lv":"Linca","name:mk":"Линц","name:ml":"ലിൻ്റ്സ്","name:mn":"Линц","name:mr":"लिंत्स","name:os":"Линц","name:ps":"لینڅ","name:ro":"Linz","name:ru":"Линц","name:sc":"Linz","name:sq":"Linc","name:sr":"Линц","name:th":"ลินทซ์","name:tt":"Линц","name:uk":"Лінц","name:ur":"لینتس","name:uz":"Lins","name:yi":"לינץ","alt_name:mk":"Линец","name:be-tarask":"Лінц"},"display_name":"Linz, Oberösterreich, Österreich","address":{"city":"Linz","state":"Oberösterreich","ISO3166-2-lvl4":"AT-4","country":"Österreich","country_code":"at"},"population":207812,"osm_type":"relation","osm_id":86708,"type":"administrative","location":[14.286198,48.3059078],"bbox":[14.24572,48.2113712,14.4092169,48.3786926]}}
{"name":"Loipersdorf-Kitzladen","other_names":{"name:de":"Loipersdorf-Kitzladen","name:hu":"Lipótfalva-Kiczléd"},"display_name":"Loipersdorf-Kitzladen, Bezirk Oberwart, Burgenland, 7410, Österreich","address":{"city":"Loipersdorf-Kitzladen","county":"Bezirk Oberwart","state":"Burgenland","ISO3166-2-lvl4":"AT-1","postcode":"7410","country":"Österreich","country_code":"at"},"osm_type":"relation","osm_id":224347,"type":"administrative","location":[16.07203366031665,47.335230949999996],"bbox":[16.032748,47.3130415,16.1112232,47.356985],"inferred_type":"city"}
{"name":"Mieming","other_names":{"name:de":"Mieming","official_name":"Gemeinde Mieming"},"display_name":"Mieming, Bezirk Imst, Tirol, 6414, Österreich","address":{"city":"Mieming","county":"Bezirk Imst","state":"Tirol","ISO3166-2-lvl4":"AT-7","postcode":"6414","country":"Österreich","country_code":"at"},"osm_type":"relation","osm_id":944600,"type":"administrative","location":[10.965634411666404,47.341207600000004],"bbox":[10.9136952,47.2818556,11.0310973,47.3964414],"inferred_type":"city"}
{"name":"Niederndorferberg","other_names":{"name:de":"Niederndorferberg","official_name":"Gemeinde Niederndorferberg"},"display_name":"Niederndorferberg, Bezirk Kufstein, Tirol, 6346, Österreich","address":{"city":"Niederndorferberg","county":"Bezirk Kufstein","state":"Tirol","ISO3166-2-lvl4":"AT-7","postcode":"6346","country":"Österreich","country_code":"at"},"osm_type":"relation","osm_id":2168264,"type":"administrative","location":[12.227436598000502,47.6691067],"bbox":[12.1970498,47.6464707,12.2596225,47.6916671],"inferred_type":"city"}
{"name":"Pinswang","other_names":{"name:de":"Pinswang","official_name":"Gemeinde Pinswang"},"display_name":"Pinswang, Bezirk Reutte, Tirol, Österreich","address":{"city":"Pinswang","county":"Bezirk Reutte","state":"Tirol","ISO3166-2-lvl4":"AT-7","country":"Österreich","country_code":"at"},"osm_type":"relation","osm_id":37853,"type":"administrative","location":[10.690383269570443,47.5417074],"bbox":[10.6610477,47.5245266,10.7404478,47.5587703],"inferred_type":"city"}
{"name":"Prägraten am Großvenediger","other_names":{"name:de":"Prägraten am Großvenediger","official_name":"Gemeinde Prägraten am Großvenediger"},"display_name":"Prägraten am Großvenediger, Bezirk Lienz, Tirol, 9974, Österreich","address":{"city":"Prägraten am Großvenediger","county":"Bezirk Lienz","state":"Tirol","ISO3166-2-lvl4":"AT-7","postcode":"9974","country":"Österreich","country_code":"at"},"osm_type":"relation","osm_id":1019130,"type":"administrative","location":[12.312442589919092,47.03804265],"bbox":[12.1992671,46.9668025,12.4243328,47.1092705],"inferred_type":"city"}
{"name":"Salzburg","other_names":{"name:ar":"زالتسبورغ","name:az":"Zalsburq","name:bs":"Salzburg","name:cs":"Salcburk","name:de":"Salzburg","name:el":"Σάλτσμπουργκ","name:en":"Salzburg","name:es":"Salzburgo","name:fr":"Salzbourg","name:he":"זלצבורג","name:hr":"Salzburg","name:hu":"Salzburg","name:hy":"Զալցբուրգ","name:it":"Salisburgo","name:ka":"ზალცბურგი","name:ko":"짤츠부르크","name:la":"Salisburgum","name:lt":"Zalcburgas","name:lv":"Zalcburga","name:mk":"Салцбург","name:ml":"സാൽസ്ബർഗ്","name:ro":"Salzburg","name:ru":"Зальцбург","name:sk":"Soľnohrad","name:sl":"Salzburg","name:sr":"Салцбург","name:uk":"Зальцбург","name:zh":"萨尔茨堡","name:bar":"Soizburg","alt_name:cs":"Solnohrad","alt_name:mk":"Залцбург","old_name:sl":"Solnograd","name:zh-Hans":"萨尔茨堡","name:zh-Hant":"薩爾茨堡","name:be-tarask":"Зальцбург"},"display_name":"Salzburg, Österreich","address":{"city":"Salzburg","state":"Salzburg","ISO3166-2-lvl4":"AT-5","country":"Österreich","country_code":"at"},"population":152083,"osm_type":"node","osm_id":34964314,"type":"city","location":[13.0464806,47.7981346],"bbox":[12.8864806,47.6381346,13.2064806,47.9581346],"border":{"name":"Salzburg","other_names":{"ref":"S","name:ar":"زالتسبورغ","name:cs":"Salcburk","name:de":"Salzburg","name:eo":"Salcburgo","name:it":"Salisburgo","name:pt":"Salisburgo","alt_name:cs":"Solnohrad","name:az":"Zalsburq","name:bs":"Salzburg","name:el":"Σάλτσμπουργκ","name:en":"Salzburg","name:es":"Salzburgo","name:fr":"Salzbourg","name:he":"זלצבורג","name:hr":"Salzburg","name:hu":"Salzburg","name:hy":"Զալցբուրգ","name:ka":"ზალცბურგი","name:ko":"짤츠부르크","name:la":"Salisburgum","name:lt":"Zalcburgas","name:lv":"Zalcburga","name:mk":"Салцбург","name:ml":"സാൽസ്ബർഗ്","name:ro":"Salzburg","name:ru":"Зальцбург","name:sk":"Soľnohrad","name:sl":"Salzburg","name:sr":"Салцбург","name:uk":"Зальцбург","name:zh":"萨尔茨堡","name:bar":"Soizburg","alt_name:mk":"Залцбург","old_name:sl":"Solnograd","name:zh-Hans":"萨尔茨堡","name:zh-Hant":"薩爾茨堡","name:be-tarask":"Зальцбург"},"display_name":"Salzburg, 5020, Österreich","address":{"city":"Salzburg","state":"Salzburg","ISO3166-2-lvl4":"AT-5","postcode":"5020","country":"Österreich","country_code":"at"},"population":152083,"osm_type":"relation","osm_id":86538,"type":"administrative","location":[13.0464806,47.7981346],"bbox":[12.9856478,47.7512115,13.1275256,47.8543925]}}
{"name":"Sankt Egyden am Steinfeld","other_names":{"name:de":"Sankt Egyden am Steinfeld","short_name":"Gemeinde St. Egyden"},"display_name":"Sankt Egyden am Steinfeld, Bezirk Neunkirchen, Niederösterreich, 2731, Österreich","address":{"city":"Sankt Egyden am Steinfeld","county":"Bezirk Neunkirchen","state":"Niederösterreich","ISO3166-2-lvl4":"AT-3","postcode":"2731","country":"Österreich","country_code":"at"},"osm_type":"relation","osm_id":111136,"type":"administrative","location":[16.12176688031677,47.778118649999996],"bbox":[16.066697,47.7515701,16.178375,47.8048805],"inferred_type":"city"}
{"name":"Sankt Georgen am Ybbsfelde","other_names":{"name:de":"Sankt Georgen am Ybbsfelde","alt_name":"Gemeinde St. Georgen am Ybbsfelde","short_name":"Gemeinde St. Georgen"},"display_name":"Sankt Georgen am Ybbsfelde, Bezirk Amstetten, Niederösterreich, 3304, Österreich","address":{"city":"Sankt Georgen am Ybbsfelde","county":"Bezirk Amstetten","state":"Niederösterreich","ISO3166-2-lvl4":"AT-3","postcode":"3304","country":"Österreich","country_code":"at"},"osm_type":"relation","osm_id":131851,"type":"administrative","location":[14.949419444507331,48.13100385],"bbox":[14.9180519,48.0992028,14.9808027,48.1624067],"inferred_type":"city"}
{"name":"Sankt Jakob in Defereggen","other_names":{"name:de":"Sankt Jakob in Defereggen","official_name":"Gemeinde Sankt Jakob in Defereggen"},"display_name":"Sankt Jakob in Defereggen, Bezirk Lienz, Tirol, 9963, Österreich","address":{"city":"Sankt Jakob in Defereggen","county":"Bezirk Lienz","state":"Tirol","ISO3166-2-lvl4":"AT-7","postcode":"9963","country":"Österreich","country_code":"at"},"osm_type":"relation","osm_id":1019097,"type":"administrative","location":[12.262489752975402,46.94626505],"bbox":[12.1211839,46.865197,12.3750828,47.0273232],"inferred_type":"city"}
{"name":"Sankt Pantaleon-Erla","other_names":{"name:de":"Sankt Pantaleon-Erla","short_name":"Gemeinde St. Pantaleon-Erla"},"display_name":"Sankt Pantaleon-Erla, Bezirk Amstetten, Niederösterreich, 4303, Österreich","address":{"city":"Sankt Pantaleon-Erla","county":"Bezirk Amstetten","state":"Niederösterreich","ISO3166-2-lvl4":"AT-3","postcode":"4303","country":"Österreich","country_code":"at"},"osm_type":"relation","osm_id":907917,"type":"administrative","location":[14.569415884270539,48.203854449999994],"bbox":[14.514857,48.1696787,14.6232588,48.2379538],"inferred_type":"city"}
{"name":"Sankt Peter in der Au","other_names":{"name:de":"Sankt Peter in der Au","short_name":"Gemeinde St. Peter in der Au"},"display_name":"Sankt Peter in der Au, Bezirk Amstetten, Niederösterreich, 3352, Österreich","address":{"city":"Sankt Peter in der Au","county":"Bezirk Amstetten","state":"Niederösterreich","ISO3166-2-lvl4":"AT-3","postcode":"3352","country":"Österreich","country_code":"at"},"osm_type":"relation","osm_id":916338,"type":"administrative","location":[14.605713508763685,48.02338005],"bbox":[14.4909314,47.9478148,14.6570495,48.0987571],"inferred_type":"city"}
{"name":"Sankt Veit in Defereggen","other_names":{"name:de":"Sankt Veit in Defereggen","official_name":"Gemeinde Sankt Veit in Defereggen"},"display_name":"Sankt Veit in Defereggen, Bezirk Lienz, Tirol, 9962, Österreich","address":{"city":"Sankt Veit in Defereggen","county":"Bezirk Lienz","state":"Tirol","ISO3166-2-lvl4":"AT-7","postcode":"9962","country":"Österreich","country_code":"at"},"osm_type":"relation","osm_id":1019103,"type":"administrative","location":[12.404971599301351,46.9092457],"bbox":[12.320805,46.8680315,12.4919998,46.9501193],"inferred_type":"city"}
{"name":"Sankt Veit in der Südsteiermark","other_names":{"name:de":"Sankt Veit in der Südsteiermark","alt_name":"St. Veit in der Südsteiermark"},"display_name":"Sankt Veit in der Südsteiermark, Bezirk Leibnitz, Steiermark, Österreich","address":{"city":"Sankt Veit in der Südsteiermark","county":"Bezirk Leibnitz","state":"Steiermark","ISO3166-2-lvl4":"AT-6","country":"Österreich","country_code":"at"},"osm_type":"relation","osm_id":3827885,"type":"administrative","location":[15.667012686184467,46.77423895],"bbox":[15.5911221,46.7182085,15.7508248,46.8302489],"inferred_type":"city"}
{"name":"Semmering","other_names":{"name:de":"Semmering","alt_name":"Kurort Semmering"},"display_name":"Semmering, Bezirk Neunkirchen, Niederösterreich, 2680, Österreich","address":{"city":"Semmering","county":"Bezirk Neunkirchen","state":"Niederösterreich","ISO3166-2-lvl4":"AT-3","postcode":"2680","country":"Österreich","country_code":"at"},"osm_type":"relation","osm_id":103769,"type":"administrative","location":[15.80723481320653,47.63772535],"bbox":[15.781324,47.6181002,15.8500222,47.6573411],"inferred_type":"city"}
{"name":"St. Barbara im Mürztal","other_names":{"name:de":"St. Barbara im Mürztal","alt_name":"Sankt Barbara im Mürztal"},"display_name":"St. Barbara im Mürztal, Bezirk Bruck-Mürzzuschlag, Steiermark, Österreich","address":{"city":"St. Barbara im Mürztal","county":"Bezirk Bruck-Mürzzuschlag","state":"Steiermark","ISO3166-2-lvl4":"AT-6","country":"Österreich","country_code":"at"},"population":6793,"osm_type":"relation","osm_id":3912424,"type":"administrative","location":[15.464939783703702,47.57600445],"bbox":[15.389233,47.492253,15.548036,47.659782],"inferred_type":"city"}
{"name":"St. Bernhard-Frauenhofen","other_names":{"name:de":"St. Bernhard-Frauenhofen","alt_name":"Gemeinde Sankt Bernhard - Frauenhofen"},"display_name":"St. Bernhard-Frauenhofen, Bezirk Horn, Niederösterreich, 3580, Österreich","address":{"city":"St. Bernhard-Frauenhofen","county":"Bezirk Horn","state":"Niederösterreich","ISO3166-2-lvl4":"AT-3","postcode":"3580","country":"Österreich","country_code":"at"},"osm_type":"relation","osm_id":402827,"type":"administrative","location":[15.597785755208951,48.6877091],"bbox":[15.5357008,48.6570156,15.6435936,48.718213],"inferred_type":"city"}
{"name":"Steinberg-Dörfl","other_names":{"name:de":"Steinberg-Dörfl","name:hr":"Štamperak-Drfelj","name:hu":"Répczekőhalom-Dérföld"},"display_name":"Steinberg-Dörfl, Bezirk Oberpullendorf, Burgenland, 7453, Österreich","address":{"city":"Steinberg-Dörfl","county":"Bezirk Oberpullendorf","state":"Burgenland","ISO3166-2-lvl4":"AT-1","postcode":"7453","country":"Österreich","country_code":"at"},"osm_type":"relation","osm_id":238906,"type":"administrative","location":[16.487524073561207,47.47447205],"bbox":[16.4070136,47.4353088,16.5240697,47.5136543],"inferred_type":"city"}
{"name":"Thiersee","other_names":{"name:de":"Thiersee","official_name":"Gemeinde Thiersee"},"display_name":"Thiersee, Bezirk Kufstein, Tirol, Österreich","address":{"city":"Thiersee","county":"Bezirk Kufstein","state":"Tirol","ISO3166-2-lvl4":"AT-7","country":"Österreich","country_code":"at"},"osm_type":"relation","osm_id":554934,"type":"administrative","location":[12.029915079797096,47.5806574],"bbox":[11.8906075,47.5362347,12.1504846,47.6251781],"inferred_type":"city"}
{"name":"Wien","other_names":{"name:ab":"Вена","name:af":"Wene","name:am":"ቪየና","name:an":"Viena","name:ar":"فيينا","name:as":"ভিয়েনা","name:av":"Вена","name:az":"Vyana","name:ba":"Beč","name:be":"Вена","name:bg":"Виена","name:bi":"Vienna","name:bm":"Vienna","name:bn":"ভিয়েনা","name:bo":"ཝི་ཨེ་ན།","name:br":"Vienna","name:bs":"Beč","name:ca":"Viena","name:ce":"Вена","name:ch":"Vienna","name:co":"Vienna","name:cs":"Vídeň","name:cu":"Вѥнъ","name:cv":"Вена","name:cy":"Fienna","name:de":"Wien","name:ee":"Vienna","name:el":"Βιέννη","name:en":"Vienna","name:eo":"Vieno","name:es":"Viena","name:et":"Viin","name:eu":"Viena","name:fa":"وین","name:ff":"Vienna","name:fi":"Wien","name:fr":"Vienne","name:fy":"Wenen","name:ga":"Vín","name:gd":"Vienna","name:gl":"Viena","name:gn":"Viéna","name:gv":"Veen","name:ha":"Vienna","name:he":"וינה","name:hi":"वियना","name:hr":"Beč","name:ht":"Vyèn","name:hu":"Bécs","name:hy":"Վիեննա","name:ia":"Vienna","name:id":"Wina","name:ie":"Vienna","name:is":"Vín","name:it":"Vienna","name:ja":"ウィーン","name:jv":"Wina","name:ka":"ვენა","name:ki":"Vienna","name:kk":"Вена","name:kn":"ವಿಯೆನ್ನ","name:ko":"빈","name:ku":"Viyana","name:kv":"Вена","name:ky":"Вена","name:la":"Vindobona","name:li":"Wene","name:ln":"Viɛnɛ","name:lt":"Viena","name:lv":"Vīne","name:mg":"Vienna","name:mi":"Whiena","name:mk":"Виена","name:ml":"വിയന്ന","name:mn":"Вена","name:mr":"व्हियेना","name:ms":"Vienna","name:mt":"Vjenna","name:my":"ဗီယင်နာမြို့","name:ne":"भिएना","name:nl":"Wenen","name:no":"Wien","name:nv":"Tsinyiʼ Tóhí","name:ny":"Vienna","name:oc":"Viena","name:or":"ଭିଏନା","name:os":"Венæ","name:pa":"ਵਿਆਨਾ","name:pl":"Wiedeń","name:ps":"وين","name:pt":"Viena","name:rm":"Vienna","name:ro":"Viena","name:ru":"Вена","name:sc":"Vienna","name:sd":"ويانا","name:sh":"Beč","name:sk":"Viedeň","name:sl":"Dunaj","name:sn":"Vienna","name:so":"Fiyena","name:sq":"Vjena","name:sr":"Беч","name:st":"Vienna","name:sv":"Wien","name:sw":"Vienna","name:ta":"வியன்னா","name:te":"వియన్నా","name:tg":"Вена","name:th":"เวียนนา","name:tk":"Wena","name:tl":"Vienna","name:tr":"Viyana","name:tt":"Вена шәһәре","name:tw":"Vienna","name:ug":"Wyéna","name:uk":"Відень","name:ur":"ویانا","name:uz":"Vena","name:vi":"Viên","name:wa":"Wîne","name:wo":"Wiyen","name:xh":"EVienna","name:yi":"וויען","name:yo":"Vienna","name:zh":"維也納","name:ace":"Wina","name:arc":"ܒܝܝܢܐ","name:arz":"فيينا","name:ast":"Viena","name:bar":"Wean","name:ceb":"Vienna","name:ckb":"ڤیێنا","name:crh":"Viyana","name:diq":"Wiyana","name:ext":"Viena","name:frp":"Vièna","name:fur":"Viene","name:gag":"Vena","name:hif":"Vienna","name:ilo":"Vienna","name:kab":"Wien","name:koi":"Вин","name:krc":"Вена","name:lez":"Вена","name:lij":"Vienna","name:lmo":"Viena","name:mhr":"Вена","name:mrj":"Вена","name:mzn":"وین","name:nah":"Viena","name:nds":"Wien","name:pap":"Viena","name:pih":"Wienna","name:pms":"Vien-a","name:pnb":"ویآنا","name:rmy":"Bech","name:rue":"Відень","name:sah":"Вена","name:scn":"Vienna","name:sco":"Vienna","name:szl":"Wiedziyń","name:tzl":"Viadna","name:udm":"Вена","name:vec":"Viena","name:vep":"Ven","name:vro":"Viin","name:war":"Vienna","name:wuu":"维恩纳","name:yue":"維也納","alt_name:gl":"Wien","alt_name:ml":"വീൻ","name:nds-nl":"Wienen","name:bat-smg":"Viena","name:zh-Hans":"维也纳","name:zh-Hant":"維也納","name:zh-Latn":"Wéiyěnà","name:roa-tara":"Vienne","name:yue-Latn":"Wai4 Jaa5 Naap6","name:be-tarask":"Вена"},"display_name":"Wien, Österreich","address":{"city":"Wien","ISO3166-2-lvl4":"AT-9","country":"Österreich","country_code":"at"},"population":1920949,"osm_type":"node","osm_id":17328659,"type":"city","location":[16.3725042,48.2083537],"bbox":[16.2125042,48.0483537,16.5325042,48.3683537],"border":[{"name":"Wien","other_names":{"name:ar":"فيينا","name:az":"Vyana","name:be":"Вена","name:ca":"Viena","name:de":"Wien","name:en":"Vienna","name:es":"Viena","name:fr":"Vienne","name:fy":"Wenen","name:gl":"Viena","name:hr":"Beč","name:hu":"Bécs","name:ko":"빈","name:nl":"Wenen","name:no":"Wien","name:pl":"Wiedeń","name:pt":"Viena","name:ro":"Viena","name:ru":"Вена","name:sk":"Viedeň","name:sl":"Dunaj","name:vi":"Viên","name:zh":"维也纳州","name:szl":"Wiedziyń","name:tzl":"Viadna","ISO3166-2":"AT-9","name:zh-Hans":"维也纳州","name:zh-Hant":"維也納邦","name:ab":"Вена","name:af":"Wene","name:am":"ቪየና","name:an":"Viena","name:as":"ভিয়েনা","name:av":"Вена","name:ba":"Beč","name:bg":"Виена","name:bi":"Vienna","name:bm":"Vienna","name:bn":"ভিয়েনা","name:bo":"ཝི་ཨེ་ན།","name:br":"Vienna","name:bs":"Beč","name:ce":"Вена","name:ch":"Vienna","name:co":"Vienna","name:cs":"Vídeň","name:cu":"Вѥнъ","name:cv":"Вена","name:cy":"Fienna","name:ee":"Vienna","name:el":"Βιέννη","name:eo":"Vieno","name:et":"Viin","name:eu":"Viena","name:fa":"وین","name:ff":"Vienna","name:fi":"Wien","name:ga":"Vín","name:gd":"Vienna","name:gn":"Viéna","name:gv":"Veen","name:ha":"Vienna","name:he":"וינה","name:hi":"वियना","name:ht":"Vyèn","name:hy":"Վիեննա","name:ia":"Vienna","name:id":"Wina","name:ie":"Vienna","name:is":"Vín","name:it":"Vienna","name:ja":"ウィーン","name:jv":"Wina","name:ka":"ვენა","name:ki":"Vienna","name:kk":"Вена","name:kn":"ವಿಯೆನ್ನ","name:ku":"Viyana","name:kv":"Вена","name:ky":"Вена","name:la":"Vindobona","name:li":"Wene","name:ln":"Viɛnɛ","name:lt":"Viena","name:lv":"Vīne","name:mg":"Vienna","name:mi":"Whiena","name:mk":"Виена","name:ml":"വിയന്ന","name:mn":"Вена","name:mr":"व्हियेना","name:ms":"Vienna","name:mt":"Vjenna","name:my":"ဗီယင်နာမြို့","name:ne":"भिएना","name:nv":"Tsinyiʼ Tóhí","name:ny":"Vienna","name:oc":"Viena","name:or":"ଭିଏନା","name:os":"Венæ","name:pa":"ਵਿਆਨਾ","name:ps":"وين","name:rm":"Vienna","name:sc":"Vienna","name:sd":"ويانا","name:sh":"Beč","name:sn":"Vienna","name:so":"Fiyena","name:sq":"Vjena","name:sr":"Беч","name:st":"Vienna","name:sv":"Wien","name:sw":"Vienna","name:ta":"வியன்னா","name:te":"వియన్నా","name:tg":"Вена","name:th":"เวียนนา","name:tk":"Wena","name:tl":"Vienna","name:tr":"Viyana","name:tt":"Вена шәһәре","name:tw":"Vienna","name:ug":"Wyéna","name:uk":"Відень","name:ur":"ویانا","name:uz":"Vena","name:wa":"Wîne","name:wo":"Wiyen","name:xh":"EVienna","name:yi":"וויען","name:yo":"Vienna","name:be-tarask":"Вена","name:ace":"Wina","name:arc":"ܒܝܝܢܐ","name:arz":"فيينا","name:ast":"Viena","name:bar":"Wean","name:ceb":"Vienna","name:ckb":"ڤیێنا","name:crh":"Viyana","name:diq":"Wiyana","name:ext":"Viena","name:frp":"Vièna","name:fur":"Viene","name:gag":"Vena","name:hif":"Vienna","name:ilo":"Vienna","name:kab":"Wien","name:koi":"Вин","name:krc":"Вена","name:lez":"Вена","name:lij":"Vienna","name:lmo":"Viena","name:mhr":"Вена","name:mrj":"Вена","name:mzn":"وین","name:nah":"Viena","name:nds":"Wien","name:pap":"Viena","name:pih":"Wienna","name:pms":"Vien-a","name:pnb":"ویآنا","name:rmy":"Bech","name:rue":"Відень","name:sah":"Вена","name:scn":"Vienna","name:sco":"Vienna","name:udm":"Вена","name:vec":"Viena","name:vep":"Ven","name:vro":"Viin","name:war":"Vienna","name:wuu":"维恩纳","name:yue":"維也納","alt_name:gl":"Wien","alt_name:ml":"വീൻ","name:nds-nl":"Wienen","name:bat-smg":"Viena","name:zh-Latn":"Wéiyěnà","name:roa-tara":"Vienne","name:yue-Latn":"Wai4 Jaa5 Naap6","alt:zh":"維也納","alt:zh-Hans":"维也纳","alt:zh-Hant":"維也納"},"display_name":"Wien, Österreich","address":{"city":"Wien","ISO3166-2-lvl4":"AT-9","country":"Österreich","country_code":"at"},"population":1920949,"osm_type":"relation","osm_id":109166,"type":"administrative","location":[16.3725042,48.2083537],"bbox":[16.181831,48.1179069,16.5775132,48.3226679]},{"name":"Wien","display_name":"Wien, Österreich","address":{"city_district":"Wien","city":"Wien","ISO3166-2-lvl4":"AT-9","country":"Österreich","country_code":"at"},"osm_type":"relation","osm_id":18588578,"type":"administrative","location":[16.37121629828658,48.22020635],"bbox":[16.181831,48.1179069,16.5775132,48.3226679]}]}
{"name":"Wienerwald","display_name":"Wienerwald, Bezirk Mödling, Niederösterreich, Österreich","address":{"city":"Wienerwald","county":"Bezirk Mödling","state":"Niederösterreich","ISO3166-2-lvl4":"AT-3","country":"Österreich","country_code":"at"},"population":2949,"osm_type":"relation","osm_id":111927,"type":"administrative","location":[16.09836134199331,48.0974907],"bbox":[16.0394711,48.0615967,16.1796934,48.1330183],"inferred_type":"city"}
{"name":"Wildschönau","other_names":{"name:de":"Wildschönau","official_name":"Gemeinde Wildschönau"},"display_name":"Wildschönau, Bezirk Kufstein, Tirol, Österreich","address":{"city":"Wildschönau","county":"Bezirk Kufstein","state":"Tirol","ISO3166-2-lvl4":"AT-7","country":"Österreich","country_code":"at"},"osm_type":"relation","osm_id":1016861,"type":"administrative","location":[12.031095168128473,47.3988608],"bbox":[11.9479389,47.321612,12.1096265,47.4761906],"inferred_type":"city"}
{"name":"Zell","other_names":{"name:de":"Zell","name:sl":"Sele"},"display_name":"Zell, Bezirk Klagenfurt-Land, Kärnten, 9170, Österreich","address":{"city":"Zell","county":"Bezirk Klagenfurt-Land","state":"Kärnten","ISO3166-2-lvl4":"AT-2","postcode":"9170","country":"Österreich","country_code":"at"},"osm_type":"relation","osm_id":356344,"type":"administrative","location":[14.374357494833053,46.4742377],"bbox":[14.2787363,46.4304037,14.4870863,46.5179641],"inferred_type":"city"}
{"name":"Zellberg","other_names":{"name:de":"Zellberg","official_name":"Gemeinde Zellberg"},"display_name":"Zellberg, Bezirk Schwaz, Tirol, 6277, Österreich","address":{"city":"Zellberg","county":"Bezirk Schwaz","state":"Tirol","ISO3166-2-lvl4":"AT-7","postcode":"6277","country":"Österreich","country_code":"at"},"osm_type":"relation","osm_id":80196,"type":"administrative","location":[11.85605617371953,47.24052585],"bbox":[11.8062396,47.2226508,11.8898936,47.2583147],"inferred_type":"city"}
{"name":"Zemendorf-Stöttera","other_names":{"name:de":"Zemendorf-Stöttera","name:hu":"Zemenye-Selegd"},"display_name":"Zemendorf-Stöttera, Bezirk Mattersburg, Burgenland, 7023, Österreich","address":{"city":"Zemendorf-Stöttera","county":"Bezirk Mattersburg","state":"Burgenland","ISO3166-2-lvl4":"AT-1","postcode":"7023","country":"Österreich","country_code":"at"},"osm_type":"relation","osm_id":109328,"type":"administrative","location":[16.456865967721264,47.76269715],"bbox":[16.4256121,47.7253852,16.4799023,47.8001355],"inferred_type":"city"}
