{"name":"Ku Me","other_names":{"name:en":"Kume","name:my":"ကူမဲ"},"display_name":"Ku Me, မြစ်သား, ကျောက်ဆည်ခရိုင်, မန္တလေးတိုင်း, မြန်မာ","address":{"city":"Ku Me","municipality":"မြစ်သား","county":"ကျောက်ဆည်ခရိုင်","state":"မန္တလေးတိုင်း","ISO3166-2-lvl4":"MM-04","country":"မြန်မာ","country_code":"mm"},"osm_type":"way","osm_id":216936834,"type":"city","location":[96.15626812958895,21.361331],"bbox":[96.1513835,21.3518703,96.1728197,21.3707198]}
{"name":"Meung Mau 勐冒","other_names":{"name:en":"Meungmau","name:my":"မိုင်းမော","name:zh":"勐冒","alt_name":"mēng hmae;Mongmao","name:prk":"Meung Mau","alt_name:zh":"新地方;新街子;新地方街","name:my-Latn":"Mong Maw","name:zh-Hans":"勐冒","name:zh-Hant":"勐冒"},"display_name":"Meung Mau 勐冒, veng Moeg Nu', Meung' Mau 勐冒县, ရှမ်းပြည်နယ်, ဝပြည်နယ် 佤邦, မြန်မာ","address":{"city":"Meung Mau 勐冒","municipality":"veng Moeg Nu'","county":"Meung' Mau 勐冒县","state":"ရှမ်းပြည်နယ်","ISO3166-2-lvl4":"MM-17","region":"ဝပြည်နယ် 佤邦","country":"မြန်မာ","country_code":"mm"},"osm_type":"node","osm_id":4795127301,"type":"city","location":[98.9649003,22.9707107],"bbox":[98.8049003,22.8107107,99.1249003,23.1307107],"border":{"name":"Meung' Mau 勐冒县","other_names":{"name:en":"Meungmau County","name:my":"Meung' Mau 勐冒县","name:zh":"勐冒县","name:prk":"Meung' Mau","name:zh-Hant":"勐冒縣","alt_name":"勐冒","alt":"勐冒县","alt:en":"Mongmao County","alt:my":"မိုင်းမောမြို့နယ်"},"display_name":"Meung' Mau 勐冒县, ရှမ်းပြည်နယ်, ဝပြည်နယ် 佤邦, မြန်မာ","address":{"county":"Meung' Mau 勐冒县","state":"ရှမ်းပြည်နယ်","ISO3166-2-lvl4":"MM-17","region":"ဝပြည်နယ် 佤邦","country":"မြန်မာ","country_code":"mm"},"osm_type":"relation","osm_id":14007121,"type":"administrative","location":[98.9756529,22.8680621],"bbox":[98.5272034,22.5071104,99.56603,23.189066]}}
{"name":"Meung' Pawg 勐波","other_names":{"name:en":"Meungpawg","name:my":"မိုင်းပေါက်","name:zh":"勐波","alt_name":"Meung' Pawk","name:prk":"Meung' Pawg","name:my-Latn":"Mong Pawk","name:zh-Hans":"勐波","name:zh-Hant":"勐波"},"display_name":"Meung' Pawg 勐波, veng Meung' Pawg, Meung' Pawg 勐波县, ရှမ်းပြည်နယ်, ဝပြည်နယ် 佤邦, မြန်မာ","address":{"city":"Meung' Pawg 勐波","county":"Meung' Pawg 勐波县","state":"ရှမ်းပြည်နယ်","ISO3166-2-lvl4":"MM-17","region":"ဝပြည်နယ် 佤邦","country":"မြန်မာ","country_code":"mm"},"osm_type":"node","osm_id":4807284169,"type":"city","location":[99.3064761,22.0085983],"bbox":[99.1464761,21.8485983,99.4664761,22.1685983],"border":[{"name":"Meung' Pawg 勐波县","other_names":{"name:en":"Meungpawg County","name:my":"မိုင်းပေါက်မြို့","name:zh":"勐波县","alt_name":"Meung' Pawk","name:prk":"Meung' Pawg","name:my-Latn":"Mong Pauk","name:zh-Hant":"勐波縣"},"display_name":"Meung' Pawg 勐波县, ရှမ်းပြည်နယ်, ဝပြည်နယ် 佤邦, မြန်မာ","address":{"county":"Meung' Pawg 勐波县","state":"ရှမ်းပြည်နယ်","ISO3166-2-lvl4":"MM-17","region":"ဝပြည်နယ် 佤邦","country":"မြန်မာ","country_code":"mm"},"osm_type":"relation","osm_id":14039309,"type":"administrative","location":[99.36394965975592,21.9601915],"bbox":[99.0241849,21.7577656,99.6960319,22.1641903]},{"name":"veng Meung' Pawg","other_names":{"name:en":"Meungpawg District","name:my":"veng Meung' Pawg","name:zh":"勐波区","name:prk":"veng Meung' Pawg","name:zh-Hant":"勐波區","alt_name":"Meung' Pawk","name:my-Latn":"Mong Pawk","name:zh-Hans":"勐波","alt":"Meung' Pawg 勐波","alt:en":"Meungpawg","alt:my":"မိုင်းပေါက်","alt:zh":"勐波","alt:prk":"Meung' Pawg","alt:zh-Hant":"勐波"},"display_name":"veng Meung' Pawg, Meung' Pawg 勐波县, ရှမ်းပြည်နယ်, ဝပြည်နယ် 佤邦, မြန်မာ","address":{"city":"veng Meung' Pawg","county":"Meung' Pawg 勐波县","state":"ရှမ်းပြည်နယ်","ISO3166-2-lvl4":"MM-17","region":"ဝပြည်နယ် 佤邦","country":"မြန်မာ","country_code":"mm"},"osm_type":"relation","osm_id":14039306,"type":"administrative","location":[99.3064761,22.0085983],"bbox":[99.1190161,21.8696851,99.5127885,22.1641903]}]}
{"name":"Pakokku","other_names":{"name:en":"Pakokku","name:my":"ပခုက္ကူ","name:ca":"Pakokku","name:de":"Pakokku","name:fr":"Pakokku","name:ja":"パコックー","name:ko":"파코쿠","name:lt":"Pakoku","name:no":"Pakokku","name:pl":"Pakokku","name:ru":"Пакхоуку","name:sv":"Pakokku","name:th":"ปะโคะกู","name:zh":"木各具","alt_name":"ပခုက္ကူမြို့","alt":"ပခုက္ကူ"},"display_name":"Pakokku, ပခုက္ကူ, ပခုက္ကူခရိုင်, မကွေးတိုင်းဒေသကြီး, မြန်မာ","address":{"town":"Pakokku","municipality":"ပခုက္ကူ","county":"ပခုက္ကူခရိုင်","state":"မကွေးတိုင်းဒေသကြီး","ISO3166-2-lvl4":"MM-03","country":"မြန်မာ","country_code":"mm"},"population":126938,"osm_type":"relation","osm_id":14663704,"type":"city","location":[95.0944271,21.3343349],"bbox":[95.0558397,21.3190551,95.0971253,21.3529155]}
{"name":"Pang Kham 邦康","other_names":{"name:de":"Panghsang","name:en":"Pangkham","name:my":"ပန်ခမ့်","name:ru":"Панкан","name:th":"ปางคำ","name:ur":"پانگکھام","name:vi":"Pangkham","name:zh":"邦康","alt_name":"Pang Hkam;ပန်ဆန်းမြို့","name:prk":"Pang Kham","name:shn":"ပၢင်သၢင်း","old_name":"Pangsang;邦桑;Panghsang;Pang Shang;Phangsang","name:zh-Hans":"邦康","name:zh-Hant":"邦康","name:zh-Latn-pinyin":"Bāngsāng"},"display_name":"Pang Kham 邦康, Veng Ting' Pang Kham 邦康特区, ရှမ်းပြည်နယ်, ဝပြည်နယ် 佤邦, မြန်မာ","address":{"city":"Pang Kham 邦康","state":"ရှမ်းပြည်နယ်","ISO3166-2-lvl4":"MM-17","region":"ဝပြည်နယ် 佤邦","country":"မြန်မာ","country_code":"mm"},"osm_type":"node","osm_id":1752769319,"type":"city","location":[99.1667772,22.1787589],"bbox":[99.0067772,22.0187589,99.3267772,22.3387589],"border":{"name":"Veng Ting' Pang Kham 邦康特区","other_names":{"name:en":"Pangkham Special District","name:my":"Veng Ting' Pang Kham 邦康特区","name:zh":"邦康特区","name:prk":"Veng Ting' Pang Kham","name:zh-Hant":"邦康特區","name:de":"Panghsang","name:ru":"Панкан","name:th":"ปางคำ","name:ur":"پانگکھام","name:vi":"Pangkham","alt_name":"Pang Hkam;ပန်ဆန်းမြို့","name:shn":"ပၢင်သၢင်း","old_name":"Pangsang;邦桑;Panghsang;Pang Shang;Phangsang","name:zh-Hans":"邦康","name:zh-Latn-pinyin":"Bāngsāng","alt":"Pang Kham 邦康","alt:en":"Pangkham","alt:my":"ပန်ခမ့်","alt:zh":"邦康","alt:prk":"Pang Kham","alt:zh-Hant":"邦康"},"display_name":"Veng Ting' Pang Kham 邦康特区, ရှမ်းပြည်နယ်, ဝပြည်နယ် 佤邦, မြန်မာ","address":{"city":"Veng Ting' Pang Kham 邦康特区","state":"ရှမ်းပြည်နယ်","ISO3166-2-lvl4":"MM-17","region":"ဝပြည်နယ် 佤邦","country":"မြန်မာ","country_code":"mm"},"osm_type":"relation","osm_id":14039305,"type":"administrative","location":[99.1667772,22.1787589],"bbox":[98.9390811,22.1382466,99.2780719,22.3807394]}}
{"name":"Tada-U","display_name":"Tada-U, တံတားဦး, တံတားဦးခရိုင်, မန္တလေးတိုင်း, မြန်မာ","address":{"city":"Tada-U","municipality":"တံတားဦး","county":"တံတားဦးခရိုင်","state":"မန္တလေးတိုင်း","ISO3166-2-lvl4":"MM-04","country":"မြန်မာ","country_code":"mm"},"osm_type":"way","osm_id":329326672,"type":"city","location":[95.9711333790269,21.8152569],"bbox":[95.9567375,21.807156,95.9795885,21.8231263]}
{"name":"ကျပ်ပြင်","other_names":{"name:en":"Kyat Pyin","name:my":"ကျပ်ပြင်","name:shn":"မိူင်းၵုတ်ႈ ပွတ်းတူၵ်း"},"display_name":"ကျပ်ပြင်, သပိတ်ကျင်းခရိုင်, မန္တလေးတိုင်း, တအာင်းပြည်နယ်, မြန်မာ","address":{"city":"ကျပ်ပြင်","town":"သပိတ်ကျင်းခရိုင်","state":"မန္တလေးတိုင်း","ISO3166-2-lvl4":"MM-04","region":"တအာင်းပြည်နယ်","country":"မြန်မာ","country_code":"mm"},"osm_type":"node","osm_id":2620553928,"type":"city","location":[96.4183923,22.8993829],"bbox":[96.2583923,22.7393829,96.5783923,23.0593829]}
{"name":"ကျိုင်းတုံ","other_names":{"name:ca":"Kengtung","name:de":"Keng Tung","name:en":"Kengtung","name:fr":"Kengtung","name:ja":"ケング・タング","name:ko":"켕퉁","name:la":"Kengtung","name:lo":"ຊຽງທຸງ","name:lt":"Kentongas","name:my":"ကျိုင်းတုံ","name:ru":"Чёнгтун","name:th":"เชียงตุง","name:zh":"景栋","alt_name":"Keng Tung;Kyaing Tong;Kyaingtong;Chiang Tung;Cheingtung;Kengtong","name:shn":"ၵဵင်းတုင်","old_name":"孟艮府","name:zh-Hans":"景栋","name:zh-Hant":"景棟"},"display_name":"ကျိုင်းတုံ, ကျိုင်းတုံမြို့နယ်, ကျိုင်းတုံခရိုင်, ရှမ်းပြည်နယ်, 06231, မြန်မာ","address":{"city":"ကျိုင်းတုံ","municipality":"ကျိုင်းတုံမြို့နယ်","county":"ကျိုင်းတုံခရိုင်","state":"ရှမ်းပြည်နယ်","ISO3166-2-lvl4":"MM-17","postcode":"06231","country":"မြန်မာ","country_code":"mm"},"osm_type":"node","osm_id":3436429602,"type":"city","location":[99.6028652,21.2918037],"bbox":[99.4428652,21.1318037,99.7628652,21.4518037],"border":[{"name":"ကျိုင်းတုံခရိုင်","other_names":{"name:en":"Kengtung District","name:my":"ကျိုင်းတုံခရိုင်","name:sv":"Kengtung District","name:zh":"景栋县","alt_name":"Kengtung;Keng Tung","name:zh-Hant":"景棟縣"},"display_name":"ကျိုင်းတုံခရိုင်, ရှမ်းပြည်နယ်, 06231, မြန်မာ","address":{"county":"ကျိုင်းတုံခရိုင်","state":"ရှမ်းပြည်နယ်","ISO3166-2-lvl4":"MM-17","postcode":"06231","country":"မြန်မာ","country_code":"mm"},"osm_type":"relation","osm_id":5996509,"type":"administrative","location":[99.3370589967966,21.24529185],"bbox":[98.4881381,20.5791453,99.9807793,21.9093836]},{"name":"ကျိုင်းတုံမြို့နယ်","other_names":{"name:ca":"Kengtung","name:en":"Kengtung Township","name:fr":"Kengtung","name:la":"Kengtung","name:lt":"Kentongas","name:my":"ကျိုင်းတုံမြို့နယ်","name:th":"เชียงตุง","name:zh":"景栋镇区","alt_name":"Kengtung;Keng Tung;ကျိုင်းတုံ","name:zh-Hans":"景栋镇区","name:zh-Hant":"景棟鎮區"},"display_name":"ကျိုင်းတုံမြို့နယ်, ကျိုင်းတုံခရိုင်, ရှမ်းပြည်နယ်, 06231, မြန်မာ","address":{"municipality":"ကျိုင်းတုံမြို့နယ်","county":"ကျိုင်းတုံခရိုင်","state":"ရှမ်းပြည်နယ်","ISO3166-2-lvl4":"MM-17","postcode":"06231","country":"မြန်မာ","country_code":"mm"},"osm_type":"relation","osm_id":5996650,"type":"administrative","location":[99.64263390855811,21.26274475],"bbox":[99.2296733,20.9656353,99.9807793,21.5594655]}]}
{"name":"ကျုံပျော်မြို့","other_names":{"name:en":"Kyonpyaw","name:ja":"チョンビョー","name:my":"ကျုံပျော်မြို့"},"display_name":"ကျုံပျော်မြို့, ကျုံပျော်မြို့နယ်, ကျုံပျော်ခရိုင်, ဧရာဝတီတိုင်းဒေသကြီး, 10091, မြန်မာ","address":{"city":"ကျုံပျော်မြို့","municipality":"ကျုံပျော်မြို့နယ်","county":"ကျုံပျော်ခရိုင်","state":"ဧရာဝတီတိုင်းဒေသကြီး","ISO3166-2-lvl4":"MM-07","postcode":"10091","country":"မြန်မာ","country_code":"mm"},"osm_type":"node","osm_id":2569928856,"type":"city","location":[95.193531,17.302549],"bbox":[95.033531,17.142549,95.353531,17.462549]}
{"name":"ကျောက်ဆည်","other_names":{"name:en":"Kyaukse","name:my":"ကျောက်ဆည်","name:zh":"皎施"},"display_name":"ကျောက်ဆည်, ကျောက်ဆည်ခရိုင်, မန္တလေးတိုင်း, မြန်မာ","address":{"city":"ကျောက်ဆည်","municipality":"ကျောက်ဆည်","county":"ကျောက်ဆည်ခရိုင်","state":"မန္တလေးတိုင်း","ISO3166-2-lvl4":"MM-04","country":"မြန်မာ","country_code":"mm"},"osm_type":"node","osm_id":7597339979,"type":"city","location":[96.135143,21.612715],"bbox":[95.975143,21.452715,96.295143,21.772715],"border":[{"name":"ကျောက်ဆည်ခရိုင်","other_names":{"name:ca":"Districte de Kyaukse","name:en":"Kyaukse District","name:my":"ကျောက်ဆည်ခရိုင်","name:pl":"Kyaukse","name:sv":"Kyaukse District","name:zh":"皎施县","alt_name":"Kyaukse"},"display_name":"ကျောက်ဆည်ခရိုင်, မန္တလေးတိုင်း, မြန်မာ","address":{"county":"ကျောက်ဆည်ခရိုင်","state":"မန္တလေးတိုင်း","ISO3166-2-lvl4":"MM-04","country":"မြန်မာ","country_code":"mm"},"osm_type":"relation","osm_id":5996512,"type":"administrative","location":[96.27366892727893,21.5782937],"bbox":[95.9360411,21.1344282,96.8959828,22.0237243]},{"name":"ကျောက်ဆည်","other_names":{"name:en":"Kyaukse Township","name:my":"ကျောက်ဆည်မြို့နယ်","name:zh":"皎施镇区","alt_name":"Kyaukse"},"display_name":"ကျောက်ဆည်, ကျောက်ဆည်ခရိုင်, မန္တလေးတိုင်း, 05151, မြန်မာ","address":{"municipality":"ကျောက်ဆည်","county":"ကျောက်ဆည်ခရိုင်","state":"မန္တလေးတိုင်း","ISO3166-2-lvl4":"MM-04","postcode":"05151","country":"မြန်မာ","country_code":"mm"},"osm_type":"relation","osm_id":5996667,"type":"administrative","location":[96.60359319240224,21.72522725],"bbox":[95.9917804,21.4267134,96.8959828,22.0237243]}]}
{"name":"ကျောက်မဲ","other_names":{"name:en":"Kyaukme","name:my":"ကျောက်မဲ","name:zh":"皎脉","name:shn":"ၵျွၵ်ႉမႄး","alt_name:zh":"皎梅","alt_name:zh-Hans":"皎梅","alt_name:zh-Hant":"皎梅"},"display_name":"ကျောက်မဲ, ကျောက်မဲခရိုင်, ရှမ်းပြည်နယ်, တအာင်းပြည်နယ်, 06321, မြန်မာ","address":{"city":"ကျောက်မဲ","municipality":"ကျောက်မဲ","county":"ကျောက်မဲခရိုင်","state":"ရှမ်းပြည်နယ်","ISO3166-2-lvl4":"MM-17","region":"တအာင်းပြည်နယ်","postcode":"06321","country":"မြန်မာ","country_code":"mm"},"osm_type":"node","osm_id":4241435444,"type":"city","location":[97.0357197,22.5436897],"bbox":[96.8757197,22.3836897,97.1957197,22.7036897],"border":[{"name":"ကျောက်မဲခရိုင်","other_names":{"name:en":"Kyaukme District","name:my":"ကျောက်မဲခရိုင်","name:sv":"Kyaukme District","name:zh":"皎梅县","alt_name":"Kyaukme","alt_name:zh":"皎脉县","name:zh-Hans":"皎梅县","name:zh-Hant":"皎梅縣"},"display_name":"ကျောက်မဲခရိုင်, ရှမ်းပြည်နယ်, တအာင်းပြည်နယ်, 06321, မြန်မာ","address":{"county":"ကျောက်မဲခရိုင်","state":"ရှမ်းပြည်နယ်","ISO3166-2-lvl4":"MM-17","region":"တအာင်းပြည်နယ်","postcode":"06321","country":"မြန်မာ","country_code":"mm"},"osm_type":"relation","osm_id":5996510,"type":"administrative","location":[96.92914278008897,22.618634],"bbox":[96.2041582,21.9365707,98.0224513,23.3008855]},{"name":"ကျောက်မဲ","other_names":{"name:en":"Kyaukme Township","name:my":"ကျောက်မဲမြို့နယ်","name:zh":"皎梅镇区","alt_name":"Kyaukme"},"display_name":"ကျောက်မဲ, ကျောက်မဲခရိုင်, ရှမ်းပြည်နယ်, တအာင်းပြည်နယ်, 06321, မြန်မာ","address":{"municipality":"ကျောက်မဲ","county":"ကျောက်မဲခရိုင်","state":"ရှမ်းပြည်နယ်","ISO3166-2-lvl4":"MM-17","region":"တအာင်းပြည်နယ်","postcode":"06321","country":"မြန်မာ","country_code":"mm"},"osm_type":"relation","osm_id":5996664,"type":"administrative","location":[96.8071314733626,22.6008158],"bbox":[96.3911456,22.2038228,97.3459064,22.9980442]}]}
{"name":"ကလေး","other_names":{"name:en":"Kalay","name:et":"Kale","name:eu":"Kalay","name:fr":"Kalaymyo","name:hi":"कलय","name:ja":"カレーミョ","name:my":"ကလေးမြို့","name:pl":"Kalay","name:ru":"Калемьо","name:uk":"Калай (М'янма)","name:zh":"吉灵庙","alt_name":"ကလေးမြို့;Kale;Kalaymyo;Kalemyo","alt_name:en":"Kalemyo","alt_name:my":"ကေလးၿမိဳ႕","old_name:en":"Karlaymyo"},"display_name":"ကလေး, ကလေးခရိုင်, စစ်ကိုင်းတိုင်း, 50501, မြန်မာ","address":{"city":"ကလေး","municipality":"ကလေး","county":"ကလေးခရိုင်","state":"စစ်ကိုင်းတိုင်း","ISO3166-2-lvl4":"MM-01","postcode":"50501","country":"မြန်မာ","country_code":"mm"},"population":400000,"osm_type":"node","osm_id":2473890571,"type":"city","location":[94.014583,23.1958442],"bbox":[93.854583,23.0358442,94.174583,23.3558442],"border":[{"name":"ကလေးခရိုင်","other_names":{"name:en":"Kale District","name:my":"ကလေးခရိုင်","name:zh":"吉灵庙县","alt_name":"Kale;Kalay;Kalay District"},"display_name":"ကလေးခရိုင်, စစ်ကိုင်းတိုင်း, မြန်မာ","address":{"county":"ကလေးခရိုင်","state":"စစ်ကိုင်းတိုင်း","ISO3166-2-lvl4":"MM-01","country":"မြန်မာ","country_code":"mm"},"osm_type":"relation","osm_id":5996505,"type":"administrative","location":[94.44428280361797,22.95318855],"bbox":[93.9431938,22.2526714,94.9502011,23.6560764]},{"name":"ကလေး","other_names":{"name:en":"Kalay Township","name:my":"ကလေးမြို့နယ်","name:zh":"吉灵庙镇区","alt_name":"Kale Township;Kalay;Kale;Kalemyo"},"display_name":"ကလေး, ကလေးခရိုင်, စစ်ကိုင်းတိုင်း, မြန်မာ","address":{"municipality":"ကလေး","county":"ကလေးခရိုင်","state":"စစ်ကိုင်းတိုင်း","ISO3166-2-lvl4":"MM-01","country":"မြန်မာ","country_code":"mm"},"osm_type":"relation","osm_id":5996635,"type":"administrative","location":[94.09299886566541,23.1204617],"bbox":[93.9431938,22.5830057,94.2788287,23.6560764]}]}
{"name":"ကော့ကရိတ်","other_names":{"name:en":"Kawkareik","name:my":"ကော့ကရိတ်","name:th":"คอกคาอิก","name:uk":"Кокаей","name:zh":"高加力"},"display_name":"ကော့ကရိတ်, ကော့ကရိတ်ခရိုင်, ကရင်ပြည်နယ်, မြန်မာ","address":{"city":"ကော့ကရိတ်","municipality":"ကော့ကရိတ်","county":"ကော့ကရိတ်ခရိုင်","state":"ကရင်ပြည်နယ်","ISO3166-2-lvl4":"MM-13","country":"မြန်မာ","country_code":"mm"},"osm_type":"node","osm_id":3888608257,"type":"city","location":[98.23996,16.555531],"bbox":[98.07996,16.395531,98.39996,16.715531],"border":{"name":"ကော့ကရိတ်","other_names":{"name:en":"Kawkareik Township","name:my":"ကော့ကရိတ်","name:zh":"高加力镇区"},"display_name":"ကော့ကရိတ်, ကော့ကရိတ်ခရိုင်, ကရင်ပြည်နယ်, 13064, မြန်မာ","address":{"municipality":"ကော့ကရိတ်","county":"ကော့ကရိတ်ခရိုင်","state":"ကရင်ပြည်နယ်","ISO3166-2-lvl4":"MM-13","postcode":"13064","country":"မြန်မာ","country_code":"mm"},"osm_type":"relation","osm_id":5996646,"type":"administrative","location":[98.14427296199193,16.52790565],"bbox":[97.8255681,16.1989986,98.4497028,16.8569429]}}
{"name":"ငသိုင်းချောင်းမြို့","other_names":{"name:en":"Ngathaingchaung","name:my":"ငသိုင်းချောင်းမြို့"},"display_name":"ငသိုင်းချောင်းမြို့, ရေကြည်မြို့နယ်, ကျုံပျော်ခရိုင်, ဧရာဝတီတိုင်းဒေသကြီး, မြန်မာ","address":{"city":"ငသိုင်းချောင်းမြို့","municipality":"ရေကြည်မြို့နယ်","county":"ကျုံပျော်ခရိုင်","state":"ဧရာဝတီတိုင်းဒေသကြီး","ISO3166-2-lvl4":"MM-07","country":"မြန်မာ","country_code":"mm"},"osm_type":"node","osm_id":648751040,"type":"city","location":[95.0691439,17.3936573],"bbox":[94.9091439,17.2336573,95.2291439,17.5536573]}
{"name":"စစ်ကိုင်း","other_names":{"name:ca":"Sagaing","name:de":"Sagaing","name:en":"Sagaing","name:es":"Sagaing","name:et":"Sagaing","name:fa":"زاگاین","name:fr":"Sagaing","name:hi":"सगाइंग","name:hr":"Sagaing","name:it":"Sagaing","name:ja":"サガイン","name:ko":"사가잉","name:la":"Sagain","name:lt":"Sagainas","name:my":"စစ်ကိုင်း","name:nl":"Sagaing","name:pl":"Sikong","name:ru":"Сикайн","name:sl":"Sagaing","name:sv":"Sagaing","name:th":"สะกาย","name:uk":"Сікайн","name:ur":"ساگاینگ","name:vi":"Sagaing","name:zh":"实皆","alt_name":"စစ်ကိုင်းမြို့","name:zh-Hant":"實皆"},"display_name":"စစ်ကိုင်း, စစ်ကိုင်းခရိုင်, စစ်ကိုင်းတိုင်း, မြန်မာ","address":{"city":"စစ်ကိုင်း","municipality":"စစ်ကိုင်း","county":"စစ်ကိုင်းခရိုင်","state":"စစ်ကိုင်းတိုင်း","ISO3166-2-lvl4":"MM-01","country":"မြန်မာ","country_code":"mm"},"population":307194,"osm_type":"node","osm_id":26576195,"type":"city","location":[95.9839956,21.8774215],"bbox":[95.8239956,21.7174215,96.1439956,22.0374215],"border":[{"name":"စစ်ကိုင်းခရိုင်","other_names":{"name:ca":"Districte de Sagaing","name:en":"Sagaing District","name:my":"စစ်ကိုင်းခရိုင်","name:pl":"Sikong","name:ur":"سگینگ ضلع","name:zh":"实皆县","alt_name":"Sagaing"},"display_name":"စစ်ကိုင်းခရိုင်, စစ်ကိုင်းတိုင်း, 02371, မြန်မာ","address":{"county":"စစ်ကိုင်းခရိုင်","state":"စစ်ကိုင်းတိုင်း","ISO3166-2-lvl4":"MM-01","postcode":"02371","country":"မြန်မာ","country_code":"mm"},"osm_type":"relation","osm_id":5996549,"type":"administrative","location":[95.46992658785372,21.9134294],"bbox":[95.1770989,21.5759582,96.0246102,22.2506627]},{"name":"စစ်ကိုင်း","other_names":{"name:en":"Sagaing Township","name:my":"စစ်ကိုင်းမြို့နယ်","name:ur":"سگینگ ٹاؤنشپ","name:zh":"实皆镇区","alt_name":"Sagaing"},"display_name":"စစ်ကိုင်း, စစ်ကိုင်းခရိုင်, စစ်ကိုင်းတိုင်း, 02371, မြန်မာ","address":{"municipality":"စစ်ကိုင်း","county":"စစ်ကိုင်းခရိုင်","state":"စစ်ကိုင်းတိုင်း","ISO3166-2-lvl4":"MM-01","postcode":"02371","country":"မြန်မာ","country_code":"mm"},"osm_type":"relation","osm_id":5996816,"type":"administrative","location":[95.84317150672248,22.0507993],"bbox":[95.620795,21.8514849,96.0246102,22.2506627]}]}
{"name":"စစ်တွေ","other_names":{"name:ar":"سيتوي","name:bn":"সিতওয়ে","name:de":"Sittwe","name:en":"Sittwe","name:es":"Sittwe","name:et":"Sittwe","name:fa":"سیتوه","name:fr":"Sittwe","name:hi":"सितवे","name:ja":"シットウェ","name:my":"စစ်တွေမြို့","name:ru":"Ситуэ","name:uk":"Сітуэ","name:ur":"ویتوی","name:zh":"实兑","old_name":"Akyab"},"display_name":"စစ်တွေ, စစ်တွေခရိုင်, ရခိုင်ပြည်နယ်, မြန်မာ","address":{"city":"စစ်တွေ","municipality":"စစ်တွေ","county":"စစ်တွေခရိုင်","state":"ရခိုင်ပြည်နယ်","ISO3166-2-lvl4":"MM-16","country":"မြန်မာ","country_code":"mm"},"population":177743,"osm_type":"node","osm_id":26576213,"type":"city","location":[92.8970859,20.139197],"bbox":[92.7370859,19.979197,93.0570859,20.299197],"border":[{"name":"စစ်တွေခရိုင်","other_names":{"name:en":"Sittwe District","name:my":"စစ်တွေခရိုင်","name:zh":"實兌縣","alt_name":"Sittwe"},"display_name":"စစ်တွေခရိုင်, ရခိုင်ပြည်နယ်, 07011, မြန်မာ","address":{"county":"စစ်တွေခရိုင်","state":"ရခိုင်ပြည်နယ်","ISO3166-2-lvl4":"MM-16","postcode":"07011","country":"မြန်မာ","country_code":"mm"},"osm_type":"relation","osm_id":5996551,"type":"administrative","location":[92.90792053530956,20.565939049999997],"bbox":[92.5936135,19.787405,93.2490838,21.0157772]},{"name":"စစ်တွေ","other_names":{"name:ar":"بلدة سيتوي","name:en":"Sittwe Township","name:my":"စစ်တွေ","name:zh":"实兑镇区","alt_name":"Sittwe"},"display_name":"စစ်တွေ, စစ်တွေခရိုင်, ရခိုင်ပြည်နယ်, မြန်မာ","address":{"municipality":"စစ်တွေ","county":"စစ်တွေခရိုင်","state":"ရခိုင်ပြည်နယ်","ISO3166-2-lvl4":"MM-16","country":"မြန်မာ","country_code":"mm"},"osm_type":"relation","osm_id":5996834,"type":"administrative","location":[92.83780914604992,20.20743675],"bbox":[92.7598628,20.1139679,92.9278853,20.3009048]}]}
{"name":"ဆီဆိုင်","other_names":{"name:en":"Hsihseng","name:my":"ဆီဆိုင်","name:zh":"昔胜","alt_name":"Hsi Hseng","name:shn":"သီႇသႅင်ႇ"},"display_name":"ဆီဆိုင်, ပအိုဝ်းကိုယ်ပိုင်အုပ်ချုပ်ခွင့်ရဒေသ, ရှမ်းပြည်နယ်, မြန်မာ","address":{"city":"ဆီဆိုင်","municipality":"ဆီဆိုင်","county":"ပအိုဝ်းကိုယ်ပိုင်အုပ်ချုပ်ခွင့်ရဒေသ","state":"ရှမ်းပြည်နယ်","ISO3166-2-lvl4":"MM-17","country":"မြန်မာ","country_code":"mm"},"osm_type":"node","osm_id":4798636763,"type":"city","location":[97.252818,20.160643],"bbox":[97.092818,20.000643,97.412818,20.320643],"border":{"name":"ဆီဆိုင်","other_names":{"name:en":"Hsi Hseng Township","name:my":"ဆီဆိုင်မြို့နယ်","name:zh":"昔胜镇区","alt_name":"Hsihseng;Hsi Hseng;Hsihseng Township","name:zh-Hans":"昔胜镇区","name:zh-Hant":"昔勝鎮區"},"display_name":"ဆီဆိုင်, ပအိုဝ်းကိုယ်ပိုင်အုပ်ချုပ်ခွင့်ရဒေသ, ရှမ်းပြည်နယ်, မြန်မာ","address":{"municipality":"ဆီဆိုင်","county":"ပအိုဝ်းကိုယ်ပိုင်အုပ်ချုပ်ခွင့်ရဒေသ","state":"ရှမ်းပြည်နယ်","ISO3166-2-lvl4":"MM-17","country":"မြန်မာ","country_code":"mm"},"osm_type":"relation","osm_id":5996626,"type":"administrative","location":[97.3063255218525,20.242778649999998],"bbox":[97.1067912,19.8908518,97.4734322,20.5953414]}}
{"name":"ညောင်ဦး","other_names":{"name:de":"Nyaung-U","name:en":"Nyaung-U","name:es":"Nyaung-U","name:fr":"Nyaung-U","name:ja":"ニャウンウー","name:my":"ညောင်ဦးမြို့","name:zh":"良烏","alt_name":"Nyaung Oo"},"display_name":"ညောင်ဦး, ညောင်ဦးခရိုင်, မန္တလေးတိုင်း, 05331, မြန်မာ","address":{"city":"ညောင်ဦး","municipality":"ညောင်ဦး","county":"ညောင်ဦးခရိုင်","state":"မန္တလေးတိုင်း","ISO3166-2-lvl4":"MM-04","postcode":"05331","country":"မြန်မာ","country_code":"mm"},"osm_type":"node","osm_id":253298809,"type":"city","location":[94.9071683,21.1999599],"bbox":[94.7471683,21.0399599,95.0671683,21.3599599],"border":[{"name":"ညောင်ဦးခရိုင်","other_names":{"name:de":"Nyaung U Distrikt","name:en":"Nyaung-U District","name:my":"ညောင်ဦးခရိုင်","name:sv":"Nyaung-U District","name:zh":"良乌县","alt_name":"Nyaung-U"},"display_name":"ညောင်ဦးခရိုင်, မန္တလေးတိုင်း, မြန်မာ","address":{"county":"ညောင်ဦးခရိုင်","state":"မန္တလေးတိုင်း","ISO3166-2-lvl4":"MM-04","country":"မြန်မာ","country_code":"mm"},"osm_type":"relation","osm_id":5996542,"type":"administrative","location":[95.16734599114011,20.928028],"bbox":[94.8297291,20.5426751,95.5445994,21.3136971]},{"name":"ညောင်ဦး","other_names":{"name:en":"Nyaung-U Township","name:my":"ပုဂံ(ညောင်ဦး)မြို့နယ်","name:zh":"良烏鎮區","alt_name":"Nyaung-U"},"display_name":"ညောင်ဦး, ညောင်ဦးခရိုင်, မန္တလေးတိုင်း, မြန်မာ","address":{"municipality":"ညောင်ဦး","county":"ညောင်ဦးခရိုင်","state":"မန္တလေးတိုင်း","ISO3166-2-lvl4":"MM-04","country":"မြန်မာ","country_code":"mm"},"osm_type":"relation","osm_id":5996774,"type":"administrative","location":[95.01976073163436,21.086038600000002],"bbox":[94.8297291,20.8584252,95.2320004,21.3136971]}]}
{"name":"တန့်ယန်း 当阳","other_names":{"name:en":"Tangyan","name:my":"တန့်ယန်း","name:zh":"当阳","name:shn":"တၢင်ႉယၢၼ်း","name:zh-Hans":"当阳","name:zh-Hant":"當陽"},"display_name":"တန့်ယန်း 当阳, တန်ဃန်း, ရှမ်းပြည်နယ်, ဝပြည်နယ် 佤邦, မြန်မာ","address":{"city":"တန့်ယန်း 当阳","state":"ရှမ်းပြည်နယ်","ISO3166-2-lvl4":"MM-17","region":"ဝပြည်နယ် 佤邦","country":"မြန်မာ","country_code":"mm"},"osm_type":"node","osm_id":4000757613,"type":"city","location":[98.3948142,22.4937291],"bbox":[98.2348142,22.3337291,98.5548142,22.6537291],"border":[{"name":"တန်ဃန်း","other_names":{"name:en":"Wa State Tangyang District","name:my":"တန်ဃန်း","name:zh":"当阳地区","name:shn":"တၢင်ႉယၢၼ်း","name:zh-Hans":"当阳","name:zh-Hant":"當陽","alt":"တန့်ယန်း 当阳","alt:en":"Tangyan","alt:my":"တန့်ယန်း","alt:zh":"当阳"},"display_name":"တန်ဃန်း, ရှမ်းပြည်နယ်, ဝပြည်နယ် 佤邦, မြန်မာ","address":{"city":"တန်ဃန်း","state":"ရှမ်းပြည်နယ်","ISO3166-2-lvl4":"MM-17","region":"ဝပြည်နယ် 佤邦","country":"မြန်မာ","country_code":"mm"},"osm_type":"relation","osm_id":17826180,"type":"administrative","location":[98.3948142,22.4937291],"bbox":[98.0073595,22.4181796,98.63525,22.7857593]},{"name":"တန့်ယန်း","other_names":{"name:en":"Tangyan Township","name:my":"တန့်ယန်းမြို့နယ်","name:zh":"当阳镇区","alt_name":"Tangyan"},"display_name":"တန့်ယန်း, တန့်ယန်းခရိုင်, ရှမ်းပြည်နယ်, မြန်မာ","address":{"municipality":"တန့်ယန်း","county":"တန့်ယန်းခရိုင်","state":"ရှမ်းပြည်နယ်","ISO3166-2-lvl4":"MM-17","country":"မြန်မာ","country_code":"mm"},"osm_type":"relation","osm_id":5996844,"type":"administrative","location":[98.42465945876276,22.41137675],"bbox":[98.0173946,21.8389595,98.7683773,22.9849756]}]}
{"name":"တမူး","other_names":{"name:en":"Tamu","name:my":"တမူး","name:fr":"Tamu","name:id":"Tamu","name:zh":"德穆","alt_name":"တမူးမြို့","alt_name:en":"Tammu;Tumu"},"display_name":"တမူး, တမူးခရိုင်, စစ်ကိုင်းတိုင်း, မြန်မာ","address":{"town":"တမူး","municipality":"တမူး","county":"တမူးခရိုင်","state":"စစ်ကိုင်းတိုင်း","ISO3166-2-lvl4":"MM-01","country":"မြန်မာ","country_code":"mm"},"osm_type":"way","osm_id":169977258,"type":"city","location":[94.3040852,24.2157468],"bbox":[94.291432,24.1888967,94.3233967,24.2360926]}
{"name":"တာချီလိတ်","other_names":{"name:de":"Tachilek","name:en":"Tachileik","name:fr":"Tachileik","name:id":"Tachileik","name:it":"Tachileik","name:ja":"タチレク","name:my":"တာချီလိတ်","name:pl":"Tachileik","name:sv":"Tachileik","name:th":"ท่าขี้เหล็ก","name:zh":"大其力","name:shn":"တႃႈၶီႈလဵၵ်း"},"display_name":"တာချီလိတ်, တာချီလိတ်ခရိုင်, ရှမ်းပြည်နယ်, 57120, မြန်မာ","address":{"city":"တာချီလိတ်","municipality":"တာချီလိတ်","county":"တာချီလိတ်ခရိုင်","state":"ရှမ်းပြည်နယ်","ISO3166-2-lvl4":"MM-17","postcode":"57120","country":"မြန်မာ","country_code":"mm"},"osm_type":"node","osm_id":249249716,"type":"city","location":[99.8842143,20.4490789],"bbox":[99.7242143,20.2890789,100.0442143,20.6090789],"border":[{"name":"တာချီလိတ်ခရိုင်","other_names":{"name:en":"Tachileik District","name:my":"တာချီလိတ်ခရိုင်","name:th":"ท่าขี้เหล็ก","name:zh":"大其力县"},"display_name":"တာချီလိတ်ခရိုင်, ရှမ်းပြည်နယ်, မြန်မာ","address":{"county":"တာချီလိတ်ခရိုင်","state":"ရှမ်းပြည်နယ်","ISO3166-2-lvl4":"MM-17","country":"မြန်မာ","country_code":"mm"},"osm_type":"relation","osm_id":5996552,"type":"administrative","location":[99.89044885021531,20.79689085],"bbox":[99.4363728,20.316168,100.6489691,21.2779562]},{"name":"တာချီလိတ်","other_names":{"name:en":"Tachileik Township","name:my":"တာချီလိတ်","name:zh":"大其力镇区","alt_name":"Tachileik","name:zh-Hant":"大其力鎮區"},"display_name":"တာချီလိတ်, တာချီလိတ်ခရိုင်, ရှမ်းပြည်နယ်, မြန်မာ","address":{"municipality":"တာချီလိတ်","county":"တာချီလိတ်ခရိုင်","state":"ရှမ်းပြည်နယ်","ISO3166-2-lvl4":"MM-17","country":"မြန်မာ","country_code":"mm"},"osm_type":"relation","osm_id":5996838,"type":"administrative","location":[99.85024901619327,20.6816952],"bbox":[99.4363728,20.316168,100.6489691,21.0470667]}]}
{"name":"တောင်ကြီး","other_names":{"name:ar":"تاونغيي","name:de":"Taunggyi","name:en":"Taunggyi","name:es":"Taunggyi","name:eu":"Taunggyi","name:fa":"تانجی","name:hi":"तौन्गयी","name:hy":"Թաունջի","name:ks":"تاونگئی","name:my":"တောင်ကြီး","name:pt":"Taunggyi","name:ru":"Таунджи","name:sr":"Таунџи","name:uk":"Таунджи","name:ur":"تاونگئی","name:zh":"东枝","name:azb":"تانجی","name:shn":"တူၼ်ႈတီး","name:az-Arab":"تانجی","name:zh-Hans":"东枝","name:zh-Hant":"東枝"},"display_name":"တောင်ကြီး, ဝဵင်းတူၼ်ႈတီး, တောင်ကြီးခရိုင, ရှမ်းပြည်နယ်, 06011, မြန်မာ","address":{"city":"တောင်ကြီး","municipality":"ဝဵင်းတူၼ်ႈတီး","county":"တောင်ကြီးခရိုင","state":"ရှမ်းပြည်နယ်","ISO3166-2-lvl4":"MM-17","postcode":"06011","country":"မြန်မာ","country_code":"mm"},"population":264804,"osm_type":"node","osm_id":5262829690,"type":"city","location":[97.0387263,20.7870108],"bbox":[96.8787263,20.6270108,97.1987263,20.9470108],"border":[{"name":"တောင်ကြီးခရိုင","other_names":{"name:en":"Taunggyi District","name:my":"တောင်ကြီးခရိုင်","name:sv":"Taunggyi District","name:zh":"東枝縣","alt_name":"Taunggyi","name:zh-Hans":"东枝县","name:zh-Hant":"東枝縣"},"display_name":"တောင်ကြီးခရိုင, ရှမ်းပြည်နယ်, မြန်မာ","address":{"county":"တောင်ကြီးခရိုင","state":"ရှမ်းပြည်နယ်","ISO3166-2-lvl4":"MM-17","country":"မြန်မာ","country_code":"mm"},"osm_type":"relation","osm_id":5996555,"type":"administrative","location":[96.88292932574835,21.219527749999997],"bbox":[96.6134237,20.166991,97.3009778,22.2700165]},{"name":"ဝဵင်းတူၼ်ႈတီး","other_names":{"name:en":"Taunggyi Township","name:my":"တောင်ကြီးမြို့နယ်","name:zh":"东枝镇区","alt_name":"Taunggyi","name:zh-Hant":"東枝鄉"},"display_name":"ဝဵင်းတူၼ်ႈတီး, တောင်ကြီးခရိုင, ရှမ်းပြည်နယ်, မြန်မာ","address":{"municipality":"ဝဵင်းတူၼ်ႈတီး","county":"တောင်ကြီးခရိုင","state":"ရှမ်းပြည်နယ်","ISO3166-2-lvl4":"MM-17","country":"မြန်မာ","country_code":"mm"},"osm_type":"relation","osm_id":5996848,"type":"administrative","location":[97.0904419032471,20.62528385],"bbox":[96.8121481,20.166991,97.1864492,21.0770085]}]}
{"name":"ထားဝယ်မြို့","other_names":{"name:ar":"داوي","name:de":"Dawei","name:el":"Νταουέι","name:en":"Dawei","name:es":"Dawei","name:et":"Dawei","name:fa":"داوی","name:fr":"Tavoy","name:hi":"डवे","name:ja":"ダウェイ","name:ko":"다웨이","name:ks":"داوئی","name:my":"ထားဝယ်မြို့","name:pt":"Dawei","name:ru":"Тавой","name:uk":"Тавой","name:ur":"داوئی","name:zh":"土瓦","name:arz":"داوي","name:azb":"داوی","old_name":"Tavoy","name:az-Arab":"داوی"},"display_name":"ထားဝယ်မြို့, ထားဝယ်မြို့နယ်, ထားဝယ်ခရိုင်, တနင်္သာရီတိုင်း, 14001, မြန်မာ","address":{"city":"ထားဝယ်မြို့","county":"ထားဝယ်မြို့နယ်","state":"တနင်္သာရီတိုင်း","ISO3166-2-lvl4":"MM-05","postcode":"14001","country":"မြန်မာ","country_code":"mm"},"population":146964,"osm_type":"node","osm_id":26576200,"type":"city","location":[98.1990191,14.0797232],"bbox":[98.0390191,13.9197232,98.3590191,14.2397232]}
{"name":"ဒီမောဆို","other_names":{"name:en":"Demoso","name:my":"ဒီမောဆို","name:zh":"代莫索","alt_name":"ဒီမောဆိုးမြို့"},"display_name":"ဒီမောဆို, ဒီးမော့ဆို, ဒီးမော့ဆိုခရိုင်, ကယားပြည်နယ်, မြန်မာ","address":{"city":"ဒီမောဆို","municipality":"ဒီးမော့ဆို","county":"ဒီးမော့ဆိုခရိုင်","state":"ကယားပြည်နယ်","ISO3166-2-lvl4":"MM-12","country":"မြန်မာ","country_code":"mm"},"osm_type":"node","osm_id":4826511830,"type":"city","location":[97.158813,19.538319],"bbox":[96.998813,19.378319,97.318813,19.698319],"border":{"name":"ဒီးမော့ဆို","other_names":{"name:en":"Demoso Township","name:my":"ဒီးမော့ဆို","name:zh":"代莫索镇区","alt_name":"Demoso;Dimawhso;Dimawhso Township;ဒီမောဆိုး‌မြို့နယ"},"display_name":"ဒီးမော့ဆို, ဒီးမော့ဆိုခရိုင်, ကယားပြည်နယ်, မြန်မာ","address":{"municipality":"ဒီးမော့ဆို","county":"ဒီးမော့ဆိုခရိုင်","state":"ကယားပြည်နယ်","ISO3166-2-lvl4":"MM-12","country":"မြန်မာ","country_code":"mm"},"osm_type":"relation","osm_id":5996603,"type":"administrative","location":[97.2828233062694,19.45763175],"bbox":[96.8731211,19.2000908,97.4152366,19.7150402]}}
{"name":"နမ္မတူ","other_names":{"name:en":"Namtu","name:fr":"Namtu","name:lt":"Namtu","name:my":"နမ္မတူ","name:sv":"Namtu","name:zh":"南渡","name:shn":"ၼမ်ႉတူႈ","alt_name:zh":"南木渡"},"display_name":"နမ္မတူ, ကျောက်မဲခရိုင်, ရှမ်းပြည်နယ်, တအာင်းပြည်နယ်, မြန်မာ","address":{"city":"နမ္မတူ","municipality":"နမ္မတူ","county":"ကျောက်မဲခရိုင်","state":"ရှမ်းပြည်နယ်","ISO3166-2-lvl4":"MM-17","region":"တအာင်းပြည်နယ်","country":"မြန်မာ","country_code":"mm"},"osm_type":"node","osm_id":1670179703,"type":"city","location":[97.3975962,23.0968111],"bbox":[97.2375962,22.9368111,97.5575962,23.2568111],"border":{"name":"နမ္မတူ","other_names":{"name:en":"Namtu Township","name:my":"နမ္မတူမြို့နယ်","name:zh":"南渡镇区","alt_name":"Namtu"},"display_name":"နမ္မတူ, ကျောက်မဲခရိုင်, ရှမ်းပြည်နယ်, တအာင်းပြည်နယ်, မြန်မာ","address":{"municipality":"နမ္မတူ","county":"ကျောက်မဲခရိုင်","state":"ရှမ်းပြည်နယ်","ISO3166-2-lvl4":"MM-17","region":"တအာင်းပြည်နယ်","country":"မြန်မာ","country_code":"mm"},"osm_type":"relation","osm_id":5996761,"type":"administrative","location":[97.47445131937138,23.006810299999998],"bbox":[97.1477552,22.709261,97.6578807,23.3008855]}}
{"name":"နမ့်ခပ်ဒိုင်နယ် 南佧乡","other_names":{"name:my":"နမ့်ခပ်ဒိုင်နယ်","name:zh":"南佧乡","name:zh-Hant":"南佧鄉"},"display_name":"နမ့်ခပ်ဒိုင်နယ် 南佧乡, ဆီလူးခရိုင် 色勒县, ရှမ်းပြည်နယ်, 掸邦东部第四特区, မြန်မာ","address":{"city":"နမ့်ခပ်ဒိုင်နယ် 南佧乡","county":"ဆီလူးခရိုင် 色勒县","state":"ရှမ်းပြည်နယ်","ISO3166-2-lvl4":"MM-17","region":"掸邦东部第四特区","country":"မြန်မာ","country_code":"mm"},"osm_type":"relation","osm_id":18169000,"type":"administrative","location":[99.73219968281379,21.99516815],"bbox":[99.6772166,21.9144617,99.8130226,22.074374],"inferred_type":"city"}
{"name":"နမ့်စန်","other_names":{"name:de":"Nansang","name:en":"Nansang","name:es":"Nansang","name:fr":"Nansang","name:my":"နမ့်စန်","name:zh":"南桑","alt_name":"Namsang","int_name":"Namsang","name:shn":"ၼမ်ႉၸၢင်"},"display_name":"နမ့်စန်, နမ့်စန်, နမ့်စန်ခရိုင်, ရှမ်းပြည်နယ်, 06161, မြန်မာ","address":{"city":"နမ့်စန်","municipality":"နမ့်စန်","county":"နမ့်စန်ခရိုင်","state":"ရှမ်းပြည်နယ်","ISO3166-2-lvl4":"MM-17","postcode":"06161","country":"မြန်မာ","country_code":"mm"},"osm_type":"node","osm_id":3427959706,"type":"city","location":[97.7218485,20.8894099],"bbox":[97.5618485,20.7294099,97.8818485,21.0494099],"border":{"name":"နမ့်စန်","other_names":{"name:en":"Nansang Township","name:my":"နမ့်စန်မြို့နယ်","name:zh":"南桑镇区","alt_name":"Nansang"},"display_name":"နမ့်စန်, နမ့်စန်ခရိုင်, ရှမ်းပြည်နယ်, 06161, မြန်မာ","address":{"municipality":"နမ့်စန်","county":"နမ့်စန်ခရိုင်","state":"ရှမ်းပြည်နယ်","ISO3166-2-lvl4":"MM-17","postcode":"06161","country":"မြန်မာ","country_code":"mm"},"osm_type":"relation","osm_id":5996762,"type":"administrative","location":[97.85092585039908,20.83260345],"bbox":[97.4622092,20.4388929,98.3571403,21.2254277]}}
{"name":"နမ့်လန်","other_names":{"name:en":"Namlan","name:my":"နမ့်လန်","name:shn":"ၼမ်ႉလၼ်ႈ"},"display_name":"နမ့်လန်, သီပေါ, ကျောက်မဲခရိုင်, ရှမ်းပြည်နယ်, မြန်မာ","address":{"city":"နမ့်လန်","municipality":"သီပေါ","county":"ကျောက်မဲခရိုင်","state":"ရှမ်းပြည်နယ်","ISO3166-2-lvl4":"MM-17","country":"မြန်မာ","country_code":"mm"},"osm_type":"node","osm_id":4163315595,"type":"city","location":[97.4026353,22.2421541],"bbox":[97.2426353,22.0821541,97.5626353,22.4021541]}
{"name":"နေပြည်တော်","other_names":{"name:ar":"نايبييدو","name:az":"Naypyida","name:be":"Найп'іда","name:bg":"Найпидо","name:ca":"Naypyidaw","name:cs":"Neipyijto","name:cv":"Нейпьидо","name:de":"Nay Pyi Taw","name:el":"Νάι Πι Τάου","name:en":"Nay Pyi Taw","name:es":"Naipyidó","name:et":"Nay Pyi Taw","name:eu":"Naypyidaw","name:fa":"نایپیداو","name:fi":"Naypyidaw","name:fr":"Naypyidaw","name:he":"נייפידאו","name:hi":"नाएप्यीडॉ","name:hr":"Naypyidaw","name:hu":"Nepjida","name:hy":"Նայպյիդաու","name:is":"Nay Pyi Taw","name:it":"Naypyidaw","name:ja":"ネピドー","name:ka":"ნაიფიიდო","name:kn":"ನೇಪ್ಯಿದಾವ್","name:ko":"네삐도","name:lt":"Neipidas","name:lv":"Nepjido","name:mk":"Непјидо","name:ml":"നേപ്യിഡോ","name:mr":"नेपिडो","name:my":"နေပြည်တော်","name:nl":"Nay Pyi Taw","name:oc":"Nay Pyi Taw","name:os":"Нейпьидо","name:pl":"Naypyidaw","name:pt":"Nepiedó","name:ru":"Нейпьидо","name:sk":"Nepjito","name:sq":"Nepxhidou","name:sr":"Нејпјидо","name:sv":"Naypyitaw","name:ta":"நைப்பியிதோ","name:th":"เนปีดอ","name:ug":"ناپيىداۋ","name:uk":"Найп'їдо","name:ur":"نیپیداو","name:vi":"Nây-pi-tô","name:vo":"Nepyido","name:zh":"内比都","alt_name":"Nay Pyi Taw;Nay Pyi Taw","int_name":"Nay Pyi Taw","name:ckb":"نایپیداو","name:cnr":"Naypyidaw","name:kab":"Naypyidaw","alt_name:vi":"Ne-pi-đô","name:be-tarask":"Найп'іда","name:zh-Hans-CN":"内比都","name:zh-Hant-TW":"奈比多"},"display_name":"နေပြည်တော်, ဇမ္ဗူသီရိမြို့နယ်, ပျဉ်းမနားခရိုင်, နေပြည်တော် ပြည်ထောင်စုနယ်မြ, 15011, မြန်မာ","address":{"city":"နေပြည်တော်","municipality":"ဇမ္ဗူသီရိမြို့နယ်","county":"ပျဉ်းမနားခရိုင်","state":"နေပြည်တော် ပြည်ထောင်စုနယ်မြ","ISO3166-2-lvl4":"MM-18","postcode":"15011","country":"မြန်မာ","country_code":"mm"},"population":1160242,"osm_type":"node","osm_id":315390382,"type":"city","location":[96.1032552,19.7753289],"bbox":[95.9432552,19.6153289,96.2632552,19.9353289]}
{"name":"နောင်ချို","other_names":{"name:de":"Nawnghkio","name:en":"Nawnghkio","name:fr":"Nawnghkio","name:my":"နောင်ချို","name:zh":"瑙丘","alt_name":"Naunghkio;Naungcho;Nawngcho","name:shn":"ၼွင်ၶဵဝ်"},"display_name":"နောင်ချို, ကျောက်မဲခရိုင်, ရှမ်းပြည်နယ်, တအာင်းပြည်နယ်, မြန်မာ","address":{"city":"နောင်ချို","municipality":"နောင်ချို","county":"ကျောက်မဲခရိုင်","state":"ရှမ်းပြည်နယ်","ISO3166-2-lvl4":"MM-17","region":"တအာင်းပြည်နယ်","country":"မြန်မာ","country_code":"mm"},"osm_type":"node","osm_id":4167628764,"type":"city","location":[96.801856,22.332277],"bbox":[96.641856,22.172277,96.961856,22.492277],"border":{"name":"နောင်ချို","other_names":{"name:en":"Nawnghkio Township","name:my":"နောင်ချိုမြို့နယ်","name:zh":"瑙丘镇区","alt_name":"Nawnghkio"},"display_name":"နောင်ချို, ကျောက်မဲခရိုင်, ရှမ်းပြည်နယ်, တအာင်းပြည်နယ်, မြန်မာ","address":{"municipality":"နောင်ချို","county":"ကျောက်မဲခရိုင်","state":"ရှမ်းပြည်နယ်","ISO3166-2-lvl4":"MM-17","region":"တအာင်းပြည်နယ်","country":"မြန်မာ","country_code":"mm"},"osm_type":"relation","osm_id":5996768,"type":"administrative","location":[96.60972555502303,22.36886565],"bbox":[96.2041582,21.9365707,96.9888438,22.8016684]}}
{"name":"ပင်လုံ","other_names":{"name:en":"Panglong","name:my":"ပင်လုံ","name:zh":"丙弄","alt_name":"Pinlon","name:shn":"ပၢင်လူင်","alt_name:zh":"彬龙"},"display_name":"ပင်လုံ, လွိုင်လင်, လွိုင်လင်ခရိုင်, ရှမ်းပြည်နယ်, မြန်မာ","address":{"city":"ပင်လုံ","municipality":"လွိုင်လင်","county":"လွိုင်လင်ခရိုင်","state":"ရှမ်းပြည်နယ်","ISO3166-2-lvl4":"MM-17","country":"မြန်မာ","country_code":"mm"},"population":72186,"osm_type":"node","osm_id":3810051988,"type":"city","location":[97.5295177,20.9914984],"bbox":[97.3695177,20.8314984,97.6895177,21.1514984]}
{"name":"ပြင်ဦးလွင်","other_names":{"name:de":"Pyin U Lwin","name:en":"Pyin Oo Lwin","name:es":"Pyin U Lwin","name:et":"Pyin Oo Lwin","name:fr":"Pyin U Lwin","name:ja":"ピン・ウー・ルウィン","name:my":"ပြင်ဦးလွင်","name:ru":"Пьин У Львин","name:zh":"彬乌伦","alt_name":"Maymyo;Pyin U Lwin","int_name":"Pyin Oo Lwin","name:shn":"ပၢင်ႇဢူး","old_name":"မေမြို့","old_name:en":"Maymyo","name:zh-Hans":"彬乌伦","name:zh-Hant":"彬烏倫"},"display_name":"ပြင်ဦးလွင်, ပြင်ဦးလွင်ခရိုင်, မန္တလေးတိုင်း, 08520, မြန်မာ","address":{"city":"ပြင်ဦးလွင်","municipality":"ပြင်ဦးလွင်","county":"ပြင်ဦးလွင်ခရိုင်","state":"မန္တလေးတိုင်း","ISO3166-2-lvl4":"MM-04","postcode":"08520","country":"မြန်မာ","country_code":"mm"},"population":255000,"osm_type":"node","osm_id":26576173,"type":"city","location":[96.4667341,22.0331367],"bbox":[96.3067341,21.8731367,96.6267341,22.1931367],"border":[{"name":"ပြင်ဦးလွင်ခရိုင်","other_names":{"name:en":"Pyin Oo Lwin District","name:my":"ပြင်ဦးလွင်ခရိုင်","name:pl":"Pyin U Lwin","name:sv":"Pyin Oo Lwin District","name:zh":"彬乌伦县","alt_name":"Pyinoolwin;Pyinoolwin District"},"display_name":"ပြင်ဦးလွင်ခရိုင်, မန္တလေးတိုင်း, မြန်မာ","address":{"county":"ပြင်ဦးလွင်ခရိုင်","state":"မန္တလေးတိုင်း","ISO3166-2-lvl4":"MM-04","country":"မြန်မာ","country_code":"mm"},"osm_type":"relation","osm_id":5996548,"type":"administrative","location":[96.54158283434313,22.020082600000002],"bbox":[96.2420669,21.6685874,96.7648139,22.3717546]},{"name":"ပြင်ဦးလွင်","other_names":{"name:en":"Pyinoolwin Township","name:my":"ပြင်ဦးလွင်မြို့နယ်","name:zh":"彬烏倫鎮區","alt_name":"Pyinoolwin;Pyin U Lwin Township;Maymyo Township"},"display_name":"ပြင်ဦးလွင်, ပြင်ဦးလွင်ခရိုင်, မန္တလေးတိုင်း, မြန်မာ","address":{"municipality":"ပြင်ဦးလွင်","county":"ပြင်ဦးလွင်ခရိုင်","state":"မန္တလေးတိုင်း","ISO3166-2-lvl4":"MM-04","country":"မြန်မာ","country_code":"mm"},"osm_type":"relation","osm_id":5996813,"type":"administrative","location":[96.54158283434313,22.020082600000002],"bbox":[96.2420669,21.6685874,96.7648139,22.3717546]}]}
{"name":"ပြည်","other_names":{"name:de":"Pyay","name:en":"Pyay","name:es":"Pyay","name:et":"Pyay","name:fr":"Prome","name:ja":"ピイ","name:ko":"프롬","name:my":"ပြည်","name:ru":"Пьи","name:zh":"卑谬","alt_name":"ပြည်မြို့","old_name":"Prome"},"display_name":"ပြည်, ပြည်မြို့နယ်, ပြည်ခရိုင, ပဲခူးတိုင်းဒေသကြီး, 08151, မြန်မာ","address":{"city":"ပြည်","municipality":"ပြည်မြို့နယ်","county":"ပြည်ခရိုင","state":"ပဲခူးတိုင်းဒေသကြီး","ISO3166-2-lvl4":"MM-02","postcode":"08151","country":"မြန်မာ","country_code":"mm"},"population":135308,"osm_type":"node","osm_id":26576183,"type":"city","location":[95.216667,18.816667],"bbox":[95.056667,18.656667,95.376667,18.976667],"border":[{"name":"ပြည်ခရိုင","other_names":{"name:en":"Pyay District","name:ko":"프롬현","name:my":"ပြည်ခရိုင","name:zh":"卑谬县","alt_name":"Pyay;ပြည်ခရိုင်"},"display_name":"ပြည်ခရိုင, ပဲခူးတိုင်းဒေသကြီး, မြန်မာ","address":{"county":"ပြည်ခရိုင","state":"ပဲခူးတိုင်းဒေသကြီး","ISO3166-2-lvl4":"MM-02","country":"မြန်မာ","country_code":"mm"},"osm_type":"relation","osm_id":5996547,"type":"administrative","location":[95.26005035391995,18.7742554],"bbox":[94.6855515,18.356581,95.8674332,19.191427]},{"name":"ပြည်မြို့နယ်","other_names":{"name:en":"Pyay Township","name:ko":"프롬","name:my":"ပြည်မြို့နယ်","name:zh":"卑谬镇区","alt_name":"Pyay;Prome;Prome Township;ပြည်"},"display_name":"ပြည်မြို့နယ်, ပြည်ခရိုင, ပဲခူးတိုင်းဒေသကြီး, မြန်မာ","address":{"municipality":"ပြည်မြို့နယ်","county":"ပြည်ခရိုင","state":"ပဲခူးတိုင်းဒေသကြီး","ISO3166-2-lvl4":"MM-02","country":"မြန်မာ","country_code":"mm"},"osm_type":"relation","osm_id":5996810,"type":"administrative","location":[95.27466073152578,18.91393295],"bbox":[95.1496767,18.7272335,95.4781384,19.1004428]}]}
{"name":"ပုံပါကျင်မြို့နယ်ခွဲ","other_names":{"name:en":"Ponparkyin Sub-Township","name:my":"ပုံပါကျင်မြို့နယ်ခွဲ","name:zh":"班巴金分镇区"},"display_name":"ပုံပါကျင်မြို့နယ်ခွဲ, မိုင်းတုံမြို့နယ်, မိုင်းဆတ်ခရိုင်, ရှမ်းပြည်နယ်, ဝပြည်နယ် 佤邦, 06292, မြန်မာ","address":{"city":"ပုံပါကျင်မြို့နယ်ခွဲ","municipality":"မိုင်းတုံမြို့နယ်","county":"မိုင်းဆတ်ခရိုင်","state":"ရှမ်းပြည်နယ်","ISO3166-2-lvl4":"MM-17","region":"ဝပြည်နယ် 佤邦","postcode":"06292","country":"မြန်မာ","country_code":"mm"},"osm_type":"relation","osm_id":18738551,"type":"administrative","location":[98.96412535054097,19.9555005],"bbox":[98.8759588,19.7685619,99.1604922,20.1427236],"inferred_type":"city"}
{"name":"ပုသိမ်မြို့","other_names":{"name:de":"Pathein","name:en":"Pathein","name:es":"Pathein","name:et":"Pathein","name:eu":"Pathein","name:fr":"Pathein","name:hi":"पथेइन","name:hr":"Pathein","name:ja":"パテイン","name:ko":"파테인","name:my":"ပုသိမ်မြို့","name:ru":"Патейн","name:sl":"Patein","name:uk":"Пантейн","name:zh":"勃生","old_name":"Bassein"},"display_name":"ပုသိမ်မြို့, ပုသိမ်မြို့နယ်, ပုသိမ်ခရိုင်, ဧရာဝတီတိုင်းဒေသကြီး, 10011, မြန်မာ","address":{"city":"ပုသိမ်မြို့","municipality":"ပုသိမ်မြို့နယ်","county":"ပုသိမ်ခရိုင်","state":"ဧရာဝတီတိုင်းဒေသကြီး","ISO3166-2-lvl4":"MM-07","postcode":"10011","country":"မြန်မာ","country_code":"mm"},"population":315600,"osm_type":"node","osm_id":26576187,"type":"city","location":[94.733333,16.783333],"bbox":[94.573333,16.623333,94.893333,16.943333],"border":{"name":"ပုသိမ်ခရိုင်","other_names":{"name:en":"Pathein","name:my":"ပုသိမ်ခရိုင်","name:zh":"勃生县"},"display_name":"ပုသိမ်ခရိုင်, ဧရာဝတီတိုင်းဒေသကြီး, မြန်မာ","address":{"county":"ပုသိမ်ခရိုင်","state":"ဧရာဝတီတိုင်းဒေသကြီး","ISO3166-2-lvl4":"MM-07","country":"မြန်မာ","country_code":"mm"},"osm_type":"relation","osm_id":5996544,"type":"administrative","location":[94.52112903712884,16.7137102],"bbox":[94.1911499,15.83215,95.0522901,17.4755232]}}
{"name":"ပေါင်","other_names":{"name:en":"Paung","name:my":"ပေါင်","name:zh":"榜镇"},"display_name":"ပေါင်, သထုံခရိုင်, မွန်ပြည်နယ်, မြန်မာ","address":{"city":"ပေါင်","municipality":"ပေါင်","county":"သထုံခရိုင်","state":"မွန်ပြည်နယ်","ISO3166-2-lvl4":"MM-15","country":"မြန်မာ","country_code":"mm"},"osm_type":"node","osm_id":5065154859,"type":"city","location":[97.45625,16.6192913],"bbox":[97.29625,16.4592913,97.61625,16.7792913],"border":{"name":"ပေါင်","other_names":{"name:en":"Paung Township","name:my":"ပေါင်","name:zh":"榜镇区"},"display_name":"ပေါင်, သထုံခရိုင်, မွန်ပြည်နယ်, မြန်မာ","address":{"municipality":"ပေါင်","county":"သထုံခရိုင်","state":"မွန်ပြည်နယ်","ISO3166-2-lvl4":"MM-15","country":"မြန်မာ","country_code":"mm"},"osm_type":"relation","osm_id":5996795,"type":"administrative","location":[97.36340113780248,16.652559699999998],"bbox":[97.0669546,16.4846606,97.6484958,16.8165777]}}
{"name":"ပဲခူးမြို့","other_names":{"name:de":"Bago","name:en":"Bago","name:es":"Bago","name:et":"Bago","name:eu":"Bago","name:fr":"Pégou","name:hr":"Bago","name:ja":"バゴー","name:ko":"바고","name:my":"ပဲခူးမြို့","name:ru":"Баго","name:sl":"Bago","name:th":"พะโค","name:uk":"Баго","name:zh":"勃固","alt_name":"Pegu;ပဲခူးမြို့","old_name":"Пеґу","alt_name:en":"Bago"},"display_name":"ပဲခူးမြို့, ပဲခူးမြို့နယ်, ပဲခူးခရိုင်, ပဲခူးတိုင်းဒေသကြီး, 70101, မြန်မာ","address":{"city":"ပဲခူးမြို့","municipality":"ပဲခူးမြို့နယ်","county":"ပဲခူးခရိုင်","state":"ပဲခူးတိုင်းဒေသကြီး","ISO3166-2-lvl4":"MM-02","postcode":"70101","country":"မြန်မာ","country_code":"mm"},"population":284179,"osm_type":"node","osm_id":26576210,"type":"city","location":[96.479722,17.336667],"bbox":[96.319722,17.176667,96.639722,17.496667],"border":[{"name":"ပဲခူးခရိုင်","other_names":{"name:en":"Bago District","name:ko":"바고현","name:my":"ပဲခူးခရိုင်","name:zh":"勃固县","alt_name":"Bago"},"display_name":"ပဲခူးခရိုင်, ပဲခူးတိုင်းဒေသကြီး, မြန်မာ","address":{"county":"ပဲခူးခရိုင်","state":"ပဲခူးတိုင်းဒေသကြီး","ISO3166-2-lvl4":"MM-02","country":"မြန်မာ","country_code":"mm"},"osm_type":"relation","osm_id":5996493,"type":"administrative","location":[96.64603025197206,17.6596964],"bbox":[95.8979099,16.8287704,97.2243803,18.4965231]},{"name":"ပဲခူးမြို့နယ်","other_names":{"name:en":"Bago Township","name:my":"ပဲခူးမြို့နယ်","name:zh":"勃固镇区","alt_name":"Bago;Pegu;ပဲခူး"},"display_name":"ပဲခူးမြို့နယ်, ပဲခူးခရိုင်, ပဲခူးတိုင်းဒေသကြီး, မြန်မာ","address":{"municipality":"ပဲခူးမြို့နယ်","county":"ပဲခူးခရိုင်","state":"ပဲခူးတိုင်းဒေသကြီး","ISO3166-2-lvl4":"MM-02","country":"မြန်မာ","country_code":"mm"},"osm_type":"relation","osm_id":5996573,"type":"administrative","location":[96.4005000103028,17.526400000000002],"bbox":[96.0360961,17.0462391,96.6224822,18.0077111]}]}
{"name":"ဗန်းမော်","other_names":{"name:en":"Bhamo","name:ja":"バモー","name:my":"ဗန်းမော်","name:zh":"八莫","alt_name":"ဗန်းမော်မြို့"},"display_name":"ဗန်းမော်, ဗန်းမော်ခရိုင်, ကချင်ပြည်နယ်, မြန်မာ","address":{"city":"ဗန်းမော်","municipality":"ဗန်းမော်","county":"ဗန်းမော်ခရိုင်","state":"ကချင်ပြည်နယ်","ISO3166-2-lvl4":"MM-11","country":"မြန်မာ","country_code":"mm"},"population":47920,"osm_type":"node","osm_id":26576204,"type":"city","location":[97.2283893,24.2585793],"bbox":[97.0683893,24.0985793,97.3883893,24.4185793],"border":[{"name":"ဗန်းမော်ခရိုင်","other_names":{"name:ca":"Districte de Bhamo","name:en":"Bhamo District","name:fr":"District de Bhamo","name:my":"ဗန်းမော်ခရိုင်","name:pl":"Banmaw","name:sv":"Bhamo","name:zh":"八莫县","alt_name":"Bhamo"},"display_name":"ဗန်းမော်ခရိုင်, ကချင်ပြည်နယ်, မြန်မာ","address":{"county":"ဗန်းမော်ခရိုင်","state":"ကချင်ပြည်နယ်","ISO3166-2-lvl4":"MM-11","country":"မြန်မာ","country_code":"mm"},"osm_type":"relation","osm_id":5996495,"type":"administrative","location":[97.17853617700688,24.2692872],"bbox":[96.5490364,23.6332454,97.7692064,24.9049768]},{"name":"ဗန်းမော်","other_names":{"name:en":"Bhamo Township","name:my":"ဗန်းမော်","name:zh":"八莫镇区","alt_name":"Bhamo","name:zh-Hant":"八莫鎮區"},"display_name":"ဗန်းမော်, ဗန်းမော်ခရိုင်, ကချင်ပြည်နယ်, မြန်မာ","address":{"municipality":"ဗန်းမော်","county":"ဗန်းမော်ခရိုင်","state":"ကချင်ပြည်နယ်","ISO3166-2-lvl4":"MM-11","country":"မြန်မာ","country_code":"mm"},"osm_type":"relation","osm_id":5996577,"type":"administrative","location":[97.17682902845776,24.21310875],"bbox":[96.7758043,23.7118203,97.3949109,24.710102]}]}
{"name":"ဘားအံ","other_names":{"name:de":"Hpa-an","name:en":"Hpa-An","name:es":"Pa-An","name:et":"Hpa-an","name:eu":"Hpa-An","name:fr":"Pa-An","name:ja":"パアン","name:ko":"파안","name:my":"ဘားအံမြို့","name:zh":"帕安","alt_name":"Pa-An","int_name":"Hpa-An"},"display_name":"ဘားအံ, ဘားအံခရိုင်, ကရင်ပြည်နယ်, 10311, မြန်မာ","address":{"city":"ဘားအံ","municipality":"ဘားအံ","county":"ဘားအံခရိုင်","state":"ကရင်ပြည်နယ်","ISO3166-2-lvl4":"MM-13","postcode":"10311","country":"မြန်မာ","country_code":"mm"},"population":421575,"osm_type":"node","osm_id":3744936806,"type":"city","location":[97.6362745,16.8902634],"bbox":[97.4762745,16.7302634,97.7962745,17.0502634],"border":{"name":"ဘားအံ","other_names":{"name:en":"Hpa-An Township","name:my":"ဘားအံ","name:uk":"Паан","name:zh":"帕安镇区"},"display_name":"ဘားအံ, ဘားအံခရိုင်, ကရင်ပြည်နယ်, မြန်မာ","address":{"municipality":"ဘားအံ","county":"ဘားအံခရိုင်","state":"ကရင်ပြည်နယ်","ISO3166-2-lvl4":"MM-13","country":"မြန်မာ","country_code":"mm"},"osm_type":"relation","osm_id":5996620,"type":"administrative","location":[97.57291805230969,17.11535995],"bbox":[97.3591762,16.5127665,98.0114157,17.7186873]}}
{"name":"မကွေး","other_names":{"name:de":"Magwe","name:en":"Magway","name:es":"Magway","name:et":"Magway","name:eu":"Magway","name:fr":"Magwe","name:hi":"मगवे","name:ja":"マグウェ","name:kn":"ಮಾಗ್ವೆ","name:my":"မကွေး","name:ru":"Магуэ","name:zh":"马圭","alt_name":"Magwe"},"display_name":"မကွေး, မကွေးခရိုင်, မကွေးတိုင်းဒေသကြီး, 04011, မြန်မာ","address":{"city":"မကွေး","municipality":"မကွေး","county":"မကွေးခရိုင်","state":"မကွေးတိုင်းဒေသကြီး","ISO3166-2-lvl4":"MM-03","postcode":"04011","country":"မြန်မာ","country_code":"mm"},"population":289247,"osm_type":"node","osm_id":26576172,"type":"city","location":[94.9213518,20.1491458],"bbox":[94.7613518,19.9891458,95.0813518,20.3091458],"border":[{"name":"မကွေးခရိုင်","other_names":{"name:ca":"Districte de Magway","name:en":"Magway District","name:my":"မကွေးခရိုင်","name:sv":"Magway District","name:zh":"馬圭縣","alt_name":"Magway"},"display_name":"မကွေးခရိုင်, မကွေးတိုင်းဒေသကြီး, မြန်မာ","address":{"county":"မကွေးခရိုင်","state":"မကွေးတိုင်းဒေသကြီး","ISO3166-2-lvl4":"MM-03","country":"မြန်မာ","country_code":"mm"},"osm_type":"relation","osm_id":5996520,"type":"administrative","location":[95.32974270773789,20.28448155],"bbox":[94.6845543,19.6285598,95.8341817,20.9405164]},{"name":"မကွေး","other_names":{"name:en":"Magway Township","name:my":"မကွေးမြို့နယ်","name:nl":"Magway Township","name:zh":"馬圭鎮區","alt_name":"Magway"},"display_name":"မကွေး, မကွေးခရိုင်, မကွေးတိုင်းဒေသကြီး, 04011, မြန်မာ","address":{"municipality":"မကွေး","county":"မကွေးခရိုင်","state":"မကွေးတိုင်းဒေသကြီး","ISO3166-2-lvl4":"MM-03","postcode":"04011","country":"မြန်မာ","country_code":"mm"},"osm_type":"relation","osm_id":5996697,"type":"administrative","location":[95.09864337115903,20.07032605],"bbox":[94.8884869,19.7791731,95.4141432,20.3616547]}]}
{"name":"မန္တလေး","other_names":{"name:cs":"Mandalaj","name:de":"Mandalay","name:en":"Mandalay","name:et":"Mandalay","name:eu":"Mandalay","name:fr":"Mandalay","name:hi":"मंदलै","name:hr":"Mandalay","name:ja":"マンダレー","name:kn":"ಮಂದಲೈ","name:my":"မန္တလေး","name:pt":"Mandalay","name:ru":"Мандалай","name:sk":"Mandalaj","name:sl":"Mandalaj","name:sr":"Мандалеј","name:th":"มัณฑะเลย์","name:zh":"曼德勒","int_name":"Mandalay","alt_name:zh":"瓦城"},"display_name":"မန္တလေး, မန္တလေးမြို့, မန္တလေးတိုင်း, 05024, မြန်မာ","address":{"city":"မန္တလေး","state_district":"မန္တလေးမြို့","state":"မန္တလေးတိုင်း","ISO3166-2-lvl4":"MM-04","postcode":"05024","country":"မြန်မာ","country_code":"mm"},"population":1208099,"osm_type":"node","osm_id":26576218,"type":"city","location":[96.0948743,21.9596834],"bbox":[95.9348743,21.7996834,96.2548743,22.1196834]}
{"name":"မြင်းခြံ","other_names":{"name:de":"Myingyan","name:en":"Myingyan","name:es":"Myingyan","name:et":"Myingyan","name:fr":"Myingyan","name:ja":"ミンジャン","name:my":"မြင်းခြံမြို့","name:ru":"Мьинджан","name:zh":"敏建"},"display_name":"မြင်းခြံ, မြင်းခြံခရိုင်, မန္တလေးတိုင်း, 05251, မြန်မာ","address":{"city":"မြင်းခြံ","municipality":"မြင်းခြံ","county":"မြင်းခြံခရိုင်","state":"မန္တလေးတိုင်း","ISO3166-2-lvl4":"MM-04","postcode":"05251","country":"မြန်မာ","country_code":"mm"},"population":141713,"osm_type":"node","osm_id":26576212,"type":"city","location":[95.3924129,21.4587531],"bbox":[95.2324129,21.2987531,95.5524129,21.6187531],"border":[{"name":"မြင်းခြံ","other_names":{"name:en":"Myin Chan","name:my":"မြင်းခြံ","name:de":"Myingyan","name:es":"Myingyan","name:et":"Myingyan","name:fr":"Myingyan","name:ja":"ミンジャン","name:ru":"Мьинджан","name:zh":"敏建","alt:en":"Myingyan","alt:my":"မြင်းခြံမြို့"},"display_name":"မြင်းခြံ, မြင်းခြံခရိုင်, မန္တလေးတိုင်း, 05251, မြန်မာ","address":{"city":"မြင်းခြံ","municipality":"မြင်းခြံ","county":"မြင်းခြံခရိုင်","state":"မန္တလေးတိုင်း","ISO3166-2-lvl4":"MM-04","postcode":"05251","country":"မြန်မာ","country_code":"mm"},"population":141713,"osm_type":"way","osm_id":760439905,"type":"city","location":[95.3924129,21.4587531],"bbox":[95.3692149,21.4156087,95.4115364,21.493298]},{"name":"မြင်းခြံခရိုင်","other_names":{"name:ca":"Districte de Myingyan","name:en":"Myingyan District","name:my":"မြင်းခြံခရိုင်","name:sv":"Myingyan District","name:zh":"敏建县","alt_name":"Myingyan"},"display_name":"မြင်းခြံခရိုင်, မန္တလေးတိုင်း, မြန်မာ","address":{"county":"မြင်းခြံခရိုင်","state":"မန္တလေးတိုင်း","ISO3166-2-lvl4":"MM-04","country":"မြန်မာ","country_code":"mm"},"osm_type":"relation","osm_id":5996541,"type":"administrative","location":[95.59067369065593,21.3911546],"bbox":[95.1042623,21.0093909,95.9814701,21.7707994]},{"name":"မြင်းခြံ","other_names":{"name:en":"Myingyan Township","name:my":"မြင်းခြံမြို့နယ်","name:ur":"مینگیان ٹاؤنشپ","name:zh":"敏建鎮區","alt_name":"Myingyan"},"display_name":"မြင်းခြံ, မြင်းခြံခရိုင်, မန္တလေးတိုင်း, 05251, မြန်မာ","address":{"municipality":"မြင်းခြံ","county":"မြင်းခြံခရိုင်","state":"မန္တလေးတိုင်း","ISO3166-2-lvl4":"MM-04","postcode":"05251","country":"မြန်မာ","country_code":"mm"},"osm_type":"relation","osm_id":5996754,"type":"administrative","location":[95.47327419693454,21.5562516],"bbox":[95.2478175,21.3379165,95.6307842,21.7707994]}]}
{"name":"မြစ်ကြီးနား","other_names":{"name:de":"Myitkyina","name:en":"Myitkyina","name:es":"Myitkyina","name:et":"Myitkyina","name:eu":"Myitkyina","name:fr":"Myitkyina","name:ja":"ミッチーナー","name:my":"မြစ်ကြီးနား","name:ru":"Мьичина","name:sr":"Мичина","name:uk":"Мьічина","name:zh":"密支那","alt_name":"မြစ်ကြီးနားမြို့","int_name":"Myitkyinā"},"display_name":"မြစ်ကြီးနား, မြစ်ကြီးနားခရိုင်, ကချင်ပြည်နယ်, 10101, မြန်မာ","address":{"city":"မြစ်ကြီးနား","municipality":"မြစ်ကြီးနား","county":"မြစ်ကြီးနားခရိုင်","state":"ကချင်ပြည်နယ်","ISO3166-2-lvl4":"MM-11","postcode":"10101","country":"မြန်မာ","country_code":"mm"},"population":150000,"osm_type":"node","osm_id":26576153,"type":"city","location":[97.3999925,25.3833313],"bbox":[97.2399925,25.2233313,97.5599925,25.5433313],"border":[{"name":"မြစ်ကြီးနားခရိုင်","other_names":{"name:ca":"Districte de Myitkyina","name:en":"Myitkyina District","name:my":"မြစ်ကြီးနားခရိုင်","name:pl":"Myitkyina","name:sv":"Myitkyina","name:zh":"密支那县","alt_name":"Myitkyina"},"display_name":"မြစ်ကြီးနားခရိုင်, ကချင်ပြည်နယ်, မြန်မာ","address":{"county":"မြစ်ကြီးနားခရိုင်","state":"ကချင်ပြည်နယ်","ISO3166-2-lvl4":"MM-11","country":"မြန်မာ","country_code":"mm"},"osm_type":"relation","osm_id":5996538,"type":"administrative","location":[97.57456130016567,25.671855649999998],"bbox":[96.6733466,24.5480128,98.2892021,26.7958152]},{"name":"မြစ်ကြီးနား","other_names":{"name:en":"Myitkyina Township","name:fr":"Myitkyina","name:my":"မြစ်ကြီးနားမြို့နယ်","name:sv":"Myitkyina","name:ur":"مائیٹکینا ٹاؤنشپ","name:zh":"密支那镇区","alt_name":"Myitkyina;မြစ်ကြီးနားမြို့နယ်"},"display_name":"မြစ်ကြီးနား, မြစ်ကြီးနားခရိုင်, ကချင်ပြည်နယ်, မြန်မာ","address":{"municipality":"မြစ်ကြီးနား","county":"မြစ်ကြီးနားခရိုင်","state":"ကချင်ပြည်နယ်","ISO3166-2-lvl4":"MM-11","country":"မြန်မာ","country_code":"mm"},"osm_type":"relation","osm_id":5996756,"type":"administrative","location":[97.25404524557227,25.368741800000002],"bbox":[96.6733466,24.5480128,97.5359048,26.1876657]}]}
{"name":"မြိတ်မြို့","other_names":{"name:be":"М’ёй","name:de":"Myeik","name:en":"Myeik","name:es":"Myeik","name:et":"Beik","name:fr":"Mergui","name:ja":"ミェイク","name:ko":"메르귀","name:ks":"مائیک","name:my":"မြိတ်မြို့","name:pt":"Myeik","name:ru":"Мьей","name:sk":"Merguj","name:th":"มะริด","name:uk":"М'єй","name:ur":"مائیک","name:zh":"丹老","old_name":"Mergui"},"display_name":"မြိတ်မြို့, မြိတ်မြို့နယ်, မြိတ်ခရိုင်, တနင်္သာရီတိုင်း, 00195, မြန်မာ","address":{"city":"မြိတ်မြို့","municipality":"မြိတ်မြို့နယ်","county":"မြိတ်ခရိုင်","state":"တနင်္သာရီတိုင်း","ISO3166-2-lvl4":"MM-05","postcode":"00195","country":"မြန်မာ","country_code":"mm"},"population":209712,"osm_type":"node","osm_id":26576233,"type":"city","location":[98.5955711,12.4319552],"bbox":[98.4355711,12.2719552,98.7555711,12.5919552]}
{"name":"မှော်ဘီ","other_names":{"name:en":"Hmawbi","name:my":"မှော်ဘီ"},"display_name":"မှော်ဘီ, မှော်ဘီမြို့နယ်, မှော်ဘီခရိုင်, ရန်ကုန်တိုင်းဒေသကြီး, မြန်မာ","address":{"city":"မှော်ဘီ","county":"မှော်ဘီခရိုင်","state":"ရန်ကုန်တိုင်းဒေသကြီး","ISO3166-2-lvl4":"MM-06","country":"မြန်မာ","country_code":"mm"},"population":17,"osm_type":"node","osm_id":9694019441,"type":"city","location":[96.0405781,17.098158],"bbox":[95.8805781,16.938158,96.2005781,17.258158],"border":{"name":"မှော်ဘီမြို့နယ်","other_names":{"name:en":"Hmawbi Township","name:my":"မှော်ဘီမြို့နယ်","name:zh":"茂比镇区","alt":"မှော်ဘီ","alt:en":"Hmawbi","alt:my":"မှော်ဘီ"},"display_name":"မှော်ဘီမြို့နယ်, မှော်ဘီခရိုင်, ရန်ကုန်တိုင်းဒေသကြီး, မြန်မာ","address":{"city":"မှော်ဘီမြို့နယ်","county":"မှော်ဘီခရိုင်","state":"ရန်ကုန်တိုင်းဒေသကြီး","ISO3166-2-lvl4":"MM-06","country":"မြန်မာ","country_code":"mm"},"population":17,"osm_type":"relation","osm_id":5996616,"type":"administrative","location":[96.0405781,17.098158],"bbox":[95.9028477,16.9805885,96.1710064,17.2787858]}}
{"name":"မိတ္ထီလာမြို့","other_names":{"name:en":"Meiktila","name:fr":"Meiktila","name:ja":"メイッティーラ","name:kn":"ಮೇಕ್ತಿಲ","name:my":"မိတ္ထီလာမြို့","name:ru":"Миктила","name:zh":"密铁拉"},"display_name":"မိတ္ထီလာမြို့, မိတ္ထီလာ, မိတ္ထီလာခရိုင်, မန္တလေးတိုင်း, မြန်မာ","address":{"city":"မိတ္ထီလာမြို့","municipality":"မိတ္ထီလာ","county":"မိတ္ထီလာခရိုင်","state":"မန္တလေးတိုင်း","ISO3166-2-lvl4":"MM-04","country":"မြန်မာ","country_code":"mm"},"population":177442,"osm_type":"node","osm_id":26576223,"type":"city","location":[95.8619463,20.8814233],"bbox":[95.7019463,20.7214233,96.0219463,21.0414233],"border":[{"name":"မိတ္ထီလာခရိုင်","other_names":{"name:ca":"Districte de Meiktila","name:en":"Meiktila District","name:my":"မိတ္ထီလာခရိုင်","name:pl":"Miktila","name:sv":"Meiktila District","name:zh":"密铁拉县","alt_name":"Meiktila"},"display_name":"မိတ္ထီလာခရိုင်, မန္တလေးတိုင်း, မြန်မာ","address":{"county":"မိတ္ထီလာခရိုင်","state":"မန္တလေးတိုင်း","ISO3166-2-lvl4":"MM-04","country":"မြန်မာ","country_code":"mm"},"osm_type":"relation","osm_id":5996527,"type":"administrative","location":[95.89563804971712,20.9582957],"bbox":[95.462403,20.5065628,96.5755441,21.4090575]},{"name":"မိတ္ထီလာ","other_names":{"name:en":"Meiktila Township","name:my":"မိတ္ထီလာမြို့နယ်","name:zh":"密鐵拉鎮區","alt_name":"Meiktila"},"display_name":"မိတ္ထီလာ, မိတ္ထီလာခရိုင်, မန္တလေးတိုင်း, 05184, မြန်မာ","address":{"municipality":"မိတ္ထီလာ","county":"မိတ္ထီလာခရိုင်","state":"မန္တလေးတိုင်း","ISO3166-2-lvl4":"MM-04","postcode":"05184","country":"မြန်မာ","country_code":"mm"},"osm_type":"relation","osm_id":5996711,"type":"administrative","location":[95.74961240412887,20.82828715],"bbox":[95.5083315,20.6524791,96.0105644,21.0017419]}]}
{"name":"မိုးကုတ်","other_names":{"name:de":"Mogok","name:en":"Mogok","name:fr":"Mogok","name:it":"Mogok","name:my":"မိုးကုတ်","name:ru":"Могоу","name:th":"โม่โกะ","name:zh":"抹谷","name:shn":"မိူင်းၵုတ်ႈ"},"display_name":"မိုးကုတ်, သပိတ်ကျင်းခရိုင်, မန္တလေးတိုင်း, တအာင်းပြည်နယ်, 05091, မြန်မာ","address":{"city":"မိုးကုတ်","town":"သပိတ်ကျင်းခရိုင်","state":"မန္တလေးတိုင်း","ISO3166-2-lvl4":"MM-04","region":"တအာင်းပြည်နယ်","postcode":"05091","country":"မြန်မာ","country_code":"mm"},"population":150000,"osm_type":"node","osm_id":8184023514,"type":"city","location":[96.5054827,22.9228176],"bbox":[96.3454827,22.7628176,96.6654827,23.0828176],"border":{"name":"မိုးကုတ်မြို့နယ်","other_names":{"name:en":"Mogok Township","name:my":"မိုးကုတ်","name:zh":"抹谷镇区","alt_name":"Mogoke;Mogok"},"display_name":"မိုးကုတ်မြို့နယ်, သပိတ်ကျင်းခရိုင်, မန္တလေးတိုင်း, တအာင်းပြည်နယ်, 05091, မြန်မာ","address":{"city_district":"မိုးကုတ်မြို့နယ်","town":"သပိတ်ကျင်းခရိုင်","state":"မန္တလေးတိုင်း","ISO3166-2-lvl4":"MM-04","region":"တအာင်းပြည်နယ်","postcode":"05091","country":"မြန်မာ","country_code":"mm"},"osm_type":"relation","osm_id":5996723,"type":"administrative","location":[96.43951377692126,22.90763075],"bbox":[96.1797787,22.7631435,96.7163753,23.0532205]}}
{"name":"မိုင်းလား 勐拉","other_names":{"name:de":"Mong La","name:en":"Mongla","name:my":"မိုင်းလား","name:zh":"勐拉","alt_name":"小勐拉;Mongla","name:shn":"မိူင်းလႃး","name:zh-Hans":"勐拉","name:zh-Hant":"勐拉"},"display_name":"မိုင်းလား 勐拉, မိုင်းလားခရိုင် 勐拉县, ရှမ်းပြည်နယ်, 掸邦东部第四特区, မြန်မာ","address":{"city":"မိုင်းလား 勐拉","county":"မိုင်းလားခရိုင် 勐拉县","state":"ရှမ်းပြည်နယ်","ISO3166-2-lvl4":"MM-17","region":"掸邦东部第四特区","country":"မြန်မာ","country_code":"mm"},"osm_type":"node","osm_id":2121413974,"type":"city","location":[100.0222807,21.6762344],"bbox":[99.8622807,21.5162344,100.1822807,21.8362344]}
{"name":"မုံရွာ","other_names":{"name:de":"Monywa","name:en":"Monywa","name:es":"Monywa","name:et":"Mônywa","name:fr":"Monywa","name:hr":"Monyva","name:ja":"モンユワ","name:my":"မုံရွာ","name:ru":"Моунъюа","name:sl":"Monjva","name:zh":"蒙育瓦","alt_name":"မုံရွာမြို့","int_name":"Monywa"},"display_name":"မုံရွာ, မုံရွာခရိုင်, စစ်ကိုင်းတိုင်း, 09571, မြန်မာ","address":{"city":"မုံရွာ","municipality":"မုံရွာ","county":"မုံရွာခရိုင်","state":"စစ်ကိုင်းတိုင်း","ISO3166-2-lvl4":"MM-01","postcode":"09571","country":"မြန်မာ","country_code":"mm"},"population":182011,"osm_type":"node","osm_id":26576220,"type":"city","location":[95.1324747,22.1182175],"bbox":[94.9724747,21.9582175,95.2924747,22.2782175],"border":[{"name":"မုံရွာခရိုင်","other_names":{"name:en":"Monywa District","name:my":"မုံရွာခရိုင်","name:pl":"Munywa","name:zh":"蒙育瓦县","alt_name":"Monywa","old_name":"Lower Chindwin District","name:zh-Hant":"蒙育瓦縣"},"display_name":"မုံရွာခရိုင်, စစ်ကိုင်းတိုင်း, မြန်မာ","address":{"county":"မုံရွာခရိုင်","state":"စစ်ကိုင်းတိုင်း","ISO3166-2-lvl4":"MM-01","country":"မြန်မာ","country_code":"mm"},"osm_type":"relation","osm_id":5996532,"type":"administrative","location":[95.3422251118846,22.21360045],"bbox":[94.9352695,21.791432,95.6490296,22.6335991]},{"name":"မုံရွာ","other_names":{"name:en":"Monywa Township","name:my":"မုံရွာမြို့နယ်","name:zh":"蒙育瓦镇区","alt_name":"Monywa"},"display_name":"မုံရွာ, မုံရွာခရိုင်, စစ်ကိုင်းတိုင်း, မြန်မာ","address":{"municipality":"မုံရွာ","county":"မုံရွာခရိုင်","state":"စစ်ကိုင်းတိုင်း","ISO3166-2-lvl4":"MM-01","country":"မြန်မာ","country_code":"mm"},"osm_type":"relation","osm_id":5996742,"type":"administrative","location":[95.23354658289261,22.11723285],"bbox":[95.0491995,21.9346849,95.4009429,22.301686]}]}
{"name":"မူဆယ်","other_names":{"name:en":"Muse","name:es":"Muse","name:fr":"Muse","name:ja":"ミューズ","name:my":"မူဆယ်","name:pl":"Muse","name:zh":"木姐","alt_name":"မူဆယ်","name:shn":"မူႇ​​ၸေႊ","alt_name:en":"Mu Se","name:zh-Hant-TW":"木姐"},"display_name":"မူဆယ်, ရှမ်းပြည်နယ်, မြန်မာ","address":{"city":"မူဆယ်","state":"ရှမ်းပြည်နယ်","ISO3166-2-lvl4":"MM-17","country":"မြန်မာ","country_code":"mm"},"osm_type":"node","osm_id":1542638342,"type":"city","location":[97.9012716,23.9978074],"bbox":[97.7412716,23.8378074,98.0612716,24.1578074]}
{"name":"မော်လမြိုင်","other_names":{"name:ar":"ماولاميين","name:cs":"Moulmein","name:de":"Mawlamyaing","name:el":"Μαουλαμίνε","name:en":"Mawlamyine","name:es":"Mawlamyaing","name:et":"Mawlamyine","name:eu":"Mawlamyine","name:fa":"ماولامیاین","name:fr":"Moulmein","name:hi":"मौलाम्याइन","name:hr":"Mawlamyine","name:ja":"モーラミャイン","name:kk":"Моламьяйн","name:ko":"모울메인","name:ks":"ماولامیئن","name:my":"မော်လမြိုင်","name:pt":"Moulmein","name:sl":"Molamjine","name:sr":"Моуламјин","name:ur":"ماولامیئن","name:zh":"毛淡棉","name:arz":"ماولاميين","name:azb":"ماولامیاین","name:az-Arab":"ماولامیاین","name:kk-Arab":"مولامياين"},"display_name":"မော်လမြိုင်, မော်လမြိုင်ခရိုင်, မွန်ပြည်နယ်, 12032, မြန်မာ","address":{"city":"မော်လမြိုင်","municipality":"မော်လမြိုင်","county":"မော်လမြိုင်ခရိုင်","state":"မွန်ပြည်နယ်","ISO3166-2-lvl4":"MM-15","postcode":"12032","country":"မြန်မာ","country_code":"mm"},"population":325927,"osm_type":"node","osm_id":3202260566,"type":"city","location":[97.6284825,16.4908026],"bbox":[97.4684825,16.3308026,97.7884825,16.6508026],"border":{"name":"မော်လမြိုင်","other_names":{"name:ar":"ماولاميين","name:de":"Mawlamyaing","name:el":"Μαουλαμίνε","name:en":"Mawlamyine","name:fa":"ماولامیاین","name:kk":"Моламьяйн","name:ko":"모울메인","name:ks":"ماولامیئن","name:my":"မော်လမြိုင်","name:pt":"Moulmein","name:ur":"ماولامیئن","name:zh":"毛淡棉镇区","alt_name":"ပွိုၚ်ဍုၚ်မတ်မလီု","name:arz":"ماولاميين","name:azb":"ماولامیاین","old_name":"Moulmein","name:az-Arab":"ماولامیاین","name:kk-Arab":"مولامياين"},"display_name":"မော်လမြိုင်, မော်လမြိုင်ခရိုင်, မွန်ပြည်နယ်, မြန်မာ","address":{"municipality":"မော်လမြိုင်","county":"မော်လမြိုင်ခရိုင်","state":"မွန်ပြည်နယ်","ISO3166-2-lvl4":"MM-15","country":"မြန်မာ","country_code":"mm"},"population":300000,"osm_type":"relation","osm_id":5996708,"type":"administrative","location":[97.63447878964682,16.48677465],"bbox":[97.5900277,16.362956,97.705538,16.6107225]}}
{"name":"ရန်ကုန်","other_names":{"name:bn":"ইয়াঙ্গুন","name:cs":"Yangon","name:da":"Rangoon","name:de":"Yangon","name:en":"Yangon","name:es":"Rangún","name:et":"Yangon","name:eu":"Yangon","name:fr":"Rangoun","name:hi":"यांगून","name:hr":"Yangon","name:it":"Yangon","name:ja":"ヤンゴン","name:kn":"ಯಂಗೊನ್","name:ko":"양곤","name:ku":"Yangon","name:lt":"Rangūnas","name:my":"ရန်ကုန်","name:ne":"रङ्गुन","name:oc":"Rangon","name:pl":"Yangon","name:ru":"Янгон","name:sk":"Rangún","name:sl":"Jangon","name:uk":"Янгон","name:vi":"Ngưỡng Quang","name:zh":"仰光","int_name":"Rangoon","loc_name":"ရန်ကုန်","name:shn":"တႃႈၵုင်ႈ","alt_name:fr":"Yangoun","old_name:bn":"রেঙ্গুন"},"display_name":"ရန်ကုန်, ရန်ကုန်မြို့, ရန်ကုန်တိုင်းဒေသကြီး, မြန်မာ","address":{"city":"ရန်ကုန်","state":"ရန်ကုန်တိုင်းဒေသကြီး","ISO3166-2-lvl4":"MM-06","country":"မြန်မာ","country_code":"mm"},"population":5160512,"osm_type":"node","osm_id":26576175,"type":"city","location":[96.1609916,16.7967129],"bbox":[96.0009916,16.6367129,96.3209916,16.9567129],"border":{"name":"ရန်ကုန်မြို့","other_names":{"name:bn":"ইয়াঙ্গুন","name:cs":"Rangún","name:da":"Rangoon","name:de":"Rangun","name:en":"Yangon City","name:es":"Rangún","name:fr":"Rangoun","name:hi":"यांगून","name:hr":"Yangon","name:ja":"ヤンゴン","name:kn":"ಯಂಗೊನ್","name:ku":"Yangon","name:lt":"Rangūnas","name:my":"ရန်ကုန်မြို့","name:or":"ରେଙ୍ଗୁନ","name:pl":"Rangun","name:ru":"Янгон","name:sk":"Rangún","name:sl":"Jangon","name:uk":"Янгон","name:vi":"Ngưỡng Quang","name:zh":"仰光市","int_name":"Rangoon City","loc_name":"ရန်ကုန်မြို့","alt_name:fr":"Yangoun","name:et":"Yangon","name:eu":"Yangon","name:it":"Yangon","name:ko":"양곤","name:ne":"रङ्गुन","name:oc":"Rangon","_place_int_name":"Rangoon","_place_loc_name":"ရန်ကုန်","name:shn":"တႃႈၵုင်ႈ","old_name:bn":"রেঙ্গুন","alt":"ရန်ကုန်","alt:cs":"Yangon","alt:de":"Yangon","alt:en":"Yangon","alt:my":"ရန်ကုန်","alt:pl":"Yangon","alt:zh":"仰光"},"display_name":"ရန်ကုန်မြို့, ရန်ကုန်တိုင်းဒေသကြီး, မြန်မာ","address":{"city":"ရန်ကုန်မြို့","state":"ရန်ကုန်တိုင်းဒေသကြီး","ISO3166-2-lvl4":"MM-06","country":"မြန်မာ","country_code":"mm"},"population":5160512,"osm_type":"relation","osm_id":6004094,"type":"administrative","location":[96.1609916,16.7967129],"bbox":[95.9947586,16.5919743,96.3688068,17.0907467]}}
{"name":"ရပ်စောက်","other_names":{"name:en":"Lawksawk","name:my":"ရပ်စောက်","name:zh":"劳索","alt_name":"Yaksok;Yatsawk;Yatsauk","name:shn":"လွၵ်ႉၸွၵ်ႇ"},"display_name":"ရပ်စောက်, တောင်ကြီးခရိုင, ရှမ်းပြည်နယ်, 06071, မြန်မာ","address":{"city":"ရပ်စောက်","municipality":"ရပ်စောက်","county":"တောင်ကြီးခရိုင","state":"ရှမ်းပြည်နယ်","ISO3166-2-lvl4":"MM-17","postcode":"06071","country":"မြန်မာ","country_code":"mm"},"osm_type":"node","osm_id":2149922638,"type":"city","location":[96.867314,21.248103],"bbox":[96.707314,21.088103,97.027314,21.408103],"border":{"name":"ရပ်စောက်","other_names":{"name:ca":"Lawksawk","name:en":"Lawksawk Township","name:la":"Lawksawk","name:my":"ရပ်စောက်မြို့နယ်","name:zh":"勞索鎮區","alt_name":"Yatsawk;Yatsauk;Yaksauk Township;Lawksawk","name:zh-Hant":"勞索鎮區"},"display_name":"ရပ်စောက်, တောင်ကြီးခရိုင, ရှမ်းပြည်နယ်, 06071, မြန်မာ","address":{"municipality":"ရပ်စောက်","county":"တောင်ကြီးခရိုင","state":"ရှမ်းပြည်နယ်","ISO3166-2-lvl4":"MM-17","postcode":"06071","country":"မြန်မာ","country_code":"mm"},"osm_type":"relation","osm_id":5996687,"type":"administrative","location":[96.97110028261599,21.63542045],"bbox":[96.6134237,21.0020998,97.3009778,22.2700165]}}
{"name":"ရွှေဘို","other_names":{"name:ca":"Shwebo","name:cs":"Šwebo","name:en":"Shwebo","name:es":"Shwebo","name:fr":"Shwebo","name:ja":"シュウェボ","name:my":"ရွှေဘို","name:pl":"Shwebo","name:pt":"Shwebo","name:ru":"Шуэбо","name:sv":"Shwebo","name:th":"ชเวโบ","name:uk":"Шуебо","name:zh":"瑞波","alt_name":"ရွှေဘိုမြို့"},"display_name":"ရွှေဘို, ရွှေဘိုခရိုင်, စစ်ကိုင်းတိုင်း, မြန်မာ","address":{"city":"ရွှေဘို","municipality":"ရွှေဘို","county":"ရွှေဘိုခရိုင်","state":"စစ်ကိုင်းတိုင်း","ISO3166-2-lvl4":"MM-01","country":"မြန်မာ","country_code":"mm"},"population":88914,"osm_type":"node","osm_id":26576193,"type":"city","location":[95.6999989,22.5666618],"bbox":[95.5399989,22.4066618,95.8599989,22.7266618],"border":[{"name":"ရွှေဘိုခရိုင်","other_names":{"name:ca":"Districte de Shwebo","name:en":"Shwebo District","name:my":"ရွှေဘိုခရိုင်","name:pl":"Shwebo","name:zh":"瑞波县","alt_name":"Shwebo"},"display_name":"ရွှေဘိုခရိုင်, စစ်ကိုင်းတိုင်း, မြန်မာ","address":{"county":"ရွှေဘိုခရိုင်","state":"စစ်ကိုင်းတိုင်း","ISO3166-2-lvl4":"MM-01","country":"မြန်မာ","country_code":"mm"},"osm_type":"relation","osm_id":5996550,"type":"administrative","location":[95.59808650856662,22.5385263],"bbox":[94.81616,22.1747481,96.0101492,22.9047073]},{"name":"ရွှေဘို","other_names":{"name:cs":"Šwebo","name:en":"Shwebo Township","name:my":"ရွှေဘိုမြို့နယ်","name:pl":"Shwebo","name:zh":"瑞波镇区","alt_name":"Shwebo"},"display_name":"ရွှေဘို, ရွှေဘိုခရိုင်, စစ်ကိုင်းတိုင်း, မြန်မာ","address":{"municipality":"ရွှေဘို","county":"ရွှေဘိုခရိုင်","state":"စစ်ကိုင်းတိုင်း","ISO3166-2-lvl4":"MM-01","country":"မြန်မာ","country_code":"mm"},"osm_type":"relation","osm_id":5996825,"type":"administrative","location":[95.71857449526794,22.5771682],"bbox":[95.4237685,22.4406072,95.9956757,22.7156001]}]}
{"name":"လင်းခေး","other_names":{"name:en":"Langhko","name:my":"လင်းခေး","name:uk":"Ланкхо","name:ur":"لانگھکو","name:zh":"朗科","alt_name":"Laangkher;Linkhay;Langkho","name:shn":"လၢင်းၶိူဝ်း"},"display_name":"လင်းခေး, လင်းခေးမြို့နယ်, လင်းခေးခရိုင်, ရှမ်းပြည်နယ်, မြန်မာ","address":{"city":"လင်းခေး","municipality":"လင်းခေးမြို့နယ်","county":"လင်းခေးခရိုင်","state":"ရှမ်းပြည်နယ်","ISO3166-2-lvl4":"MM-17","country":"မြန်မာ","country_code":"mm"},"osm_type":"node","osm_id":3822714168,"type":"city","location":[98.0057791,20.3438933],"bbox":[97.8457791,20.1838933,98.1657791,20.5038933],"border":[{"name":"လင်းခေးခရိုင်","other_names":{"name:en":"Langhko District","name:my":"လင်းခေးခရိုင်","name:sv":"Langhko District","name:uk":"Ланкхо","name:zh":"朗科縣","alt_name":"Langkho"},"display_name":"လင်းခေးခရိုင်, ရှမ်းပြည်နယ်, မြန်မာ","address":{"county":"လင်းခေးခရိုင်","state":"ရှမ်းပြည်နယ်","ISO3166-2-lvl4":"MM-17","country":"မြန်မာ","country_code":"mm"},"osm_type":"relation","osm_id":5996514,"type":"administrative","location":[97.96534129395923,20.08728225],"bbox":[97.388115,19.575771,98.6986521,20.5978776]},{"name":"လင်းခေးမြို့နယ်","other_names":{"name:en":"Langhko Township","name:my":"လင်းခေးမြို့နယ်","name:zh":"朗科镇区","alt_name":"Langkho;Langhko;Langkho Township;လင်းခေး"},"display_name":"လင်းခေးမြို့နယ်, လင်းခေးခရိုင်, ရှမ်းပြည်နယ်, မြန်မာ","address":{"municipality":"လင်းခေးမြို့နယ်","county":"လင်းခေးခရိုင်","state":"ရှမ်းပြည်နယ်","ISO3166-2-lvl4":"MM-17","country":"မြန်မာ","country_code":"mm"},"osm_type":"relation","osm_id":5996681,"type":"administrative","location":[97.95935944042633,20.08689105],"bbox":[97.6388861,19.575771,98.6262292,20.5978776]}]}
{"name":"လွိုင်ကော်","other_names":{"name:de":"Loikaw","name:en":"Loikaw","name:es":"Loikaw","name:fr":"Loikaw","name:ja":"ロイコー","name:my":"လွိုင်ကော်","name:zh":"垒固","alt_name":"လွိုင်ကော်မြို့","int_name":"Loikaw"},"display_name":"လွိုင်ကော်, လွိုင်ကော်‌ခရိုင, ကယားပြည်နယ်, 09011, မြန်မာ","address":{"city":"လွိုင်ကော်","municipality":"လွိုင်ကော်","county":"လွိုင်ကော်‌ခရိုင","state":"ကယားပြည်နယ်","ISO3166-2-lvl4":"MM-12","postcode":"09011","country":"မြန်မာ","country_code":"mm"},"population":17293,"osm_type":"node","osm_id":26576174,"type":"city","location":[97.2094441,19.674167],"bbox":[97.0494441,19.514167,97.3694441,19.834167],"border":[{"name":"လွိုင်ကော်‌ခရိုင","other_names":{"name:en":"Loikaw District","name:my":"လွိုင်ကော်‌ခရိုင","name:zh":"垒固县","alt_name":"Loikaw"},"display_name":"လွိုင်ကော်‌ခရိုင, ကယားပြည်နယ်, 09011, မြန်မာ","address":{"county":"လွိုင်ကော်‌ခရိုင","state":"ကယားပြည်နယ်","ISO3166-2-lvl4":"MM-12","postcode":"09011","country":"မြန်မာ","country_code":"mm"},"osm_type":"relation","osm_id":5996518,"type":"administrative","location":[97.56100765498084,19.579511],"bbox":[97.1160993,19.1591058,97.888204,19.9966873]},{"name":"လွိုင်ကော်","other_names":{"name:en":"Loikaw Township","name:my":"လွိုင်ကော်","name:zh":"垒固镇区","alt_name":"Loikaw;လွိုင်ကော်‌မြို့နယ"},"display_name":"လွိုင်ကော်, လွိုင်ကော်‌ခရိုင, ကယားပြည်နယ်, 09011, မြန်မာ","address":{"municipality":"လွိုင်ကော်","county":"လွိုင်ကော်‌ခရိုင","state":"ကယားပြည်နယ်","ISO3166-2-lvl4":"MM-12","postcode":"09011","country":"မြန်မာ","country_code":"mm"},"osm_type":"relation","osm_id":5996692,"type":"administrative","location":[97.33450745806012,19.6185315],"bbox":[97.1160993,19.2399803,97.5290825,19.9966873]}]}
{"name":"လွိုင်လင်","other_names":{"name:en":"Loilem","name:my":"လွိုင်လင်","name:zh":"雷林","alt_name":"Loilen;Loi-lem","int_name":"Loilem","name:shn":"လွႆလႅမ်","alt_name:zh":"莱林"},"display_name":"လွိုင်လင်, လွိုင်လင်ခရိုင်, ရှမ်းပြည်နယ်, မြန်မာ","address":{"city":"လွိုင်လင်","municipality":"လွိုင်လင်","county":"လွိုင်လင်ခရိုင်","state":"ရှမ်းပြည်နယ်","ISO3166-2-lvl4":"MM-17","country":"မြန်မာ","country_code":"mm"},"osm_type":"node","osm_id":3427995608,"type":"city","location":[97.5632946,20.9233242],"bbox":[97.4032946,20.7633242,97.7232946,21.0833242],"border":[{"name":"လွိုင်လင်ခရိုင်","other_names":{"name:en":"Loilen District","name:my":"လွိုင်လင်ခရိုင်","name:uk":"Лоілен","name:zh":"莱林县","alt_name":"Loilen"},"display_name":"လွိုင်လင်ခရိုင်, ရှမ်းပြည်နယ်, မြန်မာ","address":{"county":"လွိုင်လင်ခရိုင်","state":"ရှမ်းပြည်နယ်","ISO3166-2-lvl4":"MM-17","country":"မြန်မာ","country_code":"mm"},"osm_type":"relation","osm_id":5996519,"type":"administrative","location":[97.76975527458546,21.26332465],"bbox":[97.1327416,20.4539467,98.1353052,22.0734004]},{"name":"လွိုင်လင်","other_names":{"name:en":"Loilem Township","name:my":"လွိုင်လင်မြို့နယ်","name:zh":"莱林镇区","alt_name":"Loilem;Loilen;Loilen Township"},"display_name":"လွိုင်လင်, လွိုင်လင်ခရိုင်, ရှမ်းပြည်နယ်, မြန်မာ","address":{"municipality":"လွိုင်လင်","county":"လွိုင်လင်ခရိုင်","state":"ရှမ်းပြည်နယ်","ISO3166-2-lvl4":"MM-17","country":"မြန်မာ","country_code":"mm"},"osm_type":"relation","osm_id":5996693,"type":"administrative","location":[97.4635992725022,20.86367475],"bbox":[97.3432518,20.4539467,97.6429003,21.2737149]}]}
{"name":"လားရှိုး","other_names":{"name:ca":"Lashio","name:de":"Lashio","name:en":"Lashio","name:et":"Lashio","name:fr":"Lashio","name:it":"Lashio","name:ja":"ラーショー","name:ko":"라시오","name:lt":"Lašijas","name:my":"လားရှိုး","name:pl":"Lasho","name:ru":"Лашо","name:sv":"Lashio","name:uk":"Лашіо","name:ur":"لاشیو","name:zh":"腊戌","alt_name":"လားရှိုးမြို့","name:shn":"လႃႈသဵဝ်ႈ","alt_name:my":"လားရှိုးမြို့","alt_name:zh":"腊戍;腊修;腊秀","alt_name:shn":"ဝဵင်းလႃႈသဵဝ်ႈ","name:zh-Hans":"腊戌","name:zh-Hant":"臘戌"},"display_name":"လားရှိုး, လားရှိုးမြို့, ရှမ်းပြည်နယ်, မြန်မာ","address":{"city":"လားရှိုး","state":"ရှမ်းပြည်နယ်","ISO3166-2-lvl4":"MM-17","country":"မြန်မာ","country_code":"mm"},"population":131016,"osm_type":"node","osm_id":26576191,"type":"city","location":[97.745165,22.9418628],"bbox":[97.585165,22.7818628,97.905165,23.1018628],"border":{"name":"လားရှိုးမြို့","other_names":{"name:en":"Lashio Town","name:my":"လားရှိုးမြို့","name:zh":"腊戍镇","name:ca":"Lashio","name:de":"Lashio","name:et":"Lashio","name:fr":"Lashio","name:it":"Lashio","name:ja":"ラーショー","name:ko":"라시오","name:lt":"Lašijas","name:pl":"Lasho","name:ru":"Лашо","name:sv":"Lashio","name:uk":"Лашіо","name:ur":"لاشیو","alt_name":"လားရှိုးမြို့","name:shn":"လႃႈသဵဝ်ႈ","alt_name:my":"လားရှိုးမြို့","alt_name:zh":"腊戍;腊修;腊秀","alt_name:shn":"ဝဵင်းလႃႈသဵဝ်ႈ","name:zh-Hans":"腊戌","name:zh-Hant":"臘戌","alt":"လားရှိုး","alt:en":"Lashio","alt:my":"လားရှိုး","alt:zh":"腊戌"},"display_name":"လားရှိုးမြို့, ရှမ်းပြည်နယ်, 06301, မြန်မာ","address":{"city":"လားရှိုးမြို့","state":"ရှမ်းပြည်နယ်","ISO3166-2-lvl4":"MM-17","postcode":"06301","country":"မြန်မာ","country_code":"mm"},"population":131016,"osm_type":"relation","osm_id":18739482,"type":"administrative","location":[97.745165,22.9418628],"bbox":[97.7117361,22.9011306,97.7796432,22.9996396]}}
{"name":"လောက်ကိုင် 老街","other_names":{"name:en":"Laukkaing","name:my":"လောက်ကိုင်","name:zh":"老街","name:shn":"လဝ်ႉၵႆႇ","alt_name:en":"Laogai;Laokai;Laukkai","alt_name:my":"လောက်ကိုင်မြို","alt_name:zh":"老街市","name:zh-Hans":"老街","name:zh-Hant":"老街"},"display_name":"လောက်ကိုင် 老街, 老街市, ရှမ်းပြည်နယ်, 第一特区, မြန်မာ","address":{"city":"လောက်ကိုင် 老街","state":"ရှမ်းပြည်နယ်","ISO3166-2-lvl4":"MM-17","region":"第一特区","country":"မြန်မာ","country_code":"mm"},"osm_type":"node","osm_id":1798397310,"type":"city","location":[98.7641339,23.6949249],"bbox":[98.6041339,23.5349249,98.9241339,23.8549249],"border":{"name":"老街市","other_names":{"name:en":"Laukkaing City","name:my":"လောက်ကိုင်မြို့","name:zh":"老街市","name:zh-Hans":"老街市","name:shn":"လဝ်ႉၵႆႇ","alt_name:en":"Laogai;Laokai;Laukkai","alt_name:my":"လောက်ကိုင်မြို","alt_name:zh":"老街市","name:zh-Hant":"老街","alt":"လောက်ကိုင် 老街","alt:en":"Laukkaing","alt:my":"လောက်ကိုင်","alt:zh":"老街","alt:zh-Hans":"老街"},"display_name":"老街市, ရှမ်းပြည်နယ်, 第一特区, 06481, မြန်မာ","address":{"city":"老街市","state":"ရှမ်းပြည်နယ်","ISO3166-2-lvl4":"MM-17","region":"第一特区","postcode":"06481","country":"မြန်မာ","country_code":"mm"},"osm_type":"relation","osm_id":17632959,"type":"administrative","location":[98.7641339,23.6949249],"bbox":[98.7124333,23.6498585,98.844149,23.7721248]}}
{"name":"လဲချား","other_names":{"name:en":"Laihka","name:my":"လဲချား","name:th":"ลายค่า","name:uk":"Лайкха","name:zh":"莱卡","name:shn":"လၢႆးၶႃႈ","alt_name:zh":"崃卡"},"display_name":"လဲချား, လွိုင်လင်ခရိုင်, ရှမ်းပြည်နယ်, မြန်မာ","address":{"city":"လဲချား","municipality":"လဲချား","county":"လွိုင်လင်ခရိုင်","state":"ရှမ်းပြည်နယ်","ISO3166-2-lvl4":"MM-17","country":"မြန်မာ","country_code":"mm"},"osm_type":"node","osm_id":3808540559,"type":"city","location":[97.6680857,21.2712786],"bbox":[97.5080857,21.1112786,97.8280857,21.4312786],"border":{"name":"လဲချား","other_names":{"name:en":"Lai-Hka Township","name:my":"လဲချားမြို့နယ်","name:ur":"لائی-ہکا ٹاؤنشپ","name:zh":"莱卡镇区","alt_name":"Laihka;Lai-Hka;Laihka Township"},"display_name":"လဲချား, လွိုင်လင်ခရိုင်, ရှမ်းပြည်နယ်, မြန်မာ","address":{"municipality":"လဲချား","county":"လွိုင်လင်ခရိုင်","state":"ရှမ်းပြည်နယ်","ISO3166-2-lvl4":"MM-17","country":"မြန်မာ","country_code":"mm"},"osm_type":"relation","osm_id":5996680,"type":"administrative","location":[97.76209612370835,21.29966865],"bbox":[97.3973969,20.9979581,98.1353052,21.5991945]}}
{"name":"ဝမ်ခိုးဒိုင်နယ် 万科乡","other_names":{"name:my":"ဝမ်ခိုးဒိုင်နယ်","name:zh":"万科乡","name:zh-Hant":"萬科鄉"},"display_name":"ဝမ်ခိုးဒိုင်နယ် 万科乡, နမ့်ပန်းခရိုင် 南板县, ရှမ်းပြည်နယ်, 掸邦东部第四特区, မြန်မာ","address":{"city":"ဝမ်ခိုးဒိုင်နယ် 万科乡","county":"နမ့်ပန်းခရိုင် 南板县","state":"ရှမ်းပြည်နယ်","ISO3166-2-lvl4":"MM-17","region":"掸邦东部第四特区","country":"မြန်မာ","country_code":"mm"},"osm_type":"relation","osm_id":18169001,"type":"administrative","location":[100.50379201721148,21.1264575],"bbox":[100.4466784,21.0195293,100.6090808,21.2257579],"inferred_type":"city"}
{"name":"သထုံ","other_names":{"name:de":"Thaton","name:en":"Thaton","name:es":"Thaton","name:et":"Thaton","name:fr":"Thaton","name:ja":"タトン","name:ko":"타톤","name:my":"သထုံ","name:ru":"Татхоун","name:uk":"Татхоун","name:zh":"直通"},"display_name":"သထုံ, သထုံခရိုင်, မွန်ပြည်နယ်, 12021, မြန်မာ","address":{"city":"သထုံ","municipality":"သထုံ","county":"သထုံခရိုင်","state":"မွန်ပြည်နယ်","ISO3166-2-lvl4":"MM-15","postcode":"12021","country":"မြန်မာ","country_code":"mm"},"population":130763,"osm_type":"node","osm_id":26576181,"type":"city","location":[97.3689718,16.9136941],"bbox":[97.2089718,16.7536941,97.5289718,17.0736941],"border":{"name":"သထုံ","other_names":{"name:en":"Thaton Township","name:my":"သထုံ","name:zh":"直通镇区"},"display_name":"သထုံ, သထုံခရိုင်, မွန်ပြည်နယ်, 12021, မြန်မာ","address":{"municipality":"သထုံ","county":"သထုံခရိုင်","state":"မွန်ပြည်နယ်","ISO3166-2-lvl4":"MM-15","postcode":"12021","country":"မြန်မာ","country_code":"mm"},"osm_type":"relation","osm_id":5996862,"type":"administrative","location":[97.28494831825,16.97990155],"bbox":[97.0396842,16.7505943,97.5381761,17.2085007]}}
{"name":"သီပေါ","other_names":{"name:ca":"Hsipaw","name:de":"Hsipaw","name:en":"Hsipaw","name:fr":"Thibaw","name:la":"Hsipaw","name:my":"သီပေါ","name:sv":"Hsipaw","name:zh":"昔卜","int_name":"Hsipaw","name:shn":"သီႇပေႃႉ","alt_name:en":"Thibaw"},"display_name":"သီပေါ, ကျောက်မဲခရိုင်, ရှမ်းပြည်နယ်, တအာင်းပြည်နယ်, မြန်မာ","address":{"city":"သီပေါ","municipality":"သီပေါ","county":"ကျောက်မဲခရိုင်","state":"ရှမ်းပြည်နယ်","ISO3166-2-lvl4":"MM-17","region":"တအာင်းပြည်နယ်","country":"မြန်မာ","country_code":"mm"},"osm_type":"node","osm_id":487092879,"type":"city","location":[97.2992821,22.6196887],"bbox":[97.1392821,22.4596887,97.4592821,22.7796887],"border":{"name":"သီပေါ","other_names":{"name:en":"Hsipaw Township","name:my":"သီပေါမြို့နယ်","name:zh":"昔卜镇区","alt_name":"Hsipaw"},"display_name":"သီပေါ, ကျောက်မဲခရိုင်, ရှမ်းပြည်နယ်, မြန်မာ","address":{"municipality":"သီပေါ","county":"ကျောက်မဲခရိုင်","state":"ရှမ်းပြည်နယ်","ISO3166-2-lvl4":"MM-17","country":"မြန်မာ","country_code":"mm"},"osm_type":"relation","osm_id":5996627,"type":"administrative","location":[97.55452358098077,22.40190975],"bbox":[97.0930842,21.949151,98.0224513,22.8529833]}}
{"name":"ဟင်္သာတမြို့","other_names":{"name:de":"Hinthada","name:en":"Hinthada","name:es":"Hinthada","name:et":"Hinthada","name:fr":"Henzada","name:ja":"ハインサダ","name:ko":"힌타다","name:my":"ဟင်္သာတမြို့","name:ru":"Хинтада","name:th":"ฮีนตาดะ","name:uk":"Хінтада","alt_name:uk":"Хензада"},"display_name":"ဟင်္သာတမြို့, ဟင်္သာတမြို့နယ်, ဟင်္သာတခရိုင်, ဧရာဝတီတိုင်းဒေသကြီး, မြန်မာ","address":{"city":"ဟင်္သာတမြို့","municipality":"ဟင်္သာတမြို့နယ်","county":"ဟင်္သာတခရိုင်","state":"ဧရာဝတီတိုင်းဒေသကြီး","ISO3166-2-lvl4":"MM-07","country":"မြန်မာ","country_code":"mm"},"population":134947,"osm_type":"node","osm_id":26576230,"type":"city","location":[95.4609517,17.6457472],"bbox":[95.3009517,17.4857472,95.6209517,17.8057472]}
{"name":"ဟန်လင်းမြို့ဟောင်း","other_names":{"name:de":"Halin","name:en":"Hanlin","name:hr":"Halin","name:my":"ဟန်လင်းမြို့ဟောင်း","alt_name":"Halingyi;Halin;Halim"},"display_name":"ဟန်လင်းမြို့ဟောင်း, Main Road, Hanlin ( Halin ), ဝက်လက်, ရွှေဘိုခရိုင်, စစ်ကိုင်းတိုင်း, မြန်မာ","address":{"historic":"ဟန်လင်းမြို့ဟောင်း","road":"Main Road","village":"Hanlin ( Halin )","municipality":"ဝက်လက်","county":"ရွှေဘိုခရိုင်","state":"စစ်ကိုင်းတိုင်း","ISO3166-2-lvl4":"MM-01","country":"မြန်မာ","country_code":"mm"},"population":33200,"osm_type":"node","osm_id":4219816803,"type":"city","location":[95.8125269,22.4505739],"bbox":[95.8124769,22.4505239,95.8125769,22.4506239]}
{"name":"ဟားခါး","other_names":{"name:da":"Hakha","name:de":"Hakha","name:en":"Hakha","name:fr":"Hakha","name:hi":"हाखा","name:it":"Hakha","name:ja":"ハッカ","name:ko":"하카","name:lt":"Hakha","name:my":"ဟားခါး","name:nl":"Hakha","name:no":"Hakha","name:pl":"Haka","name:pt":"Hakha","name:ru":"Хакха","name:sv":"Hakha","name:uk":"Хакха","name:ur":"ہاکہا","name:vi":"Hakha","name:zh":"哈卡","alt_name":"ဟားခါးမြို့"},"display_name":"ဟားခါး, ဟားခါးခရိုင်, ချင်းပြည်နယ်, 03011, မြန်မာ","address":{"city":"ဟားခါး","municipality":"ဟားခါး","county":"ဟားခါးခရိုင်","state":"ချင်းပြည်နယ်","ISO3166-2-lvl4":"MM-14","postcode":"03011","country":"မြန်မာ","country_code":"mm"},"osm_type":"node","osm_id":3689758728,"type":"city","location":[93.6096217,22.6427551],"bbox":[93.4496217,22.4827551,93.7696217,22.8027551],"border":[{"name":"ဟားခါးခရိုင်","other_names":{"name:en":"Hakha District","name:my":"ဟားခါးခရိုင်","name:pl":"Haka","name:zh":"哈卡縣","alt_name":"Hakha"},"display_name":"ဟားခါးခရိုင်, ချင်းပြည်နယ်, 03011, မြန်မာ","address":{"county":"ဟားခါးခရိုင်","state":"ချင်းပြည်နယ်","ISO3166-2-lvl4":"MM-14","postcode":"03011","country":"မြန်မာ","country_code":"mm"},"osm_type":"relation","osm_id":5996499,"type":"administrative","location":[93.56692266031689,22.538805699999998],"bbox":[93.0917902,22.0057388,94.057864,23.071165]},{"name":"ဟားခါး","other_names":{"name:en":"Hakha Township","name:my":"ဟားခါးမြို့နယ်","name:zh":"哈卡镇区","alt_name":"Hakha"},"display_name":"ဟားခါး, ဟားခါးခရိုင်, ချင်းပြည်နယ်, 03011, မြန်မာ","address":{"municipality":"ဟားခါး","county":"ဟားခါးခရိုင်","state":"ချင်းပြည်နယ်","ISO3166-2-lvl4":"MM-14","postcode":"03011","country":"မြန်မာ","country_code":"mm"},"osm_type":"relation","osm_id":5996609,"type":"administrative","location":[93.76333493319234,22.4189593],"bbox":[93.4576073,22.0057388,94.057864,22.827897]}]}
{"name":"အထောင်","other_names":{"name:en":"Ahtaung","name:my":"အထောင်"},"display_name":"အထောင်, ကျုံပျော်မြို့နယ်, ကျုံပျော်ခရိုင်, ဧရာဝတီတိုင်းဒေသကြီး, မြန်မာ","address":{"city":"အထောင်","municipality":"ကျုံပျော်မြို့နယ်","county":"ကျုံပျော်ခရိုင်","state":"ဧရာဝတီတိုင်းဒေသကြီး","ISO3166-2-lvl4":"MM-07","country":"မြန်မာ","country_code":"mm"},"osm_type":"node","osm_id":4223623946,"type":"city","location":[95.3343946,17.3490582],"bbox":[95.1743946,17.1890582,95.4943946,17.5090582]}
{"name":"အေးသာယာ","other_names":{"name:en":"Ayetharyar","name:my":"အေးသာယာ","name:zh":"艾达雅","alt_name":"Aye Thar Yar","name:shn":"ဝဵင်းမႂ်ႇ"},"display_name":"အေးသာယာ, ဝဵင်းတူၼ်ႈတီး, တောင်ကြီးခရိုင, ရှမ်းပြည်နယ်, မြန်မာ","address":{"city":"အေးသာယာ","municipality":"ဝဵင်းတူၼ်ႈတီး","county":"တောင်ကြီးခရိုင","state":"ရှမ်းပြည်နယ်","ISO3166-2-lvl4":"MM-17","country":"မြန်မာ","country_code":"mm"},"osm_type":"node","osm_id":4798234668,"type":"city","location":[97.0006748,20.7743586],"bbox":[96.8406748,20.6143586,97.1606748,20.9343586]}
{"name":"အောင်ပန်း","other_names":{"name:en":"Aungpan","name:my":"အောင်ပန်း","name:zh":"旺邦","name:shn":"ဢုမ်ႇပဝ်း"},"display_name":"အောင်ပန်း, ကလော, ကလောခရိုင်, ရှမ်းပြည်နယ်, 06022, မြန်မာ","address":{"city":"အောင်ပန်း","municipality":"ကလော","county":"ကလောခရိုင်","state":"ရှမ်းပြည်နယ်","ISO3166-2-lvl4":"MM-17","postcode":"06022","country":"မြန်မာ","country_code":"mm"},"osm_type":"node","osm_id":1198370690,"type":"city","location":[96.6329522,20.6599788],"bbox":[96.4729522,20.4999788,96.7929522,20.8199788]}
