{"name":"Gbarnga","other_names":{"name:en":"Gbarnga","name:ru":"Гбарнга","alt_name_1":"Gbarnka","alt_name_2":"Gbanka","alt_name_3":"Gbanga"},"display_name":"Gbarnga, Zone 3, Jorquelleh, Bong County, Liberia","address":{"city":"Gbarnga","zone":"Zone 3","county":"Jorquelleh","state":"Bong County","ISO3166-2-lvl4":"LR-BG","country":"Liberia","country_code":"lr"},"osm_type":"node","osm_id":2189951896,"type":"city","location":[-9.470905,6.996269],"bbox":[-9.630905,6.836269,-9.310905,7.156269]}
{"name":"Monrovia","other_names":{"name:am":"ሞንሮቪያ","name:ar":"مونروفيا","name:az":"Monroviya","name:be":"Манровія","name:bg":"Монровия","name:bo":"མོང་རོ་ཝི་ཡ།","name:br":"Monrovia","name:ca":"Monròvia","name:de":"Monrovia","name:el":"Μονρόβια","name:en":"Monrovia","name:eo":"Monrovio","name:es":"Monrovia","name:fa":"مونروویا","name:fr":"Monrovia","name:he":"מונרוביה","name:hu":"Monrovia","name:hy":"Մոնրովիա","name:is":"Mondróvía","name:it":"Monrovia","name:ja":"モンロビア","name:ka":"მონროვია","name:ko":"몬로비아","name:ky":"Монровия","name:lt":"Monrovija","name:lv":"Monrovija","name:mk":"Монровија","name:mr":"मोन्रोव्हिया","name:nl":"Monrovia","name:no":"Monrovia","name:oc":"Monròvia","name:pl":"Monrovia","name:pt":"Monróvia","name:ru":"Монровия","name:so":"Monrofia","name:sr":"Монровија","name:sv":"Monrovia","name:ta":"மொன்ரோவியா","name:tg":"Монровия","name:th":"มันโรเวีย","name:tr":"Monrovia","name:uk":"Монровія","name:ur":"مونروویا","name:zh":"蒙羅維亞","name:ckb":"مۆنرۆڤیا","name:mrj":"Монрови","name:pnb":"مونروویا","name:udm":"Монровия"},"display_name":"Monrovia, Greater Monrovia, Montserrado County, Liberia","address":{"city":"Monrovia","county":"Greater Monrovia","state":"Montserrado County","ISO3166-2-lvl4":"LR-MO","country":"Liberia","country_code":"lr"},"population":1010970,"osm_type":"node","osm_id":27564980,"type":"city","location":[-10.797788,6.328034],"bbox":[-10.957788,6.168034,-10.637788,6.488034]}
