{"name":"Bajram Curri","other_names":{"name:ar":"باجرام كوري","name:de":"Bajram Curr","name:en":"Bajram Curri","name:es":"Bajram Curri","name:fr":"Bajram Curri","name:mk":"Бајрам Цури","name:ru":"Байрам-Цурри","alt_name:mk":"Колгецај","alt_name:zh":"巴依拉姆·楚里城"},"display_name":"Bajram Curri, Bashkia Tropojë, Qarku i Kukësit, Shqipëria Veriore, Shqipëria","address":{"town":"Bajram Curri","municipality":"Bashkia Tropojë","ISO3166-2-lvl7":"AL-TP","county":"Qarku i Kukësit","ISO3166-2-lvl6":"AL-07","state":"Shqipëria Veriore","country":"Shqipëria","country_code":"al"},"population":5340,"osm_type":"node","osm_id":728422812,"type":"town","location":[20.0753026,42.3576482],"bbox":[20.0353026,42.3176482,20.1153026,42.3976482],"border":{"name":"Bajram Curri","other_names":{"name:mk":"Бајрам Цури","name:ru":"Байрам-Цурри","name:sq":"Bajram Curri","alt_name:mk":"Колгецај","name:ar":"باجرام كوري","name:de":"Bajram Curr","name:en":"Bajram Curri","name:es":"Bajram Curri","name:fr":"Bajram Curri","alt_name:zh":"巴依拉姆·楚里城"},"display_name":"Bajram Curri, Bashkia Tropojë, Qarku i Kukësit, Shqipëria Veriore, 8701, Shqipëria","address":{"town":"Bajram Curri","municipality":"Bashkia Tropojë","ISO3166-2-lvl7":"AL-TP","county":"Qarku i Kukësit","ISO3166-2-lvl6":"AL-07","state":"Shqipëria Veriore","postcode":"8701","country":"Shqipëria","country_code":"al"},"population":5340,"osm_type":"relation","osm_id":1248542,"type":"administrative","location":[20.0753026,42.3576482],"bbox":[20.0638514,42.3471966,20.0940139,42.3658662]}}
{"name":"Ballsh","other_names":{"name:mk":"Балш","name:ml":"ബാൽഷ്","name:ru":"Баллш","name:sr":"Балш","name:zh":"巴尔什","alt_name:mk":"Главеница"},"display_name":"Ballsh, Bashkia Mallakastër, Qarku i Fierit, Shqipëria Jugore, Shqipëria","address":{"town":"Ballsh","municipality":"Bashkia Mallakastër","county":"Qarku i Fierit","ISO3166-2-lvl6":"AL-04","state":"Shqipëria Jugore","country":"Shqipëria","country_code":"al"},"population":9100,"osm_type":"node","osm_id":728425994,"type":"town","location":[19.7360208,40.5993375],"bbox":[19.6960208,40.5593375,19.7760208,40.6393375],"border":[{"name":"Ballsh","other_names":{"name:mk":"Балш","name:ru":"Баллш","name:sq":"Ballsh","alt_name:mk":"Главеница"},"display_name":"Ballsh, Këshilltarët E Hekalit, Ballsh, Bashkia Mallakastër, Qarku i Fierit, Shqipëria Jugore, 9308, Shqipëria","address":{"historic":"Ballsh","road":"Këshilltarët E Hekalit","town":"Ballsh","municipality":"Bashkia Mallakastër","county":"Qarku i Fierit","ISO3166-2-lvl6":"AL-04","state":"Shqipëria Jugore","postcode":"9308","country":"Shqipëria","country_code":"al"},"population":12000,"osm_type":"relation","osm_id":13649644,"type":"Baletium","location":[19.735576904478027,40.59931575],"bbox":[19.7238524,40.5872892,19.7453456,40.6116389]},{"name":"Ballsh","other_names":{"name:sq":"Ballsh","name:mk":"Балш","name:ml":"ബാൽഷ്","name:ru":"Баллш","name:sr":"Балш","name:zh":"巴尔什","alt_name:mk":"Главеница"},"display_name":"Ballsh, Bashkia Mallakastër, Qarku i Fierit, Shqipëria Jugore, 9308, Shqipëria","address":{"town":"Ballsh","municipality":"Bashkia Mallakastër","county":"Qarku i Fierit","ISO3166-2-lvl6":"AL-04","state":"Shqipëria Jugore","postcode":"9308","country":"Shqipëria","country_code":"al"},"population":7657,"osm_type":"relation","osm_id":1251474,"type":"administrative","location":[19.7360208,40.5993375],"bbox":[19.7266391,40.5872892,19.7409473,40.6034347]}]}
{"name":"Belsh","other_names":{"name:mk":"Белеш","name:ml":"ബെൽഷ്","name:ru":"Бельш","name:zh":"贝尔什","alt_name:mk":"Белш"},"display_name":"Belsh, Bashkia Belsh, Qarku i Elbasanit, Shqipëria Qendrore, Shqipëria","address":{"town":"Belsh","county":"Qarku i Elbasanit","ISO3166-2-lvl6":"AL-03","state":"Shqipëria Qendrore","country":"Shqipëria","country_code":"al"},"osm_type":"node","osm_id":1656612077,"type":"town","location":[19.8898836,40.9807661],"bbox":[19.8498836,40.9407661,19.9298836,41.0207661],"border":[{"name":"Bashkia Belsh","other_names":{"name:mk":"Општина Белеш","name:sq":"Bashkia Belsh","alt_name":"Bashkia Belsh","alt_name:mk":"Општина Белш","official_name":"Bashkia Belsh","name:ml":"ബെൽഷ്","name:ru":"Бельш","name:zh":"贝尔什","_place_alt_name:mk":"Белш","alt":"Belsh","alt:mk":"Белеш"},"display_name":"Bashkia Belsh, Qarku i Elbasanit, Shqipëria Qendrore, Shqipëria","address":{"town":"Bashkia Belsh","county":"Qarku i Elbasanit","ISO3166-2-lvl6":"AL-03","state":"Shqipëria Qendrore","country":"Shqipëria","country_code":"al"},"population":19503,"osm_type":"relation","osm_id":1250565,"type":"administrative","location":[19.8898836,40.9807661],"bbox":[19.8040177,40.8599175,19.9874963,41.0140879]},{"name":"Belsh","other_names":{"name:mk":"Белеш","name:ru":"Бельш","name:sq":"Belsh","alt_name":"Njësia Administrative Belsh","alt_name:mk":"Белш","official_name":"Njësia Administrative Belsh"},"display_name":"Belsh, Bashkia Belsh, Qarku i Elbasanit, Shqipëria Qendrore, 3008, Shqipëria","address":{"city_district":"Belsh","town":"Bashkia Belsh","county":"Qarku i Elbasanit","ISO3166-2-lvl6":"AL-03","state":"Shqipëria Qendrore","postcode":"3008","country":"Shqipëria","country_code":"al"},"population":8781,"osm_type":"relation","osm_id":1250595,"type":"administrative","location":[19.901881252623646,40.975543200000004],"bbox":[19.8424878,40.9366262,19.9678629,41.0140879]}]}
{"name":"Bilisht","other_names":{"name:el":"Βίγλιστα","name:mk":"Билишта","name:ru":"Билишт"},"display_name":"Bilisht, Bashkia Devoll, Qarku i Korçës, Shqipëria Jugore, Shqipëria","address":{"town":"Bilisht","municipality":"Bashkia Devoll","county":"Qarku i Korçës","ISO3166-2-lvl6":"AL-06","state":"Shqipëria Jugore","country":"Shqipëria","country_code":"al"},"population":9136,"osm_type":"node","osm_id":712337806,"type":"town","location":[20.9866319,40.6240134],"bbox":[20.9466319,40.5840134,21.0266319,40.6640134],"border":[{"name":"Bilisht","other_names":{"name:sq":"Bilisht","name:el":"Βίγλιστα","name:mk":"Билишта","name:ru":"Билишт"},"display_name":"Bilisht, Bashkia Devoll, Qarku i Korçës, Shqipëria Jugore, 7006, Shqipëria","address":{"town":"Bilisht","municipality":"Bashkia Devoll","county":"Qarku i Korçës","ISO3166-2-lvl6":"AL-06","state":"Shqipëria Jugore","postcode":"7006","country":"Shqipëria","country_code":"al"},"population":6250,"osm_type":"relation","osm_id":1252576,"type":"administrative","location":[20.9866319,40.6240134],"bbox":[20.977009,40.6181939,21.0099189,40.6372267]},{"name":"Qendër Bilisht","other_names":{"name:mk":"Центар Билишта","name:ru":"Билишт","name:sq":"Qendër Bilisht"},"display_name":"Qendër Bilisht, Bashkia Devoll, Qarku i Korçës, Shqipëria Jugore, 7006, Shqipëria","address":{"city":"Qendër Bilisht","municipality":"Bashkia Devoll","county":"Qarku i Korçës","ISO3166-2-lvl6":"AL-06","state":"Shqipëria Jugore","postcode":"7006","country":"Shqipëria","country_code":"al"},"population":5440,"osm_type":"relation","osm_id":1252593,"type":"administrative","location":[21.03272551719197,40.6269048],"bbox":[20.9473184,40.5530742,21.0574335,40.7011448]}]}
{"name":"Bulqizë","other_names":{"name:mk":"Булчица","name:ml":"ബുൽചിസ","name:ru":"Булькиза","name:zh":"布尔奇泽"},"display_name":"Bulqizë, Bashkia Bulqizë, Qarku i Dibrës, Shqipëria Veriore, Shqipëria","address":{"town":"Bulqizë","county":"Qarku i Dibrës","ISO3166-2-lvl6":"AL-09","state":"Shqipëria Veriore","country":"Shqipëria","country_code":"al"},"population":67000,"osm_type":"node","osm_id":414076827,"type":"town","location":[20.2183758,41.4922026],"bbox":[20.1783758,41.4522026,20.2583758,41.5322026],"border":[{"name":"Bashkia Bulqizë","other_names":{"name:mk":"Општина Булчица","name:ru":"Булькиза","name:sq":"Bashkia Bulqizë","name:ml":"ബുൽചിസ","name:zh":"布尔奇泽","alt":"Bulqizë","alt:mk":"Булчица"},"display_name":"Bashkia Bulqizë, Qarku i Dibrës, Shqipëria Veriore, Shqipëria","address":{"town":"Bashkia Bulqizë","county":"Qarku i Dibrës","ISO3166-2-lvl6":"AL-09","state":"Shqipëria Veriore","country":"Shqipëria","country_code":"al"},"population":31210,"osm_type":"relation","osm_id":1249540,"type":"administrative","location":[20.2183758,41.4922026],"bbox":[20.1086546,41.3367846,20.5610394,41.6228234]},{"name":"Bulqizë","other_names":{"name:mk":"Булчица","name:ru":"Булькиза","name:sq":"Bulqizë"},"display_name":"Bulqizë, Bashkia Bulqizë, Qarku i Dibrës, Shqipëria Veriore, 8401, Shqipëria","address":{"city_district":"Bulqizë","town":"Bashkia Bulqizë","county":"Qarku i Dibrës","ISO3166-2-lvl6":"AL-09","state":"Shqipëria Veriore","postcode":"8401","country":"Shqipëria","country_code":"al"},"population":8177,"osm_type":"relation","osm_id":1249560,"type":"administrative","location":[20.223063910816315,41.5101557],"bbox":[20.186476,41.4611319,20.2705593,41.5584037]}]}
{"name":"Burrel","other_names":{"name:mk":"Бурел","name:ml":"ബുറെൽ","name:ru":"Буррели"},"display_name":"Burrel, Bashkia Mat, Qarku i Dibrës, Shqipëria Veriore, Shqipëria","address":{"town":"Burrel","municipality":"Bashkia Mat","county":"Qarku i Dibrës","ISO3166-2-lvl6":"AL-09","state":"Shqipëria Veriore","country":"Shqipëria","country_code":"al"},"population":10862,"osm_type":"node","osm_id":414076828,"type":"town","location":[20.0130651,41.610429],"bbox":[19.9730651,41.570429,20.0530651,41.650429],"border":{"name":"Burrel","other_names":{"name:mk":"Бурел","name:ru":"Буррели","name:sq":"Burrel","name:ml":"ബുറെൽ"},"display_name":"Burrel, Bashkia Mat, Qarku i Dibrës, Shqipëria Veriore, 8001, Shqipëria","address":{"town":"Burrel","municipality":"Bashkia Mat","county":"Qarku i Dibrës","ISO3166-2-lvl6":"AL-09","state":"Shqipëria Veriore","postcode":"8001","country":"Shqipëria","country_code":"al"},"population":10862,"osm_type":"relation","osm_id":1249562,"type":"administrative","location":[20.0130651,41.610429],"bbox":[19.9992429,41.6027625,20.0237173,41.6194657]}}
{"name":"Cërrik","other_names":{"name:mk":"Церик","name:ml":"സെറിക്ക്","name:ru":"Церрик","name:zh":"策里克"},"display_name":"Cërrik, Bashkia Cërrik, Qarku i Elbasanit, Shqipëria Qendrore, Shqipëria","address":{"town":"Cërrik","municipality":"Bashkia Cërrik","county":"Qarku i Elbasanit","ISO3166-2-lvl6":"AL-03","state":"Shqipëria Qendrore","country":"Shqipëria","country_code":"al"},"osm_type":"node","osm_id":5195988303,"type":"town","location":[19.9887602,41.0266165],"bbox":[19.9487602,40.9866165,20.0287602,41.0666165],"border":{"name":"Cërrik","other_names":{"name:mk":"Церик","name:sq":"Cërrik","name:ml":"സെറിക്ക്","name:ru":"Церрик","name:zh":"策里克"},"display_name":"Cërrik, Bashkia Cërrik, Qarku i Elbasanit, Shqipëria Qendrore, 3007, Shqipëria","address":{"town":"Cërrik","municipality":"Bashkia Cërrik","county":"Qarku i Elbasanit","ISO3166-2-lvl6":"AL-03","state":"Shqipëria Qendrore","postcode":"3007","country":"Shqipëria","country_code":"al"},"population":6695,"osm_type":"relation","osm_id":1250601,"type":"administrative","location":[19.9887602,41.0266165],"bbox":[19.9504805,41.0046941,20.0037531,41.0494396]}}
{"name":"Çorovodë","other_names":{"name:mk":"Чоровода","name:ml":"ചോറോവോഡ","name:ru":"Чоровода","alt_name":"Çorovoda"},"display_name":"Çorovodë, Bashkia Skrapar, Qarku i Beratit, Shqipëria Jugore, Shqipëria","address":{"town":"Çorovodë","municipality":"Bashkia Skrapar","county":"Qarku i Beratit","ISO3166-2-lvl6":"AL-01","state":"Shqipëria Jugore","country":"Shqipëria","country_code":"al"},"population":4051,"osm_type":"node","osm_id":309049893,"type":"town","location":[20.2283496,40.5036229],"bbox":[20.1883496,40.4636229,20.2683496,40.5436229],"border":{"name":"Çorovodë","other_names":{"name:ru":"Чоровода","name:sq":"Çorovodë","name:mk":"Чоровода","name:ml":"ചോറോവോഡ","alt_name":"Çorovoda"},"display_name":"Çorovodë, Bashkia Skrapar, Qarku i Beratit, Shqipëria Jugore, 5401, Shqipëria","address":{"town":"Çorovodë","municipality":"Bashkia Skrapar","county":"Qarku i Beratit","ISO3166-2-lvl6":"AL-01","state":"Shqipëria Jugore","postcode":"5401","country":"Shqipëria","country_code":"al"},"population":4051,"osm_type":"relation","osm_id":1252288,"type":"administrative","location":[20.2283496,40.5036229],"bbox":[20.2185256,40.4873795,20.2425009,40.5149109]}}
{"name":"Delvinë","other_names":{"name:el":"Δέλβινο","name:mk":"Делвина","name:ml":"ഡെൽവിന","name:ru":"Дельвина","name:uk":"Дельвіна"},"display_name":"Delvinë, Bashkia Delvinë, Qarku i Vlorës, Shqipëria Jugore, 9704, Shqipëria","address":{"town":"Delvinë","municipality":"Bashkia Delvinë","county":"Qarku i Vlorës","ISO3166-2-lvl6":"AL-12","state":"Shqipëria Jugore","postcode":"9704","country":"Shqipëria","country_code":"al"},"population":5800,"osm_type":"node","osm_id":3122825644,"type":"town","location":[20.0975332,39.9499249],"bbox":[20.0575332,39.9099249,20.1375332,39.9899249],"border":[{"name":"Bashkia Delvinë","other_names":{"name:el":"Δήμος Δέλβινου","name:mk":"Општина Делвина","name:ru":"Дельвина","name:sq":"Bashkia Delvinë"},"display_name":"Bashkia Delvinë, Qarku i Vlorës, Shqipëria Jugore, Shqipëria","address":{"municipality":"Bashkia Delvinë","county":"Qarku i Vlorës","ISO3166-2-lvl6":"AL-12","state":"Shqipëria Jugore","country":"Shqipëria","country_code":"al"},"population":7598,"osm_type":"relation","osm_id":1255540,"type":"administrative","location":[20.040257556198675,39.992476249999996],"bbox":[19.90632,39.9068773,20.143132,40.0777982]},{"name":"Delvinë","other_names":{"name:mk":"Делвина","name:ru":"Дельвина","name:sq":"Delvinë","name:el":"Δέλβινο","name:ml":"ഡെൽവിന","name:uk":"Дельвіна"},"display_name":"Delvinë, Bashkia Delvinë, Qarku i Vlorës, Shqipëria Jugore, 9704, Shqipëria","address":{"town":"Delvinë","municipality":"Bashkia Delvinë","county":"Qarku i Vlorës","ISO3166-2-lvl6":"AL-12","state":"Shqipëria Jugore","postcode":"9704","country":"Shqipëria","country_code":"al"},"population":5754,"osm_type":"relation","osm_id":1255542,"type":"administrative","location":[20.0975332,39.9499249],"bbox":[20.0126887,39.9068773,20.143132,40.0361592]}]}
{"name":"Dimal","other_names":{"name:mk":"Dimal","name:ml":"ഡിമാൽ","alt_name:mk":"Бања"},"display_name":"Dimal, Bashkia Ura Vajgurore, Qarku i Beratit, Shqipëria Jugore, Shqipëria","address":{"town":"Dimal","county":"Qarku i Beratit","ISO3166-2-lvl6":"AL-01","state":"Shqipëria Jugore","country":"Shqipëria","country_code":"al"},"population":7232,"osm_type":"node","osm_id":728426330,"type":"town","location":[19.8760275,40.7719945],"bbox":[19.8360275,40.7319945,19.9160275,40.8119945],"border":[{"name":"Bashkia Ura Vajgurore","other_names":{"name:sq":"Bashkia Ura Vajgurore","alt_name":"Bashkia Ura Vajgurore","official_name":"Bashkia Ura Vajgurore","name:mk":"Dimal","name:ml":"ഡിമാൽ","alt_name:mk":"Бања","alt":"Dimal"},"display_name":"Bashkia Ura Vajgurore, Qarku i Beratit, Shqipëria Jugore, Shqipëria","address":{"town":"Bashkia Ura Vajgurore","county":"Qarku i Beratit","ISO3166-2-lvl6":"AL-01","state":"Shqipëria Jugore","country":"Shqipëria","country_code":"al"},"population":27295,"osm_type":"relation","osm_id":7689337,"type":"administrative","location":[19.8760275,40.7719945],"bbox":[19.7311591,40.6765592,19.8893028,40.8605294]},{"name":"Ura Vajgurore","other_names":{"name:mk":"Ура Вајгуроре","name:ru":"Ура-Вайгуроре","name:sq":"Ura Vajgurore","alt_name:mk":"Бања"},"display_name":"Ura Vajgurore, Bashkia Ura Vajgurore, Qarku i Beratit, Shqipëria Jugore, 5007, Shqipëria","address":{"city_district":"Ura Vajgurore","town":"Bashkia Ura Vajgurore","county":"Qarku i Beratit","ISO3166-2-lvl6":"AL-01","state":"Shqipëria Jugore","postcode":"5007","country":"Shqipëria","country_code":"al"},"population":7232,"osm_type":"relation","osm_id":1252287,"type":"administrative","location":[19.842236115857784,40.7391336],"bbox":[19.810917,40.6849555,19.8893028,40.7931599]}]}
{"name":"Divjakë","other_names":{"name:mk":"Дивјака","name:ru":"Дивьяка"},"display_name":"Divjakë, Bashkia Divjakë, Qarku i Fierit, Shqipëria Jugore, Shqipëria","address":{"town":"Divjakë","municipality":"Bashkia Divjakë","county":"Qarku i Fierit","ISO3166-2-lvl6":"AL-04","state":"Shqipëria Jugore","country":"Shqipëria","country_code":"al"},"population":7200,"osm_type":"node","osm_id":728427729,"type":"town","location":[19.533122,40.9956207],"bbox":[19.493122,40.9556207,19.573122,41.0356207],"border":{"name":"Divjakë","other_names":{"name:mk":"Дивјака","name:sq":"Divjakë","name:ru":"Дивьяка"},"display_name":"Divjakë, Bashkia Divjakë, Qarku i Fierit, Shqipëria Jugore, 9022, Shqipëria","address":{"town":"Divjakë","municipality":"Bashkia Divjakë","county":"Qarku i Fierit","ISO3166-2-lvl6":"AL-04","state":"Shqipëria Jugore","postcode":"9022","country":"Shqipëria","country_code":"al"},"population":8445,"osm_type":"relation","osm_id":1251476,"type":"administrative","location":[19.533122,40.9956207],"bbox":[19.4314538,40.91897,19.5939514,41.0517596]}}
{"name":"Ersekë","other_names":{"name:el":"Ερσέκα","name:mk":"Ерсека","name:ru":"Эрсека","alt_name":"Erseka"},"display_name":"Ersekë, Bashkia Kolonjë, Qarku i Korçës, Shqipëria Jugore, 7401, Shqipëria","address":{"town":"Ersekë","municipality":"Bashkia Kolonjë","ISO3166-2-lvl7":"AL-ER","county":"Qarku i Korçës","ISO3166-2-lvl6":"AL-06","state":"Shqipëria Jugore","postcode":"7401","country":"Shqipëria","country_code":"al"},"population":9966,"osm_type":"node","osm_id":728418357,"type":"town","location":[20.6810024,40.3384368],"bbox":[20.6410024,40.2984368,20.7210024,40.3784368],"border":{"name":"Ersekë","other_names":{"name:ru":"Эрсека","name:sq":"Ersekë","name:el":"Ερσέκα","name:mk":"Ерсека","alt_name":"Erseka"},"display_name":"Ersekë, Bashkia Kolonjë, Qarku i Korçës, Shqipëria Jugore, 7401, Shqipëria","address":{"town":"Ersekë","municipality":"Bashkia Kolonjë","ISO3166-2-lvl7":"AL-ER","county":"Qarku i Korçës","ISO3166-2-lvl6":"AL-06","state":"Shqipëria Jugore","postcode":"7401","country":"Shqipëria","country_code":"al"},"population":3746,"osm_type":"relation","osm_id":1252600,"type":"administrative","location":[20.6810024,40.3384368],"bbox":[20.6641682,40.3309935,20.6936705,40.3508418]}}
{"name":"Fushë-Arrëz","other_names":{"name:mk":"Араско Поле"},"display_name":"Fushë-Arrëz, Bashkia Fushë-Arrëz, Qarku i Shkodrës, Shqipëria Veriore, 4402, Shqipëria","address":{"town":"Fushë-Arrëz","municipality":"Bashkia Fushë-Arrëz","county":"Qarku i Shkodrës","ISO3166-2-lvl6":"AL-10","state":"Shqipëria Veriore","postcode":"4402","country":"Shqipëria","country_code":"al"},"population":7045,"osm_type":"node","osm_id":728419167,"type":"town","location":[20.0338708,42.0701304],"bbox":[19.9938708,42.0301304,20.0738708,42.1101304],"border":{"name":"Fushë-Arrëz","other_names":{"name:mk":"Араско Поле","name:ru":"Фуша-Аррес","name:sq":"Fushë-Arrëz","alt_name:mk":"Фуша-Арез"},"display_name":"Fushë-Arrëz, Bashkia Fushë-Arrëz, Qarku i Shkodrës, Shqipëria Veriore, 4402, Shqipëria","address":{"town":"Fushë-Arrëz","municipality":"Bashkia Fushë-Arrëz","county":"Qarku i Shkodrës","ISO3166-2-lvl6":"AL-10","state":"Shqipëria Veriore","postcode":"4402","country":"Shqipëria","country_code":"al"},"population":2513,"osm_type":"relation","osm_id":1248265,"type":"administrative","location":[20.0338708,42.0701304],"bbox":[19.9737105,42.0556543,20.0409792,42.1314551]}}
{"name":"Fushë-Krujë","other_names":{"name:mk":"Кројско Поле","name:ml":"ഫുഷ-ക്രുയ","name:ru":"Фуша-Круя","name:sr":"Кројско Поље","name:zh":"富舍克鲁亚","alt_name:mk":"Фуша-Круја"},"display_name":"Fushë-Krujë, Bashkia Krujë, Qarku i Durrësit, Shqipëria Veriore, Shqipëria","address":{"town":"Fushë-Krujë","county":"Qarku i Durrësit","ISO3166-2-lvl6":"AL-02","state":"Shqipëria Veriore","country":"Shqipëria","country_code":"al"},"population":18477,"osm_type":"node","osm_id":728424152,"type":"town","location":[19.7205635,41.4791135],"bbox":[19.6805635,41.4391135,19.7605635,41.5191135],"border":{"name":"Fushë-Krujë","other_names":{"name:mk":"Кројско Поле","name:ru":"Фуша-Круя","name:sq":"Fushë-Krujë","alt_name:mk":"Фуша-Крује","name:ml":"ഫുഷ-ക്രുയ","name:sr":"Кројско Поље","name:zh":"富舍克鲁亚","_place_alt_name:mk":"Фуша-Круја"},"display_name":"Fushë-Krujë, Bashkia Krujë, Qarku i Durrësit, Shqipëria Veriore, 1502, Shqipëria","address":{"town":"Fushë-Krujë","county":"Qarku i Durrësit","ISO3166-2-lvl6":"AL-02","state":"Shqipëria Veriore","postcode":"1502","country":"Shqipëria","country_code":"al"},"population":18477,"osm_type":"relation","osm_id":1249876,"type":"administrative","location":[19.7205635,41.4791135],"bbox":[19.6847388,41.4402541,19.7922691,41.5115455]}}
{"name":"Gjirokastër","other_names":{"name:al":"Gjirokastër","name:de":"Gjirokastër","name:el":"Αργυρόκαστρο","name:en":"Gjirokastra","name:fr":"Gjirokastra","name:he":"דירוקסטרה","name:it":"Argirocastro","name:ja":"ジロカストラ","name:ko":"지로카스터르","name:lt":"Girokasteris","name:mk":"Ѓирокастро","name:ml":"ജിറോക്കാസ്ട്ര","name:pl":"Dźirokastra","name:ro":"Gjirokastra","name:ru":"Гирокастра","name:sr":"Ђирокастра","name:tr":"Ergiri","name:uk":"Гірокастра","name:zh":"吉诺卡斯特","name:rup":"Ljurocastru","old_name":"Gjirokastër"},"display_name":"Gjirokastër, Bashkia Gjirokastër, Qarku i Gjirokastrës, Shqipëria Jugore, 6001 – 6003, Shqipëria","address":{"town":"Gjirokastër","municipality":"Bashkia Gjirokastër","county":"Qarku i Gjirokastrës","ISO3166-2-lvl6":"AL-05","state":"Shqipëria Jugore","postcode":"6001 – 6003","country":"Shqipëria","country_code":"al"},"population":34450,"osm_type":"node","osm_id":274323115,"type":"town","location":[20.1393359,40.0770871],"bbox":[20.0993359,40.0370871,20.1793359,40.1170871],"border":[{"name":"Bashkia Gjirokastër","other_names":{"name:el":"Δήμος Αργυροκάστρου","name:lt":"Girokasteris","name:ru":"Гирокастра","name:sq":"Bashkia Gjirokastër"},"display_name":"Bashkia Gjirokastër, Qarku i Gjirokastrës, Shqipëria Jugore, Shqipëria","address":{"municipality":"Bashkia Gjirokastër","county":"Qarku i Gjirokastrës","ISO3166-2-lvl6":"AL-05","state":"Shqipëria Jugore","country":"Shqipëria","country_code":"al"},"population":28673,"osm_type":"relation","osm_id":1253902,"type":"administrative","location":[20.089294911332203,40.1229671],"bbox":[19.8557727,40.0092138,20.2635184,40.236613]},{"name":"Gjirokastër","other_names":{"name:lt":"Girokasteris","name:ru":"Гирокастра","name:sq":"Gjirokastër","name:al":"Gjirokastër","name:de":"Gjirokastër","name:el":"Αργυρόκαστρο","name:en":"Gjirokastra","name:fr":"Gjirokastra","name:he":"דירוקסטרה","name:it":"Argirocastro","name:ja":"ジロカストラ","name:ko":"지로카스터르","name:mk":"Ѓирокастро","name:ml":"ജിറോക്കാസ്ട്ര","name:pl":"Dźirokastra","name:ro":"Gjirokastra","name:sr":"Ђирокастра","name:tr":"Ergiri","name:uk":"Гірокастра","name:zh":"吉诺卡斯特","name:rup":"Ljurocastru","old_name":"Gjirokastër"},"display_name":"Gjirokastër, Bashkia Gjirokastër, Qarku i Gjirokastrës, Shqipëria Jugore, 6001, Shqipëria","address":{"town":"Gjirokastër","municipality":"Bashkia Gjirokastër","county":"Qarku i Gjirokastrës","ISO3166-2-lvl6":"AL-05","state":"Shqipëria Jugore","postcode":"6001","country":"Shqipëria","country_code":"al"},"population":19836,"osm_type":"relation","osm_id":1253930,"type":"administrative","location":[20.1393359,40.0770871],"bbox":[20.0574681,40.0335536,20.165556,40.1078058]}]}
{"name":"Gramsh","other_names":{"name:mk":"Грамеш","name:ml":"ഗ്രാംഷ്","name:ru":"Грамши","name:zh":"格拉姆什"},"display_name":"Gramsh, Bashkia Gramsh, Qarku i Elbasanit, Shqipëria Qendrore, 3301, Shqipëria","address":{"town":"Gramsh","municipality":"Bashkia Gramsh","county":"Qarku i Elbasanit","ISO3166-2-lvl6":"AL-03","state":"Shqipëria Qendrore","postcode":"3301","country":"Shqipëria","country_code":"al"},"population":17000,"osm_type":"node","osm_id":728417066,"type":"town","location":[20.1864495,40.8654273],"bbox":[20.1464495,40.8254273,20.2264495,40.9054273],"border":[{"name":"Bashkia Gramsh","other_names":{"name:el":"Δήμος Γκραμς","name:mk":"Општина Грамеш","name:ru":"Грамши","name:sq":"Bashkia Gramsh","alt_name":"Bashkia Gramsh","alt_name:mk":"Општина Грамш","official_name":"Bashkia Gramsh"},"display_name":"Bashkia Gramsh, Qarku i Elbasanit, Shqipëria Qendrore, Shqipëria","address":{"municipality":"Bashkia Gramsh","county":"Qarku i Elbasanit","ISO3166-2-lvl6":"AL-03","state":"Shqipëria Qendrore","country":"Shqipëria","country_code":"al"},"population":24231,"osm_type":"relation","osm_id":1250591,"type":"administrative","location":[20.23045873740235,40.854350249999996],"bbox":[20.0248728,40.7068507,20.4679468,41.0017971]},{"name":"Gramsh","other_names":{"name:mk":"Грамеш","name:ru":"Грамш","name:sq":"Gramsh","alt_name:mk":"Грамш","name:ml":"ഗ്രാംഷ്","name:zh":"格拉姆什","alt:ru":"Грамши"},"display_name":"Gramsh, Bashkia Gramsh, Qarku i Elbasanit, Shqipëria Qendrore, 3301, Shqipëria","address":{"town":"Gramsh","municipality":"Bashkia Gramsh","county":"Qarku i Elbasanit","ISO3166-2-lvl6":"AL-03","state":"Shqipëria Qendrore","postcode":"3301","country":"Shqipëria","country_code":"al"},"population":8440,"osm_type":"relation","osm_id":1250593,"type":"administrative","location":[20.1864495,40.8654273],"bbox":[20.1771484,40.852372,20.193102,40.8793355]}]}
{"name":"Himarë","other_names":{"name:el":"Χειμάρρα","name:mk":"Химара","name:ml":"ഹിമാറ","name:ru":"Химара","name:uk":"Хімара","alt_name:el":"Χιμάρα","name:el-Latn":"Cheimárra"},"display_name":"Himarë, Bashkia Himarë, Qarku i Vlorës, Shqipëria Jugore, Shqipëria","address":{"town":"Himarë","municipality":"Bashkia Himarë","county":"Qarku i Vlorës","ISO3166-2-lvl6":"AL-12","state":"Shqipëria Jugore","country":"Shqipëria","country_code":"al"},"population":6954,"osm_type":"node","osm_id":2357598507,"type":"town","location":[19.7472977,40.102163],"bbox":[19.7072977,40.062163,19.7872977,40.142163],"border":{"name":"Himarë","other_names":{"name:mk":"Химара","name:sq":"Himarë","name:el":"Χειμάρρα","name:ml":"ഹിമാറ","name:ru":"Химара","name:uk":"Хімара","alt_name:el":"Χιμάρα","name:el-Latn":"Cheimárra"},"display_name":"Himarë, Bashkia Himarë, Qarku i Vlorës, Shqipëria Jugore, 9425, Shqipëria","address":{"town":"Himarë","municipality":"Bashkia Himarë","county":"Qarku i Vlorës","ISO3166-2-lvl6":"AL-12","state":"Shqipëria Jugore","postcode":"9425","country":"Shqipëria","country_code":"al"},"population":2822,"osm_type":"relation","osm_id":1255539,"type":"administrative","location":[19.7472977,40.102163],"bbox":[19.5802669,40.0456949,19.8451314,40.2006378]}}
{"name":"Kavajë","other_names":{"name:en":"Kavaja","name:it":"Cavaia","name:mk":"Каваја","name:ru":"Кавая","name:zh":"卡瓦亚"},"display_name":"Kavajë, Bashkia Kavajë, Qarku i Tiranës, Shqipëria Qendrore, Shqipëria","address":{"town":"Kavajë","municipality":"Bashkia Kavajë","county":"Qarku i Tiranës","ISO3166-2-lvl6":"AL-11","state":"Shqipëria Qendrore","country":"Shqipëria","country_code":"al"},"population":40094,"osm_type":"node","osm_id":347462790,"type":"town","location":[19.5599485,41.1834239],"bbox":[19.5199485,41.1434239,19.5999485,41.2234239],"border":{"name":"Kavajë","other_names":{"name:mk":"Каваја","name:nl":"Kavajë","name:sq":"Kavajë","name:en":"Kavaja","name:it":"Cavaia","name:ru":"Кавая","name:zh":"卡瓦亚"},"display_name":"Kavajë, Bashkia Kavajë, Qarku i Tiranës, Shqipëria Qendrore, 2501, Shqipëria","address":{"town":"Kavajë","municipality":"Bashkia Kavajë","county":"Qarku i Tiranës","ISO3166-2-lvl6":"AL-11","state":"Shqipëria Qendrore","postcode":"2501","country":"Shqipëria","country_code":"al"},"population":20192,"osm_type":"relation","osm_id":1250096,"type":"administrative","location":[19.5599485,41.1834239],"bbox":[19.5353985,41.1620254,19.5795594,41.204913]}}
{"name":"Këlcyrë","other_names":{"name:el":"Κλεισούρα","name:mk":"Клисура","name:ml":"കെൽസിറ","name:ru":"Кельцира","alt_name:mk":"Келцира"},"display_name":"Këlcyrë, Bashkia Këlcyrë, Qarku i Gjirokastrës, Shqipëria Jugore, 6402, Shqipëria","address":{"town":"Këlcyrë","municipality":"Bashkia Këlcyrë","county":"Qarku i Gjirokastrës","ISO3166-2-lvl6":"AL-05","state":"Shqipëria Jugore","postcode":"6402","country":"Shqipëria","country_code":"al"},"population":3101,"osm_type":"node","osm_id":5321908579,"type":"town","location":[20.1922837,40.3135075],"bbox":[20.1522837,40.2735075,20.2322837,40.3535075],"border":{"name":"Këlcyrë","other_names":{"name:mk":"Клисура","name:ru":"Кельцира","name:sq":"Këlcyrë","name:el":"Κλεισούρα","name:ml":"കെൽസിറ","alt_name:mk":"Келцира"},"display_name":"Këlcyrë, Bashkia Këlcyrë, Qarku i Gjirokastrës, Shqipëria Jugore, 6402, Shqipëria","address":{"town":"Këlcyrë","municipality":"Bashkia Këlcyrë","county":"Qarku i Gjirokastrës","ISO3166-2-lvl6":"AL-05","state":"Shqipëria Jugore","postcode":"6402","country":"Shqipëria","country_code":"al"},"population":2651,"osm_type":"relation","osm_id":1253928,"type":"administrative","location":[20.1922837,40.3135075],"bbox":[20.1087,40.2221037,20.2257817,40.3231061]}}
{"name":"Klos","other_names":{"name:mk":"Клос","name:ru":"Клос"},"display_name":"Klos, Bashkia Klos, Qarku i Dibrës, Shqipëria Veriore, Shqipëria","address":{"town":"Klos","county":"Qarku i Dibrës","ISO3166-2-lvl6":"AL-09","state":"Shqipëria Veriore","country":"Shqipëria","country_code":"al"},"population":12172,"osm_type":"node","osm_id":728417102,"type":"town","location":[20.0850706,41.5072297],"bbox":[20.0450706,41.4672297,20.1250706,41.5472297],"border":[{"name":"Bashkia Klos","other_names":{"name:sq":"Bashkia Klos","name:mk":"Клос","name:ru":"Клос","alt":"Klos"},"display_name":"Bashkia Klos, Qarku i Dibrës, Shqipëria Veriore, Shqipëria","address":{"town":"Bashkia Klos","county":"Qarku i Dibrës","ISO3166-2-lvl6":"AL-09","state":"Shqipëria Veriore","country":"Shqipëria","country_code":"al"},"population":16618,"osm_type":"relation","osm_id":7695678,"type":"administrative","location":[20.0850706,41.5072297],"bbox":[19.9046689,41.3818652,20.2166373,41.5954734]},{"name":"Klos","other_names":{"name:mk":"Клос","name:ru":"Клос","name:sq":"Klos"},"display_name":"Klos, Bashkia Klos, Qarku i Dibrës, Shqipëria Veriore, 8002, Shqipëria","address":{"town":"Klos","county":"Qarku i Dibrës","ISO3166-2-lvl6":"AL-09","state":"Shqipëria Veriore","postcode":"8002","country":"Shqipëria","country_code":"al"},"population":7873,"osm_type":"relation","osm_id":1249542,"type":"administrative","location":[20.0850706,41.5072297],"bbox":[20.0090138,41.446057,20.2155084,41.5582121]}]}
{"name":"Konispol","other_names":{"name:el":"Κονίσπολη","name:mk":"Кониспол"},"display_name":"Konispol, Bashkia Konispol, Qarku i Vlorës, Shqipëria Jugore, 9705, Shqipëria","address":{"town":"Konispol","municipality":"Bashkia Konispol","county":"Qarku i Vlorës","ISO3166-2-lvl6":"AL-12","state":"Shqipëria Jugore","postcode":"9705","country":"Shqipëria","country_code":"al"},"population":2123,"osm_type":"node","osm_id":728417013,"type":"town","location":[20.1830111,39.6595303],"bbox":[20.1430111,39.6195303,20.2230111,39.6995303],"border":{"name":"Konispol","other_names":{"name:mk":"Кониспол","name:ru":"Конисполь","name:sq":"Konispol","name:el":"Κονίσπολη"},"display_name":"Konispol, Bashkia Konispol, Qarku i Vlorës, Shqipëria Jugore, 9705, Shqipëria","address":{"town":"Konispol","municipality":"Bashkia Konispol","county":"Qarku i Vlorës","ISO3166-2-lvl6":"AL-12","state":"Shqipëria Jugore","postcode":"9705","country":"Shqipëria","country_code":"al"},"population":2123,"osm_type":"relation","osm_id":1255548,"type":"administrative","location":[20.1830111,39.6595303],"bbox":[20.0934523,39.6448625,20.2125473,39.7251352]}}
{"name":"Koplik","other_names":{"name:en":"Koplik","name:mk":"Коплик","name:ru":"Коплик","name:sq":"Kopliku","name:sr":"Коплик"},"display_name":"Koplik, Bashkia Malësi e Madhe, Qarku i Shkodrës, Shqipëria Veriore, 4301, Shqipëria","address":{"town":"Koplik","municipality":"Bashkia Malësi e Madhe","county":"Qarku i Shkodrës","ISO3166-2-lvl6":"AL-10","state":"Shqipëria Veriore","postcode":"4301","country":"Shqipëria","country_code":"al"},"osm_type":"node","osm_id":5386224053,"type":"town","location":[19.437214,42.2112922],"bbox":[19.397214,42.1712922,19.477214,42.2512922],"border":{"name":"Koplik","other_names":{"name:mk":"Коплик","name:sq":"Koplik","name:en":"Koplik","name:ru":"Коплик","name:sr":"Коплик","alt:sq":"Kopliku"},"display_name":"Koplik, Bashkia Malësi e Madhe, Qarku i Shkodrës, Shqipëria Veriore, 4301, Shqipëria","address":{"town":"Koplik","municipality":"Bashkia Malësi e Madhe","county":"Qarku i Shkodrës","ISO3166-2-lvl6":"AL-10","state":"Shqipëria Veriore","postcode":"4301","country":"Shqipëria","country_code":"al"},"population":3734,"osm_type":"relation","osm_id":1248296,"type":"administrative","location":[19.437214,42.2112922],"bbox":[19.3960549,42.1861377,19.454105,42.2405259]}}
{"name":"Krujë","other_names":{"name:en":"Kruja","name:hu":"Kruja","name:it":"Croia","name:mk":"Кроја","name:ml":"ക്രുയ","name:pl":"Kruja","name:ru":"Круя","name:sq":"Krujë","name:sr":"Кроја"},"display_name":"Krujë, Bashkia Krujë, Qarku i Durrësit, Shqipëria Veriore, Shqipëria","address":{"town":"Krujë","county":"Qarku i Durrësit","ISO3166-2-lvl6":"AL-02","state":"Shqipëria Veriore","country":"Shqipëria","country_code":"al"},"population":11721,"osm_type":"node","osm_id":503689082,"type":"town","location":[19.792852,41.511251],"bbox":[19.752852,41.471251,19.832852,41.551251],"border":[{"name":"Bashkia Krujë","other_names":{"name:mk":"Општина Кроја","name:ru":"Круя","name:sq":"Bashkia Krujë","alt_name:mk":"Општина Круја","name:en":"Kruja","name:hu":"Kruja","name:it":"Croia","name:ml":"ക്രുയ","name:pl":"Kruja","name:sr":"Кроја","alt":"Krujë","alt:mk":"Кроја","alt:sq":"Krujë"},"display_name":"Bashkia Krujë, Qarku i Durrësit, Shqipëria Veriore, Shqipëria","address":{"town":"Bashkia Krujë","county":"Qarku i Durrësit","ISO3166-2-lvl6":"AL-02","state":"Shqipëria Veriore","country":"Shqipëria","country_code":"al"},"population":59814,"osm_type":"relation","osm_id":1249877,"type":"administrative","location":[19.792852,41.511251],"bbox":[19.5645053,41.3987361,19.9083569,41.6062934]},{"name":"Krujë","other_names":{"name:mk":"Кроја","name:ru":"Круя","name:sq":"Krujë","alt_name:mk":"Круја"},"display_name":"Krujë, Bashkia Krujë, Qarku i Durrësit, Shqipëria Veriore, 1501, Shqipëria","address":{"city_district":"Krujë","town":"Bashkia Krujë","county":"Qarku i Durrësit","ISO3166-2-lvl6":"AL-02","state":"Shqipëria Veriore","postcode":"1501","country":"Shqipëria","country_code":"al"},"population":11721,"osm_type":"relation","osm_id":1249885,"type":"administrative","location":[19.781380171668477,41.508936750000004],"bbox":[19.7223921,41.455487,19.8241709,41.5633273]}]}
{"name":"Krumë","other_names":{"name:mk":"Крума","alt_name":"Has","alt_name:zh":"克鲁马"},"display_name":"Krumë, Bashkia Has, Qarku i Kukësit, Shqipëria Veriore, Shqipëria","address":{"town":"Krumë","municipality":"Bashkia Has","county":"Qarku i Kukësit","ISO3166-2-lvl6":"AL-07","state":"Shqipëria Veriore","country":"Shqipëria","country_code":"al"},"population":6006,"osm_type":"node","osm_id":728426346,"type":"town","location":[20.4162476,42.1958361],"bbox":[20.3762476,42.1558361,20.4562476,42.2358361],"border":{"name":"Krumë","other_names":{"name:mk":"Крума","name:sq":"Krumë","alt_name":"Has","alt_name:zh":"克鲁马"},"display_name":"Krumë, Bashkia Has, Qarku i Kukësit, Shqipëria Veriore, 8602, Shqipëria","address":{"town":"Krumë","municipality":"Bashkia Has","county":"Qarku i Kukësit","ISO3166-2-lvl6":"AL-07","state":"Shqipëria Veriore","postcode":"8602","country":"Shqipëria","country_code":"al"},"population":6006,"osm_type":"relation","osm_id":1248557,"type":"administrative","location":[20.4162476,42.1958361],"bbox":[20.3010019,42.1510512,20.4992837,42.2296455]}}
{"name":"Kuçovë","other_names":{"name:mk":"Кучово","name:ml":"കുച്ചോവ","name:ru":"Кучова"},"display_name":"Kuçovë, Bashkia Kuçovë, Qarku i Beratit, Shqipëria Jugore, Shqipëria","address":{"town":"Kuçovë","municipality":"Bashkia Kuçovë","county":"Qarku i Beratit","ISO3166-2-lvl6":"AL-01","state":"Shqipëria Jugore","country":"Shqipëria","country_code":"al"},"population":12654,"osm_type":"node","osm_id":415789950,"type":"town","location":[19.9134448,40.804415],"bbox":[19.8734448,40.764415,19.9534448,40.844415],"border":{"name":"Kuçovë","other_names":{"name:ru":"Кучова","name:sq":"Kuçovë","name:mk":"Кучово","name:ml":"കുച്ചോവ"},"display_name":"Kuçovë, Bashkia Kuçovë, Qarku i Beratit, Shqipëria Jugore, 5301, Shqipëria","address":{"town":"Kuçovë","municipality":"Bashkia Kuçovë","county":"Qarku i Beratit","ISO3166-2-lvl6":"AL-01","state":"Shqipëria Jugore","postcode":"5301","country":"Shqipëria","country_code":"al"},"population":12654,"osm_type":"relation","osm_id":1252303,"type":"administrative","location":[19.9134448,40.804415],"bbox":[19.9083297,40.7865783,19.9249328,40.8161595]}}
{"name":"Kukës","other_names":{"name:el":"Κουκές","name:mk":"Кукуш","name:ru":"Кукес","name:zh":"库克斯"},"display_name":"Kukës, Bashkia Kukës, Qarku i Kukësit, Shqipëria Veriore, Shqipëria","address":{"town":"Kukës","county":"Qarku i Kukësit","ISO3166-2-lvl6":"AL-07","state":"Shqipëria Veriore","country":"Shqipëria","country_code":"al"},"population":16765,"osm_type":"node","osm_id":470406312,"type":"town","location":[20.4163203,42.0768978],"bbox":[20.3763203,42.0368978,20.4563203,42.1168978],"border":[{"name":"Qarku i Kukësit","other_names":{"ref":"AL013","name:an":"Prefectura de Kukës","name:ar":"مقاطعة كوكس","name:be":"Кукес","name:bg":"Кукъс (област)","name:br":"Kukës (rannvro)","name:ca":"Comtat de Kukës","name:cs":"Kukës (kraj)","name:de":"Qark Kukës","name:el":"Νομός Κουκς","name:en":"Kukës County","name:eo":"Provinco Kukës","name:es":"Condado de Kukës","name:et":"Kukësi maakond","name:eu":"Kukës konderria","name:fi":"Kukësin maakunta","name:fr":"Préfecture de Kukës","name:ga":"Contae Kukës","name:gl":"Condado de Kukës","name:hi":"कुकेस प्रांत","name:hr":"Kukeski okrug","name:hy":"Կուկասի գավառ","name:it":"Prefettura di Kukës","name:ja":"クケス州","name:kg":"Kukës (kizunga)","name:ko":"쿠커스 주","name:lt":"Kukesio apskritis","name:mk":"Округ Кукуш","name:nl":"Kukës (prefectuur)","name:no":"Kukës (region)","name:pl":"Obwód Kukës","name:pt":"Kukës (prefeitura)","name:ro":"Regiunea Kukës","name:ru":"Кукес (область)","name:sk":"Kukës (kraj)","name:sq":"Qarku i Kukësit","name:sv":"Kukës prefektur","name:tl":"Kondado ng Kukës","name:tr":"Kukës ili","name:uk":"Кукес (область)","name:ur":"صوبہ کوکس","name:vi":"Kukës (hạt)","name:zh":"庫克斯州","name:ceb":"Qarku i Kukësit","name:lmo":"Prefettura de Kukës","name:pnb":"صوبہ کوکس","name:sco":"Kukës Coonty","name:war":"Kukës (condado)","ISO3166-2":"AL-07","name:simple":"Kukës County","name:zh-Hans":"库克斯州","name:zh-Hant":"庫克斯州","name:be-tarask":"Кукес"},"display_name":"Qarku i Kukësit, Shqipëria Veriore, Shqipëria","address":{"county":"Qarku i Kukësit","ISO3166-2-lvl6":"AL-07","state":"Shqipëria Veriore","country":"Shqipëria","country_code":"al"},"population":85292,"osm_type":"relation","osm_id":1759889,"type":"administrative","location":[20.37696328780606,42.1885664],"bbox":[19.7982265,41.8147637,20.626587,42.5591476]},{"name":"Bashkia Kukës","other_names":{"ref":"KU","name:mk":"Општина Кукуш","name:ru":"Кукес","name:sq":"Bashkia Kukës","name:el":"Κουκές","name:zh":"库克斯","alt":"Kukës","alt:mk":"Кукуш"},"display_name":"Bashkia Kukës, Qarku i Kukësit, Shqipëria Veriore, Shqipëria","address":{"town":"Bashkia Kukës","county":"Qarku i Kukësit","ISO3166-2-lvl6":"AL-07","state":"Shqipëria Veriore","country":"Shqipëria","country_code":"al"},"population":47985,"osm_type":"relation","osm_id":1248555,"type":"administrative","location":[20.4163203,42.0768978],"bbox":[20.1299597,41.8147637,20.626587,42.182052]},{"name":"Kukës","other_names":{"name:el":"Κουκές","name:ru":"Кукес","name:sq":"Kukës"},"display_name":"Kukës, Bashkia Kukës, Qarku i Kukësit, Shqipëria Veriore, 8501, Shqipëria","address":{"city_district":"Kukës","town":"Bashkia Kukës","county":"Qarku i Kukësit","ISO3166-2-lvl6":"AL-07","state":"Shqipëria Veriore","postcode":"8501","country":"Shqipëria","country_code":"al"},"population":16719,"osm_type":"relation","osm_id":1248537,"type":"administrative","location":[20.42116318132266,42.07271955],"bbox":[20.3961602,42.043549,20.443448,42.101905]}]}
{"name":"Laç","other_names":{"name:mk":"Лач","name:ml":"ലാച്ച്","name:ru":"Лач","name:zh":"拉奇","alt_name":"Laçi"},"display_name":"Laç, Bashkia Kurbin, Qarku i Lezhës, Shqipëria Veriore, 4701-4702, Shqipëria","address":{"town":"Laç","municipality":"Bashkia Kurbin","county":"Qarku i Lezhës","ISO3166-2-lvl6":"AL-08","state":"Shqipëria Veriore","postcode":"4701-4702","country":"Shqipëria","country_code":"al"},"population":17086,"osm_type":"node","osm_id":2367041545,"type":"town","location":[19.7123916,41.635741],"bbox":[19.6723916,41.595741,19.7523916,41.675741],"border":{"name":"Laç","other_names":{"name:mk":"Лач","name:sq":"Laç","name:zh":"拉奇","name:ml":"ലാച്ച്","name:ru":"Лач","alt_name":"Laçi"},"display_name":"Laç, Bashkia Kurbin, Qarku i Lezhës, Shqipëria Veriore, 4701, Shqipëria","address":{"town":"Laç","municipality":"Bashkia Kurbin","county":"Qarku i Lezhës","ISO3166-2-lvl6":"AL-08","state":"Shqipëria Veriore","postcode":"4701","country":"Shqipëria","country_code":"al"},"population":17086,"osm_type":"relation","osm_id":1248928,"type":"administrative","location":[19.7123916,41.635741],"bbox":[19.6648556,41.6166494,19.7395506,41.6533567]}}
{"name":"Leskovik","other_names":{"name:el":"Λεσκοβίκι","name:mk":"Лесковик","name:ru":"Лесковик"},"display_name":"Leskovik, Bashkia Kolonjë, Qarku i Korçës, Shqipëria Jugore, Shqipëria","address":{"town":"Leskovik","municipality":"Bashkia Kolonjë","ISO3166-2-lvl7":"AL-ER","county":"Qarku i Korçës","ISO3166-2-lvl6":"AL-06","state":"Shqipëria Jugore","country":"Shqipëria","country_code":"al"},"population":1976,"osm_type":"node","osm_id":728422173,"type":"town","location":[20.5990179,40.1524216],"bbox":[20.5590179,40.1124216,20.6390179,40.1924216],"border":{"name":"Leskovik","other_names":{"name:ru":"Лесковик","name:sq":"Leskovik","name:el":"Λεσκοβίκι","name:mk":"Лесковик"},"display_name":"Leskovik, Bashkia Kolonjë, Qarku i Korçës, Shqipëria Jugore, 7402, Shqipëria","address":{"town":"Leskovik","municipality":"Bashkia Kolonjë","ISO3166-2-lvl7":"AL-ER","county":"Qarku i Korçës","ISO3166-2-lvl6":"AL-06","state":"Shqipëria Jugore","postcode":"7402","country":"Shqipëria","country_code":"al"},"population":1525,"osm_type":"relation","osm_id":1252591,"type":"administrative","location":[20.5990179,40.1524216],"bbox":[20.5868814,40.143863,20.6142116,40.1641228]}}
{"name":"Lezhë","other_names":{"name:el":"Λέζε","name:it":"Alessio","name:mk":"Леска","name:ml":"ലെജ","name:ru":"Лежа","name:sr":"Љеш","name:tr":"Leş","name:uk":"Лежа","alt_name":"Lezha"},"display_name":"Lezhë, Bashkia Lezhë, Qarku i Lezhës, Shqipëria Veriore, 4501, Shqipëria","address":{"town":"Lezhë","county":"Qarku i Lezhës","ISO3166-2-lvl6":"AL-08","state":"Shqipëria Veriore","postcode":"4501","country":"Shqipëria","country_code":"al"},"population":15510,"osm_type":"node","osm_id":4742666358,"type":"town","location":[19.6433538,41.7816638],"bbox":[19.6033538,41.7416638,19.6833538,41.8216638],"border":[{"name":"Qarku i Lezhës","other_names":{"ref":"AL014","name:an":"Prefectura de Lezhë","name:ar":"مقاطعة لجه","name:be":"Лежа","name:bg":"Лежа (област)","name:br":"Lezhë (rannvro)","name:ca":"Comtat de Lezhë","name:cs":"Lezhë (kraj)","name:de":"Qark Lezha","name:el":"Νομός Λεζ","name:en":"Lezhë County","name:eo":"Provinco Lezhë","name:es":"Condado de Lezhë","name:et":"Lezhë maakond","name:eu":"Lezhë konderria","name:fi":"Lezhën maakunta","name:fr":"Préfecture de Lezhë","name:ga":"Contae Lezhë","name:gl":"Condado de Lezhë","name:hi":"लेज़ह प्रांत","name:hr":"Lješki okrug","name:hy":"Լեժայի գավառ","name:it":"Prefettura di Alessio","name:ja":"レジャ州","name:kg":"Lezhë (kizunga)","name:ko":"레저 주","name:lt":"Ležės apskritis","name:mk":"Леска (област)","name:nl":"Lezhë (prefectuur)","name:no":"Lezhë (region)","name:pl":"Obwód Lezha","name:pt":"Lezhë (prefeitura)","name:ro":"Regiunea Lezhë","name:ru":"Лежа (область)","name:sh":"Lješki okrug","name:sk":"Lezhë (kraj)","name:sq":"Qarku i Lezhës","name:sv":"Lezhë prefektur","name:tl":"Kondado ng Lezhë","name:tr":"Leş ili","name:uk":"Леже (область)","name:ur":"صوبہ لژہ","name:vi":"Lezhë (hạt)","name:zh":"列澤州","name:ceb":"Qarku i Lezhës","name:lmo":"Prefettura de Alessi","name:pnb":"صوبہ لژہ","name:sco":"Lezhë Coonty","name:war":"Lezhë (condado)","ISO3166-2":"AL-08","alt_name:mk":"Лежа (област)","name:simple":"Lezhë County","name:be-tarask":"Лежа"},"display_name":"Qarku i Lezhës, Shqipëria Veriore, Shqipëria","address":{"county":"Qarku i Lezhës","ISO3166-2-lvl6":"AL-08","state":"Shqipëria Veriore","country":"Shqipëria","country_code":"al"},"population":134027,"osm_type":"relation","osm_id":1248935,"type":"administrative","location":[19.88911431685125,41.7932241],"bbox":[19.460983,41.553592,20.2775799,42.0326579]},{"name":"Bashkia Lezhë","other_names":{"name:en":"Lezhë Municipality","name:ru":"Лежа","name:sq":"Bashkia Lezhë","name:el":"Λέζε","name:it":"Alessio","name:mk":"Леска","name:ml":"ലെജ","name:sr":"Љеш","name:tr":"Leş","name:uk":"Лежа","alt_name":"Lezha","alt":"Lezhë"},"display_name":"Bashkia Lezhë, Qarku i Lezhës, Shqipëria Veriore, Shqipëria","address":{"town":"Bashkia Lezhë","county":"Qarku i Lezhës","ISO3166-2-lvl6":"AL-08","state":"Shqipëria Veriore","country":"Shqipëria","country_code":"al"},"population":65633,"osm_type":"relation","osm_id":1248922,"type":"administrative","location":[19.6433538,41.7816638],"bbox":[19.460983,41.6610292,19.8637318,41.9545351]},{"name":"Lezhë","other_names":{"name:ru":"Лежа","name:sq":"Lezhë"},"display_name":"Lezhë, Bashkia Lezhë, Qarku i Lezhës, Shqipëria Veriore, 4501, Shqipëria","address":{"city_district":"Lezhë","town":"Bashkia Lezhë","county":"Qarku i Lezhës","ISO3166-2-lvl6":"AL-08","state":"Shqipëria Veriore","postcode":"4501","country":"Shqipëria","country_code":"al"},"population":15510,"osm_type":"relation","osm_id":1248929,"type":"administrative","location":[19.642953023157716,41.78194225],"bbox":[19.6267282,41.774656,19.6577514,41.7891203]}]}
{"name":"Librazhd","other_names":{"name:mk":"Либражд","name:ml":"ലിബ്രാജ്ഡ്","name:ru":"Либражди","name:sr":"Либражд","name:zh":"利布拉什德"},"display_name":"Librazhd, Bashkia Librazhd, Qarku i Elbasanit, Shqipëria Qendrore, 3401, Shqipëria","address":{"town":"Librazhd","municipality":"Bashkia Librazhd","county":"Qarku i Elbasanit","ISO3166-2-lvl6":"AL-03","state":"Shqipëria Qendrore","postcode":"3401","country":"Shqipëria","country_code":"al"},"population":6937,"osm_type":"node","osm_id":1785762367,"type":"town","location":[20.3167518,41.1802251],"bbox":[20.2767518,41.1402251,20.3567518,41.2202251],"border":{"name":"Librazhd","other_names":{"name:ru":"Либражд","name:sq":"Librazhd","name:mk":"Либражд","name:ml":"ലിബ്രാജ്ഡ്","name:sr":"Либражд","name:zh":"利布拉什德","alt:ru":"Либражди"},"display_name":"Librazhd, Bashkia Librazhd, Qarku i Elbasanit, Shqipëria Qendrore, 3401, Shqipëria","address":{"town":"Librazhd","municipality":"Bashkia Librazhd","county":"Qarku i Elbasanit","ISO3166-2-lvl6":"AL-03","state":"Shqipëria Qendrore","postcode":"3401","country":"Shqipëria","country_code":"al"},"population":6937,"osm_type":"relation","osm_id":1250611,"type":"administrative","location":[20.3167518,41.1802251],"bbox":[20.2971537,41.1728377,20.3459711,41.1916345]}}
{"name":"Maliq","other_names":{"name:mk":"Малик","name:ru":"Малик"},"display_name":"Maliq, Bashkia Maliq, Qarku i Korçës, Shqipëria Jugore, 7005, Shqipëria","address":{"town":"Maliq","municipality":"Bashkia Maliq","county":"Qarku i Korçës","ISO3166-2-lvl6":"AL-06","state":"Shqipëria Jugore","postcode":"7005","country":"Shqipëria","country_code":"al"},"population":5696,"osm_type":"node","osm_id":5306524829,"type":"town","location":[20.6996182,40.7086433],"bbox":[20.6596182,40.6686433,20.7396182,40.7486433],"border":{"name":"Maliq","other_names":{"name:sq":"Maliq","name:mk":"Малик","name:ru":"Малик"},"display_name":"Maliq, Bashkia Maliq, Qarku i Korçës, Shqipëria Jugore, 7005, Shqipëria","address":{"town":"Maliq","municipality":"Bashkia Maliq","county":"Qarku i Korçës","ISO3166-2-lvl6":"AL-06","state":"Shqipëria Jugore","postcode":"7005","country":"Shqipëria","country_code":"al"},"population":4290,"osm_type":"relation","osm_id":1252601,"type":"administrative","location":[20.6996182,40.7086433],"bbox":[20.5906042,40.6720514,20.7127131,40.7325485]}}
{"name":"Memaliaj","other_names":{"name:mk":"Мемалија","name:ml":"മെമാലിയ","name:ru":"Мемаляй"},"display_name":"Memaliaj, Bashkia Memaliaj, Qarku i Gjirokastrës, Shqipëria Jugore, 6302, Shqipëria","address":{"town":"Memaliaj","municipality":"Bashkia Memaliaj","county":"Qarku i Gjirokastrës","ISO3166-2-lvl6":"AL-05","state":"Shqipëria Jugore","postcode":"6302","country":"Shqipëria","country_code":"al"},"population":2646,"osm_type":"node","osm_id":713605057,"type":"town","location":[19.9833859,40.3516573],"bbox":[19.9433859,40.3116573,20.0233859,40.3916573],"border":{"name":"Memaliaj","other_names":{"name:mk":"Мемалија","name:ru":"Мемалияй","name:sq":"Memaliaj","name:ml":"മെമാലിയ","alt:ru":"Мемаляй"},"display_name":"Memaliaj, Bashkia Memaliaj, Qarku i Gjirokastrës, Shqipëria Jugore, 6302, Shqipëria","address":{"town":"Memaliaj","municipality":"Bashkia Memaliaj","county":"Qarku i Gjirokastrës","ISO3166-2-lvl6":"AL-05","state":"Shqipëria Jugore","postcode":"6302","country":"Shqipëria","country_code":"al"},"population":2647,"osm_type":"relation","osm_id":1253920,"type":"administrative","location":[19.9833859,40.3516573],"bbox":[19.9727609,40.3403921,19.9882381,40.3557621]}}
{"name":"Orikum","other_names":{"name:mk":"Орикум","name:ml":"ഒറിക്കും","name:tr":"Paşalimanı","name:uk":"Орікум","alt_name":"Pashalimani"},"display_name":"Orikum, Bashkia Vlorë, Qarku i Vlorës, Shqipëria Jugore, Shqipëria","address":{"town":"Orikum","municipality":"Bashkia Vlorë","county":"Qarku i Vlorës","ISO3166-2-lvl6":"AL-12","state":"Shqipëria Jugore","country":"Shqipëria","country_code":"al"},"population":5503,"osm_type":"node","osm_id":713605590,"type":"town","location":[19.4748818,40.3268432],"bbox":[19.4348818,40.2868432,19.5148818,40.3668432],"border":{"name":"Orikum","other_names":{"name:mk":"Орикум","name:sq":"Orikum","name:ml":"ഒറിക്കും","name:tr":"Paşalimanı","name:uk":"Орікум","alt_name":"Pashalimani"},"display_name":"Orikum, Bashkia Vlorë, Qarku i Vlorës, Shqipëria Jugore, 9426, Shqipëria","address":{"town":"Orikum","municipality":"Bashkia Vlorë","county":"Qarku i Vlorës","ISO3166-2-lvl6":"AL-12","state":"Shqipëria Jugore","postcode":"9426","country":"Shqipëria","country_code":"al"},"population":5503,"osm_type":"relation","osm_id":1255538,"type":"administrative","location":[19.4748818,40.3268432],"bbox":[19.2886555,40.1717813,19.6332191,40.4387039]}}
{"name":"Patos","other_names":{"name:al":"Patos","name:de":"Patos","name:en":"Patos","name:fr":"Patos","name:mk":"Патос","name:ml":"പാറ്റോസ്","name:ru":"Патос","old_name":"Patos"},"display_name":"Patos, Bashkia Patos, Qarku i Fierit, Shqipëria Jugore, 9307, Shqipëria","address":{"town":"Patos","municipality":"Bashkia Patos","county":"Qarku i Fierit","ISO3166-2-lvl6":"AL-04","state":"Shqipëria Jugore","postcode":"9307","country":"Shqipëria","country_code":"al"},"population":23626,"osm_type":"node","osm_id":728418395,"type":"town","location":[19.6159921,40.6843228],"bbox":[19.5759921,40.6443228,19.6559921,40.7243228],"border":{"name":"Patos","other_names":{"name:sq":"Patos","name:al":"Patos","name:de":"Patos","name:en":"Patos","name:fr":"Patos","name:mk":"Патос","name:ml":"പാറ്റോസ്","name:ru":"Патос","old_name":"Patos"},"display_name":"Patos, Bashkia Patos, Qarku i Fierit, Shqipëria Jugore, 9307, Shqipëria","address":{"town":"Patos","municipality":"Bashkia Patos","county":"Qarku i Fierit","ISO3166-2-lvl6":"AL-04","state":"Shqipëria Jugore","postcode":"9307","country":"Shqipëria","country_code":"al"},"population":15397,"osm_type":"relation","osm_id":1251516,"type":"administrative","location":[19.6159921,40.6843228],"bbox":[19.5905812,40.6426439,19.6957421,40.7085492]}}
{"name":"Peqin","other_names":{"name:hu":"Peqin","name:la":"Claudiana","name:mk":"Пекин","name:ru":"Пекин","name:zh":"佩钦","old_name":"Claudiana"},"display_name":"Peqin, Bashkia Peqin, Qarku i Elbasanit, Shqipëria Qendrore, 3501, Shqipëria","address":{"town":"Peqin","municipality":"Bashkia Peqin","county":"Qarku i Elbasanit","ISO3166-2-lvl6":"AL-03","state":"Shqipëria Qendrore","postcode":"3501","country":"Shqipëria","country_code":"al"},"population":8942,"osm_type":"node","osm_id":5196037939,"type":"town","location":[19.7494517,41.0461304],"bbox":[19.7094517,41.0061304,19.7894517,41.0861304],"border":[{"name":"Bashkia Peqin","other_names":{"name:el":"Δήμος Πεκίν","name:ru":"Пекин","name:sq":"Bashkia Peqin","alt_name":"Bashkia Peqin","official_name":"Bashkia Peqin"},"display_name":"Bashkia Peqin, Qarku i Elbasanit, Shqipëria Qendrore, 3501-3506, Shqipëria","address":{"municipality":"Bashkia Peqin","county":"Qarku i Elbasanit","ISO3166-2-lvl6":"AL-03","state":"Shqipëria Qendrore","postcode":"3501-3506","country":"Shqipëria","country_code":"al"},"population":26136,"osm_type":"relation","osm_id":1250584,"type":"administrative","location":[19.80797067754684,41.07122895],"bbox":[19.6734341,40.9854986,19.9116805,41.1564165]},{"name":"Peqin","other_names":{"name:ru":"Пекин","name:sq":"Peqin","name:hu":"Peqin","name:la":"Claudiana","name:mk":"Пекин","name:zh":"佩钦","old_name":"Claudiana"},"display_name":"Peqin, Bashkia Peqin, Qarku i Elbasanit, Shqipëria Qendrore, 3501, Shqipëria","address":{"town":"Peqin","municipality":"Bashkia Peqin","county":"Qarku i Elbasanit","ISO3166-2-lvl6":"AL-03","state":"Shqipëria Qendrore","postcode":"3501","country":"Shqipëria","country_code":"al"},"population":6353,"osm_type":"relation","osm_id":1250573,"type":"administrative","location":[19.7494517,41.0461304],"bbox":[19.7376268,41.0435595,19.7524827,41.0515062]}]}
{"name":"Përmet","other_names":{"name:el":"Πρεμετή","name:mk":"Премет","name:ru":"Пермети","alt_name:mk":"Пермет"},"display_name":"Përmet, Bashkia Përmet, Qarku i Gjirokastrës, Shqipëria Jugore, 6401, Shqipëria","address":{"town":"Përmet","municipality":"Bashkia Përmet","county":"Qarku i Gjirokastrës","ISO3166-2-lvl6":"AL-05","state":"Shqipëria Jugore","postcode":"6401","country":"Shqipëria","country_code":"al"},"population":12700,"osm_type":"node","osm_id":728418058,"type":"town","location":[20.3531679,40.2332541],"bbox":[20.3131679,40.1932541,20.3931679,40.2732541],"border":[{"name":"Bashkia Përmet","other_names":{"name:el":"Δήμος Πρεμετής","name:mk":"Општина Премет","name:ru":"Пермети","name:sq":"Bashkia Përmet"},"display_name":"Bashkia Përmet, Qarku i Gjirokastrës, Shqipëria Jugore, Shqipëria","address":{"municipality":"Bashkia Përmet","county":"Qarku i Gjirokastrës","ISO3166-2-lvl6":"AL-05","state":"Shqipëria Jugore","country":"Shqipëria","country_code":"al"},"population":10614,"osm_type":"relation","osm_id":1253926,"type":"administrative","location":[20.357798154134926,40.25430905],"bbox":[20.2173567,40.0638377,20.6176602,40.4419894]},{"name":"Përmet","other_names":{"name:mk":"Премет","name:ru":"Пермети","name:sq":"Përmet","alt_name:mk":"Пермет","name:el":"Πρεμετή"},"display_name":"Përmet, Bashkia Përmet, Qarku i Gjirokastrës, Shqipëria Jugore, 6401, Shqipëria","address":{"town":"Përmet","municipality":"Bashkia Përmet","county":"Qarku i Gjirokastrës","ISO3166-2-lvl6":"AL-05","state":"Shqipëria Jugore","postcode":"6401","country":"Shqipëria","country_code":"al"},"population":5945,"osm_type":"relation","osm_id":1253931,"type":"administrative","location":[20.3531679,40.2332541],"bbox":[20.3427705,40.2239496,20.3651094,40.2449664]}]}
{"name":"Peshkopi","other_names":{"name:de":"Peshkopia","name:el":"Πεσκόπι","name:it":"Peshkopia","name:mk":"Пешкопеја","name:ml":"പെഷ്കോപ്പി","name:ru":"Пешкопия","name:sr":"Пишкопеја","alt_name":"Peshkopëja","loc_name":"Peshkopëj"},"display_name":"Peshkopi, Bashkia Dibër, Qarku i Dibrës, Shqipëria Veriore, Shqipëria","address":{"town":"Peshkopi","municipality":"Bashkia Dibër","county":"Qarku i Dibrës","ISO3166-2-lvl6":"AL-09","state":"Shqipëria Veriore","country":"Shqipëria","country_code":"al"},"population":13251,"osm_type":"node","osm_id":414638018,"type":"town","location":[20.4287139,41.6848768],"bbox":[20.3887139,41.6448768,20.4687139,41.7248768],"border":{"name":"Peshkopi","other_names":{"name:ru":"Пешкопия","name:sq":"Peshkopi","name:de":"Peshkopia","name:el":"Πεσκόπι","name:it":"Peshkopia","name:mk":"Пешкопеја","name:ml":"പെഷ്കോപ്പി","name:sr":"Пишкопеја","alt_name":"Peshkopëja","loc_name":"Peshkopëj"},"display_name":"Peshkopi, Bashkia Dibër, Qarku i Dibrës, Shqipëria Veriore, 8301, Shqipëria","address":{"town":"Peshkopi","municipality":"Bashkia Dibër","county":"Qarku i Dibrës","ISO3166-2-lvl6":"AL-09","state":"Shqipëria Veriore","postcode":"8301","country":"Shqipëria","country_code":"al"},"population":13251,"osm_type":"relation","osm_id":1249558,"type":"administrative","location":[20.4287139,41.6848768],"bbox":[20.4201987,41.6765824,20.4422323,41.6904764]}}
{"name":"Pogradec","other_names":{"name:el":"Πογραδέτσι","name:mk":"Поградец","name:ru":"Поградец","name:tr":"Pogradaş","int_name":"Pogradec"},"display_name":"Pogradec, Bashkia Pogradec, Qarku i Korçës, Shqipëria Jugore, 7301, Shqipëria","address":{"town":"Pogradec","municipality":"Bashkia Pogradec","county":"Qarku i Korçës","ISO3166-2-lvl6":"AL-06","state":"Shqipëria Jugore","postcode":"7301","country":"Shqipëria","country_code":"al"},"population":30000,"osm_type":"node","osm_id":5313460940,"type":"town","location":[20.6573881,40.8998739],"bbox":[20.6173881,40.8598739,20.6973881,40.9398739],"border":[{"name":"Bashkia Pogradec","other_names":{"name:el":"Δήμος Πόγραδετς","name:mk":"Општина Поградец","name:ru":"Поградец","name:sq":"Bashkia Pogradec","alt_name:mk":"Општина Подградец"},"display_name":"Bashkia Pogradec, Qarku i Korçës, Shqipëria Jugore, Shqipëria","address":{"municipality":"Bashkia Pogradec","county":"Qarku i Korçës","ISO3166-2-lvl6":"AL-06","state":"Shqipëria Jugore","country":"Shqipëria","country_code":"al"},"population":61530,"osm_type":"relation","osm_id":1252573,"type":"administrative","location":[20.52517381868205,40.9388814],"bbox":[20.3895949,40.7855104,20.8520406,41.092033]},{"name":"Pogradec","other_names":{"name:mk":"Поградец","name:ru":"Поградец","name:sq":"Pogradec","alt_name:mk":"Подградец","name:el":"Πογραδέτσι","name:tr":"Pogradaş","int_name":"Pogradec"},"display_name":"Pogradec, Bashkia Pogradec, Qarku i Korçës, Shqipëria Jugore, 7301, Shqipëria","address":{"town":"Pogradec","municipality":"Bashkia Pogradec","county":"Qarku i Korçës","ISO3166-2-lvl6":"AL-06","state":"Shqipëria Jugore","postcode":"7301","country":"Shqipëria","country_code":"al"},"population":20848,"osm_type":"relation","osm_id":1252567,"type":"administrative","location":[20.6573881,40.8998739],"bbox":[20.639284,40.8879137,20.6838001,40.9081247]}]}
{"name":"Poliçan","other_names":{"name:mk":"Поличани","name:ml":"പോളിച്ചാൻ","name:ru":"Поличан"},"display_name":"Poliçan, Bashkia Poliçan, Qarku i Beratit, Shqipëria Jugore, Shqipëria","address":{"town":"Poliçan","municipality":"Bashkia Poliçan","county":"Qarku i Beratit","ISO3166-2-lvl6":"AL-01","state":"Shqipëria Jugore","country":"Shqipëria","country_code":"al"},"population":9417,"osm_type":"node","osm_id":728421560,"type":"town","location":[20.0989769,40.6122122],"bbox":[20.0589769,40.5722122,20.1389769,40.6522122],"border":{"name":"Poliçan","other_names":{"name:ru":"Поличан","name:sq":"Poliçan","name:mk":"Поличани","name:ml":"പോളിച്ചാൻ"},"display_name":"Poliçan, Bashkia Poliçan, Qarku i Beratit, Shqipëria Jugore, 5403, Shqipëria","address":{"town":"Poliçan","municipality":"Bashkia Poliçan","county":"Qarku i Beratit","ISO3166-2-lvl6":"AL-01","state":"Shqipëria Jugore","postcode":"5403","country":"Shqipëria","country_code":"al"},"population":4318,"osm_type":"relation","osm_id":1252297,"type":"administrative","location":[20.0989769,40.6122122],"bbox":[20.0703407,40.5796902,20.1160245,40.6236262]}}
{"name":"Prrenjas","other_names":{"name:mk":"Прењас","name:zh":"普雷尼亚斯","alt_name":"Prrenjas"},"display_name":"Prrenjas, Përrenjas, Bashkia Prrenjas, Qarku i Elbasanit, Shqipëria Qendrore, 3403-3404, Shqipëria","address":{"town":"Prrenjas","municipality":"Bashkia Prrenjas","county":"Qarku i Elbasanit","ISO3166-2-lvl6":"AL-03","state":"Shqipëria Qendrore","postcode":"3403-3404","country":"Shqipëria","country_code":"al"},"population":5367,"osm_type":"node","osm_id":5196186465,"type":"town","location":[20.5485577,41.0712276],"bbox":[20.5085577,41.0312276,20.5885577,41.1112276],"border":{"name":"Përrenjas","other_names":{"name:mk":"Прењас","name:sq":"Përrenjas","name:zh":"普雷尼亚斯","alt_name":"Prrenjas","alt":"Prrenjas"},"display_name":"Përrenjas, Bashkia Prrenjas, Qarku i Elbasanit, Shqipëria Qendrore, 3413, Shqipëria","address":{"town":"Përrenjas","municipality":"Bashkia Prrenjas","county":"Qarku i Elbasanit","ISO3166-2-lvl6":"AL-03","state":"Shqipëria Qendrore","postcode":"3413","country":"Shqipëria","country_code":"al"},"population":5367,"osm_type":"relation","osm_id":1250585,"type":"administrative","location":[20.5485577,41.0712276],"bbox":[20.5020027,41.0303145,20.5655867,41.1123733]}}
{"name":"Pukë","other_names":{"name:mk":"Пука","alt_name":"Puka"},"display_name":"Pukë, Bashkia Pukë, Qarku i Shkodrës, Shqipëria Veriore, 4401, Shqipëria","address":{"town":"Pukë","municipality":"Bashkia Pukë","county":"Qarku i Shkodrës","ISO3166-2-lvl6":"AL-10","state":"Shqipëria Veriore","postcode":"4401","country":"Shqipëria","country_code":"al"},"population":11069,"osm_type":"node","osm_id":728422866,"type":"town","location":[19.9001376,42.0443192],"bbox":[19.8601376,42.0043192,19.9401376,42.0843192],"border":{"name":"Pukë","other_names":{"name:mk":"Пука","name:ru":"Пука","name:sq":"Pukë","alt_name":"Puka"},"display_name":"Pukë, Bashkia Pukë, Qarku i Shkodrës, Shqipëria Veriore, 4401, Shqipëria","address":{"town":"Pukë","municipality":"Bashkia Pukë","county":"Qarku i Shkodrës","ISO3166-2-lvl6":"AL-10","state":"Shqipëria Veriore","postcode":"4401","country":"Shqipëria","country_code":"al"},"population":3607,"osm_type":"relation","osm_id":1248300,"type":"administrative","location":[19.9001376,42.0443192],"bbox":[19.8599174,42.0131735,19.9354858,42.0603084]}}
{"name":"Roskovec","other_names":{"name:hu":"Roskovec","name:mk":"Росковец","name:ml":"റോസ്‌കോവെറ്റ്‌സ്","name:ru":"Росковец","alt_name":"Rroskovec","old_name":"Rroskovec"},"display_name":"Roskovec, Bashkia Roskovec, Qarku i Fierit, Shqipëria Jugore, 9306, Shqipëria","address":{"town":"Roskovec","county":"Qarku i Fierit","ISO3166-2-lvl6":"AL-04","state":"Shqipëria Jugore","postcode":"9306","country":"Shqipëria","country_code":"al"},"population":4975,"osm_type":"node","osm_id":1912969900,"type":"town","location":[19.7034693,40.7381523],"bbox":[19.6634693,40.6981523,19.7434693,40.7781523],"border":[{"name":"Bashkia Roskovec","other_names":{"name:mk":"Општина Росковец","name:sq":"Bashkia Roskovec","name:hu":"Roskovec","name:ml":"റോസ്‌കോവെറ്റ്‌സ്","name:ru":"Росковец","alt_name":"Rroskovec","old_name":"Rroskovec","alt":"Roskovec","alt:mk":"Росковец"},"display_name":"Bashkia Roskovec, Qarku i Fierit, Shqipëria Jugore, Shqipëria","address":{"town":"Bashkia Roskovec","county":"Qarku i Fierit","ISO3166-2-lvl6":"AL-04","state":"Shqipëria Jugore","country":"Shqipëria","country_code":"al"},"population":21742,"osm_type":"relation","osm_id":7698692,"type":"administrative","location":[19.7034693,40.7381523],"bbox":[19.6431877,40.661801,19.8187754,40.8170024]},{"name":"Roskovec","other_names":{"name:mk":"Росковец","name:ru":"Росковец","name:sq":"Roskovec"},"display_name":"Roskovec, Bashkia Roskovec, Qarku i Fierit, Shqipëria Jugore, 9306, Shqipëria","address":{"city_district":"Roskovec","town":"Bashkia Roskovec","county":"Qarku i Fierit","ISO3166-2-lvl6":"AL-04","state":"Shqipëria Jugore","postcode":"9306","country":"Shqipëria","country_code":"al"},"population":4975,"osm_type":"relation","osm_id":1251471,"type":"administrative","location":[19.700413165387666,40.74977955],"bbox":[19.6572741,40.7233329,19.7274346,40.7761138]}]}
{"name":"Rrëshen","other_names":{"name:mk":"Решен","name:ru":"Решени"},"display_name":"Rrëshen, Bashkia Mirditë, Qarku i Lezhës, Shqipëria Veriore, Shqipëria","address":{"town":"Rrëshen","municipality":"Bashkia Mirditë","county":"Qarku i Lezhës","ISO3166-2-lvl6":"AL-08","state":"Shqipëria Veriore","country":"Shqipëria","country_code":"al"},"population":14262,"osm_type":"node","osm_id":728419534,"type":"town","location":[19.8769608,41.768084],"bbox":[19.8369608,41.728084,19.9169608,41.808084],"border":{"name":"Rrëshen","other_names":{"name:mk":"Решен","name:ru":"Решени","name:sq":"Rrëshen"},"display_name":"Rrëshen, Bashkia Mirditë, Qarku i Lezhës, Shqipëria Veriore, 4601, Shqipëria","address":{"town":"Rrëshen","municipality":"Bashkia Mirditë","county":"Qarku i Lezhës","ISO3166-2-lvl6":"AL-08","state":"Shqipëria Veriore","postcode":"4601","country":"Shqipëria","country_code":"al"},"population":8803,"osm_type":"relation","osm_id":1248930,"type":"administrative","location":[19.8769608,41.768084],"bbox":[19.8184144,41.694628,20.0410667,41.8565772]}}
{"name":"Rrogozhinë","other_names":{"name:mk":"Рогожина","name:ru":"Рогожина","name:zh":"罗戈日内"},"display_name":"Rrogozhinë, Bashkia Rrogozhinë, Qarku i Tiranës, Shqipëria Qendrore, Shqipëria","address":{"town":"Rrogozhinë","municipality":"Bashkia Rrogozhinë","county":"Qarku i Tiranës","ISO3166-2-lvl6":"AL-11","state":"Shqipëria Qendrore","country":"Shqipëria","country_code":"al"},"population":7049,"osm_type":"node","osm_id":33150886,"type":"town","location":[19.6649775,41.0758988],"bbox":[19.6249775,41.0358988,19.7049775,41.1158988],"border":{"name":"Rrogozhinë","other_names":{"name:mk":"Општина Рогожина","name:ru":"Рогожина","name:sq":"Rrogozhinë","name:zh":"罗戈日内","alt:mk":"Рогожина"},"display_name":"Rrogozhinë, Bashkia Rrogozhinë, Qarku i Tiranës, Shqipëria Qendrore, 2503, Shqipëria","address":{"town":"Rrogozhinë","municipality":"Bashkia Rrogozhinë","county":"Qarku i Tiranës","ISO3166-2-lvl6":"AL-11","state":"Shqipëria Qendrore","postcode":"2503","country":"Shqipëria","country_code":"al"},"population":7049,"osm_type":"relation","osm_id":1250110,"type":"administrative","location":[19.6649775,41.0758988],"bbox":[19.638621,41.0629593,19.6836287,41.096264]}}
{"name":"Sarandë","other_names":{"name:bg":"Саранда","name:el":"Άγιοι Σαράντα","name:en":"Saranda","name:eo":"Sarando","name:hu":"Saranda","name:it":"Santi Quaranta","name:ja":"サランダ","name:la":"Onchesmus","name:mk":"Саранда","name:ml":"സറാൻഡ","name:pl":"Saranda","name:ro":"Saranda","name:ru":"Саранда","name:sq":"Sarandë","name:sr":"Саранда","name:uk":"Саранда","old_name:it":"Porto Edda"},"display_name":"Sarandë, Bashkia Sarandë, Qarku i Vlorës, Shqipëria Jugore, Shqipëria","address":{"town":"Sarandë","municipality":"Bashkia Sarandë","county":"Qarku i Vlorës","ISO3166-2-lvl6":"AL-12","state":"Shqipëria Jugore","country":"Shqipëria","country_code":"al"},"population":17233,"osm_type":"node","osm_id":248816615,"type":"town","location":[20.0065258,39.8752198],"bbox":[19.9665258,39.8352198,20.0465258,39.9152198],"border":[{"name":"Bashkia Sarandë","other_names":{"name:el":"Δήμος Σαράντα","name:mk":"Општина Саранда","name:ru":"Саранда","name:sq":"Bashkia Sarandë","alt_name:el":"Δήμος Αγίων Σαράντα"},"display_name":"Bashkia Sarandë, Qarku i Vlorës, Shqipëria Jugore, Shqipëria","address":{"municipality":"Bashkia Sarandë","county":"Qarku i Vlorës","ISO3166-2-lvl6":"AL-12","state":"Shqipëria Jugore","country":"Shqipëria","country_code":"al"},"population":20227,"osm_type":"relation","osm_id":1255520,"type":"administrative","location":[20.015393201610664,39.81959885],"bbox":[19.9730063,39.7422589,20.0623134,39.8968148]},{"name":"Sarandë","other_names":{"name:mk":"Саранда","name:sq":"Sarandë","alt_name":"Saranda","old_name:it":"Santi Quaranta","name:bg":"Саранда","name:el":"Άγιοι Σαράντα","name:en":"Saranda","name:eo":"Sarando","name:hu":"Saranda","name:it":"Santi Quaranta","name:ja":"サランダ","name:la":"Onchesmus","name:ml":"സറാൻഡ","name:pl":"Saranda","name:ro":"Saranda","name:ru":"Саранда","name:sr":"Саранда","name:uk":"Саранда","_place_old_name:it":"Porto Edda","old_name:it:1940-1944":"Porto Edda"},"display_name":"Sarandë, Bashkia Sarandë, Qarku i Vlorës, Shqipëria Jugore, 9701, Shqipëria","address":{"town":"Sarandë","municipality":"Bashkia Sarandë","county":"Qarku i Vlorës","ISO3166-2-lvl6":"AL-12","state":"Shqipëria Jugore","postcode":"9701","country":"Shqipëria","country_code":"al"},"population":17233,"osm_type":"relation","osm_id":1255541,"type":"administrative","location":[20.0065258,39.8752198],"bbox":[19.9737175,39.7915964,20.0623134,39.8968148]}]}
{"name":"Selenicë","other_names":{"name:mk":"Селеница","name:ml":"സെലെനിറ്റ്സ","name:ru":"Селеница"},"display_name":"Selenicë, Bashkia Selenicë, Qarku i Vlorës, Shqipëria Jugore, Shqipëria","address":{"town":"Selenicë","municipality":"Bashkia Selenicë","county":"Qarku i Vlorës","ISO3166-2-lvl6":"AL-12","state":"Shqipëria Jugore","country":"Shqipëria","country_code":"al"},"population":2235,"osm_type":"node","osm_id":728424474,"type":"town","location":[19.6377731,40.5311425],"bbox":[19.5977731,40.4911425,19.6777731,40.5711425],"border":[{"name":"Selenicë","other_names":{"name:de":"Selenica","name:it":"Selenizza","name:mk":"Селеница","name:ru":"Селеница","name:sq":"Selenicë","alt_name":"Selenica"},"display_name":"Selenicë, Bashkia Selenicë, Qarku i Vlorës, Shqipëria Jugore, 9427, Shqipëria","address":{"town":"Selenicë","municipality":"Bashkia Selenicë","county":"Qarku i Vlorës","ISO3166-2-lvl6":"AL-12","state":"Shqipëria Jugore","postcode":"9427","country":"Shqipëria","country_code":"al"},"population":7000,"osm_type":"way","osm_id":249599129,"type":"town","location":[19.634945817727722,40.5335283],"bbox":[19.6321141,40.5257702,19.6445948,40.541191]},{"name":"Selenicë","other_names":{"name:mk":"Селеница","name:ru":"Селеница","name:sq":"Selenicë","name:ml":"സെലെനിറ്റ്സ"},"display_name":"Selenicë, Bashkia Selenicë, Qarku i Vlorës, Shqipëria Jugore, 9427, Shqipëria","address":{"town":"Selenicë","municipality":"Bashkia Selenicë","county":"Qarku i Vlorës","ISO3166-2-lvl6":"AL-12","state":"Shqipëria Jugore","postcode":"9427","country":"Shqipëria","country_code":"al"},"population":2235,"osm_type":"relation","osm_id":1255546,"type":"administrative","location":[19.6377731,40.5311425],"bbox":[19.626826,40.5263023,19.6497671,40.5390379]}]}
{"name":"Shëngjin","other_names":{"name:mk":"Свети Јован","name:ml":"ഷൻജിൻ","name:ru":"Шенгини","name:sr":"Свети Јован","alt_name:ru":"Шенжин;Шенгин"},"display_name":"Shëngjin, Bashkia Lezhë, Qarku i Lezhës, Shqipëria Veriore, Shqipëria","address":{"town":"Shëngjin","county":"Qarku i Lezhës","ISO3166-2-lvl6":"AL-08","state":"Shqipëria Veriore","country":"Shqipëria","country_code":"al"},"osm_type":"node","osm_id":441527308,"type":"town","location":[19.5989755,41.8097827],"bbox":[19.5589755,41.7697827,19.6389755,41.8497827],"border":{"name":"Shëngjin","other_names":{"name:el":"Σένγκτζιν","name:sq":"Shëngjin","name:mk":"Свети Јован","name:ml":"ഷൻജിൻ","name:ru":"Шенгини","name:sr":"Свети Јован","alt_name:ru":"Шенжин;Шенгин"},"display_name":"Shëngjin, Bashkia Lezhë, Qarku i Lezhës, Shqipëria Veriore, 4503, Shqipëria","address":{"town":"Shëngjin","county":"Qarku i Lezhës","ISO3166-2-lvl6":"AL-08","state":"Shqipëria Veriore","postcode":"4503","country":"Shqipëria","country_code":"al"},"population":8091,"osm_type":"relation","osm_id":1248917,"type":"administrative","location":[19.5989755,41.8097827],"bbox":[19.5199646,41.7054683,19.6524877,41.864783]}}
{"name":"Shijak","other_names":{"name:mk":"Шијак","name:ml":"ഷിയാക്ക്","name:ru":"Шийяк","name:sr":"Шијак"},"display_name":"Shijak, Bashkia Shijak, Qarku i Durrësit, Shqipëria Veriore, Shqipëria","address":{"town":"Shijak","municipality":"Bashkia Shijak","county":"Qarku i Durrësit","ISO3166-2-lvl6":"AL-02","state":"Shqipëria Veriore","country":"Shqipëria","country_code":"al"},"population":12893,"osm_type":"node","osm_id":728426328,"type":"town","location":[19.5677358,41.3434537],"bbox":[19.5277358,41.3034537,19.6077358,41.3834537],"border":{"name":"Shijak","other_names":{"name:de":"Shijak","name:en":"Shijak","name:fr":"Shijak","name:mk":"Шијак","name:ru":"Шийяк","name:sq":"Shijak","name:ml":"ഷിയാക്ക്","name:sr":"Шијак"},"display_name":"Shijak, Bashkia Shijak, Qarku i Durrësit, Shqipëria Veriore, 2013, Shqipëria","address":{"town":"Shijak","municipality":"Bashkia Shijak","county":"Qarku i Durrësit","ISO3166-2-lvl6":"AL-02","state":"Shqipëria Veriore","postcode":"2013","country":"Shqipëria","country_code":"al"},"population":7568,"osm_type":"relation","osm_id":1249881,"type":"administrative","location":[19.5677358,41.3434537],"bbox":[19.5479204,41.3364932,19.5806442,41.3524643]}}
{"name":"Tepelenë","other_names":{"name:de":"Tepelena","name:el":"Τεπελένι","name:en":"Tepelena","name:eo":"Tepeleno","name:fr":"Tepelena","name:ko":"테펠레너","name:mk":"Тепелена","name:ml":"ടെപ്പെലെന","name:pl":"Tepelena","name:ru":"Тепелена","name:zh":"台佩莱纳","old_name":"Tepelenë"},"display_name":"Tepelenë, Bashkia Tepelenë, Qarku i Gjirokastrës, Shqipëria Jugore, 6301, Shqipëria","address":{"town":"Tepelenë","municipality":"Bashkia Tepelenë","county":"Qarku i Gjirokastrës","ISO3166-2-lvl6":"AL-05","state":"Shqipëria Jugore","postcode":"6301","country":"Shqipëria","country_code":"al"},"population":4342,"osm_type":"node","osm_id":728423669,"type":"town","location":[20.0208733,40.2982258],"bbox":[19.9808733,40.2582258,20.0608733,40.3382258],"border":[{"name":"Bashkia Tepelenë","other_names":{"name:el":"Δήμος Τεπελενίου","name:ru":"Тепелена","name:sq":"Bashkia Tepelenë"},"display_name":"Bashkia Tepelenë, Qarku i Gjirokastrës, Shqipëria Jugore, 6301, Shqipëria","address":{"municipality":"Bashkia Tepelenë","county":"Qarku i Gjirokastrës","ISO3166-2-lvl6":"AL-05","state":"Shqipëria Jugore","postcode":"6301","country":"Shqipëria","country_code":"al"},"population":8949,"osm_type":"relation","osm_id":1253914,"type":"administrative","location":[19.98388482436585,40.287388],"bbox":[19.7944124,40.183574,20.1587203,40.3928102]},{"name":"Tepelenë","other_names":{"name:sq":"Tepelenë","name:de":"Tepelena","name:el":"Τεπελένι","name:en":"Tepelena","name:eo":"Tepeleno","name:fr":"Tepelena","name:ko":"테펠레너","name:mk":"Тепелена","name:ml":"ടെപ്പെലെന","name:pl":"Tepelena","name:ru":"Тепелена","name:zh":"台佩莱纳","old_name":"Tepelenë"},"display_name":"Tepelenë, Bashkia Tepelenë, Qarku i Gjirokastrës, Shqipëria Jugore, 6301, Shqipëria","address":{"town":"Tepelenë","municipality":"Bashkia Tepelenë","county":"Qarku i Gjirokastrës","ISO3166-2-lvl6":"AL-05","state":"Shqipëria Jugore","postcode":"6301","country":"Shqipëria","country_code":"al"},"population":4342,"osm_type":"relation","osm_id":1253887,"type":"administrative","location":[20.0208733,40.2982258],"bbox":[20.0090465,40.2905092,20.0269118,40.3062784]}]}
