{"name":"Ana e Malit","display_name":"Ana e Malit, Bashkia Shkodër, Qarku i Shkodrës, Shqipëria Veriore, 4017, Shqipëria","address":{"city":"Ana e Malit","municipality":"Bashkia Shkodër","county":"Qarku i Shkodrës","ISO3166-2-lvl6":"AL-10","state":"Shqipëria Veriore","postcode":"4017","country":"Shqipëria","country_code":"al"},"population":3858,"osm_type":"relation","osm_id":1248276,"type":"administrative","location":[19.41946461395899,42.02265175],"bbox":[19.3691665,41.9822266,19.4674111,42.0630275],"inferred_type":"city"}
{"name":"Antigonë","display_name":"Antigonë, Bashkia Gjirokastër, Qarku i Gjirokastrës, Shqipëria Jugore, 6017, Shqipëria","address":{"city":"Antigonë","municipality":"Bashkia Gjirokastër","county":"Qarku i Gjirokastrës","ISO3166-2-lvl6":"AL-05","state":"Shqipëria Jugore","postcode":"6017","country":"Shqipëria","country_code":"al"},"population":998,"osm_type":"relation","osm_id":1253909,"type":"administrative","location":[20.218758937786433,40.100621149999995],"bbox":[20.1391505,40.0587283,20.2635184,40.1425911],"inferred_type":"city"}
{"name":"Berat","other_names":{"name:al":"Berat","name:be":"Берат","name:bg":"Берат","name:de":"Berat","name:el":"Βεράτι","name:en":"Berat","name:fr":"Berat","name:ja":"ベラト","name:lt":"Beratis","name:mk":"Белград","name:ml":"ബെറാത്ത്","name:ru":"Берат","name:sr":"Берат","name:tr":"Berat","name:uk":"Берат","name:zh":"培拉特","old_name":"Berati","name:sr-Latn":"Berat","name:be-tarask":"Бэрат"},"display_name":"Berat, Bashkia Berat, Qarku i Beratit, Shqipëria Jugore, 5001, Shqipëria","address":{"city":"Berat","municipality":"Bashkia Berat","county":"Qarku i Beratit","ISO3166-2-lvl6":"AL-01","state":"Shqipëria Jugore","postcode":"5001","country":"Shqipëria","country_code":"al"},"population":65000,"osm_type":"node","osm_id":5197045817,"type":"city","location":[19.9580758,40.7018636],"bbox":[19.7980758,40.5418636,20.1180758,40.8618636],"border":[{"name":"Qarku i Beratit","other_names":{"ref":"AL031","name:an":"Prefectura de Berat","name:ar":"مقاطعة بيرات","name:be":"Вобласць Берат","name:bg":"Берат (област)","name:br":"Berat (rannvro)","name:bs":"Okrug Berat","name:ca":"Comtat de Berat","name:cs":"Berat (kraj)","name:de":"Qark Berat","name:el":"Νομός Μπεράτ","name:en":"Berat County","name:eo":"Provinco Berat","name:es":"Condado de Berat","name:et":"Berati maakond","name:eu":"Berat konderria","name:fa":"شهرستان برات","name:fi":"Beratin maakunta","name:fr":"Préfecture de Berat","name:ga":"Contae Berat","name:gl":"Condado de Berat","name:hi":"बेरत प्रांत","name:hr":"Beratski okrug","name:hu":"Berat megye","name:hy":"Բերատի գավառ","name:it":"Prefettura di Berat","name:ja":"ベラト州","name:ka":"ბერატის ოლქი","name:kg":"Berat (kizunga)","name:ko":"베라트 주","name:lt":"Beračio apskritis","name:lv":"Berati apgabals","name:mk":"Белград (област)","name:mn":"Берат хошуу","name:no":"Berat (region)","name:pa":"ਬੇਰਾਤ ਕਾਊਂਟੀ","name:pl":"Obwód Berat","name:pt":"Berati (prefeitura)","name:ro":"Regiunea Berat","name:ru":"Берат (область)","name:sk":"Berat (kraj)","name:sq":"Qarku i Beratit","name:sv":"Beratprefekturen","name:tl":"Kondado ng Berat","name:tr":"Berat ili","name:uk":"Берат (область)","name:ur":"صوبہ بیرات","name:vi":"Berat (hạt)","name:zh":"培拉特州","name:ceb":"Qarku i Beratit","name:lmo":"Prefettura de Berat","name:pnb":"صوبہ بیرات","name:sco":"Berat Coonty","name:war":"Berat (condado)","ISO3166-2":"AL-01","name:simple":"Berat County","name:be-tarask":"Бэрат"},"display_name":"Qarku i Beratit, Shqipëria Jugore, Shqipëria","address":{"county":"Qarku i Beratit","ISO3166-2-lvl6":"AL-01","state":"Shqipëria Jugore","country":"Shqipëria","country_code":"al"},"population":141944,"osm_type":"relation","osm_id":1252289,"type":"administrative","location":[20.104691454039344,40.6172775],"bbox":[19.7311591,40.3407429,20.4488433,40.8936523]},{"name":"Berat","other_names":{"name:el":"Βεράτι","name:fr":"Berat","name:ku":"Bêrat","name:lt":"Beratis","name:ru":"Берат","name:sq":"Berat","name:ckb":"بێرات","name:al":"Berat","name:be":"Берат","name:bg":"Берат","name:de":"Berat","name:en":"Berat","name:ja":"ベラト","name:mk":"Белград","name:ml":"ബെറാത്ത്","name:sr":"Берат","name:tr":"Berat","name:uk":"Берат","name:zh":"培拉特","old_name":"Berati","name:sr-Latn":"Berat","name:be-tarask":"Бэрат"},"display_name":"Berat, Bashkia Berat, Qarku i Beratit, Shqipëria Jugore, 5001, Shqipëria","address":{"city":"Berat","municipality":"Bashkia Berat","county":"Qarku i Beratit","ISO3166-2-lvl6":"AL-01","state":"Shqipëria Jugore","postcode":"5001","country":"Shqipëria","country_code":"al"},"population":32606,"osm_type":"relation","osm_id":1252299,"type":"administrative","location":[19.9580758,40.7018636],"bbox":[19.9335263,40.6810176,20.0183877,40.7288895]}]}
{"name":"Bërdicë","other_names":{"name:sq":"Bërdicë","alt_name":"Njësia Administrative Bërdicë"},"display_name":"Bërdicë, Bashkia Shkodër, Qarku i Shkodrës, Shqipëria Veriore, 4018, Shqipëria","address":{"city":"Bërdicë","municipality":"Bashkia Shkodër","county":"Qarku i Shkodrës","ISO3166-2-lvl6":"AL-10","state":"Shqipëria Veriore","postcode":"4018","country":"Shqipëria","country_code":"al"},"population":5773,"osm_type":"relation","osm_id":1248275,"type":"administrative","location":[19.488470675839963,41.995718249999996],"bbox":[19.4434759,41.948283,19.5282149,42.0403224],"inferred_type":"city"}
{"name":"Cepo","display_name":"Cepo, Bashkia Gjirokastër, Qarku i Gjirokastrës, Shqipëria Jugore, Shqipëria","address":{"city":"Cepo","municipality":"Bashkia Gjirokastër","county":"Qarku i Gjirokastrës","ISO3166-2-lvl6":"AL-05","state":"Shqipëria Jugore","country":"Shqipëria","country_code":"al"},"population":1727,"osm_type":"relation","osm_id":1253903,"type":"administrative","location":[20.026645697709856,40.11448825],"bbox":[19.9254976,40.0533315,20.1243273,40.1760714],"inferred_type":"city"}
{"name":"Çërravë","display_name":"Çërravë, Bashkia Pogradec, Qarku i Korçës, Shqipëria Jugore, 7306, Shqipëria","address":{"city":"Çërravë","municipality":"Bashkia Pogradec","county":"Qarku i Korçës","ISO3166-2-lvl6":"AL-06","state":"Shqipëria Jugore","postcode":"7306","country":"Shqipëria","country_code":"al"},"population":7009,"osm_type":"relation","osm_id":1252579,"type":"administrative","location":[20.776580025434328,40.860111950000004],"bbox":[20.6813602,40.8040145,20.8520406,40.9162435],"inferred_type":"city"}
{"name":"Dishnicë","display_name":"Dishnicë, Bashkia Këlcyrë, Qarku i Gjirokastrës, Shqipëria Jugore, Shqipëria","address":{"city":"Dishnicë","municipality":"Bashkia Këlcyrë","county":"Qarku i Gjirokastrës","ISO3166-2-lvl6":"AL-05","state":"Shqipëria Jugore","country":"Shqipëria","country_code":"al"},"population":1159,"osm_type":"relation","osm_id":1253921,"type":"administrative","location":[20.208444933992254,40.335347850000005],"bbox":[20.1144151,40.2952448,20.3017385,40.3781985],"inferred_type":"city"}
{"name":"Dropull i Poshtëm","display_name":"Dropull i Poshtëm, Bashkia Dropull, Qarku i Gjirokastrës, Shqipëria Jugore, Shqipëria","address":{"city":"Dropull i Poshtëm","municipality":"Bashkia Dropull","county":"Qarku i Gjirokastrës","ISO3166-2-lvl6":"AL-05","state":"Shqipëria Jugore","country":"Shqipëria","country_code":"al"},"population":2100,"osm_type":"relation","osm_id":1253924,"type":"administrative","location":[20.188724284457237,39.9849202],"bbox":[20.114571,39.9290442,20.3450642,40.0405266],"inferred_type":"city"}
{"name":"Dropull i Sipërm","display_name":"Dropull i Sipërm, Bashkia Dropull, Qarku i Gjirokastrës, Shqipëria Jugore, Shqipëria","address":{"city":"Dropull i Sipërm","municipality":"Bashkia Dropull","county":"Qarku i Gjirokastrës","ISO3166-2-lvl6":"AL-05","state":"Shqipëria Jugore","country":"Shqipëria","country_code":"al"},"population":971,"osm_type":"relation","osm_id":1253913,"type":"administrative","location":[20.326273974753207,39.86943025],"bbox":[20.2226403,39.7845256,20.4171553,39.9541221],"inferred_type":"city"}
{"name":"Durrës","other_names":{"name:be":"Дурэс","name:bg":"Дуръс","name:bs":"Drač","name:cs":"Drač","name:el":"Δυρράχιο","name:eo":"Duraso","name:fa":"دراج","name:he":"דורס","name:hr":"Drač","name:hu":"Durrës","name:it":"Durazzo","name:ja":"ドゥラス","name:ka":"დურესი","name:la":"Dyrrhachium","name:lt":"Duresis","name:lv":"Durresa","name:mk":"Драч","name:ml":"ഡുറസ്","name:no":"Durras","name:ru":"Дуррес","name:sh":"Drač","name:sk":"Drač","name:sl":"Drač","name:sq":"Durrësi","name:sr":"Драч","name:tr":"Dıraç","name:tt":"Дырач","name:uk":"Дуррес","name:ur":"دراج","name:zh":"都拉斯","name:vec":"Durazo"},"display_name":"Durrës, Bashkia Durrës, Qarku i Durrësit, Shqipëria Veriore, Shqipëria","address":{"city":"Durrës","county":"Qarku i Durrësit","ISO3166-2-lvl6":"AL-02","state":"Shqipëria Veriore","country":"Shqipëria","country_code":"al"},"population":130566,"osm_type":"node","osm_id":1832288053,"type":"city","location":[19.4462348,41.313255],"bbox":[19.2862348,41.153255,19.6062348,41.473255],"border":[{"name":"Qarku i Durrësit","other_names":{"ref":"AL012","name:an":"Prefectura de Durrazo","name:ar":"مقاطعة دوريس","name:be":"Дурэс","name:bg":"Драч (област)","name:br":"Durrës (rannvro)","name:ca":"Comtat de Durrës","name:cs":"Durrës (kraj)","name:de":"Qark Durrës","name:el":"Νομός Δυρραχίου","name:en":"Durrës County","name:eo":"Provinco Durrës","name:es":"Condado de Durrës","name:et":"Durrësi maakond","name:eu":"Durrës konderria","name:fa":"شهرستان دورس","name:fi":"Durrësin maakunta","name:fr":"Préfecture de Durrës","name:ga":"Contae Durrës","name:gl":"Condado de Durrës","name:hi":"डुर्रेस प्रांत","name:hr":"Drački okrug","name:hy":"Դուրրասի գավառ","name:it":"Prefettura di Durazzo","name:ja":"ドゥラス州","name:kg":"Durrës (kizunga)","name:ko":"두러스 주","name:lt":"Duresio apskritis","name:lv":"Duresi apgabals","name:mk":"Драч (област)","name:nl":"Durrës (prefectuur)","name:no":"Durrës (region)","name:pa":"ਡੂਰੇਸ ਕਾਉਂਟੀ","name:pl":"Obwód Durrës","name:pt":"Durrës (prefeitura)","name:ro":"Regiunea Durrës","name:ru":"Дуррес (область)","name:sk":"Drač (kraj)","name:sq":"Qarku i Durrësit","name:sv":"Durrës prefektur","name:tl":"Kondado ng Durrës","name:tr":"Dıraç ili","name:uk":"Дуррес (область)","name:ur":"صوبہ دراج","name:vi":"Durrës (hạt)","name:zh":"杜勒斯州","name:ceb":"Qarku i Durrësit","name:lmo":"Prefettura de Durazz","name:pnb":"صوبہ دراج","name:sco":"Durrës Coonty","name:war":"Durrës (condado)","ISO3166-2":"AL-02","name:simple":"Durrës County","name:be-tarask":"Дурэс"},"display_name":"Qarku i Durrësit, Shqipëria Veriore, Shqipëria","address":{"county":"Qarku i Durrësit","ISO3166-2-lvl6":"AL-02","state":"Shqipëria Veriore","country":"Shqipëria","country_code":"al"},"population":262785,"osm_type":"relation","osm_id":1249872,"type":"administrative","location":[19.5373372111005,41.4279863],"bbox":[19.3913858,41.2498309,19.9083569,41.6062934]},{"name":"Bashkia Durrës","other_names":{"name:de":"Durrës","name:el":"Δυρράχιον","name:it":"Durazzo","name:mk":"Општина Драч","name:ru":"Дуррес","name:sk":"Drač","name:sq":"Bashkia Durrës","name:be":"Дурэс","name:bg":"Дуръс","name:bs":"Drač","name:cs":"Drač","name:eo":"Duraso","name:fa":"دراج","name:he":"דורס","name:hr":"Drač","name:hu":"Durrës","name:ja":"ドゥラス","name:ka":"დურესი","name:la":"Dyrrhachium","name:lt":"Duresis","name:lv":"Durresa","name:ml":"ഡുറസ്","name:no":"Durras","name:sh":"Drač","name:sl":"Drač","name:sr":"Драч","name:tr":"Dıraç","name:tt":"Дырач","name:uk":"Дуррес","name:ur":"دراج","name:zh":"都拉斯","name:vec":"Durazo","alt":"Durrës","alt:el":"Δυρράχιο","alt:mk":"Драч","alt:sq":"Durrësi"},"display_name":"Bashkia Durrës, Qarku i Durrësit, Shqipëria Veriore, Shqipëria","address":{"city":"Bashkia Durrës","county":"Qarku i Durrësit","ISO3166-2-lvl6":"AL-02","state":"Shqipëria Veriore","country":"Shqipëria","country_code":"al"},"population":175110,"osm_type":"relation","osm_id":1249871,"type":"administrative","location":[19.4462348,41.313255],"bbox":[19.3913858,41.2498309,19.6249411,41.5878946]},{"name":"Durrës","other_names":{"name:de":"Durrës","name:el":"Δυρράχιον","name:it":"Durazzo","name:ku":"Durês","name:nl":"Durrës","name:ru":"Дуррес","name:sk":"Drač","name:sq":"Durrës","name:ckb":"دورێس"},"display_name":"Durrës, Bashkia Durrës, Qarku i Durrësit, Shqipëria Veriore, 2001, Shqipëria","address":{"city_district":"Durrës","city":"Bashkia Durrës","county":"Qarku i Durrësit","ISO3166-2-lvl6":"AL-02","state":"Shqipëria Veriore","postcode":"2001","country":"Shqipëria","country_code":"al"},"population":113249,"osm_type":"relation","osm_id":1249888,"type":"administrative","location":[19.456571857725606,41.3313823],"bbox":[19.409289,41.2853789,19.5137048,41.3774233]}]}
{"name":"Dushk","display_name":"Dushk, Bashkia Lushnjë, Qarku i Fierit, Shqipëria Jugore, 9010, Shqipëria","address":{"city":"Dushk","municipality":"Bashkia Lushnjë","county":"Qarku i Fierit","ISO3166-2-lvl6":"AL-04","state":"Shqipëria Jugore","postcode":"9010","country":"Shqipëria","country_code":"al"},"population":7872,"osm_type":"relation","osm_id":1251499,"type":"administrative","location":[19.6713660167293,41.021678550000004],"bbox":[19.6434111,40.9761262,19.7067484,41.0672334],"inferred_type":"city"}
{"name":"Elbasan","other_names":{"name:be":"Эльбасан","name:el":"Ελμπασάν","name:en":"Elbasan","name:eo":"Elbasano","name:hu":"Elbasan","name:ku":"Êlbasan","name:la":"Masio Scampa","name:mk":"Елбасан","name:ml":"എൽബസാൻ","name:ru":"Эльбасан","name:sr":"Елбасан","name:tr":"İlbasan","name:uk":"Ельбасан","alt_name":"Skampa","int_name":"Elbasan","name:ckb":"ئێلباسان","old_name":"Scampa","alt_name:mk":"Коњух","name:be-tarask":"Эльбасан"},"display_name":"Elbasan, Bashkia Elbasan, Qarku i Elbasanit, Shqipëria Qendrore, 3001 - 3006, Shqipëria","address":{"city":"Elbasan","municipality":"Bashkia Elbasan","county":"Qarku i Elbasanit","ISO3166-2-lvl6":"AL-03","state":"Shqipëria Qendrore","postcode":"3001 - 3006","country":"Shqipëria","country_code":"al"},"population":78703,"osm_type":"node","osm_id":2142698589,"type":"city","location":[20.0820858,41.1126792],"bbox":[19.9220858,40.9526792,20.2420858,41.2726792],"border":[{"name":"Qarku i Elbasanit","other_names":{"ref":"AL021","name:an":"Prefectura d'Elbasan","name:ar":"مقاطعة إلباسان","name:be":"Эльбасан","name:bg":"Елбасан (област)","name:br":"Elbasan (rannvro)","name:cs":"Elbasan (kraj)","name:el":"Νομός Ελβασάν","name:en":"Elbasan County","name:eo":"Provinco Elbasan","name:es":"Condado de Elbasan","name:et":"Elbasani maakond","name:eu":"Elbasan konderria","name:fi":"Elbasanin maakunta","name:fr":"Préfecture d'Elbasan","name:ga":"Contae Elbasan","name:gl":"Condado de Elbasan","name:hi":"एलबसन प्रांत","name:hr":"Elbasanski okrug","name:hy":"Էլբասանի գավառ","name:it":"Prefettura di Elbasan","name:ja":"エルバサン州","name:kg":"Elbasan (kizunga)","name:ko":"엘바산 주","name:lt":"Elbasanio apskritis","name:mk":"Елбасан (област)","name:nl":"Elbasan (prefectuur)","name:no":"Elbasan (region)","name:pl":"Obwód Elbasan","name:pt":"Elbasani (prefeitura)","name:ro":"Regiunea Elbasan","name:ru":"Эльбасан (область)","name:sk":"Elbasan (kraj)","name:sq":"Qarku i Elbasanit","name:sv":"Elbasan prefektur","name:tl":"Kondado ng Elbasan","name:tr":"Elbasan ili","name:uk":"Ельбасан (область)","name:ur":"صوبہ الباسان","name:vi":"Elbasan (hạt)","name:zh":"艾巴申州","name:ceb":"Qarku i Elbasanit","name:lad":"Prefektura de Elbasan","name:lmo":"Prefettura de Elbasan","name:pnb":"صوبہ الباسان","name:war":"Elbasan (condado)","ISO3166-2":"AL-03","name:be-tarask":"Эльбасан"},"display_name":"Qarku i Elbasanit, Shqipëria Qendrore, Shqipëria","address":{"county":"Qarku i Elbasanit","ISO3166-2-lvl6":"AL-03","state":"Shqipëria Qendrore","country":"Shqipëria","country_code":"al"},"population":295827,"osm_type":"relation","osm_id":1250609,"type":"administrative","location":[20.139852563354005,41.05108285],"bbox":[19.6734341,40.7068507,20.6063875,41.3958599]},{"name":"Elbasan","other_names":{"name:eo":"Elbasano","name:ku":"Êlbasan","name:mk":"Елбасан","name:ru":"Эльбасан","name:sq":"Elbasan","name:ckb":"ئێلباسان","alt_name:mk":"Коњух","name:be":"Эльбасан","name:el":"Ελμπασάν","name:en":"Elbasan","name:hu":"Elbasan","name:la":"Masio Scampa","name:ml":"എൽബസാൻ","name:sr":"Елбасан","name:tr":"İlbasan","name:uk":"Ельбасан","alt_name":"Skampa","int_name":"Elbasan","old_name":"Scampa","name:be-tarask":"Эльбасан"},"display_name":"Elbasan, Bashkia Elbasan, Qarku i Elbasanit, Shqipëria Qendrore, Shqipëria","address":{"city":"Elbasan","municipality":"Bashkia Elbasan","county":"Qarku i Elbasanit","ISO3166-2-lvl6":"AL-03","state":"Shqipëria Qendrore","country":"Shqipëria","country_code":"al"},"population":78703,"osm_type":"relation","osm_id":1250602,"type":"administrative","location":[20.0820858,41.1126792],"bbox":[20.0438119,41.0868751,20.120065,41.1345736]}]}
{"name":"Farkë","display_name":"Farkë, Bashkia Tiranë, Qarku i Tiranës, Shqipëria Qendrore, 1045, Shqipëria","address":{"city":"Farkë","municipality":"Bashkia Tiranë","county":"Qarku i Tiranës","ISO3166-2-lvl6":"AL-11","state":"Shqipëria Qendrore","postcode":"1045","country":"Shqipëria","country_code":"al"},"population":22633,"osm_type":"relation","osm_id":1250112,"type":"administrative","location":[19.874821945553673,41.30243955],"bbox":[19.7796647,41.2738273,19.9009287,41.3310485],"inferred_type":"city"}
{"name":"Fier","other_names":{"name:al":"Fier","name:be":"Фіер","name:bg":"Фиер","name:de":"Fier","name:el":"Φίερι","name:en":"Fier","name:fr":"Fier","name:it":"Fier","name:mk":"Фиер","name:ml":"ഫിയർ","name:ru":"Фиери","name:sr":"Фјер","name:tr":"Ferecik","name:uk":"Фієрі","old_name":"Fieri","alt_name:tr":"Fir","name:be-tarask":"Фіер"},"display_name":"Fier, Bashkia Fier, Qarku i Fierit, Shqipëria Jugore, 9301 – 9305, Shqipëria","address":{"city":"Fier","municipality":"Bashkia Fier","county":"Qarku i Fierit","ISO3166-2-lvl6":"AL-04","state":"Shqipëria Jugore","postcode":"9301 – 9305","country":"Shqipëria","country_code":"al"},"population":55845,"osm_type":"node","osm_id":33208686,"type":"city","location":[19.5582079,40.7251118],"bbox":[19.3982079,40.5651118,19.7182079,40.8851118],"border":{"name":"Fier","other_names":{"name:bg":"Фиер","name:de":"Fier","name:el":"Φίερι","name:en":"Fier","name:fr":"Fier","name:it":"Fier","name:mk":"Фиер","name:ru":"Фиери","name:sq":"Fier","old_name":"Fieri","name:al":"Fier","name:be":"Фіер","name:ml":"ഫിയർ","name:sr":"Фјер","name:tr":"Ferecik","name:uk":"Фієрі","alt_name:tr":"Fir","name:be-tarask":"Фіер"},"display_name":"Fier, Bashkia Fier, Qarku i Fierit, Shqipëria Jugore, Shqipëria","address":{"city":"Fier","municipality":"Bashkia Fier","county":"Qarku i Fierit","ISO3166-2-lvl6":"AL-04","state":"Shqipëria Jugore","country":"Shqipëria","country_code":"al"},"population":55845,"osm_type":"relation","osm_id":1251483,"type":"administrative","location":[19.5582079,40.7251118],"bbox":[19.5428157,40.711831,19.5799388,40.7418605]}}
{"name":"Frakull","display_name":"Frakull, Bashkia Fier, Qarku i Fierit, Shqipëria Jugore, 9313, Shqipëria","address":{"city":"Frakull","municipality":"Bashkia Fier","county":"Qarku i Fierit","ISO3166-2-lvl6":"AL-04","state":"Shqipëria Jugore","postcode":"9313","country":"Shqipëria","country_code":"al"},"population":6820,"osm_type":"relation","osm_id":1251510,"type":"administrative","location":[19.52161440849545,40.62222975],"bbox":[19.4680092,40.5780898,19.5728276,40.667411],"inferred_type":"city"}
{"name":"Fratar","display_name":"Fratar, Bashkia Mallakastër, Qarku i Fierit, Shqipëria Jugore, 9328, Shqipëria","address":{"city":"Fratar","municipality":"Bashkia Mallakastër","county":"Qarku i Fierit","ISO3166-2-lvl6":"AL-04","state":"Shqipëria Jugore","postcode":"9328","country":"Shqipëria","country_code":"al"},"population":3221,"osm_type":"relation","osm_id":1251500,"type":"administrative","location":[19.836790457648313,40.507016],"bbox":[19.7419074,40.472227,19.8848493,40.5417927],"inferred_type":"city"}
{"name":"Funar","display_name":"Funar, Bashkia Elbasan, Qarku i Elbasanit, Shqipëria Qendrore, 3013, Shqipëria","address":{"city":"Funar","municipality":"Bashkia Elbasan","county":"Qarku i Elbasanit","ISO3166-2-lvl6":"AL-03","state":"Shqipëria Qendrore","postcode":"3013","country":"Shqipëria","country_code":"al"},"population":2122,"osm_type":"relation","osm_id":1250608,"type":"administrative","location":[20.041802491779663,41.208064199999995],"bbox":[19.9785233,41.1605937,20.1192402,41.255547],"inferred_type":"city"}
{"name":"Fushë Çidhën","display_name":"Fushë Çidhën, Bashkia Dibër, Qarku i Dibrës, Shqipëria Veriore, 8306, Shqipëria","address":{"city":"Fushë Çidhën","municipality":"Bashkia Dibër","county":"Qarku i Dibrës","ISO3166-2-lvl6":"AL-09","state":"Shqipëria Veriore","postcode":"8306","country":"Shqipëria","country_code":"al"},"population":2909,"osm_type":"relation","osm_id":1249539,"type":"administrative","location":[20.365293478002613,41.7618376],"bbox":[20.324958,41.7366648,20.4118999,41.7845397],"inferred_type":"city"}
{"name":"Fushë-Kuqe","display_name":"Fushë-Kuqe, Bashkia Kurbin, Qarku i Lezhës, Shqipëria Veriore, 4706, Shqipëria","address":{"city":"Fushë-Kuqe","municipality":"Bashkia Kurbin","county":"Qarku i Lezhës","ISO3166-2-lvl6":"AL-08","state":"Shqipëria Veriore","postcode":"4706","country":"Shqipëria","country_code":"al"},"population":5460,"osm_type":"relation","osm_id":1248919,"type":"administrative","location":[19.62488330323702,41.6253813],"bbox":[19.5562528,41.5708529,19.6597724,41.6799336],"inferred_type":"city"}
{"name":"Gjoçaj","display_name":"Gjoçaj, Bashkia Peqin, Qarku i Elbasanit, Shqipëria Qendrore, 3505, Shqipëria","address":{"city":"Gjoçaj","municipality":"Bashkia Peqin","county":"Qarku i Elbasanit","ISO3166-2-lvl6":"AL-03","state":"Shqipëria Qendrore","postcode":"3505","country":"Shqipëria","country_code":"al"},"population":5207,"osm_type":"relation","osm_id":1250564,"type":"administrative","location":[19.72989407682953,41.03532225],"bbox":[19.6734341,41.0090322,19.8073752,41.061542],"inferred_type":"city"}
{"name":"Gorë","other_names":{"name:mk":"Гора","name:sq":"Gorë"},"display_name":"Gorë, Bashkia Maliq, Qarku i Korçës, Shqipëria Jugore, Shqipëria","address":{"city":"Gorë","municipality":"Bashkia Maliq","county":"Qarku i Korçës","ISO3166-2-lvl6":"AL-06","state":"Shqipëria Jugore","country":"Shqipëria","country_code":"al"},"population":1565,"osm_type":"relation","osm_id":1252566,"type":"administrative","location":[20.53680481611623,40.7547614],"bbox":[20.4313293,40.6794891,20.6576335,40.8298421],"inferred_type":"city"}
{"name":"Gosë","display_name":"Gosë, Bashkia Rrogozhinë, Qarku i Tiranës, Shqipëria Qendrore, 2508, Shqipëria","address":{"city":"Gosë","municipality":"Bashkia Rrogozhinë","county":"Qarku i Tiranës","ISO3166-2-lvl6":"AL-11","state":"Shqipëria Qendrore","postcode":"2508","country":"Shqipëria","country_code":"al"},"population":4120,"osm_type":"relation","osm_id":1250102,"type":"administrative","location":[19.520878476600224,41.05591725],"bbox":[19.4434333,41.0015696,19.6678085,41.1101625],"inferred_type":"city"}
{"name":"Helmas","display_name":"Helmas, Bashkia Kavajë, Qarku i Tiranës, Shqipëria Qendrore, 2506, Shqipëria","address":{"city":"Helmas","municipality":"Bashkia Kavajë","county":"Qarku i Tiranës","ISO3166-2-lvl6":"AL-11","state":"Shqipëria Qendrore","postcode":"2506","country":"Shqipëria","country_code":"al"},"population":3139,"osm_type":"relation","osm_id":1250121,"type":"administrative","location":[19.619860635289246,41.190945049999996],"bbox":[19.5556484,41.1479622,19.6968729,41.2341367],"inferred_type":"city"}
{"name":"Horë-Vranisht","display_name":"Horë-Vranisht, Bashkia Himarë, Qarku i Vlorës, Shqipëria Jugore, 9413, Shqipëria","address":{"city":"Horë-Vranisht","municipality":"Bashkia Himarë","county":"Qarku i Vlorës","ISO3166-2-lvl6":"AL-12","state":"Shqipëria Jugore","postcode":"9413","country":"Shqipëria","country_code":"al"},"population":2080,"osm_type":"relation","osm_id":1255523,"type":"administrative","location":[19.75050176769241,40.1968867],"bbox":[19.6004882,40.1250175,19.8940805,40.268551],"inferred_type":"city"}
{"name":"Iballe","display_name":"Iballe, Bashkia Fushë-Arrëz, Qarku i Shkodrës, Shqipëria Veriore, 4403, Shqipëria","address":{"city":"Iballe","municipality":"Bashkia Fushë-Arrëz","county":"Qarku i Shkodrës","ISO3166-2-lvl6":"AL-10","state":"Shqipëria Veriore","postcode":"4403","country":"Shqipëria","country_code":"al"},"population":1129,"osm_type":"relation","osm_id":1248291,"type":"administrative","location":[19.95789783077621,42.179975049999996],"bbox":[19.8669929,42.1129502,20.0665735,42.246329],"inferred_type":"city"}
{"name":"Kala e Dodës","display_name":"Kala e Dodës, Bashkia Dibër, Qarku i Dibrës, Shqipëria Veriore, 8308, Shqipëria","address":{"city":"Kala e Dodës","municipality":"Bashkia Dibër","county":"Qarku i Dibrës","ISO3166-2-lvl6":"AL-09","state":"Shqipëria Veriore","postcode":"8308","country":"Shqipëria","country_code":"al"},"population":2252,"osm_type":"relation","osm_id":1249544,"type":"administrative","location":[20.517974816961704,41.81284975],"bbox":[20.420452,41.7623386,20.5744212,41.8617169],"inferred_type":"city"}
{"name":"Kamëz","other_names":{"name:bg":"Камза","name:de":"Kamza","name:en":"Kamez","name:mk":"Камза","name:ml":"കാംസ","name:ru":"Камза","name:uk":"Камза","name:ur":"کامزا","name:zh":"卡姆扎"},"display_name":"Kamëz, Bashkia Kamëz, Qarku i Tiranës, Shqipëria Qendrore, Shqipëria","address":{"city":"Kamëz","county":"Qarku i Tiranës","ISO3166-2-lvl6":"AL-11","state":"Shqipëria Qendrore","country":"Shqipëria","country_code":"al"},"population":66841,"osm_type":"node","osm_id":4340385989,"type":"city","location":[19.7604224,41.3835259],"bbox":[19.6004224,41.2235259,19.9204224,41.5435259],"border":[{"name":"Bashkia Kamëz","other_names":{"name:bg":"Община Камза","name:el":"Δήμος Καμζάς","name:en":"Kamëz Municipality","name:hr":"Općina Kamza","name:mk":"Општина Камзa","name:sq":"Bashkia Kamëz","name:sr":"Општина Камзa","name:uk":"Камза","name:rom":"Municipaliteta e Kamëz","name:rup":"Comuna di Kamëz","name:de":"Kamza","name:ml":"കാംസ","name:ru":"Камза","name:ur":"کامزا","name:zh":"卡姆扎","alt":"Kamëz","alt:bg":"Камза","alt:en":"Kamez","alt:mk":"Камза"},"display_name":"Bashkia Kamëz, Qarku i Tiranës, Shqipëria Qendrore, Shqipëria","address":{"city":"Bashkia Kamëz","county":"Qarku i Tiranës","ISO3166-2-lvl6":"AL-11","state":"Shqipëria Qendrore","country":"Shqipëria","country_code":"al"},"population":96137,"osm_type":"relation","osm_id":7695871,"type":"administrative","location":[19.7604224,41.3835259],"bbox":[19.7043538,41.3481539,19.8550465,41.4070854]},{"name":"Kamëz","other_names":{"name:mk":"Камза","name:sq":"Kamëz"},"display_name":"Kamëz, Bashkia Kamëz, Qarku i Tiranës, Shqipëria Qendrore, 1030, Shqipëria","address":{"administrative":"Kamëz","city":"Bashkia Kamëz","county":"Qarku i Tiranës","ISO3166-2-lvl6":"AL-11","state":"Shqipëria Qendrore","postcode":"1030","country":"Shqipëria","country_code":"al"},"population":66841,"osm_type":"relation","osm_id":1250117,"type":"administrative","location":[19.76206073534112,41.3776064],"bbox":[19.7043538,41.3481539,19.8550465,41.4070854]}]}
{"name":"Karbunarë","display_name":"Karbunarë, Bashkia Lushnjë, Qarku i Fierit, Shqipëria Jugore, 9002, Shqipëria","address":{"city":"Karbunarë","municipality":"Bashkia Lushnjë","county":"Qarku i Fierit","ISO3166-2-lvl6":"AL-04","state":"Shqipëria Jugore","postcode":"9002","country":"Shqipëria","country_code":"al"},"population":4193,"osm_type":"relation","osm_id":1251503,"type":"administrative","location":[19.76826623391809,40.926016950000005],"bbox":[19.7201569,40.8906082,19.8131769,40.9611835],"inferred_type":"city"}
{"name":"Kelmend","display_name":"Kelmend, Bashkia Malësi e Madhe, Qarku i Shkodrës, Shqipëria Veriore, 4304, Shqipëria","address":{"city":"Kelmend","municipality":"Bashkia Malësi e Madhe","county":"Qarku i Shkodrës","ISO3166-2-lvl6":"AL-10","state":"Shqipëria Veriore","postcode":"4304","country":"Shqipëria","country_code":"al"},"population":3056,"osm_type":"relation","osm_id":1248270,"type":"administrative","location":[19.662623875200367,42.51509745],"bbox":[19.4965817,42.3697258,19.7877113,42.6610848],"inferred_type":"city"}
{"name":"Korçë","other_names":{"name:bg":"Корча","name:el":"Κορυτσά","name:it":"Coriza","name:mk":"Горица","name:ml":"കോർച്ച","name:pl":"Korcza","name:ru":"Корча","name:sr":"Горица","name:tr":"Görice","name:uk":"Корча","alt_name":"Korca","int_name":"Korça"},"display_name":"Korçë, Bashkia Korçë, Qarku i Korçës, Shqipëria Jugore, 7001-7004, Shqipëria","address":{"city":"Korçë","town":"Korçë","municipality":"Bashkia Korçë","county":"Qarku i Korçës","ISO3166-2-lvl6":"AL-06","state":"Shqipëria Jugore","postcode":"7001-7004","country":"Shqipëria","country_code":"al"},"population":80000,"osm_type":"node","osm_id":10837737854,"type":"city","location":[20.7772187,40.6158967],"bbox":[20.6172187,40.4558967,20.9372187,40.7758967],"border":[{"name":"Qarku i Korçës","other_names":{"ref":"AL034","name:an":"Prefectura de Korçë","name:ar":"مقاطعة كورتشي","name:be":"Корча","name:bg":"Корча (област)","name:br":"Korçë (rannvro)","name:ca":"Comtat de Korçë","name:cs":"Korçë (kraj)","name:de":"Qark Korça","name:el":"Νομός Κορυτσάς","name:en":"Korçë County","name:eo":"Provinco Korçë","name:es":"Condado de Korçë","name:et":"Korçë maakond","name:eu":"Korçë konderria","name:fi":"Korçën maakunta","name:fr":"Préfecture de Korçë","name:ga":"Contae Korçë","name:gl":"Condado de Korçë","name:hi":"कोर्से प्रांत","name:hr":"Korčanski okrug","name:hu":"Korça megye","name:hy":"Կորչայի գավառ","name:it":"Prefettura di Coriza","name:ja":"コルチャ州","name:kg":"Korçë (kizunga)","name:ko":"코르처 주","name:lt":"Korčės apskritis","name:mk":"Горица (област)","name:nl":"Korçë (prefectuur)","name:no":"Korçë (region)","name:pl":"Obwód Korcza","name:pt":"Korçë (prefeitura)","name:ro":"Regiunea Korçë","name:ru":"Корча (область)","name:sk":"Korçë (kraj)","name:sq":"Qarku i Korçës","name:sv":"Korçë prefektur","name:tl":"Kondado ng Korçë","name:tr":"Görice ili","name:uk":"Корча (область)","name:ur":"صوبہ کورچہ","name:vi":"Korçë (hạt)","name:zh":"科赤州","name:ceb":"Qarku i Korçës","name:lmo":"Prefettura de Coriza","name:pnb":"صوبہ کورچہ","name:sco":"Korçë Coonty","name:war":"Korçë (condado)","ISO3166-2":"AL-06","name:simple":"Korçë County","name:be-tarask":"Корча"},"display_name":"Qarku i Korçës, Shqipëria Jugore, Shqipëria","address":{"county":"Qarku i Korçës","ISO3166-2-lvl6":"AL-06","state":"Shqipëria Jugore","country":"Shqipëria","country_code":"al"},"population":220357,"osm_type":"relation","osm_id":1252589,"type":"administrative","location":[20.73613150377063,40.5858753],"bbox":[20.2926648,40.0828435,21.0574335,41.092033]},{"name":"Bashkia Korçë","other_names":{"name:el":"Δήμος Κορυτσάς","name:mk":"Општина Горица","name:ru":"Корча","name:sq":"Bashkia Korçë","alt_name:mk":"Општина Корча"},"display_name":"Bashkia Korçë, Qarku i Korçës, Shqipëria Jugore, Shqipëria","address":{"municipality":"Bashkia Korçë","county":"Qarku i Korçës","ISO3166-2-lvl6":"AL-06","state":"Shqipëria Jugore","country":"Shqipëria","country_code":"al"},"population":75994,"osm_type":"relation","osm_id":1252572,"type":"administrative","location":[20.639011617824476,40.558162550000006],"bbox":[20.3837508,40.4233268,20.8623826,40.6949098]},{"name":"Korçë","other_names":{"name:el":"Κορυτσά","name:pl":"Korcza","name:ru":"Корча","name:sq":"Korçë","name:uk":"Корча","name:bg":"Корча","name:it":"Coriza","name:mk":"Горица","name:ml":"കോർച്ച","name:sr":"Горица","name:tr":"Görice","alt_name":"Korca","int_name":"Korça"},"display_name":"Korçë, Bashkia Korçë, Qarku i Korçës, Shqipëria Jugore, 7001, Shqipëria","address":{"town":"Korçë","municipality":"Bashkia Korçë","county":"Qarku i Korçës","ISO3166-2-lvl6":"AL-06","state":"Shqipëria Jugore","postcode":"7001","country":"Shqipëria","country_code":"al"},"population":51152,"osm_type":"relation","osm_id":1252581,"type":"administrative","location":[20.7772187,40.6158967],"bbox":[20.7615638,40.5987274,20.7977055,40.6370098]}]}
{"name":"Kozare","display_name":"Kozare, Bashkia Kuçovë, Qarku i Beratit, Shqipëria Jugore, 5305, Shqipëria","address":{"city":"Kozare","municipality":"Bashkia Kuçovë","county":"Qarku i Beratit","ISO3166-2-lvl6":"AL-01","state":"Shqipëria Jugore","postcode":"5305","country":"Shqipëria","country_code":"al"},"population":5622,"osm_type":"relation","osm_id":1252302,"type":"administrative","location":[19.91000867332079,40.84721155],"bbox":[19.8319803,40.813182,19.9884874,40.881549],"inferred_type":"city"}
{"name":"Krutje","display_name":"Krutje, Bashkia Lushnjë, Qarku i Fierit, Shqipëria Jugore, 9006, Shqipëria","address":{"city":"Krutje","municipality":"Bashkia Lushnjë","county":"Qarku i Fierit","ISO3166-2-lvl6":"AL-04","state":"Shqipëria Jugore","postcode":"9006","country":"Shqipëria","country_code":"al"},"population":7564,"osm_type":"relation","osm_id":1251489,"type":"administrative","location":[19.705932557516565,40.860408050000004],"bbox":[19.6538879,40.8148015,19.7572727,40.9059514],"inferred_type":"city"}
{"name":"Kthellë","display_name":"Kthellë, Bashkia Mirditë, Qarku i Lezhës, Shqipëria Veriore, 4606, Shqipëria","address":{"city":"Kthellë","municipality":"Bashkia Mirditë","county":"Qarku i Lezhës","ISO3166-2-lvl6":"AL-08","state":"Shqipëria Veriore","postcode":"4606","country":"Shqipëria","country_code":"al"},"population":2209,"osm_type":"relation","osm_id":1248937,"type":"administrative","location":[19.983780860379518,41.749804],"bbox":[19.861111,41.6863863,20.0553043,41.8126635],"inferred_type":"city"}
{"name":"Kurvelesh","display_name":"Kurvelesh, Bashkia Tepelenë, Qarku i Gjirokastrës, Shqipëria Jugore, Shqipëria","address":{"city":"Kurvelesh","municipality":"Bashkia Tepelenë","county":"Qarku i Gjirokastrës","ISO3166-2-lvl6":"AL-05","state":"Shqipëria Jugore","country":"Shqipëria","country_code":"al"},"population":705,"osm_type":"relation","osm_id":1253897,"type":"administrative","location":[19.913985016782565,40.23992895],"bbox":[19.7944124,40.183574,20.0112809,40.2960007],"inferred_type":"city"}
{"name":"Lopës","display_name":"Lopës, Bashkia Tepelenë, Qarku i Gjirokastrës, Shqipëria Jugore, Shqipëria","address":{"city":"Lopës","municipality":"Bashkia Tepelenë","county":"Qarku i Gjirokastrës","ISO3166-2-lvl6":"AL-05","state":"Shqipëria Jugore","country":"Shqipëria","country_code":"al"},"population":723,"osm_type":"relation","osm_id":1253923,"type":"administrative","location":[19.846615155360684,40.3422989],"bbox":[19.7974038,40.2917967,19.908055,40.3928102],"inferred_type":"city"}
{"name":"Lunxhëri","display_name":"Lunxhëri, Bashkia Gjirokastër, Qarku i Gjirokastrës, Shqipëria Jugore, Shqipëria","address":{"city":"Lunxhëri","municipality":"Bashkia Gjirokastër","county":"Qarku i Gjirokastrës","ISO3166-2-lvl6":"AL-05","state":"Shqipëria Jugore","country":"Shqipëria","country_code":"al"},"population":1941,"osm_type":"relation","osm_id":1253927,"type":"administrative","location":[20.173205082215713,40.1327712],"bbox":[20.1086636,40.0905268,20.2387654,40.1763829],"inferred_type":"city"}
{"name":"Lurë","other_names":{"name:mk":"Лурје","name:sq":"Lurë","alt_name:mk":"Лура"},"display_name":"Lurë, Bashkia Dibër, Qarku i Dibrës, Shqipëria Veriore, 8312, Shqipëria","address":{"city":"Lurë","municipality":"Bashkia Dibër","county":"Qarku i Dibrës","ISO3166-2-lvl6":"AL-09","state":"Shqipëria Veriore","postcode":"8312","country":"Shqipëria","country_code":"al"},"population":1096,"osm_type":"relation","osm_id":1249572,"type":"administrative","location":[20.21882609505843,41.7832913],"bbox":[20.146159,41.6884289,20.2714859,41.8806288],"inferred_type":"city"}
{"name":"Lushnjë","other_names":{"name:al":"Lushnja","name:de":"Lushnja","name:el":"Λούσνια","name:en":"Lushnja","name:eo":"Lushnje","name:fr":"Lushnja","name:it":"Lushnja","name:mk":"Лушње","name:ml":"ലുഷ്‌നിയ","name:ru":"Люшня","name:sr":"Лушње","name:tr":"Loşna","name:uk":"Люшня","alt_name":"Lushnje","old_name":"Lushnjë"},"display_name":"Lushnjë, Bashkia Lushnjë, Qarku i Fierit, Shqipëria Jugore, 9001, Shqipëria","address":{"city":"Lushnjë","municipality":"Bashkia Lushnjë","county":"Qarku i Fierit","ISO3166-2-lvl6":"AL-04","state":"Shqipëria Jugore","postcode":"9001","country":"Shqipëria","country_code":"al"},"population":60000,"osm_type":"node","osm_id":2193240328,"type":"city","location":[19.7059724,40.9422038],"bbox":[19.5459724,40.7822038,19.8659724,41.1022038],"border":[{"name":"Bashkia Lushnjë","other_names":{"name:el":"Δήμος Λούσνια","name:mk":"Општина Лушње","name:ru":"Люшня","name:sq":"Bashkia Lushnjë","alt_name:mk":"Општина Лушња"},"display_name":"Bashkia Lushnjë, Qarku i Fierit, Shqipëria Jugore, Shqipëria","address":{"municipality":"Bashkia Lushnjë","county":"Qarku i Fierit","ISO3166-2-lvl6":"AL-04","state":"Shqipëria Jugore","country":"Shqipëria","country_code":"al"},"population":83659,"osm_type":"relation","osm_id":1251494,"type":"administrative","location":[19.72864836270964,40.920489849999996],"bbox":[19.5843852,40.773306,19.8733465,41.0672334]},{"name":"Lushnjë","other_names":{"name:eo":"Lushnje","name:mk":"Лушње","name:sq":"Lushnjë","alt_name:mk":"Лушња","name:al":"Lushnja","name:de":"Lushnja","name:el":"Λούσνια","name:en":"Lushnja","name:fr":"Lushnja","name:it":"Lushnja","name:ml":"ലുഷ്‌നിയ","name:ru":"Люшня","name:sr":"Лушње","name:tr":"Loşna","name:uk":"Люшня","alt_name":"Lushnje","old_name":"Lushnjë"},"display_name":"Lushnjë, Bashkia Lushnjë, Qarku i Fierit, Shqipëria Jugore, 9001, Shqipëria","address":{"city":"Lushnjë","municipality":"Bashkia Lushnjë","county":"Qarku i Fierit","ISO3166-2-lvl6":"AL-04","state":"Shqipëria Jugore","postcode":"9001","country":"Shqipëria","country_code":"al"},"population":31105,"osm_type":"relation","osm_id":1251485,"type":"administrative","location":[19.7059724,40.9422038],"bbox":[19.6158235,40.876279,19.7379001,40.9571926]}]}
{"name":"Luzni","display_name":"Luzni, Bashkia Dibër, Qarku i Dibrës, Shqipëria Veriore, 8314, Shqipëria","address":{"city":"Luzni","municipality":"Bashkia Dibër","county":"Qarku i Dibrës","ISO3166-2-lvl6":"AL-09","state":"Shqipëria Veriore","postcode":"8314","country":"Shqipëria","country_code":"al"},"population":2433,"osm_type":"relation","osm_id":1249564,"type":"administrative","location":[20.349086239877717,41.64200375],"bbox":[20.2971306,41.6149824,20.4149756,41.6689348],"inferred_type":"city"}
{"name":"Mbrostar Ura","display_name":"Mbrostar Ura, Bashkia Fier, Qarku i Fierit, Shqipëria Jugore, Shqipëria","address":{"city":"Mbrostar Ura","municipality":"Bashkia Fier","county":"Qarku i Fierit","ISO3166-2-lvl6":"AL-04","state":"Shqipëria Jugore","country":"Shqipëria","country_code":"al"},"population":7460,"osm_type":"relation","osm_id":1251479,"type":"administrative","location":[19.61802556984644,40.77884025],"bbox":[19.5608098,40.7379411,19.6727611,40.8172087],"inferred_type":"city"}
{"name":"Odrie","display_name":"Odrie, Bashkia Gjirokastër, Qarku i Gjirokastrës, Shqipëria Jugore, Shqipëria","address":{"city":"Odrie","municipality":"Bashkia Gjirokastër","county":"Qarku i Gjirokastrës","ISO3166-2-lvl6":"AL-05","state":"Shqipëria Jugore","country":"Shqipëria","country_code":"al"},"population":433,"osm_type":"relation","osm_id":1253901,"type":"administrative","location":[20.131583269892822,40.18454375],"bbox":[20.0790206,40.1481172,20.1862607,40.2221037],"inferred_type":"city"}
{"name":"Pogon","display_name":"Pogon, Bashkia Dropull, Qarku i Gjirokastrës, Shqipëria Jugore, Shqipëria","address":{"city":"Pogon","municipality":"Bashkia Dropull","county":"Qarku i Gjirokastrës","ISO3166-2-lvl6":"AL-05","state":"Shqipëria Jugore","country":"Shqipëria","country_code":"al"},"population":432,"osm_type":"relation","osm_id":1253906,"type":"administrative","location":[20.390296529198586,40.07985445],"bbox":[20.272152,39.9891238,20.463797,40.1663798],"inferred_type":"city"}
{"name":"Postribë","other_names":{"name:sq":"Postribë","alt_name":"Njësia Administrative Postribë"},"display_name":"Postribë, Bashkia Shkodër, Qarku i Shkodrës, Shqipëria Veriore, Shqipëria","address":{"city":"Postribë","municipality":"Bashkia Shkodër","county":"Qarku i Shkodrës","ISO3166-2-lvl6":"AL-10","state":"Shqipëria Veriore","country":"Shqipëria","country_code":"al"},"population":7069,"osm_type":"relation","osm_id":1248287,"type":"administrative","location":[19.59591293825808,42.133774200000005],"bbox":[19.527539,42.0690275,19.7463476,42.1985112],"inferred_type":"city"}
{"name":"Pult","other_names":{"name:sq":"Pult","alt_name":"Njësia Administrative Pult"},"display_name":"Pult, Bashkia Shkodër, Qarku i Shkodrës, Shqipëria Veriore, 4010, Shqipëria","address":{"city":"Pult","municipality":"Bashkia Shkodër","county":"Qarku i Shkodrës","ISO3166-2-lvl6":"AL-10","state":"Shqipëria Veriore","postcode":"4010","country":"Shqipëria","country_code":"al"},"population":1529,"osm_type":"relation","osm_id":1248290,"type":"administrative","location":[19.672555308951274,42.246645650000005],"bbox":[19.6048514,42.169828,19.7461748,42.3240985],"inferred_type":"city"}
{"name":"Qafë-Mali","display_name":"Qafë-Mali, Bashkia Fushë-Arrëz, Qarku i Shkodrës, Shqipëria Veriore, 4406, Shqipëria","address":{"city":"Qafë-Mali","municipality":"Bashkia Fushë-Arrëz","county":"Qarku i Shkodrës","ISO3166-2-lvl6":"AL-10","state":"Shqipëria Veriore","postcode":"4406","country":"Shqipëria","country_code":"al"},"population":1548,"osm_type":"relation","osm_id":1248274,"type":"administrative","location":[20.08777349761363,42.059752700000004],"bbox":[20.0123869,41.9627574,20.212224,42.1575567],"inferred_type":"city"}
{"name":"Qelëz","display_name":"Qelëz, Bashkia Pukë, Qarku i Shkodrës, Shqipëria Veriore, 4405, Shqipëria","address":{"city":"Qelëz","municipality":"Bashkia Pukë","county":"Qarku i Shkodrës","ISO3166-2-lvl6":"AL-10","state":"Shqipëria Veriore","postcode":"4405","country":"Shqipëria","country_code":"al"},"population":1761,"osm_type":"relation","osm_id":1248298,"type":"administrative","location":[19.893310884697375,42.0990953],"bbox":[19.8178485,42.0494391,19.9849666,42.1489465],"inferred_type":"city"}
{"name":"Qendër Bulgarec","display_name":"Qendër Bulgarec, Bashkia Korçë, Qarku i Korçës, Shqipëria Jugore, Shqipëria","address":{"city":"Qendër Bulgarec","municipality":"Bashkia Korçë","county":"Qarku i Korçës","ISO3166-2-lvl6":"AL-06","state":"Shqipëria Jugore","country":"Shqipëria","country_code":"al"},"population":9022,"osm_type":"relation","osm_id":1252565,"type":"administrative","location":[20.774753317774685,40.6467087],"bbox":[20.6899005,40.6069754,20.8623826,40.6903647],"inferred_type":"city"}
{"name":"Qendër Dukas","display_name":"Qendër Dukas, Bashkia Mallakastër, Qarku i Fierit, Shqipëria Jugore, 9333, Shqipëria","address":{"city":"Qendër Dukas","municipality":"Bashkia Mallakastër","county":"Qarku i Fierit","ISO3166-2-lvl6":"AL-04","state":"Shqipëria Jugore","postcode":"9333","country":"Shqipëria","country_code":"al"},"population":6253,"osm_type":"relation","osm_id":1251490,"type":"administrative","location":[19.709000828904855,40.621236100000004],"bbox":[19.6633069,40.574208,19.7750557,40.6669948],"inferred_type":"city"}
{"name":"Qendër Ersekë","display_name":"Qendër Ersekë, Bashkia Kolonjë, Qarku i Korçës, Shqipëria Jugore, 7401, Shqipëria","address":{"city":"Qendër Ersekë","municipality":"Bashkia Kolonjë","ISO3166-2-lvl7":"AL-ER","county":"Qarku i Korçës","ISO3166-2-lvl6":"AL-06","state":"Shqipëria Jugore","postcode":"7401","country":"Shqipëria","country_code":"al"},"population":2673,"osm_type":"relation","osm_id":1252586,"type":"administrative","location":[20.72268997044155,40.335601249999996],"bbox":[20.6023337,40.2726939,20.7916351,40.398427],"inferred_type":"city"}
{"name":"Qendër Leskovik","display_name":"Qendër Leskovik, Bashkia Kolonjë, Qarku i Korçës, Shqipëria Jugore, 7402, Shqipëria","address":{"city":"Qendër Leskovik","municipality":"Bashkia Kolonjë","ISO3166-2-lvl7":"AL-ER","county":"Qarku i Korçës","ISO3166-2-lvl6":"AL-06","state":"Shqipëria Jugore","postcode":"7402","country":"Shqipëria","country_code":"al"},"population":416,"osm_type":"relation","osm_id":1252596,"type":"administrative","location":[20.59272160085287,40.16685305],"bbox":[20.503859,40.0828435,20.7260901,40.2508143],"inferred_type":"city"}
{"name":"Qendër Libohovë","display_name":"Qendër Libohovë, Bashkia Libohovë, Qarku i Gjirokastrës, Shqipëria Jugore, Shqipëria","address":{"city":"Qendër Libohovë","municipality":"Bashkia Libohovë","county":"Qarku i Gjirokastrës","ISO3166-2-lvl6":"AL-05","state":"Shqipëria Jugore","country":"Shqipëria","country_code":"al"},"population":1264,"osm_type":"relation","osm_id":1253922,"type":"administrative","location":[20.262357957408156,40.0456066],"bbox":[20.1930265,39.9781966,20.3207374,40.1167228],"inferred_type":"city"}
{"name":"Qendër Piskovë","display_name":"Qendër Piskovë, Bashkia Përmet, Qarku i Gjirokastrës, Shqipëria Jugore, 6405, Shqipëria","address":{"city":"Qendër Piskovë","municipality":"Bashkia Përmet","county":"Qarku i Gjirokastrës","ISO3166-2-lvl6":"AL-05","state":"Shqipëria Jugore","postcode":"6405","country":"Shqipëria","country_code":"al"},"population":1742,"osm_type":"relation","osm_id":1253925,"type":"administrative","location":[20.33929642328741,40.30114595],"bbox":[20.2173567,40.2281056,20.4238822,40.3736023],"inferred_type":"city"}
{"name":"Qendër Skrapar","other_names":{"name:mk":"Центар Скрапар","name:sq":"Qendër Skrapar"},"display_name":"Qendër Skrapar, Bashkia Skrapar, Qarku i Beratit, Shqipëria Jugore, Shqipëria","address":{"city":"Qendër Skrapar","municipality":"Bashkia Skrapar","county":"Qarku i Beratit","ISO3166-2-lvl6":"AL-01","state":"Shqipëria Jugore","country":"Shqipëria","country_code":"al"},"population":2545,"osm_type":"relation","osm_id":1252305,"type":"administrative","location":[20.195371685727366,40.497411549999995],"bbox":[20.1512562,40.418247,20.3066715,40.57766],"inferred_type":"city"}
{"name":"Qendër Tepelenë","display_name":"Qendër Tepelenë, Bashkia Tepelenë, Qarku i Gjirokastrës, Shqipëria Jugore, 6301, Shqipëria","address":{"city":"Qendër Tepelenë","municipality":"Bashkia Tepelenë","county":"Qarku i Gjirokastrës","ISO3166-2-lvl6":"AL-05","state":"Shqipëria Jugore","postcode":"6301","country":"Shqipëria","country_code":"al"},"population":3179,"osm_type":"relation","osm_id":1253919,"type":"administrative","location":[19.997910210651405,40.2873919],"bbox":[19.8516085,40.2123081,20.1587203,40.3618812],"inferred_type":"city"}
{"name":"Qendër Vlorë","display_name":"Qendër Vlorë, Bashkia Vlorë, Qarku i Vlorës, Shqipëria Jugore, Shqipëria","address":{"city":"Qendër Vlorë","municipality":"Bashkia Vlorë","county":"Qarku i Vlorës","ISO3166-2-lvl6":"AL-12","state":"Shqipëria Jugore","country":"Shqipëria","country_code":"al"},"population":7621,"osm_type":"relation","osm_id":1255522,"type":"administrative","location":[19.53198765707715,40.4783863],"bbox":[19.2639861,40.3923172,19.5578739,40.5644115],"inferred_type":"city"}
{"name":"Qendër","display_name":"Qendër, Bashkia Fier, Qarku i Fierit, Shqipëria Jugore, 9302, Shqipëria","address":{"city":"Qendër","municipality":"Bashkia Fier","county":"Qarku i Fierit","ISO3166-2-lvl6":"AL-04","state":"Shqipëria Jugore","postcode":"9302","country":"Shqipëria","country_code":"al"},"population":4207,"osm_type":"relation","osm_id":1251497,"type":"administrative","location":[19.555798632164496,40.743042200000005],"bbox":[19.4998932,40.6871158,19.6083497,40.7986076],"inferred_type":"city"}
{"name":"Qendër","display_name":"Qendër, Bashkia Malësi e Madhe, Qarku i Shkodrës, Shqipëria Veriore, Shqipëria","address":{"city":"Qendër","municipality":"Bashkia Malësi e Madhe","county":"Qarku i Shkodrës","ISO3166-2-lvl6":"AL-10","state":"Shqipëria Veriore","country":"Shqipëria","country_code":"al"},"population":4740,"osm_type":"relation","osm_id":1248271,"type":"administrative","location":[19.361651125535722,42.2015792],"bbox":[19.2808461,42.1463095,19.5141824,42.2568868],"inferred_type":"city"}
{"name":"Qerret","display_name":"Qerret, Bashkia Pukë, Qarku i Shkodrës, Shqipëria Veriore, Shqipëria","address":{"city":"Qerret","municipality":"Bashkia Pukë","county":"Qarku i Shkodrës","ISO3166-2-lvl6":"AL-10","state":"Shqipëria Veriore","country":"Shqipëria","country_code":"al"},"population":1498,"osm_type":"relation","osm_id":1248277,"type":"administrative","location":[19.822503127149872,42.0140035],"bbox":[19.7177701,41.9422802,19.9080761,42.0852402],"inferred_type":"city"}
{"name":"Qukës","display_name":"Qukës, Bashkia Prrenjas, Qarku i Elbasanit, Shqipëria Qendrore, 3407, Shqipëria","address":{"city":"Qukës","municipality":"Bashkia Prrenjas","county":"Qarku i Elbasanit","ISO3166-2-lvl6":"AL-03","state":"Shqipëria Qendrore","postcode":"3407","country":"Shqipëria","country_code":"al"},"population":8211,"osm_type":"relation","osm_id":1250563,"type":"administrative","location":[20.480482316777433,41.088608699999995],"bbox":[20.3929701,41.0178754,20.56098,41.1596557],"inferred_type":"city"}
{"name":"Rrapë","display_name":"Rrapë, Bashkia Pukë, Qarku i Shkodrës, Shqipëria Veriore, 4407, Shqipëria","address":{"city":"Rrapë","municipality":"Bashkia Pukë","county":"Qarku i Shkodrës","ISO3166-2-lvl6":"AL-10","state":"Shqipëria Veriore","postcode":"4407","country":"Shqipëria","country_code":"al"},"population":1357,"osm_type":"relation","osm_id":1248295,"type":"administrative","location":[19.982222636497795,42.0464743],"bbox":[19.8954506,41.9929238,20.0538309,42.1010845],"inferred_type":"city"}
{"name":"Rrethinat","other_names":{"name:sq":"Rrethinat","alt_name":"Njësia Administrative Rrethinat"},"display_name":"Rrethinat, Bashkia Shkodër, Qarku i Shkodrës, Shqipëria Veriore, 4007, Shqipëria","address":{"city":"Rrethinat","municipality":"Bashkia Shkodër","county":"Qarku i Shkodrës","ISO3166-2-lvl6":"AL-10","state":"Shqipëria Veriore","postcode":"4007","country":"Shqipëria","country_code":"al"},"population":21199,"osm_type":"relation","osm_id":1248294,"type":"administrative","location":[19.47858309287404,42.094310449999995],"bbox":[19.3849298,42.013916,19.573458,42.1336825],"inferred_type":"city"}
{"name":"Selitë","display_name":"Selitë, Bashkia Mirditë, Qarku i Lezhës, Shqipëria Veriore, 4604, Shqipëria","address":{"city":"Selitë","municipality":"Bashkia Mirditë","county":"Qarku i Lezhës","ISO3166-2-lvl6":"AL-08","state":"Shqipëria Veriore","postcode":"4604","country":"Shqipëria","country_code":"al"},"population":745,"osm_type":"relation","osm_id":1248925,"type":"administrative","location":[20.112197658789796,41.767905],"bbox":[20.0119652,41.7025416,20.1811653,41.828486],"inferred_type":"city"}
{"name":"Sevaster","display_name":"Sevaster, Bashkia Selenicë, Qarku i Vlorës, Shqipëria Jugore, 9410, Shqipëria","address":{"city":"Sevaster","municipality":"Bashkia Selenicë","county":"Qarku i Vlorës","ISO3166-2-lvl6":"AL-12","state":"Shqipëria Jugore","postcode":"9410","country":"Shqipëria","country_code":"al"},"population":1720,"osm_type":"relation","osm_id":1255536,"type":"administrative","location":[19.738969449230524,40.38222285],"bbox":[19.6698152,40.3119535,19.815937,40.4532602],"inferred_type":"city"}
{"name":"Shalë","other_names":{"name:sq":"Shalë","alt_name":"Njësia Administrative Shalë"},"display_name":"Shalë, Bashkia Shkodër, Qarku i Shkodrës, Shqipëria Veriore, Shqipëria","address":{"city":"Shalë","municipality":"Bashkia Shkodër","county":"Qarku i Shkodrës","ISO3166-2-lvl6":"AL-10","state":"Shqipëria Veriore","country":"Shqipëria","country_code":"al"},"population":1804,"osm_type":"relation","osm_id":1248283,"type":"administrative","location":[19.757584451775166,42.3659184],"bbox":[19.6944832,42.2444539,19.8469072,42.4875534],"inferred_type":"city"}
{"name":"Shkodër","other_names":{"name:ar":"شقودرة","name:az":"Şkoder","name:bg":"Шкодра","name:bs":"Skadar","name:cs":"Skadar","name:de":"Skutari","name:el":"Σκόδρα","name:en":"Shkoder","name:es":"Shkodër","name:fr":"Shkodër","name:he":"שקודר","name:hr":"Skadar","name:hu":"Skadar","name:it":"Scutari","name:ja":"シュコドラ","name:la":"Scodra","name:lt":"Škoderis","name:lv":"Škodra","name:mk":"Скадар","name:ml":"ഷ്കോഡർ","name:nl":"Shkodër","name:pl":"Szkodra","name:ru":"Шкодер","name:sh":"Skadar","name:sl":"Skader","name:sq":"Shkodër","name:sr":"Скадар","name:tr":"İşkodra","name:uk":"Шкодер","name:ur":"شکودر","name:zh":"斯库台","alt_name":"Shkodra","alt_name:tr":"İskenderiye","name:sr-Latn":"Skadar"},"display_name":"Shkodër, Bashkia Shkodër, Qarku i Shkodrës, Shqipëria Veriore, 4001-4007, Shqipëria","address":{"city":"Shkodër","municipality":"Bashkia Shkodër","county":"Qarku i Shkodrës","ISO3166-2-lvl6":"AL-10","state":"Shqipëria Veriore","postcode":"4001-4007","country":"Shqipëria","country_code":"al"},"population":96000,"osm_type":"node","osm_id":274122533,"type":"city","location":[19.5121437,42.0681371],"bbox":[19.3521437,41.9081371,19.6721437,42.2281371],"border":[{"name":"Qarku i Shkodrës","other_names":{"ref":"AL015","name:an":"Prefectura de Shkodër","name:ar":"مقاطعة شكودر","name:be":"Шкодэр","name:bg":"Шкодра (област)","name:br":"Shkodër (rannvro)","name:ca":"Comtat de Shkodër","name:cs":"Shkodër (kraj)","name:da":"Shkodër (amt)","name:de":"Qark Shkodra","name:el":"Νομός Σκόδρας","name:en":"Shkodër County","name:eo":"Provinco Shkodër","name:es":"Condado de Shkodër","name:et":"Shkodëri maakond","name:eu":"Shkodër konderria","name:fa":"شهرستان شکودر","name:fi":"Shkodërin maakunta","name:fr":"Préfecture de Shkodër","name:ga":"Contae Shkodër","name:gl":"Condado de Shkodër","name:hi":"श्कोडेर प्रांत","name:hr":"Skadarski okrug","name:hy":"Շկոդերի գավառ","name:it":"Prefettura di Scutari","name:ja":"シュコドラ州","name:kg":"Shkodër (kizunga)","name:ko":"슈코더르 주","name:lt":"Škoderio apskritis","name:mk":"Скадар (област)","name:nl":"Shkodër (prefectuur)","name:no":"Shkodër (region)","name:pl":"Obwód Szkodra","name:pt":"Escodra (prefeitura)","name:ro":"Regiunea Shkodër","name:ru":"Шкодер (область)","name:sh":"Skadarski okrug","name:sk":"Shkodër (kraj)","name:sq":"Qarku i Shkodrës","name:sr":"Округ Скадар","name:sv":"Shkodër prefektur","name:tl":"Kondado ng Shkodër","name:tr":"İşkodra ili","name:uk":"Шкодер (область)","name:ur":"صوبہ شکودر","name:vi":"Shkodër (hạt)","name:zh":"士科德州","name:ceb":"Qarku i Shkodrës","name:lmo":"Prefettura de Scutar","name:pnb":"صوبہ شکودر","name:sco":"Shkodër Coonty","name:war":"Shkodër (condado)","ISO3166-2":"AL-10","name:simple":"Shkodër County","name:sr-Latn":"Okrug Skadar","name:be-tarask":"Шкодер"},"display_name":"Qarku i Shkodrës, Shqipëria Veriore, Shqipëria","address":{"county":"Qarku i Shkodrës","ISO3166-2-lvl6":"AL-10","state":"Shqipëria Veriore","country":"Shqipëria","country_code":"al"},"population":215347,"osm_type":"relation","osm_id":1248293,"type":"administrative","location":[19.595972310041383,42.2507677],"bbox":[19.2808461,41.8402167,20.2482732,42.6610848]},{"name":"Shkodër","other_names":{"name:de":"Skutari","name:el":"Σκόδρα","name:hr":"Skadar","name:it":"Scutari","name:ku":"Şkodir","name:mk":"Скадар","name:nl":"Shkodër","name:pl":"Szkodra","name:ru":"Шкодер","name:sq":"Shkodër","name:sr":"Скадар","name:uk":"Шкодер","name:zh":"斯库台","alt_name":"Njësia Administrative Shkodër","name:ckb":"شکۆدر","name:ar":"شقودرة","name:az":"Şkoder","name:bg":"Шкодра","name:bs":"Skadar","name:cs":"Skadar","name:en":"Shkoder","name:es":"Shkodër","name:fr":"Shkodër","name:he":"שקודר","name:hu":"Skadar","name:ja":"シュコドラ","name:la":"Scodra","name:lt":"Škoderis","name:lv":"Škodra","name:ml":"ഷ്കോഡർ","name:sh":"Skadar","name:sl":"Skader","name:tr":"İşkodra","name:ur":"شکودر","_place_alt_name":"Shkodra","alt_name:tr":"İskenderiye","name:sr-Latn":"Skadar"},"display_name":"Shkodër, Bashkia Shkodër, Qarku i Shkodrës, Shqipëria Veriore, 4001-4007, Shqipëria","address":{"city":"Shkodër","municipality":"Bashkia Shkodër","county":"Qarku i Shkodrës","ISO3166-2-lvl6":"AL-10","state":"Shqipëria Veriore","postcode":"4001-4007","country":"Shqipëria","country_code":"al"},"population":77075,"osm_type":"relation","osm_id":1248301,"type":"administrative","location":[19.5121437,42.0681371],"bbox":[19.3767731,42.0333498,19.5379692,42.0939209]}]}
{"name":"Shkrel","display_name":"Shkrel, Bashkia Malësi e Madhe, Qarku i Shkodrës, Shqipëria Veriore, 4305, Shqipëria","address":{"city":"Shkrel","municipality":"Bashkia Malësi e Madhe","county":"Qarku i Shkodrës","ISO3166-2-lvl6":"AL-10","state":"Shqipëria Veriore","postcode":"4305","country":"Shqipëria","country_code":"al"},"population":3520,"osm_type":"relation","osm_id":1248280,"type":"administrative","location":[19.584958343554845,42.3090224],"bbox":[19.4542462,42.191835,19.710051,42.4257733],"inferred_type":"city"}
{"name":"Shosh","other_names":{"name:sq":"Shosh","alt_name":"Njësia Administrative Shosh"},"display_name":"Shosh, Bashkia Shkodër, Qarku i Shkodrës, Shqipëria Veriore, 4011, Shqipëria","address":{"city":"Shosh","municipality":"Bashkia Shkodër","county":"Qarku i Shkodrës","ISO3166-2-lvl6":"AL-10","state":"Shqipëria Veriore","postcode":"4011","country":"Shqipëria","country_code":"al"},"population":304,"osm_type":"relation","osm_id":1248266,"type":"administrative","location":[19.78537040505971,42.221777849999995],"bbox":[19.7178605,42.1790965,19.8475623,42.264256],"inferred_type":"city"}
{"name":"Skënderbegas","display_name":"Skënderbegas, Bashkia Gramsh, Qarku i Elbasanit, Shqipëria Qendrore, 3303, Shqipëria","address":{"city":"Skënderbegas","municipality":"Bashkia Gramsh","county":"Qarku i Elbasanit","ISO3166-2-lvl6":"AL-03","state":"Shqipëria Qendrore","postcode":"3303","country":"Shqipëria","country_code":"al"},"population":1239,"osm_type":"relation","osm_id":1250587,"type":"administrative","location":[20.25420334941257,40.77182745],"bbox":[20.18441,40.7068507,20.3315911,40.8366829],"inferred_type":"city"}
{"name":"Tiranë","other_names":{"name:af":"Tirana","name:am":"ቲራና","name:an":"Tirana","name:ar":"تيرانا","name:ay":"Tirana","name:az":"Tirana","name:ba":"Тирана","name:be":"Тырана","name:bg":"Тирана","name:bi":"Tirana","name:bm":"Tirana","name:bn":"তিরানা","name:bo":"ཐིས་རན།","name:br":"Tiranë","name:bs":"Tirana","name:ca":"Tirana","name:ce":"Тирана","name:ch":"Tirana","name:cs":"Tirana","name:cu":"Тирана","name:cv":"Тирана","name:cy":"Tirana","name:da":"Tirana","name:de":"Tirana","name:dv":"ޓިރާނާ","name:ee":"Tirana","name:el":"Τίρανα","name:en":"Tirana","name:eo":"Tirano","name:es":"Tirana","name:et":"Tirana","name:eu":"Tirana","name:fa":"تیرانا","name:ff":"Tirana","name:fi":"Tirana","name:fj":"Tirana","name:fo":"Tirana","name:fr":"Tirana","name:fy":"Tirana","name:ga":"Tiorána","name:gd":"Tirana","name:gl":"Tirana","name:gn":"Tirána","name:gv":"Tiranë","name:ha":"Tirana","name:he":"טירנה","name:hi":"तिराना","name:hr":"Tirana","name:ht":"Tirana","name:hu":"Tirana","name:hy":"Տիրանա","name:ia":"Tirana","name:id":"Tirana","name:ie":"Tirana","name:io":"Tirane","name:is":"Tírana","name:it":"Tirana","name:iu":"ᑎᕋᓇ","name:ja":"ティラナ","name:jv":"Tirana","name:ka":"ტირანა","name:kk":"Тирана","name:kl":"Tirana","name:km":"ទីរ៉ាណា","name:ko":"티라나","name:ks":"تِرانا","name:ku":"Tîrana","name:kv":"Тирана","name:kw":"Tirana","name:ky":"Тирана","name:la":"Theranda","name:lb":"Tirana","name:lg":"Tirana","name:li":"Tirana","name:ln":"Tirana","name:lo":"ທິຣານາ","name:lt":"Tirana","name:lv":"Tirāna","name:mg":"Tirana","name:mi":"Tirana","name:mk":"Тирана","name:ml":"ടിറാന","name:mn":"Тирана","name:mr":"तिराना","name:ms":"Tirana","name:mt":"Tirana","name:my":"တီရာနာမြို့","name:nb":"Tirana","name:ne":"टिराना","name:nl":"Tirana","name:nn":"Tirana","name:no":"Tirana","name:nv":"Dziłgaii Yaayí","name:ny":"Tirana","name:oc":"Tirana","name:or":"ଟିରାନା","name:os":"Тиранæ","name:pa":"ਤਿਰਾਨਾ","name:pl":"Tirana","name:ps":"تیرانا","name:pt":"Tirana","name:qu":"Tirana","name:rm":"Tirana","name:ro":"Tirana","name:ru":"Тирана","name:rw":"Tirana","name:sc":"Tirana","name:sd":"تيرانا","name:se":"Tirana","name:sk":"Tirana","name:sl":"Tirana","name:sm":"Tirana","name:sn":"Tirana","name:sr":"Тирана","name:sv":"Tirana","name:sw":"Tirana","name:ta":"டிரானா","name:tg":"Тирана","name:th":"ติรานา","name:ti":"ቲራና","name:tk":"Tirana","name:tl":"Tirana","name:tn":"Tirana","name:to":"Tilāna","name:tr":"Tiran","name:tt":"Тирана","name:tw":"Tirana","name:ty":"Tirana","name:ug":"Tirana","name:uk":"Тирана","name:ur":"تیرانا","name:uz":"Tirana","name:vi":"Tirana","name:vo":"Tirana","name:wa":"Tirana","name:wo":"Tirana","name:xh":"Tirana","name:yi":"טיראנא","name:yo":"Tirana","name:za":"Tirana","name:zh":"地拉那","name:zu":"ITirana","name:arz":"تيرانا","name:ast":"Tirana","name:ckb":"تیرانا","name:kab":"Tirana","name:mhr":"Тирана","name:pms":"Tiran-a","name:pnb":"تیرانا","name:sah":"Тирана","name:udm":"Тирана","name:vep":"Tiran","alt_name:gl":"Tiranë","name:bat-smg":"Tėrana","name:be-tarask":"Тырана"},"display_name":"Tiranë, Bashkia Tiranë, Qarku i Tiranës, Shqipëria Qendrore, Shqipëria","address":{"city":"Tiranë","municipality":"Bashkia Tiranë","county":"Qarku i Tiranës","ISO3166-2-lvl6":"AL-11","state":"Shqipëria Qendrore","country":"Shqipëria","country_code":"al"},"population":557422,"osm_type":"node","osm_id":1835254686,"type":"city","location":[19.8184435,41.3281482],"bbox":[19.6584435,41.1681482,19.9784435,41.4881482],"border":[{"name":"Qarku i Tiranës","other_names":{"ref":"AL022","name:an":"Prefectura de Tirana","name:ar":"مقاطعة تيرانا","name:be":"Тырана","name:bg":"Тирана (област)","name:br":"Tirana (rannvro)","name:ca":"Comtat de Tirana","name:cs":"Tiranë (kraj)","name:de":"Qark Tirana","name:el":"Νομός Τιράνων","name:en":"Tirana County","name:eo":"Provinco Tirano","name:es":"Condado de Tirana","name:et":"Tirana maakond","name:eu":"Tirana konderria","name:fa":"شهرستان تیرانا","name:fi":"Tiranan maakunta","name:fr":"Préfecture de Tirana","name:ga":"Contae Tiranë","name:gl":"Condado de Tirana","name:hi":"तिराना प्रांत","name:hr":"Tiranski okrug","name:hy":"Տիրանայի գավառ","name:it":"Prefettura di Tirana","name:ja":"ティラナ州","name:kg":"Tirana (kizunga)","name:ko":"티라나 주","name:lt":"Tiranos apskritis","name:mk":"Тирана (област)","name:nl":"Tirana (prefectuur)","name:no":"Tiranë (region)","name:pl":"Obwód Tirana","name:pt":"Tirana (prefeitura)","name:ro":"Regiunea Tirana","name:ru":"Тирана (область)","name:sk":"Tirana (kraj)","name:sq":"Qarku i Tiranës","name:sv":"Tiranë prefektur","name:th":"มณฑลติรานา","name:tl":"Kondado ng Tirana","name:tr":"Tiran ili","name:uk":"Тирана (область)","name:ur":"صوبہ تیرانا","name:vi":"Tirana (hạt)","name:zh":"地拉那州","name:ceb":"Qarku i Tiranës","name:lmo":"Prefettura de Tirana","name:pnb":"صوبہ تیرانا","name:sco":"Tirana Coonty","name:war":"Tirana (condado)","ISO3166-2":"AL-11","name:simple":"Tirana County","name:be-tarask":"Тырана"},"display_name":"Qarku i Tiranës, Shqipëria Qendrore, Shqipëria","address":{"county":"Qarku i Tiranës","ISO3166-2-lvl6":"AL-11","state":"Shqipëria Qendrore","country":"Shqipëria","country_code":"al"},"population":749365,"osm_type":"relation","osm_id":1250098,"type":"administrative","location":[19.83026563304424,41.25844775],"bbox":[19.4361252,41.0015696,20.2399515,41.5154043]},{"name":"Bashkia Tiranë","other_names":{"name:de":"Tirana","name:el":"Δήμος Τιράνων","name:en":"Tirana Municipality","name:fi":"Tirana","name:fr":"Tirana","name:it":"Tirana","name:mk":"Општина Тирана","name:ru":"Тирана","name:sq":"Bashkia Tiranë","name:ta":"டிரானா","alt_name:mk":"Општина Трнава"},"display_name":"Bashkia Tiranë, Qarku i Tiranës, Shqipëria Qendrore, Shqipëria","address":{"municipality":"Bashkia Tiranë","county":"Qarku i Tiranës","ISO3166-2-lvl6":"AL-11","state":"Shqipëria Qendrore","country":"Shqipëria","country_code":"al"},"population":557422,"osm_type":"relation","osm_id":1250113,"type":"administrative","location":[19.900912164461147,41.31588575],"bbox":[19.5865311,41.1160883,20.2399515,41.5154043]},{"name":"Tiranë","other_names":{"name:da":"Tirana","name:eo":"Tirano","name:fr":"Tirana","name:ku":"Tîrana","name:mk":"Тирана","name:pl":"Tirana","name:ru":"Тирана","name:sk":"Tirana","name:sq":"Tiranë","name:ckb":"تیرانا","alt_name:mk":"Трнава","name:af":"Tirana","name:am":"ቲራና","name:an":"Tirana","name:ar":"تيرانا","name:ay":"Tirana","name:az":"Tirana","name:ba":"Тирана","name:be":"Тырана","name:bg":"Тирана","name:bi":"Tirana","name:bm":"Tirana","name:bn":"তিরানা","name:bo":"ཐིས་རན།","name:br":"Tiranë","name:bs":"Tirana","name:ca":"Tirana","name:ce":"Тирана","name:ch":"Tirana","name:cs":"Tirana","name:cu":"Тирана","name:cv":"Тирана","name:cy":"Tirana","name:de":"Tirana","name:dv":"ޓިރާނާ","name:ee":"Tirana","name:el":"Τίρανα","name:en":"Tirana","name:es":"Tirana","name:et":"Tirana","name:eu":"Tirana","name:fa":"تیرانا","name:ff":"Tirana","name:fi":"Tirana","name:fj":"Tirana","name:fo":"Tirana","name:fy":"Tirana","name:ga":"Tiorána","name:gd":"Tirana","name:gl":"Tirana","name:gn":"Tirána","name:gv":"Tiranë","name:ha":"Tirana","name:he":"טירנה","name:hi":"तिराना","name:hr":"Tirana","name:ht":"Tirana","name:hu":"Tirana","name:hy":"Տիրանա","name:ia":"Tirana","name:id":"Tirana","name:ie":"Tirana","name:io":"Tirane","name:is":"Tírana","name:it":"Tirana","name:iu":"ᑎᕋᓇ","name:ja":"ティラナ","name:jv":"Tirana","name:ka":"ტირანა","name:kk":"Тирана","name:kl":"Tirana","name:km":"ទីរ៉ាណា","name:ko":"티라나","name:ks":"تِرانا","name:kv":"Тирана","name:kw":"Tirana","name:ky":"Тирана","name:la":"Theranda","name:lb":"Tirana","name:lg":"Tirana","name:li":"Tirana","name:ln":"Tirana","name:lo":"ທິຣານາ","name:lt":"Tirana","name:lv":"Tirāna","name:mg":"Tirana","name:mi":"Tirana","name:ml":"ടിറാന","name:mn":"Тирана","name:mr":"तिराना","name:ms":"Tirana","name:mt":"Tirana","name:my":"တီရာနာမြို့","name:nb":"Tirana","name:ne":"टिराना","name:nl":"Tirana","name:nn":"Tirana","name:no":"Tirana","name:nv":"Dziłgaii Yaayí","name:ny":"Tirana","name:oc":"Tirana","name:or":"ଟିରାନା","name:os":"Тиранæ","name:pa":"ਤਿਰਾਨਾ","name:ps":"تیرانا","name:pt":"Tirana","name:qu":"Tirana","name:rm":"Tirana","name:ro":"Tirana","name:rw":"Tirana","name:sc":"Tirana","name:sd":"تيرانا","name:se":"Tirana","name:sl":"Tirana","name:sm":"Tirana","name:sn":"Tirana","name:sr":"Тирана","name:sv":"Tirana","name:sw":"Tirana","name:ta":"டிரானா","name:tg":"Тирана","name:th":"ติรานา","name:ti":"ቲራና","name:tk":"Tirana","name:tl":"Tirana","name:tn":"Tirana","name:to":"Tilāna","name:tr":"Tiran","name:tt":"Тирана","name:tw":"Tirana","name:ty":"Tirana","name:ug":"Tirana","name:uk":"Тирана","name:ur":"تیرانا","name:uz":"Tirana","name:vi":"Tirana","name:vo":"Tirana","name:wa":"Tirana","name:wo":"Tirana","name:xh":"Tirana","name:yi":"טיראנא","name:yo":"Tirana","name:za":"Tirana","name:zh":"地拉那","name:zu":"ITirana","name:arz":"تيرانا","name:ast":"Tirana","name:kab":"Tirana","name:mhr":"Тирана","name:pms":"Tiran-a","name:pnb":"تیرانا","name:sah":"Тирана","name:udm":"Тирана","name:vep":"Tiran","alt_name:gl":"Tiranë","name:bat-smg":"Tėrana","name:be-tarask":"Тырана"},"display_name":"Tiranë, Bashkia Tiranë, Qarku i Tiranës, Shqipëria Qendrore, 1001-1028, Shqipëria","address":{"city":"Tiranë","municipality":"Bashkia Tiranë","county":"Qarku i Tiranës","ISO3166-2-lvl6":"AL-11","state":"Shqipëria Qendrore","postcode":"1001-1028","country":"Shqipëria","country_code":"al"},"population":557,"osm_type":"relation","osm_id":1250106,"type":"administrative","location":[19.8184435,41.3281482],"bbox":[19.7547343,41.2955352,19.876438,41.365853]}]}
{"name":"Vëndreshë","other_names":{"name:mk":"Вендреша","name:sq":"Vëndreshë"},"display_name":"Vëndreshë, Bashkia Skrapar, Qarku i Beratit, Shqipëria Jugore, 5409, Shqipëria","address":{"city":"Vëndreshë","municipality":"Bashkia Skrapar","county":"Qarku i Beratit","ISO3166-2-lvl6":"AL-01","state":"Shqipëria Jugore","postcode":"5409","country":"Shqipëria","country_code":"al"},"population":984,"osm_type":"relation","osm_id":1252298,"type":"administrative","location":[20.12071026344522,40.524163349999995],"bbox":[20.0679791,40.4667221,20.1643737,40.5817703],"inferred_type":"city"}
{"name":"Vlorë","other_names":{"name:al":"Vlorë","name:az":"Vlyora","name:be":"Влёра","name:bg":"Вльора","name:de":"Vlora","name:el":"Αυλώνας","name:en":"Vlora","name:eo":"Vlora","name:fa":"وِلوره","name:fr":"Vlora","name:it":"Valona","name:ja":"ヴロラ","name:ku":"Vlor","name:mk":"Валона","name:ml":"വ്ലിയോറ","name:pl":"Wlora","name:ro":"Vlorë","name:ru":"Влёра","name:sr":"Валона","name:tr":"Avlonya","name:uk":"Вльора","name:zh":"发罗拉","name:ckb":"ڤلۆر","old_name":"Vlorë"},"display_name":"Vlorë, Bashkia Vlorë, Qarku i Vlorës, Shqipëria Jugore, 9401, Shqipëria","address":{"city":"Vlorë","municipality":"Bashkia Vlorë","county":"Qarku i Vlorës","ISO3166-2-lvl6":"AL-12","state":"Shqipëria Jugore","postcode":"9401","country":"Shqipëria","country_code":"al"},"population":130827,"osm_type":"node","osm_id":33208756,"type":"city","location":[19.4912716,40.4707602],"bbox":[19.3312716,40.3107602,19.6512716,40.6307602],"border":[{"name":"Qarku i Vlorës","other_names":{"ref":"AL035","name:an":"Prefectura de Vlorë","name:ar":"مقاطعة فلوره","name:be":"Вобласць Влёра","name:bg":"Вльора (област)","name:br":"Vlorë (rannvro)","name:ca":"Comtat de Vlorë","name:cs":"Vlora (kraj)","name:de":"Qark Vlora","name:el":"Νομός Αυλώνα","name:en":"Vlorë County","name:eo":"Provinco Vlorë","name:es":"Condado de Vlorë","name:et":"Vlorë maakond","name:eu":"Vlorë konderria","name:fi":"Vlorën maakunta","name:fr":"Préfecture de Vlorë","name:ga":"Contae Vlorë","name:gl":"Condado de Vlorë","name:hi":"व्लोरे प्रांत","name:hr":"Vlorski okrug","name:hu":"Vlora megye","name:hy":"Վլյորայի գավառ","name:it":"Prefettura di Valona","name:ja":"ヴロラ州","name:ka":"ვლორის ოლქი","name:kg":"Vlorë (kizunga)","name:ko":"블로러 주","name:lt":"Vliorės apskritis","name:mk":"Валона (област)","name:nl":"Vlorë (prefectuur)","name:no":"Vlorë (region)","name:pl":"Obwód Wlora","name:pt":"Vlorë (prefeitura)","name:ro":"Regiunea Vlorë","name:ru":"Влёра (область)","name:sk":"Vlorë (kraj)","name:sq":"Qarku i Vlorës","name:sv":"Vlorë prefektur","name:tl":"Kondado ng Vlorë","name:tr":"Avlonya ili","name:uk":"Вльора (область)","name:ur":"صوبہ ولورہ","name:vi":"Vlorë (hạt)","name:zh":"夫羅勒州","name:ceb":"Qarku i Vlorës","name:lmo":"Prefettura de Valòna","name:pnb":"صوبہ ولورہ","name:sco":"Vlorë Coonty","name:war":"Vlorë (condado)","ISO3166-2":"AL-12","name:simple":"Vlorë County","name:be-tarask":"Влёра"},"display_name":"Qarku i Vlorës, Shqipëria Jugore, Shqipëria","address":{"county":"Qarku i Vlorës","ISO3166-2-lvl6":"AL-12","state":"Shqipëria Jugore","country":"Shqipëria","country_code":"al"},"population":175640,"osm_type":"relation","osm_id":1255521,"type":"administrative","location":[19.752180995095102,40.154212],"bbox":[19.2639861,39.6448625,20.3220807,40.6633606]},{"name":"Bashkia Vlorë","other_names":{"name:el":"Δήμος Αυλώνα","name:fr":"District de Vlora","name:ru":"Влёра","name:sq":"Bashkia Vlorë"},"display_name":"Bashkia Vlorë, Qarku i Vlorës, Shqipëria Jugore, Shqipëria","address":{"municipality":"Bashkia Vlorë","county":"Qarku i Vlorës","ISO3166-2-lvl6":"AL-12","state":"Shqipëria Jugore","country":"Shqipëria","country_code":"al"},"population":104827,"osm_type":"relation","osm_id":1255543,"type":"administrative","location":[19.329422149262285,40.417604],"bbox":[19.2639861,40.1717813,19.6332191,40.6633606]},{"name":"Vlorë","other_names":{"name:eo":"Vlora","name:fr":"Vlora","name:ku":"Vlor","name:mk":"Валона","name:nl":"Vlorë","name:pl":"Wlora","name:sq":"Vlorë","name:ckb":"ڤلۆر","name:al":"Vlorë","name:az":"Vlyora","name:be":"Влёра","name:bg":"Вльора","name:de":"Vlora","name:el":"Αυλώνας","name:en":"Vlora","name:fa":"وِلوره","name:it":"Valona","name:ja":"ヴロラ","name:ml":"വ്ലിയോറ","name:ro":"Vlorë","name:ru":"Влёра","name:sr":"Валона","name:tr":"Avlonya","name:uk":"Вльора","name:zh":"发罗拉","old_name":"Vlorë"},"display_name":"Vlorë, Bashkia Vlorë, Qarku i Vlorës, Shqipëria Jugore, 9401-9403, Shqipëria","address":{"city":"Vlorë","municipality":"Bashkia Vlorë","county":"Qarku i Vlorës","ISO3166-2-lvl6":"AL-12","state":"Shqipëria Jugore","postcode":"9401-9403","country":"Shqipëria","country_code":"al"},"population":79513,"osm_type":"relation","osm_id":1255534,"type":"administrative","location":[19.4912716,40.4707602],"bbox":[19.453504,40.4106409,19.5122003,40.4915068]}]}
{"name":"Vorë","other_names":{"name:ru":"Вора","name:sq":"Vorë"},"display_name":"Vorë, Bashkia Vorë, Qarku i Tiranës, Shqipëria Qendrore, 1032, Shqipëria","address":{"city":"Vorë","municipality":"Bashkia Vorë","county":"Qarku i Tiranës","ISO3166-2-lvl6":"AL-11","state":"Shqipëria Qendrore","postcode":"1032","country":"Shqipëria","country_code":"al"},"population":10901,"osm_type":"relation","osm_id":1250109,"type":"administrative","location":[19.65093016309565,41.37524585],"bbox":[19.6055776,41.3265654,19.6900685,41.4239432],"inferred_type":"city"}
{"name":"Xarrë","display_name":"Xarrë, Bashkia Konispol, Qarku i Vlorës, Shqipëria Jugore, 9707, Shqipëria","address":{"city":"Xarrë","municipality":"Bashkia Konispol","county":"Qarku i Vlorës","ISO3166-2-lvl6":"AL-12","state":"Shqipëria Jugore","postcode":"9707","country":"Shqipëria","country_code":"al"},"population":4263,"osm_type":"relation","osm_id":1255530,"type":"administrative","location":[20.059260235296783,39.7339566],"bbox":[19.9807259,39.6784237,20.1415923,39.7921443],"inferred_type":"city"}
{"name":"Zagorie","display_name":"Zagorie, Bashkia Libohovë, Qarku i Gjirokastrës, Shqipëria Jugore, Shqipëria","address":{"city":"Zagorie","municipality":"Bashkia Libohovë","county":"Qarku i Gjirokastrës","ISO3166-2-lvl6":"AL-05","state":"Shqipëria Jugore","country":"Shqipëria","country_code":"al"},"population":411,"osm_type":"relation","osm_id":1253916,"type":"administrative","location":[20.26441266107703,40.18351065],"bbox":[20.1587203,40.1148813,20.3571787,40.2511588],"inferred_type":"city"}
