{"name":"Aba","other_names":{"name:ar":"آبا","name:de":"Aba","name:en":"Aba","name:hu":"Aba","name:ko":"아바","name:lt":"Aba","name:pt":"Aba","name:ru":"Аба"},"display_name":"Aba, Aba South, Abia, Nigeria","address":{"city":"Aba","county":"Aba South","state":"Abia","ISO3166-2-lvl4":"NG-AB","country":"Nigeria","country_code":"ng"},"population":1020900,"osm_type":"node","osm_id":501517702,"type":"city","location":[7.3651376,5.1128008],"bbox":[7.2051376,4.9528008,7.5251376,5.2728008]}
{"name":"Abakaliki","other_names":{"name:en":"Abakaliki","name:hu":"Abakaliki","name:ko":"아바칼리키","name:la":"Abakalikium","name:lt":"Abakalikis","name:ru":"Абакалики","name:uk":"Абакалікі"},"display_name":"Abakaliki, Ebonyi, Nigeria","address":{"city":"Abakaliki","state":"Ebonyi","ISO3166-2-lvl4":"NG-EB","country":"Nigeria","country_code":"ng"},"osm_type":"node","osm_id":501540903,"type":"city","location":[8.1133202,6.3208897],"bbox":[7.9533202,6.1608897,8.2733202,6.4808897],"border":{"name":"Abakaliki","other_names":{"name:en":"Abakaliki","name:hu":"Abakaliki","name:ko":"아바칼리키","name:la":"Abakalikium","name:lt":"Abakalikis","name:ru":"Абакалики","name:uk":"Абакалікі"},"display_name":"Abakaliki, Ebonyi, Nigeria","address":{"city":"Abakaliki","state":"Ebonyi","ISO3166-2-lvl4":"NG-EB","country":"Nigeria","country_code":"ng"},"osm_type":"relation","osm_id":3717072,"type":"administrative","location":[8.1133202,6.3208897],"bbox":[8.0374708,6.1702991,8.4180002,6.3524184]}}
{"name":"Abeokuta","other_names":{"name:ar":"أبيوكوتا","name:de":"Abeokuta","name:en":"Abeokuta","name:ko":"아베오쿠타","name:ru":"Абеокута","name:uk":"Абеокута","name:yo":"Abẹ́òkúta","name:zh":"阿贝奥库塔"},"display_name":"Abeokuta, Abeokuta South, Ogun, 111101, Nigeria","address":{"city":"Abeokuta","county":"Abeokuta South","state":"Ogun","ISO3166-2-lvl4":"NG-OG","postcode":"111101","country":"Nigeria","country_code":"ng"},"population":888924,"osm_type":"node","osm_id":27565109,"type":"city","location":[3.348,7.161],"bbox":[3.188,7.001,3.508,7.321]}
{"name":"Abuja","other_names":{"name:am":"አቡጃ","name:ar":"أبوجا","name:az":"Abuca","name:ba":"Абуджа","name:be":"Абуджа","name:bg":"Абуджа","name:bm":"Abuza","name:bn":"আবুজা","name:bo":"ཨ་པུ་ཅ།","name:br":"Abuja","name:ca":"Abuja","name:ce":"Абуджа","name:cv":"Абуджа","name:de":"Abuja","name:el":"Αμπούζα","name:en":"Abuja","name:eo":"Abuĝo","name:es":"Abuya","name:eu":"Abuja","name:fa":"آبوجا","name:ff":"FCT","name:fi":"Abuja","name:fr":"Abuja","name:gn":"Avúja","name:he":"אבוג'ה","name:hi":"अबुजा","name:hr":"Abuja","name:ht":"Abouja","name:hu":"Abuja","name:hy":"Աբուջա","name:id":"Abuja","name:is":"Abútja","name:ja":"アブジャ","name:ka":"აბუჯა","name:kk":"Абуджа","name:kn":"ಅಬುಜಾ","name:ko":"아부자","name:ks":"اَبُجا","name:ku":"Ebuca","name:ky":"Абужа","name:la":"Abugia","name:lt":"Abudža","name:lv":"Abudža","name:mk":"Абуџа","name:ml":"അബുജ","name:mn":"Абужа","name:mr":"अबुजा","name:my":"အဘူဂျာမြို့","name:ne":"अबुजा","name:nv":"Tsétsoh Dijoolí","name:oc":"Abuja","name:or":"ଅବୁଜା","name:os":"Абуджа","name:pa":"ਅਬੁਜਾ","name:pl":"Abudża","name:ps":"آبوجا","name:ro":"Abuja","name:ru":"Абуджа","name:sd":"ابوجا","name:sl":"Abuja","name:sq":"Abuxha","name:sr":"Абуџа","name:sv":"Abuja","name:ta":"அபுஜா","name:te":"అబ్యూజా","name:tg":"Абуҷа","name:th":"อาบูจา","name:tr":"Abuja","name:uk":"Абуджа","name:ur":"ابوجا","name:yi":"אבודזשא","name:yo":"Abùjá","name:zh":"阿布贾","name:ckb":"ئەبوجا","name:kab":"Abuja","name:mrj":"Абуджа","name:pnb":"ابوجا","name:udm":"Абуджа","name:bat-smg":"Abodža"},"display_name":"Abuja, Municipal Area Council, Federal Capital Territory, 223140, Nigeria","address":{"city":"Abuja","county":"Municipal Area Council","state":"Federal Capital Territory","ISO3166-2-lvl4":"NG-FC","postcode":"223140","country":"Nigeria","country_code":"ng"},"population":776298,"osm_type":"node","osm_id":31203257,"type":"city","location":[7.4892974,9.0643305],"bbox":[7.3292974,8.9043305,7.6492974,9.2243305]}
{"name":"Ado Ekiti","other_names":{"name:ar":"آدو إكيتي","name:de":"Ado Ekiti","name:ko":"아도에키티","name:ru":"Адо-Экити","name:uk":"Адо-Екіті","name:yo":"Adó Èkìtì"},"display_name":"Ado Ekiti, Adó-Èkìtì, Ekiti, Nigeria","address":{"city":"Ado Ekiti","state":"Ekiti","ISO3166-2-lvl4":"NG-EK","country":"Nigeria","country_code":"ng"},"population":446749,"osm_type":"node","osm_id":501540913,"type":"city","location":[5.22274,7.6232482],"bbox":[5.06274,7.4632482,5.38274,7.7832482],"border":{"name":"Adó-Èkìtì","other_names":{"name:ar":"آدو إكيتي","name:en":"Ado-Ekiti","name:yo":"Adó-Èkìtì","name:de":"Ado Ekiti","name:ko":"아도에키티","name:ru":"Адо-Экити","name:uk":"Адо-Екіті","alt":"Ado Ekiti","alt:yo":"Adó Èkìtì"},"display_name":"Adó-Èkìtì, Ekiti, Nigeria","address":{"city":"Adó-Èkìtì","state":"Ekiti","ISO3166-2-lvl4":"NG-EK","country":"Nigeria","country_code":"ng"},"population":446749,"osm_type":"relation","osm_id":3717155,"type":"administrative","location":[5.22274,7.6232482],"bbox":[5.1064386,7.5372453,5.3992829,7.6742396]}}
{"name":"Afikpo","other_names":{"name:en":"Afikpo","alt_name":"Ehugbo"},"display_name":"Afikpo, Afikpo North, Ebonyi, Nigeria","address":{"city":"Afikpo","county":"Afikpo North","state":"Ebonyi","ISO3166-2-lvl4":"NG-EB","country":"Nigeria","country_code":"ng"},"population":0,"osm_type":"node","osm_id":501493222,"type":"city","location":[7.9372068,5.8837902],"bbox":[7.7772068,5.7237902,8.0972068,6.0437902]}
{"name":"Akure","other_names":{"name:ar":"أكوري","name:de":"Akure","name:en":"Akure","name:ko":"아쿠레","name:ru":"Акуре","name:uk":"Акуре","name:yo":"Àkúrẹ́"},"display_name":"Akure, Akure South, Ondo, 340021, Nigeria","address":{"city":"Akure","county":"Akure South","state":"Ondo","ISO3166-2-lvl4":"NG-ON","postcode":"340021","country":"Nigeria","country_code":"ng"},"population":387087,"osm_type":"node","osm_id":501540926,"type":"city","location":[5.1932647,7.2525595],"bbox":[5.0332647,7.0925595,5.3532647,7.4125595]}
{"name":"Arkilla","other_names":{"name:ar":"أركلا","name:en":"Arkilla","name:ha":"Abbaty 2pac"},"display_name":"Arkilla, Sokoto, Nigeria","address":{"city":"Arkilla","state":"Sokoto","ISO3166-2-lvl4":"NG-SO","country":"Nigeria","country_code":"ng"},"osm_type":"relation","osm_id":3707395,"type":"administrative","location":[5.21374619846083,13.02305165],"bbox":[5.1821779,12.9909208,5.2474,13.0528306],"inferred_type":"city"}
{"name":"Asaba","other_names":{"name:en":"Asaba","name:ru":"Асаба","name:uk":"Асаба"},"display_name":"Asaba, Oshimili South, Delta, Nigeria","address":{"city":"Asaba","county":"Oshimili South","state":"Delta","ISO3166-2-lvl4":"NG-DE","country":"Nigeria","country_code":"ng"},"population":149603,"osm_type":"node","osm_id":501540929,"type":"city","location":[6.7297071,6.1858825],"bbox":[6.5697071,6.0258825,6.8897071,6.3458825]}
{"name":"Awe","display_name":"Awe, Nasarawa, Nigeria","address":{"city":"Awe","county":"Awe","state":"Nasarawa","ISO3166-2-lvl4":"NG-NA","country":"Nigeria","country_code":"ng"},"osm_type":"node","osm_id":9643470157,"type":"city","location":[9.1463713,8.1118123],"bbox":[8.9863713,7.9518123,9.3063713,8.2718123],"border":{"name":"Awe","display_name":"Awe, Nasarawa, Nigeria","address":{"county":"Awe","state":"Nasarawa","ISO3166-2-lvl4":"NG-NA","country":"Nigeria","country_code":"ng"},"osm_type":"relation","osm_id":3720497,"type":"administrative","location":[9.160923656012685,8.2167306],"bbox":[8.9421272,7.9080834,9.622797,8.5228853]}}
{"name":"Awka","other_names":{"name:ar":"أوكا","name:en":"Awka","name:ko":"아우카","name:ru":"Авка"},"display_name":"Awka, Awka South, Anambra, 420108, Nigeria","address":{"city":"Awka","county":"Awka South","state":"Anambra","ISO3166-2-lvl4":"NG-AN","postcode":"420108","country":"Nigeria","country_code":"ng"},"population":301657,"osm_type":"node","osm_id":501540935,"type":"city","location":[7.0774372,6.218947],"bbox":[6.9174372,6.058947,7.2374372,6.378947]}
{"name":"Bauchi","other_names":{"name:ar":"بوتشي","name:en":"Bauchi","name:ko":"바우치","name:pl":"Bauczi","name:ru":"Баучи","name:uk":"Баучі"},"display_name":"Bauchi, Nigeria","address":{"city":"Bauchi","town":"Bauchi","state":"Bauchi","ISO3166-2-lvl4":"NG-BA","country":"Nigeria","country_code":"ng"},"population":316173,"osm_type":"node","osm_id":255425308,"type":"city","location":[9.8454417,10.3147618],"bbox":[9.6854417,10.1547618,10.0054417,10.4747618],"border":{"name":"Bauchi","other_names":{"name:ar":"بوتشي","name:en":"Bauchi"},"display_name":"Bauchi, 740102, Nigeria","address":{"town":"Bauchi","state":"Bauchi","ISO3166-2-lvl4":"NG-BA","postcode":"740102","country":"Nigeria","country_code":"ng"},"osm_type":"relation","osm_id":3722235,"type":"administrative","location":[9.8410189,10.3168749],"bbox":[9.6095257,9.8953012,10.2775332,10.6115281]}}
{"name":"Benin City","other_names":{"name:af":"Benin-stad","name:ar":"مدينة بنين","name:be":"Бенін-Сіці","name:bg":"Бенин","name:de":"Benin-Stadt","name:en":"Benin City","name:eo":"Beninurbo","name:es":"Ciudad de Benín","name:fa":"شهر بنین","name:fr":"Benin City","name:ha":"Benin City","name:he":"בנין סיטי","name:hi":"बेनिन शहर","name:hy":"Բենին Սիթի","name:id":"Kota Benin","name:ig":"Obodo Benin","name:is":"Benínborg","name:ja":"ベニンシティ","name:ka":"ბენინ-სითი","name:ko":"베닌시티","name:la":"Beninum","name:lt":"Beninas","name:ml":"ബെനിൻ നഗരം","name:mr":"बेनिन सिटी","name:os":"Бенин-Сити","name:pa":"ਬੇਨਿਨ ਸ਼ਹਿਰ","name:pl":"Benin","name:pt":"Cidade do Benim","name:ru":"Бенин-Сити","name:sq":"Benin","name:sw":"Mji wa Benin","name:ta":"பெனின் நகரம்","name:th":"เบนินซิตี","name:uk":"Бенін-Сіті","name:ur":"بینن شہر","name:uz":"Benin-siti","name:vi":"Thành phố Benin","name:yo":"Ìlú Benin","name:zh":"贝宁城","alt_name:eo":"Benin-urbo","alt_name:fr":"Ville de Bénin"},"display_name":"Benin City, Oredo, Edo, 300241, Nigeria","address":{"city":"Benin City","county":"Oredo","state":"Edo","ISO3166-2-lvl4":"NG-ED","postcode":"300241","country":"Nigeria","country_code":"ng"},"population":1147188,"osm_type":"node","osm_id":2149000430,"type":"city","location":[5.6221058,6.3330586],"bbox":[5.4621058,6.1730586,5.7821058,6.4930586]}
{"name":"Bida","other_names":{"name:ru":"Бида"},"display_name":"Bida, Niger, Nigeria","address":{"city":"Bida","state":"Niger","ISO3166-2-lvl4":"NG-NI","country":"Nigeria","country_code":"ng"},"osm_type":"node","osm_id":501517317,"type":"city","location":[6.016667,9.083333],"bbox":[5.856667,8.923333,6.176667,9.243333],"border":{"name":"Bida","other_names":{"name:en":"Bida","name:ru":"Бида"},"display_name":"Bida, Niger, Nigeria","address":{"city":"Bida","state":"Niger","ISO3166-2-lvl4":"NG-NI","country":"Nigeria","country_code":"ng"},"osm_type":"relation","osm_id":3718387,"type":"administrative","location":[6.016667,9.083333],"bbox":[5.972456,9.0626327,6.0588622,9.1375284]}}
{"name":"Biu","display_name":"Biu, Borno, Nigeria","address":{"city":"Biu","state":"Borno","ISO3166-2-lvl4":"NG-BO","country":"Nigeria","country_code":"ng"},"osm_type":"node","osm_id":501493596,"type":"city","location":[12.1909612,10.6146098],"bbox":[12.0309612,10.4546098,12.3509612,10.7746098],"border":{"name":"Biu","display_name":"Biu, Borno, 603231, Nigeria","address":{"city":"Biu","state":"Borno","ISO3166-2-lvl4":"NG-BO","postcode":"603231","country":"Nigeria","country_code":"ng"},"osm_type":"relation","osm_id":3721172,"type":"administrative","location":[12.1909612,10.6146098],"bbox":[11.632145,10.5633193,12.4647382,11.1195376]}}
{"name":"Calabar","other_names":{"name:ar":"كالابار","name:en":"Calabar","name:ko":"칼라바르","name:ru":"Калабар","name:uk":"Калабар"},"display_name":"Calabar, Calabar Municipal, Cross River, 540281, Nigeria","address":{"city":"Calabar","county":"Calabar Municipal","state":"Cross River","ISO3166-2-lvl4":"NG-CR","postcode":"540281","country":"Nigeria","country_code":"ng"},"population":371022,"osm_type":"node","osm_id":251608378,"type":"city","location":[8.3373597,4.9795999],"bbox":[8.1773597,4.8195999,8.4973597,5.1395999]}
{"name":"Doma","display_name":"Doma, Nasarawa, Nigeria","address":{"city":"Doma","state":"Nasarawa","ISO3166-2-lvl4":"NG-NA","country":"Nigeria","country_code":"ng"},"population":214,"osm_type":"node","osm_id":12320707853,"type":"city","location":[8.3565453,8.3922968],"bbox":[8.1965453,8.2322968,8.5165453,8.5522968],"border":{"name":"Doma","display_name":"Doma, Nasarawa, Nigeria","address":{"city":"Doma","state":"Nasarawa","ISO3166-2-lvl4":"NG-NA","country":"Nigeria","country_code":"ng"},"population":214,"osm_type":"relation","osm_id":3720498,"type":"administrative","location":[8.3565453,8.3922968],"bbox":[8.0477066,7.7661829,8.5209169,8.5523205]}}
{"name":"Effurun","other_names":{"name:en":"Effurun","alt_name":"Efferun"},"display_name":"Effurun, Uvwie, Delta, 320242, Nigeria","address":{"city":"Effurun","county":"Uvwie","state":"Delta","ISO3166-2-lvl4":"NG-DE","postcode":"320242","country":"Nigeria","country_code":"ng"},"population":120000,"osm_type":"node","osm_id":501462908,"type":"city","location":[5.7850099,5.5555007],"bbox":[5.6250099,5.3955007,5.9450099,5.7155007]}
{"name":"Ejigbo","display_name":"Ejigbo, Osun, Nigeria","address":{"city":"Ejigbo","state":"Osun","ISO3166-2-lvl4":"NG-OS","country":"Nigeria","country_code":"ng"},"osm_type":"node","osm_id":501429659,"type":"city","location":[4.3167086,7.8999894],"bbox":[4.1567086,7.7399894,4.4767086,8.0599894],"border":{"name":"Ejigbo","other_names":{"name:en":"Ejigbo","name:yo":"Èjìgbò"},"display_name":"Ejigbo, Osun, 232118, Nigeria","address":{"city":"Ejigbo","state":"Osun","ISO3166-2-lvl4":"NG-OS","postcode":"232118","country":"Nigeria","country_code":"ng"},"osm_type":"relation","osm_id":3718730,"type":"administrative","location":[4.3167086,7.8999894],"bbox":[4.0724916,7.6525364,4.3672853,7.9712286]}}
{"name":"Enugu","other_names":{"name:ar":"إنوغو","name:en":"Enugu","name:ko":"에누구","name:ru":"Энугу","name:uk":"Енугу"},"display_name":"Enugu, Enugu North, Enugu, 400102, Nigeria","address":{"city":"Enugu","county":"Enugu North","state":"Enugu","ISO3166-2-lvl4":"NG-EN","postcode":"400102","country":"Nigeria","country_code":"ng"},"population":722664,"osm_type":"node","osm_id":27565107,"type":"city","location":[7.5000007,6.4499833],"bbox":[7.3400007,6.2899833,7.6600007,6.6099833]}
{"name":"Gashua","other_names":{"name:en":"Gashua","name:ru":"Гашуа"},"display_name":"Gashua, Lawan Fannami, Barde, Yobe, Nigeria","address":{"city":"Gashua","county":"Barde","state":"Yobe","ISO3166-2-lvl4":"NG-YO","country":"Nigeria","country_code":"ng"},"osm_type":"node","osm_id":501331784,"type":"city","location":[11.0387809,12.8728546],"bbox":[10.8787809,12.7128546,11.1987809,13.0328546]}
{"name":"Geidam","display_name":"Geidam, Yobe, Nigeria","address":{"city":"Geidam","state":"Yobe","ISO3166-2-lvl4":"NG-YO","country":"Nigeria","country_code":"ng"},"osm_type":"node","osm_id":501464391,"type":"city","location":[11.9264702,12.8952043],"bbox":[11.7664702,12.7352043,12.0864702,13.0552043],"border":{"name":"Geidam","display_name":"Geidam, Yobe, Nigeria","address":{"city":"Geidam","state":"Yobe","ISO3166-2-lvl4":"NG-YO","country":"Nigeria","country_code":"ng"},"osm_type":"relation","osm_id":3698571,"type":"administrative","location":[11.9264702,12.8952043],"bbox":[11.6610892,12.3663503,12.5039215,13.0257633]}}
{"name":"Guri","display_name":"Guri, Jigawa, Nigeria","address":{"city":"Guri","state":"Jigawa","ISO3166-2-lvl4":"NG-JI","country":"Nigeria","country_code":"ng"},"osm_type":"node","osm_id":501430762,"type":"city","location":[10.4197948,12.7284315],"bbox":[10.2597948,12.5684315,10.5797948,12.8884315],"border":[{"name":"Guri","display_name":"Guri, Jigawa, Nigeria","address":{"city":"Guri","state":"Jigawa","ISO3166-2-lvl4":"NG-JI","country":"Nigeria","country_code":"ng"},"osm_type":"relation","osm_id":3703246,"type":"administrative","location":[10.4197948,12.7284315],"bbox":[10.3105542,12.4239302,10.6020814,12.8537264]},{"name":"Guri","display_name":"Guri, Jigawa, Nigeria","address":{"city_district":"Guri","city":"Guri","state":"Jigawa","ISO3166-2-lvl4":"NG-JI","country":"Nigeria","country_code":"ng"},"osm_type":"relation","osm_id":3703373,"type":"administrative","location":[10.409233943085233,12.705938750000001],"bbox":[10.3584707,12.6770797,10.4675738,12.7375551]}]}
{"name":"Hadejia","other_names":{"name:en":"Hadejia","name:lt":"Hadedžija"},"display_name":"Hadejia, Jigawa, Nigeria","address":{"city":"Hadejia","state":"Jigawa","ISO3166-2-lvl4":"NG-JI","country":"Nigeria","country_code":"ng"},"osm_type":"node","osm_id":501430512,"type":"city","location":[10.0418934,12.4526098],"bbox":[9.8818934,12.2926098,10.2018934,12.6126098],"border":{"name":"Hadejia","other_names":{"name:en":"Hadejia","name:lt":"Hadedžija"},"display_name":"Hadejia, Jigawa, Nigeria","address":{"city":"Hadejia","state":"Jigawa","ISO3166-2-lvl4":"NG-JI","country":"Nigeria","country_code":"ng"},"osm_type":"relation","osm_id":3703249,"type":"administrative","location":[10.0418934,12.4526098],"bbox":[10.0162036,12.4296282,10.0830931,12.4825356]}}
{"name":"Hizhibwala","other_names":{"name:en":"Hizhibwala","alt_name":"Hizi Bwala"},"display_name":"Hizhibwala, Hawul, Borno, Nigeria","address":{"city":"Hizhibwala","county":"Hawul","state":"Borno","ISO3166-2-lvl4":"NG-BO","country":"Nigeria","country_code":"ng"},"osm_type":"relation","osm_id":3721329,"type":"administrative","location":[12.311340320677614,10.529033649999999],"bbox":[12.2846586,10.4675018,12.3835763,10.5962296],"inferred_type":"city"}
{"name":"Hoyo Chingowa","other_names":{"name:en":"Hoyo Chingowa","alt_name":"Koyo Chingowa"},"display_name":"Hoyo Chingowa, Magumeri, Borno, Nigeria","address":{"city":"Hoyo Chingowa","county":"Magumeri","state":"Borno","ISO3166-2-lvl4":"NG-BO","country":"Nigeria","country_code":"ng"},"osm_type":"relation","osm_id":3721330,"type":"administrative","location":[12.946122981818997,12.0187421],"bbox":[12.8150445,11.9075586,13.0664692,12.1294672],"inferred_type":"city"}
{"name":"Ìbàdàn","other_names":{"name:af":"Ibadan","name:ar":"إبادان","name:az":"İbadan","name:be":"Ібадан","name:bg":"Ибадан","name:ca":"Ibadan","name:ce":"Ибадан","name:cs":"Ibadan","name:cy":"Ibadan","name:da":"Ibadan","name:de":"Ibadan","name:el":"Ιμπαντάν","name:en":"Ibadan","name:eo":"Ibadano","name:es":"Ibadán","name:et":"Ibadan","name:eu":"Ibadan","name:fa":"ایبادان","name:fi":"Ibadan","name:fr":"Ibadan","name:gd":"Ibadan","name:gl":"Ibadan","name:ha":"Ibadan","name:he":"איבדאן","name:hi":"इबादान","name:hr":"Ibadan","name:hu":"Ibadan","name:hy":"Իբադան","name:id":"Ibadan","name:ig":"Ibadan","name:io":"Ibadan","name:it":"Ibadan","name:ja":"イバダン","name:ka":"იბადანი","name:ko":"이바단","name:ky":"Ибадан","name:lt":"Ibadanas","name:lv":"Ibadana","name:mg":"Ibadan","name:mk":"Ибадан","name:nb":"Ibadan","name:nl":"Ibadan","name:oc":"Ibadan","name:os":"Ибадан","name:pa":"ਇਬਾਦਾਨ","name:pl":"Ibadan","name:pt":"Ibadã","name:ro":"Ibadan","name:ru":"Ибадан","name:sk":"Ibadan","name:sl":"Ibadan","name:sn":"Ibadan","name:sr":"Ибадан","name:sv":"Ibadan","name:sw":"Ibadan","name:tg":"Ибодон","name:th":"อีบาดัน","name:tl":"Ibadan","name:tr":"İbadan","name:uk":"Ібадан","name:ur":"ابادان","name:uz":"Ibadan","name:yo":"Ìbàdàn","name:zh":"伊巴丹"},"display_name":"Ìbàdàn, Ibadan South West, Oyo, 234102, Nigeria","address":{"city":"Ìbàdàn","county":"Ibadan South West","state":"Oyo","ISO3166-2-lvl4":"NG-OY","postcode":"234102","country":"Nigeria","country_code":"ng"},"population":3034200,"osm_type":"node","osm_id":27565066,"type":"city","location":[3.8969928,7.3786064],"bbox":[3.7369928,7.2186064,4.0569928,7.5386064]}
{"name":"Ifẹ̀","other_names":{"name:ar":"إيف","name:de":"Ile-Ife","name:en":"Ife","name:ko":"이페","name:ru":"Ифе","name:yo":"Ifẹ̀"},"display_name":"Ifẹ̀, Ife Central, Osun, 220282, Nigeria","address":{"city":"Ifẹ̀","county":"Ife Central","state":"Osun","ISO3166-2-lvl4":"NG-OS","postcode":"220282","country":"Nigeria","country_code":"ng"},"population":501952,"osm_type":"node","osm_id":501485612,"type":"city","location":[4.5604451,7.482824],"bbox":[4.4004451,7.322824,4.7204451,7.642824]}
{"name":"Ijagbo Offa","other_names":{"name:ar":"إيجاغبو أفا","alt_name:ar":"إيجاغبو أوفا"},"display_name":"Ijagbo Offa, Offa, Kwara, Nigeria","address":{"city":"Ijagbo Offa","state":"Kwara","ISO3166-2-lvl4":"NG-KW","country":"Nigeria","country_code":"ng"},"population":90000,"osm_type":"node","osm_id":501520228,"type":"city","location":[4.7227435,8.1560008],"bbox":[4.5627435,7.9960008,4.8827435,8.3160008],"border":{"name":"Offa","other_names":{"name:ar":"أفا","name:en":"Offa","alt_name:ar":"إيجاغبو أوفا","alt":"Ijagbo Offa","alt:ar":"إيجاغبو أفا"},"display_name":"Offa, Kwara, 250101, Nigeria","address":{"city":"Offa","state":"Kwara","ISO3166-2-lvl4":"NG-KW","postcode":"250101","country":"Nigeria","country_code":"ng"},"population":90000,"osm_type":"relation","osm_id":3718103,"type":"administrative","location":[4.7227435,8.1560008],"bbox":[4.6212535,8.1080141,4.7465606,8.2174435]}}
{"name":"Ijebu-Ode","other_names":{"name:yo":"Ìjẹ̀bú-Òde"},"display_name":"Ijebu-Ode, Ìjẹ̀bú Òde, Ogun, Nigeria","address":{"city":"Ijebu-Ode","state":"Ogun","ISO3166-2-lvl4":"NG-OG","country":"Nigeria","country_code":"ng"},"osm_type":"node","osm_id":501496491,"type":"city","location":[3.9151668,6.8140077],"bbox":[3.7551668,6.6540077,4.0751668,6.9740077],"border":{"name":"Ìjẹ̀bú Òde","other_names":{"name:en":"Ijebu Ode","name:yo":"Ìjẹ̀bú Òde","alt":"Ijebu-Ode","alt:yo":"Ìjẹ̀bú-Òde"},"display_name":"Ìjẹ̀bú Òde, Ogun, Nigeria","address":{"city":"Ìjẹ̀bú Òde","state":"Ogun","ISO3166-2-lvl4":"NG-OG","country":"Nigeria","country_code":"ng"},"osm_type":"relation","osm_id":3718474,"type":"administrative","location":[3.9151668,6.8140077],"bbox":[3.8985653,6.679123,4.0785592,6.8916478]}}
{"name":"Ikeja","other_names":{"name:de":"Ikeja","name:ru":"Икеджа"},"display_name":"Ikeja, Lagos, Nigeria","address":{"city":"Ikeja","state":"Lagos","ISO3166-2-lvl4":"NG-LA","country":"Nigeria","country_code":"ng"},"population":861300,"osm_type":"node","osm_id":501540907,"type":"city","location":[3.340787,6.5960605],"bbox":[3.180787,6.4360605,3.500787,6.7560605],"border":{"name":"Ikeja","other_names":{"name:en":"Ikeja","name:de":"Ikeja","name:ru":"Икеджа"},"display_name":"Ikeja, Lagos, Nigeria","address":{"city":"Ikeja","state":"Lagos","ISO3166-2-lvl4":"NG-LA","country":"Nigeria","country_code":"ng"},"population":861300,"osm_type":"relation","osm_id":3718193,"type":"administrative","location":[3.340787,6.5960605],"bbox":[3.3101247,6.5509516,3.3831906,6.6587736]}}
{"name":"Ikorodu","other_names":{"name:ar":"إكورودو","name:bg":"Икороду","name:de":"Ikorodu","name:ru":"Икороду"},"display_name":"Ikorodu, Ìkòròdú, Lagos, Nigeria","address":{"city":"Ikorodu","state":"Lagos","ISO3166-2-lvl4":"NG-LA","country":"Nigeria","country_code":"ng"},"population":535619,"osm_type":"node","osm_id":501483970,"type":"city","location":[3.5041271,6.6191233],"bbox":[3.3441271,6.4591233,3.6641271,6.7791233],"border":{"name":"Ìkòròdú","other_names":{"name:ar":"إكورودو","name:en":"Ikorodu","name:yo":"Ìkòròdú","name:bg":"Икороду","name:de":"Ikorodu","name:ru":"Икороду","alt":"Ikorodu"},"display_name":"Ìkòròdú, Lagos, Nigeria","address":{"city":"Ìkòròdú","state":"Lagos","ISO3166-2-lvl4":"NG-LA","country":"Nigeria","country_code":"ng"},"population":535619,"osm_type":"relation","osm_id":3718194,"type":"administrative","location":[3.5041271,6.6191233],"bbox":[3.4343681,6.5243659,3.7046592,6.6854755]}}
{"name":"Ikot Ekpene","display_name":"Ikot Ekpene, Akwa Ibom, Nigeria","address":{"city":"Ikot Ekpene","state":"Akwa Ibom","ISO3166-2-lvl4":"NG-AK","country":"Nigeria","country_code":"ng"},"osm_type":"node","osm_id":501516317,"type":"city","location":[7.7132177,5.181975],"bbox":[7.5532177,5.021975,7.8732177,5.341975],"border":{"name":"Ikot Ekpene","display_name":"Ikot Ekpene, Akwa Ibom, 530001, Nigeria","address":{"city":"Ikot Ekpene","state":"Akwa Ibom","ISO3166-2-lvl4":"NG-AK","postcode":"530001","country":"Nigeria","country_code":"ng"},"osm_type":"relation","osm_id":3715373,"type":"administrative","location":[7.7132177,5.181975],"bbox":[7.650907,5.1305599,7.7641888,5.2711081]}}
{"name":"Iléṣà","other_names":{"name:ar":"إليشا","name:de":"Ilesha","name:en":"Ilesa","name:fr":"Ilesha","name:yo":"Iléṣà"},"display_name":"Iléṣà, Ilesha West, Osun, Nigeria","address":{"city":"Iléṣà","county":"Ilesha West","state":"Osun","ISO3166-2-lvl4":"NG-OS","country":"Nigeria","country_code":"ng"},"population":277904,"osm_type":"node","osm_id":501487119,"type":"city","location":[4.7414655,7.6245894],"bbox":[4.5814655,7.4645894,4.9014655,7.7845894]}
{"name":"Ìlọrin","other_names":{"name:ar":"إلورين","name:de":"Ilorin","name:en":"Ilorin","name:ko":"일로린","name:ru":"Илорин","name:uk":"Ілорін","name:yo":"Ìlọrin"},"display_name":"Ìlọrin, Ilorin East, Kwara, 240212, Nigeria","address":{"city":"Ìlọrin","county":"Ilorin East","state":"Kwara","ISO3166-2-lvl4":"NG-KW","postcode":"240212","country":"Nigeria","country_code":"ng"},"population":847582,"osm_type":"node","osm_id":27565089,"type":"city","location":[4.5480484,8.4963657],"bbox":[4.3880484,8.3363657,4.7080484,8.6563657]}
{"name":"Ise - Ekiti","display_name":"Ise - Ekiti, Ise/Orun, Ekiti, Nigeria","address":{"city":"Ise - Ekiti","county":"Ise/Orun","state":"Ekiti","ISO3166-2-lvl4":"NG-EK","country":"Nigeria","country_code":"ng"},"osm_type":"node","osm_id":501431536,"type":"city","location":[5.4281,7.4632],"bbox":[5.2681,7.3032,5.5881,7.6232]}
{"name":"Jakusko","display_name":"Jakusko, Yobe, Nigeria","address":{"city":"Jakusko","state":"Yobe","ISO3166-2-lvl4":"NG-YO","country":"Nigeria","country_code":"ng"},"osm_type":"node","osm_id":501464113,"type":"city","location":[10.7744631,12.3691],"bbox":[10.6144631,12.2091,10.9344631,12.5291],"border":[{"name":"Jakusko","display_name":"Jakusko, Yobe, Nigeria","address":{"city":"Jakusko","state":"Yobe","ISO3166-2-lvl4":"NG-YO","country":"Nigeria","country_code":"ng"},"osm_type":"relation","osm_id":3698574,"type":"administrative","location":[10.7744631,12.3691],"bbox":[10.5887948,11.9745036,11.2479552,12.8487841]},{"name":"Jakusko","display_name":"Jakusko, Yobe, Nigeria","address":{"city_district":"Jakusko","city":"Jakusko","state":"Yobe","ISO3166-2-lvl4":"NG-YO","country":"Nigeria","country_code":"ng"},"osm_type":"relation","osm_id":3698673,"type":"administrative","location":[10.801552533285502,12.34446145],"bbox":[10.7260409,12.262062,10.8917759,12.4221576]}]}
{"name":"Jalingo","other_names":{"name:ru":"Джалинго","name:uk":"Джалінго"},"display_name":"Jalingo, Taraba, Nigeria","address":{"city":"Jalingo","state":"Taraba","ISO3166-2-lvl4":"NG-TA","country":"Nigeria","country_code":"ng"},"population":118000,"osm_type":"node","osm_id":312045131,"type":"city","location":[11.360042,8.894985],"bbox":[11.200042,8.734985,11.520042,9.054985],"border":{"name":"Jalingo","other_names":{"name:en":"Jalingo","name:ru":"Джалинго","name:uk":"Джалінго"},"display_name":"Jalingo, Taraba, Nigeria","address":{"city":"Jalingo","state":"Taraba","ISO3166-2-lvl4":"NG-TA","country":"Nigeria","country_code":"ng"},"population":118000,"osm_type":"relation","osm_id":3720857,"type":"administrative","location":[11.360042,8.894985],"bbox":[11.2183466,8.7879286,11.4584961,9.0255423]}}
{"name":"Jara-Dali","other_names":{"name:en":"Jara-Dali","alt_name":"Garad"},"display_name":"Jara-Dali, Bayo, Borno, Nigeria","address":{"city":"Jara-Dali","county":"Bayo","state":"Borno","ISO3166-2-lvl4":"NG-BO","country":"Nigeria","country_code":"ng"},"osm_type":"relation","osm_id":3721287,"type":"administrative","location":[11.733785240954072,10.255873699999999],"bbox":[11.6397797,10.1897463,11.7999003,10.324056],"inferred_type":"city"}
{"name":"Jara-Gol","other_names":{"name:en":"Jara-Gol","alt_name":"Garag"},"display_name":"Jara-Gol, Bayo, Borno, Nigeria","address":{"city":"Jara-Gol","county":"Bayo","state":"Borno","ISO3166-2-lvl4":"NG-BO","country":"Nigeria","country_code":"ng"},"osm_type":"relation","osm_id":3721288,"type":"administrative","location":[11.629161008697661,10.2670148],"bbox":[11.5733095,10.1975662,11.6710888,10.3308099],"inferred_type":"city"}
{"name":"Jimeta","display_name":"Jimeta, Girei, Adamawa, 640221, Nigeria","address":{"city":"Jimeta","county":"Girei","state":"Adamawa","ISO3166-2-lvl4":"NG-AD","postcode":"640221","country":"Nigeria","country_code":"ng"},"osm_type":"node","osm_id":501473219,"type":"city","location":[12.4528047,9.2780486],"bbox":[12.2928047,9.1180486,12.6128047,9.4380486]}
{"name":"Jos","other_names":{"name:ar":"جوس","name:en":"Jos","name:ko":"조스","name:pl":"Dżos","name:ru":"Джос","name:uk":"Джос"},"display_name":"Jos, Jos North, Plateau, 903105, Nigeria","address":{"city":"Jos","county":"Jos North","state":"Plateau","ISO3166-2-lvl4":"NG-PL","postcode":"903105","country":"Nigeria","country_code":"ng"},"population":900000,"osm_type":"node","osm_id":501540902,"type":"city","location":[8.8979401,9.9175125],"bbox":[8.7379401,9.7575125,9.0579401,10.0775125]}
{"name":"Kaduna","other_names":{"name:af":"Kaduna","name:ar":"كادونا","name:be":"Кадуна","name:bg":"Кадуна","name:ca":"Kaduna","name:da":"Kaduna","name:de":"Kaduna","name:en":"Kaduna","name:es":"Kaduna","name:et":"Kaduna","name:fa":"کادونا","name:fi":"Kaduna","name:fr":"Kaduna","name:ha":"Kaduna","name:he":"קדונה","name:hr":"Kaduna","name:hu":"Kaduna","name:hy":"Կադունա","name:id":"Kaduna","name:ig":"Kaduna","name:it":"Kaduna","name:ja":"カドゥナ","name:ka":"კადუნა","name:ko":"카두나","name:ky":"Кадуна","name:lt":"Kaduna","name:mg":"Kaduna","name:nl":"Kaduna","name:nn":"Kaduna","name:no":"Kaduna","name:pa":"ਕਾਦੂਨਾ","name:pl":"Kaduna","name:pt":"Kaduna","name:ro":"Kaduna","name:ru":"Кадуна","name:sv":"Kaduna","name:sw":"Kaduna","name:tr":"Kaduna","name:uk":"Кадуна","name:ur":"کادونا","name:yo":"Kàdúná","name:zh":"卡杜納","name:arz":"كادونا","name:azb":"کادونا","name:ceb":"Kaduna","name:szl":"Kaduna","name:vep":"Kadun","name:war":"Kaduna"},"display_name":"Kaduna, Kabala, Kaduna North, Kaduna, 800211, Nigeria","address":{"city":"Kaduna","county":"Kaduna North","state":"Kaduna","ISO3166-2-lvl4":"NG-KD","postcode":"800211","country":"Nigeria","country_code":"ng"},"population":760084,"osm_type":"node","osm_id":27565091,"type":"city","location":[7.4359863,10.5182899],"bbox":[7.2759863,10.3582899,7.5959863,10.6782899]}
{"name":"Kano","other_names":{"name:ar":"كانو","name:az":"Kano","name:be":"Кано","name:bg":"Кано","name:da":"Kano","name:de":"Kano","name:el":"Κάνο","name:en":"Kano","name:eo":"Kano","name:es":"Kano","name:fr":"Kano","name:gl":"Kano","name:he":"קנו","name:hi":"कऩो","name:hr":"Kani","name:hu":"Kano","name:id":"Kano","name:it":"Kano","name:ja":"カノ","name:kn":"ಕನೋ","name:ko":"카노","name:lt":"Kanas","name:mk":"Кано","name:nl":"Kano","name:nn":"Kano","name:no":"Kano","name:pl":"Kano","name:pt":"Cano","name:ro":"Kano","name:ru":"Кано","name:sl":"Kano","name:sr":"Кано","name:sv":"Kano","name:ta":"கனோ","name:tr":"Kano","name:uk":"Кано","name:yo":"Kánò","name:zh":"卡諾","name:ckb":"کانۆ","alt_name:zh":"卡諾市"},"display_name":"Kano, Yakasai, Kano Municipal, Kano, 700271, Nigeria","address":{"city":"Kano","county":"Kano Municipal","state":"Kano","ISO3166-2-lvl4":"NG-KN","postcode":"700271","country":"Nigeria","country_code":"ng"},"population":2395375,"osm_type":"node","osm_id":501540880,"type":"city","location":[8.5219738,11.9939978],"bbox":[8.3619738,11.8339978,8.6819738,12.1539978]}
{"name":"Katsina","other_names":{"name:ru":"Кацина","name:uk":"Каціна"},"display_name":"Katsina, Muhammadu Dikko Stadium, Katsina, Nigeria","address":{"city":"Katsina","state":"Katsina","ISO3166-2-lvl4":"NG-KT","country":"Nigeria","country_code":"ng"},"population":318459,"osm_type":"node","osm_id":501540897,"type":"city","location":[7.6006278,12.9894283],"bbox":[7.4406278,12.8294283,7.7606278,13.1494283],"border":{"name":"Muhammadu Dikko Stadium","other_names":{"name:en":"Muhammadu Dikko Stadium","name:ru":"Кацина","name:uk":"Каціна","alt":"Katsina"},"display_name":"Muhammadu Dikko Stadium, Katsina, Nigeria","address":{"city":"Muhammadu Dikko Stadium","state":"Katsina","ISO3166-2-lvl4":"NG-KT","country":"Nigeria","country_code":"ng"},"population":318459,"osm_type":"relation","osm_id":3711502,"type":"administrative","location":[7.6006278,12.9894283],"bbox":[7.5557609,12.9511991,7.6894753,13.0861224]}}
{"name":"Lafia","other_names":{"name:en":"Lafia","name:ko":"라피아","name:ru":"Лафиа"},"display_name":"Lafia, Larmurde, Adamawa, Nigeria","address":{"city":"Lafia","county":"Larmurde","state":"Adamawa","ISO3166-2-lvl4":"NG-AD","country":"Nigeria","country_code":"ng"},"osm_type":"node","osm_id":501406200,"type":"city","location":[11.8176813,9.6519332],"bbox":[11.6576813,9.4919332,11.9776813,9.8119332]}
{"name":"Lafia","other_names":{"name:ar":"لافيا","name:ko":"라피아","name:ru":"Лафиа"},"display_name":"Lafia, Nasarawa, Nigeria","address":{"city":"Lafia","state":"Nasarawa","ISO3166-2-lvl4":"NG-NA","country":"Nigeria","country_code":"ng"},"population":509,"osm_type":"node","osm_id":317967219,"type":"city","location":[8.5147636,8.4960459],"bbox":[8.3547636,8.3360459,8.6747636,8.6560459],"border":{"name":"Lafia","other_names":{"name:ar":"لافيا","name:en":"Lafia","name:ko":"라피아","name:ru":"Лафиа"},"display_name":"Lafia, Nasarawa, Nigeria","address":{"city":"Lafia","state":"Nasarawa","ISO3166-2-lvl4":"NG-NA","country":"Nigeria","country_code":"ng"},"population":509,"osm_type":"relation","osm_id":3720503,"type":"administrative","location":[8.5147636,8.4960459],"bbox":[8.1740828,8.3951979,9.0734615,9.0270939]}}
{"name":"Lagos","other_names":{"name:am":"ሌጎስ","name:ar":"لاغوس","name:az":"Laqos","name:ba":"Лагос","name:be":"Лагас","name:bg":"Лагос","name:bn":"লেগোস","name:ce":"Лагос","name:cv":"Лагос","name:de":"Lagos","name:el":"Λάγος","name:en":"Lagos","name:eo":"Lagoso","name:es":"Lagos","name:fa":"لاگوس","name:fr":"Lagos","name:gl":"Lagos","name:gu":"લાગોસ","name:ha":"Lagos","name:he":"לאגוס","name:hi":"लागोस्","name:hr":"Lagos","name:hy":"Լագոս","name:it":"Lagos","name:ja":"ラゴス","name:ka":"ლაგოსი","name:kk":"Лагос","name:kn":"ಲಾಗೋಸ್","name:ko":"라고스","name:ky":"Лагос","name:la":"Lacupolis","name:lt":"Lagosas","name:lv":"Lagosa","name:mk":"Лагос","name:ml":"ലാഗോസ്","name:mn":"Лагос","name:mr":"लागोस","name:my":"လေးဂို့စ်မြို့","name:nl":"Lagos","name:no":"Lagos","name:nv":"Tótaʼ Yadaazʼáhí","name:oc":"Lagos","name:os":"Лагос","name:pa":"ਲਾਗੋਸ","name:pl":"Lagos","name:ps":"لاګوس","name:pt":"Lagos","name:ru":"Лагос","name:sd":"لاگوس","name:sr":"Лагос","name:sv":"Lagos","name:ta":"லாகோஸ்","name:tg":"Лагос","name:th":"เลกอส","name:tr":"Lagos","name:tt":"Лагос","name:uk":"Лаґос","name:ur":"لاگوس","name:uz":"Lagos","name:yi":"לאגאס","name:yo":"Èkó","name:zh":"拉哥斯","name:ckb":"لاگۆس","alt_name:eo":"Lejgoso","name:zh-Hans":"拉哥斯","name:zh-Hant":"拉哥斯"},"display_name":"Lagos, Lagos Island, Lagos, 100242, Nigeria","address":{"city":"Lagos","county":"Lagos Island","state":"Lagos","ISO3166-2-lvl4":"NG-LA","postcode":"100242","country":"Nigeria","country_code":"ng"},"population":10404112,"osm_type":"node","osm_id":27565124,"type":"city","location":[3.3941795,6.4550575],"bbox":[3.2341795,6.2950575,3.5541795,6.6150575],"border":{"name":"Lagos","other_names":{"name:ar":"لاغوس","name:az":"Laqos ştatı","name:bg":"Лагос","name:ca":"Estat de Lagos","name:da":"Lagos","name:de":"Lagos","name:en":"Lagos State","name:es":"Estado de Lagos","name:et":"Lagose osariik","name:fa":"ایالت لاگوس","name:fi":"Lagos","name:fr":"État de Lagos","name:gl":"Estado de Lagos","name:ha":"Lagos","name:he":"לאגוס","name:hi":"लेगोस राज्य","name:id":"Lagos","name:ig":"Ȯra Lagos","name:it":"Lagos","name:ja":"ラゴス州","name:ka":"ლაგოსის შტატი","name:ko":"라고스주","name:mk":"Лагос","name:nl":"Lagos","name:no":"Lagos","name:pl":"Lagos","name:pt":"Lagos","name:ro":"Statul Lagos","name:ru":"Лагос","name:sr":"Лагос","name:sv":"Lagos","name:sw":"Jimbo la Lagos","name:th":"รัฐเลกอส","name:tr":"Lagos Eyaleti","name:uk":"Лагос","name:ur":"لاگوس ریاست","name:yo":"Ìpínlẹ̀ Èkó","name:zh":"拉哥斯","name:azb":"لاقوس ایالتی","name:ceb":"Lagos State","name:mrj":"Лагос","name:nan":"Lagos Chiu","name:vec":"Ƚagos","name:war":"Lagos","ISO3166-2":"NG-LA","alt_name:ar":"ولاية لاغوس","alt_name:zh":"拉各斯州"},"display_name":"Lagos, Nigeria","address":{"city":"Lagos","ISO3166-2-lvl4":"NG-LA","country":"Nigeria","country_code":"ng"},"osm_type":"relation","osm_id":3718182,"type":"administrative","location":[3.5774005,6.5269033],"bbox":[2.7059846,6.366684,4.3509056,6.6967964]}}
{"name":"Lokoja","other_names":{"name:en":"Lokoja","name:ru":"Локоджа"},"display_name":"Lokoja, Kogi, 260101, Nigeria","address":{"city":"Lokoja","town":"Lokoja","state":"Kogi","ISO3166-2-lvl4":"NG-KO","postcode":"260101","country":"Nigeria","country_code":"ng"},"osm_type":"node","osm_id":501464974,"type":"city","location":[6.7430005,7.8023397],"bbox":[6.5830005,7.6423397,6.9030005,7.9623397],"border":{"name":"Lokoja","other_names":{"name:en":"Lokoja","name:ru":"Локоджа"},"display_name":"Lokoja, Kogi, 260101, Nigeria","address":{"town":"Lokoja","state":"Kogi","ISO3166-2-lvl4":"NG-KO","postcode":"260101","country":"Nigeria","country_code":"ng"},"population":90000,"osm_type":"relation","osm_id":3717983,"type":"administrative","location":[6.7430327,7.802355],"bbox":[6.1131248,7.7302985,6.7921481,8.7387915]}}
{"name":"Maiduguri","other_names":{"name:ar":"مايدوغوري","name:ko":"마이두구리","name:pt":"Maiduguri","name:ru":"Майдугури","name:uk":"Майдугурі","name:zh":"迈杜古里","alt_name":"Yerwa"},"display_name":"Maiduguri, Borno, Nigeria","address":{"city":"Maiduguri","state":"Borno","ISO3166-2-lvl4":"NG-BO","country":"Nigeria","country_code":"ng"},"population":1197497,"osm_type":"node","osm_id":27565111,"type":"city","location":[13.1536214,11.8395375],"bbox":[12.9936214,11.6795375,13.3136214,11.9995375],"border":{"name":"Maiduguri","other_names":{"name:ar":"مايدوغوري","name:en":"Maiduguri","name:zh":"迈杜古里","name:ko":"마이두구리","name:pt":"Maiduguri","name:ru":"Майдугури","name:uk":"Майдугурі","alt_name":"Yerwa"},"display_name":"Maiduguri, Borno, Nigeria","address":{"city":"Maiduguri","state":"Borno","ISO3166-2-lvl4":"NG-BO","country":"Nigeria","country_code":"ng"},"population":1197497,"osm_type":"relation","osm_id":3721188,"type":"administrative","location":[13.1536214,11.8395375],"bbox":[13.076242,11.7534864,13.1840591,11.9134314]}}
{"name":"Makurdi","other_names":{"name:ar":"ماكوردي","name:ko":"마쿠르디","name:ku":"Makurdî","name:ru":"Макурди","name:uk":"Макурді","name:ckb":"ماکوردی"},"display_name":"Makurdi, Markurdi, Benue, Nigeria","address":{"city":"Makurdi","state":"Benue","ISO3166-2-lvl4":"NG-BE","country":"Nigeria","country_code":"ng"},"population":500797,"osm_type":"node","osm_id":312045158,"type":"city","location":[8.538425,7.7312634],"bbox":[8.378425,7.5712634,8.698425,7.8912634],"border":{"name":"Markurdi","other_names":{"name:en":"Markurdi","name:ar":"ماكوردي","name:ko":"마쿠르디","name:ku":"Makurdî","name:ru":"Макурди","name:uk":"Макурді","name:ckb":"ماکوردی","alt":"Makurdi"},"display_name":"Markurdi, Benue, Nigeria","address":{"city":"Markurdi","state":"Benue","ISO3166-2-lvl4":"NG-BE","country":"Nigeria","country_code":"ng"},"population":500797,"osm_type":"relation","osm_id":3716090,"type":"administrative","location":[8.538425,7.7312634],"bbox":[8.3696613,7.5875511,8.6659861,7.8866663]}}
{"name":"Minna","other_names":{"name:ar":"منا","name:en":"Minna","name:ko":"민나","name:ru":"Минна","name:uk":"Мінна","alt_name:ar":"مينا"},"display_name":"Minna, Chanchaga, Niger, 920101, Nigeria","address":{"city":"Minna","county":"Chanchaga","state":"Niger","ISO3166-2-lvl4":"NG-NI","postcode":"920101","country":"Nigeria","country_code":"ng"},"population":304000,"osm_type":"node","osm_id":625740529,"type":"city","location":[6.5475752,9.6187093],"bbox":[6.3875752,9.4587093,6.7075752,9.7787093]}
{"name":"Monguno","other_names":{"name:en":"Monguno","alt_name":"Mongonu"},"display_name":"Monguno, Borno, Nigeria","address":{"city":"Monguno","county":"Monguno","state":"Borno","ISO3166-2-lvl4":"NG-BO","country":"Nigeria","country_code":"ng"},"osm_type":"relation","osm_id":3721418,"type":"administrative","location":[13.534786705264894,12.6962838],"bbox":[13.4642417,12.5897797,13.5945178,12.7820868],"inferred_type":"city"}
{"name":"Mubi","other_names":{"name:ar":"موبي","name:en":"Mubi","name:fa":"موبی","name:ru":"Муби"},"display_name":"Mubi, Mubi North, Adamawa, Nigeria","address":{"city":"Mubi","county":"Mubi North","state":"Adamawa","ISO3166-2-lvl4":"NG-AD","country":"Nigeria","country_code":"ng"},"population":225705,"osm_type":"node","osm_id":501480960,"type":"city","location":[13.264359,10.267607],"bbox":[13.104359,10.107607,13.424359,10.427607]}
{"display_name":"Nafada, Gombe, Nigeria","address":{"county":"Nafada","state":"Gombe","ISO3166-2-lvl4":"NG-GO","country":"Nigeria","country_code":"ng"},"osm_type":"node","osm_id":10892674636,"type":"city","location":[11.2499034,10.9197969],"bbox":[11.0899034,10.7597969,11.4099034,11.0797969]}
{"name":"Nnewi","other_names":{"name:en":"Nnewi","name:ru":"Нневи"},"display_name":"Nnewi, Nnewi North, Anambra, Nigeria","address":{"city":"Nnewi","county":"Nnewi North","state":"Anambra","ISO3166-2-lvl4":"NG-AN","country":"Nigeria","country_code":"ng"},"population":900000,"osm_type":"node","osm_id":501498472,"type":"city","location":[6.917181,6.019531],"bbox":[6.757181,5.859531,7.077181,6.179531]}
{"name":"Ogbomosho","other_names":{"name:ar":"أوغبوموشو","name:de":"Ogbomosho","name:en":"Ogbomosho","name:eo":"Ogbomoŝo","name:fr":"Ogbomoso","name:ko":"오그보모쇼","name:pt":"Ogbomosho","name:ru":"Огбомошо","name:uk":"Огбомошо","name:yo":"Ògbómọ̀ṣọ́","name:zh":"奥博莫绍"},"display_name":"Ogbomosho, Ogbomosho North, Oyo, 210271, Nigeria","address":{"city":"Ogbomosho","county":"Ogbomosho North","state":"Oyo","ISO3166-2-lvl4":"NG-OY","postcode":"210271","country":"Nigeria","country_code":"ng"},"population":1032000,"osm_type":"node","osm_id":27565054,"type":"city","location":[4.25,8.133],"bbox":[4.09,7.973,4.41,8.293]}
{"name":"Oka-Akoko","display_name":"Oka-Akoko, Akoko South West, Ondo, Nigeria","address":{"city":"Oka-Akoko","county":"Akoko South West","state":"Ondo","ISO3166-2-lvl4":"NG-ON","country":"Nigeria","country_code":"ng"},"osm_type":"node","osm_id":501522187,"type":"city","location":[5.8030777,7.4586389],"bbox":[5.6430777,7.2986389,5.9630777,7.6186389]}
{"name":"Onitsha","other_names":{"name:en":"Onitsha","name:ko":"오니차"},"display_name":"Onitsha, Onitsha North, Anambra, Nigeria","address":{"city":"Onitsha","county":"Onitsha North","state":"Anambra","ISO3166-2-lvl4":"NG-AN","country":"Nigeria","country_code":"ng"},"population":1080000,"osm_type":"node","osm_id":5232601618,"type":"city","location":[6.8019088,6.1461619],"bbox":[6.6419088,5.9861619,6.9619088,6.3061619]}
{"name":"Òṣogbo","other_names":{"name:ar":"أوسوغبو","name:en":"Oshogbo","name:ko":"오쇼그보","name:pl":"Oshogbo","name:ru":"Ошогбо","name:uk":"Ошогбо","name:yo":"Òṣogbo"},"display_name":"Òṣogbo, Olorunda, Osun, 230261, Nigeria","address":{"city":"Òṣogbo","county":"Olorunda","state":"Osun","ISO3166-2-lvl4":"NG-OS","postcode":"230261","country":"Nigeria","country_code":"ng"},"population":156694,"osm_type":"node","osm_id":501540896,"type":"city","location":[4.5538891,7.7791666],"bbox":[4.3938891,7.6191666,4.7138891,7.9391666]}
{"name":"Otukpo","display_name":"Otukpo, Oturkpo, Benue, Nigeria","address":{"city":"Otukpo","state":"Benue","ISO3166-2-lvl4":"NG-BE","country":"Nigeria","country_code":"ng"},"osm_type":"node","osm_id":501486785,"type":"city","location":[8.1328576,7.1912599],"bbox":[7.9728576,7.0312599,8.2928576,7.3512599],"border":{"name":"Oturkpo","other_names":{"name:en":"Oturkpo","alt":"Otukpo"},"display_name":"Oturkpo, Benue, Nigeria","address":{"city":"Oturkpo","state":"Benue","ISO3166-2-lvl4":"NG-BE","country":"Nigeria","country_code":"ng"},"osm_type":"relation","osm_id":3716096,"type":"administrative","location":[8.1328576,7.1912599],"bbox":[7.8604507,7.0125799,8.2747631,7.6446705]}}
{"name":"Owerri","other_names":{"name:ar":"أوري","name:ca":"Owerri","name:da":"Owerri","name:de":"Owerri","name:en":"Owerri","name:es":"Owerri","name:fa":"اووری","name:fi":"Owerri","name:fr":"Owerri","name:ha":"Owerri","name:hr":"Owerri","name:ig":"Òwèrè","name:it":"Owerri","name:ja":"オウェリ","name:ko":"오웨리","name:mg":"Owerri","name:nl":"Owerri","name:no":"Owerri","name:pl":"Owerri","name:pt":"Owerri","name:ro":"Owerri","name:ru":"Оверри","name:sr":"Овери","name:sv":"Owerri","name:sw":"Owerri","name:tt":"Оверри","name:uk":"Оверрі","name:ur":"اوویری","name:yo":"Owerri","name:zh":"奧韋里","name:arz":"اويرى","name:azb":"اووری","name:ceb":"Owerri","name:war":"Owerri"},"display_name":"Owerri, Owerri Municipal, Imo, 460242, Nigeria","address":{"city":"Owerri","county":"Owerri Municipal","state":"Imo","ISO3166-2-lvl4":"NG-IM","postcode":"460242","country":"Nigeria","country_code":"ng"},"population":401873,"osm_type":"node","osm_id":2469246094,"type":"city","location":[7.0341973,5.489736],"bbox":[6.8741973,5.329736,7.1941973,5.649736]}
{"name":"Owo","display_name":"Owo, Ọ̀wọ̀, Ondo, Nigeria","address":{"city":"Owo","state":"Ondo","ISO3166-2-lvl4":"NG-ON","country":"Nigeria","country_code":"ng"},"osm_type":"node","osm_id":501464929,"type":"city","location":[5.5868016,7.1962012],"bbox":[5.4268016,7.0362012,5.7468016,7.3562012],"border":{"name":"Ọ̀wọ̀","other_names":{"name:en":"Owo","name:yo":"Ọ̀wọ̀","alt":"Owo"},"display_name":"Ọ̀wọ̀, Ondo, Nigeria","address":{"city":"Ọ̀wọ̀","state":"Ondo","ISO3166-2-lvl4":"NG-ON","country":"Nigeria","country_code":"ng"},"osm_type":"relation","osm_id":3718632,"type":"administrative","location":[5.5868016,7.1962012],"bbox":[5.388226,6.8760233,5.7613373,7.3161931]}}
{"name":"Ọ̀yọ́","other_names":{"name:de":"Oyo","name:en":"Oyo","name:ru":"Ойо","name:yo":"Ọ̀yọ́"},"display_name":"Ọ̀yọ́, Oyo West, Oyo, Nigeria","address":{"city":"Ọ̀yọ́","county":"Oyo West","state":"Oyo","ISO3166-2-lvl4":"NG-OY","country":"Nigeria","country_code":"ng"},"population":736100,"osm_type":"node","osm_id":27565036,"type":"city","location":[3.9315363,7.8410537],"bbox":[3.7715363,7.6810537,4.0915363,8.0010537]}
{"name":"Port Harcourt","other_names":{"name:ar":"بورت هاركورت","name:be":"Порт-Харкарт","name:bg":"Порт Харкорт","name:de":"Port Harcourt","name:el":"Πορτ Χάρκορτ","name:en":"Port Harcourt","name:fr":"Port Harcourt","name:he":"פורט הרקורט","name:hr":"Port Harcourt","name:ko":"포트하커트","name:pt":"Porto Harcourt","name:ru":"Порт-Харкорт","name:sr":"Порт Харкорт","name:uk":"Порт-Харкорт","name:zh":"哈科特港"},"display_name":"Port Harcourt, Port-Harcourt, Rivers, Nigeria","address":{"city":"Port Harcourt","state":"Rivers","ISO3166-2-lvl4":"NG-RI","country":"Nigeria","country_code":"ng"},"population":1382592,"osm_type":"node","osm_id":27565065,"type":"city","location":[7.0188527,4.7676576],"bbox":[6.8588527,4.6076576,7.1788527,4.9276576],"border":{"name":"Port-Harcourt","other_names":{"name:ar":"بورت هاركورت","name:en":"Port-Harcourt","name:zh":"哈科特港","name:be":"Порт-Харкарт","name:bg":"Порт Харкорт","name:de":"Port Harcourt","name:el":"Πορτ Χάρκορτ","name:fr":"Port Harcourt","name:he":"פורט הרקורט","name:hr":"Port Harcourt","name:ko":"포트하커트","name:pt":"Porto Harcourt","name:ru":"Порт-Харкорт","name:sr":"Порт Харкорт","name:uk":"Порт-Харкорт","alt":"Port Harcourt","alt:en":"Port Harcourt"},"display_name":"Port-Harcourt, Rivers, Nigeria","address":{"city":"Port-Harcourt","state":"Rivers","ISO3166-2-lvl4":"NG-RI","country":"Nigeria","country_code":"ng"},"population":1382592,"osm_type":"relation","osm_id":3720765,"type":"administrative","location":[7.0188527,4.7676576],"bbox":[6.940325,4.713169,7.0781333,4.8240652]}}
{"name":"Potiskum","other_names":{"name:ar":"بوتيسكوم","name:fa":"پوتیسکام","name:ru":"Потискум","name:uk":"Потіскум"},"display_name":"Potiskum, Yobe, Nigeria","address":{"city":"Potiskum","state":"Yobe","ISO3166-2-lvl4":"NG-YO","country":"Nigeria","country_code":"ng"},"population":205876,"osm_type":"node","osm_id":255322295,"type":"city","location":[11.0762744,11.7122553],"bbox":[10.9162744,11.5522553,11.2362744,11.8722553],"border":{"name":"Potiskum","other_names":{"name:ar":"بوتيسكوم","name:en":"Potiskum","name:fa":"پوتیسکام","name:ru":"Потискум","name:uk":"Потіскум"},"display_name":"Potiskum, Yobe, Nigeria","address":{"city":"Potiskum","state":"Yobe","ISO3166-2-lvl4":"NG-YO","country":"Nigeria","country_code":"ng"},"population":205876,"osm_type":"relation","osm_id":3698579,"type":"administrative","location":[11.0762744,11.7122553],"bbox":[11.0174214,11.5700157,11.2492424,11.7642069]}}
{"name":"Sagamu","other_names":{"name:ru":"Шагаму"},"display_name":"Sagamu, Shagamu, Ogun, Nigeria","address":{"city":"Sagamu","state":"Ogun","ISO3166-2-lvl4":"NG-OG","country":"Nigeria","country_code":"ng"},"osm_type":"node","osm_id":501330380,"type":"city","location":[3.6440551,6.8477165],"bbox":[3.4840551,6.6877165,3.8040551,7.0077165],"border":{"name":"Shagamu","other_names":{"name:en":"Shagamu","name:ru":"Шагаму","alt":"Sagamu"},"display_name":"Shagamu, Ogun, Nigeria","address":{"city":"Shagamu","state":"Ogun","ISO3166-2-lvl4":"NG-OG","country":"Nigeria","country_code":"ng"},"osm_type":"relation","osm_id":3718483,"type":"administrative","location":[3.6440551,6.8477165],"bbox":[3.4380022,6.6672449,3.7169364,6.9403375]}}
{"name":"Sapele","other_names":{"name:en":"Sapele","name:ru":"Сапеле"},"display_name":"Sapele, Delta, Nigeria","address":{"city":"Sapele","county":"Sapele","state":"Delta","ISO3166-2-lvl4":"NG-DE","country":"Nigeria","country_code":"ng"},"population":238800,"osm_type":"node","osm_id":501482915,"type":"city","location":[5.6795885,5.8948144],"bbox":[5.5195885,5.7348144,5.8395885,6.0548144],"border":{"name":"Sapele","display_name":"Sapele, Delta, Nigeria","address":{"county":"Sapele","state":"Delta","ISO3166-2-lvl4":"NG-DE","country":"Nigeria","country_code":"ng"},"osm_type":"relation","osm_id":3716967,"type":"administrative","location":[5.660127976472991,5.83156395],"bbox":[5.5151148,5.7044268,5.7794509,5.95823]}}
{"name":"She She","other_names":{"name:en":"She She","alt_name":"Sheshe"},"display_name":"She She, Kano Municipal, Kano, Nigeria","address":{"city":"She She","county":"Kano Municipal","state":"Kano","ISO3166-2-lvl4":"NG-KN","country":"Nigeria","country_code":"ng"},"osm_type":"relation","osm_id":3710725,"type":"administrative","location":[8.513351640928073,11.997456750000001],"bbox":[8.5113701,11.9934995,8.5162495,12.0003823],"inferred_type":"city"}
{"name":"Sokoto","other_names":{"name:ar":"صكتو","name:be":"Сакота","name:en":"Sokoto","name:ko":"소코토","name:mk":"Сокото","name:pt":"Socoto","name:ru":"Сокото","name:uk":"Сокото"},"display_name":"Sokoto, Sarkin Addar B, Sokoto South, Sokoto, Nigeria","address":{"city":"Sokoto","county":"Sokoto South","state":"Sokoto","ISO3166-2-lvl4":"NG-SO","country":"Nigeria","country_code":"ng"},"population":427760,"osm_type":"node","osm_id":501540904,"type":"city","location":[5.2373194,13.0610588],"bbox":[5.0773194,12.9010588,5.3973194,13.2210588]}
{"name":"Umuahia","other_names":{"name:en":"Umuahia","name:ko":"우무아히아","name:ru":"Умуахия","name:uk":"Умуахія"},"display_name":"Umuahia, Umuahia North, Abia, 440236, Nigeria","address":{"city":"Umuahia","county":"Umuahia North","state":"Abia","ISO3166-2-lvl4":"NG-AB","postcode":"440236","country":"Nigeria","country_code":"ng"},"osm_type":"node","osm_id":2841325913,"type":"city","location":[7.4924165,5.5324032],"bbox":[7.3324165,5.3724032,7.6524165,5.6924032]}
{"name":"Uyo","other_names":{"name:ar":"أويو","name:en":"Uyo","name:ko":"우요","name:ru":"Уйо","name:uk":"Уйо"},"display_name":"Uyo, Akwa Ibom, 520103, Nigeria","address":{"city":"Uyo","county":"Uyo","state":"Akwa Ibom","ISO3166-2-lvl4":"NG-AK","postcode":"520103","country":"Nigeria","country_code":"ng"},"population":436606,"osm_type":"node","osm_id":501193829,"type":"city","location":[7.924791,5.0322447],"bbox":[7.764791,4.8722447,8.084791,5.1922447],"border":{"name":"Uyo","other_names":{"name:ar":"أويو","name:en":"Uyo"},"display_name":"Uyo, Akwa Ibom, Nigeria","address":{"county":"Uyo","state":"Akwa Ibom","ISO3166-2-lvl4":"NG-AK","country":"Nigeria","country_code":"ng"},"osm_type":"relation","osm_id":3715390,"type":"administrative","location":[7.9974399113319485,4.9902370000000005],"bbox":[7.7943082,4.876689,8.0351601,5.1034608]}}
{"name":"Warri","other_names":{"name:en":"Warri","name:ru":"Варри"},"display_name":"Warri, Warri South, Delta, 332232, Nigeria","address":{"city":"Warri","village":"Warri South","state":"Delta","ISO3166-2-lvl4":"NG-DE","postcode":"332232","country":"Nigeria","country_code":"ng"},"population":250000,"osm_type":"node","osm_id":9702599529,"type":"city","location":[5.7480196,5.5186186],"bbox":[5.5880196,5.3586186,5.9080196,5.6786186]}
{"name":"Wukari","other_names":{"name:ar":"ووكاري"},"display_name":"Wukari, Taraba, Nigeria","address":{"city":"Wukari","state":"Taraba","ISO3166-2-lvl4":"NG-TA","country":"Nigeria","country_code":"ng"},"population":241546,"osm_type":"node","osm_id":501490428,"type":"city","location":[9.7775523,7.8705196],"bbox":[9.6175523,7.7105196,9.9375523,8.0305196],"border":{"name":"Wukari","other_names":{"name:en":"Wukari","name:ar":"ووكاري"},"display_name":"Wukari, Taraba, Nigeria","address":{"city":"Wukari","state":"Taraba","ISO3166-2-lvl4":"NG-TA","country":"Nigeria","country_code":"ng"},"population":241546,"osm_type":"relation","osm_id":3720864,"type":"administrative","location":[9.7775523,7.8705196],"bbox":[9.1157169,7.614686,10.3326406,8.2960873]}}
{"name":"Yenagoa","other_names":{"name:ar":"يناغوا","name:ru":"Йенагоа"},"display_name":"Yenagoa, Yenegoa, Bayelsa, Nigeria","address":{"city":"Yenagoa","state":"Bayelsa","ISO3166-2-lvl4":"NG-BY","country":"Nigeria","country_code":"ng"},"population":353344,"osm_type":"node","osm_id":245914677,"type":"city","location":[6.2747786,4.9334651],"bbox":[6.1147786,4.7734651,6.4347786,5.0934651],"border":{"name":"Yenegoa","other_names":{"name:ar":"يناغوا","name:en":"Yenegoa","name:ru":"Йенагоа","alt":"Yenagoa"},"display_name":"Yenegoa, Bayelsa, 569101, Nigeria","address":{"city":"Yenegoa","state":"Bayelsa","ISO3166-2-lvl4":"NG-BY","postcode":"569101","country":"Nigeria","country_code":"ng"},"population":353344,"osm_type":"relation","osm_id":3715852,"type":"administrative","location":[6.2747786,4.9334651],"bbox":[6.1473551,4.8460321,6.5666361,5.2845378]}}
{"name":"Yola","other_names":{"name:ar":"يولا","name:en":"Yola","name:fa":"یولا","name:ko":"욜라","name:ru":"Йола","name:ur":"یولا","name:azb":"یولا"},"display_name":"Yola, Yola North, Adamawa, Nigeria","address":{"city":"Yola","county":"Yola North","state":"Adamawa","ISO3166-2-lvl4":"NG-AD","country":"Nigeria","country_code":"ng"},"population":336648,"osm_type":"node","osm_id":501540901,"type":"city","location":[12.4802485,9.2089255],"bbox":[12.3202485,9.0489255,12.6402485,9.3689255]}
{"name":"Zaria","other_names":{"name:ar":"زاريا","name:en":"Zaria","name:ko":"자리아","name:ru":"Зариа","name:uk":"Заріа"},"display_name":"Zaria, Chikaji, Sabon Gari, Kaduna, Nigeria","address":{"city":"Zaria","county":"Sabon Gari","state":"Kaduna","ISO3166-2-lvl4":"NG-KD","country":"Nigeria","country_code":"ng"},"osm_type":"node","osm_id":501388581,"type":"city","location":[7.7188449,11.1134917],"bbox":[7.5588449,10.9534917,7.8788449,11.2734917],"border":{"name":"Zaria","other_names":{"name:af":"Zaria","name:ar":"زاريا","name:be":"Зарыя","name:ca":"Zaria","name:cs":"Zaria","name:da":"Zaria","name:de":"Zaria","name:en":"Zaria","name:es":"Zaria","name:eu":"Zaria","name:fa":"زاریا","name:fi":"Zaria","name:fr":"Zaria","name:gl":"Zaria","name:ha":"Zariya","name:hr":"Zaria","name:hu":"Zaria","name:hy":"Զարիա","name:it":"Zaria","name:ja":"ザリア","name:ko":"자리아","name:lt":"Zarija","name:ml":"സരിയ","name:nl":"Zaria","name:nn":"Zaria","name:no":"Zaria","name:pa":"ਜ਼ਾਰੀਆ","name:pl":"Zaria","name:pt":"Zaria","name:ro":"Zaria","name:ru":"Зариа","name:sv":"Zaria","name:sw":"Zaria","name:tr":"Zaria","name:uk":"Заріа","name:ur":"زاریا","name:yo":"Zaria","name:zh":"扎里亚","name:azb":"زاریا","name:nan":"Zaria","name:szl":"Zaria","name:vep":"Zaria","name:war":"Zaria"},"display_name":"Zaria, Kaduna, Nigeria","address":{"county":"Zaria","state":"Kaduna","ISO3166-2-lvl4":"NG-KD","country":"Nigeria","country_code":"ng"},"osm_type":"relation","osm_id":3709376,"type":"administrative","location":[7.651853311586596,11.0248119],"bbox":[7.4877635,10.9201186,7.8201638,11.1340665]}}
