{"name":"Banfora","other_names":{"name:ar":"بانفورا","name:fr":"Banfora","name:ko":"방포라","name:ru":"Банфора"},"display_name":"Banfora, Comoé, Cascades, Burkina Faso","address":{"city":"Banfora","department":"Banfora","province":"Comoé","ISO3166-2-lvl5":"BF-COM","region":"Cascades","ISO3166-2-lvl4":"BF-02","country":"Burkina Faso","country_code":"bf"},"population":75917,"osm_type":"node","osm_id":302737807,"type":"city","location":[-4.752639,10.642703],"bbox":[-4.912639,10.482703,-4.592639,10.802703],"border":{"name":"Banfora","other_names":{"name:ar":"بانفورا","name:fr":"Banfora","name:ru":"Банфора","official_name":"Département de Banfora"},"display_name":"Banfora, Comoé, Cascades, Burkina Faso","address":{"department":"Banfora","province":"Comoé","ISO3166-2-lvl5":"BF-COM","region":"Cascades","ISO3166-2-lvl4":"BF-02","country":"Burkina Faso","country_code":"bf"},"population":109824,"osm_type":"relation","osm_id":5671515,"type":"administrative","location":[-4.834936029069766,10.60835305],"bbox":[-4.9917763,10.4611769,-4.640789,10.7391994]}}
{"name":"Bobo-Dioulasso","other_names":{"name:ar":"بوبو ديولاسو","name:bm":"Bobojulaso","name:fr":"Bobo-Dioulasso","name:ko":"보보디울라소","name:ru":"Бобо-Диуласо"},"display_name":"Bobo-Dioulasso, Houet, Hauts-Bassins, Burkina Faso","address":{"city":"Bobo-Dioulasso","province":"Houet","ISO3166-2-lvl5":"BF-HOU","region":"Hauts-Bassins","ISO3166-2-lvl4":"BF-09","country":"Burkina Faso","country_code":"bf"},"population":724971,"osm_type":"node","osm_id":257506849,"type":"city","location":[-4.2961436,11.1765796],"bbox":[-4.4561436,11.0165796,-4.1361436,11.3365796]}
{"name":"Dédougou","other_names":{"name:fr":"Dédougou","name:ko":"데두구","name:ru":"Дедугу"},"display_name":"Dédougou, Mouhoun, Boucle du Mouhoun, Burkina Faso","address":{"city":"Dédougou","province":"Mouhoun","ISO3166-2-lvl5":"BF-MOU","region":"Boucle du Mouhoun","ISO3166-2-lvl4":"BF-01","country":"Burkina Faso","country_code":"bf"},"population":32050,"osm_type":"node","osm_id":330435343,"type":"city","location":[-3.4600757,12.4629189],"bbox":[-3.6200757,12.3029189,-3.3000757,12.6229189],"border":{"name":"Dédougou","other_names":{"name:fr":"Dédougou","name:ru":"Дедугу","name:ko":"데두구"},"display_name":"Dédougou, Mouhoun, Boucle du Mouhoun, Burkina Faso","address":{"city":"Dédougou","province":"Mouhoun","ISO3166-2-lvl5":"BF-MOU","region":"Boucle du Mouhoun","ISO3166-2-lvl4":"BF-01","country":"Burkina Faso","country_code":"bf"},"population":32050,"osm_type":"relation","osm_id":5185790,"type":"administrative","location":[-3.4600757,12.4629189],"bbox":[-3.4901675,12.4386479,-3.4406128,12.4871234]}}
{"name":"Fada N'Gourma","other_names":{"name:fr":"Fada N'Gourma","name:ko":"파다응구르마","alt_name":"Fada N'gourma","alt_name:fr":"Fada N'gourma"},"display_name":"Fada N'Gourma, Gourma, Est, Burkina Faso","address":{"city":"Fada N'Gourma","province":"Gourma","ISO3166-2-lvl5":"BF-GOU","region":"Est","ISO3166-2-lvl4":"BF-08","country":"Burkina Faso","country_code":"bf"},"population":41156,"osm_type":"node","osm_id":2195995727,"type":"city","location":[0.3592088,12.0608406],"bbox":[0.1992088,11.9008406,0.5192088,12.2208406]}
{"display_name":"Foutouri, Komondjari, Est, Burkina Faso","address":{"department":"Foutouri","province":"Komondjari","ISO3166-2-lvl5":"BF-KMD","region":"Est","ISO3166-2-lvl4":"BF-08","country":"Burkina Faso","country_code":"bf"},"osm_type":"node","osm_id":9819714839,"type":"city","location":[1.045215,13.0103234],"bbox":[0.885215,12.8503234,1.205215,13.1703234]}
{"name":"Kaya","other_names":{"name:fr":"Kaya","name:ko":"카야","name:ru":"Кая"},"display_name":"Kaya, Sanmatenga, Centre-Nord, Burkina Faso","address":{"city":"Kaya","province":"Sanmatenga","ISO3166-2-lvl5":"BF-SMT","region":"Centre-Nord","ISO3166-2-lvl4":"BF-05","country":"Burkina Faso","country_code":"bf"},"population":54365,"osm_type":"node","osm_id":302738145,"type":"city","location":[-1.0839593,13.085603],"bbox":[-1.2439593,12.925603,-0.9239593,13.245603]}
{"name":"Koudougou","other_names":{"name:fr":"Koudougou","name:ko":"쿠두구","name:ru":"Кудугу"},"display_name":"Koudougou, Boulkiemdé, Centre-Ouest, Burkina Faso","address":{"city":"Koudougou","town":"Koudougou","department":"Koudougou","province":"Boulkiemdé","ISO3166-2-lvl5":"BF-BLK","region":"Centre-Ouest","ISO3166-2-lvl4":"BF-06","country":"Burkina Faso","country_code":"bf"},"population":91981,"osm_type":"node","osm_id":302737590,"type":"city","location":[-2.3652267,12.2514911],"bbox":[-2.5252267,12.0914911,-2.2052267,12.4114911],"border":[{"name":"Koudougou","other_names":{"name:fr":"Koudougou","official_name":"Département de Koudougou"},"display_name":"Koudougou, Boulkiemdé, Centre-Ouest, Burkina Faso","address":{"department":"Koudougou","province":"Boulkiemdé","ISO3166-2-lvl5":"BF-BLK","region":"Centre-Ouest","ISO3166-2-lvl4":"BF-06","country":"Burkina Faso","country_code":"bf"},"population":216774,"osm_type":"relation","osm_id":5256767,"type":"administrative","location":[-2.2995459780233447,12.2938134],"bbox":[-2.519651,12.1345406,-2.1603001,12.4531079]},{"name":"Koudougou","other_names":{"name:fr":"Koudougou","name:ko":"쿠두구","name:ru":"Кудугу"},"display_name":"Koudougou, Boulkiemdé, Centre-Ouest, Burkina Faso","address":{"town":"Koudougou","department":"Koudougou","province":"Boulkiemdé","ISO3166-2-lvl5":"BF-BLK","region":"Centre-Ouest","ISO3166-2-lvl4":"BF-06","country":"Burkina Faso","country_code":"bf"},"population":160207,"osm_type":"relation","osm_id":9330360,"type":"administrative","location":[-2.3652267,12.2514911],"bbox":[-2.4121796,12.2188812,-2.3007179,12.2805537]}]}
{"name":"Ouagadougou","other_names":{"name:af":"Ouagadougou","name:am":"ዋጋዱጉ","name:an":"Ouagadougou","name:ar":"واغادوغو","name:az":"Uaqaduqu","name:be":"Уагадугу","name:bg":"Уагадугу","name:bm":"Wagadugu","name:bn":"ওয়াগাদুগু","name:bo":"ཨོ་འ་ག་དོའུ་གོའུ།","name:br":"Ouagadougou","name:bs":"Ouagadougou","name:ca":"Ouagadougou","name:ce":"Уагадугу","name:cs":"Ouagadougou","name:cv":"Уагадугу","name:cy":"Ouagadougou","name:da":"Ouagadougou","name:de":"Ouagadougou","name:el":"Ουαγκαντουγκού","name:en":"Ouagadougou","name:eo":"Uagaduguo","name:es":"Uagadugú","name:et":"Ouagadougou","name:eu":"Uagadugu","name:fa":"اوآگادوگو","name:fi":"Ouagadougou","name:fr":"Ouagadougou","name:fy":"Ouagadougou","name:ga":"Ouagadougou","name:gd":"Ouagadougou","name:gl":"Uagadugú","name:he":"ואגאדוגו","name:hi":"ऊगादोगो","name:hr":"Ouagadougou","name:ht":"Ouagadougou","name:hu":"Ouagadougou","name:hy":"Ուագադուգու","name:is":"Ouagadougou","name:it":"Ouagadougou","name:ja":"ワガドゥグー","name:jv":"Ouagadougou","name:ka":"უაგადუგუ","name:kg":"Uagadugu","name:kk":"Уагадугу","name:ko":"와가두구","name:kw":"Ouagadougou","name:ky":"Уагадугу","name:la":"Uagadugum","name:lb":"Ouagadougou","name:lt":"Uagadugu","name:lv":"Vagadugu","name:mg":"Ouagadougou","name:mk":"Уагадугу","name:ml":"വഗദുഗു","name:mr":"वागाडुगू","name:ms":"Ouagadougou","name:na":"Ouagadougou","name:nb":"Ouagadougou","name:ne":"वागादुगु","name:nl":"Ouagadougou","name:nn":"Ouagadougou","name:oc":"Ouagadougou","name:os":"Уагадугу","name:pa":"ਵਾਗਾਦੁਗੂ","name:pl":"Wagadugu","name:ps":"واګادوګو","name:pt":"Ouagadougou","name:ro":"Ouagadougou","name:ru":"Уагадугу","name:rw":"Wagadugu","name:sd":"واگادوگو","name:sh":"Ouagadougou","name:sk":"Ouagadougou","name:sl":"Ouagadougou","name:sn":"Ouagadougou","name:so":"Ougadougou","name:sq":"Ouagadougou","name:sr":"Уагадугу","name:sv":"Ouagadougou","name:sw":"Wagadugu","name:ta":"வாகடூகு","name:tg":"Уагадугу","name:th":"วากาดูกู","name:tl":"Ouagadougou","name:tr":"Vagadugu","name:uk":"Уагадугу","name:ur":"اواگادوگو","name:uz":"Uagadugu","name:vi":"Ouagadougou","name:vo":"Ouagadougou","name:yi":"וואגאדוגו","name:yo":"Ouagadougou","name:zh":"瓦加杜古","int_name":"Ouagadougou","name:ceb":"Ouagadougou","name:ckb":"ئۆئاگادۆگۆ","name:frp":"Ouagadougou","name:hif":"Ouagadougou","name:hsb":"Ouagadougou","name:kab":"Wagadugu","name:lij":"Ouagadougou","name:lmo":"Ouagadougou","name:mrj":"Уагадугу","name:nah":"Huagadugu","name:nan":"Ouagadougou","name:nov":"Uagadugu","name:pms":"Ouagadougou","name:pnb":"اوگاڈوگو","name:scn":"Ouagadougou","name:sco":"Ouagadougou","name:udm":"Уагадугу","name:vec":"Ouagadougou","name:vep":"Uagadugu","name:war":"Ouagadougou","old_name":"Wagadugu","short_name":"Ouaga","alt_name:de":"Wagadugu","alt_name:gl":"Ouagadougou","alt_name:ckb":"ئۆواگادوگو؛ ئۆواگادۆگۆ؛ واگودوگو؛ واگادۆگۆ","name:zh-Hant":"烏格都古","name:be-tarask":"Уагадугу"},"display_name":"Ouagadougou, Kadiogo, Centre, Burkina Faso","address":{"city":"Ouagadougou","department":"Ouagadougou","province":"Kadiogo","ISO3166-2-lvl5":"BF-KAD","region":"Centre","ISO3166-2-lvl4":"BF-03","country":"Burkina Faso","country_code":"bf"},"population":1915102,"osm_type":"node","osm_id":27565002,"type":"city","location":[-1.5270944,12.3681873],"bbox":[-1.6870944,12.2081873,-1.3670944,12.5281873],"border":{"name":"Ouagadougou","other_names":{"name:af":"Ouagadougou","name:am":"ዋጋዱጉ","name:an":"Ouagadougou","name:ar":"واغادوغو","name:az":"Uaqaduqu","name:be":"Уагадугу","name:bg":"Уагадугу","name:bo":"ཨོ་འ་ག་དོའུ་གོའུ།","name:br":"Ouagadougou","name:bs":"Ouagadougou","name:ca":"Ouagadougou","name:cs":"Ouagadougou","name:cv":"Уагадугу","name:cy":"Ouagadougou","name:da":"Ouagadougou","name:de":"Ouagadougou","name:el":"Ουαγκαντουγκού","name:en":"Ouagadougou","name:eo":"Uagaduguo","name:es":"Uagadugú","name:et":"Ouagadougou","name:eu":"Uagadugu","name:fa":"اوآگادوگو","name:fi":"Ouagadougou","name:fr":"Ouagadougou","name:fy":"Ouagadougou","name:ga":"Ouagadougou","name:gd":"Ouagadougou","name:gl":"Uagadugú","name:he":"ואגאדוגו","name:hr":"Ouagadougou","name:ht":"Ouagadougou","name:hu":"Ouagadougou","name:hy":"Ուագադուգու","name:is":"Ouagadougou","name:it":"Ouagadougou","name:ja":"ワガドゥグー","name:jv":"Ouagadougou","name:ka":"უაგადუგუ","name:ko":"와가두구","name:kw":"Ouagadougou","name:ky":"Уагадугу","name:la":"Uagadugum","name:lb":"Ouagadougou","name:lt":"Uagadugu","name:lv":"Vagadugu","name:mg":"Ouagadougou","name:mk":"Уагадугу","name:mr":"वागाडुगू","name:ms":"Ouagadougou","name:na":"Ouagadougou","name:nb":"Ouagadougou","name:nl":"Ouagadougou","name:nn":"Ouagadougou","name:oc":"Ouagadougou","name:pl":"Wagadugu","name:pt":"Ouagadougou","name:ro":"Ouagadougou","name:ru":"Уагадугу","name:rw":"Wagadugu","name:sh":"Ouagadougou","name:sk":"Ouagadougou","name:sl":"Ouagadougou","name:sn":"Ouagadougou","name:so":"Ougadougou","name:sq":"Ouagadougou","name:sr":"Уагадугу","name:sv":"Ouagadougou","name:sw":"Wagadugu","name:ta":"வாகடூகு","name:tg":"Уагадугу","name:th":"วากาดูกู","name:tl":"Ouagadougou","name:tr":"Ouagadougou","name:uk":"Уагадугу","name:ur":"اواگادوگو","name:uz":"Uagadugu","name:vi":"Ouagadougou","name:vo":"Ouagadougou","name:yi":"וואגאדוגו","name:yo":"Ouagadougou","name:zh":"瓦加杜古","name:ceb":"Ouagadougou","name:ckb":"ئۆئاگادۆگۆ","name:frp":"Ouagadougou","name:hif":"Ouagadougou","name:hsb":"Ouagadougou","name:kab":"Wagadugu","name:lij":"Ouagadougou","name:lmo":"Ouagadougou","name:mrj":"Уагадугу","name:nah":"Huagadugu","name:nan":"Ouagadougou","name:nov":"Uagadugu","name:pms":"Ouagadougou","name:pnb":"اوگاڈوگو","name:scn":"Ouagadougou","name:sco":"Ouagadougou","name:udm":"Уагадугу","name:vec":"Ouagadougou","name:vep":"Uagadugu","name:war":"Ouagadougou","old_name":"Wagadugu","short_name":"Ouaga","alt_name:de":"Wagadugu","alt_name:gl":"Ouagadougou","name:zh-Hant":"烏格都古","official_name":"Département de Ouagadougou","name:be-tarask":"Уагадугу"},"display_name":"Ouagadougou, Kadiogo, Centre, Burkina Faso","address":{"department":"Ouagadougou","province":"Kadiogo","ISO3166-2-lvl5":"BF-KAD","region":"Centre","ISO3166-2-lvl4":"BF-03","country":"Burkina Faso","country_code":"bf"},"population":2453496,"osm_type":"relation","osm_id":5675756,"type":"administrative","location":[-1.5334099725592838,12.3704741],"bbox":[-1.6542742,12.2511886,-1.4075867,12.4911133]}}
{"name":"Ouahigouya","other_names":{"name:fr":"Ouahigouya","name:ko":"와이구야","name:ru":"Вахигуя"},"display_name":"Ouahigouya, Yatenga, Nord, Burkina Faso","address":{"city":"Ouahigouya","province":"Yatenga","ISO3166-2-lvl5":"BF-YAT","region":"Nord","ISO3166-2-lvl4":"BF-10","country":"Burkina Faso","country_code":"bf"},"population":73153,"osm_type":"node","osm_id":1920732032,"type":"city","location":[-2.417699,13.580982],"bbox":[-2.577699,13.420982,-2.257699,13.740982]}
{"name":"Tenkodogo","other_names":{"name:fr":"Tenkodogo","name:ko":"텐코도고"},"display_name":"Tenkodogo, Boulgou, Centre-Est, Burkina Faso","address":{"city":"Tenkodogo","town":"Tenkodogo","department":"Tenkodogo","province":"Boulgou","ISO3166-2-lvl5":"BF-BLG","region":"Centre-Est","ISO3166-2-lvl4":"BF-04","country":"Burkina Faso","country_code":"bf"},"population":37123,"osm_type":"node","osm_id":322558650,"type":"city","location":[-0.3651416,11.7828079],"bbox":[-0.5251416,11.6228079,-0.2051416,11.9428079],"border":[{"name":"Tenkodogo","other_names":{"name:fr":"Tenkodogo","official_name":"Département de Tenkodogo"},"display_name":"Tenkodogo, Boulgou, Centre-Est, Burkina Faso","address":{"department":"Tenkodogo","province":"Boulgou","ISO3166-2-lvl5":"BF-BLG","region":"Centre-Est","ISO3166-2-lvl4":"BF-04","country":"Burkina Faso","country_code":"bf"},"population":124927,"osm_type":"relation","osm_id":5256106,"type":"administrative","location":[-0.3145547747905481,11.7404238],"bbox":[-0.5665364,11.5555012,-0.0734236,11.9375072]},{"name":"Tenkodogo","other_names":{"name:fr":"Tenkodogo","name:ru":"Тенкодого","name:ko":"텐코도고"},"display_name":"Tenkodogo, Boulgou, Centre-Est, Burkina Faso","address":{"town":"Tenkodogo","department":"Tenkodogo","province":"Boulgou","ISO3166-2-lvl5":"BF-BLG","region":"Centre-Est","ISO3166-2-lvl4":"BF-04","country":"Burkina Faso","country_code":"bf"},"population":48539,"osm_type":"relation","osm_id":9330359,"type":"administrative","location":[-0.3651416,11.7828079],"bbox":[-0.4064887,11.7464829,-0.3426165,11.8193599]}]}
{"display_name":"Yatenga, Nord, Burkina Faso","address":{"province":"Yatenga","ISO3166-2-lvl5":"BF-YAT","region":"Nord","ISO3166-2-lvl4":"BF-10","country":"Burkina Faso","country_code":"bf"},"osm_type":"node","osm_id":9801326591,"type":"city","location":[-2.2525591,13.5748625],"bbox":[-2.4125591,13.4148625,-2.0925591,13.7348625]}
