{"display_name":"15th of May, القاهرة, مصر","address":{"city":"15th of May","state":"القاهرة","ISO3166-2-lvl4":"EG-C","country":"مصر","country_code":"eg"},"osm_type":"way","osm_id":1103679051,"type":"city","location":[31.385699787290086,29.8541469],"bbox":[31.2964958,29.7899397,31.4136789,29.917023]}
{"name":"Az Zarqa","display_name":"Az Zarqa, الدقهلية, 34724, مصر","address":{"city":"Az Zarqa","state":"الدقهلية","ISO3166-2-lvl4":"EG-DK","postcode":"34724","country":"مصر","country_code":"eg"},"osm_type":"way","osm_id":232206532,"type":"city","location":[31.63453384359199,31.20678005],"bbox":[31.6290599,31.2013995,31.6434201,31.2126529]}
{"name":"Bardis","other_names":{"name:ar":"برديس"},"display_name":"Bardis, سوهاج, مصر","address":{"city":"Bardis","state":"سوهاج","ISO3166-2-lvl4":"EG-SHG","country":"مصر","country_code":"eg"},"osm_type":"way","osm_id":1080964327,"type":"city","location":[31.947413042628305,26.288854649999998],"bbox":[31.940314,26.2815495,31.9562818,26.2962343]}
{"name":"Cascada كاسكادا","other_names":{"name:ar":"كاسكادا","name:en":"Cascada","name:fr":"Cascada"},"display_name":"Cascada كاسكادا, الطريق الساحلى الدولى, مارينا العلمين السياحيه, سيدى عبد الرحمن, مطروح, 51732, مصر","address":{"leisure":"Cascada كاسكادا","road":"الطريق الساحلى الدولى","neighbourhood":"مارينا العلمين السياحيه","city":"سيدى عبد الرحمن","state":"مطروح","ISO3166-2-lvl4":"EG-MT","postcode":"51732","country":"مصر","country_code":"eg"},"osm_type":"way","osm_id":296913849,"type":"beach_resort","location":[28.71881131373153,30.9887214],"bbox":[28.7153236,30.9849217,28.7218555,30.9923701]}
{"name":"El Karma الكرما","other_names":{"name:ar":"الكارما","name:en":"El Karma resort","name:fr":"El Karma"},"display_name":"El Karma الكرما, الطريق الساحلى الدولى, مارينا العلمين السياحيه, سيدى عبد الرحمن, مطروح, 51732, مصر","address":{"leisure":"El Karma الكرما","road":"الطريق الساحلى الدولى","neighbourhood":"مارينا العلمين السياحيه","city":"سيدى عبد الرحمن","state":"مطروح","ISO3166-2-lvl4":"EG-MT","postcode":"51732","country":"مصر","country_code":"eg"},"osm_type":"way","osm_id":296913850,"type":"beach_resort","location":[28.722608980065974,30.988641700000002],"bbox":[28.7215115,30.9869702,28.7236683,30.9898335]}
{"name":"El Matareya","other_names":{"name:ar":"المطرية"},"display_name":"El Matareya, بورسعيد, مصر","address":{"city":"El Matareya","state":"بورسعيد","ISO3166-2-lvl4":"EG-PTS","country":"مصر","country_code":"eg"},"osm_type":"way","osm_id":1084979847,"type":"city","location":[32.22445501636834,31.209292400000002],"bbox":[32.2180957,31.2062568,32.2299388,31.2144207]}
{"name":"El-Salam City","other_names":{"name:ar":"مدينة السلام الغربية","name:en":"Al Salam First"},"display_name":"El-Salam City, القليوبية, 11788, مصر","address":{"city":"El-Salam City","state":"القليوبية","ISO3166-2-lvl4":"EG-KB","postcode":"11788","country":"مصر","country_code":"eg"},"osm_type":"way","osm_id":1069633432,"type":"city","location":[31.4091625423734,30.17479935],"bbox":[31.3932355,30.1593964,31.4181667,30.1901295]}
{"name":"Ibn Sina ابن سينا","other_names":{"name:ar":"ابن سينا","name:en":"Ibn Sina resort","name:fr":"Ibn Sina"},"display_name":"Ibn Sina ابن سينا, الطريق الساحلى الدولى, مارينا العلمين السياحيه, سيدى عبد الرحمن, مطروح, 51732, مصر","address":{"leisure":"Ibn Sina ابن سينا","road":"الطريق الساحلى الدولى","neighbourhood":"مارينا العلمين السياحيه","city":"سيدى عبد الرحمن","state":"مطروح","ISO3166-2-lvl4":"EG-MT","postcode":"51732","country":"مصر","country_code":"eg"},"osm_type":"way","osm_id":296913852,"type":"beach_resort","location":[28.728837747504784,30.9812902],"bbox":[28.7234937,30.9775864,28.7335366,30.985049]}
{"name":"Orchidia أوركيديا","other_names":{"name:ar":"أوركيديا","name:en":"Orchidia","name:fr":"Orchidia"},"display_name":"Orchidia أوركيديا, الطريق الساحلى الدولى, مارينا العلمين السياحيه, سيدى عبد الرحمن, مطروح, مصر","address":{"leisure":"Orchidia أوركيديا","road":"الطريق الساحلى الدولى","neighbourhood":"مارينا العلمين السياحيه","city":"سيدى عبد الرحمن","state":"مطروح","ISO3166-2-lvl4":"EG-MT","country":"مصر","country_code":"eg"},"osm_type":"way","osm_id":296913853,"type":"beach_resort","location":[28.71520167306638,30.992148999999998],"bbox":[28.7128353,30.988251,28.7168373,30.9961692]}
{"name":"أبو كبير","other_names":{"name:ar":"أبو كبير","name:en":"Abu Kabir","name:es":"Abu Kabir","name:et":"Abū Kabīr","name:fa":"ابو کبیر","name:fr":"Abu Kabir","name:ml":"അബു കബീർ","name:ru":"Абу-Кебир","name:sv":"Abu Kabir","name:uk":"Абу-Кебір","name:ur":"ابوکبیر"},"display_name":"أبو كبير, مدينة أبو كبير, الشرقية, 44671, مصر","address":{"city":"أبو كبير","state":"الشرقية","ISO3166-2-lvl4":"EG-SHR","postcode":"44671","country":"مصر","country_code":"eg"},"population":106000,"osm_type":"node","osm_id":299571747,"type":"city","location":[31.6708449,30.72517],"bbox":[31.5108449,30.56517,31.8308449,30.88517]}
{"name":"أسوان","other_names":{"name:ar":"أسوان","name:ca":"Assuan","name:cs":"Asuán","name:da":"Aswan","name:de":"Assuan","name:el":"Ασσουάν","name:en":"Aswan","name:eo":"Asuano","name:es":"Asuán","name:et":"Assuan","name:eu":"Aswan","name:fi":"Assuan","name:fr":"Assouan","name:he":"אסואן","name:hi":"आस्वान","name:hr":"Asuan","name:hu":"Asszuán","name:kn":"ಆಸ್ವಾನ್","name:ko":"아스완","name:ku":"Aswan","name:lt":"Asuanas","name:ml":"അസ്വാൻ","name:mr":"आस्वान","name:nl":"Aswan","name:pl":"Asuan","name:pt":"Assuão","name:ru":"Асуан","name:sk":"Asuán","name:uk":"Асуан","alt_name":"الأقصر","name:cop":"ⲥⲟⲩⲁⲛ","name:kab":"Aswan","name:pt-BR":"Assuã","alt_name:ar":"الأقصر"},"display_name":"أسوان, 81511, مصر","address":{"city":"أسوان","state":"أسوان","ISO3166-2-lvl4":"EG-ASN","postcode":"81511","country":"مصر","country_code":"eg"},"population":241261,"osm_type":"node","osm_id":1667671341,"type":"city","location":[32.897306,24.091071],"bbox":[32.737306,23.931071,33.057306,24.251071]}
{"name":"أسيوط الجديدة","other_names":{"name:ar":"أسيوط الجديدة","name:en":"New Asyut","name:fr":"Nouveau Assiout","name:uk":"Асьют аль-Джадіда"},"display_name":"أسيوط الجديدة, أسيوط, 71684, مصر","address":{"city":"أسيوط الجديدة","state":"أسيوط","ISO3166-2-lvl4":"EG-AST","postcode":"71684","country":"مصر","country_code":"eg"},"osm_type":"node","osm_id":5794148997,"type":"city","location":[31.2972204,27.2693562],"bbox":[31.1372204,27.1093562,31.4572204,27.4293562],"border":{"name":"New Asyut","other_names":{"name:ar":"أسيوط الجديدة"},"display_name":"New Asyut, أسيوط, 71684, مصر","address":{"city":"New Asyut","state":"أسيوط","ISO3166-2-lvl4":"EG-AST","postcode":"71684","country":"مصر","country_code":"eg"},"osm_type":"way","osm_id":611872283,"type":"city","location":[31.282770063447984,27.27785165],"bbox":[31.2595255,27.2623648,31.3034774,27.2928408]}}
{"name":"أسيوط","other_names":{"name:ar":"أسيوط","name:be":"Асьют","name:de":"Asyut","name:el":"Ασιούτ","name:en":"Asyut","name:es":"Asiut","name:eu":"Asiut","name:fa":"اسیوط","name:fr":"Assiout","name:hi":"अस्युट","name:hy":"Ասյութ","name:ml":"അസ്യൂത്ത്","name:pt":"Assiute","name:ru":"Асьют","name:sr":"Асјут","name:uk":"Асьют","name:ur":"اسیوط","name:zh":"艾斯尤特","name:azb":"اسیوط","name:cop":"Ⲥⲓⲟⲟⲩⲧ","name:grc":"Λυκόπολις","name:pnb":"اسیوت"},"display_name":"أسيوط, مصر","address":{"city":"أسيوط","state":"أسيوط","ISO3166-2-lvl4":"EG-AST","country":"مصر","country_code":"eg"},"population":562743,"osm_type":"node","osm_id":6379231716,"type":"city","location":[31.1853836,27.1832822],"bbox":[31.0253836,27.0232822,31.3453836,27.3432822],"border":{"name":"أسيوط","other_names":{"name:ar":"أسيوط","name:be":"Асьют","name:de":"Asyut","name:el":"Ασιούτ","name:en":"Asyut","name:es":"Asiut","name:fa":"اسیوط","name:fr":"Assiout","name:hi":"अस्युट","name:hy":"Ասյութ","name:pt":"Assiute","name:ru":"Асьют","name:sr":"Асјут","name:uk":"Асьют","name:ur":"اسیوط","name:azb":"اسیوط","name:cop":"Ⲥⲓⲱⲟⲩⲧ","name:grc":"Λυκόπολις","name:kab":"Asyuṭ","name:pnb":"اسیوت","name:eu":"Asiut","name:ml":"അസ്യൂത്ത്","name:zh":"艾斯尤特","alt:cop":"Ⲥⲓⲟⲟⲩⲧ"},"display_name":"أسيوط, مصر","address":{"city":"أسيوط","state":"أسيوط","ISO3166-2-lvl4":"EG-AST","country":"مصر","country_code":"eg"},"population":562743,"osm_type":"way","osm_id":94168759,"type":"city","location":[31.1853836,27.1832822],"bbox":[31.1474028,27.1572498,31.2117827,27.2165756]}}
{"name":"إبيار","other_names":{"name:ar":"إبيار","name:de":"Ibyar","name:en":"Ibyar","name:fr":"Ibyar","name:ru":"Ибьяр","alt_name":"إبيار","int_name":"Ibyār, Ibyar","name:ar1":"إبيار"},"display_name":"إبيار, الغربية, 31611, مصر","address":{"city":"إبيار","state":"الغربية","ISO3166-2-lvl4":"EG-GH","postcode":"31611","country":"مصر","country_code":"eg"},"osm_type":"node","osm_id":768812366,"type":"city","location":[30.865,30.838611],"bbox":[30.705,30.678611,31.025,30.998611]}
{"name":"إدكو","other_names":{"name:ar":"إدكو","name:en":"Idku","name:es":"Idkū","name:fa":"ادکو","name:fr":"Idku","name:kk":"Идку","name:ml":"ഇദ്കു","name:pl":"Idku","name:ru":"Идку","name:sv":"Idku","name:zh":"伊德庫"},"display_name":"إدكو, البحيرة, 22748, مصر","address":{"city":"إدكو","state":"البحيرة","ISO3166-2-lvl4":"EG-BH","postcode":"22748","country":"مصر","country_code":"eg"},"population":210242,"osm_type":"node","osm_id":1039327711,"type":"city","location":[30.2985965,31.3057473],"bbox":[30.1385965,31.1457473,30.4585965,31.4657473]}
{"name":"إيتاي البارود","other_names":{"name:ar":"إيتاي البارود","name:fr":"Atay Al Baroud","name:uk":"Атай аль-Баруд","name:de":"Itay el-Barud","name:en":"Itay el-Barud","alt_name":"إيتاي البارود","int_name":"Itay El-Baroud","name:ar1":"تل البرود","alt:ar":"تل البرود","alt:fr":"Itay el-Barud"},"display_name":"إيتاي البارود, البحيرة, 22951, مصر","address":{"town":"إيتاي البارود","state":"البحيرة","ISO3166-2-lvl4":"EG-BH","postcode":"22951","country":"مصر","country_code":"eg"},"population":44856,"osm_type":"way","osm_id":312269819,"type":"city","location":[30.6646636,30.8869877],"bbox":[30.6521603,30.8774239,30.6783647,30.8954228]}
{"name":"الأقصر","other_names":{"name:ar":"الأقصر","name:cs":"Luxor","name:da":"Luxor","name:de":"Luxor","name:en":"Luxor","name:eo":"Luksoro","name:es":"Lúxor","name:et":"Luxor","name:eu":"Luxor","name:fi":"Luxor","name:fr":"Louxor","name:he":"לוקסור","name:hi":"लक्सर","name:hr":"Luksor","name:hu":"Luxor","name:ko":"룩소르","name:ku":"Lûksor","name:lt":"Luksoras","name:ml":"ലക്സർ","name:nl":"Luxor","name:pl":"Luksor","name:pt":"Luxor","name:ru":"Луксор","name:sk":"Luxor","name:tt":"Әлөкъсер","name:uk":"Луксор","int_name":"Al Uqsur (Luxor)","name:kab":"Luqṣur","nat_name":"الأقصر"},"display_name":"الأقصر, 85951, مصر","address":{"city":"الأقصر","state":"الأقصر","ISO3166-2-lvl4":"EG-LX","postcode":"85951","country":"مصر","country_code":"eg"},"population":451318,"osm_type":"node","osm_id":1667671370,"type":"city","location":[32.647186,25.702096],"bbox":[32.487186,25.542096,32.807186,25.862096]}
{"name":"الإسكندرية","other_names":{"name:af":"Alexandrië","name:am":"እስክንድርያ","name:an":"Aleixandría","name:ar":"الإسكندرية","name:az":"İsgəndəriyyə","name:ba":"Искәндәриә","name:be":"Александрыя","name:bg":"Александрия","name:bn":"আলেকজান্দ্রিয়া","name:bo":"ཡ་ལི་ཧྲན་ད","name:br":"Aleksandria","name:bs":"Aleksandrija","name:ca":"Alexandria","name:ce":"Искандри","name:cs":"Alexandrie","name:cy":"Alexandria","name:da":"Alexandria","name:de":"Alexandria","name:el":"Αλεξάνδρεια","name:en":"Alexandria","name:eo":"Aleksandrio","name:es":"Alejandría","name:et":"Aleksandria","name:eu":"Alexandria","name:fa":"اسکندریه","name:ff":"Alexandria","name:fi":"Aleksandria","name:fr":"Alexandrie","name:fy":"Aleksanderje","name:ga":"Cathair Alastair","name:gl":"Alexandría","name:gu":"એલેક્ઝાન્ડ્રિયા","name:ha":"Alexandria","name:he":"אלכסנדריה","name:hi":"सिकन्दरिया","name:hr":"Aleksandrija","name:hu":"Alexandria","name:hy":"Ալեքսանդրիա","name:ia":"Alexandria","name:id":"Aleksandria","name:ie":"Alexandria","name:io":"Alexandria","name:is":"Alexandría","name:it":"Alessandria","name:ja":"アレクサンドリア","name:jv":"Alexandria","name:ka":"ალექსანდრია","name:kk":"Александрия","name:kn":"ಸಿಕಂದರಿಯಾ","name:ko":"알렉산드리아","name:ks":"اسکندریہ","name:ku":"Îskenderiye","name:kv":"Ӧльӧксандрия","name:ky":"Александрия","name:la":"Alexandria","name:li":"Alexandrië","name:lt":"Aleksandrija","name:lv":"Aleksandrija","name:mg":"Aleksandria","name:mi":"Arekehānaria","name:mk":"Александрија","name:ml":"അലക്സാണ്ട്രിയ","name:mn":"Александриа","name:mr":"सिकन्दरिया","name:ms":"Iskandariah","name:my":"အလက်ဇန္ဒရီးယားမြို့","name:nb":"Alexandria","name:nl":"Alexandrië","name:nn":"Alexandria","name:oc":"Alexàndria","name:os":"Александрия","name:pa":"ਸਿਕੰਦਰੀਆ","name:pl":"Aleksandria","name:ps":"اسکندریه","name:pt":"Alexandria","name:qu":"Aliksanriya","name:ro":"Alexandria","name:ru":"Александрия","name:sc":"Lisàndria","name:sd":"اسڪندريہ","name:sk":"Alexandria","name:sl":"Aleksandrija","name:sn":"Alexandria","name:so":"Askandariya","name:sq":"Aleksandria","name:sr":"Александрија","name:sv":"Alexandria","name:sw":"Aleksandria","name:ta":"அலெக்சாந்திரியா","name:te":"అలెగ్జాండ్రియా","name:tg":"Искандария","name:th":"อะเล็กซานเดรีย","name:tl":"Alehandriya","name:tr":"İskenderiye","name:tw":"Alesandria","name:ug":"ئىسكەندەرىيە","name:uk":"Александрія","name:ur":"اسکندریہ","name:uz":"Iskandariya","name:vi":"Alexandria","name:wo":"Alegsàndiri","name:yi":"אלעקסאנדריע","name:zh":"亚历山大港","name:zu":"Alexandria","name:arc":"ܐܠܟܣܢܕܪܝܐ","name:azb":"ایسکندریه","name:ckb":"ئەسکەندەریە","name:cop":"ⲁⲗⲉⲝⲁⲛⲇⲣⲓⲁ","name:grc":"Ἀλεξάνδρεια","name:kab":"Taskendrit","name:pnb":"اسکندریہ","name:syc":"ܐܠܟܣܢܕܪܝܐ","name:szl":"Aleksandryjo","alt_name:ml":"അൽ-ഇസ്കന്ദ്രിയ","alt_name:cop":"ⲣⲁⲕⲟϯ","name:az-Arab":"ایسکندریه","name:zh-Hans":"亚历山大","name:zh-Hant":"亞歷山大港"},"display_name":"الإسكندرية, 21519, مصر","address":{"city":"الإسكندرية","state":"الإسكندرية","ISO3166-2-lvl4":"EG-ALX","postcode":"21519","country":"مصر","country_code":"eg"},"population":4546231,"osm_type":"node","osm_id":27565020,"type":"city","location":[29.8951716,31.1991806],"bbox":[29.7351716,31.0391806,30.0551716,31.3591806]}
{"name":"الإسماعيلية","other_names":{"name:ar":"الإسماعيلية","name:de":"Al Ismailiya","name:en":"Al Ismailiya","name:eo":"Ismailija","name:es":"Ismailía","name:et":"Al-Ismā’īlīyah","name:eu":"Ismailia","name:fa":"اسماعیلیه","name:fr":"Al Ismailiya","name:he":"איסמעיליה","name:hi":"इस्माइलिया","name:hr":"Ismailija","name:hu":"el-Iszmáilijja","name:ml":"ഇസ്മയിലിയ","name:nl":"Ismaïlia","name:pl":"Ismailia","name:ru":"Исмаилия","name:tr":"İsmâiliye","name:uk":"Ісмаїлія","name:ur":"اسماعیلیہ","name:azb":"ایسماعیلیه","name:ckb":"ئیسماعیلیە","name:kab":"Ismaɛileyya","name:pnb":"اسماعیلیہ","alt_name:ar":"إسماعيلية","alt_name:en":"Al Ismā‘īlīya;Al Ismailiya","alt_name:tr":"İsmailiye"},"display_name":"الإسماعيلية, 41544, مصر","address":{"city":"الإسماعيلية","state":"الإسماعيلية","ISO3166-2-lvl4":"EG-IS","postcode":"41544","country":"مصر","country_code":"eg"},"population":352000,"osm_type":"node","osm_id":768595872,"type":"city","location":[32.2770825,30.6043775],"bbox":[32.1170825,30.4443775,32.4370825,30.7643775]}
{"name":"الابراهيمية","display_name":"الابراهيمية, الشرقية, مصر","address":{"city":"الابراهيمية","state":"الشرقية","ISO3166-2-lvl4":"EG-SHR","country":"مصر","country_code":"eg"},"population":80000,"osm_type":"way","osm_id":953987856,"type":"city","location":[31.551469187485637,30.7191963],"bbox":[31.5196541,30.6898837,31.6039913,30.7508311]}
{"name":"الجيزة","other_names":{"name:ar":"الجيزة","name:be":"Гіза","name:cs":"Gíza","name:de":"Giseh","name:en":"Giza","name:eo":"Gizo","name:es":"Guiza","name:et":"Giza","name:fi":"Giza","name:fr":"Gizeh","name:he":"גיזה","name:hi":"गीज़ा","name:hr":"Giza","name:hu":"Gíza","name:ko":"기자","name:ml":"ഗിസ","name:nl":"Gizeh","name:oc":"Giza","name:pl":"Giza","name:ru":"Гиза","name:sr":"Гиза","name:sv":"Giza","name:uk":"Гіза","name:ur":"جیزہ","name:ceb":"Al Jizah","name:cop":"ϯⲠⲉⲣⲥⲓⲟⲥ","name:yue":"加沙","alt_name:eo":"Giza;Gizeh;Ĝiza","name:sr-Latn":"Giza","name:zh-Hans":"吉萨","name:zh-Hant":"吉薩"},"display_name":"الجيزة, 12524, مصر","address":{"city":"الجيزة","state":"الجيزة","ISO3166-2-lvl4":"EG-GZ","postcode":"12524","country":"مصر","country_code":"eg"},"population":2681863,"osm_type":"node","osm_id":27565120,"type":"city","location":[31.2118063,29.9870753],"bbox":[31.0518063,29.8270753,31.3718063,30.1470753]}
{"name":"الخامس عشر من مايو","other_names":{"name:ar":"الخامس عشر من مايو","name:de":"Der fünfzehnte mai","name:en":"Fifteenth Of May","name:fr":"Le quinze Mai","name:hi":"मई की पंद्रहवीं","name:ml":"പതിനഞ്ചാം മെയ്","name:ru":"Пятнадцатого Мая","name:sv":"Femtondemajstaden","name:uk":"П'ятнадцятого травня","short_name:ar":"15 مايو"},"display_name":"الخامس عشر من مايو, القاهرة, 11748, مصر","address":{"city":"الخامس عشر من مايو","state":"القاهرة","ISO3166-2-lvl4":"EG-C","postcode":"11748","country":"مصر","country_code":"eg"},"osm_type":"node","osm_id":330190833,"type":"city","location":[31.3647679,29.8320418],"bbox":[31.2047679,29.6720418,31.5247679,29.9920418]}
{"name":"الدبلوماسيين 3 -- Diplomaseyin 3","other_names":{"name:ar":"قرية الدبلوماسيين النموذجية 3","name:en":"Diplomaseyin 3","name:fr":"Diplomatic Village 3"},"display_name":"الدبلوماسيين 3 -- Diplomaseyin 3, الطريق الساحلى الدولى, مارينا العلمين السياحيه, سيدى عبد الرحمن, مطروح, 51732, مصر","address":{"leisure":"الدبلوماسيين 3 -- Diplomaseyin 3","road":"الطريق الساحلى الدولى","neighbourhood":"مارينا العلمين السياحيه","city":"سيدى عبد الرحمن","state":"مطروح","ISO3166-2-lvl4":"EG-MT","postcode":"51732","country":"مصر","country_code":"eg"},"osm_type":"way","osm_id":267187324,"type":"beach_resort","location":[28.780275857370064,30.9566672],"bbox":[28.7725818,30.9498981,28.7878954,30.9613823]}
{"name":"الرحمانية","other_names":{"name:ar":"الرحمانية","name:en":"El Rahmaniya","name:fa":"رحمانیه","name:fr":"El Rahmanieh","name:ml":"അർ-റഹ്മാനിയ","name:pl":"Ar-Rahmanijja","name:uk":"Ель-Рахманія"},"display_name":"الرحمانية, البحيرة, 22744, مصر","address":{"city":"الرحمانية","state":"البحيرة","ISO3166-2-lvl4":"EG-BH","postcode":"22744","country":"مصر","country_code":"eg"},"population":32093,"osm_type":"node","osm_id":5650937978,"type":"city","location":[30.6424526,31.1045549],"bbox":[30.4824526,30.9445549,30.8024526,31.2645549]}
{"name":"الزقازيق","other_names":{"name:ar":"الزقازيق","name:en":"Zagazig","name:eo":"Zagazig","name:es":"Zaqaziq","name:et":"Az Zaqāzīq","name:eu":"Zagazig","name:fr":"Zagazig","name:he":"זקאזיק","name:ml":"സഗാസിഗ്","name:pl":"Az Zakazik","name:ru":"Эз-Заказик","name:uk":"Ез-Заказік","name:kab":"Zagazig"},"display_name":"الزقازيق, الشرقية, 44512, مصر","address":{"city":"الزقازيق","state":"الشرقية","ISO3166-2-lvl4":"EG-SHR","postcode":"44512","country":"مصر","country_code":"eg"},"population":285097,"osm_type":"node","osm_id":299498464,"type":"city","location":[31.5035127,30.5853431],"bbox":[31.3435127,30.4253431,31.6635127,30.7453431]}
{"name":"السادات","other_names":{"name:ar":"السادات","name:de":"Sadat","name:en":"Sadat","name:es":"Sadat","name:fa":"سادات","name:fr":"Sadat","name:ml":"സാദാത്ത്","name:ru":"Садат","name:uk":"Садат","name:ur":"سادات","name:azb":"سادات"},"display_name":"السادات, مدينة السادات, المنوفية, 32921, مصر","address":{"city":"السادات","state":"المنوفية","ISO3166-2-lvl4":"EG-MNF","postcode":"32921","country":"مصر","country_code":"eg"},"osm_type":"node","osm_id":10940390949,"type":"city","location":[30.5075715,30.3652517],"bbox":[30.3475715,30.2052517,30.6675715,30.5252517],"border":{"name":"مدينة السادات","other_names":{"name:ar":"مدينة السادات","name:en":"Sadat City","name:fr":"Sadat City","name:hi":"सादात शहर","name:ru":"Мадинат-эс-Садат","name:uk":"Мадінат-ес-Садат","int_name":"Sadat City","name:de":"Sadat","name:es":"Sadat","name:fa":"سادات","name:ml":"സാദാത്ത്","name:ur":"سادات","name:azb":"سادات","alt":"السادات","alt:ar":"السادات","alt:en":"Sadat","alt:fr":"Sadat","alt:ru":"Садат","alt:uk":"Садат"},"display_name":"مدينة السادات, المنوفية, مصر","address":{"city":"مدينة السادات","state":"المنوفية","ISO3166-2-lvl4":"EG-MNF","country":"مصر","country_code":"eg"},"population":79000,"osm_type":"way","osm_id":211849659,"type":"city","location":[30.5075715,30.3652517],"bbox":[30.3547104,30.2996259,30.678873,30.5644828]}}
{"name":"السادس من أكتوبر","other_names":{"name:ar":"السادس من أكتوبر","name:de":"Sechster Oktober","name:en":"6th of October","name:eo":"La sesa de oktobro","name:es":"Seis de Octubre","name:fr":"Six Octobre","name:hr":"Madinat as Sadis min Uktubar","name:ko":"10월 6일","name:ml":"ഒക്ടോബർ ആറാം നഗരം","name:pl":"Szósty października","name:ru":"Город имени 6 октября","name:sv":"Sjätte oktober-staden","name:uk":"Медіна-Сіттат-Октобер","alt_name":"مدينة السادس من أكتوبر","int_name":"6th October City","alt_name:hr":"Grad šestog listopada","alt_name:pl":"Miasto 6. października","alt_name:uk":"Місто імені 6 жовтня"},"display_name":"السادس من أكتوبر, الجيزة, 12591, مصر","address":{"city":"السادس من أكتوبر","state":"الجيزة","ISO3166-2-lvl4":"EG-GZ","postcode":"12591","country":"مصر","country_code":"eg"},"population":184000,"osm_type":"node","osm_id":299523927,"type":"city","location":[30.9409205,29.9723458],"bbox":[30.7809205,29.8123458,31.1009205,30.1323458],"border":{"name":"مدينة السادس من أكتوبر","other_names":{"name:ar":"مدينة السادس من أكتوبر","name:de":"Madinat as-Sadis min Uktubar","name:fr":"Ville du 6 octobre","name:sr":"Мадинат ас-Садис мин Уктубар","name:ur":"6 اکتوبر شہر","name:azb":"شهر آلتی اوکتوبر","name:sco":"6t o October Ceety","name:ar-Latn":"Madīnat as-Sādis min Uktūbar"},"display_name":"مدينة السادس من أكتوبر, الجيزة, مصر","address":{"administrative":"مدينة السادس من أكتوبر","state":"الجيزة","ISO3166-2-lvl4":"EG-GZ","country":"مصر","country_code":"eg"},"osm_type":"way","osm_id":1103595802,"type":"administrative","location":[30.95489877785421,29.963099],"bbox":[30.7026601,29.8308843,31.1006938,30.0970503]}}
{"name":"السويس الجديدة","other_names":{"name:ar":"السويس الجديدة","name:en":"New Suez"},"display_name":"السويس الجديدة, السويس, مصر","address":{"city":"السويس الجديدة","state":"السويس","ISO3166-2-lvl4":"EG-SUZ","country":"مصر","country_code":"eg"},"osm_type":"node","osm_id":11525807019,"type":"city","location":[32.3746331,29.7690506],"bbox":[32.2146331,29.6090506,32.5346331,29.9290506]}
{"name":"السويس","other_names":{"name:af":"Suez","name:ar":"السويس","name:az":"Süveyş","name:ba":"Сүәйс (Суэц)","name:be":"Суэц","name:bg":"Суец","name:bs":"Suez","name:ca":"Suez","name:ce":"Сувайс","name:cs":"Suez","name:da":"Suez","name:de":"Sues","name:el":"Σουέζ","name:en":"Suez","name:eo":"Suezo","name:es":"Suez","name:et":"Suess","name:eu":"Suez","name:fa":"سوئز","name:fi":"Suez","name:fr":"Suez","name:fy":"Suëz","name:ga":"Suais","name:ha":"Suez","name:he":"סואץ","name:hi":"स्वेज़","name:hr":"Suez","name:hu":"Szuez","name:hy":"Սուեզ","name:id":"Suez","name:is":"Súes","name:it":"Suez","name:ja":"スエズ","name:jv":"Suèz","name:ka":"სუეცი","name:kn":"ಸುವೈಸ್","name:ko":"수에즈","name:la":"Suesia","name:lt":"Suecas","name:lv":"Suvaisa","name:mg":"Suez","name:ml":"സൂയസ്","name:mr":"सुएझ","name:ms":"Suez","name:nb":"Suez","name:nl":"Suez","name:nn":"Suez","name:oc":"Suèz","name:os":"Суэц","name:pl":"Suez","name:pt":"Suez","name:ro":"Suez","name:ru":"Суэц","name:sk":"Suez","name:sq":"Suezi","name:sr":"Суец","name:sv":"Suez","name:sw":"Suez","name:th":"สุเอซ","name:tr":"Süveyş","name:uk":"Суец","name:ur":"سوئیز","name:uz":"Suvaysh","name:vi":"Suez","name:zh":"蘇伊士/苏伊士","name:zu":"Suez","name:azb":"سوئز","name:csb":"Suez","name:yue":"蘇伊士","name:az-Arab":"سوئز","name:zh-Hans":"苏伊士","name:zh-Hant":"蘇伊士"},"display_name":"السويس, 43515, مصر","address":{"city":"السويس","state":"السويس","ISO3166-2-lvl4":"EG-SUZ","postcode":"43515","country":"مصر","country_code":"eg"},"population":488125,"osm_type":"node","osm_id":27564966,"type":"city","location":[32.537086,29.974498],"bbox":[32.377086,29.814498,32.697086,30.134498]}
{"name":"الشروق","other_names":{"name:ar":"الشروق","name:en":"The Sunrise","name:fr":"Lever du Soleil","name:he":"זריחה","name:hr":"Aš Šuruk","name:ml":"അഷ്-ഷുറൂഖ്","name:uk":"аш-Шурк","alt_name:uk":"Санрайз (Схід Сонця)"},"display_name":"الشروق, القاهرة, 11837, مصر","address":{"city":"الشروق","state":"القاهرة","ISO3166-2-lvl4":"EG-C","postcode":"11837","country":"مصر","country_code":"eg"},"osm_type":"node","osm_id":298439914,"type":"city","location":[31.6295623,30.1488541],"bbox":[31.4695623,29.9888541,31.7895623,30.3088541]}
{"name":"الشلاتين","other_names":{"name:ar":"الشلاتين","name:de":"Asch Schalatin","name:en":"Ash Shalatin","name:eu":"Shalatin","name:fr":"Alshalateen","name:ml":"ഷലാത്തീൻ","name:ru":"Шалатейн","name:sv":"Shalateen","name:uk":"Шалатейн"},"display_name":"الشلاتين, البحر الأحمر, مصر","address":{"city":"الشلاتين","state":"البحر الأحمر","ISO3166-2-lvl4":"EG-BA","country":"مصر","country_code":"eg"},"population":6731,"osm_type":"node","osm_id":296193469,"type":"city","location":[35.5639423,23.1061832],"bbox":[35.4039423,22.9461832,35.7239423,23.2661832]}
{"name":"الشيخ زايد","other_names":{"name:ar":"الشيخ زايد","name:de":"Asch-Schaich Zayid","name:en":"Ash Sheikh Zayed","name:fr":"Cheikh Zayed","name:hr":"Madinad aš Šajh Zajid","name:ml":"ഷെയ്ഖ് സായിദ്","name:pl":"Asz-Szajch Zajid","name:ru":"Шейхов Заид","name:uk":"еш-Шейх Заід","name:ur":"شیخ زاید","name:arz":"الشيخ زايد","name:ar-Latn":"Aš-Šaiḫ Zāyid","official_name":"مدينة الشيخ زايد","official_name:ar":"مدينة الشيخ زايد","official_name:de":"Madinat asch-Schaich Zayid","official_name:fr":"Ville de Cheikh Zayed","official_name:pl":"Madinat asz-Szajch Zajid","official_name:ur":"شیخ زاید شہر"},"display_name":"الشيخ زايد, الجيزة, 12588, مصر","address":{"city":"الشيخ زايد","state":"الجيزة","ISO3166-2-lvl4":"EG-GZ","postcode":"12588","country":"مصر","country_code":"eg"},"population":383000,"osm_type":"node","osm_id":5873095285,"type":"city","location":[30.9797507,30.0453315],"bbox":[30.8197507,29.8853315,31.1397507,30.2053315]}
{"name":"الشيخ زايد","other_names":{"name:ar":"الشيخ زايد","name:en":"Sheikh Zayed","name:fr":"Cheikh Zayed","alt_name":"مدينة الشيخ زايد"},"display_name":"الشيخ زايد, الجيزة, 12588, مصر","address":{"city":"الشيخ زايد","state":"الجيزة","ISO3166-2-lvl4":"EG-GZ","postcode":"12588","country":"مصر","country_code":"eg"},"population":80000,"osm_type":"node","osm_id":330194927,"type":"city","location":[30.9832235,30.048347],"bbox":[30.8232235,29.888347,31.1432235,30.208347],"border":{"name":"مدينة الشيخ زايد","other_names":{"name:ar":"مدينة الشيخ زايد","name:de":"Madinat asch-Schaich Zayid","name:fr":"Ville de Cheikh Zayed","name:pl":"Madinat asz-Szajch Zajid","name:ru":"Город Шейхов","name:ur":"شیخ زاید شہر","name:sco":"Sheikh Zayed Ceety","name:ar-Latn":"Madīnat aš-Šaiḫ Zāyid"},"display_name":"مدينة الشيخ زايد, الجيزة, مصر","address":{"administrative":"مدينة الشيخ زايد","state":"الجيزة","ISO3166-2-lvl4":"EG-GZ","country":"مصر","country_code":"eg"},"population":383000,"osm_type":"way","osm_id":1104195975,"type":"administrative","location":[30.999003174920766,30.0480364],"bbox":[30.9323394,30.0091818,31.0514251,30.0876886]}}
{"name":"الطور","other_names":{"name:ar":"الطور","name:de":"At Tur","name:en":"At Tur","name:eo":"At Tur","name:es":"At Tur","name:et":"Aţ-Ţūr","name:fa":"الطور","name:fr":"At Tour","name:he":"א-טור","name:ka":"ელ-ტური","name:kk":"Эт-Тур","name:ks":"الطور","name:ml":"അത്തൂർ","name:pl":"At-Tur","name:ru":"Эль Тур","name:uk":"Ет-Тур","name:ur":"الطور","name:azb":"الطور","name:ckb":"تور","alt_name:ar":"طور سيناء","alt_name:en":"Et Tor;Al Tor;Al Tur;Thur","alt_name:pl":"Al Tur;El Tur;Tur Sinai","name:zh-Hans":"托西奈","name:zh-Hant":"托西奈"},"display_name":"الطور, جنوب سيناء, 46511, مصر","address":{"city":"الطور","state":"جنوب سيناء","ISO3166-2-lvl4":"EG-JS","postcode":"46511","country":"مصر","country_code":"eg"},"population":16129,"osm_type":"node","osm_id":768582192,"type":"city","location":[33.623611,28.241667],"bbox":[33.463611,28.081667,33.783611,28.401667]}
{"name":"العاشر من رمضان","other_names":{"name:ar":"العاشر من رمضان","name:de":"10. Ramadan","name:en":"Tenth Of Ramadan","name:fr":"10ème Ramadan","name:ml":"പത്താം റമദാൻ","name:ru":"Эль-Ашир-мин-Рамадан","name:sr":"Ел Ашер","name:uk":"Ель-Ашир-мін-Рамадан","name:ur":"10 رمضان شہر","name:azb":"عاشر من رمضان"},"display_name":"العاشر من رمضان, الشرقية, 44629, مصر","address":{"city":"العاشر من رمضان","state":"الشرقية","ISO3166-2-lvl4":"EG-SHR","postcode":"44629","country":"مصر","country_code":"eg"},"osm_type":"node","osm_id":10154769796,"type":"city","location":[31.7392776,30.3154491],"bbox":[31.5792776,30.1554491,31.8992776,30.4754491],"border":{"name":"العاشر من رمضان","other_names":{"name:ar":"العاشر من رمضان","name:de":"10. Ramadan","name:en":"10th of Ramadan","name:es":"Diez de Ramadán","name:fr":"10ème Ramadan","name:ml":"റമദാൻ പത്താം നഗരം","name:ru":"Эль-Ашир-мин-Рамадан","name:sr":"Ел Ашер","name:uk":"Ель-Ашир-мін-Рамадан","name:ur":"10 رمضان شہر","name:arz":"العاشر من رمضان","name:azb":"عاشر من رمضان","alt:en":"Tenth Of Ramadan","alt:ml":"പത്താം റമദാൻ"},"display_name":"العاشر من رمضان, الشرقية, مصر","address":{"city":"العاشر من رمضان","state":"الشرقية","ISO3166-2-lvl4":"EG-SHR","country":"مصر","country_code":"eg"},"population":511987,"osm_type":"way","osm_id":605783816,"type":"city","location":[31.7392776,30.3154491],"bbox":[31.6813301,30.2676355,31.7858584,30.3533758]}}
{"name":"العاصمة الإدارية الجديدة","other_names":{"name:ar":"العاصمة الإدارية الجديدة","name:be":"Новая Сталіца Эгіпту","name:de":"Neue Verwaltungshauptstadt","name:en":"New Administrative Capital","name:es":"Nueva Capital Administrativa","name:fr":"Nouvelle capitale administrative","name:hr":"Nova Administrativna Prijestolnica","name:ml":"പുതിയ ഭരണ തലസ്ഥാനം","name:uk":"Нова Столиця Єгипту","name:ur":"نیا انتظامی دارالحکومت","alt_name":"العاصمة الإدارية;العاصمة الإدارية الجديدة;العاصمة الجديدة لمصر","name:azb":"میصرین یئنی پایتختی","alt_name:ar":"العاصمة الإدارية;العاصمة الإدارية الجديدة;العاصمة الجديدة لمصر","alt_name:de":"Neue Verwaltungshauptstadt Ägyptens;Neue Hauptstadt Ägyptens;Verwaltungshauptstadt Ägyptens","alt_name:en":"New Administrative Capital of Egypt","alt_name:es":"Nuevo Cairo;Nueva Capital Administrativa de Egipto","alt_name:fa":"پایتخت جدید پیشنهادی مصر","alt_name:azb":"پایتخت جدید پیشنهادی میصر","official_name":"مدينة وديان","name:be-tarask":"Новая Сталіца Эгіпту","official_name:ar":"مدينة وديان","official_name:de":"Stadt Wudyan","official_name:es":"Ciudad Wudyán","official_name:ur":"مدینہ ودیان"},"display_name":"العاصمة الإدارية الجديدة, القاهرة, مصر","address":{"city":"العاصمة الإدارية الجديدة","state":"القاهرة","ISO3166-2-lvl4":"EG-C","country":"مصر","country_code":"eg"},"osm_type":"node","osm_id":7152775457,"type":"city","location":[31.7549459,30.023829],"bbox":[31.5949459,29.863829,31.9149459,30.183829]}
{"name":"العبور","other_names":{"name:ar":"العبور","name:de":"Al Ubur","name:en":"The Crossing","name:es":"El Obour","name:fr":"El Obour","name:hr":"Al Ubur","name:ml":"അൽ-ഉബൂർ","name:ru":"Эль-Убур","name:sv":"Obour","name:uk":"Ель-Убур"},"display_name":"العبور, القليوبية, 11785, مصر","address":{"city":"العبور","state":"القليوبية","ISO3166-2-lvl4":"EG-KB","postcode":"11785","country":"مصر","country_code":"eg"},"osm_type":"node","osm_id":311994035,"type":"city","location":[31.450548,30.1914],"bbox":[31.290548,30.0314,31.610548,30.3514],"border":{"name":"El Obour","display_name":"El Obour, القليوبية, مصر","address":{"city":"El Obour","state":"القليوبية","ISO3166-2-lvl4":"EG-KB","country":"مصر","country_code":"eg"},"osm_type":"way","osm_id":1103977905,"type":"city","location":[31.465685617766244,30.2288224],"bbox":[31.4379707,30.1706644,31.508658,30.2858761]}}
{"name":"العريش","other_names":{"name:ar":"العريش","name:bg":"Ариш","name:de":"El Arisch","name:en":"El Arish","name:eu":"El Arish","name:fa":"عریش","name:fr":"El Ariche","name:he":"אל-עריש","name:ja":"アリーシュ","name:ka":"ელ-არიში","name:kk":"Эль-Ариш","name:ko":"아리시","name:ml":"അൽ-അറീഷ്","name:pt":"Alarixe","name:ru":"Эль-Ариш","name:sr":"Ариш","name:uk":"Ель-Аріш","name:ur":"عریش","name:yi":"על אריש","name:azb":"عریش","name:cop":"ϩⲣⲓⲛⲟⲕⲟⲣⲟⲩⲣⲁ","name:grc":"Ῥινοκόρουρα","alt_name:grc":"Ἄριζα"},"display_name":"العريش, Arish, شمال سيناء, مصر","address":{"city":"العريش","state":"شمال سيناء","ISO3166-2-lvl4":"EG-SIN","country":"مصر","country_code":"eg"},"population":164830,"osm_type":"node","osm_id":11300927566,"type":"city","location":[33.7983521,31.123641],"bbox":[33.6383521,30.963641,33.9583521,31.283641],"border":{"name":"Arish","other_names":{"name:ar":"Arish","name:bg":"Ариш","name:de":"El Arisch","name:en":"El Arish","name:eu":"El Arish","name:fa":"عریش","name:fr":"El Ariche","name:he":"אל-עריש","name:ja":"アリーシュ","name:ka":"ელ-არიში","name:kk":"Эль-Ариш","name:ko":"아리시","name:ml":"അൽ-അറീഷ്","name:pt":"Alarixe","name:ru":"Эль-Ариш","name:sr":"Ариш","name:uk":"Ель-Аріш","name:ur":"عریش","name:yi":"על אריש","name:azb":"عریش","name:cop":"ϩⲣⲓⲛⲟⲕⲟⲣⲟⲩⲣⲁ","name:grc":"Ῥινοκόρουρα","alt_name:grc":"Ἄριζα","alt":"العريش","alt:ar":"العريش"},"display_name":"Arish, شمال سيناء, مصر","address":{"city":"Arish","state":"شمال سيناء","ISO3166-2-lvl4":"EG-SIN","country":"مصر","country_code":"eg"},"population":164,"osm_type":"way","osm_id":1219433628,"type":"administrative","location":[33.7983521,31.123641],"bbox":[33.6767533,31.0580049,33.8681789,31.1616767]}}
{"name":"العلمين","other_names":{"name:ar":"العلمين","name:de":"El-Alamein","name:en":"El Alamein","name:es":"El Alamein","name:fr":"El Alamein","name:hu":"El Alamein","name:it":"El Alamein","name:ml":"അൽ-അലമീൻ","name:pl":"Al-Alamajn","name:ru":"Эль-Аламейн","name:tr":"El Alameyn","name:uk":"Ель-Аламейн","alt_name":"العلمين","int_name":"Alamein"},"display_name":"العلمين, مطروح, مصر","address":{"city":"العلمين","state":"مطروح","ISO3166-2-lvl4":"EG-MT","country":"مصر","country_code":"eg"},"population":10922,"osm_type":"node","osm_id":768026937,"type":"city","location":[28.949268,30.833944],"bbox":[28.789268,30.673944,29.109268,30.993944]}
{"name":"الغردقة","other_names":{"name:ar":"الغردقة","name:cs":"Hurghada","name:de":"Hurghada","name:en":"Hurghada","name:eo":"Hurghada","name:es":"Hurgada","name:et":"Hurghada","name:fi":"Hurghada","name:fr":"Hurghada","name:hi":"हुरघादा","name:hu":"Gurdaka","name:ko":"후르가다","name:lt":"Hurgada","name:ml":"ഹുർഘാദ","name:nl":"Hurghada","name:pl":"Hurghada","name:ru":"Хургада","name:uk":"Хургада","name:zh":"古尔代盖/洪加達","name:yue":"洪加達","alt_name:ar":"غردقة","name:zh-Hans":"古尔代盖","name:zh-Hant":"洪加達"},"display_name":"الغردقة, البحر الأحمر, 84512, مصر","address":{"city":"الغردقة","state":"البحر الأحمر","ISO3166-2-lvl4":"EG-BA","postcode":"84512","country":"مصر","country_code":"eg"},"population":160901,"osm_type":"node","osm_id":27084072,"type":"city","location":[33.8307062,27.222556],"bbox":[33.6707062,27.062556,33.9907062,27.382556]}
{"name":"الفيوم","other_names":{"name:ar":"الفيوم","name:cs":"Fajúm","name:de":"Al-Fayyum","name:en":"Faiyum","name:eo":"Fajumo","name:es":"Fayún","name:et":"Al-Fayyūm","name:eu":"Faiyum","name:fr":"Médinet el-Fayoum","name:he":"פאיום","name:hi":"फयूम","name:hr":"Fajum","name:hu":"Fajjúm","name:hy":"Ֆայում","name:ko":"파이윰","name:la":"Crocodilopolis","name:ml":"ഫയൂം","name:pl":"Fajum","name:ru":"Файюм","name:sr":"Фајум","name:uk":"Ель-Файюм","name:ur":"فیوم","name:azb":"فیوم","name:cop":"'Ⲫⲓⲟⲙ","name:grc":"Κροκοδειλόπολις","name:kab":"Fayyum","alt_name:cs":"Fajjúm","alt_name:eo":"Krokodilopolo","alt_name:cop":"Ⲫⲓⲱⲙ","alt_name:grc":"Κροκοδείλων Πόλις"},"display_name":"الفيوم, 63523, مصر","address":{"city":"الفيوم","state":"الفيوم","ISO3166-2-lvl4":"EG-FYM","postcode":"63523","country":"مصر","country_code":"eg"},"population":306393,"osm_type":"node","osm_id":768555545,"type":"city","location":[30.8399651,29.3074076],"bbox":[30.6799651,29.1474076,30.9999651,29.4674076]}
{"name":"القاهرة الجديدة","other_names":{"name:ar":"القاهرة الجديدة","name:cs":"Nová Káhira","name:de":"Neu-Kairo","name:en":"New Cairo","name:es":"Nuevo Cairo","name:fa":"قاهره جدید","name:fr":"Nouveau Caire","name:hr":"Novi Kairo","name:hy":"Նոր Կահիրե","name:ml":"പുതിയ കെയ്‌റോ","name:uk":"Новий Каїр","name:ur":"جدید قاہرہ","name:zh":"新开罗","alt_name:uk":"Аль-Кахира аль-Джадіда"},"display_name":"القاهرة الجديدة, مدينة القاهرة الجديدة, القاهرة, مصر","address":{"city":"القاهرة الجديدة","state":"القاهرة","ISO3166-2-lvl4":"EG-C","country":"مصر","country_code":"eg"},"population":298343,"osm_type":"node","osm_id":7651711567,"type":"city","location":[31.4756825,30.0277688],"bbox":[31.3156825,29.8677688,31.6356825,30.1877688],"border":{"name":"مدينة القاهرة الجديدة","other_names":{"name:ar":"مدينة القاهرة الجديدة","name:cs":"Nová Káhira","name:de":"Neu-Kairo","name:en":"New Cairo City","name:es":"Nuevo Cairo","name:fa":"قاهره جدید","name:fr":"Nouveau Caire","name:he":"העיר קהיר החדשה","name:hi":"नया काहिरा शहर","name:hy":"Նոր Կահիրե","name:ml":"ന്യൂ കെയ്‌റോ സിറ്റി","name:uk":"Новий Каїр","name:ur":"جدید قاہرہ","alt_name:uk":"Нью-Кайро","name:hr":"Novi Kairo","name:zh":"新开罗","_place_alt_name:uk":"Аль-Кахира аль-Джадіда","alt":"القاهرة الجديدة","alt:ar":"القاهرة الجديدة","alt:en":"New Cairo","alt:ml":"പുതിയ കെയ്‌റോ"},"display_name":"مدينة القاهرة الجديدة, القاهرة, مصر","address":{"city":"مدينة القاهرة الجديدة","state":"القاهرة","ISO3166-2-lvl4":"EG-C","country":"مصر","country_code":"eg"},"population":298343,"osm_type":"way","osm_id":498580491,"type":"administrative","location":[31.4756825,30.0277688],"bbox":[31.3603561,29.9230331,31.7465705,30.1175982]}}
{"name":"القاهرة","other_names":{"name:af":"Kaïro","name:ak":"Cairo","name:am":"ካይሮ","name:an":"O Caire","name:ar":"القاهرة","name:av":"Къагьира","name:az":"Qahirə","name:ba":"Ҡәһир","name:be":"Каір","name:bg":"Кайро","name:bh":"काहिरा","name:bn":"কায়রো","name:bo":"ཁ་ཡི་རོ","name:br":"Kaero","name:bs":"Kairo","name:ca":"el Caire","name:ce":"КъахӀира","name:co":"U Cairu","name:cs":"Káhira","name:cv":"Каир","name:cy":"Cairo","name:da":"Kairo","name:de":"Kairo","name:el":"Κάιρο","name:en":"Cairo","name:eo":"Kairo","name:es":"El Cairo","name:et":"Kairo","name:eu":"Kairo","name:fa":"قاهره","name:fi":"Kairo","name:fo":"Keiro","name:fr":"Le Caire","name:fy":"Kairo","name:ga":"Caireo","name:gd":"Cairo","name:gl":"O Cairo - القاهرة","name:gn":"Káiro","name:gu":"કૈરો","name:gv":"Cairo","name:ha":"Kairo","name:he":"קהיר","name:hi":"काहिरा","name:hr":"Kairo","name:ht":"Li Kè","name:hu":"Kairó","name:hy":"Կահիրե","name:ia":"Cairo","name:id":"Kairo","name:ie":"Cairo","name:io":"Kairo","name:is":"Kaíró","name:it":"Il Cairo","name:ja":"カイロ","name:jv":"Kairo","name:ka":"კაირო","name:ki":"Cairo","name:kk":"Әл-Қаһира","name:kl":"Cairo","name:kn":"ಕೈರೋ","name:ko":"카이로","name:ks":"قاہرہ","name:ku":"Qahîre","name:kv":"Каир","name:kw":"Cairo","name:ky":"Каир","name:la":"Cairus","name:lb":"Kairo","name:li":"Caïro","name:ln":"Kairo","name:lo":"ໄຄໂຣ","name:lt":"Kairas","name:lv":"Kaira","name:mg":"Kahira","name:mi":"Kairo","name:mk":"Каиро","name:ml":"കെയ്റോ","name:mn":"Каир","name:mr":"कैरो","name:ms":"Kaherah","name:mt":"Kajr","name:my":"ကိုင်ရိုမြို့","name:na":"Cairo","name:nb":"Kairo","name:ne":"कायरो","name:nl":"Caïro","name:nn":"Kairo","name:no":"Kairo","name:nv":"Yadaazʼáhíłání","name:ny":"Cairo","name:oc":"Lo Caire","name:os":"Каир","name:pa":"ਕਾਹਿਰਾ","name:pl":"Kair","name:ps":"قاهره","name:pt":"Cairo","name:qu":"Qahira","name:rm":"Cairo","name:ro":"Cairo","name:ru":"Каир","name:sc":"Cairo","name:sd":"قاهره","name:se":"Cairo","name:sh":"Kairo","name:si":"කයිරෝ","name:sk":"Káhira","name:sl":"Kairo","name:sn":"Cairo","name:so":"Qaahiro","name:sq":"Kajro","name:sr":"Каиро","name:ss":"Cairo","name:su":"Kairo","name:sv":"Kairo","name:sw":"Kairo","name:ta":"கெய்ரோ","name:te":"కైరో","name:tg":"Қоҳира","name:th":"ไคโร","name:tk":"Kair","name:tl":"Cairo","name:tr":"Kahire","name:tt":"Каһирә","name:tw":"Kairo","name:ug":"كايرو","name:uk":"Каїр","name:ur":"قاہرہ","name:uz":"Qohira","name:vi":"Cairo","name:vo":"Kahirä","name:wa":"El Caire","name:wo":"Xayra","name:yi":"קיירא","name:yo":"Káírò","name:zh":"开罗","name:zu":"Cairo","int_name":"Cairo","name:ace":"Al-Qahirah","name:ady":"Каир","name:arz":"القاهره","name:ast":"El Cairu","name:avk":"Alkaira","name:awa":"काइरो","name:bcl":"Cairo","name:ceb":"Cairo","name:chy":"Cairo","name:ckb":"قاھیرە","name:crh":"Qaire","name:csb":"Kairo","name:diq":"Qahire","name:dsb":"Kairo","name:ext":"El Cairu","name:frp":"Lo Cayiro","name:frr":"Kairo","name:fur":"El Cairo","name:hak":"Cairo","name:hif":"Cairo","name:hsb":"Kairo","name:hyw":"Գահիրէ","name:ilo":"Cairo","name:inh":"Каир","name:kaa":"Al-Qahira","name:kab":"Taqahirt","name:lad":"El Kairo","name:lbe":"Кьагьира","name:lez":"Каир","name:lfn":"Qahira","name:lij":"O Cairo","name:lmo":"El Cairo","name:mad":"Kairo","name:mai":"काइरो","name:mdf":"Каир","name:mhr":"Каир","name:min":"Kairo","name:mrj":"Каир","name:mwl":"Cairo","name:myv":"Каир ош","name:mzn":"قاهره","name:nah":"El Cairo","name:nan":"Cairo","name:nap":"Il cairo","name:nds":"Kairo","name:new":"कायरो","name:pap":"Kairo","name:pms":"Ël Càiro","name:pnb":"قاہرہ","name:pnt":"Κάιρον","name:rue":"Кагіра","name:sah":"Каир","name:scn":"Cairu","name:sco":"Cairo","name:smn":"Kairo","name:szl":"Kajir","name:tpi":"Kairo","name:udm":"Каир","name:vec":"El Cairo","name:vep":"Kair","name:vls":"Caïro","name:war":"Cairo","name:wuu":"开罗","name:xal":"Каир балһсн","name:xmf":"კაირო","name:yue":"開羅","name:zea":"Caïro","alt_name:ml":"അൽ-ഖാഹിറ","alt_name:vi":"Cai-rô","name:simple":"Cairo","old_name:vi":"Kê Thành","name:bat-smg":"Kairs","name:roa-rup":"Cairo","name:zh-Hans":"开罗","name:zh-Hant":"開羅","name:roa-tara":"'U Cairo"},"display_name":"القاهرة, مصر","address":{"city":"القاهرة","state":"القاهرة","ISO3166-2-lvl4":"EG-C","country":"مصر","country_code":"eg"},"population":9120350,"osm_type":"node","osm_id":271613766,"type":"city","location":[31.2357257,30.0443879],"bbox":[31.0757257,29.8843879,31.3957257,30.2043879],"border":{"name":"القاهرة","other_names":{"name:af":"Kaïro","name:ak":"Cairo","name:am":"ካይሮ","name:an":"O Caire","name:ar":"القاهرة","name:az":"Qahirə","name:ba":"Ҡәһир","name:be":"Каір","name:bg":"Кайро","name:bn":"কায়রো","name:bo":"ཁ་ཡི་རོ","name:br":"Kaero","name:bs":"Kairo","name:ca":"el Caire","name:cs":"Káhira","name:cv":"Каир","name:cy":"Cairo","name:da":"Kairo","name:de":"Kairo","name:el":"Κάιρο","name:en":"Cairo","name:eo":"Kairo","name:es":"El Cairo","name:et":"Kairo","name:fa":"قاهره","name:fi":"Kairo","name:fo":"Keiro","name:fr":"Le Caire","name:gd":"Cairo","name:gl":"O Cairo - القاهرة","name:gv":"Cairo","name:he":"קהיר","name:hi":"काहिरा","name:hr":"Kairo","name:ht":"Li Kè","name:hu":"Kairó","name:hy":"Կահիրե","name:ia":"Cairo","name:ie":"Cairo","name:io":"Kairo","name:is":"Kaíró","name:it":"Il Cairo","name:ja":"カイロ","name:ka":"კაირო","name:kk":"Әл-Қаһира","name:kl":"Cairo","name:kn":"ಕೈರೋ","name:ko":"카이로","name:ku":"Qahîre","name:kv":"Каир","name:kw":"Cairo","name:ky":"Каир","name:la":"Cairus","name:lt":"Kairas","name:lv":"Kaira","name:mi":"Kairo","name:mk":"Каиро","name:ml":"കെയ്റോ","name:mn":"Каир","name:mr":"कैरो","name:ms":"Kaherah","name:my":"ကိုင်ရိုမြို့","name:nl":"Caïro","name:oc":"Lo Caire","name:os":"Каир","name:pl":"Kair","name:ps":"قاهره","name:pt":"Cairo","name:qu":"Qahira","name:rm":"Cairo","name:ro":"Cairo","name:ru":"Каир","name:sc":"Cairo","name:se":"Cairo","name:sk":"Káhira","name:so":"Qaahiro","name:sq":"Kajro","name:sr":"Каиро","name:sv":"Kairo","name:ta":"கெய்ரோ","name:te":"కైరో","name:tg":"Қоҳира","name:th":"ไคโร","name:tk":"Kair","name:tl":"Cairo","name:tr":"Kahire","name:tt":"Каһирә","name:ug":"كايرو","name:uk":"Каїр","name:ur":"قاہرہ","name:uz":"Qohira","name:vi":"Cairo","name:vo":"Kahirä","name:wa":"El Caire","name:wo":"Xayra","name:yi":"קיירא","name:yo":"Káírò","name:zh":"开罗","int_name":"Cairo","name:ace":"Al-Qahirah","name:arz":"القاهره","name:bcl":"Cairo","name:ceb":"Cairo","name:ckb":"قاھیرە","name:cop":"ⲕⲁϣⲣⲱⲙⲓ","name:crh":"Qaire","name:diq":"Qahire","name:ext":"El Cairu","name:frp":"Lo Cayiro","name:hif":"Cairo","name:ilo":"Cairo","name:lbe":"Кьагьира","name:lez":"Каир","name:lij":"O Cairo","name:lmo":"El Cairo","name:mdf":"Каир","name:mhr":"Каир","name:mrj":"Каир","name:mwl":"Cairo","name:mzn":"قاهره","name:nah":"El Cairo","name:nan":"Cairo","name:nap":"Il cairo","name:new":"कायरो","name:pms":"Ël Càiro","name:pnb":"قاہرہ","name:pnt":"Κάιρον","name:rue":"Кагіра","name:sah":"Каир","name:scn":"Cairu","name:sco":"Cairo","name:szl":"Kajir","name:udm":"Каир","name:vec":"El Cairo","name:vls":"Caïro","name:war":"Cairo","name:wuu":"开罗","name:yue":"開羅","alt_name:vi":"Cai-rô","old_name:vi":"Kê Thành","name:bat-smg":"Kairs","name:roa-rup":"Cairo","name:zh-Hans":"开罗","name:zh-Hant":"開羅","name:roa-tara":"'U Cairo","name:av":"Къагьира","name:bh":"काहिरा","name:ce":"КъахӀира","name:co":"U Cairu","name:eu":"Kairo","name:fy":"Kairo","name:ga":"Caireo","name:gn":"Káiro","name:gu":"કૈરો","name:ha":"Kairo","name:id":"Kairo","name:jv":"Kairo","name:ki":"Cairo","name:ks":"قاہرہ","name:lb":"Kairo","name:li":"Caïro","name:ln":"Kairo","name:lo":"ໄຄໂຣ","name:mg":"Kahira","name:mt":"Kajr","name:na":"Cairo","name:nb":"Kairo","name:ne":"कायरो","name:nn":"Kairo","name:no":"Kairo","name:nv":"Yadaazʼáhíłání","name:ny":"Cairo","name:pa":"ਕਾਹਿਰਾ","name:sd":"قاهره","name:sh":"Kairo","name:si":"කයිරෝ","name:sl":"Kairo","name:sn":"Cairo","name:ss":"Cairo","name:su":"Kairo","name:sw":"Kairo","name:tw":"Kairo","name:zu":"Cairo","name:ady":"Каир","name:ast":"El Cairu","name:avk":"Alkaira","name:awa":"काइरो","name:chy":"Cairo","name:csb":"Kairo","name:dsb":"Kairo","name:frr":"Kairo","name:fur":"El Cairo","name:hak":"Cairo","name:hsb":"Kairo","name:hyw":"Գահիրէ","name:inh":"Каир","name:kaa":"Al-Qahira","name:kab":"Taqahirt","name:lad":"El Kairo","name:lfn":"Qahira","name:mad":"Kairo","name:mai":"काइरो","name:min":"Kairo","name:myv":"Каир ош","name:nds":"Kairo","name:pap":"Kairo","name:smn":"Kairo","name:tpi":"Kairo","name:vep":"Kair","name:xal":"Каир балһсн","name:xmf":"კაირო","name:zea":"Caïro","alt_name:ml":"അൽ-ഖാഹിറ","name:simple":"Cairo"},"display_name":"القاهرة, مصر","address":{"city":"القاهرة","state":"القاهرة","ISO3166-2-lvl4":"EG-C","country":"مصر","country_code":"eg"},"population":9120350,"osm_type":"relation","osm_id":5466227,"type":"city","location":[31.2357257,30.0443879],"bbox":[31.2200331,29.7483062,31.9090054,30.3209168]}}
{"name":"القديسة كاترين","other_names":{"name:ar":"القديسة كاترين","name:de":"St. Katharina","name:en":"Saint Catherine","name:es":"Santa Catalina","name:fa":"سنت کاترین","name:fr":"Sainte Catherine","name:he":"סנטה קתרינה","name:hi":"सेंट कैथरीन","name:ml":"സെന്റ് കാതറീൻ","name:ru":"Сант-Катрин","name:uk":"Сент-Катрін","name:ur":"سینٹ کیتھرین","alt_name":"كاترينة;كاترينا","name:ckb":"شاری کاترینا","alt_name:ar":"كاترينة;كاترينا","alt_name:en":"Katrina"},"display_name":"القديسة كاترين, جنوب سيناء, 46616, مصر","address":{"city":"القديسة كاترين","state":"جنوب سيناء","ISO3166-2-lvl4":"EG-JS","postcode":"46616","country":"مصر","country_code":"eg"},"osm_type":"node","osm_id":2571558867,"type":"city","location":[33.9535607,28.5675077],"bbox":[33.7935607,28.4075077,34.1135607,28.7275077]}
{"name":"القصير","other_names":{"name:ar":"القصير","name:cs":"Quseir","name:de":"Al-Qusair","name:en":"El Quseir","name:es":"El Qoseir","name:fa":"قصیر","name:fr":"Al Qusair","name:hi":"अल क़ोसियर","name:hu":"Kuszeir","name:ml":"അൽ-ഖുസൈർ","name:ru":"Эль Кусейр","name:uk":"Эль Кусейр","name:ur":"قصیر","name:grc":"Λευκός Λιμήν","alt_name:es":"El-Qoseir;El Quseir;El-Quseir"},"display_name":"القصير, البحر الأحمر, 84712, مصر","address":{"city":"القصير","state":"البحر الأحمر","ISO3166-2-lvl4":"EG-BA","postcode":"84712","country":"مصر","country_code":"eg"},"population":24344,"osm_type":"node","osm_id":27136155,"type":"city","location":[34.279764,26.104836],"bbox":[34.119764,25.944836,34.439764,26.264836]}
{"name":"القنطرة شرق","other_names":{"name:ar":"القنطرة شرق","name:de":"Ost-Qantara","name:en":"Qantara East","name:fr":"Est de Qantara","name:hr":"Al Kantara Istok","name:ml":"ഖന്താര ഷർഖ്","name:uk":"Аль-Кантара ель-Шаркія","alt_name":"قنطرة شرقية","int_name":"Kantara East, Kantara East","name:ar1":"قنطرة شرقية"},"display_name":"القنطرة شرق, الإسماعيلية, 41632, مصر","address":{"city":"القنطرة شرق","state":"الإسماعيلية","ISO3166-2-lvl4":"EG-IS","postcode":"41632","country":"مصر","country_code":"eg"},"osm_type":"node","osm_id":768596321,"type":"city","location":[32.3251656,30.8636259],"bbox":[32.1651656,30.7036259,32.4851656,31.0236259]}
{"name":"القنطرة غرب","other_names":{"name:ar":"القنطرة غرب","name:de":"Qantara Westen","name:en":"Qantara West","name:fr":"Qantara Ouest","name:hr":"Al Kantara Zapad","name:ml":"ഖന്തര ഗർബ്","name:uk":"Аль-Кантара-Гарбас","alt_name":"القنطرة الغربية","int_name":"El-Qanṭara el-Gharbîya, Al Qantara al Gharbiya, Al Qantarah Gharb","name:ar1":"القنطرة الغربية"},"display_name":"القنطرة غرب, الإسماعيلية, 41524, مصر","address":{"city":"القنطرة غرب","state":"الإسماعيلية","ISO3166-2-lvl4":"EG-IS","postcode":"41524","country":"مصر","country_code":"eg"},"osm_type":"node","osm_id":768596313,"type":"city","location":[32.3096054,30.8550945],"bbox":[32.1496054,30.6950945,32.4696054,31.0150945]}
{"name":"المحلة الكبرى","other_names":{"name:ar":"محلة الكبرى","name:de":"Mahalla al Kubra","name:en":"El Mahalla El Kubra","name:et":"Al-Maḩallah al-Kubrá","name:eu":"Al-Mahalla al-Kubra","name:fr":"Mahalla al Kubra","name:hr":"Al Mahala al Kubra","name:ml":"അൽ മഹല്ല അൽ കുബ്ര","name:ru":"Эль-Махалла-эль-Кубра","name:uk":"Ель-Махалла-ель-Кубра","name:zh":"大迈哈莱/大邁哈萊","alt_name":"محلة الكبرى","int_name":"Mahalla el Kubra, Mahalla al Kubra","name:ar1":"محلة الكبرى","name:zh-Hans":"大邁哈萊","name:zh-Hant":"大迈哈莱"},"display_name":"المحلة الكبرى, الغربية, 31953, مصر","address":{"city":"المحلة الكبرى","state":"الغربية","ISO3166-2-lvl4":"EG-GH","postcode":"31953","country":"مصر","country_code":"eg"},"population":431052,"osm_type":"node","osm_id":31582451,"type":"city","location":[31.1683002,30.9723517],"bbox":[31.0083002,30.8123517,31.3283002,31.1323517]}
{"name":"المنصورة","other_names":{"name:ar":"المنصورة","name:en":"El Mansura","name:eo":"El Mansura","name:es":"El Mansurá","name:et":"Al Manşūrah","name:eu":"Mansura","name:fr":"Mansourah","name:he":"מנסורה","name:hi":"मंसूरा","name:hr":"Mansura","name:lt":"Mansura","name:ml":"മൻസൂറ","name:nl":"El-Mansoera","name:pt":"Almançora","name:ru":"Эль Мансура","name:sv":"Mansura","name:tr":"Mansûre","name:uk":"Ель Мансура","int_name":"Mansura"},"display_name":"المنصورة, الدقهلية, 35517, مصر","address":{"city":"المنصورة","state":"الدقهلية","ISO3166-2-lvl4":"EG-DK","postcode":"35517","country":"مصر","country_code":"eg"},"population":420195,"osm_type":"node","osm_id":31582434,"type":"city","location":[31.38649,31.037566],"bbox":[31.22649,30.877566,31.54649,31.197566]}
{"name":"المنطقة الصناعية ببرج العرب","other_names":{"name:ar":"المنطقة الصناعية ببرج العرب","name:en":"Borg El Arab Industrial Zone","name:fr":"Zone Industriel Burj-al-Arab","name:uk":"Борг Ель-Араб Індустріальна зона"},"display_name":"المنطقة الصناعية ببرج العرب, مطروح, مصر","address":{"city":"المنطقة الصناعية ببرج العرب","state":"مطروح","ISO3166-2-lvl4":"EG-MT","country":"مصر","country_code":"eg"},"osm_type":"way","osm_id":103072503,"type":"city","location":[29.57753450089408,30.8347471],"bbox":[29.53949,30.814507,29.6196288,30.8569121]}
{"name":"المنيا الجديدة","other_names":{"name:ar":"المنيا الجديدة","name:en":"New Al Minya","name:fr":"Nouvelle Al Minya"},"display_name":"المنيا الجديدة, المنيا, 61768, مصر","address":{"city":"المنيا الجديدة","state":"المنيا","ISO3166-2-lvl4":"EG-MN","postcode":"61768","country":"مصر","country_code":"eg"},"osm_type":"node","osm_id":1085316881,"type":"city","location":[30.8126461,28.090786],"bbox":[30.6526461,27.930786,30.9726461,28.250786],"border":{"name":"المنيا الجديدة","other_names":{"name:ar":"المنيا الجديدة","name:en":"New Al Minya","name:uk":"Аль Мінья ад-Джадіда","name:fr":"Nouvelle Al Minya"},"display_name":"المنيا الجديدة, المنيا, مصر","address":{"city":"المنيا الجديدة","state":"المنيا","ISO3166-2-lvl4":"EG-MN","country":"مصر","country_code":"eg"},"population":15036,"osm_type":"way","osm_id":601409018,"type":"city","location":[30.8126461,28.090786],"bbox":[30.7852326,28.058578,30.8451984,28.1011722]}}
{"name":"المنيا","other_names":{"name:ar":"المنيا","name:de":"Al Minya","name:en":"Al Minya","name:eo":"Minja","name:es":"Menia","name:et":"Al Minyā","name:fr":"Al Minya","name:hi":"मीन्या","name:hu":"Minja","name:it":"Minyā","name:ko":"미니아","name:ml":"മിന്യ","name:pl":"Al-Minja","name:ru":"Эль Минья","name:uk":"Ель-Мінья","alt_name":"المنيا","int_name":"Al-Minya","name:kab":"Minya"},"display_name":"المنيا, 61511, مصر","address":{"city":"المنيا","state":"المنيا","ISO3166-2-lvl4":"EG-MN","postcode":"61511","country":"مصر","country_code":"eg"},"population":247000,"osm_type":"node","osm_id":768032316,"type":"city","location":[30.7570623,28.0893325],"bbox":[30.5970623,27.9293325,30.9170623,28.2493325]}
{"name":"النوبارية الجديدة","other_names":{"name:ar":"النوبارية الجديدة","name:en":"Al Nubaria","name:fr":"Al Nubaria","name:ml":"അൽ-നൂബാറിയ","name:uk":"Аль-Нубарія"},"display_name":"النوبارية الجديدة, البحيرة, 22773, مصر","address":{"city":"النوبارية الجديدة","state":"البحيرة","ISO3166-2-lvl4":"EG-BH","postcode":"22773","country":"مصر","country_code":"eg"},"osm_type":"node","osm_id":3669525044,"type":"city","location":[30.0765751,30.6663888],"bbox":[29.9165751,30.5063888,30.2365751,30.8263888]}
{"name":"الواحات البحرية","other_names":{"name:ar":"الواحات البحرية","name:en":"Northern Oases"},"display_name":"الواحات البحرية, الجيزة, 12935, مصر","address":{"city":"الواحات البحرية","state":"الجيزة","ISO3166-2-lvl4":"EG-GZ","postcode":"12935","country":"مصر","country_code":"eg"},"osm_type":"node","osm_id":12647519244,"type":"city","location":[28.8972235,28.3550819],"bbox":[28.7372235,28.1950819,29.0572235,28.5150819]}
{"name":"الواحات الخارجة","other_names":{"name:ar":"الواحات الخارجة","name:de":"Oase Al Charga","name:en":"Al Kharja Oases","name:eo":"Ĥarga Oazo","name:es":"Jariyá Oasis","name:fi":"Kharga Keidas","name:fr":"Oasis d'Al-Kharga","name:hu":"Kharga Oázis","name:pl":"Oaza Charga","name:ru":"Аль Харга","name:sv":"Kharga","name:uk":"Аль Харга","name:ur":"خارجہ نخلستان"},"display_name":"الواحات الخارجة, الوادي الجديد, 72511, مصر","address":{"city":"الواحات الخارجة","state":"الوادي الجديد","ISO3166-2-lvl4":"EG-WAD","postcode":"72511","country":"مصر","country_code":"eg"},"population":61500,"osm_type":"node","osm_id":336215777,"type":"city","location":[30.5416007,25.4522583],"bbox":[30.3816007,25.2922583,30.7016007,25.6122583]}
{"name":"الواحات الداخلة","other_names":{"name:ar":"الواحات الداخلة","name:de":"Oase Dachla","name:en":"El Dakhla Oases","name:es":"Oasis de Dajla","name:fr":"Oasis d'Ad Dakhla","name:hu":"Dakhla oázisok","name:lt":"Dachla oazė","name:ml":"അൽ-ദാഖ്ല മരുപ്പച്ചകൾ","name:ru":"Дахла Оазис","name:uk":"Дахла Оаза","alt_name":"الداخلة;الداخله","alt_name:ar":"الداخلة;الداخله","alt_name:es":"Dajla"},"display_name":"الواحات الداخلة, الوادي الجديد, مصر","address":{"city":"الواحات الداخلة","state":"الوادي الجديد","ISO3166-2-lvl4":"EG-WAD","country":"مصر","country_code":"eg"},"population":80209,"osm_type":"node","osm_id":2662989689,"type":"city","location":[29.2581601,25.5120622],"bbox":[29.0981601,25.3520622,29.4181601,25.6720622]}
{"name":"بدر","other_names":{"name:ar":"بدر","name:de":"Badr","name:en":"Badr","name:fr":"Badr","name:hr":"Badr","name:ml":"ബദർ","name:sv":"Badr","name:uk":"Бадр"},"display_name":"بدر, القاهرة, 11829, مصر","address":{"city":"بدر","state":"القاهرة","ISO3166-2-lvl4":"EG-C","postcode":"11829","country":"مصر","country_code":"eg"},"osm_type":"node","osm_id":330191267,"type":"city","location":[31.742824,30.142806],"bbox":[31.582824,29.982806,31.902824,30.302806]}
{"name":"برج العرب الجديدة","other_names":{"name:ar":"برج العرب الجديدة","name:de":"Borg el-Arab el-Gedida","name:en":"New Borj El Arab","name:fa":"برج العرب جدیده","name:fr":"Borg el-Arab el-Gedida","name:ml":"പുതിയ ബുർജ് അൽ-അറബ്","name:ru":"Новый Борг-эль-Араб","name:uk":"Новий Борг-ель-Араб","name:ur":"برج العرب الجدیدہ","name:azb":"برج العرب جدیده","alt_name:uk":"Нью-Борг-ель-Араб"},"display_name":"برج العرب الجديدة, الإسكندرية, 21934, مصر","address":{"city":"برج العرب الجديدة","state":"الإسكندرية","ISO3166-2-lvl4":"EG-ALX","postcode":"21934","country":"مصر","country_code":"eg"},"osm_type":"node","osm_id":10562128546,"type":"city","location":[29.6002667,30.8695204],"bbox":[29.4402667,30.7095204,29.7602667,31.0295204]}
{"name":"بنها","other_names":{"name:ar":"بنها","name:en":"Banha","name:eo":"Banha","name:es":"Banha","name:et":"Banhā","name:fr":"Banha","name:he":"בנהא","name:hi":"बनहा","name:ml":"ബൻഹ","name:pl":"Banha","name:ru":"Бенха","name:sv":"Banha","name:tr":"Benhâ","name:uk":"Бaнха","alt_name:pl":"Benha"},"display_name":"بنها, القليوبية, 13512, مصر","address":{"city":"بنها","state":"القليوبية","ISO3166-2-lvl4":"EG-KB","postcode":"13512","country":"مصر","country_code":"eg"},"population":167029,"osm_type":"node","osm_id":31353319,"type":"city","location":[31.184063,30.4624974],"bbox":[31.024063,30.3024974,31.344063,30.6224974]}
{"name":"بني سويف الجديدة","other_names":{"name:ar":"بني سويف الجديدة","name:en":"New Bani Sweif","name:fr":"Nouvelle Beni Suef","name:uk":"Бені Суейф ад-Джадіда"},"display_name":"بني سويف الجديدة, بنى سويف, 62517, مصر","address":{"city":"بني سويف الجديدة","state":"بنى سويف","ISO3166-2-lvl4":"EG-BNS","postcode":"62517","country":"مصر","country_code":"eg"},"osm_type":"node","osm_id":1127699160,"type":"city","location":[31.1067656,29.0320603],"bbox":[30.9467656,28.8720603,31.2667656,29.1920603]}
{"name":"بني سويف","other_names":{"name:ar":"بني سويف","name:de":"Beni Suef","name:en":"Beni Suef","name:eo":"Beni Suef","name:et":"Banī Suwayf","name:fi":"Bani Sweif","name:fr":"Beni Suef","name:he":"בני סויף","name:hi":"बानी स्विफ़","name:hu":"Bani Szuvajf","name:ko":"베니수에프","name:ml":"ബെനി സുവൈഫ്","name:pl":"Bani Suwajf","name:ru":"Бени Суэйф","name:uk":"Бені Суейф","alt_name":"بني سويف","int_name":"Beni Sue, Beni Sue, Beni Souef, Bani Suwayf","name:kab":"Bani Swayf","alt_name:pl":"Beni Suef"},"display_name":"بني سويف, بنى سويف, 62513, مصر","address":{"city":"بني سويف","state":"بنى سويف","ISO3166-2-lvl4":"EG-BNS","postcode":"62513","country":"مصر","country_code":"eg"},"population":219754,"osm_type":"node","osm_id":768586066,"type":"city","location":[31.0982562,29.0729812],"bbox":[30.9382562,28.9129812,31.2582562,29.2329812]}
{"name":"بورتو جولف مارينا Porto Golf Marina","other_names":{"name:ar":"بورتو جولف مارينا","name:en":"Porto Golf Marina","name:fr":"Porto Golf Marina"},"display_name":"بورتو جولف مارينا Porto Golf Marina, الطريق الساحلى الدولى, مارينا العلمين السياحيه, سيدى عبد الرحمن, مطروح, مصر","address":{"leisure":"بورتو جولف مارينا Porto Golf Marina","road":"الطريق الساحلى الدولى","neighbourhood":"مارينا العلمين السياحيه","city":"سيدى عبد الرحمن","state":"مطروح","ISO3166-2-lvl4":"EG-MT","country":"مصر","country_code":"eg"},"osm_type":"way","osm_id":300679278,"type":"beach_resort","location":[28.924131560815887,30.838756099999998],"bbox":[28.9154145,30.832903,28.9339143,30.8473248]}
{"name":"بورسعيد","other_names":{"name:af":"Port Said","name:ar":"بورسعيد","name:de":"Port Said","name:el":"Πορτ Σάιντ","name:en":"Port Said","name:eo":"Port Said","name:es":"Puerto Saíd","name:et":"Port Said","name:eu":"Port Said","name:fi":"Port Said","name:fr":"Port Saïd","name:he":"פורט סעיד","name:hi":"पोर्ट सईद","name:hr":"Port Said","name:hu":"Port Szaíd","name:hy":"Պորտ Սաիդ","name:lt":"Port Saidas","name:ml":"സയീദ് തുറമുഖം","name:nl":"Port Said","name:pa":"ਬੋਰ ਸਈਦ","name:pl":"Port Said","name:pt":"Porto Saíde","name:ru":"Порт-Саид","name:sk":"Port Said","name:sv":"Port Said","name:uk":"Порт-Саїд","name:ur":"پورٹ سعید","name:zh":"塞得港","alt_name":"بور سعيد","int_name":"Būr Saʿīd","name:azb":"پورت‌سعید","alt_name:ar":"بور سعيد","name:az-Arab":"پورت‌سعید","name:kk-Arab":"پورت-ساىيد"},"display_name":"بورسعيد, 42531, مصر","address":{"city":"بورسعيد","state":"بورسعيد","ISO3166-2-lvl4":"EG-PTS","postcode":"42531","country":"مصر","country_code":"eg"},"population":538378,"osm_type":"node","osm_id":27564975,"type":"city","location":[32.305505,31.263235],"bbox":[32.145505,31.103235,32.465505,31.423235]}
{"name":"ثان مدينة نصر","other_names":{"name:ar":"ثان مدينة نصر","name:en":"Qesm Than Madinet Nasr","name:arz":"ثان مدينة نصر"},"display_name":"ثان مدينة نصر, القاهرة, مصر","address":{"city":"ثان مدينة نصر","state":"القاهرة","ISO3166-2-lvl4":"EG-C","country":"مصر","country_code":"eg"},"osm_type":"way","osm_id":1249385211,"type":"city","location":[31.30869391369827,30.04648995],"bbox":[31.2804094,30.0151518,31.3395018,30.0776335]}
{"name":"جرجا","other_names":{"name:ar":"جرجا","name:en":"Girga","name:fr":"Girga","name:ml":"ഗിർഗ"},"display_name":"جرجا, مدينه جرجا, سوهاج, 82951, مصر","address":{"city":"جرجا","state":"سوهاج","ISO3166-2-lvl4":"EG-SHG","postcode":"82951","country":"مصر","country_code":"eg"},"population":113600,"osm_type":"node","osm_id":299573543,"type":"city","location":[31.8911758,26.337437],"bbox":[31.7311758,26.177437,32.0511758,26.497437]}
{"name":"جمصة","other_names":{"name:ar":"جمصة","name:en":"Gamasa","name:ml":"ഗമസ","name:uk":"Ґамса"},"display_name":"جمصة, الدقهلية, 35712, مصر","address":{"city":"جمصة","state":"الدقهلية","ISO3166-2-lvl4":"EG-DK","postcode":"35712","country":"مصر","country_code":"eg"},"osm_type":"node","osm_id":10559845231,"type":"city","location":[31.5442336,31.4388272],"bbox":[31.3842336,31.2788272,31.7042336,31.5988272]}
{"name":"جنة العريف Gannet ElAref","other_names":{"name:ar":"جنة العريف","name:en":"Gannet ElAref","name:fr":"Jannat al-Arif"},"display_name":"جنة العريف Gannet ElAref, الطريق الساحلى الدولى, مارينا العلمين السياحيه, سيدى عبد الرحمن, مطروح, مصر","address":{"leisure":"جنة العريف Gannet ElAref","road":"الطريق الساحلى الدولى","neighbourhood":"مارينا العلمين السياحيه","city":"سيدى عبد الرحمن","state":"مطروح","ISO3166-2-lvl4":"EG-MT","country":"مصر","country_code":"eg"},"osm_type":"way","osm_id":300679280,"type":"beach_resort","location":[28.813391120632335,30.93797945],"bbox":[28.7966911,30.9192874,28.8177543,30.9549028]}
{"name":"حلوان","other_names":{"name:ar":"حلوان","name:de":"Helwan","name:en":"Helwan","name:eo":"Helŭan","name:fr":"Helwan","name:he":"הלוואן","name:hi":"हेलवान","name:hr":"Helvan","name:ml":"ഹെൽവാൻ","name:pl":"Heluan","name:uk":"Хелуан","alt_name":"حلوان","int_name":"Ḩelwān, Helwan","alt_name:pl":"Hulwan"},"display_name":"حلوان, القاهرة, 11421, مصر","address":{"city":"حلوان","state":"القاهرة","ISO3166-2-lvl4":"EG-C","postcode":"11421","country":"مصر","country_code":"eg"},"population":643327,"osm_type":"node","osm_id":768775606,"type":"city","location":[31.333333,29.8500001],"bbox":[31.173333,29.6900001,31.493333,30.0100001]}
{"name":"درة القاهرة","other_names":{"name:ar":"درة القاهرة","name:en":"Dorrat Al Qahira"},"display_name":"درة القاهرة, القاهرة, مصر","address":{"city":"درة القاهرة","state":"القاهرة","ISO3166-2-lvl4":"EG-C","country":"مصر","country_code":"eg"},"osm_type":"way","osm_id":357139924,"type":"administrative","location":[31.49490291152351,30.04823895],"bbox":[31.4932355,30.0460321,31.4972702,30.0501959],"inferred_type":"city"}
{"name":"دسوق","other_names":{"name:ar":"دسوق","name:az":"Dəsuk","name:ca":"Dosoq","name:en":"Dusuq","name:et":"Disūq","name:fi":"Disuk","name:fr":"Dessouk","name:ka":"დისუკი","name:lt":"Disukas","name:ml":"ദെസൂഖ്","name:ru":"Дисук","name:sr":"Десук","name:sv":"Disuq","name:uk":"Дісук","name:ur":"دسوق","int_name":"Desouk"},"display_name":"دسوق, كفر الشيخ, 33612, مصر","address":{"city":"دسوق","state":"كفر الشيخ","ISO3166-2-lvl4":"EG-KFS","postcode":"33612","country":"مصر","country_code":"eg"},"population":110000,"osm_type":"node","osm_id":299569447,"type":"city","location":[30.646198,31.128233],"bbox":[30.486198,30.968233,30.806198,31.288233],"border":{"name":"دسوق","other_names":{"name:ar":"دسوق","name:de":"Disuk","name:el":"Ντεσούκ","name:en":"Desouk","name:fr":"Dessouk","name:ja":"ディスーク","name:ko":"디수크","name:lt":"Disukas","name:ru":"Дисук","name:tr":"Dısuk","name:uk":"Дісук","name:zh":"迪斯沃克","name:az":"Dəsuk","name:ca":"Dosoq","name:et":"Disūq","name:fi":"Disuk","name:ka":"დისუკი","name:ml":"ദെസൂഖ്","name:sr":"Десук","name:sv":"Disuq","name:ur":"دسوق","int_name":"Desouk","alt:en":"Dusuq"},"display_name":"دسوق, كفر الشيخ, مصر","address":{"city":"دسوق","state":"كفر الشيخ","ISO3166-2-lvl4":"EG-KFS","country":"مصر","country_code":"eg"},"population":135336,"osm_type":"way","osm_id":610865131,"type":"city","location":[30.646198,31.128233],"bbox":[30.6349239,31.1127044,30.6650964,31.1450057]}}
{"name":"دمنهور","other_names":{"name:ar":"دمنهور","name:en":"Damanhur","name:et":"Damanhūr","name:fr":"Damanhour","name:ml":"ദമൻഹൂർ","name:ru":"Даманхур","name:uk":"Даманхур","alt_name":"دمنهور","int_name":"Damanhur","name:kab":"Damanhur"},"display_name":"دمنهور, البحيرة, 22511, مصر","address":{"city":"دمنهور","state":"البحيرة","ISO3166-2-lvl4":"EG-BH","postcode":"22511","country":"مصر","country_code":"eg"},"population":227943,"osm_type":"node","osm_id":299499376,"type":"city","location":[30.4710625,31.0374982],"bbox":[30.3110625,30.8774982,30.6310625,31.1974982]}
{"name":"دمياط الجديدة","other_names":{"name:ar":"دمياط الجديدة","name:en":"New Damietta","name:fr":"Nouveau Damiette","name:ml":"പുതിയ ദുമ്യാത്ത്","name:ru":"Новый Думьят","name:uk":"Дум'ят-ель-Джадіда","alt_name":"دمياط الجديدة"},"display_name":"دمياط الجديدة, دمياط, 34517, مصر","address":{"city":"دمياط الجديدة","state":"دمياط","ISO3166-2-lvl4":"EG-DT","postcode":"34517","country":"مصر","country_code":"eg"},"osm_type":"node","osm_id":665528750,"type":"city","location":[31.678142,31.4364503],"bbox":[31.518142,31.2764503,31.838142,31.5964503]}
{"name":"دمياط","other_names":{"name:ar":"دمياط","name:de":"Damiette","name:en":"Damietta","name:eo":"Dumjat","name:es":"Damieta","name:et":"Dumyāţ","name:eu":"Damietta","name:fr":"Damiette","name:he":"דמיאטה","name:hi":"दमिएट्टा","name:hu":"Damietta","name:ml":"ദുമ്യാത്ത്","name:oc":"Damieta / Damiati","name:pl":"Damietta","name:ru":"Думьят","name:sv":"Damietta","name:tr":"Dimyat","name:uk":"Дум'ят","int_name":"Damietta","name:cop":"ⲧⲁⲙⲓⲁϯ","alt_name:ru":"Дамьетта","alt_name:uk":"Дам'єтта"},"display_name":"دمياط, 34511, مصر","address":{"city":"دمياط","state":"دمياط","ISO3166-2-lvl4":"EG-DT","postcode":"34511","country":"مصر","country_code":"eg"},"population":267000,"osm_type":"node","osm_id":295029548,"type":"city","location":[31.8213657,31.4167427],"bbox":[31.6613657,31.2567427,31.9813657,31.5767427]}
{"name":"دهب","other_names":{"name:ar":"دهب","name:de":"Dahab","name:en":"Dahab","name:es":"Dahab","name:fr":"Dahab","name:he":"דהב","name:hi":"दहब","name:hu":"Dahab","name:ko":"다합","name:ml":"ദഹബ്","name:ru":"Дахаб","name:uk":"Дахаб","int_name":"Dahab","name:zh-Hans":"达哈卜","name:zh-Hant":"達哈卜"},"display_name":"دهب, جنوب سيناء, 45214, مصر","address":{"city":"دهب","state":"جنوب سيناء","ISO3166-2-lvl4":"EG-JS","postcode":"45214","country":"مصر","country_code":"eg"},"population":12000,"osm_type":"node","osm_id":27043265,"type":"city","location":[34.5145652,28.4963633],"bbox":[34.3545652,28.3363633,34.6745652,28.6563633]}
{"name":"رأس غارب","other_names":{"name:ar":"رأس غارب","name:de":"Gharib Kap","name:en":"Gharib Cape","name:fr":"Cap de Gharib","name:ml":"റാസ് ഗാരിബ്","name:ru":"Рас Гариб","name:uk":"Рас Гаріб","alt_name":"رأس غارب","int_name":"Ra’s Ghārib, Ras Gharib"},"display_name":"رأس غارب, البحر الأحمر, 84715, مصر","address":{"city":"رأس غارب","state":"البحر الأحمر","ISO3166-2-lvl4":"EG-BA","postcode":"84715","country":"مصر","country_code":"eg"},"population":32318,"osm_type":"node","osm_id":768582279,"type":"city","location":[33.077778,28.359444],"bbox":[32.917778,28.199444,33.237778,28.519444]}
{"name":"رشيد","other_names":{"name:ar":"رشيد","name:de":"Rosetta","name:en":"Rosetta","name:fr":"Rosetta","name:hu":"Rosetta","name:it":"Rosetta","name:ml":"റഷീദ്","name:ru":"Рашид","name:zh":"罗塞塔","alt_name":"رشيد","int_name":"Rosetta, Rosetta, Al Rashid, Rashid","name:ar1":"رشيد","alt_name:ml":"റോസെറ്റ"},"display_name":"رشيد, البحيرة, 22745, مصر","address":{"city":"رشيد","state":"البحيرة","ISO3166-2-lvl4":"EG-BH","postcode":"22745","country":"مصر","country_code":"eg"},"population":68947,"osm_type":"node","osm_id":768815269,"type":"city","location":[30.418428,31.4013811],"bbox":[30.258428,31.2413811,30.578428,31.5613811]}
{"name":"ستيلا سيدى عبد الرحمن","other_names":{"name:ar":"ستيلا سيدى عبد الرحمن","name:en":"Stella Sidi Abdelrahman","name:fr":"Stella Sidi Abdel Rahman"},"display_name":"ستيلا سيدى عبد الرحمن, الطريق الساحلى الدولى, مارينا العلمين السياحيه, سيدى عبد الرحمن, مطروح, 51732, مصر","address":{"leisure":"ستيلا سيدى عبد الرحمن","road":"الطريق الساحلى الدولى","neighbourhood":"مارينا العلمين السياحيه","city":"سيدى عبد الرحمن","state":"مطروح","ISO3166-2-lvl4":"EG-MT","postcode":"51732","country":"مصر","country_code":"eg"},"osm_type":"way","osm_id":267187312,"type":"beach_resort","location":[28.77203543651496,30.958551749999998],"bbox":[28.7672563,30.953002,28.7772712,30.9638033]}
{"name":"سفاجا","other_names":{"name:ar":"سفاجا","name:cs":"Safaga","name:de":"Safaga","name:en":"Safaga","name:es":"Safaga","name:fr":"Port Safaga","name:hu":"Szafaga","name:ml":"സഫാഗ","name:ru":"Сафага","name:sv":"Safaga","name:uk":"Сафага","alt_name":"بور سفاجة","int_name":"Safaga","alt_name:en":"Port Safaga","alt_name:uk":"Порт-Сафага"},"display_name":"سفاجا, البحر الأحمر, 84711, مصر","address":{"city":"سفاجا","state":"البحر الأحمر","ISO3166-2-lvl4":"EG-BA","postcode":"84711","country":"مصر","country_code":"eg"},"population":28261,"osm_type":"node","osm_id":27136248,"type":"city","location":[33.9383817,26.7633325],"bbox":[33.7783817,26.6033325,34.0983817,26.9233325]}
{"name":"سوهاج الجديدة","other_names":{"name:ar":"سوهاج الجديدة","name:en":"New Suhaj","name:ml":"പുതിയ സൂഹാഗ്","name:uk":"Согаґ ад-Джадіда"},"display_name":"سوهاج الجديدة, الوادي الجديد, مصر","address":{"city":"سوهاج الجديدة","state":"الوادي الجديد","ISO3166-2-lvl4":"EG-WAD","country":"مصر","country_code":"eg"},"osm_type":"node","osm_id":11483325798,"type":"city","location":[31.6649431,26.4480431],"bbox":[31.5049431,26.2880431,31.8249431,26.6080431]}
{"name":"سوهاج","other_names":{"name:ar":"سوهاج","name:de":"Sohag","name:en":"Suhaj","name:eo":"Saŭhaĝ","name:es":"Suhag","name:et":"Sūhāj","name:eu":"Sohag","name:fr":"Sohag","name:hi":"सोहाग","name:hu":"Szohág","name:ko":"소하그","name:lt":"Sohagas","name:ml":"സൂഹാഗ്","name:pl":"Sauhadż","name:ru":"Сохаг","name:uk":"Согаґ","alt_name":"سوهاج","name:kab":"Suhaǧ"},"display_name":"سوهاج, 82629, مصر","address":{"city":"سوهاج","state":"سوهاج","ISO3166-2-lvl4":"EG-SHG","postcode":"82629","country":"مصر","country_code":"eg"},"population":189695,"osm_type":"node","osm_id":1636218447,"type":"city","location":[31.699263,26.547748],"bbox":[31.539263,26.387748,31.859263,26.707748]}
{"name":"سيدى عبد الرحمن","other_names":{"name:ar":"سيدى عبد الرحمن","name:de":"Sidi Abdelrahman","name:en":"Sidi Abdel Rahman","name:es":"Sidi Abdel Rahman","name:fr":"Sidi-Abd-el-Rahman","name:ml":"സീദീ അബ്ദുൽറഹ്മാൻ","name:uk":"Сіді Абдель Рахман","int_name":"Sīdī ‘Abd ar Raḩmān, Sidi Abd al Rahman"},"display_name":"سيدى عبد الرحمن, مطروح, 51732, مصر","address":{"city":"سيدى عبد الرحمن","state":"مطروح","ISO3166-2-lvl4":"EG-MT","postcode":"51732","country":"مصر","country_code":"eg"},"osm_type":"node","osm_id":768812338,"type":"city","location":[28.7432522,30.9651527],"bbox":[28.5832522,30.8051527,28.9032522,31.1251527],"border":{"name":"سيدى عبد الرحمن Sidi Abdelrahman","other_names":{"name:ar":"سيدى عبد الرحمن","name:en":"Sidi Abdelrahman","name:fr":"Sidi-Abd-el-Rahman","name:uk":"Сіді Абдель Рахман"},"display_name":"سيدى عبد الرحمن Sidi Abdelrahman, مطروح, مصر","address":{"city":"سيدى عبد الرحمن Sidi Abdelrahman","state":"مطروح","ISO3166-2-lvl4":"EG-MT","country":"مصر","country_code":"eg"},"osm_type":"way","osm_id":101848531,"type":"city","location":[28.739162589880276,30.96679235],"bbox":[28.7154205,30.953766,28.7655796,30.9779153]}}
{"name":"شبرا الخيمة","other_names":{"name:ar":"شبرا الخيمة","name:de":"Shubra al Khayma","name:en":"Shubra al Khayma","name:et":"Shubrā al-Khaymah","name:fr":"Shubra al Khayma","name:hr":"Šubra al Hajma","name:ko":"슈브라엘케이마","name:ml":"ഷുബ്ര അൽ-ഖൈമ","name:pt":"Shubra El-Kheima","name:ru":"Шубра-эль-Хейма","name:sr":"Шубра ел Кејма","name:uk":"Шубра-ель-Хейма","alt_name":"شبرا الخيمة","int_name":"Shubra al-Khayma, Shubra al Khayma","name:ar1":"شبرا الخيمة","name:sr-Latn":"Šubra el Kejma"},"display_name":"شبرا الخيمة, القليوبية, 13771, مصر","address":{"city":"شبرا الخيمة","state":"القليوبية","ISO3166-2-lvl4":"EG-KB","postcode":"13771","country":"مصر","country_code":"eg"},"population":1016722,"osm_type":"node","osm_id":768591737,"type":"city","location":[31.242218,30.1285988],"bbox":[31.082218,29.9685988,31.402218,30.2885988]}
{"name":"شبراخيت","other_names":{"name:ar":"شبراخيت","name:de":"Shubra Khit","name:en":"Shubra Khit","name:es":"Shubra Khit","name:fr":"Chebreiss","name:ml":"ഷുബ്രാഖീത്ത്","name:uk":"Шубра-Хіт"},"display_name":"شبراخيت, البحيرة, 22755, مصر","address":{"city":"شبراخيت","state":"البحيرة","ISO3166-2-lvl4":"EG-BH","postcode":"22755","country":"مصر","country_code":"eg"},"population":30829,"osm_type":"node","osm_id":3235552557,"type":"city","location":[30.7130664,31.0285355],"bbox":[30.5530664,30.8685355,30.8730664,31.1885355],"border":{"name":"مدينه شبراخيت","other_names":{"name:ar":"مدينه شبراخيت","name:de":"Shubra Khit","name:en":"Shabrakhit City","name:fr":"Shubra Khit"},"display_name":"مدينه شبراخيت, البحيرة, 22755, مصر","address":{"neighbourhood":"مدينه شبراخيت","state":"البحيرة","ISO3166-2-lvl4":"EG-BH","postcode":"22755","country":"مصر","country_code":"eg"},"population":30829,"osm_type":"way","osm_id":316460127,"type":"administrative","location":[30.703946665803635,31.0280612],"bbox":[30.6852859,31.013363,30.7249279,31.0459345]}}
{"name":"شبين الكوم","other_names":{"name:ar":"شبين الكوم","name:de":"Schibin Al Kaum","name:en":"Shibin El Kawm","name:eo":"Ŝibin al-Kaum","name:es":"Shibin el-Kom","name:et":"Shibīn al-Kawm","name:fr":"Shibin El Kom","name:ml":"ഷിബിൻ അൽ-കോം","name:pl":"Szibin al-Kaum","name:ru":"Шибин-эль-Ком","name:sv":"Shibin al-Kawm","name:uk":"Шибін-Ель-Ком"},"display_name":"شبين الكوم, المنوفية, 32514, مصر","address":{"city":"شبين الكوم","state":"المنوفية","ISO3166-2-lvl4":"EG-MNF","postcode":"32514","country":"مصر","country_code":"eg"},"population":184097,"osm_type":"node","osm_id":299527803,"type":"city","location":[31.0097923,30.5545106],"bbox":[30.8497923,30.3945106,31.1697923,30.7145106]}
{"name":"شرم الشيخ","other_names":{"name:ar":"شرم الشيخ","name:cs":"Šarm aš Šajch","name:de":"Scharm El Scheich","name:el":"Σαρμ ελ Σεΐχ","name:en":"Sharm El Sheikh","name:eo":"Ŝarm el Ŝeiĥ","name:es":"Sharm El Sheij","name:et":"Sharm El Sheikh","name:fi":"Sharm El Sheikh","name:fr":"Charm El Cheikh","name:he":"שארם א-שייח'","name:hi":"शर्म अल शेख़","name:hr":"Šarm eš Šejh","name:hu":"Sarm es Sejk","name:hy":"Շարմ էլ Շեյխ","name:kn":"ಶರ್ಮ್-ಅಲ್-ಶೈಖ್","name:ko":"샤름엘셰이크","name:lt":"Šarm El Šeichas","name:ml":"ഷറം അൽ-ഷെയ്ഖ്","name:nl":"Sharm El Sheikh","name:pl":"Szarm El Szejk","name:ru":"Шарм эш Шейх","name:tr":"Şarm El Şeyh","name:uk":"Шарм-еш-Шейх","alt_name":"شرم الشيخ","int_name":"Sharm ash Shaykh, Sharm al Shaykh","name:ar1":"شرم الشيخ","alt_name:ru":"Шарм-эль-Шейх","name:zh-Hans":"沙姆沙伊赫","name:zh-Hant":"沙姆沙伊赫"},"display_name":"شرم الشيخ, رأس أم سد, جنوب سيناء, 46619, مصر","address":{"city":"شرم الشيخ","district":"رأس أم سد","state":"جنوب سيناء","ISO3166-2-lvl4":"EG-JS","postcode":"46619","country":"مصر","country_code":"eg"},"population":38478,"osm_type":"node","osm_id":428339450,"type":"city","location":[34.295447,27.8644422],"bbox":[34.135447,27.7044422,34.455447,28.0244422]}
{"name":"طناح","other_names":{"name:ar":"طناح","name:en":"Tanah","name:fr":"Tanah","name:ml":"ത്വനാഹ്","name:uk":"Танах"},"display_name":"طناح, الدقهلية, مصر","address":{"city":"طناح","state":"الدقهلية","ISO3166-2-lvl4":"EG-DK","country":"مصر","country_code":"eg"},"population":80000,"osm_type":"node","osm_id":6091032462,"type":"city","location":[31.5536475,31.0358207],"bbox":[31.3936475,30.8758207,31.7136475,31.1958207]}
{"name":"طنطا","other_names":{"name:de":"Tanta","name:en":"Tanta","name:es":"Tanta","name:et":"Ţanţā","name:eu":"Tanta","name:fr":"Tanta","name:hi":"टांटा","name:hr":"Tanta","name:hu":"Tanta","name:ml":"തൻത","name:ru":"Танта","name:uk":"Танта","name:zh":"坦塔","int_name":"Tanta","name:kab":"Ṭanṭa"},"display_name":"طنطا, الغربية, مصر","address":{"city":"طنطا","state":"الغربية","ISO3166-2-lvl4":"EG-GH","country":"مصر","country_code":"eg"},"population":429503,"osm_type":"node","osm_id":2742102194,"type":"city","location":[30.9982536,30.7833666],"bbox":[30.8382536,30.6233666,31.1582536,30.9433666],"border":{"name":"طنطا","other_names":{"name:ar":"طنطا","name:de":"Tanta","name:en":"Tanta","name:eo":"Tanta","name:fr":"Tanta","name:pl":"Tanta","name:ru":"Танта","name:uk":"Танта","int_name":"Tanta","name:es":"Tanta","name:et":"Ţanţā","name:eu":"Tanta","name:hi":"टांटा","name:hr":"Tanta","name:hu":"Tanta","name:ml":"തൻത","name:zh":"坦塔","name:kab":"Ṭanṭa"},"display_name":"طنطا, الغربية, مصر","address":{"city":"طنطا","state":"الغربية","ISO3166-2-lvl4":"EG-GH","country":"مصر","country_code":"eg"},"population":658798,"osm_type":"relation","osm_id":3603506,"type":"administrative","location":[30.9982536,30.7833666],"bbox":[30.9452856,30.7578027,31.0314985,30.822833]}}
{"name":"طيبة الجديدة","other_names":{"name:ar":"طيبة الجديدة","name:en":"New Thebes","name:ml":"പുതിയ തീബ","name:uk":"Тіба ад-Джадіда"},"display_name":"طيبة الجديدة, الأقصر, 85863, مصر","address":{"city":"طيبة الجديدة","state":"الأقصر","ISO3166-2-lvl4":"EG-LX","postcode":"85863","country":"مصر","country_code":"eg"},"osm_type":"node","osm_id":2969397825,"type":"city","location":[32.7658152,25.7329051],"bbox":[32.6058152,25.5729051,32.9258152,25.8929051]}
{"name":"فاقوس","other_names":{"name:ar":"فاقوس","name:de":"Faqous","name:en":"Faqous","name:fr":"Faqous","name:ml":"ഫാഖൂസ്","name:ru":"Факу́с","name:uk":"Факу́с","alt_name":"Fāqūs;Faqus;Fakous"},"display_name":"فاقوس, الشرقية, 44641, مصر","address":{"city":"فاقوس","state":"الشرقية","ISO3166-2-lvl4":"EG-SHR","postcode":"44641","country":"مصر","country_code":"eg"},"population":111532,"osm_type":"node","osm_id":768593719,"type":"city","location":[31.7983814,30.7263704],"bbox":[31.6383814,30.5663704,31.9583814,30.8863704]}
{"name":"فرح 2 Farah 2","other_names":{"name:ar":"فرح 2","name:en":"Farah 2","name:fr":"Farah 2"},"display_name":"فرح 2 Farah 2, الطريق الساحلى الدولى, مارينا العلمين السياحيه, سيدى عبد الرحمن, مطروح, 51732, مصر","address":{"leisure":"فرح 2 Farah 2","road":"الطريق الساحلى الدولى","neighbourhood":"مارينا العلمين السياحيه","city":"سيدى عبد الرحمن","state":"مطروح","ISO3166-2-lvl4":"EG-MT","postcode":"51732","country":"مصر","country_code":"eg"},"osm_type":"way","osm_id":296913851,"type":"beach_resort","location":[28.72369969453934,30.98604395],"bbox":[28.7212638,30.9831229,28.7260709,30.989155]}
{"name":"قرية القطايع","other_names":{"name:ar":"قرية القطايع","name:fr":"Al Qatayee"},"display_name":"قرية القطايع, الشرقية, مصر","address":{"city":"قرية القطايع","state":"الشرقية","ISO3166-2-lvl4":"EG-SHR","country":"مصر","country_code":"eg"},"osm_type":"way","osm_id":845183208,"type":"city","location":[31.46295045694926,30.7274004],"bbox":[31.4606814,30.724635,31.4675045,30.7307399]}
{"name":"قنا","other_names":{"name:ar":"قنا","name:en":"Qena","name:eo":"Kina","name:es":"Quena","name:et":"Qinā","name:fi":"Qina","name:fr":"Qena","name:he":"קינא","name:hi":"कीना","name:hu":"Kena","name:ko":"케나","name:ml":"ഖിന","name:pl":"Kina","name:ru":"Кена","name:uk":"Кена","name:zh":"基纳/基納","int_name":"Qena","name:kab":"Qenna","name:zh-Hans":"基纳","name:zh-Hant":"基納"},"display_name":"قنا, مصر","address":{"city":"قنا","state":"قنا","ISO3166-2-lvl4":"EG-KN","country":"مصر","country_code":"eg"},"population":235362,"osm_type":"node","osm_id":299501065,"type":"city","location":[32.7162855,26.1593097],"bbox":[32.5562855,25.9993097,32.8762855,26.3193097]}
{"name":"كفر الشيخ","other_names":{"name:ar":"كفر الشيخ","name:de":"Kafr asch Scheich","name:en":"Kafr Al Sheikh","name:eo":"Kafr aŝ Ŝejĥ","name:fr":"Kafr el-Cheikh","name:hu":"Kafr es Sajh","name:ml":"കഫർ അൽ ഷെയ്ഖ്","name:pl":"Kafr asz Szajch","name:ru":"Кафр-эш-Шейх","name:uk":"Кафр-еш-Шейх"},"display_name":"كفر الشيخ, 33511, مصر","address":{"city":"كفر الشيخ","state":"كفر الشيخ","ISO3166-2-lvl4":"EG-KFS","postcode":"33511","country":"مصر","country_code":"eg"},"population":152000,"osm_type":"node","osm_id":6580603648,"type":"city","location":[30.9426981,31.1089385],"bbox":[30.7826981,30.9489385,31.1026981,31.2689385]}
{"display_name":"كفر الشيخ, 33625, مصر","address":{"state":"كفر الشيخ","ISO3166-2-lvl4":"EG-KFS","postcode":"33625","country":"مصر","country_code":"eg"},"osm_type":"way","osm_id":101271071,"type":"city","location":[30.522580830715313,31.2965036],"bbox":[30.5200678,31.2860371,30.5277316,31.3069523]}
{"name":"لؤلؤة هليوبوليس","other_names":{"name:ar":"لؤلؤة هليوبوليس","name:en":"Lolo'et Heliopolis","name:fr":"Loloat Heliopolis"},"display_name":"لؤلؤة هليوبوليس, الطريق الساحلى الدولى, مارينا العلمين السياحيه, سيدى عبد الرحمن, مطروح, 51732, مصر","address":{"leisure":"لؤلؤة هليوبوليس","road":"الطريق الساحلى الدولى","neighbourhood":"مارينا العلمين السياحيه","city":"سيدى عبد الرحمن","state":"مطروح","ISO3166-2-lvl4":"EG-MT","postcode":"51732","country":"مصر","country_code":"eg"},"osm_type":"way","osm_id":267187306,"type":"beach_resort","location":[28.79682866515784,30.9534078],"bbox":[28.7948047,30.9483605,28.7988173,30.9554413]}
{"name":"لا هاسيندا باى -- سيدى عبد الرحمن","other_names":{"name:ar":"لا هاسيندا باى -- سيدى عبد الرحمن","name:en":"La Hacienda Bay - Sidi AbdelRahman","name:fr":"Baie d'Hacienda"},"display_name":"لا هاسيندا باى -- سيدى عبد الرحمن, الطريق الساحلى الدولى, مارينا العلمين السياحيه, سيدى عبد الرحمن, مطروح, 51732, مصر","address":{"leisure":"لا هاسيندا باى -- سيدى عبد الرحمن","road":"الطريق الساحلى الدولى","neighbourhood":"مارينا العلمين السياحيه","city":"سيدى عبد الرحمن","state":"مطروح","ISO3166-2-lvl4":"EG-MT","postcode":"51732","country":"مصر","country_code":"eg"},"osm_type":"way","osm_id":290142873,"type":"resort","location":[28.792349048531605,30.946082699999998],"bbox":[28.7822619,30.9335418,28.8005358,30.9586034]}
{"name":"مدينة أبو سمبل","other_names":{"name:ar":"مدينة أبو سمبل","name:de":"Stadt Abu Simbel","name:en":"Abu Simbel City","name:es":"Ciudad de Abu Simbel","name:hi":"अबू सिम्बल शहर","name:pt":"Cidade de Abu Simbel","name:uk":"Абу-Сімбел сіті","name:ur":"ابو سمبل شہر"},"display_name":"مدينة أبو سمبل, أسوان, 81525, مصر","address":{"city":"مدينة أبو سمبل","state":"أسوان","ISO3166-2-lvl4":"EG-ASN","postcode":"81525","country":"مصر","country_code":"eg"},"osm_type":"way","osm_id":245291783,"type":"city","location":[31.617911441751154,22.3609634],"bbox":[31.5907157,22.3310131,31.6402814,22.391684]}
{"name":"مدينة مصيف بلطيم","other_names":{"name:ar":"مصيف بلطيم","name:en":"Masyaf Baltim","name:fr":"Masyaf Baltim"},"display_name":"مدينة مصيف بلطيم, كفر الشيخ, مصر","address":{"city":"مدينة مصيف بلطيم","state":"كفر الشيخ","ISO3166-2-lvl4":"EG-KFS","country":"مصر","country_code":"eg"},"osm_type":"way","osm_id":316621106,"type":"city","location":[31.11471203484759,31.5954667],"bbox":[31.0800131,31.5895352,31.1394431,31.6017423]}
{"name":"مدينة ملوي الجديدة","other_names":{"name:ar":"مدينة ملوي الجديدة","name:en":"New Mallawi City"},"display_name":"مدينة ملوي الجديدة, المنيا, مصر","address":{"city":"مدينة ملوي الجديدة","state":"المنيا","ISO3166-2-lvl4":"EG-MN","country":"مصر","country_code":"eg"},"osm_type":"node","osm_id":11522999106,"type":"city","location":[30.6878343,27.7589356],"bbox":[30.5278343,27.5989356,30.8478343,27.9189356]}
{"name":"مدينة نصر","other_names":{"name:ar":"مدينة نصر","name:en":"Nasr City","name:arz":"مدينة نصر"},"display_name":"مدينة نصر, القاهرة, مصر","address":{"city":"مدينة نصر","state":"القاهرة","ISO3166-2-lvl4":"EG-C","country":"مصر","country_code":"eg"},"osm_type":"way","osm_id":1249382787,"type":"city","location":[31.36748398085564,30.0390035],"bbox":[31.3132729,29.9905089,31.4345304,30.0864727]}
{"name":"مدينتي","other_names":{"name:ar":"مدينتي","name:de":"Madinati","name:en":"Madinaty","name:es":"Madinati","name:fa":"مدینتی","name:fr":"Madinaty","name:he":"מדינאטי","name:hr":"Madinati","name:ks":"مدینتی","name:lt":"Madinatis","name:lv":"Madinati","name:ml":"മദീനത്തി","name:uk":"Мадінаті","name:ur":"مدینتی","name:arz":"مدينتى","name:azb":"مدینتی","name:kab":"مدينتى"},"display_name":"مدينتي, مدينة القاهرة الجديدة, القاهرة, 19511, مصر","address":{"city":"مدينتي","state":"القاهرة","ISO3166-2-lvl4":"EG-C","postcode":"19511","country":"مصر","country_code":"eg"},"osm_type":"node","osm_id":355923104,"type":"city","location":[31.6238026,30.0916925],"bbox":[31.4638026,29.9316925,31.7838026,30.2516925],"border":{"name":"Madinaty","other_names":{"name:ar":"مدينتي"},"display_name":"Madinaty, القاهرة, مصر","address":{"city":"Madinaty","state":"القاهرة","ISO3166-2-lvl4":"EG-C","country":"مصر","country_code":"eg"},"osm_type":"way","osm_id":1103956339,"type":"city","location":[31.638060827436064,30.091736849999997],"bbox":[31.5886721,30.0663444,31.699231,30.1166623]}}
{"name":"مدينه ابو المطامير","other_names":{"name:ar":"مدينه ابو المطامير","name:en":"Abou Al Matamir City"},"display_name":"مدينه ابو المطامير, البحيرة, 22733, مصر","address":{"city":"مدينه ابو المطامير","state":"البحيرة","ISO3166-2-lvl4":"EG-BH","postcode":"22733","country":"مصر","country_code":"eg"},"osm_type":"way","osm_id":798351215,"type":"administrative","location":[30.16405142201973,30.91679035],"bbox":[30.1417747,30.8996483,30.1957442,30.9339247],"inferred_type":"city"}
{"name":"مدينه الفيوم الجديدة","other_names":{"name:ar":"مدينه الفيوم الجديدة","name:en":"New Al Fayoum City"},"display_name":"مدينه الفيوم الجديدة, الفيوم, 63785, مصر","address":{"city":"مدينه الفيوم الجديدة","state":"الفيوم","ISO3166-2-lvl4":"EG-FYM","postcode":"63785","country":"مصر","country_code":"eg"},"osm_type":"way","osm_id":598960996,"type":"city","location":[30.89508086269498,29.21726725],"bbox":[30.8787382,29.2011408,30.9076488,29.2352146]}
{"name":"مدينه القصير","other_names":{"name:ar":"مدينه القصير","name:de":"Stadt Al-Qusair","name:en":"Al Qusair City","name:es":"Ciudad de El Qoseir","name:uk":"Ель-Кусейр"},"display_name":"مدينه القصير, البحر الأحمر, 84712, مصر","address":{"city":"مدينه القصير","state":"البحر الأحمر","ISO3166-2-lvl4":"EG-BA","postcode":"84712","country":"مصر","country_code":"eg"},"osm_type":"way","osm_id":755638262,"type":"city","location":[34.24160362953455,26.1376925],"bbox":[34.1798997,26.0734329,34.3012941,26.2019474]}
{"name":"مدينه النوباريه الجديدة","other_names":{"name:ar":"مدينه النوباريه الجديدة","name:en":"New Al Nobaria City"},"display_name":"مدينه النوباريه الجديدة, البحيرة, 22773, مصر","address":{"city":"مدينه النوباريه الجديدة","state":"البحيرة","ISO3166-2-lvl4":"EG-BH","postcode":"22773","country":"مصر","country_code":"eg"},"osm_type":"way","osm_id":798400364,"type":"city","location":[30.077612485497124,30.6565152],"bbox":[30.0346116,30.6157691,30.1221006,30.6958168]}
{"name":"مراسي","other_names":{"name:ar":"Marassi"},"display_name":"مراسي, الطريق الساحلى الدولى, مارينا العلمين السياحيه, سيدى عبد الرحمن, مطروح, 51732, مصر","address":{"leisure":"مراسي","road":"الطريق الساحلى الدولى","neighbourhood":"مارينا العلمين السياحيه","city":"سيدى عبد الرحمن","state":"مطروح","ISO3166-2-lvl4":"EG-MT","postcode":"51732","country":"مصر","country_code":"eg"},"osm_type":"way","osm_id":295545298,"type":"beach_resort","location":[28.75238065842705,30.97032385],"bbox":[28.7240902,30.9562741,28.7731102,30.9842037]}
{"name":"مرسى علم","other_names":{"name:ar":"مرسى علم","name:bg":"Марса Алам","name:de":"Marsa Alam","name:el":"Μάρσα Αλάμ","name:en":"Marsa Alam","name:es":"Marsa Alam","name:fa":"مرسی علم","name:fr":"Marsa Alam","name:hi":"मरसा आलम","name:hy":"Մարսա Ալամ","name:ml":"മർസ ആലം","name:ru":"Марса Алам","name:uk":"Марса-Алам","name:ur":"مرسی علم","name:azb":"مرسی علم"},"display_name":"مرسى علم, مدينة مرسى علم, البحر الأحمر, 84721, مصر","address":{"city":"مرسى علم","state":"البحر الأحمر","ISO3166-2-lvl4":"EG-BA","postcode":"84721","country":"مصر","country_code":"eg"},"population":1918,"osm_type":"node","osm_id":27135821,"type":"city","location":[34.893817,25.069992],"bbox":[34.733817,24.909992,35.053817,25.229992],"border":{"name":"مدينة مرسى علم","other_names":{"name:ar":"مدينة مرسى علم","name:de":"Stadt Marsa Alam","name:en":"Marsa Alam City","name:es":"Ciudad de Marsa Alam","name:uk":"Марса-Алам","name:ur":"مرسى علم شہر","name:bg":"Марса Алам","name:el":"Μάρσα Αλάμ","name:fa":"مرسی علم","name:fr":"Marsa Alam","name:hi":"मरसा आलम","name:hy":"Մարսա Ալամ","name:ml":"മർസ ആലം","name:ru":"Марса Алам","name:azb":"مرسی علم","alt":"مرسى علم","alt:ar":"مرسى علم","alt:de":"Marsa Alam","alt:en":"Marsa Alam","alt:es":"Marsa Alam","alt:ur":"مرسی علم"},"display_name":"مدينة مرسى علم, البحر الأحمر, 84721, مصر","address":{"city":"مدينة مرسى علم","state":"البحر الأحمر","ISO3166-2-lvl4":"EG-BA","postcode":"84721","country":"مصر","country_code":"eg"},"population":1918,"osm_type":"way","osm_id":756293880,"type":"city","location":[34.893817,25.069992],"bbox":[34.8541179,25.0375832,34.9140656,25.1506659]}}
{"name":"مرسى مطروح","other_names":{"name:ar":"مرسى مطروح","name:de":"Marsa Matruh","name:en":"Marsa Matruh","name:eo":"Marsa Matruh","name:es":"Marsa Matruh","name:et":"Marsá Maţrūḩ","name:fa":"مرسی مطروح","name:fr":"Marsa Matruh","name:he":"מרסה מטרוח","name:hi":"मरसा मातृह","name:hu":"Marsza Matrúh","name:ks":"مرسی مطروح","name:ml":"മർസ മത്രൂഹ്","name:pl":"Marsa Matruh","name:ru":"Мерса-Матрух","name:sv":"Mersa Matruh","name:uk":"Мерса-Матрух","name:ur":"مرسی مطروح","name:azb":"مرسی مطروح"},"display_name":"مرسى مطروح, مطروح, 51511, مصر","address":{"city":"مرسى مطروح","state":"مطروح","ISO3166-2-lvl4":"EG-MT","postcode":"51511","country":"مصر","country_code":"eg"},"population":140000,"osm_type":"node","osm_id":299546351,"type":"city","location":[27.2395262,31.3528567],"bbox":[27.0795262,31.1928567,27.3995262,31.5128567],"border":{"name":"مدينة مرسى مطروح","other_names":{"name:ar":"مدينة مرسى مطروح","name:en":"Marsa Matrouh City","name:fr":"Marsa Matruh"},"display_name":"مدينة مرسى مطروح, مطروح, 51511, مصر","address":{"neighbourhood":"مدينة مرسى مطروح","state":"مطروح","ISO3166-2-lvl4":"EG-MT","postcode":"51511","country":"مصر","country_code":"eg"},"osm_type":"way","osm_id":845335130,"type":"administrative","location":[27.213644930113553,31.227999949999997],"bbox":[27.0443487,31.0779127,27.3843675,31.3765005]}}
{"name":"مرسيليا بيتش 4 Marseilia Beach 4","other_names":{"name:ar":"مرسيليا بيتش 4","name:en":"Marseilia Beach 4","name:fr":"Marseilia Beach 4"},"display_name":"مرسيليا بيتش 4 Marseilia Beach 4, الطريق الساحلى الدولى, مارينا العلمين السياحيه, سيدى عبد الرحمن, مطروح, 51732, مصر","address":{"leisure":"مرسيليا بيتش 4 Marseilia Beach 4","road":"الطريق الساحلى الدولى","neighbourhood":"مارينا العلمين السياحيه","city":"سيدى عبد الرحمن","state":"مطروح","ISO3166-2-lvl4":"EG-MT","postcode":"51732","country":"مصر","country_code":"eg"},"osm_type":"way","osm_id":300679276,"type":"beach_resort","location":[28.801750328174357,30.951782549999997],"bbox":[28.7985646,30.944837,28.804861,30.9552422]}
{"name":"ميت الخولي عبد الله","other_names":{"name:ar":"ميت الخولي عبد الله","name:en":"Mit al Khawli Abd Allah"},"display_name":"ميت الخولي عبد الله, الدقهلية, مصر","address":{"city":"ميت الخولي عبد الله","state":"الدقهلية","ISO3166-2-lvl4":"EG-DK","country":"مصر","country_code":"eg"},"osm_type":"way","osm_id":232205729,"type":"city","location":[31.62358777162631,31.201135],"bbox":[31.6172039,31.1958408,31.6319867,31.206423]}
{"name":"نخل","other_names":{"name:ar":"نخل","name:de":"Nakhl","name:en":"Nekhel","name:fa":"نخل","name:fr":"Nakhl","name:ks":"نخل","name:ml":"നഖ്ൽ","name:ru":"Нахль","name:sv":"Nekhel","name:uk":"Нахль","name:ur":"نخل","name:azb":"نخل","alt_name:ar":"نِخِل"},"display_name":"نخل, شمال سيناء, مصر","address":{"city":"نخل","state":"شمال سيناء","ISO3166-2-lvl4":"EG-SIN","country":"مصر","country_code":"eg"},"population":11023,"osm_type":"node","osm_id":248035196,"type":"city","location":[33.7459874,29.9114539],"bbox":[33.5859874,29.7514539,33.9059874,30.0714539]}
{"name":"نويبع","other_names":{"name:ar":"نويبع","name:de":"Nueiba","name:en":"Nueiba","name:es":"Nuweiba","name:fr":"Nueiba","name:he":"נואיבה","name:ml":"നുവൈബ","name:ru":"Нувейба","name:uk":"Нувейба","alt_name":"نويبع","int_name":"Nueiba, Nueiba, Nuwaiba, Nuweiba"},"display_name":"نويبع, جنوب سيناء, 46618, مصر","address":{"city":"نويبع","state":"جنوب سيناء","ISO3166-2-lvl4":"EG-JS","postcode":"46618","country":"مصر","country_code":"eg"},"population":18000,"osm_type":"node","osm_id":768799947,"type":"city","location":[34.661667,29.035],"bbox":[34.501667,28.875,34.821667,29.195]}
{"name":"واحة سيوة","other_names":{"name:ar":"واحة سيوة","name:de":"Siwa Oasis","name:en":"Siwa Oasis","name:es":"Siwa","name:fr":"Siwa","name:hu":"Szíva-oázis","name:ko":"시와오아시스","name:lt":"Siva","name:ru":"Сива","name:sv":"Siwa","name:uk":"Сіва","int_name":"Siwa Oasis","name:kab":"Isiwan","alt_name:ar":"قسم سيوة","short_name:ar":"سيوة","official_name:ar":"سيوة"},"display_name":"واحة سيوة, مطروح, مصر","address":{"city":"واحة سيوة","state":"مطروح","ISO3166-2-lvl4":"EG-MT","country":"مصر","country_code":"eg"},"population":35000,"osm_type":"node","osm_id":324629407,"type":"city","location":[25.5192273,29.2034664],"bbox":[25.3592273,29.0434664,25.6792273,29.3634664]}
