{"name":"Basioun","other_names":{"name:ar":"بسيون"},"display_name":"Basioun, الغربية, مصر","address":{"town":"Basioun","state":"الغربية","ISO3166-2-lvl4":"EG-GH","country":"مصر","country_code":"eg"},"osm_type":"way","osm_id":1069593318,"type":"town","location":[30.817665264243217,30.94166965],"bbox":[30.80292,30.9342802,30.8307771,30.9490801]}
{"name":"New Bani Suef City","other_names":{"name:ar":"New Bani Suef City","name:uk":"Бені Суейф ад-Джадіда"},"display_name":"New Bani Suef City, بنى سويف, 62517, مصر","address":{"town":"New Bani Suef City","state":"بنى سويف","ISO3166-2-lvl4":"EG-BNS","postcode":"62517","country":"مصر","country_code":"eg"},"osm_type":"way","osm_id":1103958694,"type":"town","location":[31.112004110938855,29.004773399999998],"bbox":[31.0127994,28.9158533,31.1977295,29.0909756]}
{"name":"New Borg el-Arab","display_name":"New Borg el-Arab, مطروح, 21934, مصر","address":{"town":"New Borg el-Arab","state":"مطروح","ISO3166-2-lvl4":"EG-MT","postcode":"21934","country":"مصر","country_code":"eg"},"osm_type":"way","osm_id":1103976481,"type":"town","location":[29.576400896869856,30.858626049999998],"bbox":[29.4711883,30.7961711,29.6775682,30.9189971]}
{"name":"New Qena","display_name":"New Qena, قنا, مصر","address":{"town":"New Qena","state":"قنا","ISO3166-2-lvl4":"EG-KN","country":"مصر","country_code":"eg"},"osm_type":"way","osm_id":1103976927,"type":"town","location":[32.73142998923436,26.2308215],"bbox":[32.7068507,26.2085836,32.7544286,26.2542106]}
{"name":"Ras Sudr","display_name":"Ras Sudr, جنوب سيناء, 46612, مصر","address":{"town":"Ras Sudr","state":"جنوب سيناء","ISO3166-2-lvl4":"EG-JS","postcode":"46612","country":"مصر","country_code":"eg"},"osm_type":"way","osm_id":1104195645,"type":"town","location":[32.72928433547948,29.5960708],"bbox":[32.6889738,29.5769403,32.7508892,29.6148476]}
{"name":"Suhein","other_names":{"name:ar":"سوهين"},"display_name":"Suhein, مثلث حلايب, البحر الأحمر, مصر","address":{"town":"Suhein","municipality":"مثلث حلايب","state":"البحر الأحمر","ISO3166-2-lvl4":"EG-BA","country":"مصر","country_code":"eg"},"osm_type":"node","osm_id":10935437586,"type":"town","location":[34.6101648,22.0028915],"bbox":[34.5701648,21.9628915,34.6501648,22.0428915]}
{"name":"Umm Baraka","display_name":"Umm Baraka, مطروح, مصر","address":{"town":"Umm Baraka","state":"مطروح","ISO3166-2-lvl4":"EG-MT","country":"مصر","country_code":"eg"},"osm_type":"node","osm_id":11309787185,"type":"town","location":[26.4741057,30.82407],"bbox":[26.4341057,30.78407,26.5141057,30.86407]}
{"name":"أبنوب","other_names":{"name:ar":"أبنوب","name:en":"Abnub","name:fr":"Abnub"},"display_name":"أبنوب, أسيوط, 71717, مصر","address":{"town":"أبنوب","state":"أسيوط","ISO3166-2-lvl4":"EG-AST","postcode":"71717","country":"مصر","country_code":"eg"},"osm_type":"node","osm_id":327143464,"type":"town","location":[31.151736,27.269181],"bbox":[31.111736,27.229181,31.191736,27.309181]}
{"name":"أبو الشقوق","other_names":{"name:ar":"أبو الشقوق","name:de":"Abu al Shuquq","name:en":"Abu al Shuquq","name:fr":"Abu al Shuquq","alt_name":"أبو الشقوق","int_name":"Abu el-Shuqûq, Abu al Shuquq","name:ar1":"أبو الشقوق"},"display_name":"أبو الشقوق, الدقهلية, 44719, مصر","address":{"town":"أبو الشقوق","state":"الدقهلية","ISO3166-2-lvl4":"EG-DK","postcode":"44719","country":"مصر","country_code":"eg"},"osm_type":"node","osm_id":768580580,"type":"town","location":[31.599444,30.828611],"bbox":[31.559444,30.788611,31.639444,30.868611]}
{"name":"أبو المطامير","other_names":{"name:ar":"أبو المطامير","name:de":"Abu al Matamir","name:en":"Abu al Matamir","name:fr":"Abu al Matamir","alt_name":"أبو المطامير","int_name":"Abu el Matāmīr, Abu al Matamir","name:ar1":"أبو المطامير"},"display_name":"أبو المطامير, البحيرة, 22733, مصر","address":{"town":"أبو المطامير","state":"البحيرة","ISO3166-2-lvl4":"EG-BH","postcode":"22733","country":"مصر","country_code":"eg"},"osm_type":"node","osm_id":769127625,"type":"town","location":[30.1756385,30.9079349],"bbox":[30.1356385,30.8679349,30.2156385,30.9479349]}
{"name":"أبو تيج","other_names":{"name:ar":"أبو تيج","name:en":"Abu Tig","name:fr":"Aboutig"},"display_name":"أبو تيج, أسيوط, 71641, مصر","address":{"town":"أبو تيج","state":"أسيوط","ISO3166-2-lvl4":"EG-AST","postcode":"71641","country":"مصر","country_code":"eg"},"osm_type":"node","osm_id":332071942,"type":"town","location":[31.3196407,27.0432988],"bbox":[31.2796407,27.0032988,31.3596407,27.0832988]}
{"name":"أبو حمص","other_names":{"name:ar":"أبو حمص","name:de":"Abu Humnus","name:en":"Abu Huminus","name:fr":"Abu Humnus","alt_name":"أبو حمنص","int_name":"Abu Ḥuminuṣ, Abu Huminus","name:ar1":"أبو حمنص"},"display_name":"أبو حمص, البحيرة, 22618, مصر","address":{"town":"أبو حمص","state":"البحيرة","ISO3166-2-lvl4":"EG-BH","postcode":"22618","country":"مصر","country_code":"eg"},"population":36801,"osm_type":"node","osm_id":769122369,"type":"town","location":[30.3129485,31.1005864],"bbox":[30.2729485,31.0605864,30.3529485,31.1405864]}
{"name":"أبو رديس","other_names":{"name:ar":"أبو رديس","name:de":"Abu Rudays","name:en":"Abu Rudays","name:fr":"Abu Rudays","name:ml":"അബു റുദൈസ്","name:ru":"Абу Редейз","name:uk":"Абу Рдіс","alt_name":"أبو رديس","int_name":"Abū Rudays, Abu Rudays","name:ar1":"أبو رديس"},"display_name":"أبو رديس, جنوب سيناء, 46611, مصر","address":{"town":"أبو رديس","state":"جنوب سيناء","ISO3166-2-lvl4":"EG-JS","postcode":"46611","country":"مصر","country_code":"eg"},"osm_type":"node","osm_id":768030919,"type":"town","location":[33.1875,28.9036109],"bbox":[33.1475,28.8636109,33.2275,28.9436109]}
{"name":"أبو رماد","other_names":{"name:ar":"أبو رماد","name:de":"Abu Ramad","name:en":"Abu Ramad","name:es":"Abu Ramad","name:fr":"Abu Ramad","name:ml":"അബു റമാദ്","name:uk":"Абу Рамад"},"display_name":"أبو رماد, مثلث حلايب, البحر الأحمر, مصر","address":{"town":"أبو رماد","municipality":"مثلث حلايب","state":"البحر الأحمر","ISO3166-2-lvl4":"EG-BA","country":"مصر","country_code":"eg"},"osm_type":"node","osm_id":4813663277,"type":"town","location":[36.4085658,22.3990751],"bbox":[36.3685658,22.3590751,36.4485658,22.4390751]}
{"name":"أبو زنيمة","other_names":{"name:ar":"أبو زنيمة","name:de":"Abu Zenima","name:en":"Abu Zenima","name:es":"Abu Zenima","name:fr":"Abu Zenima","name:ml":"അബു സെനിമ","name:uk":"Абу-Зеніма","int_name":"Abu Zenīma, Abu Zenima, Abu Zanimah"},"display_name":"أبو زنيمة, جنوب سيناء, مصر","address":{"town":"أبو زنيمة","state":"جنوب سيناء","ISO3166-2-lvl4":"EG-JS","country":"مصر","country_code":"eg"},"osm_type":"node","osm_id":768733590,"type":"town","location":[33.104062,29.051163],"bbox":[33.064062,29.011163,33.144062,29.091163]}
{"name":"أبو قرقاص","other_names":{"name:ar":"أبو قرقاص","name:de":"Abu Qurqas","name:en":"Abu Qurqas","name:fr":"Abu Qurqas","alt_name":"أبو قرقاص","int_name":"Abū Qurqāş, Abu Qurqas","name:ar1":"أبو قرقاص"},"display_name":"أبو قرقاص, المنيا, 61611, مصر","address":{"town":"أبو قرقاص","state":"المنيا","ISO3166-2-lvl4":"EG-MN","postcode":"61611","country":"مصر","country_code":"eg"},"osm_type":"node","osm_id":768584680,"type":"town","location":[30.8377108,27.930588],"bbox":[30.7977108,27.890588,30.8777108,27.970588]}
{"name":"أبو قير","other_names":{"name:ar":"أبو قير","name:bg":"Абу Кир","name:ca":"Abukir","name:cs":"Abúkir","name:da":"Abukir","name:de":"Abukir","name:en":"Abu Qir","name:es":"Abukir","name:et":"Abū Qīr","name:eu":"Abukir","name:fa":"ابوقیر","name:fi":"Abu Qir","name:fr":"Aboukir","name:it":"Abukir","name:lt":"Abu Kiras","name:ml":"അബൂക്കീർ","name:mr":"अबु किर","name:nb":"Abukir","name:nn":"Abukir","name:oc":"Abokir","name:pl":"Abu Kir","name:pt":"Abuquir","name:ro":"Abukir","name:ru":"Абу-Кир","name:sk":"Abú Kír","name:sv":"Abukir","name:zh":"阿布基爾"},"display_name":"أبو قير, الإسكندرية, 21913, مصر","address":{"town":"أبو قير","state":"الإسكندرية","ISO3166-2-lvl4":"EG-ALX","postcode":"21913","country":"مصر","country_code":"eg"},"population":37997,"osm_type":"node","osm_id":332504177,"type":"town","location":[30.0641979,31.3203016],"bbox":[30.0241979,31.2803016,30.1041979,31.3603016]}
{"name":"أبو منقار","other_names":{"name:ar":"أبو منقار","name:de":"Abu Minqar","name:en":"Abu Minqar","name:fr":"Abu Minqar"},"display_name":"أبو منقار, الوادي الجديد, مصر","address":{"town":"أبو منقار","state":"الوادي الجديد","ISO3166-2-lvl4":"EG-WAD","country":"مصر","country_code":"eg"},"osm_type":"node","osm_id":336355231,"type":"town","location":[27.662008,26.506222],"bbox":[27.622008,26.466222,27.702008,26.546222]}
{"name":"أجهور الكبرى","other_names":{"name:ar":"أجهور الكبرى","name:en":"Aghour Al-Kubra","name:fr":"Aghour Al-Kubra"},"display_name":"أجهور الكبرى, القليوبية, 13775, مصر","address":{"town":"أجهور الكبرى","state":"القليوبية","ISO3166-2-lvl4":"EG-KB","postcode":"13775","country":"مصر","country_code":"eg"},"osm_type":"node","osm_id":332495459,"type":"town","location":[31.1491022,30.299241],"bbox":[31.1091022,30.259241,31.1891022,30.339241]}
{"name":"أسوان الجديدة","other_names":{"name:ar":"أسوان الجديدة","name:en":"New Aswan","name:es":"Nuevo Asuán","name:fr":"Assouan Nouvelle"},"display_name":"أسوان الجديدة, أسوان, 81911, مصر","address":{"town":"أسوان الجديدة","state":"أسوان","ISO3166-2-lvl4":"EG-ASN","postcode":"81911","country":"مصر","country_code":"eg"},"osm_type":"node","osm_id":10562128548,"type":"town","location":[32.8447189,24.1939267],"bbox":[32.8047189,24.1539267,32.8847189,24.2339267]}
{"display_name":"أسوان, مصر","address":{"state":"أسوان","ISO3166-2-lvl4":"EG-ASN","country":"مصر","country_code":"eg"},"osm_type":"node","osm_id":5218983633,"type":"town","location":[32.9461709,24.7120818],"bbox":[32.9061709,24.6720818,32.9861709,24.7520818]}
{"name":"أشمون","other_names":{"name:ar":"أشمون","name:de":"Aschmun","name:en":"Ashmoun","name:es":"Ashmūn","name:fa":"اشمون","name:fr":"Ashmoun","name:pl":"Aszmun","name:ru":"Ашмун","name:sv":"Ashmun","alt_name":"أشمون"},"display_name":"أشمون, المنوفية, 32811, مصر","address":{"town":"أشمون","state":"المنوفية","ISO3166-2-lvl4":"EG-MNF","postcode":"32811","country":"مصر","country_code":"eg"},"osm_type":"node","osm_id":1039311052,"type":"town","location":[30.97608,30.295582],"bbox":[30.93608,30.255582,31.01608,30.335582]}
{"name":"أطسا","other_names":{"name:ar":"أطسا","name:de":"Itsa","name:en":"Itsa","name:fr":"Atsa","name:hr":"Itsa"},"display_name":"أطسا, الفيوم, 63759, مصر","address":{"town":"أطسا","state":"الفيوم","ISO3166-2-lvl4":"EG-FYM","postcode":"63759","country":"مصر","country_code":"eg"},"osm_type":"node","osm_id":332569650,"type":"town","location":[30.8002018,29.2405098],"bbox":[30.7602018,29.2005098,30.8402018,29.2805098]}
{"name":"إدفو","other_names":{"name:ar":"إدفو","name:cs":"Edfu","name:de":"Idfu","name:en":"Idfu","name:fi":"Edfu","name:fr":"Idfu","name:hu":"Edfu","name:ml":"ഇദ്ഫു","name:pt":"Edfu","name:ru":"Идфу","alt_name":"إدفو","int_name":"Idfu, Idfu"},"display_name":"إدفو, مدينه ادفو, أسوان, مصر","address":{"town":"إدفو","state":"أسوان","ISO3166-2-lvl4":"EG-ASN","country":"مصر","country_code":"eg"},"population":166102,"osm_type":"node","osm_id":768078792,"type":"town","location":[32.8747219,24.980278],"bbox":[32.8347219,24.940278,32.9147219,25.020278],"border":{"name":"مدينه ادفو","other_names":{"name:ar":"مدينه ادفو","name:en":"Idfu City","name:cs":"Edfu","name:de":"Idfu","name:fi":"Edfu","name:fr":"Idfu","name:hu":"Edfu","name:ml":"ഇദ്ഫു","name:pt":"Edfu","name:ru":"Идфу","alt_name":"إدفو","int_name":"Idfu, Idfu","alt":"إدفو","alt:ar":"إدفو","alt:en":"Idfu"},"display_name":"مدينه ادفو, أسوان, 81644, مصر","address":{"town":"مدينه ادفو","state":"أسوان","ISO3166-2-lvl4":"EG-ASN","postcode":"81644","country":"مصر","country_code":"eg"},"population":166102,"osm_type":"way","osm_id":544329301,"type":"town","location":[32.8747219,24.980278],"bbox":[32.8587486,24.9556506,32.8947637,25.0271082]}}
{"name":"إسنا","other_names":{"name:ar":"إسنا","name:az":"Esna","name:be":"Існа (Егіпет)","name:bg":"Есна","name:ca":"Esna","name:cs":"Esna","name:de":"Esna","name:el":"Έσνα","name:en":"Esna","name:es":"Esna","name:eu":"Esna","name:fa":"اسنا","name:fr":"Esna","name:he":"איסנא","name:hu":"Eszna","name:hy":"Իսնա","name:it":"Esna","name:ja":"エスナ","name:ka":"ისნა","name:kk":"Эсна қаласы","name:ko":"에스나","name:la":"Latopolis","name:lt":"Esna","name:mk":"Есна","name:ml":"ഇസ്ന","name:nl":"Esna","name:pl":"Esna","name:pt":"Latópolis","name:ru":"Исна","name:sl":"Esna","name:sv":"Esna","name:tr":"Esna","name:uk":"Есна","name:ur":"اسنا","name:zh":"伊斯納"},"display_name":"إسنا, قنا, مصر","address":{"town":"إسنا","state":"قنا","ISO3166-2-lvl4":"EG-KN","country":"مصر","country_code":"eg"},"osm_type":"node","osm_id":332074994,"type":"town","location":[32.5531993,25.2936689],"bbox":[32.5131993,25.2536689,32.5931993,25.3336689]}
{"name":"إهناسية المدينة","other_names":{"name:ar":"إهناسية المدينة","name:de":"Ihnasya al Madinah","name:en":"Ihnasya al Madinah","name:fr":"Ihnasya al Madinah","alt_name":"إهناسية المدينة","int_name":"Ihnāsyā al Madīnah, Ihnasya al Madinah, Ihnasiyat al Madinah, Heracleopolis Magna","name:ar1":"إهناسية المدينة"},"display_name":"إهناسية المدينة, بنى سويف, 62631, مصر","address":{"town":"إهناسية المدينة","state":"بنى سويف","ISO3166-2-lvl4":"EG-BNS","postcode":"62631","country":"مصر","country_code":"eg"},"osm_type":"node","osm_id":768586326,"type":"town","location":[30.944062,29.087316],"bbox":[30.904062,29.047316,30.984062,29.127316]}
{"name":"إيتاي البارود","other_names":{"name:ar":"تل البرود","name:de":"Itay el-Barud","name:en":"Itay el-Barud","name:fr":"Itay el-Barud","alt_name":"إيتاي البارود","int_name":"Itay El-Baroud","name:ar1":"تل البرود"},"display_name":"إيتاي البارود, البحيرة, مصر","address":{"town":"إيتاي البارود","state":"البحيرة","ISO3166-2-lvl4":"EG-BH","country":"مصر","country_code":"eg"},"osm_type":"node","osm_id":768601971,"type":"town","location":[30.6646636,30.8869877],"bbox":[30.6246636,30.8469877,30.7046636,30.9269877]}
{"name":"اتميدة","other_names":{"name:ar":"اتميدة","name:en":"Atmeeda","name:fr":"Atmidah"},"display_name":"اتميدة, الدقهلية, مصر","address":{"town":"اتميدة","state":"الدقهلية","ISO3166-2-lvl4":"EG-DK","country":"مصر","country_code":"eg"},"osm_type":"node","osm_id":1137313517,"type":"town","location":[31.3417765,30.7653886],"bbox":[31.3017765,30.7253886,31.3817765,30.8053886]}
{"name":"اجا","other_names":{"name:ar":"اجا","name:en":"Aga","name:es":"Ajā","name:fa":"اجا (شهر)","name:fr":"Aga","name:pl":"Adża","name:sv":"Ajā"},"display_name":"اجا, الدقهلية, 35764, مصر","address":{"town":"اجا","state":"الدقهلية","ISO3166-2-lvl4":"EG-DK","postcode":"35764","country":"مصر","country_code":"eg"},"osm_type":"node","osm_id":270227536,"type":"town","location":[31.2903765,30.9419854],"bbox":[31.2503765,30.9019854,31.3303765,30.9819854]}
{"name":"اخميم","other_names":{"name:ar":"اخميم","name:en":"Akhmim","name:fr":"Akhmîm","name:ru":"Ахмим","old_name":"Panopolis"},"display_name":"اخميم, سوهاج, 82714, مصر","address":{"town":"اخميم","state":"سوهاج","ISO3166-2-lvl4":"EG-SHG","postcode":"82714","country":"مصر","country_code":"eg"},"osm_type":"node","osm_id":1184124741,"type":"town","location":[31.743443,26.562663],"bbox":[31.703443,26.522663,31.783443,26.602663]}
{"name":"الأدبية","other_names":{"name:ar":"الأدبية","name:de":"Al-Adabiyya","name:en":"Al Adabiyah","name:fr":"El-Adabîya","name:ml":"അൽ-അദബിയ","name:uk":"Аль-Адабія"},"display_name":"الأدبية, السويس, 43713, مصر","address":{"town":"الأدبية","state":"السويس","ISO3166-2-lvl4":"EG-SUZ","postcode":"43713","country":"مصر","country_code":"eg"},"osm_type":"node","osm_id":29593397,"type":"town","location":[32.4569409,29.9007515],"bbox":[32.4169409,29.8607515,32.4969409,29.9407515]}
{"name":"الاحياء","other_names":{"name:ar":"الاحياء","name:de":"Al Ahia'","name:en":"Al Ahia'","name:fr":"Al Ahia'"},"display_name":"الاحياء, البحر الأحمر, مصر","address":{"town":"الاحياء","state":"البحر الأحمر","ISO3166-2-lvl4":"EG-BA","country":"مصر","country_code":"eg"},"osm_type":"way","osm_id":752376321,"type":"town","location":[33.7619689778454,27.280337600000003],"bbox":[33.6917505,27.2318059,33.8090675,27.3288154]}
{"name":"الباويطى","other_names":{"name:ar":"الباويطى","name:de":"al-Bawiti","name:el":"Μπαουίτι","name:en":"Bawiti","name:fa":"الباویطی","name:fr":"Bawiti","name:ja":"バウーティー","name:nl":"Al-Bawiti","name:pl":"Al-Bawiti","name:sv":"Al Bawīţī"},"display_name":"الباويطى, الجيزة, 12935, مصر","address":{"town":"الباويطى","state":"الجيزة","ISO3166-2-lvl4":"EG-GZ","postcode":"12935","country":"مصر","country_code":"eg"},"osm_type":"node","osm_id":336335743,"type":"town","location":[28.862992,28.35182],"bbox":[28.822992,28.31182,28.902992,28.39182]}
{"name":"البداري","other_names":{"name:ar":"البداري","name:en":"Al Badari","name:fr":"Al Badari"},"display_name":"البداري, أسيوط, 71727, مصر","address":{"town":"البداري","state":"أسيوط","ISO3166-2-lvl4":"EG-AST","postcode":"71727","country":"مصر","country_code":"eg"},"osm_type":"node","osm_id":6635281027,"type":"town","location":[31.4151649,26.9922209],"bbox":[31.3751649,26.9522209,31.4551649,27.0322209],"border":{"name":"البدارى","other_names":{"name:ar":"البدارى","name:en":"Al Badari","name:fr":"Al Badari"},"display_name":"البدارى, أسيوط, 71727, مصر","address":{"town":"البدارى","state":"أسيوط","ISO3166-2-lvl4":"EG-AST","postcode":"71727","country":"مصر","country_code":"eg"},"osm_type":"way","osm_id":835504884,"type":"town","location":[31.40737503039048,26.998426449999997],"bbox":[31.3936301,26.9850477,31.4249106,27.0118165]}}
{"name":"البلينا","other_names":{"name:ar":"البلينا","name:de":"al-Balyana","name:en":"Balyana","name:fr":"El-Balyana","name:ml":"ബല്യന","name:sco":"El-Balyana"},"display_name":"البلينا, قنا, 82811, مصر","address":{"town":"البلينا","state":"قنا","ISO3166-2-lvl4":"EG-KN","postcode":"82811","country":"مصر","country_code":"eg"},"osm_type":"node","osm_id":332074139,"type":"town","location":[32.0019946,26.2332974],"bbox":[31.9619946,26.1932974,32.0419946,26.2732974]}
{"name":"الثانيه","other_names":{"name:ar":"الثانيه","name:en":"Second"},"display_name":"الثانيه, أسيوط, 71783, مصر","address":{"town":"الثانيه","state":"أسيوط","ISO3166-2-lvl4":"EG-AST","postcode":"71783","country":"مصر","country_code":"eg"},"osm_type":"way","osm_id":816252677,"type":"town","location":[31.182494398263366,27.16592545],"bbox":[31.1694303,27.1570237,31.1940191,27.1750891]}
{"name":"الجونة","other_names":{"name:ar":"الجونة","name:bg":"Гуна","name:de":"El Guna","name:en":"El Gouna","name:eo":"El Gona","name:fa":"الجونه","name:fi":"El Gona","name:fr":"El Gouna","name:nb":"El Gona","name:nl":"El Gona","name:pl":"Al Dżuna","name:ru":"Эль Гуна","name:sv":"El Gona","name:uk":"Ель Гуна","int_name":"El Guna","name:arz":"الجونه"},"display_name":"الجونة, البحر الأحمر, 84513, مصر","address":{"town":"الجونة","state":"البحر الأحمر","ISO3166-2-lvl4":"EG-BA","postcode":"84513","country":"مصر","country_code":"eg"},"population":15000,"osm_type":"node","osm_id":27133981,"type":"town","location":[33.6741556,27.3989266],"bbox":[33.6341556,27.3589266,33.7141556,27.4389266]}
{"name":"الحسنة","other_names":{"name:ar":"الحسنة","name:de":"El Hassana","name:en":"El Hassana","name:fr":"El Hassana","name:ml":"അൽ ഹസന"},"display_name":"الحسنة, شمال سيناء, مصر","address":{"town":"الحسنة","state":"شمال سيناء","ISO3166-2-lvl4":"EG-SIN","country":"مصر","country_code":"eg"},"osm_type":"node","osm_id":768030514,"type":"town","location":[33.781667,30.465278],"bbox":[33.741667,30.425278,33.821667,30.505278]}
{"name":"الحمراء الاولى","other_names":{"name:ar":"الحمراء الاولى","name:en":"First Al Hamra'"},"display_name":"الحمراء الاولى, أسيوط, مصر","address":{"town":"الحمراء الاولى","state":"أسيوط","ISO3166-2-lvl4":"EG-AST","country":"مصر","country_code":"eg"},"osm_type":"way","osm_id":816163585,"type":"town","location":[31.201020759438187,27.170153149999997],"bbox":[31.1932507,27.1588525,31.2063033,27.1811602]}
{"name":"الحمراء الثانيه","other_names":{"name:ar":"الحمراء الثانيه","name:en":"Second Al Hamra'"},"display_name":"الحمراء الثانيه, أسيوط, 71513, مصر","address":{"town":"الحمراء الثانيه","state":"أسيوط","ISO3166-2-lvl4":"EG-AST","postcode":"71513","country":"مصر","country_code":"eg"},"osm_type":"way","osm_id":818446144,"type":"town","location":[31.193791414805954,27.17974135],"bbox":[31.1895496,27.1756341,31.1981463,27.1838877]}
{"name":"الحوامدية","other_names":{"name:ar":"الحوامدية","name:de":"al-Hawamidiyya","name:en":"Al-Hawamidyah","name:fr":"El Hawamdeya","name:hr":"Al Havamidija"},"display_name":"الحوامدية, الجيزة, 12916, مصر","address":{"town":"الحوامدية","state":"الجيزة","ISO3166-2-lvl4":"EG-GZ","postcode":"12916","country":"مصر","country_code":"eg"},"population":113000,"osm_type":"node","osm_id":299569009,"type":"town","location":[31.2672452,29.892851],"bbox":[31.2272452,29.852851,31.3072452,29.932851]}
{"name":"الخامسة","other_names":{"name:ar":"الخامسة","name:en":"Al-Khamisa","name:es":"El Quinto"},"display_name":"الخامسة, أسيوط, 71515, مصر","address":{"town":"الخامسة","state":"أسيوط","ISO3166-2-lvl4":"EG-AST","postcode":"71515","country":"مصر","country_code":"eg"},"osm_type":"way","osm_id":816105319,"type":"town","location":[31.165251318677427,27.1841947],"bbox":[31.1528666,27.1764603,31.1811296,27.1923967]}
{"name":"الخطارة","other_names":{"name:ar":"الخطارة","name:en":"Al Khattara","name:ml":"അൽ ഖത്താറ"},"display_name":"الخطارة, أسوان, 81911, مصر","address":{"town":"الخطارة","state":"أسوان","ISO3166-2-lvl4":"EG-ASN","postcode":"81911","country":"مصر","country_code":"eg"},"osm_type":"node","osm_id":10562128547,"type":"town","location":[32.8771484,24.2051332],"bbox":[32.8371484,24.1651332,32.9171484,24.2451332]}
{"name":"الدلنجات","other_names":{"name:ar":"الدلنجات","name:de":"Delingat","name:en":"Delingat","name:fr":"Delingat","alt_name":"دلنجة","int_name":"Delingat, Delingat","name:ar1":"دلنجة"},"display_name":"الدلنجات, البحيرة, 22762, مصر","address":{"town":"الدلنجات","state":"البحيرة","ISO3166-2-lvl4":"EG-BH","postcode":"22762","country":"مصر","country_code":"eg"},"osm_type":"node","osm_id":768601998,"type":"town","location":[30.534167,30.828056],"bbox":[30.494167,30.788056,30.574167,30.868056]}
{"name":"الرحمانية","other_names":{"name:ar":"الرحمانية","name:en":"Al-Rahmaniya","name:fr":"El Rahmanieh","name:uk":"Ель-Рахманія","name:fa":"رحمانیه","name:ml":"അർ-റഹ്മാനിയ","name:pl":"Ar-Rahmanijja","alt:en":"El Rahmaniya"},"display_name":"الرحمانية, البحيرة, 22744, مصر","address":{"city":"الرحمانية","state":"البحيرة","ISO3166-2-lvl4":"EG-BH","postcode":"22744","country":"مصر","country_code":"eg"},"population":32093,"osm_type":"way","osm_id":312268366,"type":"town","location":[30.6424526,31.1045549],"bbox":[30.6338421,31.096489,30.6503964,31.1110872]}
{"name":"السلوم","other_names":{"name:ar":"السلوم","name:de":"As-Sallum","name:en":"As Sallum","name:es":"Sollum","name:fr":"Sollum","name:ml":"അസ്-സല്ലൂം","name:ru":"Саллум","name:uk":"Соллум","alt_name":"السلوم","int_name":"El Sellûm, Al Sellum, Al Sollum, Sellum, Sollum, Salum"},"display_name":"السلوم, مطروح, 51713, مصر","address":{"town":"السلوم","state":"مطروح","ISO3166-2-lvl4":"EG-MT","postcode":"51713","country":"مصر","country_code":"eg"},"population":8445,"osm_type":"node","osm_id":299612108,"type":"town","location":[25.1542126,31.5516178],"bbox":[25.1142126,31.5116178,25.1942126,31.5916178]}
{"name":"السنبلاوين","other_names":{"name:ar":"السنبلاوين","name:de":"Al Sinbillawain","name:en":"El Senbellawein","name:fr":"Al Sinbillawain","name:ml":"സിന്ബില്ലവെയ്ൻ","int_name":"As Sunbullāwayn, Al Sunbullawayn","name:ar1":"السنبلاوين"},"display_name":"السنبلاوين, الدقهلية, 35651, مصر","address":{"town":"السنبلاوين","state":"الدقهلية","ISO3166-2-lvl4":"EG-DK","postcode":"35651","country":"مصر","country_code":"eg"},"osm_type":"node","osm_id":768580931,"type":"town","location":[31.4624047,30.8814711],"bbox":[31.4224047,30.8414711,31.5024047,30.9214711]}
{"name":"السنطة","other_names":{"name:ar":"السنطة","name:en":"Al-Santa","name:fr":"Al-Santa"},"display_name":"السنطة, الغربية, 31631, مصر","address":{"town":"السنطة","state":"الغربية","ISO3166-2-lvl4":"EG-GH","postcode":"31631","country":"مصر","country_code":"eg"},"osm_type":"node","osm_id":1093710521,"type":"town","location":[31.1191356,30.7289818],"bbox":[31.0791356,30.6889818,31.1591356,30.7689818]}
{"display_name":"السويس, مصر","address":{"state":"السويس","ISO3166-2-lvl4":"EG-SUZ","country":"مصر","country_code":"eg"},"osm_type":"node","osm_id":2522071771,"type":"town","location":[32.5537019,30.057258],"bbox":[32.5137019,30.017258,32.5937019,30.097258]}
{"name":"الشركات","other_names":{"name:ar":"الشركات","name:en":"Al Sharikat"},"display_name":"الشركات, أسيوط, 71516, مصر","address":{"town":"الشركات","state":"أسيوط","ISO3166-2-lvl4":"EG-AST","postcode":"71516","country":"مصر","country_code":"eg"},"osm_type":"way","osm_id":818620955,"type":"town","location":[31.177569249255026,27.187293750000002],"bbox":[31.1728703,27.18035,31.1853328,27.1927011]}
{"name":"الشلال السد العالى","other_names":{"name:ar":"الشلال السد العالى","name:en":"Al Shalal High Dam"},"display_name":"الشلال السد العالى, أسوان, 81515, مصر","address":{"town":"الشلال السد العالى","state":"أسوان","ISO3166-2-lvl4":"EG-ASN","postcode":"81515","country":"مصر","country_code":"eg"},"osm_type":"way","osm_id":812826952,"type":"town","location":[32.9117016851171,24.0749132],"bbox":[32.9054699,24.0674637,32.9180817,24.0825894]}
{"name":"الشهداء","other_names":{"name:ar":"الشهداء","name:de":"Al Shuhada","name:en":"Al Shuhada","name:fr":"Al Shuhada","alt_name":"الشهداء","int_name":"Ash Shuhadā’, Al Shuhada","name:ar1":"الشهداء"},"display_name":"الشهداء, المنوفية, 32841, مصر","address":{"town":"الشهداء","state":"المنوفية","ISO3166-2-lvl4":"EG-MNF","postcode":"32841","country":"مصر","country_code":"eg"},"osm_type":"node","osm_id":768565966,"type":"town","location":[30.8952927,30.5976369],"bbox":[30.8552927,30.5576369,30.9352927,30.6376369]}
{"name":"الشيخ زويد","other_names":{"name:ar":"الشيخ زويد","name:cs":"Šajch Zuvajd","name:de":"Asch Scheiach Suayyed","name:en":"Ash Sheikh Zuwayyed","name:eu":"Ash Sheikh Zuwayyed","name:fa":"شیخ زوید","name:fr":"Cheikh Zouweide","name:he":"שיח' זוויד","name:ml":"ഷെയ്ഖ് സുവൈദ്","name:pl":"Asz-Szajch Zuwajjid","name:ru":"Шейх-Зувейд","name:azb":"شیخ زوید","alt_name:ar":"شيخ زويد","alt_name:fr":"Sheikh Zuwâyid"},"display_name":"الشيخ زويد, شمال سيناء, مصر","address":{"town":"الشيخ زويد","state":"شمال سيناء","ISO3166-2-lvl4":"EG-SIN","country":"مصر","country_code":"eg"},"population":60000,"osm_type":"node","osm_id":768030243,"type":"town","location":[34.1107742,31.2127686],"bbox":[34.0707742,31.1727686,34.1507742,31.2527686]}
{"name":"الصالحية الجديدة","other_names":{"name:ar":"الصالحية الجديدة","name:en":"Al-Salheya Al-Gedida","name:fr":"El Salahaia El Gadeda","name:ml":"അൽ-സാലഹിയ അൽ-ഗദീദ"},"display_name":"الصالحية الجديدة, الشرقية, مصر","address":{"town":"الصالحية الجديدة","state":"الشرقية","ISO3166-2-lvl4":"EG-SHR","country":"مصر","country_code":"eg"},"osm_type":"node","osm_id":1051468629,"type":"town","location":[31.9392545,30.631747],"bbox":[31.8992545,30.591747,31.9792545,30.671747]}
{"name":"الصف","other_names":{"name:ar":"الصف","name:de":"Al Saff","name:en":"Al Saff","name:fr":"Al Saff","name:ml":"അൽ-സഫ്","alt_name":"الصف","int_name":"Es Saff, Al Saff","name:ar1":"الصف"},"display_name":"الصف, الجيزة, 12952, مصر","address":{"town":"الصف","state":"الجيزة","ISO3166-2-lvl4":"EG-GZ","postcode":"12952","country":"مصر","country_code":"eg"},"osm_type":"node","osm_id":768590098,"type":"town","location":[31.2811109,29.5647221],"bbox":[31.2411109,29.5247221,31.3211109,29.6047221]}
{"name":"الضبعة","other_names":{"name:ar":"الضبعة","name:de":"Die daba","name:en":"Ad Daba‘a","name:fr":"La daba","name:ru":"Эль-Дабъа","alt_name":"الضبعة","int_name":"Aḑ Ḑab‘ah, Al Dabah","name:ar1":"الضبعة"},"display_name":"الضبعة, مطروح, مصر","address":{"town":"الضبعة","state":"مطروح","ISO3166-2-lvl4":"EG-MT","country":"مصر","country_code":"eg"},"osm_type":"node","osm_id":768026319,"type":"town","location":[28.4443762,31.028943],"bbox":[28.4043762,30.988943,28.4843762,31.068943]}
{"name":"العصافرة","other_names":{"name:ar":"العصافرة","name:en":"Al-Asafra","name:ml":"അൽ-അസാഫ്ര"},"display_name":"العصافرة, الدقهلية, 35789, مصر","address":{"town":"العصافرة","state":"الدقهلية","ISO3166-2-lvl4":"EG-DK","postcode":"35789","country":"مصر","country_code":"eg"},"osm_type":"node","osm_id":10651073722,"type":"town","location":[32.0109865,31.169962],"bbox":[31.9709865,31.129962,32.0509865,31.209962],"border":{"name":"العصافرة","other_names":{"name:ar":"العصافرة","name:en":"Al-Asafra","name:ml":"അൽ-അസാഫ്ര"},"display_name":"العصافرة, الدقهلية, مصر","address":{"town":"العصافرة","state":"الدقهلية","ISO3166-2-lvl4":"EG-DK","country":"مصر","country_code":"eg"},"osm_type":"way","osm_id":1144271994,"type":"town","location":[32.0109865,31.169962],"bbox":[32.0014742,31.1591974,32.0216932,31.1813996]}}
{"name":"العوينة","other_names":{"name:ar":"العوينة","name:de":"Al Uwaynah","name:en":"Al Uwaynah","name:fr":"Al Uwaynah","alt_name":"العوينة","int_name":"Al ‘Uwaynah, Al Uwaynah","name:ar1":"العوينة"},"display_name":"العوينة, الجيزة, مصر","address":{"town":"العوينة","state":"الجيزة","ISO3166-2-lvl4":"EG-GZ","country":"مصر","country_code":"eg"},"osm_type":"node","osm_id":768752276,"type":"town","location":[28.9360984,28.3694236],"bbox":[28.8960984,28.3294236,28.9760984,28.4094236]}
{"name":"العياط","other_names":{"name:ar":"العيط","name:de":"Al Ayyat","name:en":"Al Ayyat","name:fr":"Al Ayyat","name:ml":"അൽ-അയ്യാത്ത്","alt_name":"العيط","int_name":"El ‘Ayyat, Al Ayyat, Al Aiyat","name:ar1":"العيط"},"display_name":"العياط, الجيزة, 12929, مصر","address":{"town":"العياط","state":"الجيزة","ISO3166-2-lvl4":"EG-GZ","postcode":"12929","country":"مصر","country_code":"eg"},"osm_type":"node","osm_id":768588348,"type":"town","location":[31.2581312,29.6195757],"bbox":[31.2181312,29.5795757,31.2981312,29.6595757]}
{"name":"العين السخنة","other_names":{"name:ar":"العين السخنة","name:ml":"ഐൻ സുഖ്ന","name:uk":"Аль-Айн аль-Сухна","alt_name":"Al Ain As Sokhna","alt_name:en":"The Hot Spring"},"display_name":"العين السخنة, السويس, مصر","address":{"town":"العين السخنة","state":"السويس","ISO3166-2-lvl4":"EG-SUZ","country":"مصر","country_code":"eg"},"population":45552,"osm_type":"node","osm_id":11489833146,"type":"town","location":[32.3057406,29.6396099],"bbox":[32.2657406,29.5996099,32.3457406,29.6796099]}
{"name":"الغرق","other_names":{"name:ar":"الغرق","name:en":"Al-Gharaq","name:es":"El Gharaq","name:fr":"Al-Gharaq"},"display_name":"الغرق, الفيوم, مصر","address":{"town":"الغرق","state":"الفيوم","ISO3166-2-lvl4":"EG-FYM","country":"مصر","country_code":"eg"},"osm_type":"node","osm_id":332571014,"type":"town","location":[30.6930389,29.1357683],"bbox":[30.6530389,29.0957683,30.7330389,29.1757683]}
{"name":"الغنايم","other_names":{"name:ar":"الغنايم","name:en":"El Ghanayem","name:fr":"El Ghanayem"},"display_name":"الغنايم, أسيوط, 71742, مصر","address":{"town":"الغنايم","state":"أسيوط","ISO3166-2-lvl4":"EG-AST","postcode":"71742","country":"مصر","country_code":"eg"},"osm_type":"node","osm_id":6744163468,"type":"town","location":[31.3270632,26.8736378],"bbox":[31.2870632,26.8336378,31.3670632,26.9136378]}
{"name":"الفشن","other_names":{"name:ar":"الفشن","name:en":"Fashn","name:fr":"Al Fashn","name:ml":"അൽ-ഫഷൻ"},"display_name":"الفشن, بنى سويف, 62621, مصر","address":{"town":"الفشن","state":"بنى سويف","ISO3166-2-lvl4":"EG-BNS","postcode":"62621","country":"مصر","country_code":"eg"},"osm_type":"node","osm_id":331953872,"type":"town","location":[30.8995433,28.8232566],"bbox":[30.8595433,28.7832566,30.9395433,28.8632566]}
{"display_name":"الفيوم, مصر","address":{"state":"الفيوم","ISO3166-2-lvl4":"EG-FYM","country":"مصر","country_code":"eg"},"osm_type":"node","osm_id":6281953383,"type":"town","location":[30.6823722,29.421824],"bbox":[30.6423722,29.381824,30.7223722,29.461824]}
{"name":"القناطر الخيرية","other_names":{"name:ar":"القناطر الخيرية","name:de":"Al Qanatir al Khairiya","name:en":"Al Qanatir al Khairiya","name:fr":"Al Qanatir al Khairiya","name:ml":"അൽ-ഖനാത്തിർ അൽ-ഖയ്റിയ","alt_name":"القناطر الخيرية","int_name":"El-Qanâṭir el-Khairîya, Al Qanatir al Khairiya","name:ar1":"القناطر الخيرية"},"display_name":"القناطر الخيرية, القليوبية, 13621, مصر","address":{"town":"القناطر الخيرية","state":"القليوبية","ISO3166-2-lvl4":"EG-KB","postcode":"13621","country":"مصر","country_code":"eg"},"osm_type":"node","osm_id":768553824,"type":"town","location":[31.133908,30.1966159],"bbox":[31.093908,30.1566159,31.173908,30.2366159]}
{"name":"القوصية","other_names":{"name:ar":"القوصية","name:ca":"Al Qusiya","name:de":"Qusija","name:el":"Κουσάι","name:en":"Al Qusiya","name:es":"Cusae","name:fa":"القوصیه","name:fr":"El Qusiya","name:hr":"Kis","name:it":"Cusae","name:ka":"ქუზეა","name:pl":"Al Kusijja","name:ru":"Эль Кусия","name:sk":"Kes","name:sv":"Al Qūşīyah","int_name":"El Qūsīya, Al Qusiya"},"display_name":"القوصية, أسيوط, مصر","address":{"town":"القوصية","state":"أسيوط","ISO3166-2-lvl4":"EG-AST","country":"مصر","country_code":"eg"},"osm_type":"node","osm_id":332014482,"type":"town","location":[30.8161641,27.4390218],"bbox":[30.7761641,27.3990218,30.8561641,27.4790218]}
{"name":"الكاجوج","other_names":{"name:ar":"الكاجوج","name:en":"Al Kajuj","name:fr":"Al Kajuj","name:ml":"അൽ കാജൂജ്","name:uk":"Аль Каджудж"},"display_name":"الكاجوج, أسوان, 81638, مصر","address":{"town":"الكاجوج","state":"أسوان","ISO3166-2-lvl4":"EG-ASN","postcode":"81638","country":"مصر","country_code":"eg"},"osm_type":"node","osm_id":5218983637,"type":"town","location":[32.9519559,24.6650374],"bbox":[32.9119559,24.6250374,32.9919559,24.7050374]}
{"name":"الكرنك الجديدة","other_names":{"name:ar":"الكرنك الجديدة","name:en":"New Karnak"},"display_name":"الكرنك الجديدة, الأقصر, 85954, مصر","address":{"town":"الكرنك الجديدة","state":"الأقصر","ISO3166-2-lvl4":"EG-LX","postcode":"85954","country":"مصر","country_code":"eg"},"osm_type":"way","osm_id":523668104,"type":"town","location":[32.669725149748416,25.72690695],"bbox":[32.6547124,25.7116489,32.685791,25.7426299]}
{"name":"المجد","other_names":{"name:ar":"المجد","name:en":"Elmagd","name:fr":"El Magd"},"display_name":"المجد, البحيرة, 22744, مصر","address":{"town":"المجد","state":"البحيرة","ISO3166-2-lvl4":"EG-BH","postcode":"22744","country":"مصر","country_code":"eg"},"osm_type":"node","osm_id":3979889685,"type":"town","location":[30.6728182,31.0982764],"bbox":[30.6328182,31.0582764,30.7128182,31.1382764]}
{"name":"المحمودية","other_names":{"name:ar":"المحمودية","name:de":"Al-Mahmudiya","name:en":"Al-Mahmudiya","name:fr":"Al-Mahmudiya","alt_name":"المحمودية","int_name":"El-Maḥmûdîya, Al Mahmudiya","name:ar1":"المحمودية"},"display_name":"المحمودية, البحيرة, 22718, مصر","address":{"town":"المحمودية","state":"البحيرة","ISO3166-2-lvl4":"EG-BH","postcode":"22718","country":"مصر","country_code":"eg"},"osm_type":"node","osm_id":887725623,"type":"town","location":[30.5245424,31.185486],"bbox":[30.4845424,31.145486,30.5645424,31.225486]}
{"name":"المراغة","other_names":{"name:ar":"المراغة","name:en":"Maragha","name:fr":"Al Maraghah"},"display_name":"المراغة, سوهاج, مصر","address":{"town":"المراغة","state":"سوهاج","ISO3166-2-lvl4":"EG-SHG","country":"مصر","country_code":"eg"},"osm_type":"node","osm_id":332073585,"type":"town","location":[31.6039119,26.6993785],"bbox":[31.5639119,26.6593785,31.6439119,26.7393785]}
{"name":"المغارة","other_names":{"name:ar":"المغارة","name:en":"Al Maghara","name:fr":"Al Maghara","name:pl":"Al Maghara","int_name":"Al Maghara"},"display_name":"المغارة, شمال سيناء, مصر","address":{"town":"المغارة","state":"شمال سيناء","ISO3166-2-lvl4":"EG-SIN","country":"مصر","country_code":"eg"},"osm_type":"node","osm_id":11306193509,"type":"town","location":[33.7137505,30.6597484],"bbox":[33.6737505,30.6197484,33.7537505,30.6997484]}
{"name":"المنزلة","other_names":{"name:ar":"المنزلة","name:en":"Al Manzala","name:fr":"El Manzala","name:ml":"അൽ-മൻസല"},"display_name":"المنزلة, الدقهلية, 35642, مصر","address":{"town":"المنزلة","state":"الدقهلية","ISO3166-2-lvl4":"EG-DK","postcode":"35642","country":"مصر","country_code":"eg"},"osm_type":"node","osm_id":395459213,"type":"town","location":[31.9364533,31.1594009],"bbox":[31.8964533,31.1194009,31.9764533,31.1994009]}
{"name":"المنشاة","other_names":{"name:ar":"المنشاة","name:en":"Al-Manshah","name:fr":"Al Monshaah","name:ml":"അൽ മൻഷ"},"display_name":"المنشاة, سوهاج, 82738, مصر","address":{"town":"المنشاة","state":"سوهاج","ISO3166-2-lvl4":"EG-SHG","postcode":"82738","country":"مصر","country_code":"eg"},"osm_type":"node","osm_id":332073659,"type":"town","location":[31.803105,26.4761397],"bbox":[31.763105,26.4361397,31.843105,26.5161397]}
{"name":"المنطقة الصناعيه","other_names":{"name:ar":"المنطقة الصناعيه","name:en":"Industrial Area"},"display_name":"المنطقة الصناعيه, البحر الأحمر, مصر","address":{"town":"المنطقة الصناعيه","state":"البحر الأحمر","ISO3166-2-lvl4":"EG-BA","country":"مصر","country_code":"eg"},"osm_type":"way","osm_id":753841248,"type":"town","location":[33.76342797238003,27.224426649999998],"bbox":[33.6975329,27.1814374,33.8343103,27.2672737]}
{"name":"النجوع المنضمه","other_names":{"name:ar":"النجوع المنضمه","name:en":"Al Nogoa Al Mondama"},"display_name":"النجوع المنضمه, أسوان, مصر","address":{"town":"النجوع المنضمه","state":"أسوان","ISO3166-2-lvl4":"EG-ASN","country":"مصر","country_code":"eg"},"osm_type":"way","osm_id":275939006,"type":"town","location":[32.92769736070791,24.10414745],"bbox":[32.9028388,24.0820727,32.9364999,24.1261531]}
{"name":"الهضبه","other_names":{"name:ar":"الهضبه","name:en":"Al Hadaba"},"display_name":"الهضبه, البحر الأحمر, مصر","address":{"town":"الهضبه","state":"البحر الأحمر","ISO3166-2-lvl4":"EG-BA","country":"مصر","country_code":"eg"},"osm_type":"way","osm_id":754037946,"type":"town","location":[33.77836433379424,27.1829259],"bbox":[33.7322059,27.1378844,33.8521144,27.2276172]}
{"name":"الواسطة","other_names":{"name:ar":"الواسطى","name:de":"Al-Wasitah","name:en":"Al-Wasitah","name:fr":"Al-Wasitah","name:ml":"അൽ-വാസിത്ത","alt_name":"الواسطة","int_name":"Al Wāsiţah, Al Wasitah","name:ar1":"الواسطة"},"display_name":"الواسطة, بنى سويف, 62951, مصر","address":{"town":"الواسطة","state":"بنى سويف","ISO3166-2-lvl4":"EG-BNS","postcode":"62951","country":"مصر","country_code":"eg"},"osm_type":"node","osm_id":768557743,"type":"town","location":[31.205556,29.337778],"bbox":[31.165556,29.297778,31.245556,29.377778]}
{"name":"بئر العبد","other_names":{"name:ar":"بئر العبد","name:en":"Bir al Abd","name:fa":"بئر العبد","name:fr":"Un Puit Trimer","name:he":"עֶבֶדבאר"},"display_name":"بئر العبد, شمال سيناء, مصر","address":{"town":"بئر العبد","state":"شمال سيناء","ISO3166-2-lvl4":"EG-SIN","country":"مصر","country_code":"eg"},"population":87219,"osm_type":"node","osm_id":336214286,"type":"town","location":[33.0116944,31.018138],"bbox":[32.9716944,30.978138,33.0516944,31.058138]}
{"name":"باريس","other_names":{"name:ar":"باريس","name:en":"Baris","name:fr":"Baris"},"display_name":"باريس, الوادي الجديد, مصر","address":{"town":"باريس","state":"الوادي الجديد","ISO3166-2-lvl4":"EG-WAD","country":"مصر","country_code":"eg"},"osm_type":"node","osm_id":336220315,"type":"town","location":[30.605118,24.673692],"bbox":[30.565118,24.633692,30.645118,24.713692]}
{"name":"ببا","other_names":{"name:ar":"ببا","name:en":"Biba","name:fr":"Biba","name:ml":"ബിബ"},"display_name":"ببا, بنى سويف, 62611, مصر","address":{"town":"ببا","state":"بنى سويف","ISO3166-2-lvl4":"EG-BNS","postcode":"62611","country":"مصر","country_code":"eg"},"osm_type":"node","osm_id":331953850,"type":"town","location":[30.985374,28.9214178],"bbox":[30.945374,28.8814178,31.025374,28.9614178],"border":{"name":"ببا","other_names":{"name:ar":"ببا","name:en":"Beba","name:fr":"Biba","name:ml":"ബിബ","alt:en":"Biba"},"display_name":"ببا, بنى سويف, 62611, مصر","address":{"town":"ببا","state":"بنى سويف","ISO3166-2-lvl4":"EG-BNS","postcode":"62611","country":"مصر","country_code":"eg"},"osm_type":"way","osm_id":814555686,"type":"town","location":[30.985374,28.9214178],"bbox":[30.9531306,28.9072406,30.9954404,28.9585278]}}
{"name":"بدر الدين","other_names":{"name:ar":"بدر الدين","name:en":"Badr Al Din"},"display_name":"بدر الدين, أسوان, 81543, مصر","address":{"town":"بدر الدين","state":"أسوان","ISO3166-2-lvl4":"EG-ASN","postcode":"81543","country":"مصر","country_code":"eg"},"osm_type":"way","osm_id":812810926,"type":"town","location":[32.91207388535483,24.10005765],"bbox":[32.9022186,24.0900578,32.9217473,24.1094394]}
{"name":"بدر","other_names":{"name:ar":"بدر","name:de":"Badr","name:en":"Badr","name:es":"Badr","name:ur":"بدر","alt_name":"مركز بدر","name:azb":"بدر","alt_name:ar":"مركز بدر"},"display_name":"بدر, البحيرة, 22777, مصر","address":{"town":"بدر","state":"البحيرة","ISO3166-2-lvl4":"EG-BH","postcode":"22777","country":"مصر","country_code":"eg"},"osm_type":"way","osm_id":1073953480,"type":"town","location":[30.710740246379267,30.57576375],"bbox":[30.6986948,30.5625176,30.7228869,30.5884614]}
{"name":"بر رمسيس","other_names":{"name:ar":"بر رمسيس","name:en":"Pi-Ramesses","name:es":"Pi-Ramsés"},"display_name":"بر رمسيس, الشرقية, 44679, مصر","address":{"town":"بر رمسيس","state":"الشرقية","ISO3166-2-lvl4":"EG-SHR","postcode":"44679","country":"مصر","country_code":"eg"},"osm_type":"node","osm_id":12147735601,"type":"town","location":[31.8338732,30.801492],"bbox":[31.7938732,30.761492,31.8738732,30.841492]}
{"name":"برج البرلس","other_names":{"name:ar":"برج البرلس","name:de":"Burg Al Burullous","name:en":"Borj Al Burullous","name:fr":"Burg Al Burullous","name:ml":"ബുർജ് അൽ ബുറുല്ലുസ്","alt_name":"عزبة البرج","int_name":"Ezbet al Burg, Ezbet al Burg","name:ar1":"عزبة البرج"},"display_name":"برج البرلس, كفر الشيخ, مصر","address":{"town":"برج البرلس","state":"كفر الشيخ","ISO3166-2-lvl4":"EG-KFS","country":"مصر","country_code":"eg"},"osm_type":"node","osm_id":767997839,"type":"town","location":[30.9774388,31.582728],"bbox":[30.9374388,31.542728,31.0174388,31.622728]}
{"name":"برج العرب","other_names":{"name:ar":"برج العرب","name:de":"Borg el-Arab","name:en":"Borj El Arab","name:fa":"برج العرب","name:fr":"Borg el-Arab","name:ru":"Борг-эль-Араб","name:ur":"برج العرب","name:azb":"برج العرب"},"display_name":"برج العرب, مطروح, 21934, مصر","address":{"town":"برج العرب","state":"مطروح","ISO3166-2-lvl4":"EG-MT","postcode":"21934","country":"مصر","country_code":"eg"},"osm_type":"node","osm_id":10562128545,"type":"town","location":[29.5512815,30.9003276],"bbox":[29.5112815,30.8603276,29.5912815,30.9403276]}
{"name":"برما","other_names":{"name:ar":"برما","name:de":"Birma","name:en":"Birma","name:fr":"Birma","name:ru":"Бирма","alt_name":"برما","int_name":"Birma","name:ar1":"برما"},"display_name":"برما, الغربية, مصر","address":{"town":"برما","state":"الغربية","ISO3166-2-lvl4":"EG-GH","country":"مصر","country_code":"eg"},"osm_type":"node","osm_id":768812436,"type":"town","location":[30.9071055,30.8454682],"bbox":[30.8671055,30.8054682,30.9471055,30.8854682],"border":[{"name":"برما","other_names":{"name:ar":"برما","name:de":"Birma","name:en":"Birma","name:fr":"Birma","name:ru":"Бирма","int_name":"Birma","name:ar1":"برما"},"display_name":"برما, الغربية, مصر","address":{"town":"برما","state":"الغربية","ISO3166-2-lvl4":"EG-GH","country":"مصر","country_code":"eg"},"osm_type":"way","osm_id":269507405,"type":"town","location":[30.90434678824132,30.84447275],"bbox":[30.8885761,30.8320773,30.9253184,30.8569908]},{"name":"برما","other_names":{"name:ar":"برما","name:de":"Birma","name:en":"Birma","name:fr":"Birma","int_name":"Birma","name:ar1":"برما","name:ru":"Бирма","alt_name":"برما"},"display_name":"برما, الغربية, مصر","address":{"town":"برما","state":"الغربية","ISO3166-2-lvl4":"EG-GH","country":"مصر","country_code":"eg"},"osm_type":"relation","osm_id":3608214,"type":"administrative","location":[30.9071055,30.8454682],"bbox":[30.8793998,30.8023613,30.9548129,30.8687516]}]}
{"name":"بلاط","other_names":{"name:ar":"بلاط","name:de":"Balat","name:en":"Balat","name:fr":"Balat","name:ru":"Балат","alt_name":"بلاط","int_name":"Balāţ, Balat","name:ar1":"بلاط"},"display_name":"بلاط, الوادي الجديد, مصر","address":{"town":"بلاط","state":"الوادي الجديد","ISO3166-2-lvl4":"EG-WAD","country":"مصر","country_code":"eg"},"osm_type":"node","osm_id":767964923,"type":"town","location":[29.262811,25.5615048],"bbox":[29.222811,25.5215048,29.302811,25.6015048]}
{"name":"بلبيس","other_names":{"name:ar":"بلبيس","name:de":"Bilbeis","name:en":"Bilbeis","name:fr":"Bilbéis","name:hy":"Բիլբեյս","name:kk":"Бильбейс","name:ml":"ബിൽബീസ്","name:ru":"Бильбейс","name:sr":"Билбејс","name:uk":"Більбейс","name:ur":"بلبیس","name:azb":"بلبیس","name:cop":"Ⲫⲉⲗⲃⲉⲥ","alt_name:cop":"Ⲫⲉⲗⲃⲏⲥ"},"display_name":"بلبيس, الشرقية, 44621, مصر","address":{"town":"بلبيس","state":"الشرقية","ISO3166-2-lvl4":"EG-SHR","postcode":"44621","country":"مصر","country_code":"eg"},"population":141285,"osm_type":"node","osm_id":703527885,"type":"town","location":[31.56463,30.418758],"bbox":[31.52463,30.378758,31.60463,30.458758]}
{"name":"بنى مزار","other_names":{"name:ar":"بنى مزار","name:en":"Beni Mazar","name:fr":"Beni Mazar","name:ml":"ബെനി മസാർ"},"display_name":"بنى مزار, المنيا, 61671, مصر","address":{"town":"بنى مزار","state":"المنيا","ISO3166-2-lvl4":"EG-MN","postcode":"61671","country":"مصر","country_code":"eg"},"population":79553,"osm_type":"node","osm_id":331953907,"type":"town","location":[30.802898,28.4962396],"bbox":[30.762898,28.4562396,30.842898,28.5362396]}
{"name":"بني عبيد","other_names":{"name:ar":"بني عبيد","name:en":"Bani Ebeid"},"display_name":"بني عبيد, الدقهلية, 35785, مصر","address":{"town":"بني عبيد","state":"الدقهلية","ISO3166-2-lvl4":"EG-DK","postcode":"35785","country":"مصر","country_code":"eg"},"osm_type":"node","osm_id":9874178937,"type":"town","location":[31.6478728,31.0234582],"bbox":[31.6078728,30.9834582,31.6878728,31.0634582]}
{"name":"بور غالب","other_names":{"name:ar":"بور غالب","name:cs":"Port Ghálib","name:de":"Port Ghālib","name:en":"Port Ghalib","name:fr":"Port Ghalib","name:ml":"ഗാലിബ് തുറമുഖം","name:ru":"Порт Галиб","name:uk":"Порт Галіб","alt_name":"بور غالب"},"display_name":"بور غالب, البحر الأحمر, مصر","address":{"town":"بور غالب","state":"البحر الأحمر","ISO3166-2-lvl4":"EG-BA","country":"مصر","country_code":"eg"},"osm_type":"node","osm_id":29906954,"type":"town","location":[34.633762,25.531711],"bbox":[34.593762,25.491711,34.673762,25.571711]}
{"name":"بورفؤاد","other_names":{"name:ar":"بورفؤاد","name:en":"Port Fuad","name:fr":"Port Fouad","name:hi":"पोर्ट फुआद","name:ml":"ഫുആദ് തുറമുഖം","name:uk":"Порт-Фуад","alt_name:ar":"بور فؤاد","alt_name:en":"East Port Said"},"display_name":"بورفؤاد, بورسعيد, 42523, مصر","address":{"town":"بورفؤاد","state":"بورسعيد","ISO3166-2-lvl4":"EG-PTS","postcode":"42523","country":"مصر","country_code":"eg"},"population":70417,"osm_type":"node","osm_id":376304399,"type":"town","location":[32.320071,31.246623],"bbox":[32.280071,31.206623,32.360071,31.286623],"border":{"name":"Port Fuad","other_names":{"name:ar":"Port Fuad","name:uk":"Порт-Фуад"},"display_name":"Port Fuad, بورسعيد, 42523, مصر","address":{"town":"Port Fuad","state":"بورسعيد","ISO3166-2-lvl4":"EG-PTS","postcode":"42523","country":"مصر","country_code":"eg"},"osm_type":"way","osm_id":1103979113,"type":"town","location":[32.319313433196434,31.24851985],"bbox":[32.3063184,31.2216021,32.3423298,31.2755721]}}
{"name":"بيانكي","other_names":{"name:ar":"بيانكي","name:en":"Bianchi","name:fr":"Bianchi"},"display_name":"بيانكي, الطريق الساحلى الدولى, الضبعة, مطروح, مصر","address":{"leisure":"بيانكي","road":"الطريق الساحلى الدولى","town":"الضبعة","state":"مطروح","ISO3166-2-lvl4":"EG-MT","country":"مصر","country_code":"eg"},"osm_type":"way","osm_id":301413330,"type":"beach_resort","location":[28.697870673268376,30.99964],"bbox":[28.6957704,30.9964702,28.6994021,31.0028466]}
{"name":"بيلا","other_names":{"name:ar":"بيلا","name:en":"Biala","name:fr":"Biyala"},"display_name":"بيلا, كفر الشيخ, 33634, مصر","address":{"town":"بيلا","state":"كفر الشيخ","ISO3166-2-lvl4":"EG-KFS","postcode":"33634","country":"مصر","country_code":"eg"},"osm_type":"node","osm_id":31578820,"type":"town","location":[31.2209802,31.1727635],"bbox":[31.1809802,31.1327635,31.2609802,31.2127635]}
{"name":"تطون","other_names":{"name:ar":"تطون","name:de":"Tutun","name:en":"Tutun","name:fr":"Tutun","name:it":"Tutun","alt_name":"تطون","int_name":"Tuţūn, Tutun","name:ar1":"تطون"},"display_name":"تطون, الفيوم, مصر","address":{"town":"تطون","state":"الفيوم","ISO3166-2-lvl4":"EG-FYM","country":"مصر","country_code":"eg"},"osm_type":"node","osm_id":768556033,"type":"town","location":[30.7781754,29.1493574],"bbox":[30.7381754,29.1093574,30.8181754,29.1893574]}
{"name":"تلا","other_names":{"name:ar":"تلا","name:de":"Tala","name:en":"Tala","name:fr":"Tala","alt_name":"تلا","int_name":"Tala, Tala","name:ar1":"تلا"},"display_name":"تلا, المنوفية, 32611, مصر","address":{"town":"تلا","state":"المنوفية","ISO3166-2-lvl4":"EG-MNF","postcode":"32611","country":"مصر","country_code":"eg"},"osm_type":"node","osm_id":768565933,"type":"town","location":[30.943393,30.68002],"bbox":[30.903393,30.64002,30.983393,30.72002]}
{"name":"تلال Telal","other_names":{"name:ar":"تلال","name:en":"Telal","name:fr":"Telal"},"display_name":"تلال Telal, الطريق الساحلى الدولى, الضبعة, مطروح, مصر","address":{"leisure":"تلال Telal","road":"الطريق الساحلى الدولى","town":"الضبعة","state":"مطروح","ISO3166-2-lvl4":"EG-MT","country":"مصر","country_code":"eg"},"osm_type":"way","osm_id":267187302,"type":"beach_resort","location":[28.605480534534447,31.013254349999997],"bbox":[28.5989705,31.007502,28.6133122,31.0190442]}
{"name":"ثالث","other_names":{"name:ar":"ثالث","name:en":"Third"},"display_name":"ثالث, أسيوط, مصر","address":{"town":"ثالث","state":"أسيوط","ISO3166-2-lvl4":"EG-AST","country":"مصر","country_code":"eg"},"osm_type":"way","osm_id":819080483,"type":"town","location":[31.178533250103627,27.1728219],"bbox":[31.1762186,27.170583,31.1820483,27.1750155]}
{"name":"جبل تقوق","other_names":{"name:ar":"جبل تقوق","name:en":"Taqouk Mountain"},"display_name":"جبل تقوق, أسوان, 81529, مصر","address":{"town":"جبل تقوق","state":"أسوان","ISO3166-2-lvl4":"EG-ASN","postcode":"81529","country":"مصر","country_code":"eg"},"osm_type":"way","osm_id":812779215,"type":"town","location":[32.88406701272304,24.0778087],"bbox":[32.8778739,24.0705469,32.8903882,24.0850151]}
{"name":"جروان","other_names":{"name:ar":"جروان","name:en":"Garawan","name:fr":"Garwan"},"display_name":"جروان, المنوفية, 32821, مصر","address":{"town":"جروان","state":"المنوفية","ISO3166-2-lvl4":"EG-MNF","postcode":"32821","country":"مصر","country_code":"eg"},"osm_type":"node","osm_id":6105361393,"type":"town","location":[31.0118434,30.4322047],"bbox":[30.9718434,30.3922047,31.0518434,30.4722047]}
{"name":"جمشه","other_names":{"name:ar":"جمشه","name:en":"Gamsha"},"display_name":"جمشه, البحر الأحمر, 84513, مصر","address":{"town":"جمشه","state":"البحر الأحمر","ISO3166-2-lvl4":"EG-BA","postcode":"84513","country":"مصر","country_code":"eg"},"osm_type":"way","osm_id":752996032,"type":"town","location":[33.65334115703007,27.375534899999998],"bbox":[33.6151929,27.3108163,33.7075692,27.4402421]}
{"name":"حوش عيسى","other_names":{"name:ar":"حوش عيسى","name:de":"Hawsh Isa","name:en":"Hawsh Isa","name:fr":"Hawsh Isa","alt_name":"حوش عيسى","int_name":"Ḩawsh ‘Īsá, Hawsh Isa","name:ar1":"حوش عيسى"},"display_name":"حوش عيسى, البحيرة, 22728, مصر","address":{"town":"حوش عيسى","state":"البحيرة","ISO3166-2-lvl4":"EG-BH","postcode":"22728","country":"مصر","country_code":"eg"},"osm_type":"node","osm_id":769129741,"type":"town","location":[30.290556,30.912778],"bbox":[30.250556,30.872778,30.330556,30.952778]}
{"name":"خليج غزالة Ghazala Bay","other_names":{"name:ar":"خليج غزالة","name:en":"Ghazala Bay","name:fr":"Baie de Ghazala"},"display_name":"خليج غزالة Ghazala Bay, الطريق الساحلى الدولى, الضبعة, مطروح, مصر","address":{"leisure":"خليج غزالة Ghazala Bay","road":"الطريق الساحلى الدولى","town":"الضبعة","state":"مطروح","ISO3166-2-lvl4":"EG-MT","country":"مصر","country_code":"eg"},"osm_type":"way","osm_id":267187322,"type":"beach_resort","location":[28.591544972892763,31.03015515],"bbox":[28.5879287,31.0243999,28.5953316,31.0364433]}
{"name":"دراو","other_names":{"name:ar":"دراو","name:en":"Daraw","name:fr":"Daraw","name:ml":"ദറാവ്"},"display_name":"دراو, أسوان, 81631, مصر","address":{"town":"دراو","state":"أسوان","ISO3166-2-lvl4":"EG-ASN","postcode":"81631","country":"مصر","country_code":"eg"},"population":38400,"osm_type":"node","osm_id":332075242,"type":"town","location":[32.924674,24.407994],"bbox":[32.884674,24.367994,32.964674,24.447994]}
{"name":"دشنا","other_names":{"name:ar":"دشنا","name:en":"Dishna","name:fr":"Dishna","name:ml":"ദിഷ്‌ന"},"display_name":"دشنا, قنا, مصر","address":{"town":"دشنا","state":"قنا","ISO3166-2-lvl4":"EG-KN","country":"مصر","country_code":"eg"},"osm_type":"node","osm_id":332074431,"type":"town","location":[32.463076,26.119088],"bbox":[32.423076,26.079088,32.503076,26.159088]}
{"name":"دكرنس","other_names":{"name:ar":"دكرنس","name:en":"Dikirnis","name:fr":"Dikirnis","name:ml":"ദിക്കിർനിസ്","name:ru":"Дикирнис","int_name":"Dekernes"},"display_name":"دكرنس, الدقهلية, 35744, مصر","address":{"town":"دكرنس","state":"الدقهلية","ISO3166-2-lvl4":"EG-DK","postcode":"35744","country":"مصر","country_code":"eg"},"population":137542,"osm_type":"node","osm_id":332108921,"type":"town","location":[31.5949593,31.0875714],"bbox":[31.5549593,31.0475714,31.6349593,31.1275714]}
{"name":"دندره","other_names":{"name:ar":"دندره","name:en":"Dendera","name:cop":"ⲛⲓⲧⲛⲧⲱⲣⲉ","alt_name:en":"Denderah"},"display_name":"دندره, الوادي الجديد, مصر","address":{"town":"دندره","state":"الوادي الجديد","ISO3166-2-lvl4":"EG-WAD","country":"مصر","country_code":"eg"},"population":53109,"osm_type":"node","osm_id":12753399915,"type":"town","location":[32.6571134,26.1689935],"bbox":[32.6171134,26.1289935,32.6971134,26.2089935]}
{"name":"دير مواس","other_names":{"name:ar":"دير مواس","name:de":"Deir Mawas","name:en":"Deir Mawas","name:fr":"Deir Mawas","alt_name":"مركز دير مواس","int_name":"Markaz Deir Mawâs, Markaz Deir Mawas","name:ar1":"مركز دير مواس"},"display_name":"دير مواس, المنيا, 61736, مصر","address":{"town":"دير مواس","state":"المنيا","ISO3166-2-lvl4":"EG-MN","postcode":"61736","country":"مصر","country_code":"eg"},"osm_type":"node","osm_id":768584669,"type":"town","location":[30.8517509,27.6417998],"bbox":[30.8117509,27.6017998,30.8917509,27.6817998]}
{"name":"ديروط","other_names":{"name:ar":"ديروط","name:de":"Dairut","name:en":"Dairut","name:fr":"Dairut","alt_name":"ديروط","int_name":"Dairût, Dairut","name:ar1":"ديروط"},"display_name":"ديروط, أسيوط, 71611, مصر","address":{"town":"ديروط","state":"أسيوط","ISO3166-2-lvl4":"EG-AST","postcode":"71611","country":"مصر","country_code":"eg"},"osm_type":"node","osm_id":768732191,"type":"town","location":[30.807778,27.558611],"bbox":[30.767778,27.518611,30.847778,27.598611]}
{"name":"رأس البر","other_names":{"name:ar":"رأس البر","name:de":"Kap Al Bar","name:en":"Al Bar Cape","name:fr":"Le cap Al Bar","name:ml":"റാസ് അൽ-ബർ","alt_name":"رأس البر","int_name":"Râs el-Barr, Ras al Barr"},"display_name":"رأس البر, دمياط, 34712, مصر","address":{"town":"رأس البر","state":"دمياط","ISO3166-2-lvl4":"EG-DT","postcode":"34712","country":"مصر","country_code":"eg"},"osm_type":"node","osm_id":768598369,"type":"town","location":[31.8337309,31.5132392],"bbox":[31.7937309,31.4732392,31.8737309,31.5532392]}
{"name":"رأس سدر","other_names":{"name:ar":"رأس سدر","name:de":"Sudr Kap","name:en":"Sudr Cape","name:es":"Capa de Sudr","name:fr":"Cap de Sudr","name:ml":"റാസ് സിദർ","name:ru":"Рас-Сидр","name:uk":"Рас-Судр","alt_name:ru":"Рас-Судр"},"display_name":"رأس سدر, جنوب سيناء, 46612, مصر","address":{"town":"رأس سدر","state":"جنوب سيناء","ISO3166-2-lvl4":"EG-JS","postcode":"46612","country":"مصر","country_code":"eg"},"population":1725,"osm_type":"node","osm_id":29555531,"type":"town","location":[32.718536,29.593487],"bbox":[32.678536,29.553487,32.758536,29.633487]}
{"name":"رابع","other_names":{"name:ar":"رابع","name:en":"Forth"},"display_name":"رابع, أسيوط, مصر","address":{"town":"رابع","state":"أسيوط","ISO3166-2-lvl4":"EG-AST","country":"مصر","country_code":"eg"},"osm_type":"way","osm_id":818050573,"type":"town","location":[31.17950122345514,27.1762932],"bbox":[31.1762153,27.173113,31.1827096,27.17932]}
{"name":"زفتى","other_names":{"name:ar":"زفتى","name:de":"Zifta","name:en":"Zifta","name:fr":"Zifta","alt_name":"زفتى","int_name":"Zifta, Zifta","name:ar1":"زفتى"},"display_name":"زفتى, الغربية, 31641, مصر","address":{"town":"زفتى","state":"الغربية","ISO3166-2-lvl4":"EG-GH","postcode":"31641","country":"مصر","country_code":"eg"},"population":93740,"osm_type":"node","osm_id":270227440,"type":"town","location":[31.2470999,30.7152872],"bbox":[31.2070999,30.6752872,31.2870999,30.7552872]}
{"name":"سابع","other_names":{"name:ar":"سابع","name:en":"Seventh"},"display_name":"سابع, أسيوط, 71525, مصر","address":{"town":"سابع","state":"أسيوط","ISO3166-2-lvl4":"EG-AST","postcode":"71525","country":"مصر","country_code":"eg"},"osm_type":"way","osm_id":816156128,"type":"town","location":[31.187370370489063,27.187230800000002],"bbox":[31.1769327,27.1791811,31.196418,27.1954724]}
{"name":"ساحل سليم","other_names":{"name:ar":"ساحل سليم","name:en":"Sahel Silim","name:fr":"Sahel Selim"},"display_name":"ساحل سليم, أسيوط, مصر","address":{"town":"ساحل سليم","state":"أسيوط","ISO3166-2-lvl4":"EG-AST","country":"مصر","country_code":"eg"},"osm_type":"node","osm_id":7129037706,"type":"town","location":[31.3424495,27.0628996],"bbox":[31.3024495,27.0228996,31.3824495,27.1028996],"border":{"name":"ساحل سليم","other_names":{"name:ar":"ساحل سليم","name:en":"Sahel Silim","name:fr":"Sahel Selim"},"display_name":"ساحل سليم, أسيوط, مصر","address":{"town":"ساحل سليم","state":"أسيوط","ISO3166-2-lvl4":"EG-AST","country":"مصر","country_code":"eg"},"osm_type":"way","osm_id":1029846496,"type":"town","location":[31.3424495,27.0628996],"bbox":[31.3344751,27.0546874,31.3535718,27.0760596]}}
{"name":"ساحل طهطا","other_names":{"name:ar":"ساحل طهطا","name:en":"Sahel Tahta"},"display_name":"ساحل طهطا, مركز طهطا, سوهاج, 82623, مصر","address":{"town":"ساحل طهطا","county":"مركز طهطا","state":"سوهاج","ISO3166-2-lvl4":"EG-SHG","postcode":"82623","country":"مصر","country_code":"eg"},"osm_type":"way","osm_id":100522005,"type":"town","location":[31.510765189314164,26.769193899999998],"bbox":[31.4968539,26.7550269,31.5234192,26.783115]}
{"name":"سادس","other_names":{"name:ar":"سادس","name:en":"Sixth"},"display_name":"سادس, أسيوط, 71511, مصر","address":{"town":"سادس","state":"أسيوط","ISO3166-2-lvl4":"EG-AST","postcode":"71511","country":"مصر","country_code":"eg"},"osm_type":"way","osm_id":818675083,"type":"town","location":[31.18806841519134,27.17500555],"bbox":[31.1745256,27.163605,31.2019934,27.1865208]}
{"name":"سرس الليان","other_names":{"name:ar":"سرس الليان","name:en":"Sers Al Layyan","name:fr":"Sirs El Layan"},"display_name":"سرس الليان, المنوفية, 32861, مصر","address":{"town":"سرس الليان","state":"المنوفية","ISO3166-2-lvl4":"EG-MNF","postcode":"32861","country":"مصر","country_code":"eg"},"osm_type":"node","osm_id":1090891081,"type":"town","location":[30.9707264,30.4439168],"bbox":[30.9307264,30.4039168,31.0107264,30.4839168]}
{"name":"سمادون","other_names":{"name:ar":"سمادون","name:en":"Samadon","name:fr":"Samadun"},"display_name":"سمادون, المنوفية, 32811, مصر","address":{"town":"سمادون","state":"المنوفية","ISO3166-2-lvl4":"EG-MNF","postcode":"32811","country":"مصر","country_code":"eg"},"osm_type":"node","osm_id":1039314219,"type":"town","location":[30.9572367,30.3377752],"bbox":[30.9172367,30.2977752,30.9972367,30.3777752]}
{"name":"سمالوط","other_names":{"name:ar":"سمالوط","name:en":"Samalut","name:fr":"Samalut","name:ml":"സമാലൂത്ത്"},"display_name":"سمالوط, المنيا, 61661, مصر","address":{"town":"سمالوط","state":"المنيا","ISO3166-2-lvl4":"EG-MN","postcode":"61661","country":"مصر","country_code":"eg"},"osm_type":"node","osm_id":331954202,"type":"town","location":[30.7103816,28.3109569],"bbox":[30.6703816,28.2709569,30.7503816,28.3509569]}
{"name":"سنهور","other_names":{"name:ar":"سنهور","name:de":"Sanhur","name:en":"Sanhur","name:fr":"Sanhur","alt_name":"سنهور","int_name":"Sanhūr, Sanhur","name:ar1":"سنهور"},"display_name":"سنهور, الفيوم, مصر","address":{"town":"سنهور","state":"الفيوم","ISO3166-2-lvl4":"EG-FYM","country":"مصر","country_code":"eg"},"osm_type":"node","osm_id":768073561,"type":"town","location":[30.7614382,29.4100107],"bbox":[30.7214382,29.3700107,30.8014382,29.4500107]}
{"name":"سنورس","other_names":{"name:ar":"سنورس","name:de":"Sinnuris","name:en":"Sinnuris","name:fr":"Sinnuris","name:hr":"Sinuris"},"display_name":"سنورس, الفيوم, 63748, مصر","address":{"town":"سنورس","state":"الفيوم","ISO3166-2-lvl4":"EG-FYM","postcode":"63748","country":"مصر","country_code":"eg"},"osm_type":"node","osm_id":332568455,"type":"town","location":[30.8680479,29.4136604],"bbox":[30.8280479,29.3736604,30.9080479,29.4536604]}
{"name":"سي شيل","other_names":{"name:ar":"سي شيل","name:en":"Seashell"},"display_name":"سي شيل, الطريق الساحلى الدولى, الضبعة, مطروح, مصر","address":{"leisure":"سي شيل","road":"الطريق الساحلى الدولى","town":"الضبعة","state":"مطروح","ISO3166-2-lvl4":"EG-MT","country":"مصر","country_code":"eg"},"osm_type":"way","osm_id":1110005387,"type":"beach_resort","location":[28.69308609567459,30.99626025],"bbox":[28.6877623,30.988426,28.6984201,31.0027455]}
{"name":"سيدى سالم","other_names":{"name:ar":"سيدى سالم","name:de":"Sidi Salim","name:en":"Sidi Salim","name:fr":"Sidi Salim","alt_name":"سيدى سالم","int_name":"Sīdī Sālim, Sidi Salim","name:ar1":"سيدى سالم"},"display_name":"سيدى سالم, كفر الشيخ, 33743, مصر","address":{"town":"سيدى سالم","state":"كفر الشيخ","ISO3166-2-lvl4":"EG-KFS","postcode":"33743","country":"مصر","country_code":"eg"},"osm_type":"node","osm_id":768815457,"type":"town","location":[30.787222,31.271944],"bbox":[30.747222,31.231944,30.827222,31.311944]}
{"name":"شبين القناطر","other_names":{"name:ar":"شبين القناطر","name:en":"Shebin el Qanater","name:fr":"Shibin el-Qanater"},"display_name":"شبين القناطر, القليوبية, 13711, مصر","address":{"town":"شبين القناطر","state":"القليوبية","ISO3166-2-lvl4":"EG-KB","postcode":"13711","country":"مصر","country_code":"eg"},"osm_type":"node","osm_id":325783225,"type":"town","location":[31.317601,30.3125348],"bbox":[31.277601,30.2725348,31.357601,30.3525348]}
{"name":"شريف سليمان","other_names":{"name:ar":"شريف سليمان","name:en":"Sherif Soliman"},"display_name":"شريف سليمان, أسوان, 81521, مصر","address":{"town":"شريف سليمان","state":"أسوان","ISO3166-2-lvl4":"EG-ASN","postcode":"81521","country":"مصر","country_code":"eg"},"osm_type":"way","osm_id":812521258,"type":"town","location":[32.90015630010217,24.09370665],"bbox":[32.8950517,24.0906944,32.9064067,24.0964857]}
{"name":"صافور","other_names":{"name:ar":"صافور","name:en":"Safur","name:fr":"Safur"},"display_name":"صافور, الدقهلية, 44753, مصر","address":{"town":"صافور","state":"الدقهلية","ISO3166-2-lvl4":"EG-DK","postcode":"44753","country":"مصر","country_code":"eg"},"osm_type":"node","osm_id":1137313368,"type":"town","location":[31.3958984,30.7921742],"bbox":[31.3558984,30.7521742,31.4358984,30.8321742]}
{"name":"صالح جاهين","other_names":{"name:ar":"صالح جاهين","name:en":"Saleh Gahin"},"display_name":"صالح جاهين, أسوان, مصر","address":{"town":"صالح جاهين","state":"أسوان","ISO3166-2-lvl4":"EG-ASN","country":"مصر","country_code":"eg"},"osm_type":"way","osm_id":812521257,"type":"town","location":[32.90173818886416,24.1051051],"bbox":[32.8958086,24.094301,32.9059614,24.1168506]}
{"name":"صدفا","other_names":{"name:ar":"صدفا","name:en":"Sidfa","name:fr":"Sidfa","name:ka":"სადფა","name:pl":"Sidfa"},"display_name":"صدفا, أسيوط, 71748, مصر","address":{"town":"صدفا","state":"أسيوط","ISO3166-2-lvl4":"EG-AST","postcode":"71748","country":"مصر","country_code":"eg"},"osm_type":"node","osm_id":332073264,"type":"town","location":[31.3795505,26.9656025],"bbox":[31.3395505,26.9256025,31.4195505,27.0056025]}
{"name":"طابا","other_names":{"name:ar":"طابا","name:de":"Taba","name:en":"Taba","name:es":"Taba","name:fa":"طابا","name:fr":"Taba","name:he":"טאבה","name:hi":"टाबा","name:hr":"Taba","name:ks":"طابا","name:lt":"Taba","name:ml":"താബ","name:ru":"Таба","name:uk":"Таба","name:ur":"طابا","alt_name":"طابا","int_name":"Ţābā","name:azb":"طابا","name:az-Arab":"طابا"},"display_name":"طابا, جنوب سيناء, مصر","address":{"town":"طابا","state":"جنوب سيناء","ISO3166-2-lvl4":"EG-JS","country":"مصر","country_code":"eg"},"osm_type":"node","osm_id":768798152,"type":"town","location":[34.892366,29.492821],"bbox":[34.852366,29.452821,34.932366,29.532821]}
{"name":"طلخا","other_names":{"name:ar":"طلخا","name:en":"Talkha","name:fr":"Talkha"},"display_name":"طلخا, الدقهلية, 35681, مصر","address":{"town":"طلخا","state":"الدقهلية","ISO3166-2-lvl4":"EG-DK","postcode":"35681","country":"مصر","country_code":"eg"},"osm_type":"node","osm_id":699327818,"type":"town","location":[31.3731608,31.0522251],"bbox":[31.3331608,31.0122251,31.4131608,31.0922251]}
{"name":"طما","other_names":{"name:ar":"طما","name:en":"Tima","name:fr":"Tima Fayum"},"display_name":"طما, سوهاج, 82611, مصر","address":{"town":"طما","state":"سوهاج","ISO3166-2-lvl4":"EG-SHG","postcode":"82611","country":"مصر","country_code":"eg"},"osm_type":"node","osm_id":332073408,"type":"town","location":[31.435855,26.905611],"bbox":[31.395855,26.865611,31.475855,26.945611]}
{"name":"طهطا","other_names":{"name:ar":"طهطا","name:en":"Tahta","name:fr":"Tahta"},"display_name":"طهطا, مركز طهطا, سوهاج, 82621, مصر","address":{"town":"طهطا","county":"مركز طهطا","state":"سوهاج","ISO3166-2-lvl4":"EG-SHG","postcode":"82621","country":"مصر","country_code":"eg"},"osm_type":"node","osm_id":332073542,"type":"town","location":[31.4955936,26.7676025],"bbox":[31.4555936,26.7276025,31.5355936,26.8076025]}
{"name":"طوخ","other_names":{"name:ar":"طوخ","name:en":"Tukh","name:fr":"Toukh","name:ml":"തൂഖ്"},"display_name":"طوخ, القليوبية, 13741, مصر","address":{"town":"طوخ","state":"القليوبية","ISO3166-2-lvl4":"EG-KB","postcode":"13741","country":"مصر","country_code":"eg"},"osm_type":"node","osm_id":270227007,"type":"town","location":[31.200979,30.3540508],"bbox":[31.160979,30.3140508,31.240979,30.3940508]}
{"name":"عبد الحفيظ ابو قديس","other_names":{"name:ar":"عبد الحفيظ ابو قديس","name:en":"Abd Al Hafiz Abou Qedies"},"display_name":"عبد الحفيظ ابو قديس, أسوان, 81538, مصر","address":{"town":"عبد الحفيظ ابو قديس","state":"أسوان","ISO3166-2-lvl4":"EG-ASN","postcode":"81538","country":"مصر","country_code":"eg"},"osm_type":"way","osm_id":812505892,"type":"town","location":[32.89815520007192,24.07788685],"bbox":[32.8890791,24.0634172,32.9126366,24.0920955]}
{"name":"عبد العظيم حسن","other_names":{"name:ar":"عبد العظيم حسن","name:en":"Abd Al Aazim Hassn"},"display_name":"عبد العظيم حسن, أسوان, مصر","address":{"town":"عبد العظيم حسن","state":"أسوان","ISO3166-2-lvl4":"EG-ASN","country":"مصر","country_code":"eg"},"osm_type":"way","osm_id":813573783,"type":"town","location":[32.894943682460124,24.0880712],"bbox":[32.8899047,24.0846722,32.8987004,24.0913855]}
{"name":"عثمان احمد ابراهيم","other_names":{"name:ar":"عثمان احمد ابراهيم","name:en":"Othman Ahmed Ibrahim"},"display_name":"عثمان احمد ابراهيم, أسوان, مصر","address":{"town":"عثمان احمد ابراهيم","state":"أسوان","ISO3166-2-lvl4":"EG-ASN","country":"مصر","country_code":"eg"},"osm_type":"way","osm_id":813573782,"type":"town","location":[32.89713442433559,24.0914158],"bbox":[32.8936762,24.0889038,32.9009811,24.0939351]}
{"name":"عقارات جنوب تاون","display_name":"عقارات جنوب تاون, المنيا, مصر","address":{"town":"عقارات جنوب تاون","state":"المنيا","ISO3166-2-lvl4":"EG-MN","country":"مصر","country_code":"eg"},"population":23,"osm_type":"way","osm_id":1311950760,"type":"town","location":[30.71552143314805,27.92023615],"bbox":[30.712619,27.9183849,30.7196746,27.9213904]}
{"name":"فارس","other_names":{"name:ar":"فارس","name:en":"Faris","name:fr":"Faris","name:ml":"ഫാറിസ്","name:uk":"Фаріс"},"display_name":"فارس, أسوان, 81698, مصر","address":{"town":"فارس","state":"أسوان","ISO3166-2-lvl4":"EG-ASN","postcode":"81698","country":"مصر","country_code":"eg"},"osm_type":"node","osm_id":332186090,"type":"town","location":[32.9038355,24.6144485],"bbox":[32.8638355,24.5744485,32.9438355,24.6544485]}
{"name":"فايد","other_names":{"name:ar":"فايد","name:de":"Fayid","name:en":"Fayed","name:fr":"Fayid","name:ml":"ഫായിദ്","name:pl":"Fajid"},"display_name":"فايد, الإسماعيلية, 41618, مصر","address":{"town":"فايد","state":"الإسماعيلية","ISO3166-2-lvl4":"EG-IS","postcode":"41618","country":"مصر","country_code":"eg"},"population":81000,"osm_type":"node","osm_id":3783957266,"type":"town","location":[32.3007771,30.3284806],"bbox":[32.2607771,30.2884806,32.3407771,30.3684806]}
{"name":"فرشوط","other_names":{"name:ar":"فرشوط","name:en":"Farshut","name:fr":"Farshout","name:uk":"Фаршут"},"display_name":"فرشوط, قنا, مصر","address":{"town":"فرشوط","state":"قنا","ISO3166-2-lvl4":"EG-KN","country":"مصر","country_code":"eg"},"osm_type":"node","osm_id":332074246,"type":"town","location":[32.1649013,26.0542345],"bbox":[32.1249013,26.0142345,32.2049013,26.0942345]}
{"name":"فوة","other_names":{"name:ar":"فوة","name:de":"Fuwah","name:en":"Fuwah","name:fr":"Fuwah","name:ru":"Фува","alt_name":"فوة","int_name":"Fuwah, Fuwah","name:ar1":"فوة"},"display_name":"فوة, كفر الشيخ, 33623, مصر","address":{"town":"فوة","state":"كفر الشيخ","ISO3166-2-lvl4":"EG-KFS","postcode":"33623","country":"مصر","country_code":"eg"},"osm_type":"node","osm_id":769129756,"type":"town","location":[30.5521708,31.2046788],"bbox":[30.5121708,31.1646788,30.5921708,31.2446788],"border":{"name":"فوه","other_names":{"name:ar":"فوه","name:de":"Fuwah","name:en":"Fuwah","name:fr":"Fuwah","name:ru":"Фува","alt_name":"فوة","int_name":"Fuwah, Fuwah","name:ar1":"فوة"},"display_name":"فوه, كفر الشيخ, 33623, مصر","address":{"town":"فوه","state":"كفر الشيخ","ISO3166-2-lvl4":"EG-KFS","postcode":"33623","country":"مصر","country_code":"eg"},"osm_type":"way","osm_id":101318229,"type":"town","location":[30.54878110581206,31.2049412],"bbox":[30.5376976,31.1950641,30.5653673,31.2150295]}}
{"name":"فيديمين","other_names":{"name:ar":"فيديمين","name:de":"Fidimin","name:en":"Fidimin","name:fr":"Fidimin","alt_name":"فيديمين","int_name":"Fidīmīn, Fidimin","name:ar1":"فيديمين"},"display_name":"فيديمين, الفيوم, مصر","address":{"town":"فيديمين","state":"الفيوم","ISO3166-2-lvl4":"EG-FYM","country":"مصر","country_code":"eg"},"osm_type":"node","osm_id":768033284,"type":"town","location":[30.7784327,29.3811456],"bbox":[30.7384327,29.3411456,30.8184327,29.4211456]}
{"name":"فييرا بليس","display_name":"فييرا بليس, المنيا, مصر","address":{"town":"فييرا بليس","state":"المنيا","ISO3166-2-lvl4":"EG-MN","country":"مصر","country_code":"eg"},"osm_type":"way","osm_id":1311950763,"type":"town","location":[30.728035303761278,27.93507555],"bbox":[30.7248729,27.9330911,30.7317882,27.9372611]}
{"name":"قارة أم الصغير","other_names":{"name:ar":"قارة أم الصغير","name:de":"Qaret Um El Saghir","name:en":"Qaret Um El Saghir","name:fr":"Qaret Um El Saghir","name:hu":"Karet Um El Sagir","alt_name":"جارة أم الصغير","int_name":"Qâra Oasis, Qara Oasis","alt_name:en":"Garet Om El Saghir"},"display_name":"قارة أم الصغير, مطروح, مصر","address":{"town":"قارة أم الصغير","state":"مطروح","ISO3166-2-lvl4":"EG-MT","country":"مصر","country_code":"eg"},"osm_type":"node","osm_id":768751466,"type":"town","location":[26.4974578,29.6216],"bbox":[26.4574578,29.5816,26.5374578,29.6616]}
{"name":"قرية أمواج","other_names":{"name:ar":"قرية أمواج","name:en":"Amwaj Village","name:fr":"Amwaj"},"display_name":"قرية أمواج, الطريق الساحلى الدولى, الضبعة, مطروح, مصر","address":{"leisure":"قرية أمواج","road":"الطريق الساحلى الدولى","town":"الضبعة","state":"مطروح","ISO3166-2-lvl4":"EG-MT","country":"مصر","country_code":"eg"},"osm_type":"way","osm_id":301413329,"type":"beach_resort","location":[28.680698877860447,30.9962712],"bbox":[28.672654,30.9913027,28.6900932,31.0023332]}
{"name":"قرية الحلابية","other_names":{"name:ar":"قرية الحلابية","name:de":"Qaryat Al Helabeya","name:fr":"Qaryat Al Helabeya","name:arz":"قرية الحلابيه","short_name":"الحلابية","short_name:ar":"الحلابية","short_name:de":"Al Helabeya","short_name:fr":"Al Helabeya"},"display_name":"قرية الحلابية, بنى سويف, 62748, مصر","address":{"town":"قرية الحلابية","state":"بنى سويف","ISO3166-2-lvl4":"EG-BNS","postcode":"62748","country":"مصر","country_code":"eg"},"osm_type":"node","osm_id":10308620834,"type":"town","location":[31.0530821,29.0347298],"bbox":[31.0130821,28.9947298,31.0930821,29.0747298]}
{"name":"قريه حى الزهور","other_names":{"name:ar":"قريه حى الزهور","name:en":"Al Zohor District Village"},"display_name":"قريه حى الزهور, الفيوم, 63518, مصر","address":{"town":"قريه حى الزهور","state":"الفيوم","ISO3166-2-lvl4":"EG-FYM","postcode":"63518","country":"مصر","country_code":"eg"},"osm_type":"way","osm_id":830687252,"type":"town","location":[30.94855793303043,29.287047899999997],"bbox":[30.908833,29.2595902,31.019571,29.3168378]}
{"name":"قسم اول","other_names":{"name:ar":"قسم اول","name:en":"First District"},"display_name":"قسم اول, المنيا, 61631, مصر","address":{"town":"قسم اول","state":"المنيا","ISO3166-2-lvl4":"EG-MN","postcode":"61631","country":"مصر","country_code":"eg"},"osm_type":"way","osm_id":825762884,"type":"town","location":[30.85594638665265,27.7388299],"bbox":[30.8400482,27.7313754,30.8688367,27.746091]}
{"name":"قسم ثالث","other_names":{"name:ar":"قسم ثالث","name:en":"Third District"},"display_name":"قسم ثالث, المنيا, 61634, مصر","address":{"town":"قسم ثالث","state":"المنيا","ISO3166-2-lvl4":"EG-MN","postcode":"61634","country":"مصر","country_code":"eg"},"osm_type":"way","osm_id":827869085,"type":"town","location":[30.855796968169187,27.723412099999997],"bbox":[30.8441268,27.7139945,30.869731,27.7322461]}
{"name":"قسم ثان","other_names":{"name:ar":"قسم ثان","name:en":"Second District"},"display_name":"قسم ثان, المنيا, 61633, مصر","address":{"town":"قسم ثان","state":"المنيا","ISO3166-2-lvl4":"EG-MN","postcode":"61633","country":"مصر","country_code":"eg"},"osm_type":"way","osm_id":827818209,"type":"town","location":[30.834891060089404,27.7346765],"bbox":[30.8245096,27.7294989,30.8456454,27.741163]}
{"name":"قسم رابع","other_names":{"name:ar":"قسم رابع","name:en":"Forth District"},"display_name":"قسم رابع, المنيا, 61654, مصر","address":{"town":"قسم رابع","state":"المنيا","ISO3166-2-lvl4":"EG-MN","postcode":"61654","country":"مصر","country_code":"eg"},"osm_type":"way","osm_id":823070195,"type":"town","location":[30.836395857997132,27.7229392],"bbox":[30.8265916,27.7143512,30.8464382,27.7315814]}
{"name":"قفـط","other_names":{"name:ar":"قفـط","name:ca":"Coptos","name:de":"Koptos","name:en":"Qift","name:es":"Coptos","name:eu":"Koptos","name:fa":"قفط","name:fi":"Koptos","name:fr":"Coptos","name:id":"Qift","name:it":"Copto (Egitto)","name:ml":"ഖിഫ്ത്","name:nb":"Qift","name:nl":"Koptos","name:pl":"Kift","name:pt":"Copto","name:ru":"Коптос","name:sl":"Qift","name:sv":"Koptos","name:uk":"Коптос","name:ur":"قفط","name:vi":"Coptos","alt_name:ml":"കോപ്റ്റോസ്"},"display_name":"قفـط, قنا, مصر","address":{"town":"قفـط","state":"قنا","ISO3166-2-lvl4":"EG-KN","country":"مصر","country_code":"eg"},"population":22063,"osm_type":"node","osm_id":332074724,"type":"town","location":[32.816013,25.998703],"bbox":[32.776013,25.958703,32.856013,26.038703]}
{"name":"قليوب","other_names":{"name:ar":"قليوب","name:ca":"Kalyub","name:de":"Qalyub","name:el":"Καλγιούμπ","name:en":"Qalyub","name:fa":"قلیوب","name:fr":"Kalyoub","name:kk":"Кальюб","name:lt":"Kaljubas","name:ml":"ഖൽയൂബ്","name:pl":"Kaljub","name:pt":"Qalyub","name:ru":"Кальюб","name:sr":"Каљуб","name:sv":"Qalyub","name:tr":"Kalyub","name:uk":"Кальюб","name:ur":"قلیوب","name:zh":"蓋勒尤卜","name:cop":"Ⲕⲁⲗⲓⲱⲡⲓ"},"display_name":"قليوب, القليوبية, 13612, مصر","address":{"town":"قليوب","state":"القليوبية","ISO3166-2-lvl4":"EG-KB","postcode":"13612","country":"مصر","country_code":"eg"},"population":109000,"osm_type":"node","osm_id":299570446,"type":"town","location":[31.206436,30.178875],"bbox":[31.166436,30.138875,31.246436,30.218875]}
{"name":"قنتير","other_names":{"name:ar":"قنتير","name:en":"Qantir"},"display_name":"قنتير, الشرقية, 44679, مصر","address":{"town":"قنتير","state":"الشرقية","ISO3166-2-lvl4":"EG-SHR","postcode":"44679","country":"مصر","country_code":"eg"},"osm_type":"node","osm_id":12147736188,"type":"town","location":[31.8384171,30.8032835],"bbox":[31.7984171,30.7632835,31.8784171,30.8432835]}
{"name":"قها","other_names":{"name:ar":"قها","name:en":"Qaha","name:fr":"Qaha","name:ml":"ഖഹ"},"display_name":"قها, القليوبية, 13743, مصر","address":{"town":"قها","state":"القليوبية","ISO3166-2-lvl4":"EG-KB","postcode":"13743","country":"مصر","country_code":"eg"},"osm_type":"node","osm_id":270226451,"type":"town","location":[31.206051,30.280632],"bbox":[31.166051,30.240632,31.246051,30.320632]}
{"name":"قوص","other_names":{"name:ar":"قوص","name:ca":"Kus","name:de":"Qus (Stadt)","name:el":"Κους","name:en":"Qus","name:es":"Apolinópolis Parva","name:fa":"شهرستان قوص","name:fr":"Qûs","name:it":"Qus (Egitto)","name:ml":"ഖൂസ്","name:pl":"Kus","name:ru":"Кус (Египет)","name:sv":"Kousa (ort)","name:uk":"Кус (Єгипет)","name:zh":"古斯 (基納省)"},"display_name":"قوص, الأقصر, 83621, مصر","address":{"town":"قوص","state":"الأقصر","ISO3166-2-lvl4":"EG-LX","postcode":"83621","country":"مصر","country_code":"eg"},"population":60068,"osm_type":"node","osm_id":332074802,"type":"town","location":[32.762969,25.915666],"bbox":[32.722969,25.875666,32.802969,25.955666]}
{"name":"قويسنا","other_names":{"name:ar":"قويسنا","name:en":"Quwaysina","name:fr":"Quweisna","alt_name":"قويسنا"},"display_name":"قويسنا, المنوفية, 32631, مصر","address":{"town":"قويسنا","state":"المنوفية","ISO3166-2-lvl4":"EG-MNF","postcode":"32631","country":"مصر","country_code":"eg"},"osm_type":"node","osm_id":1088289428,"type":"town","location":[31.1342982,30.5456644],"bbox":[31.0942982,30.5056644,31.1742982,30.5856644]}
{"name":"كفر الجزار","other_names":{"name:ar":"كفر الجزار","name:en":"Kafr Al-Gazar","name:fr":"Kafr Al-Gazar"},"display_name":"كفر الجزار, المنوفية, 13777, مصر","address":{"town":"كفر الجزار","state":"المنوفية","ISO3166-2-lvl4":"EG-MNF","postcode":"13777","country":"مصر","country_code":"eg"},"osm_type":"node","osm_id":1094131552,"type":"town","location":[31.1710364,30.4741652],"bbox":[31.1310364,30.4341652,31.2110364,30.5141652]}
{"name":"كفر الدوار","other_names":{"name:ar":"كفر الدوار","name:de":"Kafr al Dawar","name:en":"Kafr al Dawar","name:fr":"Kafr al Dawar","name:ml":"കഫർ അൽ-ദവാർ","name:ru":"Кафр-эд-Даввар","alt_name":"كفر الدوار","int_name":"Kafr al-Dawar, Kafr al Dawar","name:ar1":"كفر الدوار"},"display_name":"كفر الدوار, البحيرة, 22621, مصر","address":{"town":"كفر الدوار","state":"البحيرة","ISO3166-2-lvl4":"EG-BH","postcode":"22621","country":"مصر","country_code":"eg"},"osm_type":"node","osm_id":769125281,"type":"town","location":[30.1335334,31.1328304],"bbox":[30.0935334,31.0928304,30.1735334,31.1728304]}
{"name":"كفر الزيات","other_names":{"name:ar":"كفر الزيات","name:de":"Kafr Al-Zaiyat","name:en":"Kafr Al-Zaiyat","name:fr":"Kafr Al-Zaiyat","name:ml":"കഫർ അസ്സയാത്ത്","alt_name":"كفر الزيات","int_name":"Kafr ez Zaiyat, Kafr al Zaiyat","name:ar1":"كفر الزيات"},"display_name":"كفر الزيات, الغربية, 31611, مصر","address":{"town":"كفر الزيات","state":"الغربية","ISO3166-2-lvl4":"EG-GH","postcode":"31611","country":"مصر","country_code":"eg"},"osm_type":"node","osm_id":768602038,"type":"town","location":[30.815833,30.8205561],"bbox":[30.775833,30.7805561,30.855833,30.8605561]}
{"name":"كفر صقر","other_names":{"name:ar":"كفر صقر","name:de":"Kafr Saqr","name:en":"Kafr Saqr","name:fr":"Kafr Saqr","alt_name":"كفر صقر","int_name":"Kafr Ṣaqr, Kafr Saqr","name:ar1":"كفر صقر"},"display_name":"كفر صقر, الشرقية, 44681, مصر","address":{"town":"كفر صقر","state":"الشرقية","ISO3166-2-lvl4":"EG-SHR","postcode":"44681","country":"مصر","country_code":"eg"},"osm_type":"node","osm_id":768580600,"type":"town","location":[31.6261136,30.7963883],"bbox":[31.5861136,30.7563883,31.6661136,30.8363883]}
{"name":"كوم أمبو","other_names":{"name:ar":"كوم أمبو","name:de":"Kawm Ombo","name:en":"Kawm Ombo","name:fa":"کوم امبو","name:fr":"Kôm Ombo","name:ks":"کوم امبو","name:ml":"കോം ഒംബോ","name:pt":"Com Ombo","name:ru":"Ком Омбо","name:ur":"کوم امبو","int_name":"Kom Ombo"},"display_name":"كوم أمبو, أسوان, 81611, مصر","address":{"town":"كوم أمبو","state":"أسوان","ISO3166-2-lvl4":"EG-ASN","postcode":"81611","country":"مصر","country_code":"eg"},"osm_type":"node","osm_id":332075185,"type":"town","location":[32.9495225,24.4762478],"bbox":[32.9095225,24.4362478,32.9895225,24.5162478]}
{"name":"كوم حمادة","other_names":{"name:ar":"كوم حمادة","name:de":"Kom Hamada","name:en":"Kom Hamada","name:fr":"Kom Hamada","alt_name":"كوم حمادة","int_name":"Kôm Ḥamâda, Kom Hamada","name:ar1":"كوم حمادة"},"display_name":"كوم حمادة, البحيرة, 22821, مصر","address":{"town":"كوم حمادة","state":"البحيرة","ISO3166-2-lvl4":"EG-BH","postcode":"22821","country":"مصر","country_code":"eg"},"osm_type":"node","osm_id":768566182,"type":"town","location":[30.7003479,30.7589146],"bbox":[30.6603479,30.7189146,30.7403479,30.7989146]}
{"name":"كيما","other_names":{"name:ar":"كيما","name:en":"Kima"},"display_name":"كيما, أسوان, 81514, مصر","address":{"town":"كيما","state":"أسوان","ISO3166-2-lvl4":"EG-ASN","postcode":"81514","country":"مصر","country_code":"eg"},"osm_type":"way","osm_id":98332273,"type":"town","location":[32.928552270768016,24.065823299999998],"bbox":[32.9101291,24.0455586,32.9397008,24.0841972]}
{"name":"مدينة أبو كبير","other_names":{"name:ar":"مدينة أبو كبير","name:en":"Abou Kebir City","name:uk":"Абу-Кебір","name:es":"Abu Kabir","name:et":"Abū Kabīr","name:fa":"ابو کبیر","name:fr":"Abu Kabir","name:ml":"അബു കബീർ","name:ru":"Абу-Кебир","name:sv":"Abu Kabir","name:ur":"ابوکبیر","alt":"أبو كبير","alt:ar":"أبو كبير","alt:en":"Abu Kabir"},"display_name":"مدينة أبو كبير, الشرقية, 44671, مصر","address":{"city":"مدينة أبو كبير","state":"الشرقية","ISO3166-2-lvl4":"EG-SHR","postcode":"44671","country":"مصر","country_code":"eg"},"population":106000,"osm_type":"way","osm_id":38581998,"type":"town","location":[31.6708449,30.72517],"bbox":[31.631476,30.7055719,31.7071465,30.7669308]}
{"name":"مدينة قلين","other_names":{"name:ar":"قلين","name:en":"Qillin"},"display_name":"مدينة قلين, كفر الشيخ, مصر","address":{"town":"مدينة قلين","state":"كفر الشيخ","ISO3166-2-lvl4":"EG-KFS","country":"مصر","country_code":"eg"},"osm_type":"way","osm_id":1069644161,"type":"town","location":[30.854286266448455,31.048242950000002],"bbox":[30.8475171,31.0420693,30.8619288,31.0541805]}
{"name":"مدينه ابنوب","other_names":{"name:ar":"مدينه ابنوب","name:en":"Abnoub City"},"display_name":"مدينه ابنوب, أسيوط, 71717, مصر","address":{"town":"مدينه ابنوب","state":"أسيوط","ISO3166-2-lvl4":"EG-AST","postcode":"71717","country":"مصر","country_code":"eg"},"osm_type":"way","osm_id":612086478,"type":"town","location":[31.161565002245887,27.271431],"bbox":[31.1157605,27.2309374,31.1984431,27.3127859]}
{"name":"مدينه اجا","other_names":{"name:ar":"مدينه اجا","name:en":"Aga City"},"display_name":"مدينه اجا, الدقهلية, 35764, مصر","address":{"town":"مدينه اجا","state":"الدقهلية","ISO3166-2-lvl4":"EG-DK","postcode":"35764","country":"مصر","country_code":"eg"},"osm_type":"way","osm_id":759541457,"type":"town","location":[31.290567318176045,30.93707275],"bbox":[31.2633455,30.9204988,31.3195243,30.9534759]}
{"name":"مدينه اخميم","other_names":{"name:ar":"مدينه اخميم","name:en":"Akhmim City"},"display_name":"مدينه اخميم, سوهاج, 82714, مصر","address":{"town":"مدينه اخميم","state":"سوهاج","ISO3166-2-lvl4":"EG-SHG","postcode":"82714","country":"مصر","country_code":"eg"},"osm_type":"way","osm_id":824600873,"type":"town","location":[31.744474701138095,26.56496245],"bbox":[31.7232771,26.5397409,31.773463,26.5901871]}
{"name":"مدينه الابراهيميه","other_names":{"name:ar":"مدينه الابراهيميه","name:en":"Al Ibrahimeya City"},"display_name":"مدينه الابراهيميه, الشرقية, مصر","address":{"town":"مدينه الابراهيميه","state":"الشرقية","ISO3166-2-lvl4":"EG-SHR","country":"مصر","country_code":"eg"},"osm_type":"way","osm_id":756171768,"type":"town","location":[31.56838943787725,30.7172707],"bbox":[31.5353309,30.6793579,31.5841538,30.7552436]}
{"name":"مدينه البلينا","other_names":{"name:ar":"مدينه البلينا","name:en":"Al Blina City"},"display_name":"مدينه البلينا, قنا, 82811, مصر","address":{"town":"مدينه البلينا","state":"قنا","ISO3166-2-lvl4":"EG-KN","postcode":"82811","country":"مصر","country_code":"eg"},"osm_type":"way","osm_id":825444652,"type":"town","location":[32.00207349121213,26.2315591],"bbox":[31.9830584,26.2169953,32.0089084,26.2454638]}
{"name":"مدينه الخارجه","other_names":{"name:ar":"مدينه الخارجه","name:en":"Al Khargah City","name:uk":"Аль Харга"},"display_name":"مدينه الخارجه, الوادي الجديد, 72511, مصر","address":{"town":"مدينه الخارجه","state":"الوادي الجديد","ISO3166-2-lvl4":"EG-WAD","postcode":"72511","country":"مصر","country_code":"eg"},"osm_type":"way","osm_id":870659364,"type":"town","location":[30.546640902194817,25.43787715],"bbox":[30.5196769,25.3906785,30.5737514,25.4866807]}
{"name":"مدينه الرياض","other_names":{"name:ar":"مدينه الرياض","name:en":"Al Riyadh City"},"display_name":"مدينه الرياض, كفر الشيخ, 33739, مصر","address":{"town":"مدينه الرياض","state":"كفر الشيخ","ISO3166-2-lvl4":"EG-KFS","postcode":"33739","country":"مصر","country_code":"eg"},"osm_type":"way","osm_id":799604457,"type":"administrative","location":[30.942542773741348,31.2348077],"bbox":[30.9279274,31.2052916,30.9722798,31.264211],"inferred_type":"town"}
{"name":"مدينه الغنايم","other_names":{"name:ar":"مدينه الغنايم","name:en":"Al Ghanaym City"},"display_name":"مدينه الغنايم, أسيوط, 71742, مصر","address":{"town":"مدينه الغنايم","state":"أسيوط","ISO3166-2-lvl4":"EG-AST","postcode":"71742","country":"مصر","country_code":"eg"},"osm_type":"way","osm_id":817198511,"type":"town","location":[31.343958613899296,26.8842185],"bbox":[31.3037542,26.8607109,31.3802691,26.907806]}
{"name":"مدينه الفكريه","other_names":{"name:ar":"مدينه الفكريه","name:en":"Al Fekreya City"},"display_name":"مدينه الفكريه, المنيا, 61611, مصر","address":{"town":"مدينه الفكريه","state":"المنيا","ISO3166-2-lvl4":"EG-MN","postcode":"61611","country":"مصر","country_code":"eg"},"osm_type":"way","osm_id":823073626,"type":"town","location":[30.815745669275252,27.93183175],"bbox":[30.7893605,27.9010006,30.8324073,27.9623379]}
{"name":"مدينه بلقاس","other_names":{"name:ar":"مدينه بلقاس","name:en":"Belqas City"},"display_name":"مدينه بلقاس, الدقهلية, 35631, مصر","address":{"town":"مدينه بلقاس","state":"الدقهلية","ISO3166-2-lvl4":"EG-DK","postcode":"35631","country":"مصر","country_code":"eg"},"osm_type":"way","osm_id":712650824,"type":"town","location":[31.358610525460428,31.210686600000002],"bbox":[31.3226125,31.1745554,31.3950322,31.2468156]}
{"name":"مدينه بنى مزار","other_names":{"name:ar":"مدينه بنى مزار","name:en":"Bani Mazar City"},"display_name":"مدينه بنى مزار, المنيا, 61671, مصر","address":{"town":"مدينه بنى مزار","state":"المنيا","ISO3166-2-lvl4":"EG-MN","postcode":"61671","country":"مصر","country_code":"eg"},"osm_type":"way","osm_id":295752053,"type":"town","location":[30.792568559245215,28.4993215],"bbox":[30.7765101,28.4801757,30.8226765,28.5185114]}
{"name":"مدينه جرجا","other_names":{"name:ar":"مدينه جرجا","name:en":"Gerga City","name:fr":"Girga","name:ml":"ഗിർഗ","alt":"جرجا","alt:ar":"جرجا","alt:en":"Girga"},"display_name":"مدينه جرجا, سوهاج, 82951, مصر","address":{"city":"مدينه جرجا","state":"سوهاج","ISO3166-2-lvl4":"EG-SHG","postcode":"82951","country":"مصر","country_code":"eg"},"population":113600,"osm_type":"way","osm_id":126568333,"type":"town","location":[31.8911758,26.337437],"bbox":[31.8640915,26.3220052,31.9038973,26.3532855]}
{"name":"مدينه جهينه","other_names":{"name:ar":"مدينه جهينه","name:en":"Jouhayna City"},"display_name":"مدينه جهينه, الوادي الجديد, 82633, مصر","address":{"town":"مدينه جهينه","state":"الوادي الجديد","ISO3166-2-lvl4":"EG-WAD","postcode":"82633","country":"مصر","country_code":"eg"},"osm_type":"way","osm_id":106580655,"type":"town","location":[31.4974392962622,26.6723719],"bbox":[31.4697084,26.6534886,31.5078632,26.6912847]}
{"name":"مدينه دراو","other_names":{"name:ar":"مدينه دراو","name:en":"Daraw City"},"display_name":"مدينه دراو, أسوان, 81631, مصر","address":{"town":"مدينه دراو","state":"أسوان","ISO3166-2-lvl4":"EG-ASN","postcode":"81631","country":"مصر","country_code":"eg"},"osm_type":"way","osm_id":812808282,"type":"town","location":[32.92123406136706,24.401147899999998],"bbox":[32.9024273,24.3720429,32.9408486,24.4294174]}
{"name":"مدينه ديرب نجم","other_names":{"name:ar":"مدينه ديرب نجم","name:en":"Derb Negm City"},"display_name":"مدينه ديرب نجم, الشرقية, 44788, مصر","address":{"town":"مدينه ديرب نجم","state":"الشرقية","ISO3166-2-lvl4":"EG-SHR","postcode":"44788","country":"مصر","country_code":"eg"},"osm_type":"way","osm_id":756506071,"type":"town","location":[31.44800872154569,30.7544557],"bbox":[31.4212516,30.739026,31.4670447,30.7701361]}
{"name":"مدينه ديرمواس","other_names":{"name:ar":"مدينه ديرمواس","name:en":"Dir Mawas City"},"display_name":"مدينه ديرمواس, المنيا, 61736, مصر","address":{"town":"مدينه ديرمواس","state":"المنيا","ISO3166-2-lvl4":"EG-MN","postcode":"61736","country":"مصر","country_code":"eg"},"osm_type":"way","osm_id":200070390,"type":"town","location":[30.848394372596573,27.646265399999997],"bbox":[30.8220516,27.6086587,30.8687512,27.6838757]}
{"name":"مدينه ديروط","other_names":{"name:ar":"مدينه ديروط","name:en":"Dirot City"},"display_name":"مدينه ديروط, أسيوط, 71611, مصر","address":{"town":"مدينه ديروط","state":"أسيوط","ISO3166-2-lvl4":"EG-AST","postcode":"71611","country":"مصر","country_code":"eg"},"osm_type":"way","osm_id":821855415,"type":"town","location":[30.81119605077589,27.559432800000003],"bbox":[30.7987545,27.5471405,30.8296886,27.5709389]}
{"name":"مدينه سمالوط","other_names":{"name:ar":"مدينه سمالوط","name:en":"Smalout City"},"display_name":"مدينه سمالوط, المنيا, 61661, مصر","address":{"town":"مدينه سمالوط","state":"المنيا","ISO3166-2-lvl4":"EG-MN","postcode":"61661","country":"مصر","country_code":"eg"},"osm_type":"way","osm_id":828876468,"type":"town","location":[30.710117371426577,28.315180249999997],"bbox":[30.6952401,28.2875307,30.7422599,28.3428624]}
{"name":"مدينه صدفا","other_names":{"name:ar":"مدينه صدفا","name:en":"Sadfa City"},"display_name":"مدينه صدفا, أسيوط, 71748, مصر","address":{"town":"مدينه صدفا","state":"أسيوط","ISO3166-2-lvl4":"EG-AST","postcode":"71748","country":"مصر","country_code":"eg"},"osm_type":"way","osm_id":197286392,"type":"town","location":[31.380915502131888,26.9660118],"bbox":[31.3676106,26.9574987,31.3929032,26.9744119]}
{"name":"مدينه طما","other_names":{"name:ar":"مدينه طما","name:en":"Tama City"},"display_name":"مدينه طما, سوهاج, 82611, مصر","address":{"town":"مدينه طما","state":"سوهاج","ISO3166-2-lvl4":"EG-SHG","postcode":"82611","country":"مصر","country_code":"eg"},"osm_type":"way","osm_id":104198770,"type":"town","location":[31.43909796921446,26.894992],"bbox":[31.4161174,26.8737491,31.4595695,26.9162833]}
{"name":"مدينه طهطا","other_names":{"name:ar":"مدينه طهطا","name:en":"Tahta City"},"display_name":"مدينه طهطا, مركز طهطا, سوهاج, 82621, مصر","address":{"town":"مدينه طهطا","county":"مركز طهطا","state":"سوهاج","ISO3166-2-lvl4":"EG-SHG","postcode":"82621","country":"مصر","country_code":"eg"},"osm_type":"way","osm_id":819413795,"type":"town","location":[31.48955352498318,26.7612271],"bbox":[31.4583297,26.7350504,31.512084,26.787383]}
{"name":"مدينه فاقوس","other_names":{"name:ar":"مدينه فاقوس","name:en":"Fakous City"},"display_name":"مدينه فاقوس, الشرقية, 44641, مصر","address":{"town":"مدينه فاقوس","state":"الشرقية","ISO3166-2-lvl4":"EG-SHR","postcode":"44641","country":"مصر","country_code":"eg"},"osm_type":"way","osm_id":756540029,"type":"town","location":[31.797982906036097,30.72263565],"bbox":[31.7755276,30.6990603,31.8146806,30.7461803]}
{"name":"مدينه قوص","other_names":{"name:ar":"مدينه قوص","name:en":"Qus city"},"display_name":"مدينه قوص, الأقصر, 83621, مصر","address":{"town":"مدينه قوص","state":"الأقصر","ISO3166-2-lvl4":"EG-LX","postcode":"83621","country":"مصر","country_code":"eg"},"osm_type":"way","osm_id":834183542,"type":"town","location":[32.75700777487569,25.913001649999998],"bbox":[32.7319016,25.8909326,32.7815254,25.9352037]}
{"name":"مدينه كفر الزيات","other_names":{"name:ar":"مدينه كفر الزيات","name:en":"Kafr Al Zayat City"},"display_name":"مدينه كفر الزيات, الغربية, 31611, مصر","address":{"town":"مدينه كفر الزيات","state":"الغربية","ISO3166-2-lvl4":"EG-GH","postcode":"31611","country":"مصر","country_code":"eg"},"osm_type":"way","osm_id":765745472,"type":"town","location":[30.8242628387842,30.8241199],"bbox":[30.7997593,30.8081152,30.8415104,30.8402868]}
{"name":"مدينه كفر صقر","other_names":{"name:ar":"مدينه كفر صقر","name:en":"Kafr Sakr City"},"display_name":"مدينه كفر صقر, الشرقية, 44681, مصر","address":{"town":"مدينه كفر صقر","state":"الشرقية","ISO3166-2-lvl4":"EG-SHR","postcode":"44681","country":"مصر","country_code":"eg"},"osm_type":"way","osm_id":756167747,"type":"town","location":[31.627966635344386,30.79034605],"bbox":[31.6181807,30.7777521,31.6377063,30.8028905]}
{"name":"مدينه كلابشة","other_names":{"name:ar":"مدينه كلابشة","name:en":"Kalabsha City"},"display_name":"مدينه كلابشة, أسوان, 81627, مصر","address":{"town":"مدينه كلابشة","state":"أسوان","ISO3166-2-lvl4":"EG-ASN","postcode":"81627","country":"مصر","country_code":"eg"},"osm_type":"way","osm_id":544329368,"type":"town","location":[32.94385758083054,24.62820975],"bbox":[32.9274288,24.6223814,32.9495456,24.6341249]}
{"name":"مدينه كوم امبو","other_names":{"name:ar":"مدينه كوم امبو","name:en":"Koum Ombo City"},"display_name":"مدينه كوم امبو, أسوان, 81611, مصر","address":{"town":"مدينه كوم امبو","state":"أسوان","ISO3166-2-lvl4":"EG-ASN","postcode":"81611","country":"مصر","country_code":"eg"},"osm_type":"way","osm_id":589445649,"type":"town","location":[32.94156551603088,24.4693718],"bbox":[32.9165702,24.449597,32.9606063,24.4890688]}
{"name":"مدينه كوم حماده","other_names":{"name:ar":"مدينه كوم حماده","name:en":"Koum Hamada City"},"display_name":"مدينه كوم حماده, البحيرة, 22821, مصر","address":{"town":"مدينه كوم حماده","state":"البحيرة","ISO3166-2-lvl4":"EG-BH","postcode":"22821","country":"مصر","country_code":"eg"},"osm_type":"way","osm_id":804919766,"type":"town","location":[30.69916553909933,30.758365050000002],"bbox":[30.6792301,30.7454561,30.7125726,30.7723762]}
{"name":"مدينه مطاى","other_names":{"name:ar":"مدينه مطاى","name:en":"Matay City"},"display_name":"مدينه مطاى, المنيا, 61681, مصر","address":{"town":"مدينه مطاى","state":"المنيا","ISO3166-2-lvl4":"EG-MN","postcode":"61681","country":"مصر","country_code":"eg"},"osm_type":"way","osm_id":624207908,"type":"town","location":[30.774262715402024,28.4220897],"bbox":[30.7552509,28.4002684,30.8052615,28.4432629]}
{"name":"مدينه مغاغه","other_names":{"name:ar":"مدينه مغاغه","name:en":"Maghagha City"},"display_name":"مدينه مغاغه, المنيا, 61691, مصر","address":{"town":"مدينه مغاغه","state":"المنيا","ISO3166-2-lvl4":"EG-MN","postcode":"61691","country":"مصر","country_code":"eg"},"osm_type":"way","osm_id":826069292,"type":"town","location":[30.85519817708279,28.6588811],"bbox":[30.8186987,28.6334407,30.8771654,28.6841625]}
{"name":"مدينه منفلوط","other_names":{"name:ar":"مدينه منفلوط","name:en":"Manfalot City"},"display_name":"مدينه منفلوط, أسيوط, 71621, مصر","address":{"town":"مدينه منفلوط","state":"أسيوط","ISO3166-2-lvl4":"EG-AST","postcode":"71621","country":"مصر","country_code":"eg"},"osm_type":"way","osm_id":817176032,"type":"town","location":[30.973682222637912,27.3072391],"bbox":[30.9355554,27.2855847,30.9940946,27.3273881]}
{"name":"مدينه منيا القمح","other_names":{"name:ar":"مدينه منيا القمح","name:en":"Minya Al Qamh City"},"display_name":"مدينه منيا القمح, الشرقية, 44692, مصر","address":{"town":"مدينه منيا القمح","state":"الشرقية","ISO3166-2-lvl4":"EG-SHR","postcode":"44692","country":"مصر","country_code":"eg"},"osm_type":"way","osm_id":685266480,"type":"town","location":[31.348349929098358,30.519065400000002],"bbox":[31.3239755,30.5064626,31.3658408,30.5316908]}
{"name":"مدينه ميت غمر","other_names":{"name:ar":"مدينه ميت غمر","name:en":"Mit Ghamr City"},"display_name":"مدينه ميت غمر, الدقهلية, 35611, مصر","address":{"town":"مدينه ميت غمر","state":"الدقهلية","ISO3166-2-lvl4":"EG-DK","postcode":"35611","country":"مصر","country_code":"eg"},"osm_type":"way","osm_id":621799357,"type":"town","location":[31.265451594943176,30.713186550000003],"bbox":[31.2495574,30.6854737,31.2924729,30.7407589]}
{"name":"مدينه نبروه","other_names":{"name:ar":"مدينه نبروه","name:en":"Nabaroh City"},"display_name":"مدينه نبروه, الدقهلية, 35685, مصر","address":{"town":"مدينه نبروه","state":"الدقهلية","ISO3166-2-lvl4":"EG-DK","postcode":"35685","country":"مصر","country_code":"eg"},"osm_type":"way","osm_id":761953285,"type":"town","location":[31.303621574334322,31.09921345],"bbox":[31.2750256,31.0765408,31.3306249,31.1216025]}
{"name":"مدينه ههيا","other_names":{"name:ar":"مدينه ههيا","name:en":"Hihya City"},"display_name":"مدينه ههيا, الشرقية, 44741, مصر","address":{"town":"مدينه ههيا","state":"الشرقية","ISO3166-2-lvl4":"EG-SHR","postcode":"44741","country":"مصر","country_code":"eg"},"osm_type":"way","osm_id":759388960,"type":"town","location":[31.593409923602287,30.669244300000003],"bbox":[31.5608541,30.6499923,31.6123898,30.6884534]}
{"name":"مشتول السوق","other_names":{"name:ar":"مشتول السوق","name:en":"Mashtul Al-Suq","name:fr":"Mashtoul El Souk","name:ml":"മഷ്തൂൽ അൽ-സുഖ്"},"display_name":"مشتول السوق, الشرقية, 44611, مصر","address":{"town":"مشتول السوق","state":"الشرقية","ISO3166-2-lvl4":"EG-SHR","postcode":"44611","country":"مصر","country_code":"eg"},"osm_type":"node","osm_id":332219151,"type":"town","location":[31.3800534,30.3609392],"bbox":[31.3400534,30.3209392,31.4200534,30.4009392]}
{"name":"مصيف بلطيم","other_names":{"name:ar":"مصيف بلطيم","name:de":"Erholungsort Baltim","name:en":"Baltim Resort","name:es":"Complejo Baltim","name:fr":"Station Balnéaire de Baltim"},"display_name":"مصيف بلطيم, كفر الشيخ, 33735, مصر","address":{"town":"مصيف بلطيم","state":"كفر الشيخ","ISO3166-2-lvl4":"EG-KFS","postcode":"33735","country":"مصر","country_code":"eg"},"osm_type":"node","osm_id":3235545411,"type":"town","location":[31.1104399,31.5964786],"bbox":[31.0704399,31.5564786,31.1504399,31.6364786]}
{"name":"مطر طارس","other_names":{"name:ar":"مطر طارس","name:en":"Matir Faris","name:fr":"Matar Taris"},"display_name":"مطر طارس, الفيوم, مصر","address":{"town":"مطر طارس","state":"الفيوم","ISO3166-2-lvl4":"EG-FYM","country":"مصر","country_code":"eg"},"osm_type":"node","osm_id":332566835,"type":"town","location":[30.9041808,29.3635717],"bbox":[30.8641808,29.3235717,30.9441808,29.4035717]}
{"name":"مطوبس","other_names":{"name:ar":"مطوبس","name:de":"Metoubes","name:en":"Metoubes","name:fa":"مطوبس","name:fr":"Metoubes","name:ru":"Мутубис","alt_name":"مطوبس","int_name":"Metoubes, Muṭûbis, Mutubis, Matubas","name:ar1":"مطوبس","name:azb":"مطوبس"},"display_name":"مطوبس, كفر الشيخ, 33625, مصر","address":{"town":"مطوبس","state":"كفر الشيخ","ISO3166-2-lvl4":"EG-KFS","postcode":"33625","country":"مصر","country_code":"eg"},"population":0,"osm_type":"node","osm_id":768815533,"type":"town","location":[30.5232678,31.2933108],"bbox":[30.4832678,31.2533108,30.5632678,31.3333108]}
{"name":"مغاغة","other_names":{"name:ar":"مغاغة","name:en":"Maghagha","name:fr":"Maghagha","name:ml":"മഗാഗ"},"display_name":"مغاغة, المنيا, 61691, مصر","address":{"town":"مغاغة","state":"المنيا","ISO3166-2-lvl4":"EG-MN","postcode":"61691","country":"مصر","country_code":"eg"},"osm_type":"node","osm_id":331953881,"type":"town","location":[30.8408123,28.6461831],"bbox":[30.8008123,28.6061831,30.8808123,28.6861831]}
{"name":"مكى حسون","other_names":{"name:ar":"مكى حسون","name:en":"Mekky Hasoun"},"display_name":"مكى حسون, أسوان, 81513, مصر","address":{"town":"مكى حسون","state":"أسوان","ISO3166-2-lvl4":"EG-ASN","postcode":"81513","country":"مصر","country_code":"eg"},"osm_type":"way","osm_id":98332240,"type":"town","location":[32.91472208059746,24.085859149999997],"bbox":[32.9076711,24.080252,32.9221209,24.0917754]}
{"name":"ملوى","other_names":{"name:ar":"ملوي","name:de":"Mallawi","name:en":"Mallawi","name:fr":"Mallawi","alt_name":"ملوي","int_name":"Mallawī, Mallawi","name:ar1":"ملوي"},"display_name":"ملوى, المنيا, 61633, مصر","address":{"town":"ملوى","state":"المنيا","ISO3166-2-lvl4":"EG-MN","postcode":"61633","country":"مصر","country_code":"eg"},"population":142504,"osm_type":"node","osm_id":768554401,"type":"town","location":[30.8411109,27.731944],"bbox":[30.8011109,27.691944,30.8811109,27.771944]}
{"name":"منديشة","other_names":{"name:ar":"منديشة","name:de":"Mandisha","name:en":"Mandisha","name:fr":"Mandisha","int_name":"Mandīsha, Mandisha"},"display_name":"منديشة, الجيزة, مصر","address":{"town":"منديشة","state":"الجيزة","ISO3166-2-lvl4":"EG-GZ","country":"مصر","country_code":"eg"},"osm_type":"node","osm_id":768752207,"type":"town","location":[28.933352,28.351299],"bbox":[28.893352,28.311299,28.973352,28.391299]}
{"name":"منفلوط","other_names":{"name:ar":"منفلوط","name:cs":"Manfalút","name:de":"Manfalut","name:en":"Manfalut","name:fr":"Manfalut","name:he":"מנפלוט","name:it":"Manfalut","name:ka":"მანფალუტი","name:kk":"Манфалут","name:ko":"만팔루트","name:mg":"Manfalūţ","name:pl":"Manfalut","name:ru":"Манфалут","name:sv":"Manfalut","name:vi":"Manfalut","name:zh":"曼費盧特"},"display_name":"منفلوط, أسيوط, 71621, مصر","address":{"town":"منفلوط","state":"أسيوط","ISO3166-2-lvl4":"EG-AST","postcode":"71621","country":"مصر","country_code":"eg"},"osm_type":"node","osm_id":332014748,"type":"town","location":[30.9722043,27.3114314],"bbox":[30.9322043,27.2714314,31.0122043,27.3514314]}
{"name":"منوف","other_names":{"name:ar":"منوف","name:de":"Manuf","name:en":"Manuf","name:fr":"Manuf","alt_name":"منوف","int_name":"Manūf, Manuf","name:ar1":"منوف"},"display_name":"منوف, المنوفية, 32951, مصر","address":{"town":"منوف","state":"المنوفية","ISO3166-2-lvl4":"EG-MNF","postcode":"32951","country":"مصر","country_code":"eg"},"osm_type":"node","osm_id":768565984,"type":"town","location":[30.9339539,30.4665238],"bbox":[30.8939539,30.4265238,30.9739539,30.5065238]}
{"name":"منيا القمح","other_names":{"name:ar":"منيا القمح","name:en":"Minya Al-Qamh","name:fr":"Minya El Qamh","name:ml":"മിന്യ അൽ-ഖമഹ്"},"display_name":"منيا القمح, الشرقية, 44692, مصر","address":{"town":"منيا القمح","state":"الشرقية","ISO3166-2-lvl4":"EG-SHR","postcode":"44692","country":"مصر","country_code":"eg"},"osm_type":"node","osm_id":336211787,"type":"town","location":[31.3465379,30.5119266],"bbox":[31.3065379,30.4719266,31.3865379,30.5519266]}
{"name":"موط","other_names":{"name:ar":"موط","name:en":"Mut","name:fr":"Mout","name:ru":"Мут"},"display_name":"موط, الوادي الجديد, 72711, مصر","address":{"town":"موط","state":"الوادي الجديد","ISO3166-2-lvl4":"EG-WAD","postcode":"72711","country":"مصر","country_code":"eg"},"population":19616,"osm_type":"node","osm_id":336216909,"type":"town","location":[28.9865889,25.4894682],"bbox":[28.9465889,25.4494682,29.0265889,25.5294682]}
{"name":"ميت غمر","other_names":{"name:ar":"ميت غمر","name:de":"Mit Ghamr","name:en":"Mit Ghamr","name:fr":"Mit Ghamr","name:ml":"മീത്ത് ഗമർ","name:ru":"Мит-Гамр","alt_name":"ميت غمر و كفر البطل","int_name":"Mīt Ghamr, Mit Ghamr, Mit Ghamr wa Kafr al Batal"},"display_name":"ميت غمر, الدقهلية, 35611, مصر","address":{"town":"ميت غمر","state":"الدقهلية","ISO3166-2-lvl4":"EG-DK","postcode":"35611","country":"مصر","country_code":"eg"},"population":119000,"osm_type":"node","osm_id":270227401,"type":"town","location":[31.2577644,30.7169001],"bbox":[31.2177644,30.6769001,31.2977644,30.7569001]}
{"name":"نجع المحطة","other_names":{"name:ar":"نجع المحطة","name:en":"Nagaa Al Mahata"},"display_name":"نجع المحطة, أسوان, 81531, مصر","address":{"town":"نجع المحطة","state":"أسوان","ISO3166-2-lvl4":"EG-ASN","postcode":"81531","country":"مصر","country_code":"eg"},"osm_type":"way","osm_id":812800358,"type":"town","location":[32.885110880354205,24.06175855],"bbox":[32.8660499,24.0399812,32.904254,24.0835728]}
{"name":"نجع حمادي","other_names":{"name:ar":"نجع حمادي","name:en":"Nag Hammadi","name:fr":"Nag Hammadi","name:ml":"നജ് ഹമാദി"},"display_name":"نجع حمادي, قنا, مصر","address":{"town":"نجع حمادي","state":"قنا","ISO3166-2-lvl4":"EG-KN","country":"مصر","country_code":"eg"},"population":250000,"osm_type":"node","osm_id":332074267,"type":"town","location":[32.2416339,26.0489911],"bbox":[32.2016339,26.0089911,32.2816339,26.0889911]}
{"name":"نجم الدين","other_names":{"name:ar":"نجم الدين","name:en":"Negm Al Din"},"display_name":"نجم الدين, أسوان, 81511, مصر","address":{"town":"نجم الدين","state":"أسوان","ISO3166-2-lvl4":"EG-ASN","postcode":"81511","country":"مصر","country_code":"eg"},"osm_type":"way","osm_id":810786074,"type":"town","location":[32.90136380341765,24.0884691],"bbox":[32.8980036,24.0846713,32.9049076,24.0921186]}
{"name":"نويبع المزينة","other_names":{"name:ar":"نويبع المزينة","name:de":"Nuweiba al Muzeinah","name:en":"Nuweiba al Muzeinah","name:fr":"Nuweiba al Muzeinah","name:uk":"Нувейба аль-Музайна","alt_name":"نويبع المزينة","int_name":"Nuweiba‘ el Muzeinah, Nuweiba al Muzeinah","name:ar1":"نويبع المزينة","name:en1":"Nuweiba","short_name:ar":"نويبع"},"display_name":"نويبع المزينة, جنوب سيناء, 46618, مصر","address":{"town":"نويبع المزينة","state":"جنوب سيناء","ISO3166-2-lvl4":"EG-JS","postcode":"46618","country":"مصر","country_code":"eg"},"osm_type":"node","osm_id":768799993,"type":"town","location":[34.649722,28.9675],"bbox":[34.609722,28.9275,34.689722,29.0075]}
{"name":"هاسيندا Hacienda","other_names":{"name:ar":"هاسيندا","name:en":"Hacienda","name:fr":"Hacienda"},"display_name":"هاسيندا Hacienda, الطريق الساحلى الدولى, الضبعة, مطروح, مصر","address":{"leisure":"هاسيندا Hacienda","road":"الطريق الساحلى الدولى","town":"الضبعة","state":"مطروح","ISO3166-2-lvl4":"EG-MT","country":"مصر","country_code":"eg"},"osm_type":"way","osm_id":301413600,"type":"beach_resort","location":[28.653027879128274,31.001354499999998],"bbox":[28.6483607,30.9965344,28.6579388,31.0050514]}
{"name":"وادى دجلة Wadi Degla","other_names":{"name:ar":"وادى دجلة","name:en":"Wadi Delga","name:fr":"Wadi Delga"},"display_name":"وادى دجلة Wadi Degla, الطريق الساحلى الدولى, الضبعة, مطروح, مصر","address":{"leisure":"وادى دجلة Wadi Degla","road":"الطريق الساحلى الدولى","town":"الضبعة","state":"مطروح","ISO3166-2-lvl4":"EG-MT","country":"مصر","country_code":"eg"},"osm_type":"way","osm_id":267187318,"type":"beach_resort","location":[28.672008489969713,30.998299799999998],"bbox":[28.6695376,30.9930973,28.6743226,31.0028787]}
{"name":"وادي النطرون","other_names":{"name:ar":"وادي النطرون","name:de":"Natron Schlucht","name:en":"El Natrun Valley","name:fr":"Vallée Natroun"},"display_name":"وادي النطرون, البحيرة, 22856, مصر","address":{"town":"وادي النطرون","state":"البحيرة","ISO3166-2-lvl4":"EG-BH","postcode":"22856","country":"مصر","country_code":"eg"},"osm_type":"node","osm_id":2209384485,"type":"town","location":[30.3552079,30.3782016],"bbox":[30.3152079,30.3382016,30.3952079,30.4182016]}
{"name":"يوسف الصديق","other_names":{"name:ar":"يوسف الصديق","name:en":"Joesph The Trustful","name:es":"Yūsuf aṣ-Ṣiddīq","name:fr":"Youssef Al Seddik","name:hr":"Jusuf as-Sidik","name:ml":"യൂസഫ് അസ്-സിദ്ദീഖ്","name:pl":"Jusuf as-Siddik","name:ar-Latn":"Yūsuf aṣ-Ṣiddīq"},"display_name":"يوسف الصديق, الفيوم, مصر","address":{"town":"يوسف الصديق","state":"الفيوم","ISO3166-2-lvl4":"EG-FYM","country":"مصر","country_code":"eg"},"osm_type":"node","osm_id":10600140235,"type":"town","location":[30.3827825,29.4433017],"bbox":[30.3427825,29.4033017,30.4227825,29.4833017]}
