{"name":"Aguachica","display_name":"Aguachica, Cesar, Colombia","address":{"city":"Aguachica","state":"Cesar","ISO3166-2-lvl4":"CO-CES","country":"Colombia","country_code":"co"},"osm_type":"node","osm_id":2820423900,"type":"city","location":[-73.603699,8.309416],"bbox":[-73.763699,8.149416,-73.443699,8.469416],"border":{"name":"Aguachica","display_name":"Aguachica, Cesar, 205010, Colombia","address":{"city":"Aguachica","state":"Cesar","ISO3166-2-lvl4":"CO-CES","postcode":"205010","country":"Colombia","country_code":"co"},"osm_type":"relation","osm_id":1423511,"type":"administrative","location":[-73.603699,8.309416],"bbox":[-73.7756738,7.9906399,-73.4568336,8.5058841]}}
{"name":"Agustín Codazzi","display_name":"Agustín Codazzi, Cesar, 202050, Colombia","address":{"city":"Agustín Codazzi","state":"Cesar","ISO3166-2-lvl4":"CO-CES","postcode":"202050","country":"Colombia","country_code":"co"},"population":65844,"osm_type":"node","osm_id":703169922,"type":"city","location":[-73.2387011,10.0374894],"bbox":[-73.3987011,9.8774894,-73.0787011,10.1974894],"border":{"name":"Agustín Codazzi","display_name":"Agustín Codazzi, Cesar, 202050, Colombia","address":{"city":"Agustín Codazzi","state":"Cesar","ISO3166-2-lvl4":"CO-CES","postcode":"202050","country":"Colombia","country_code":"co"},"population":65844,"osm_type":"relation","osm_id":11890103,"type":"administrative","location":[-73.2387011,10.0374894],"bbox":[-73.6312604,9.7192142,-72.8972762,10.2666205]}}
{"name":"Apartadó","other_names":{"name:es":"Apartadó","name:ru":"Апартадо"},"display_name":"Apartadó, Urabá, Antioquia, RAP del Agua y la Montaña, 057847, Colombia","address":{"city":"Apartadó","county":"Apartadó","state_district":"Urabá","state":"Antioquia","ISO3166-2-lvl4":"CO-ANT","region":"RAP del Agua y la Montaña","postcode":"057847","country":"Colombia","country_code":"co"},"population":144976,"osm_type":"node","osm_id":703176077,"type":"city","location":[-76.6227461,7.8849011],"bbox":[-76.7827461,7.7249011,-76.4627461,8.0449011],"border":{"name":"Apartadó","other_names":{"name:es":"Apartadó","name:ru":"Апартадо"},"display_name":"Apartadó, Urabá, Antioquia, RAP del Agua y la Montaña, Colombia","address":{"county":"Apartadó","state_district":"Urabá","state":"Antioquia","ISO3166-2-lvl4":"CO-ANT","region":"RAP del Agua y la Montaña","country":"Colombia","country_code":"co"},"osm_type":"relation","osm_id":1324918,"type":"administrative","location":[-76.52423482961669,7.9221542],"bbox":[-76.7532349,7.7702417,-76.4146645,8.0740014]}}
{"name":"Arauca","display_name":"Arauca, RAP Llanos, Colombia","address":{"city":"Arauca","state":"Arauca","ISO3166-2-lvl4":"CO-ARA","region":"RAP Llanos","country":"Colombia","country_code":"co"},"population":294206,"osm_type":"node","osm_id":9632105989,"type":"city","location":[-70.7577762,7.0851994],"bbox":[-70.9177762,6.9251994,-70.5977762,7.2451994],"border":{"name":"Arauca","display_name":"Arauca, RAP Llanos, 810001, Colombia","address":{"city":"Arauca","state":"Arauca","ISO3166-2-lvl4":"CO-ARA","region":"RAP Llanos","postcode":"810001","country":"Colombia","country_code":"co"},"population":294206,"osm_type":"relation","osm_id":11312178,"type":"administrative","location":[-70.7577762,7.0851994],"bbox":[-71.2062682,6.4839409,-69.7613605,7.1042357]}}
{"name":"Armenia","other_names":{"name:es":"Armenia","name:ru":"Армения"},"display_name":"Armenia, Perímetro Urbano Armenia, Armenia, Capital, Quindío, RAP Eje Cafetero, Colombia","address":{"city":"Armenia","state_district":"Capital","state":"Quindío","ISO3166-2-lvl4":"CO-QUI","region":"RAP Eje Cafetero","country":"Colombia","country_code":"co"},"population":316926,"osm_type":"node","osm_id":293168610,"type":"city","location":[-75.6723751,4.536307],"bbox":[-75.8323751,4.376307,-75.5123751,4.696307],"border":[{"name":"Armenia","other_names":{"name:es":"Armenia","name:ru":"Армения"},"display_name":"Armenia, Capital, Quindío, RAP Eje Cafetero, Colombia","address":{"city":"Armenia","state_district":"Capital","state":"Quindío","ISO3166-2-lvl4":"CO-QUI","region":"RAP Eje Cafetero","country":"Colombia","country_code":"co"},"population":316926,"osm_type":"relation","osm_id":1343039,"type":"administrative","location":[-75.6723751,4.536307],"bbox":[-75.7893957,4.3957427,-75.6324993,4.5881794]},{"name":"Perímetro Urbano Armenia","other_names":{"name:es":"Perímetro Urbano Armenia","name:ru":"Армения","alt":"Armenia","alt:es":"Armenia"},"display_name":"Perímetro Urbano Armenia, Armenia, Capital, Quindío, RAP Eje Cafetero, Colombia","address":{"city":"Perímetro Urbano Armenia","state_district":"Capital","state":"Quindío","ISO3166-2-lvl4":"CO-QUI","region":"RAP Eje Cafetero","country":"Colombia","country_code":"co"},"population":316926,"osm_type":"relation","osm_id":13035416,"type":"administrative","location":[-75.6723751,4.536307],"bbox":[-75.7195038,4.4934618,-75.6324993,4.5881794]}]}
{"name":"Baranoa","display_name":"Baranoa, Atlántico, 082020, Colombia","address":{"city":"Baranoa","state":"Atlántico","ISO3166-2-lvl4":"CO-ATL","postcode":"082020","country":"Colombia","country_code":"co"},"osm_type":"way","osm_id":1216954291,"type":"city","location":[-74.9179523191095,10.7684258],"bbox":[-74.9870909,10.7160217,-74.8641957,10.8620524],"border":{"name":"Baranoa","display_name":"Baranoa, Atlántico, 082020, Colombia","address":{"town":"Baranoa","state":"Atlántico","ISO3166-2-lvl4":"CO-ATL","postcode":"082020","country":"Colombia","country_code":"co"},"population":55000,"osm_type":"relation","osm_id":1341518,"type":"administrative","location":[-74.9152164,10.7935815],"bbox":[-74.9944125,10.701078,-74.8665941,10.8591085]}}
{"name":"Barrancabermeja","other_names":{"name:es":"Barrancabermeja","name:ja":"バランカベルメハ","name:lt":"Barankabermecha","name:ru":"Барранкабермеха","name:uk":"Барранкабермеха","name:zh":"巴蘭卡韋梅哈"},"display_name":"Barrancabermeja, Yariguíes, Santander, RAP Gran Santander, 687031, Colombia","address":{"city":"Barrancabermeja","county":"Barrancabermeja","state_district":"Yariguíes","state":"Santander","ISO3166-2-lvl4":"CO-SAN","region":"RAP Gran Santander","postcode":"687031","country":"Colombia","country_code":"co"},"population":200718,"osm_type":"node","osm_id":306361598,"type":"city","location":[-73.8525627,7.0673313],"bbox":[-74.0125627,6.9073313,-73.6925627,7.2273313],"border":{"name":"Barrancabermeja","display_name":"Barrancabermeja, Yariguíes, Santander, RAP Gran Santander, 687031, Colombia","address":{"county":"Barrancabermeja","state_district":"Yariguíes","state":"Santander","ISO3166-2-lvl4":"CO-SAN","region":"RAP Gran Santander","postcode":"687031","country":"Colombia","country_code":"co"},"osm_type":"relation","osm_id":1315086,"type":"administrative","location":[-73.75919805296999,7.026912149999999],"bbox":[-74.0950462,6.7930618,-73.538098,7.2567341]}}
{"name":"Barranquilla","other_names":{"name:ar":"بارانكيا","name:es":"Barranquilla","name:fa":"بارانکیلا","name:mk":"Баранкиља","name:oc":"Barranquilla","name:ur":"بارانکیلا","name:azb":"بارانكيلا","name:pnb":"بارانکولا"},"display_name":"Barranquilla, Perímetro Urbano Barranquilla, Barranquilla, Atlántico, 08000, Colombia","address":{"city":"Barranquilla","state":"Atlántico","ISO3166-2-lvl4":"CO-ATL","postcode":"08000","country":"Colombia","country_code":"co"},"population":1327209,"osm_type":"node","osm_id":5399542329,"type":"city","location":[-74.7926118,10.9938599],"bbox":[-74.9526118,10.8338599,-74.6326118,11.1538599],"border":[{"name":"Barranquilla","other_names":{"name:es":"Barranquilla","name:ar":"بارانكيا","name:fa":"بارانکیلا","name:mk":"Баранкиља","name:oc":"Barranquilla","name:ur":"بارانکیلا","name:azb":"بارانكيلا","name:pnb":"بارانکولا"},"display_name":"Barranquilla, Atlántico, Colombia","address":{"city":"Barranquilla","state":"Atlántico","ISO3166-2-lvl4":"CO-ATL","country":"Colombia","country_code":"co"},"population":1327209,"osm_type":"relation","osm_id":1335179,"type":"administrative","location":[-74.7926118,10.9938599],"bbox":[-74.9192181,10.9138881,-74.753632,11.1066443]},{"name":"Perímetro Urbano Barranquilla","other_names":{"name:es":"Perímetro Urbano Barranquilla","name:ar":"بارانكيا","name:fa":"بارانکیلا","name:mk":"Баранкиља","name:oc":"Barranquilla","name:ur":"بارانکیلا","name:azb":"بارانكيلا","name:pnb":"بارانکولا","alt":"Barranquilla","alt:es":"Barranquilla"},"display_name":"Perímetro Urbano Barranquilla, Barranquilla, Atlántico, Colombia","address":{"city":"Perímetro Urbano Barranquilla","state":"Atlántico","ISO3166-2-lvl4":"CO-ATL","country":"Colombia","country_code":"co"},"population":1327209,"osm_type":"relation","osm_id":13466699,"type":"administrative","location":[-74.7926118,10.9938599],"bbox":[-74.8507896,10.9206892,-74.7585149,11.0453193]}]}
{"name":"Bello","other_names":{"name:en":"Bello","name:es":"Bello","name:ru":"Бельо"},"display_name":"Bello, Valle de Aburrá, Antioquia, RAP del Agua y la Montaña, 051053, Colombia","address":{"city":"Bello","county":"Bello","state_district":"Valle de Aburrá","state":"Antioquia","ISO3166-2-lvl4":"CO-ANT","region":"RAP del Agua y la Montaña","postcode":"051053","country":"Colombia","country_code":"co"},"population":532973,"osm_type":"node","osm_id":3306812051,"type":"city","location":[-75.5582665,6.334997],"bbox":[-75.7182665,6.174997,-75.3982665,6.494997],"border":{"name":"Bello","display_name":"Bello, Valle de Aburrá, Antioquia, RAP del Agua y la Montaña, Colombia","address":{"county":"Bello","state_district":"Valle de Aburrá","state":"Antioquia","ISO3166-2-lvl4":"CO-ANT","region":"RAP del Agua y la Montaña","country":"Colombia","country_code":"co"},"osm_type":"relation","osm_id":1307262,"type":"administrative","location":[-75.58838209456283,6.359209],"bbox":[-75.6667128,6.287127,-75.5152077,6.431291]}}
{"name":"Bogotá","other_names":{"name:am":"ቦጎታ","name:ar":"بوغوتا","name:ay":"Wukuta","name:az":"Boqota","name:ba":"Богота","name:be":"Багата","name:bg":"Богота","name:bn":"বোগোতা","name:bo":"པོ་གོ་ཏ","name:ca":"Bogotà","name:de":"Bogotá","name:el":"Μπογκοτά","name:en":"Bogota","name:eo":"Bogoto","name:es":"Bogotá","name:fa":"بوگوتا","name:fr":"Bogota","name:he":"בוגוטה","name:hi":"बोगोटा","name:ht":"Bogota","name:hu":"Bogotá","name:hy":"Բոգոտա","name:io":"Bogota","name:is":"Bógóta","name:it":"Bogotà","name:ja":"ボゴタ","name:ka":"ბოგოტა","name:kk":"Богота","name:km":"ទីក្រុងបូកូតា","name:kn":"ಬೊಗೋಟ","name:ko":"보고타","name:ku":"Bogota","name:la":"Bogota","name:ln":"Bogota","name:lt":"Bogota","name:lv":"Bogota","name:mk":"Богота","name:ml":"ബൊഗോട്ട","name:mr":"बोगोता","name:my":"ဘိုဂိုတာမြို့","name:nl":"Bogota","name:oc":"Bogotà","name:os":"Богота","name:pl":"Bogota","name:pt":"Bogotá","name:ru":"Богота","name:rw":"Bogota","name:sh":"Bogota","name:sk":"Bogota","name:sl":"Bogota","name:so":"Bogota","name:sr":"Богота","name:sv":"Bogotá","name:sw":"Bogota","name:ta":"பொகோட்டா","name:th":"โบโกตา","name:tk":"Bogota","name:tl":"Bogota","name:ug":"Bogota","name:uk":"Богота","name:ur":"بوگوتا","name:uz":"Bogota","name:yi":"באגאטא","name:zh":"波哥大","alt_name":"Bogotá, D.C.","name:arz":"بوجوتا","name:ckb":"بۆگۆتا","name:diq":"Bogota","name:hsb":"Bogota","name:lad":"Bogota","name:lmo":"Bogotà","name:mhr":"Богота","name:nov":"Bogota","name:pap":"Bogota","name:pms":"Bogotà","name:pnb":"بگوٹا","name:rue":"Боґота","name:scn":"Bogotà","name:szl":"Bogota","name:yue":"波哥大","alt_name:en":"Bogotá, D.C.","alt_name:es":"Bogotá, D.C.","alt_name:pt":"Bogotá, D.C.","name:sr-Latn":"Bogota","official_name":"Bogotá Distrito Capital"},"display_name":"Bogotá, Bogotá, Distrito Capital, RAP (Especial) Central, Colombia","address":{"city":"Bogotá","ISO3166-2-lvl4":"CO-DC","region":"RAP (Especial) Central","country":"Colombia","country_code":"co"},"population":8181047,"osm_type":"node","osm_id":671806634,"type":"city","location":[-74.0836332,4.6533874],"bbox":[-74.2436332,4.4933874,-73.9236332,4.8133874],"border":[{"name":"Bogotá, Distrito Capital","other_names":{"name:en":"Bogota, Capital District","name:es":"Bogotá, Distrito Capital","ISO3166-2":"CO-DC","official_name":"Bogotá, D.C.","name:am":"ቦጎታ","name:ar":"بوغوتا","name:ay":"Wukuta","name:az":"Boqota","name:ba":"Богота","name:be":"Багата","name:bg":"Богота","name:bn":"বোগোতা","name:bo":"པོ་གོ་ཏ","name:ca":"Bogotà","name:de":"Bogotá","name:el":"Μπογκοτά","name:eo":"Bogoto","name:fa":"بوگوتا","name:fr":"Bogota","name:he":"בוגוטה","name:hi":"बोगोटा","name:ht":"Bogota","name:hu":"Bogotá","name:hy":"Բոգոտա","name:io":"Bogota","name:is":"Bógóta","name:it":"Bogotà","name:ja":"ボゴタ","name:ka":"ბოგოტა","name:kk":"Богота","name:km":"ទីក្រុងបូកូតា","name:kn":"ಬೊಗೋಟ","name:ko":"보고타","name:ku":"Bogota","name:la":"Bogota","name:ln":"Bogota","name:lt":"Bogota","name:lv":"Bogota","name:mk":"Богота","name:ml":"ബൊഗോട്ട","name:mr":"बोगोता","name:my":"ဘိုဂိုတာမြို့","name:nl":"Bogota","name:oc":"Bogotà","name:os":"Богота","name:pl":"Bogota","name:pt":"Bogotá","name:ru":"Богота","name:rw":"Bogota","name:sh":"Bogota","name:sk":"Bogota","name:sl":"Bogota","name:so":"Bogota","name:sr":"Богота","name:sv":"Bogotá","name:sw":"Bogota","name:ta":"பொகோட்டா","name:th":"โบโกตา","name:tk":"Bogota","name:tl":"Bogota","name:ug":"Bogota","name:uk":"Богота","name:ur":"بوگوتا","name:uz":"Bogota","name:yi":"באגאטא","name:zh":"波哥大","alt_name":"Bogotá, D.C.","name:arz":"بوجوتا","name:ckb":"بۆگۆتا","name:diq":"Bogota","name:hsb":"Bogota","name:lad":"Bogota","name:lmo":"Bogotà","name:mhr":"Богота","name:nov":"Bogota","name:pap":"Bogota","name:pms":"Bogotà","name:pnb":"بگوٹا","name:rue":"Боґота","name:scn":"Bogotà","name:szl":"Bogota","name:yue":"波哥大","alt_name:en":"Bogotá, D.C.","alt_name:es":"Bogotá, D.C.","alt_name:pt":"Bogotá, D.C.","name:sr-Latn":"Bogota","_place_official_name":"Bogotá Distrito Capital","alt":"Bogotá","alt:en":"Bogota","alt:es":"Bogotá"},"display_name":"Bogotá, Distrito Capital, RAP (Especial) Central, Colombia","address":{"city":"Bogotá, Distrito Capital","ISO3166-2-lvl4":"CO-DC","region":"RAP (Especial) Central","country":"Colombia","country_code":"co"},"population":8181047,"osm_type":"relation","osm_id":12893646,"type":"administrative","location":[-74.0836332,4.6533874],"bbox":[-74.4509502,3.7300533,-73.9859033,4.8369805]},{"name":"Bogotá Distrito Capital - Municipio","other_names":{"ref":"DC","name:en":"Bogota Capital District - Municipality","name:es":"Bogotá Distrito Capital - Municipio","name:ja":"ボゴタ首都地域","official_name":"Bogotá Distrito Capital"},"display_name":"Bogotá Distrito Capital - Municipio, RAP (Especial) Central, 11001, Colombia","address":{"administrative":"Bogotá Distrito Capital - Municipio","region":"RAP (Especial) Central","postcode":"11001","country":"Colombia","country_code":"co"},"osm_type":"relation","osm_id":1387968,"type":"administrative","location":[-74.17536060737828,4.2834715],"bbox":[-74.4509502,3.7300533,-73.9859033,4.8369805]},{"name":"Bogotá","other_names":{"name:es":"Bogotá","name:sk":"Bogota"},"display_name":"Bogotá, Bogotá, Distrito Capital, RAP (Especial) Central, Colombia","address":{"city_district":"Bogotá","city":"Bogotá, Distrito Capital","ISO3166-2-lvl4":"CO-DC","region":"RAP (Especial) Central","country":"Colombia","country_code":"co"},"osm_type":"relation","osm_id":7426387,"type":"administrative","location":[-74.10474763804716,4.65896865],"bbox":[-74.2235137,4.4711754,-74.0102577,4.8332542]}]}
{"name":"Bosconia","display_name":"Bosconia, Cesar, 201020, Colombia","address":{"city":"Bosconia","county":"Bosconia","state":"Cesar","ISO3166-2-lvl4":"CO-CES","postcode":"201020","country":"Colombia","country_code":"co"},"osm_type":"node","osm_id":703169918,"type":"city","location":[-73.8860998,9.9730446],"bbox":[-74.0460998,9.8130446,-73.7260998,10.1330446],"border":{"name":"Bosconia","display_name":"Bosconia, Cesar, 201020, Colombia","address":{"county":"Bosconia","state":"Cesar","ISO3166-2-lvl4":"CO-CES","postcode":"201020","country":"Colombia","country_code":"co"},"osm_type":"relation","osm_id":1423468,"type":"administrative","location":[-73.85871452915472,9.928444899999999],"bbox":[-74.0364766,9.7805616,-73.7390627,10.0762683]}}
{"name":"Bucaramanga","other_names":{"name:en":"Bucaramanga","name:mk":"Букараманга","name:ru":"Букараманга","name:uk":"Букараманґа"},"display_name":"Bucaramanga, Perímetro Urbano Bucaramanga, Metropolitana, Santander, RAP Gran Santander, Colombia","address":{"city":"Bucaramanga","state_district":"Metropolitana","state":"Santander","ISO3166-2-lvl4":"CO-SAN","region":"RAP Gran Santander","country":"Colombia","country_code":"co"},"population":581130,"osm_type":"node","osm_id":1282585464,"type":"city","location":[-73.1191168,7.1274697],"bbox":[-73.2791168,6.9674697,-72.9591168,7.2874697],"border":{"name":"Perímetro Urbano Bucaramanga","other_names":{"name:es":"Perímetro Urbano Bucaramanga","name:en":"Bucaramanga","name:mk":"Букараманга","name:ru":"Букараманга","name:uk":"Букараманґа","alt":"Bucaramanga"},"display_name":"Perímetro Urbano Bucaramanga, Metropolitana, Santander, RAP Gran Santander, Colombia","address":{"city":"Perímetro Urbano Bucaramanga","state_district":"Metropolitana","state":"Santander","ISO3166-2-lvl4":"CO-SAN","region":"RAP Gran Santander","country":"Colombia","country_code":"co"},"population":581130,"osm_type":"relation","osm_id":13473403,"type":"administrative","location":[-73.1191168,7.1274697],"bbox":[-73.17216,7.070357,-73.0922848,7.1801474]}}
{"name":"Buenaventura","other_names":{"official_name":"Distrito Especial, Industrial, Portuario, Biodiverso y Ecoturístico de Buenaventura"},"display_name":"Buenaventura, Valle del Cauca, RAP Pacífico, Colombia","address":{"city":"Buenaventura","state":"Valle del Cauca","ISO3166-2-lvl4":"CO-VAC","region":"RAP Pacífico","country":"Colombia","country_code":"co"},"population":365607,"osm_type":"node","osm_id":703168221,"type":"city","location":[-77.0738324,3.8881929],"bbox":[-77.2338324,3.7281929,-76.9138324,4.0481929],"border":{"name":"Buenaventura","other_names":{"name:es":"Buenaventura","official_name":"Distrito Especial, Industrial, Portuario, Biodiverso y Ecoturístico de Buenaventura"},"display_name":"Buenaventura, Valle del Cauca, RAP Pacífico, Colombia","address":{"city":"Buenaventura","state":"Valle del Cauca","ISO3166-2-lvl4":"CO-VAC","region":"RAP Pacífico","country":"Colombia","country_code":"co"},"population":365607,"osm_type":"relation","osm_id":1311768,"type":"administrative","location":[-77.0738324,3.8881929],"bbox":[-81.6165521,3.1079358,-76.6875315,4.2340529]}}
{"name":"Buenos Aires","other_names":{"name:es":"Buenos Aires","alt_name":"Mal Paso"},"display_name":"Buenos Aires, Sabanalarga, Occidente, Antioquia, RAP del Agua y la Montaña, Colombia","address":{"city":"Buenos Aires","county":"Sabanalarga","state_district":"Occidente","state":"Antioquia","ISO3166-2-lvl4":"CO-ANT","region":"RAP del Agua y la Montaña","country":"Colombia","country_code":"co"},"osm_type":"relation","osm_id":19068405,"type":"administrative","location":[-75.79370325438832,6.828544],"bbox":[-75.818365,6.81396,-75.776443,6.843111],"inferred_type":"city"}
{"name":"Cali","other_names":{"name:en":"Cali","name:es":"Cali","name:ko":"칼리","name:oc":"Cali","name:ro":"Cali","name:ru":"Кали","name:uk":"Калі","name:zh":"卡利","alt_name":"Santiago de Cali","name:ckb":"کالی","official_name":"Santiago de Cali"},"display_name":"Cali, Perímetro Urbano Santiago de Cali, Cali, Sur, Valle del Cauca, RAP Pacífico, Colombia","address":{"city":"Cali","state_district":"Sur","state":"Valle del Cauca","ISO3166-2-lvl4":"CO-VAC","region":"RAP Pacífico","country":"Colombia","country_code":"co"},"population":2568609,"osm_type":"node","osm_id":274021463,"type":"city","location":[-76.5325259,3.4519988],"bbox":[-76.6925259,3.2919988,-76.3725259,3.6119988],"border":[{"name":"Cali","other_names":{"name:es":"Cali","name:zh":"卡利","official_name":"Santiago de Cali","name:en":"Cali","name:ko":"칼리","name:oc":"Cali","name:ro":"Cali","name:ru":"Кали","name:uk":"Калі","alt_name":"Santiago de Cali","name:ckb":"کالی"},"display_name":"Cali, Sur, Valle del Cauca, RAP Pacífico, Colombia","address":{"city":"Cali","state_district":"Sur","state":"Valle del Cauca","ISO3166-2-lvl4":"CO-VAC","region":"RAP Pacífico","country":"Colombia","country_code":"co"},"population":2568609,"osm_type":"relation","osm_id":1320707,"type":"administrative","location":[-76.5325259,3.4519988],"bbox":[-76.7069442,3.2734085,-76.4588983,3.548577]},{"name":"Perímetro Urbano Santiago de Cali","other_names":{"name:es":"Perímetro Urbano Santiago de Cali","name:en":"Cali","name:ko":"칼리","name:oc":"Cali","name:ro":"Cali","name:ru":"Кали","name:uk":"Калі","name:zh":"卡利","alt_name":"Santiago de Cali","name:ckb":"کالی","official_name":"Santiago de Cali","alt":"Cali","alt:es":"Cali"},"display_name":"Perímetro Urbano Santiago de Cali, Cali, Sur, Valle del Cauca, RAP Pacífico, Colombia","address":{"city":"Perímetro Urbano Santiago de Cali","state_district":"Sur","state":"Valle del Cauca","ISO3166-2-lvl4":"CO-VAC","region":"RAP Pacífico","country":"Colombia","country_code":"co"},"population":2568609,"osm_type":"relation","osm_id":8811628,"type":"administrative","location":[-76.5325259,3.4519988],"bbox":[-76.5928361,3.3322025,-76.4613277,3.5062328]}]}
{"name":"Cartagena de Indias","other_names":{"name:en":"Cartagena","name:es":"Cartagena de Indias","name:fr":"Carthagène","name:hu":"Cartagena","name:mk":"Картахена","name:ru":"Картахена","name:uk":"Картахена","name:zh-Hans":"卡塔赫纳","name:zh-Hant":"卡塔赫納","official_name":"Cartagena de Indias"},"display_name":"Cartagena de Indias, Dique, Bolívar, Colombia","address":{"city":"Cartagena de Indias","state_district":"Dique","state":"Bolívar","ISO3166-2-lvl4":"CO-BOL","country":"Colombia","country_code":"co"},"population":1028736,"osm_type":"node","osm_id":266642215,"type":"city","location":[-75.5441671,10.4265566],"bbox":[-75.7041671,10.2665566,-75.3841671,10.5865566],"border":{"name":"Cartagena de Indias","other_names":{"name:es":"Cartagena de Indias","name:en":"Cartagena","name:fr":"Carthagène","name:hu":"Cartagena","name:mk":"Картахена","name:ru":"Картахена","name:uk":"Картахена","name:zh-Hans":"卡塔赫纳","name:zh-Hant":"卡塔赫納","official_name":"Cartagena de Indias"},"display_name":"Cartagena de Indias, Dique, Bolívar, Colombia","address":{"city":"Cartagena de Indias","state_district":"Dique","state":"Bolívar","ISO3166-2-lvl4":"CO-BOL","country":"Colombia","country_code":"co"},"population":1028736,"osm_type":"relation","osm_id":1343457,"type":"administrative","location":[-75.5441671,10.4265566],"bbox":[-76.1904632,9.377755,-75.2872048,10.7037837]}}
{"name":"Cartago","display_name":"Cartago, Cabecera Municipal Cartago, Cartago, Norte, Valle del Cauca, RAP Pacífico, Colombia","address":{"city":"Cartago","state_district":"Norte","state":"Valle del Cauca","ISO3166-2-lvl4":"CO-VAC","region":"RAP Pacífico","country":"Colombia","country_code":"co"},"population":135365,"osm_type":"node","osm_id":703168436,"type":"city","location":[-75.9121234,4.7465494],"bbox":[-76.0721234,4.5865494,-75.7521234,4.9065494],"border":[{"name":"Cartago","display_name":"Cartago, Norte, Valle del Cauca, RAP Pacífico, Colombia","address":{"city":"Cartago","state_district":"Norte","state":"Valle del Cauca","ISO3166-2-lvl4":"CO-VAC","region":"RAP Pacífico","country":"Colombia","country_code":"co"},"population":135365,"osm_type":"relation","osm_id":1460512,"type":"administrative","location":[-75.9121234,4.7465494],"bbox":[-76.016663,4.6129007,-75.8221187,4.8080806]},{"name":"Cabecera Municipal Cartago","other_names":{"name:es":"Cabecera Municipal Cartago","alt":"Cartago"},"display_name":"Cabecera Municipal Cartago, Cartago, Norte, Valle del Cauca, RAP Pacífico, Colombia","address":{"city":"Cabecera Municipal Cartago","state_district":"Norte","state":"Valle del Cauca","ISO3166-2-lvl4":"CO-VAC","region":"RAP Pacífico","country":"Colombia","country_code":"co"},"population":135365,"osm_type":"relation","osm_id":13305920,"type":"administrative","location":[-75.9121234,4.7465494],"bbox":[-75.9578406,4.7223476,-75.8961906,4.7733712]}]}
{"name":"Caucasia","display_name":"Caucasia, Bajo Cauca, Antioquia, RAP del Agua y la Montaña, 052410, Colombia","address":{"city":"Caucasia","county":"Caucasia","state_district":"Bajo Cauca","state":"Antioquia","ISO3166-2-lvl4":"CO-ANT","region":"RAP del Agua y la Montaña","postcode":"052410","country":"Colombia","country_code":"co"},"osm_type":"node","osm_id":703194925,"type":"city","location":[-75.1983745,7.9877579],"bbox":[-75.3583745,7.8277579,-75.0383745,8.1477579],"border":{"name":"Caucasia","display_name":"Caucasia, Bajo Cauca, Antioquia, RAP del Agua y la Montaña, 052410, Colombia","address":{"county":"Caucasia","state_district":"Bajo Cauca","state":"Antioquia","ISO3166-2-lvl4":"CO-ANT","region":"RAP del Agua y la Montaña","postcode":"052410","country":"Colombia","country_code":"co"},"osm_type":"relation","osm_id":3947350,"type":"administrative","location":[-75.0583765120943,7.8573403],"bbox":[-75.335542,7.5766002,-74.7819935,8.138113]}}
{"name":"Chía","display_name":"Chía, Casco urbano de Chía, Chía, Sabana Centro, Cundinamarca, RAP (Especial) Central, Colombia","address":{"city":"Chía","municipality":"Chía","state_district":"Sabana Centro","state":"Cundinamarca","ISO3166-2-lvl4":"CO-CUN","region":"RAP (Especial) Central","country":"Colombia","country_code":"co"},"osm_type":"node","osm_id":11177573513,"type":"city","location":[-74.0601998,4.8612776],"bbox":[-74.2201998,4.7012776,-73.9001998,5.0212776],"border":[{"name":"Chía","display_name":"Chía, Sabana Centro, Cundinamarca, RAP (Especial) Central, Colombia","address":{"municipality":"Chía","state_district":"Sabana Centro","state":"Cundinamarca","ISO3166-2-lvl4":"CO-CUN","region":"RAP (Especial) Central","country":"Colombia","country_code":"co"},"population":129652,"osm_type":"relation","osm_id":10687625,"type":"administrative","location":[-74.0306281,4.8660334],"bbox":[-74.0942989,4.8207227,-73.9813373,4.9179233]},{"name":"Casco urbano de Chía","other_names":{"name:es":"Casco urbano de Chía","alt":"Chía"},"display_name":"Casco urbano de Chía, Chía, Sabana Centro, Cundinamarca, RAP (Especial) Central, Colombia","address":{"city":"Casco urbano de Chía","municipality":"Chía","state_district":"Sabana Centro","state":"Cundinamarca","ISO3166-2-lvl4":"CO-CUN","region":"RAP (Especial) Central","country":"Colombia","country_code":"co"},"osm_type":"relation","osm_id":7081146,"type":"administrative","location":[-74.0601998,4.8612776],"bbox":[-74.0686111,4.8455641,-74.0381105,4.8731001]}]}
{"name":"Chinácota","display_name":"Chinácota, Suroriente, Norte de Santander, RAP Gran Santander, Colombia","address":{"city":"Chinácota","state_district":"Suroriente","state":"Norte de Santander","ISO3166-2-lvl4":"CO-NSA","region":"RAP Gran Santander","country":"Colombia","country_code":"co"},"osm_type":"node","osm_id":357917955,"type":"city","location":[-72.6002682,7.6084113],"bbox":[-72.7602682,7.4484113,-72.4402682,7.7684113],"border":{"name":"Chinácota","display_name":"Chinácota, Suroriente, Norte de Santander, RAP Gran Santander, Colombia","address":{"city":"Chinácota","state_district":"Suroriente","state":"Norte de Santander","ISO3166-2-lvl4":"CO-NSA","region":"RAP Gran Santander","country":"Colombia","country_code":"co"},"osm_type":"relation","osm_id":1423488,"type":"administrative","location":[-72.6002682,7.6084113],"bbox":[-72.6381615,7.4553519,-72.5207993,7.7005454]}}
{"name":"Cordillera","other_names":{"name:es":"Cordillera","alt_name":"La Cordillera"},"display_name":"Cordillera, Anzá, Occidente, Antioquia, RAP del Agua y la Montaña, Colombia","address":{"city":"Cordillera","county":"Anzá","state_district":"Occidente","state":"Antioquia","ISO3166-2-lvl4":"CO-ANT","region":"RAP del Agua y la Montaña","country":"Colombia","country_code":"co"},"osm_type":"relation","osm_id":19252044,"type":"administrative","location":[-75.93288930261636,6.2990309],"bbox":[-75.965135,6.2722477,-75.9138939,6.3258161],"inferred_type":"city"}
{"name":"Corozal","display_name":"Corozal, Sabanas, Sucre, Colombia","address":{"city":"Corozal","county":"Corozal","state_district":"Sabanas","state":"Sucre","ISO3166-2-lvl4":"CO-SUC","country":"Colombia","country_code":"co"},"osm_type":"node","osm_id":339990106,"type":"city","location":[-75.2947262,9.3192389],"bbox":[-75.4547262,9.1592389,-75.1347262,9.4792389],"border":{"name":"Corozal","display_name":"Corozal, Sabanas, Sucre, Colombia","address":{"county":"Corozal","state_district":"Sabanas","state":"Sucre","ISO3166-2-lvl4":"CO-SUC","country":"Colombia","country_code":"co"},"osm_type":"relation","osm_id":1324917,"type":"administrative","location":[-75.27619980073368,9.2045175],"bbox":[-75.3588625,9.0573099,-75.1255547,9.3520103]}}
{"name":"Cruces","other_names":{"name:es":"Cruces","alt_name":"Las Cruces"},"display_name":"Cruces, San Andrés de Cuerquia, Norte, Antioquia, RAP del Agua y la Montaña, Colombia","address":{"city":"Cruces","county":"San Andrés de Cuerquia","state_district":"Norte","state":"Antioquia","ISO3166-2-lvl4":"CO-ANT","region":"RAP del Agua y la Montaña","country":"Colombia","country_code":"co"},"osm_type":"relation","osm_id":19073017,"type":"administrative","location":[-75.61192297859564,6.900128499999999],"bbox":[-75.6736672,6.8633714,-75.5759448,6.936798],"inferred_type":"city"}
{"name":"Cúcuta","other_names":{"name:lt":"Kukuta","name:mk":"Кукута","name:ru":"Кукута","name:uk":"Кукута","name:zh":"库库塔"},"display_name":"Cúcuta, Perímetro Urbano Cúcuta, Cúcuta, Oriental, Norte de Santander, RAP Gran Santander, Colombia","address":{"city":"Cúcuta","state_district":"Oriental","state":"Norte de Santander","ISO3166-2-lvl4":"CO-NSA","region":"RAP Gran Santander","country":"Colombia","country_code":"co"},"population":777106,"osm_type":"node","osm_id":703166743,"type":"city","location":[-72.5080387,7.8971458],"bbox":[-72.6680387,7.7371458,-72.3480387,8.0571458],"border":[{"name":"Cúcuta","other_names":{"name:es":"Cúcuta","name:lt":"Kukuta","name:mk":"Кукута","name:ru":"Кукута","name:uk":"Кукута","name:zh":"库库塔"},"display_name":"Cúcuta, Oriental, Norte de Santander, RAP Gran Santander, Colombia","address":{"city":"Cúcuta","state_district":"Oriental","state":"Norte de Santander","ISO3166-2-lvl4":"CO-NSA","region":"RAP Gran Santander","country":"Colombia","country_code":"co"},"population":777106,"osm_type":"relation","osm_id":11897110,"type":"administrative","location":[-72.5080387,7.8971458],"bbox":[-72.6068339,7.7259946,-72.3453757,8.4292456]},{"name":"Perímetro Urbano Cúcuta","other_names":{"name:es":"Perímetro Urbano Cúcuta","name:lt":"Kukuta","name:mk":"Кукута","name:ru":"Кукута","name:uk":"Кукута","name:zh":"库库塔","alt":"Cúcuta"},"display_name":"Perímetro Urbano Cúcuta, Cúcuta, Oriental, Norte de Santander, RAP Gran Santander, Colombia","address":{"city":"Perímetro Urbano Cúcuta","state_district":"Oriental","state":"Norte de Santander","ISO3166-2-lvl4":"CO-NSA","region":"RAP Gran Santander","country":"Colombia","country_code":"co"},"population":777106,"osm_type":"relation","osm_id":14703120,"type":"administrative","location":[-72.5080387,7.8971458],"bbox":[-72.556976,7.8534613,-72.4567115,7.9563762]}]}
{"name":"Curumaní","display_name":"Curumaní, Cesar, Colombia","address":{"city":"Curumaní","state":"Cesar","ISO3166-2-lvl4":"CO-CES","country":"Colombia","country_code":"co"},"osm_type":"node","osm_id":358363174,"type":"city","location":[-73.5440609,9.1995316],"bbox":[-73.7040609,9.0395316,-73.3840609,9.3595316],"border":{"name":"Curumaní","display_name":"Curumaní, Cesar, Colombia","address":{"city":"Curumaní","state":"Cesar","ISO3166-2-lvl4":"CO-CES","country":"Colombia","country_code":"co"},"osm_type":"relation","osm_id":11891221,"type":"administrative","location":[-73.5440609,9.1995316],"bbox":[-73.7019588,9.0702613,-73.2698045,9.4113695]}}
{"name":"Duitama","display_name":"Duitama, Cabecera Municipal Duitama, Duitama, Tundama, Boyacá, RAP (Especial) Central, 150461, Colombia","address":{"city":"Duitama","county":"Duitama","state_district":"Tundama","state":"Boyacá","ISO3166-2-lvl4":"CO-BOY","region":"RAP (Especial) Central","postcode":"150461","country":"Colombia","country_code":"co"},"population":126670,"osm_type":"node","osm_id":587791721,"type":"city","location":[-73.0338939,5.8277055],"bbox":[-73.1938939,5.6677055,-72.8738939,5.9877055],"border":{"name":"Duitama","display_name":"Duitama, Tundama, Boyacá, RAP (Especial) Central, Colombia","address":{"county":"Duitama","state_district":"Tundama","state":"Boyacá","ISO3166-2-lvl4":"CO-BOY","region":"RAP (Especial) Central","country":"Colombia","country_code":"co"},"osm_type":"relation","osm_id":1308647,"type":"administrative","location":[-73.06913714978964,5.89734215],"bbox":[-73.1762471,5.7700693,-72.9924842,6.0249001]}}
{"name":"El Banco","display_name":"El Banco, Magdalena, Colombia","address":{"city":"El Banco","state":"Magdalena","ISO3166-2-lvl4":"CO-MAG","country":"Colombia","country_code":"co"},"population":72131,"osm_type":"node","osm_id":8109824087,"type":"city","location":[-73.9738472,9.0049173],"bbox":[-74.1338472,8.8449173,-73.8138472,9.1649173],"border":{"name":"El Banco","display_name":"El Banco, Magdalena, Colombia","address":{"city":"El Banco","state":"Magdalena","ISO3166-2-lvl4":"CO-MAG","country":"Colombia","country_code":"co"},"population":72131,"osm_type":"relation","osm_id":1423513,"type":"administrative","location":[-73.9738472,9.0049173],"bbox":[-74.1787112,8.9171083,-73.7975417,9.3511192]}}
{"name":"El Carmen de Bolívar","display_name":"El Carmen de Bolívar, Montes de María, Bolívar, Colombia","address":{"city":"El Carmen de Bolívar","state_district":"Montes de María","state":"Bolívar","ISO3166-2-lvl4":"CO-BOL","country":"Colombia","country_code":"co"},"population":76550,"osm_type":"node","osm_id":703169565,"type":"city","location":[-75.1221847,9.7169432],"bbox":[-75.2821847,9.5569432,-74.9621847,9.8769432],"border":{"name":"El Carmen de Bolívar","display_name":"El Carmen de Bolívar, Montes de María, Bolívar, Colombia","address":{"city":"El Carmen de Bolívar","state_district":"Montes de María","state":"Bolívar","ISO3166-2-lvl4":"CO-BOL","country":"Colombia","country_code":"co"},"population":76550,"osm_type":"relation","osm_id":1448419,"type":"administrative","location":[-75.1221847,9.7169432],"bbox":[-75.3825542,9.5300277,-74.9386715,9.8794868]}}
{"name":"El Jardín","other_names":{"name:es":"El Jardín","alt_name":"Buenos Aires"},"display_name":"El Jardín, San Francisco, Oriente, Antioquia, RAP del Agua y la Montaña, Colombia","address":{"city":"El Jardín","county":"San Francisco","state_district":"Oriente","state":"Antioquia","ISO3166-2-lvl4":"CO-ANT","region":"RAP del Agua y la Montaña","country":"Colombia","country_code":"co"},"osm_type":"relation","osm_id":18988374,"type":"administrative","location":[-75.0617841580895,5.930127000000001],"bbox":[-75.07352,5.9155321,-75.0519111,5.944214],"inferred_type":"city"}
{"name":"El Nudillo","other_names":{"name:es":"El Nudillo","alt_name":"Nudillo"},"display_name":"El Nudillo, Anzá, Occidente, Antioquia, RAP del Agua y la Montaña, Colombia","address":{"city":"El Nudillo","county":"Anzá","state_district":"Occidente","state":"Antioquia","ISO3166-2-lvl4":"CO-ANT","region":"RAP del Agua y la Montaña","country":"Colombia","country_code":"co"},"osm_type":"relation","osm_id":19252040,"type":"administrative","location":[-75.91368893217197,6.336861949999999],"bbox":[-75.9250358,6.330191,-75.90245,6.343629],"inferred_type":"city"}
{"name":"Florencia","other_names":{"name:ru":"Флоренсия"},"display_name":"Florencia, Perímetro Urbano Florencia, Florencia, Caquetá, RAP Amazonía, Colombia","address":{"city":"Florencia","county":"Florencia","state":"Caquetá","ISO3166-2-lvl4":"CO-CAQ","region":"RAP Amazonía","country":"Colombia","country_code":"co"},"osm_type":"node","osm_id":703166719,"type":"city","location":[-75.6143045,1.6158666],"bbox":[-75.7743045,1.4558666,-75.4543045,1.7758666],"border":[{"name":"Florencia","display_name":"Florencia, Caquetá, RAP Amazonía, Colombia","address":{"county":"Florencia","state":"Caquetá","ISO3166-2-lvl4":"CO-CAQ","region":"RAP Amazonía","country":"Colombia","country_code":"co"},"osm_type":"relation","osm_id":4079004,"type":"administrative","location":[-75.60811976268113,1.7554212],"bbox":[-75.8354409,1.3182153,-75.3412594,2.1954238]},{"name":"Perímetro Urbano Florencia","other_names":{"name:es":"Perímetro Urbano Florencia","name:ru":"Флоренсия","alt":"Florencia"},"display_name":"Perímetro Urbano Florencia, Florencia, Caquetá, RAP Amazonía, 180002, Colombia","address":{"city":"Perímetro Urbano Florencia","county":"Florencia","state":"Caquetá","ISO3166-2-lvl4":"CO-CAQ","region":"RAP Amazonía","postcode":"180002","country":"Colombia","country_code":"co"},"osm_type":"relation","osm_id":13996591,"type":"administrative","location":[-75.6143045,1.6158666],"bbox":[-75.6487334,1.5929357,-75.5756486,1.6453305]}]}
{"name":"Fundación","display_name":"Fundación, Magdalena, Colombia","address":{"city":"Fundación","county":"Fundación","state":"Magdalena","ISO3166-2-lvl4":"CO-MAG","country":"Colombia","country_code":"co"},"osm_type":"node","osm_id":703470767,"type":"city","location":[-74.1901088,10.5155669],"bbox":[-74.3501088,10.3555669,-74.0301088,10.6755669],"border":{"name":"Fundación","display_name":"Fundación, Magdalena, Colombia","address":{"county":"Fundación","state":"Magdalena","ISO3166-2-lvl4":"CO-MAG","country":"Colombia","country_code":"co"},"osm_type":"relation","osm_id":1314677,"type":"administrative","location":[-73.84120905775575,10.4593846],"bbox":[-74.2455942,10.273786,-73.5606052,10.6450416]}}
{"name":"Girardot","display_name":"Girardot, Alto Magdalena, Cundinamarca, RAP (Especial) Central, Colombia","address":{"city":"Girardot","state_district":"Alto Magdalena","state":"Cundinamarca","ISO3166-2-lvl4":"CO-CUN","region":"RAP (Especial) Central","country":"Colombia","country_code":"co"},"population":112425,"osm_type":"node","osm_id":2978290242,"type":"city","location":[-74.8030739,4.3046383],"bbox":[-74.9630739,4.1446383,-74.6430739,4.4646383],"border":{"name":"Girardot","display_name":"Girardot, Alto Magdalena, Cundinamarca, RAP (Especial) Central, Colombia","address":{"city":"Girardot","state_district":"Alto Magdalena","state":"Cundinamarca","ISO3166-2-lvl4":"CO-CUN","region":"RAP (Especial) Central","country":"Colombia","country_code":"co"},"population":112425,"osm_type":"relation","osm_id":1353143,"type":"administrative","location":[-74.8030739,4.3046383],"bbox":[-74.8905158,4.265352,-74.739114,4.4342407]}}
{"name":"Ibagué","other_names":{"name:ar":"إيباغيه","name:ko":"이바게","name:ru":"Ибаге","name:sr":"Ибаге","name:uk":"Ібаге","name:zh":"伊瓦格","name:lzh":"伊瓦格","name:sr-Latn":"Ибаге"},"display_name":"Ibagué, Centro, Tolima, RAP (Especial) Central, Colombia","address":{"city":"Ibagué","state_district":"Centro","state":"Tolima","ISO3166-2-lvl4":"CO-TOL","region":"RAP (Especial) Central","country":"Colombia","country_code":"co"},"population":530000,"osm_type":"node","osm_id":9863038666,"type":"city","location":[-75.2108857,4.4386033],"bbox":[-75.3708857,4.2786033,-75.0508857,4.5986033],"border":{"name":"Ibagué","other_names":{"name:es":"Ibagué","name:ru":"Ибаге","name:uk":"Ібаге","name:ar":"إيباغيه","name:ko":"이바게","name:sr":"Ибаге","name:zh":"伊瓦格","name:lzh":"伊瓦格","name:sr-Latn":"Ибаге"},"display_name":"Ibagué, Centro, Tolima, RAP (Especial) Central, Colombia","address":{"city":"Ibagué","state_district":"Centro","state":"Tolima","ISO3166-2-lvl4":"CO-TOL","region":"RAP (Especial) Central","country":"Colombia","country_code":"co"},"population":530000,"osm_type":"relation","osm_id":1342108,"type":"administrative","location":[-75.2108857,4.4386033],"bbox":[-75.5246959,4.2578563,-74.9667451,4.6993257]}}
{"name":"Inírida","other_names":{"old_name":"Puerto Obando"},"display_name":"Inírida, Guainía, RAP Amazonía, Colombia","address":{"city":"Inírida","state":"Guainía","ISO3166-2-lvl4":"CO-GUA","region":"RAP Amazonía","country":"Colombia","country_code":"co"},"population":26176,"osm_type":"node","osm_id":468686404,"type":"city","location":[-67.9259848,3.8650368],"bbox":[-68.0859848,3.7050368,-67.7659848,4.0250368],"border":{"name":"Inírida","other_names":{"name:es":"Inírida","old_name":"Puerto Obando"},"display_name":"Inírida, Guainía, RAP Amazonía, 940001, Colombia","address":{"city":"Inírida","state":"Guainía","ISO3166-2-lvl4":"CO-GUA","region":"RAP Amazonía","postcode":"940001","country":"Colombia","country_code":"co"},"population":26176,"osm_type":"relation","osm_id":2346720,"type":"administrative","location":[-67.9259848,3.8650368],"bbox":[-69.4255498,2.3599821,-67.5380552,4.0467853]}}
{"name":"La Florida","other_names":{"name:es":"La Florida","alt_name":"La Pola"},"display_name":"La Florida, San Rafael, Oriente, Antioquia, RAP del Agua y la Montaña, Colombia","address":{"city":"La Florida","county":"San Rafael","state_district":"Oriente","state":"Antioquia","ISO3166-2-lvl4":"CO-ANT","region":"RAP del Agua y la Montaña","country":"Colombia","country_code":"co"},"osm_type":"relation","osm_id":18993324,"type":"administrative","location":[-74.95546888729895,6.3354254999999995],"bbox":[-74.966473,6.327756,-74.944967,6.343152],"inferred_type":"city"}
{"name":"La Kuchilla","other_names":{"name:en":"Kukhu","name:es":"La Kuchilla","name:fr":"Kuchille","name:ru":"Свилеьяи","nat_name":"Centro La Cuchilla"},"display_name":"La Kuchilla, Sevilla, Nororiente, Valle del Cauca, RAP Pacífico, Colombia","address":{"city":"La Kuchilla","county":"Sevilla","state_district":"Nororiente","state":"Valle del Cauca","ISO3166-2-lvl4":"CO-VAC","region":"RAP Pacífico","country":"Colombia","country_code":"co"},"osm_type":"way","osm_id":558535009,"type":"administrative","location":[-75.93121450041298,4.358302],"bbox":[-75.9318191,4.3564138,-75.9296291,4.360245],"inferred_type":"city"}
{"name":"La Nutria","other_names":{"name:es":"La Nutria","alt_name":"Caunzales"},"display_name":"La Nutria, Aquitania, San Francisco, Oriente, Antioquia, RAP del Agua y la Montaña, Colombia","address":{"city":"La Nutria","municipality":"Aquitania","county":"San Francisco","state_district":"Oriente","state":"Antioquia","ISO3166-2-lvl4":"CO-ANT","region":"RAP del Agua y la Montaña","country":"Colombia","country_code":"co"},"osm_type":"relation","osm_id":18990983,"type":"administrative","location":[-75.04596083040232,5.846826500000001],"bbox":[-75.0751351,5.80223,-75.021742,5.8913569],"inferred_type":"city"}
{"name":"La Travesía","other_names":{"name:es":"La Travesía","alt_name":"Las Travesías"},"display_name":"La Travesía, Sabanalarga, Occidente, Antioquia, RAP del Agua y la Montaña, Colombia","address":{"city":"La Travesía","county":"Sabanalarga","state_district":"Occidente","state":"Antioquia","ISO3166-2-lvl4":"CO-ANT","region":"RAP del Agua y la Montaña","country":"Colombia","country_code":"co"},"osm_type":"relation","osm_id":19068399,"type":"administrative","location":[-75.80568319475137,6.815656499999999],"bbox":[-75.810906,6.808825,-75.799405,6.8222612],"inferred_type":"city"}
{"name":"Leticia","display_name":"Leticia, Amazonas, RAP Amazonía, Colombia","address":{"city":"Leticia","state":"Amazonas","ISO3166-2-lvl4":"CO-AMA","region":"RAP Amazonía","country":"Colombia","country_code":"co"},"population":66000,"osm_type":"node","osm_id":7985775004,"type":"city","location":[-69.9425963,-4.2129211],"bbox":[-70.1025963,-4.3729211,-69.7825963,-4.0529211],"border":{"name":"Leticia","display_name":"Leticia, Amazonas, RAP Amazonía, Colombia","address":{"city":"Leticia","state":"Amazonas","ISO3166-2-lvl4":"CO-AMA","region":"RAP Amazonía","country":"Colombia","country_code":"co"},"population":66000,"osm_type":"relation","osm_id":1335174,"type":"administrative","location":[-69.9425963,-4.2129211],"bbox":[-70.3664017,-4.2294028,-69.7140846,-3.0023611]}}
{"name":"Magangué","display_name":"Magangué, Mojana, Bolívar, Colombia","address":{"city":"Magangué","state_district":"Mojana","state":"Bolívar","ISO3166-2-lvl4":"CO-BOL","country":"Colombia","country_code":"co"},"osm_type":"node","osm_id":703169538,"type":"city","location":[-74.7567413,9.2412097],"bbox":[-74.9167413,9.0812097,-74.5967413,9.4012097],"border":{"name":"Magangué","display_name":"Magangué, Mojana, Bolívar, Colombia","address":{"city":"Magangué","state_district":"Mojana","state":"Bolívar","ISO3166-2-lvl4":"CO-BOL","country":"Colombia","country_code":"co"},"osm_type":"relation","osm_id":1326231,"type":"administrative","location":[-74.7567413,9.2412097],"bbox":[-74.9476687,8.8192442,-74.4591522,9.4656588]}}
{"name":"Majagual","display_name":"Majagual, La Mojana, Sucre, Colombia","address":{"city":"Majagual","county":"Majagual","state_district":"La Mojana","state":"Sucre","ISO3166-2-lvl4":"CO-SUC","country":"Colombia","country_code":"co"},"osm_type":"node","osm_id":703169429,"type":"city","location":[-74.6284175,8.5416242],"bbox":[-74.7884175,8.3816242,-74.4684175,8.7016242],"border":{"name":"Majagual","display_name":"Majagual, La Mojana, Sucre, Colombia","address":{"county":"Majagual","state_district":"La Mojana","state":"Sucre","ISO3166-2-lvl4":"CO-SUC","country":"Colombia","country_code":"co"},"osm_type":"relation","osm_id":1343464,"type":"administrative","location":[-74.72944564133846,8.56187075],"bbox":[-74.9281839,8.3535638,-74.562582,8.7701742]}}
{"name":"Manizales","other_names":{"name:ar":"منثاليس","name:bg":"Манисалес","name:ca":"Manizales","name:de":"Manizales","name:en":"Manizales","name:fr":"Manizales","name:gd":"Manizales","name:ja":"マニサレス","name:ko":"마니살레스","name:lt":"Manisalesas","name:ru":"Манисалес","name:uk":"Манісалес","name:zh":"马尼萨莱斯"},"display_name":"Manizales, Perímetro Urbano Manizales, Manizales, Centrosur, Caldas, RAP del Agua y la Montaña, Colombia","address":{"city":"Manizales","state_district":"Centrosur","state":"Caldas","ISO3166-2-lvl4":"CO-CAL","region":"RAP del Agua y la Montaña","country":"Colombia","country_code":"co"},"population":458442,"osm_type":"node","osm_id":284074373,"type":"city","location":[-75.5066661,5.0668907],"bbox":[-75.6666661,4.9068907,-75.3466661,5.2268907],"border":[{"name":"Manizales","other_names":{"name:ar":"منثاليس","name:ca":"Manizales","name:de":"Manizales","name:en":"Manizales","name:es":"Manizales","name:fr":"Manizales","name:ja":"マニサレス","name:ko":"마니살레스","name:lt":"Manisalesas","name:ru":"Манисалес","name:uk":"Манісалес","name:zh":"马尼萨莱斯","name:bg":"Манисалес","name:gd":"Manizales"},"display_name":"Manizales, Centrosur, Caldas, RAP del Agua y la Montaña, Colombia","address":{"city":"Manizales","state_district":"Centrosur","state":"Caldas","ISO3166-2-lvl4":"CO-CAL","region":"RAP del Agua y la Montaña","country":"Colombia","country_code":"co"},"population":420525,"osm_type":"relation","osm_id":385842,"type":"administrative","location":[-75.5066661,5.0668907],"bbox":[-75.6791982,4.9826309,-75.3294904,5.1662782]},{"name":"Perímetro Urbano Manizales","other_names":{"name:ar":"منثاليس","name:ca":"Manizales","name:de":"Manizales","name:en":"Manizales","name:es":"Perímetro Urbano Manizales","name:fr":"Manizales","name:ja":"マニサレス","name:ko":"마니살레스","name:lt":"Manisalesas","name:ru":"Манисалес","name:uk":"Манісалес","name:zh":"马尼萨莱斯","name:bg":"Манисалес","name:gd":"Manizales","alt":"Manizales"},"display_name":"Perímetro Urbano Manizales, Manizales, Centrosur, Caldas, RAP del Agua y la Montaña, Colombia","address":{"city":"Perímetro Urbano Manizales","state_district":"Centrosur","state":"Caldas","ISO3166-2-lvl4":"CO-CAL","region":"RAP del Agua y la Montaña","country":"Colombia","country_code":"co"},"population":458442,"osm_type":"relation","osm_id":406051,"type":"administrative","location":[-75.5066661,5.0668907],"bbox":[-75.5517477,5.0225297,-75.4203189,5.1048866]}]}
{"name":"Medellín","other_names":{"name:ar":"ميديلين","name:en":"Medellín","name:fa":"مدئین","name:mk":"Медељин","name:oc":"Medellín","name:pt":"Medellín","name:ru":"Медельин","name:uk":"Медельїн","name:ur":"میڈیئن","name:arz":"ميديللين","name:pnb":"میڈیلن","name:zh-Hans":"麦德林","name:zh-Hant":"麥德林"},"display_name":"Medellín, Perímetro Urbano Medellín, Medellín, Valle de Aburrá, Antioquia, RAP del Agua y la Montaña, Colombia","address":{"city":"Medellín","state_district":"Valle de Aburrá","state":"Antioquia","ISO3166-2-lvl4":"CO-ANT","region":"RAP del Agua y la Montaña","country":"Colombia","country_code":"co"},"population":2441123,"osm_type":"node","osm_id":344799743,"type":"city","location":[-75.573553,6.2443382],"bbox":[-75.733553,6.0843382,-75.413553,6.4043382],"border":[{"name":"Medellín","other_names":{"name:ar":"ميديلين","name:es":"Medellín","name:fa":"مدئین","name:ur":"میڈیئن","name:arz":"ميديللين","name:pnb":"میڈیلن","name:en":"Medellín","name:mk":"Медељин","name:oc":"Medellín","name:pt":"Medellín","name:ru":"Медельин","name:uk":"Медельїн","name:zh-Hans":"麦德林","name:zh-Hant":"麥德林"},"display_name":"Medellín, Valle de Aburrá, Antioquia, RAP del Agua y la Montaña, 0500, Colombia","address":{"city":"Medellín","state_district":"Valle de Aburrá","state":"Antioquia","ISO3166-2-lvl4":"CO-ANT","region":"RAP del Agua y la Montaña","postcode":"0500","country":"Colombia","country_code":"co"},"population":2486723,"osm_type":"relation","osm_id":1343264,"type":"administrative","location":[-75.573553,6.2443382],"bbox":[-75.7192406,6.1626165,-75.47364,6.3764208]},{"name":"Perímetro Urbano Medellín","other_names":{"name:es":"Perímetro Urbano Medellín","name:ar":"ميديلين","name:en":"Medellín","name:fa":"مدئین","name:mk":"Медељин","name:oc":"Medellín","name:pt":"Medellín","name:ru":"Медельин","name:uk":"Медельїн","name:ur":"میڈیئن","name:arz":"ميديللين","name:pnb":"میڈیلن","name:zh-Hans":"麦德林","name:zh-Hant":"麥德林","alt":"Medellín"},"display_name":"Perímetro Urbano Medellín, Medellín, Valle de Aburrá, Antioquia, RAP del Agua y la Montaña, Colombia","address":{"city":"Perímetro Urbano Medellín","state_district":"Valle de Aburrá","state":"Antioquia","ISO3166-2-lvl4":"CO-ANT","region":"RAP del Agua y la Montaña","country":"Colombia","country_code":"co"},"population":2441123,"osm_type":"relation","osm_id":3541280,"type":"administrative","location":[-75.573553,6.2443382],"bbox":[-75.6388404,6.1753173,-75.5215105,6.3128196]}]}
{"name":"Mitú","other_names":{"name:en":"Mitú","name:ru":"Миту"},"display_name":"Mitú, Vaupés, RAP Amazonía, Colombia","address":{"city":"Mitú","state":"Vaupés","ISO3166-2-lvl4":"CO-VAU","region":"RAP Amazonía","country":"Colombia","country_code":"co"},"population":28382,"osm_type":"node","osm_id":468625164,"type":"city","location":[-70.2345576,1.2538499],"bbox":[-70.3945576,1.0938499,-70.0745576,1.4138499],"border":{"name":"Mitú","other_names":{"name:es":"Mitú","name:en":"Mitú","name:ru":"Миту"},"display_name":"Mitú, Vaupés, RAP Amazonía, Colombia","address":{"city":"Mitú","state":"Vaupés","ISO3166-2-lvl4":"CO-VAU","region":"RAP Amazonía","country":"Colombia","country_code":"co"},"population":28382,"osm_type":"relation","osm_id":11382140,"type":"administrative","location":[-70.2345576,1.2538499],"bbox":[-71.1186139,0.1515983,-69.8426578,1.7910093]}}
{"name":"Montelíbano","display_name":"Montelíbano, San Jorge, Córdoba, Colombia","address":{"city":"Montelíbano","state_district":"San Jorge","state":"Córdoba","ISO3166-2-lvl4":"CO-COR","country":"Colombia","country_code":"co"},"osm_type":"node","osm_id":703169253,"type":"city","location":[-75.4167198,7.9800534],"bbox":[-75.5767198,7.8200534,-75.2567198,8.1400534],"border":{"name":"Montelíbano","display_name":"Montelíbano, San Jorge, Córdoba, Colombia","address":{"city":"Montelíbano","state_district":"San Jorge","state":"Córdoba","ISO3166-2-lvl4":"CO-COR","country":"Colombia","country_code":"co"},"osm_type":"relation","osm_id":1324946,"type":"administrative","location":[-75.4167198,7.9800534],"bbox":[-76.0574758,7.3572315,-75.3223083,8.1656915]}}
{"name":"Montería","other_names":{"name:en":"Montería","name:nl":"Montería","name:ru":"Монтерия","name:uk":"Монтерія"},"display_name":"Montería, Perímetro Urbano Montería, Centro, Córdoba, Colombia","address":{"city":"Montería","state":"Córdoba","ISO3166-2-lvl4":"CO-COR","country":"Colombia","country_code":"co"},"population":454032,"osm_type":"node","osm_id":676777722,"type":"city","location":[-75.8786806,8.7509361],"bbox":[-76.0386806,8.5909361,-75.7186806,8.9109361],"border":[{"name":"Centro","other_names":{"name:es":"Centro","name:en":"Montería","name:nl":"Montería","name:ru":"Монтерия","name:uk":"Монтерія","alt":"Montería"},"display_name":"Centro, Córdoba, Colombia","address":{"city":"Centro","state":"Córdoba","ISO3166-2-lvl4":"CO-COR","country":"Colombia","country_code":"co"},"population":454032,"osm_type":"relation","osm_id":11321767,"type":"administrative","location":[-75.8786806,8.7509361],"bbox":[-76.2788082,8.263077,-75.6694089,8.9463209]},{"name":"Montería","display_name":"Montería, Córdoba, Colombia","address":{"administrative":"Montería","state":"Córdoba","ISO3166-2-lvl4":"CO-COR","country":"Colombia","country_code":"co"},"osm_type":"relation","osm_id":1343449,"type":"administrative","location":[-75.97832027208273,8.6046053],"bbox":[-76.2788082,8.263077,-75.6694089,8.9463209]},{"name":"Perímetro Urbano Montería","other_names":{"name:es":"Perímetro Urbano Montería","name:en":"Montería","name:nl":"Montería","name:ru":"Монтерия","name:uk":"Монтерія","alt":"Montería"},"display_name":"Perímetro Urbano Montería, Centro, Córdoba, Colombia","address":{"city":"Perímetro Urbano Montería","state":"Córdoba","ISO3166-2-lvl4":"CO-COR","country":"Colombia","country_code":"co"},"population":454032,"osm_type":"relation","osm_id":14702718,"type":"administrative","location":[-75.8786806,8.7509361],"bbox":[-75.9171153,8.7127269,-75.837121,8.8117329]}]}
{"name":"Neiva","other_names":{"name:es":"Neiva","name:ru":"Нейва","name:ckb":"نیڤا"},"display_name":"Neiva, Perímetro Urbano Neiva, Neiva, Norte, Huila, RAP (Especial) Central, Colombia","address":{"city":"Neiva","state_district":"Norte","state":"Huila","ISO3166-2-lvl4":"CO-HUI","region":"RAP (Especial) Central","country":"Colombia","country_code":"co"},"osm_type":"node","osm_id":3377581135,"type":"city","location":[-75.2893937,2.9257038],"bbox":[-75.4493937,2.7657038,-75.1293937,3.0857038],"border":[{"name":"Neiva","other_names":{"name:es":"Neiva","name:ru":"Нейва","name:ckb":"نیڤا"},"display_name":"Neiva, Norte, Huila, RAP (Especial) Central, Colombia","address":{"city":"Neiva","state_district":"Norte","state":"Huila","ISO3166-2-lvl4":"CO-HUI","region":"RAP (Especial) Central","country":"Colombia","country_code":"co"},"osm_type":"relation","osm_id":1342126,"type":"administrative","location":[-75.2893937,2.9257038],"bbox":[-75.6221426,2.7830953,-74.9708167,3.2834203]},{"name":"Perímetro Urbano Neiva","other_names":{"name:es":"Perímetro Urbano Neiva","name:ru":"Нейва","name:ckb":"نیڤا","alt":"Neiva","alt:es":"Neiva"},"display_name":"Perímetro Urbano Neiva, Neiva, Norte, Huila, RAP (Especial) Central, Colombia","address":{"city":"Perímetro Urbano Neiva","state_district":"Norte","state":"Huila","ISO3166-2-lvl4":"CO-HUI","region":"RAP (Especial) Central","country":"Colombia","country_code":"co"},"osm_type":"relation","osm_id":13088575,"type":"administrative","location":[-75.2893937,2.9257038],"bbox":[-75.3092532,2.8859925,-75.2363931,2.9865551]}]}
{"name":"Norcasia","other_names":{"name:es":"Norcasia","alt_name":"7 de Agosto"},"display_name":"Norcasia, Samaná del Norte, San Carlos, Oriente, Antioquia, RAP del Agua y la Montaña, Colombia","address":{"city":"Norcasia","municipality":"Samaná del Norte","county":"San Carlos","state_district":"Oriente","state":"Antioquia","ISO3166-2-lvl4":"CO-ANT","region":"RAP del Agua y la Montaña","country":"Colombia","country_code":"co"},"osm_type":"relation","osm_id":18949595,"type":"administrative","location":[-74.81638596256563,6.15794715],"bbox":[-74.831369,6.1432643,-74.802052,6.1726863],"inferred_type":"city"}
{"name":"Ocaña","other_names":{"name:ru":"Оканья"},"display_name":"Ocaña, Occidente, Norte de Santander, RAP Gran Santander, Colombia","address":{"city":"Ocaña","state_district":"Occidente","state":"Norte de Santander","ISO3166-2-lvl4":"CO-NSA","region":"RAP Gran Santander","country":"Colombia","country_code":"co"},"osm_type":"node","osm_id":703169290,"type":"city","location":[-73.3538441,8.2351887],"bbox":[-73.5138441,8.0751887,-73.1938441,8.3951887],"border":{"name":"Ocaña","other_names":{"name:es":"Ocaña","name:ru":"Оканья"},"display_name":"Ocaña, Occidente, Norte de Santander, RAP Gran Santander, Colombia","address":{"city":"Ocaña","state_district":"Occidente","state":"Norte de Santander","ISO3166-2-lvl4":"CO-NSA","region":"RAP Gran Santander","country":"Colombia","country_code":"co"},"osm_type":"relation","osm_id":1423459,"type":"administrative","location":[-73.3538441,8.2351887],"bbox":[-73.526818,8.0124574,-73.2500289,8.4271532]}}
{"name":"Orejón","other_names":{"name:es":"Orejón","alt_name":"El Orejón"},"display_name":"Orejón, Briceño, Norte, Antioquia, RAP del Agua y la Montaña, Colombia","address":{"city":"Orejón","county":"Briceño","state_district":"Norte","state":"Antioquia","ISO3166-2-lvl4":"CO-ANT","region":"RAP del Agua y la Montaña","country":"Colombia","country_code":"co"},"osm_type":"relation","osm_id":19078837,"type":"administrative","location":[-75.65124994616241,7.0969749],"bbox":[-75.6727533,7.082316,-75.632227,7.112814],"inferred_type":"city"}
{"name":"Palmira","other_names":{"name:de":"Palmira","name:en":"Palmira","name:es":"Palmira","name:fr":"Palmira","name:it":"Palmira","name:ckb":"پالمیرا"},"display_name":"Palmira, Sur, Valle del Cauca, RAP Pacífico, Colombia","address":{"city":"Palmira","state_district":"Sur","state":"Valle del Cauca","ISO3166-2-lvl4":"CO-VAC","region":"RAP Pacífico","country":"Colombia","country_code":"co"},"osm_type":"node","osm_id":4323485991,"type":"city","location":[-76.2988048,3.5308373],"bbox":[-76.4588048,3.3708373,-76.1388048,3.6908373],"border":{"name":"Palmira","other_names":{"name:es":"Palmira","name:de":"Palmira","name:en":"Palmira","name:fr":"Palmira","name:it":"Palmira","name:ckb":"پالمیرا"},"display_name":"Palmira, Sur, Valle del Cauca, RAP Pacífico, Colombia","address":{"city":"Palmira","state_district":"Sur","state":"Valle del Cauca","ISO3166-2-lvl4":"CO-VAC","region":"RAP Pacífico","country":"Colombia","country_code":"co"},"osm_type":"relation","osm_id":1473610,"type":"administrative","location":[-76.2988048,3.5308373],"bbox":[-76.4917422,3.4516233,-75.9496665,3.7180679]}}
{"name":"Pamplona","display_name":"Pamplona, Suroccidente, Norte de Santander, RAP Gran Santander, Colombia","address":{"city":"Pamplona","state_district":"Suroccidente","state":"Norte de Santander","ISO3166-2-lvl4":"CO-NSA","region":"RAP Gran Santander","country":"Colombia","country_code":"co"},"osm_type":"node","osm_id":703170145,"type":"city","location":[-72.6482628,7.3763807],"bbox":[-72.8082628,7.2163807,-72.4882628,7.5363807],"border":{"name":"Pamplona","display_name":"Pamplona, Suroccidente, Norte de Santander, RAP Gran Santander, 543050, Colombia","address":{"city":"Pamplona","state_district":"Suroccidente","state":"Norte de Santander","ISO3166-2-lvl4":"CO-NSA","region":"RAP Gran Santander","postcode":"543050","country":"Colombia","country_code":"co"},"osm_type":"relation","osm_id":1343414,"type":"administrative","location":[-72.6482628,7.3763807],"bbox":[-72.8178159,7.2633766,-72.5370713,7.4720205]}}
{"name":"Pasto","other_names":{"name:en":"Pasto","name:es":"Pasto","name:ru":"Пасто","name:uk":"Пасто","official_name":"San Juan de Pasto"},"display_name":"Pasto, Perímetro Urbano Pasto, Pasto, Centro, Nariño, RAP Pacífico, Colombia","address":{"city":"Pasto","county":"Pasto","state_district":"Centro","state":"Nariño","ISO3166-2-lvl4":"CO-NAR","region":"RAP Pacífico","country":"Colombia","country_code":"co"},"population":392930,"osm_type":"node","osm_id":309303769,"type":"city","location":[-77.2785096,1.2140275],"bbox":[-77.4385096,1.0540275,-77.1185096,1.3740275],"border":[{"name":"Pasto","display_name":"Pasto, Centro, Nariño, RAP Pacífico, Colombia","address":{"county":"Pasto","state_district":"Centro","state":"Nariño","ISO3166-2-lvl4":"CO-NAR","region":"RAP Pacífico","country":"Colombia","country_code":"co"},"osm_type":"relation","osm_id":11323562,"type":"administrative","location":[-77.20548661797778,1.0877479],"bbox":[-77.3839143,0.8212503,-77.0265961,1.3541459]},{"name":"Perímetro Urbano Pasto","other_names":{"name:es":"Perímetro Urbano Pasto","name:en":"Pasto","name:ru":"Пасто","name:uk":"Пасто","official_name":"San Juan de Pasto","alt":"Pasto","alt:es":"Pasto"},"display_name":"Perímetro Urbano Pasto, Pasto, Centro, Nariño, RAP Pacífico, Colombia","address":{"city":"Perímetro Urbano Pasto","county":"Pasto","state_district":"Centro","state":"Nariño","ISO3166-2-lvl4":"CO-NAR","region":"RAP Pacífico","country":"Colombia","country_code":"co"},"population":392930,"osm_type":"relation","osm_id":13993673,"type":"administrative","location":[-77.2785096,1.2140275],"bbox":[-77.3112363,1.1785788,-77.2455409,1.247606]}]}
{"name":"Pereira","other_names":{"name:es":"Pereira","name:ru":"Переира"},"display_name":"Pereira, Perimetro Urbano Pereira, Pereira, Risaralda, RAP Eje Cafetero, Colombia","address":{"city":"Pereira","municipality":"Pereira","state":"Risaralda","ISO3166-2-lvl4":"CO-RIS","region":"RAP Eje Cafetero","country":"Colombia","country_code":"co"},"population":477027,"osm_type":"node","osm_id":8448168093,"type":"city","location":[-75.6946778,4.8143159],"bbox":[-75.8546778,4.6543159,-75.5346778,4.9743159],"border":[{"name":"Pereira","display_name":"Pereira, Risaralda, RAP Eje Cafetero, Colombia","address":{"municipality":"Pereira","state":"Risaralda","ISO3166-2-lvl4":"CO-RIS","region":"RAP Eje Cafetero","country":"Colombia","country_code":"co"},"osm_type":"relation","osm_id":1343043,"type":"administrative","location":[-75.7883220137654,4.7854606],"bbox":[-75.935915,4.6646424,-75.3754896,4.9062043]},{"name":"Perimetro Urbano Pereira","other_names":{"name:es":"Perimetro Urbano Pereira","name:ru":"Переира","alt":"Pereira","alt:es":"Pereira"},"display_name":"Perimetro Urbano Pereira, Pereira, Risaralda, RAP Eje Cafetero, Colombia","address":{"city":"Perimetro Urbano Pereira","municipality":"Pereira","state":"Risaralda","ISO3166-2-lvl4":"CO-RIS","region":"RAP Eje Cafetero","country":"Colombia","country_code":"co"},"population":477027,"osm_type":"relation","osm_id":7812146,"type":"administrative","location":[-75.6946778,4.8143159],"bbox":[-75.7699003,4.7821777,-75.6567821,4.8291965]}]}
{"name":"Perez Alto","other_names":{"name:es":"Perez Alto","alt_name":"PEREZ"},"display_name":"Perez Alto, Pereira, Risaralda, RAP Eje Cafetero, Colombia","address":{"city":"Perez Alto","municipality":"Pereira","state":"Risaralda","ISO3166-2-lvl4":"CO-RIS","region":"RAP Eje Cafetero","country":"Colombia","country_code":"co"},"osm_type":"way","osm_id":631693799,"type":"administrative","location":[-75.6911351344381,4.7222101],"bbox":[-75.7015179,4.7140938,-75.6826404,4.7303108],"inferred_type":"city"}
{"name":"Perez Bajo","other_names":{"name:es":"Perez Bajo","alt_name":"PEREZ"},"display_name":"Perez Bajo, Pereira, Risaralda, RAP Eje Cafetero, Colombia","address":{"city":"Perez Bajo","municipality":"Pereira","state":"Risaralda","ISO3166-2-lvl4":"CO-RIS","region":"RAP Eje Cafetero","country":"Colombia","country_code":"co"},"osm_type":"way","osm_id":631693932,"type":"administrative","location":[-75.70422170326964,4.7214846],"bbox":[-75.7109872,4.7159287,-75.6993385,4.7270385],"inferred_type":"city"}
{"name":"Pitalito","display_name":"Pitalito, Sur, Huila, RAP (Especial) Central, 417030, Colombia","address":{"city":"Pitalito","state_district":"Sur","state":"Huila","ISO3166-2-lvl4":"CO-HUI","region":"RAP (Especial) Central","postcode":"417030","country":"Colombia","country_code":"co"},"population":135711,"osm_type":"node","osm_id":703168127,"type":"city","location":[-76.0456886,1.8447122],"bbox":[-76.2056886,1.6847122,-75.8856886,2.0047122],"border":[{"name":"Pitalito","display_name":"Pitalito, Sur, Huila, RAP (Especial) Central, 417030, Colombia","address":{"city":"Pitalito","state_district":"Sur","state":"Huila","ISO3166-2-lvl4":"CO-HUI","region":"RAP (Especial) Central","postcode":"417030","country":"Colombia","country_code":"co"},"population":188000,"osm_type":"way","osm_id":380471084,"type":"city","location":[-76.06513033930491,1.8506129],"bbox":[-76.0975312,1.8297033,-76.0284287,1.870937]},{"name":"Pitalito","display_name":"Pitalito, Sur, Huila, RAP (Especial) Central, 417030, Colombia","address":{"city":"Pitalito","state_district":"Sur","state":"Huila","ISO3166-2-lvl4":"CO-HUI","region":"RAP (Especial) Central","postcode":"417030","country":"Colombia","country_code":"co"},"population":135711,"osm_type":"relation","osm_id":1342132,"type":"administrative","location":[-76.0456886,1.8447122],"bbox":[-76.3218925,1.6572436,-75.9618267,1.9766765]}]}
{"name":"Pivijay","display_name":"Pivijay, Magdalena, Colombia","address":{"city":"Pivijay","state":"Magdalena","ISO3166-2-lvl4":"CO-MAG","country":"Colombia","country_code":"co"},"osm_type":"node","osm_id":703169698,"type":"city","location":[-74.6169599,10.4654031],"bbox":[-74.7769599,10.3054031,-74.4569599,10.6254031],"border":{"name":"Pivijay","display_name":"Pivijay, Magdalena, 477050, Colombia","address":{"city":"Pivijay","state":"Magdalena","ISO3166-2-lvl4":"CO-MAG","postcode":"477050","country":"Colombia","country_code":"co"},"osm_type":"relation","osm_id":11890151,"type":"administrative","location":[-74.6169599,10.4654031],"bbox":[-74.6847975,10.2020998,-74.1787547,10.6780861]}}
{"name":"Plato","display_name":"Plato, Magdalena, Colombia","address":{"city":"Plato","state":"Magdalena","ISO3166-2-lvl4":"CO-MAG","country":"Colombia","country_code":"co"},"osm_type":"node","osm_id":347183701,"type":"city","location":[-74.7820016,9.7904163],"bbox":[-74.9420016,9.6304163,-74.6220016,9.9504163],"border":{"name":"Plato","display_name":"Plato, Magdalena, Colombia","address":{"city":"Plato","state":"Magdalena","ISO3166-2-lvl4":"CO-MAG","country":"Colombia","country_code":"co"},"osm_type":"relation","osm_id":1423479,"type":"administrative","location":[-74.7820016,9.7904163],"bbox":[-74.8368813,9.5080854,-74.4052131,10.0335819]}}
{"name":"Popayán","other_names":{"name:en":"Popayán","name:ru":"Попаян","name:uk":"Попаян"},"display_name":"Popayán, Perímetro Urbano Popayán, Popayán, Centro, Cauca, RAP Pacífico, Colombia","address":{"city":"Popayán","state_district":"Centro","state":"Cauca","ISO3166-2-lvl4":"CO-CAU","region":"RAP Pacífico","country":"Colombia","country_code":"co"},"population":318059,"osm_type":"node","osm_id":299736407,"type":"city","location":[-76.6072368,2.4422295],"bbox":[-76.7672368,2.2822295,-76.4472368,2.6022295],"border":[{"name":"Popayán","other_names":{"name:es":"Popayán","name:en":"Popayán","name:ru":"Попаян","name:uk":"Попаян"},"display_name":"Popayán, Centro, Cauca, RAP Pacífico, Colombia","address":{"city":"Popayán","state_district":"Centro","state":"Cauca","ISO3166-2-lvl4":"CO-CAU","region":"RAP Pacífico","country":"Colombia","country_code":"co"},"population":318059,"osm_type":"relation","osm_id":1706524,"type":"administrative","location":[-76.6072368,2.4422295],"bbox":[-76.773032,2.3118584,-76.3853447,2.5728993]},{"name":"Perímetro Urbano Popayán","other_names":{"name:es":"Perímetro Urbano Popayán","name:en":"Popayán","name:ru":"Попаян","name:uk":"Попаян","alt":"Popayán"},"display_name":"Perímetro Urbano Popayán, Popayán, Centro, Cauca, RAP Pacífico, Colombia","address":{"city":"Perímetro Urbano Popayán","state_district":"Centro","state":"Cauca","ISO3166-2-lvl4":"CO-CAU","region":"RAP Pacífico","country":"Colombia","country_code":"co"},"population":318059,"osm_type":"relation","osm_id":13111838,"type":"administrative","location":[-76.6072368,2.4422295],"bbox":[-76.6485077,2.4192676,-76.5525726,2.4971902]}]}
{"name":"Pueblo Nuevo","other_names":{"name:es":"Pueblo Nuevo","alt_name":"Berlín"},"display_name":"Pueblo Nuevo, Briceño, Norte, Antioquia, RAP del Agua y la Montaña, Colombia","address":{"city":"Pueblo Nuevo","county":"Briceño","state_district":"Norte","state":"Antioquia","ISO3166-2-lvl4":"CO-ANT","region":"RAP del Agua y la Montaña","country":"Colombia","country_code":"co"},"osm_type":"relation","osm_id":19078839,"type":"administrative","location":[-75.643270597048,7.0870196],"bbox":[-75.6880063,7.0281408,-75.600087,7.1458828],"inferred_type":"city"}
{"name":"Puerto Carreño","other_names":{"name:es":"Puerto Carreño","name:ru":"Пуэрто-Карреньо","old_name":"El Picacho"},"display_name":"Puerto Carreño, Vichada, RAP Llanos, Colombia","address":{"city":"Puerto Carreño","state":"Vichada","ISO3166-2-lvl4":"CO-VID","region":"RAP Llanos","country":"Colombia","country_code":"co"},"population":15753,"osm_type":"node","osm_id":310714964,"type":"city","location":[-67.4841891,6.1909225],"bbox":[-67.6441891,6.0309225,-67.3241891,6.3509225],"border":{"name":"Puerto Carreño","other_names":{"name:es":"Puerto Carreño","name:ru":"Пуэрто-Карреньо","old_name":"El Picacho"},"display_name":"Puerto Carreño, Vichada, RAP Llanos, Colombia","address":{"city":"Puerto Carreño","state":"Vichada","ISO3166-2-lvl4":"CO-VID","region":"RAP Llanos","country":"Colombia","country_code":"co"},"population":15753,"osm_type":"relation","osm_id":11319705,"type":"administrative","location":[-67.4841891,6.1909225],"bbox":[-68.8248316,5.3017926,-67.4084433,6.3287773]}}
{"name":"Quebradón","other_names":{"name:es":"Quebradón","alt_name":"20 de Julio"},"display_name":"Quebradón, Samaná del Norte, San Carlos, Oriente, Antioquia, RAP del Agua y la Montaña, Colombia","address":{"city":"Quebradón","municipality":"Samaná del Norte","county":"San Carlos","state_district":"Oriente","state":"Antioquia","ISO3166-2-lvl4":"CO-ANT","region":"RAP del Agua y la Montaña","country":"Colombia","country_code":"co"},"osm_type":"relation","osm_id":18949598,"type":"administrative","location":[-74.87058398993634,6.1427955],"bbox":[-74.886817,6.111478,-74.843223,6.174539],"inferred_type":"city"}
{"name":"Quibdó","other_names":{"official_name":"San Francisco de Quibdó"},"display_name":"Quibdó, Atrato, Chocó, RAP Pacífico, Colombia","address":{"city":"Quibdó","state_district":"Atrato","state":"Chocó","ISO3166-2-lvl4":"CO-CHO","region":"RAP Pacífico","country":"Colombia","country_code":"co"},"population":116087,"osm_type":"node","osm_id":443814800,"type":"city","location":[-76.6583801,5.6923407],"bbox":[-76.8183801,5.5323407,-76.4983801,5.8523407],"border":{"name":"Quibdó","other_names":{"name:es":"Quibdó","official_name":"San Francisco de Quibdó"},"display_name":"Quibdó, Atrato, Chocó, RAP Pacífico, Colombia","address":{"city":"Quibdó","state_district":"Atrato","state":"Chocó","ISO3166-2-lvl4":"CO-CHO","region":"RAP Pacífico","country":"Colombia","country_code":"co"},"population":116087,"osm_type":"relation","osm_id":1343138,"type":"administrative","location":[-76.6583801,5.6923407],"bbox":[-77.1427282,5.6192719,-76.1601892,6.345917]}}
{"name":"Riohacha","other_names":{"name:es":"Riohacha","name:lt":"Rioača","name:ru":"Риоача","name:guc":"Süchiimma"},"display_name":"Riohacha, La Guajira, Colombia","address":{"city":"Riohacha","state":"La Guajira","ISO3166-2-lvl4":"CO-LAG","country":"Colombia","country_code":"co"},"population":287009,"osm_type":"node","osm_id":1834139017,"type":"city","location":[-72.9150522,11.5449387],"bbox":[-73.0750522,11.3849387,-72.7550522,11.7049387],"border":[{"name":"Riohacha","other_names":{"name:es":"Riohacha","name:guc":"Süchiimma","name:lt":"Rioača","name:ru":"Риоача"},"display_name":"Riohacha, La Guajira, Colombia","address":{"city":"Riohacha","state":"La Guajira","ISO3166-2-lvl4":"CO-LAG","country":"Colombia","country_code":"co"},"population":287009,"osm_type":"relation","osm_id":1314631,"type":"administrative","location":[-72.9150522,11.5449387],"bbox":[-73.3856026,10.9107166,-72.602552,11.5613595]},{"name":"Riohacha","other_names":{"name:es":"Riohacha","name:lt":"Rioača","name:ru":"Риоача","name:guc":"Süchiimma"},"display_name":"Riohacha, La Guajira, Colombia","address":{"city":"Riohacha","state":"La Guajira","ISO3166-2-lvl4":"CO-LAG","country":"Colombia","country_code":"co"},"population":287009,"osm_type":"relation","osm_id":17551457,"type":"administrative","location":[-72.9150522,11.5449387],"bbox":[-72.9438186,11.5064866,-72.8820475,11.5601583]}]}
{"name":"Rionegro","display_name":"Rionegro, Oriente, Antioquia, RAP del Agua y la Montaña, 054040, Colombia","address":{"city":"Rionegro","county":"Rionegro","state_district":"Oriente","state":"Antioquia","ISO3166-2-lvl4":"CO-ANT","region":"RAP del Agua y la Montaña","postcode":"054040","country":"Colombia","country_code":"co"},"population":130000,"osm_type":"node","osm_id":703177370,"type":"city","location":[-75.3741691,6.1536166],"bbox":[-75.5341691,5.9936166,-75.2141691,6.3136166],"border":{"name":"Rionegro","display_name":"Rionegro, Oriente, Antioquia, RAP del Agua y la Montaña, Colombia","address":{"county":"Rionegro","state_district":"Oriente","state":"Antioquia","ISO3166-2-lvl4":"CO-ANT","region":"RAP del Agua y la Montaña","country":"Colombia","country_code":"co"},"osm_type":"relation","osm_id":3947503,"type":"administrative","location":[-75.41325129637653,6.14706375],"bbox":[-75.485857,6.0603494,-75.3220443,6.23381]}}
{"name":"San Andrés","other_names":{"name:en":"San Andrés","name:es":"San Andrés","name:hu":"San Andrés","name:ku":"San Endirês","name:ru":"Сан-Андрес","name:uk":"Сан-Андрес","name:ckb":"سان ئەندرێس"},"display_name":"San Andrés, Archipiélago de San Andrés, Providencia y Santa Catalina, 880001, Colombia","address":{"city":"San Andrés","state":"Archipiélago de San Andrés, Providencia y Santa Catalina","ISO3166-2-lvl4":"CO-SAP","postcode":"880001","country":"Colombia","country_code":"co"},"osm_type":"node","osm_id":306381625,"type":"city","location":[-81.6975682,12.5830104],"bbox":[-81.8575682,12.4230104,-81.5375682,12.7430104]}
{"name":"San Antero","display_name":"San Antero, Costanera, Córdoba, Colombia","address":{"city":"San Antero","state_district":"Costanera","state":"Córdoba","ISO3166-2-lvl4":"CO-COR","country":"Colombia","country_code":"co"},"osm_type":"node","osm_id":703169497,"type":"city","location":[-75.7595056,9.373016],"bbox":[-75.9195056,9.213016,-75.5995056,9.533016],"border":{"name":"San Antero","display_name":"San Antero, Costanera, Córdoba, Colombia","address":{"city":"San Antero","state_district":"Costanera","state":"Córdoba","ISO3166-2-lvl4":"CO-COR","country":"Colombia","country_code":"co"},"osm_type":"relation","osm_id":1343459,"type":"administrative","location":[-75.7595056,9.373016],"bbox":[-75.8750121,9.279475,-75.6870373,9.4323237]}}
{"name":"San José del Guaviare","other_names":{"name:ru":"Сан-Хосе-дель-Гуавьяре"},"display_name":"San José del Guaviare, Guaviare, RAP Amazonía, Colombia","address":{"city":"San José del Guaviare","state":"Guaviare","ISO3166-2-lvl4":"CO-GUV","region":"RAP Amazonía","country":"Colombia","country_code":"co"},"osm_type":"node","osm_id":554374965,"type":"city","location":[-72.6426515,2.5716141],"bbox":[-72.8026515,2.4116141,-72.4826515,2.7316141],"border":{"name":"San José del Guaviare","other_names":{"name:es":"San José del Guaviare","name:ru":"Сан-Хосе-дель-Гуавьяре"},"display_name":"San José del Guaviare, Guaviare, RAP Amazonía, 950001, Colombia","address":{"city":"San José del Guaviare","state":"Guaviare","ISO3166-2-lvl4":"CO-GUV","region":"RAP Amazonía","postcode":"950001","country":"Colombia","country_code":"co"},"population":68878,"osm_type":"relation","osm_id":11378346,"type":"administrative","location":[-72.6426515,2.5716141],"bbox":[-73.6570937,2.0118692,-70.5067608,2.9248366]}}
{"name":"San Marcos","display_name":"San Marcos, San Jorge, Sucre, Colombia","address":{"city":"San Marcos","state_district":"San Jorge","state":"Sucre","ISO3166-2-lvl4":"CO-SUC","country":"Colombia","country_code":"co"},"osm_type":"node","osm_id":703169425,"type":"city","location":[-75.1307644,8.6618609],"bbox":[-75.2907644,8.5018609,-74.9707644,8.8218609],"border":{"name":"San Marcos","display_name":"San Marcos, San Jorge, Sucre, Colombia","address":{"city":"San Marcos","state_district":"San Jorge","state":"Sucre","ISO3166-2-lvl4":"CO-SUC","country":"Colombia","country_code":"co"},"osm_type":"relation","osm_id":1324954,"type":"administrative","location":[-75.1307644,8.6618609],"bbox":[-75.3472499,8.3983026,-75.0132796,8.7406622]}}
{"name":"San Pedro","other_names":{"name:es":"San Pedro","alt_name":"Buenos Aires"},"display_name":"San Pedro, Aquitania, San Francisco, Oriente, Antioquia, RAP del Agua y la Montaña, Colombia","address":{"city":"San Pedro","municipality":"Aquitania","county":"San Francisco","state_district":"Oriente","state":"Antioquia","ISO3166-2-lvl4":"CO-ANT","region":"RAP del Agua y la Montaña","country":"Colombia","country_code":"co"},"osm_type":"relation","osm_id":18990970,"type":"administrative","location":[-74.97995299476582,5.8641349],"bbox":[-74.991566,5.8286418,-74.9430925,5.8998713],"inferred_type":"city"}
{"name":"Santa Cruz de Mompox","other_names":{"alt_name":"Mompox / Mompós"},"display_name":"Santa Cruz de Mompox, Isla de Mompós, Bolívar, Colombia","address":{"city":"Santa Cruz de Mompox","state_district":"Isla de Mompós","state":"Bolívar","ISO3166-2-lvl4":"CO-BOL","country":"Colombia","country_code":"co"},"population":62140,"osm_type":"node","osm_id":306366616,"type":"city","location":[-74.4251072,9.2415432],"bbox":[-74.5851072,9.0815432,-74.2651072,9.4015432],"border":{"name":"Santa Cruz de Mompox","other_names":{"name:es":"Santa Cruz de Mompox","alt_name":"Mompós","_place_alt_name":"Mompox / Mompós"},"display_name":"Santa Cruz de Mompox, Isla de Mompós, Bolívar, 132560, Colombia","address":{"city":"Santa Cruz de Mompox","state_district":"Isla de Mompós","state":"Bolívar","ISO3166-2-lvl4":"CO-BOL","postcode":"132560","country":"Colombia","country_code":"co"},"population":62140,"osm_type":"relation","osm_id":1326239,"type":"administrative","location":[-74.4251072,9.2415432],"bbox":[-74.731037,9.0184126,-74.3497607,9.2752939]}}
{"name":"Santa Cruz","other_names":{"name:es":"Santa Cruz","alt_name":"LAGUNETA"},"display_name":"Santa Cruz, Pereira, Risaralda, RAP Eje Cafetero, Colombia","address":{"city":"Santa Cruz","municipality":"Pereira","state":"Risaralda","ISO3166-2-lvl4":"CO-RIS","region":"RAP Eje Cafetero","country":"Colombia","country_code":"co"},"osm_type":"way","osm_id":631692981,"type":"administrative","location":[-75.64445689618739,4.715985],"bbox":[-75.6792445,4.7034936,-75.6216141,4.7285203],"inferred_type":"city"}
{"name":"Santa Marta","other_names":{"name:en":"Santa Marta","name:ru":"Санта-Марта","name:uk":"Санта-Марта"},"display_name":"Santa Marta, Perímetro Urbano Santa Marta, Santa Marta, Magdalena, Colombia","address":{"city":"Santa Marta","county":"Santa Marta","state":"Magdalena","ISO3166-2-lvl4":"CO-MAG","country":"Colombia","country_code":"co"},"population":500000,"osm_type":"node","osm_id":298024011,"type":"city","location":[-74.1950916,11.2320944],"bbox":[-74.3550916,11.0720944,-74.0350916,11.3920944],"border":[{"name":"Santa Marta","display_name":"Santa Marta, Magdalena, Colombia","address":{"county":"Santa Marta","state":"Magdalena","ISO3166-2-lvl4":"CO-MAG","country":"Colombia","country_code":"co"},"population":454860,"osm_type":"relation","osm_id":1314687,"type":"administrative","location":[-73.8803519997939,11.08665565],"bbox":[-74.2418012,10.8242438,-73.5646983,11.3490458]},{"name":"Perímetro Urbano Santa Marta","other_names":{"name:es":"Perímetro Urbano Santa Marta","name:en":"Santa Marta","name:ru":"Санта-Марта","name:uk":"Санта-Марта","alt":"Santa Marta"},"display_name":"Perímetro Urbano Santa Marta, Santa Marta, Magdalena, Colombia","address":{"city":"Perímetro Urbano Santa Marta","county":"Santa Marta","state":"Magdalena","ISO3166-2-lvl4":"CO-MAG","country":"Colombia","country_code":"co"},"population":500000,"osm_type":"relation","osm_id":13994662,"type":"administrative","location":[-74.1950916,11.2320944],"bbox":[-74.2418012,11.0782894,-74.1399854,11.2592511]}]}
{"name":"Santa Rosa del Sur","display_name":"Santa Rosa del Sur, Bolívar, Colombia","address":{"city":"Santa Rosa del Sur","county":"Santa Rosa del Sur","state":"Bolívar","ISO3166-2-lvl4":"CO-BOL","country":"Colombia","country_code":"co"},"osm_type":"node","osm_id":703169292,"type":"city","location":[-74.0506379,7.9635222],"bbox":[-74.2106379,7.8035222,-73.8906379,8.1235222],"border":{"name":"Santa Rosa del Sur","display_name":"Santa Rosa del Sur, Bolívar, Colombia","address":{"county":"Santa Rosa del Sur","state":"Bolívar","ISO3166-2-lvl4":"CO-BOL","country":"Colombia","country_code":"co"},"osm_type":"relation","osm_id":1335168,"type":"administrative","location":[-74.30187743755698,7.760892699999999],"bbox":[-74.5703833,7.3429588,-73.9791507,8.1788081]}}
{"name":"Santiago de Tolú","other_names":{"short_name":"Tolú"},"display_name":"Santiago de Tolú, Tolú, Morrosquillo, Sucre, Colombia","address":{"city":"Santiago de Tolú","state_district":"Morrosquillo","state":"Sucre","ISO3166-2-lvl4":"CO-SUC","country":"Colombia","country_code":"co"},"osm_type":"node","osm_id":281861721,"type":"city","location":[-75.5841794,9.5241138],"bbox":[-75.7441794,9.3641138,-75.4241794,9.6841138],"border":{"name":"Tolú","other_names":{"name:es":"Tolú","short_name":"Tolú","alt":"Santiago de Tolú"},"display_name":"Tolú, Morrosquillo, Sucre, Colombia","address":{"city":"Tolú","state_district":"Morrosquillo","state":"Sucre","ISO3166-2-lvl4":"CO-SUC","country":"Colombia","country_code":"co"},"osm_type":"relation","osm_id":1343445,"type":"administrative","location":[-75.5841794,9.5241138],"bbox":[-75.6185338,9.3938604,-75.4426905,9.6669594]}}
{"name":"Sardinagrande","other_names":{"name:es":"Sardinagrande","alt_name":"Sardina Grande"},"display_name":"Sardinagrande, San Carlos, Oriente, Antioquia, RAP del Agua y la Montaña, Colombia","address":{"city":"Sardinagrande","county":"San Carlos","state_district":"Oriente","state":"Antioquia","ISO3166-2-lvl4":"CO-ANT","region":"RAP del Agua y la Montaña","country":"Colombia","country_code":"co"},"osm_type":"relation","osm_id":18954146,"type":"administrative","location":[-74.9497237293956,6.1644535000000005],"bbox":[-74.963417,6.153391,-74.936031,6.1760438],"inferred_type":"city"}
{"name":"Siara","other_names":{"name:es":"Siara","alt_name":"La Asomadera"},"display_name":"Siara, Buriticá, Occidente, Antioquia, RAP del Agua y la Montaña, Colombia","address":{"city":"Siara","county":"Buriticá","state_district":"Occidente","state":"Antioquia","ISO3166-2-lvl4":"CO-ANT","region":"RAP del Agua y la Montaña","country":"Colombia","country_code":"co"},"osm_type":"relation","osm_id":19139611,"type":"administrative","location":[-75.91745935562075,6.723050499999999],"bbox":[-75.92405,6.715993,-75.913075,6.730708],"inferred_type":"city"}
{"name":"Sincelejo","other_names":{"name:bn":"সিনসেলেহো","name:el":"Σινκελέτζο","name:en":"Sincelejo","name:es":"Sincelejo","name:gu":"સિન્કેજેલો","name:hi":"सिंकेलेहो","name:ja":"シンセレホ","name:ka":"სინსელეხო","name:kn":"ಸಿನ್ಲೆಜೊ","name:ko":"신셀레호","name:lt":"Sinselechas","name:ru":"Синселехо","name:si":"සින්සේලේජෝ","name:ta":"சின்சலேஜோ","name:uk":"Сінселехо","name:zh":"辛塞萊霍","name:zh-Hant":"辛塞萊霍"},"display_name":"Sincelejo, Montes de María, Sucre, 700020, Colombia","address":{"city":"Sincelejo","county":"Sincelejo","state_district":"Montes de María","state":"Sucre","ISO3166-2-lvl4":"CO-SUC","postcode":"700020","country":"Colombia","country_code":"co"},"population":277773,"osm_type":"node","osm_id":285481028,"type":"city","location":[-75.3926601,9.2973386],"bbox":[-75.5526601,9.1373386,-75.2326601,9.4573386],"border":{"name":"Sincelejo","display_name":"Sincelejo, Montes de María, Sucre, Colombia","address":{"county":"Sincelejo","state_district":"Montes de María","state":"Sucre","ISO3166-2-lvl4":"CO-SUC","country":"Colombia","country_code":"co"},"osm_type":"relation","osm_id":1324931,"type":"administrative","location":[-75.42832991993517,9.315429349999999],"bbox":[-75.5509557,9.2084219,-75.3259764,9.4223564]}}
{"name":"Soacha","display_name":"Soacha, Soacha ciudad, Soacha, Cundinamarca, RAP (Especial) Central, Colombia","address":{"city":"Soacha","state_district":"Soacha","state":"Cundinamarca","ISO3166-2-lvl4":"CO-CUN","region":"RAP (Especial) Central","country":"Colombia","country_code":"co"},"population":831259,"osm_type":"node","osm_id":311484945,"type":"city","location":[-74.2117781,4.5826886],"bbox":[-74.3717781,4.4226886,-74.0517781,4.7426886],"border":[{"name":"Soacha","other_names":{"name:de":"Soacha","name:en":"Soacha","name:es":"Soacha","name:fr":"Soacha","name:ja":"ソアチャ","name:pt":"Soacha","name:ru":"Соача","name:zh":"索阿查","old_name":"Suacha"},"display_name":"Soacha, Cundinamarca, RAP (Especial) Central, 25, Colombia","address":{"city":"Soacha","state_district":"Soacha","state":"Cundinamarca","ISO3166-2-lvl4":"CO-CUN","region":"RAP (Especial) Central","postcode":"25","country":"Colombia","country_code":"co"},"population":831259,"osm_type":"relation","osm_id":1413196,"type":"administrative","location":[-74.2117781,4.5826886],"bbox":[-74.3079427,4.3823232,-74.173733,4.6344346]},{"name":"Soacha ciudad","other_names":{"name:es":"Soacha ciudad","alt":"Soacha"},"display_name":"Soacha ciudad, Soacha, Cundinamarca, RAP (Especial) Central, Colombia","address":{"city":"Soacha ciudad","state_district":"Soacha","state":"Cundinamarca","ISO3166-2-lvl4":"CO-CUN","region":"RAP (Especial) Central","country":"Colombia","country_code":"co"},"population":831259,"osm_type":"relation","osm_id":13444239,"type":"administrative","location":[-74.2117781,4.5826886],"bbox":[-74.2537342,4.5354874,-74.1752947,4.6149067]}]}
{"name":"Sogamoso","display_name":"Sogamoso, Sugamuxi, Boyacá, RAP (Especial) Central, 152210, Colombia","address":{"city":"Sogamoso","county":"Sogamoso","state_district":"Sugamuxi","state":"Boyacá","ISO3166-2-lvl4":"CO-BOY","region":"RAP (Especial) Central","postcode":"152210","country":"Colombia","country_code":"co"},"population":137000,"osm_type":"node","osm_id":3481839540,"type":"city","location":[-72.9279328,5.7148307],"bbox":[-73.0879328,5.5548307,-72.7679328,5.8748307],"border":{"name":"Sogamoso","display_name":"Sogamoso, Sugamuxi, Boyacá, RAP (Especial) Central, 152210, Colombia","address":{"county":"Sogamoso","state_district":"Sugamuxi","state":"Boyacá","ISO3166-2-lvl4":"CO-BOY","region":"RAP (Especial) Central","postcode":"152210","country":"Colombia","country_code":"co"},"osm_type":"relation","osm_id":4840466,"type":"administrative","location":[-72.9089478723628,5.67604045],"bbox":[-72.9687775,5.5837832,-72.7700559,5.7681405]}}
{"name":"Tibú","display_name":"Tibú, Norte, Norte de Santander, RAP Gran Santander, Colombia","address":{"city":"Tibú","state_district":"Norte","state":"Norte de Santander","ISO3166-2-lvl4":"CO-NSA","region":"RAP Gran Santander","country":"Colombia","country_code":"co"},"osm_type":"node","osm_id":6033536727,"type":"city","location":[-72.7344612,8.6371362],"bbox":[-72.8944612,8.4771362,-72.5744612,8.7971362],"border":{"name":"Tibú","display_name":"Tibú, Norte, Norte de Santander, RAP Gran Santander, 548010, Colombia","address":{"city":"Tibú","state_district":"Norte","state":"Norte de Santander","ISO3166-2-lvl4":"CO-NSA","region":"RAP Gran Santander","postcode":"548010","country":"Colombia","country_code":"co"},"osm_type":"relation","osm_id":2884601,"type":"administrative","location":[-72.7344612,8.6371362],"bbox":[-73.0741387,8.2517985,-72.4683958,9.1405522]}}
{"name":"Tierralta","display_name":"Tierralta, Alto Sinú, Córdoba, Colombia","address":{"city":"Tierralta","state_district":"Alto Sinú","state":"Córdoba","ISO3166-2-lvl4":"CO-COR","country":"Colombia","country_code":"co"},"osm_type":"node","osm_id":600829273,"type":"city","location":[-76.0601328,8.171791],"bbox":[-76.2201328,8.011791,-75.9001328,8.331791],"border":{"name":"Tierralta","display_name":"Tierralta, Alto Sinú, Córdoba, 234501, Colombia","address":{"city":"Tierralta","state_district":"Alto Sinú","state":"Córdoba","ISO3166-2-lvl4":"CO-COR","postcode":"234501","country":"Colombia","country_code":"co"},"osm_type":"relation","osm_id":1324952,"type":"administrative","location":[-76.0601328,8.171791],"bbox":[-76.5152362,7.364624,-75.7542054,8.3300178]}}
{"name":"Tuluá","display_name":"Tuluá, Centro, Valle del Cauca, RAP Pacífico, Colombia","address":{"city":"Tuluá","state_district":"Centro","state":"Valle del Cauca","ISO3166-2-lvl4":"CO-VAC","region":"RAP Pacífico","country":"Colombia","country_code":"co"},"population":199244,"osm_type":"node","osm_id":703168249,"type":"city","location":[-76.1972779,4.0856667],"bbox":[-76.3572779,3.9256667,-76.0372779,4.2456667],"border":{"name":"Tuluá","display_name":"Tuluá, Centro, Valle del Cauca, RAP Pacífico, Colombia","address":{"city":"Tuluá","state_district":"Centro","state":"Valle del Cauca","ISO3166-2-lvl4":"CO-VAC","region":"RAP Pacífico","country":"Colombia","country_code":"co"},"population":199244,"osm_type":"relation","osm_id":1473598,"type":"administrative","location":[-76.1972779,4.0856667],"bbox":[-76.3139105,3.8888852,-75.8201554,4.1855609]}}
{"name":"Tumaco","other_names":{"name:en":"Tumaco","name:ru":"Тумако","name:uk":"Тумако"},"display_name":"Tumaco, Pacífico Sur, Nariño, RAP Pacífico, Colombia","address":{"city":"Tumaco","state_district":"Pacífico Sur","state":"Nariño","ISO3166-2-lvl4":"CO-NAR","region":"RAP Pacífico","country":"Colombia","country_code":"co"},"population":105832,"osm_type":"node","osm_id":703167829,"type":"city","location":[-78.7649814,1.8062887],"bbox":[-78.9249814,1.6462887,-78.6049814,1.9662887],"border":{"name":"Tumaco","other_names":{"name:es":"Tumaco","name:en":"Tumaco","name:ru":"Тумако","name:uk":"Тумако"},"display_name":"Tumaco, Pacífico Sur, Nariño, RAP Pacífico, Colombia","address":{"city":"Tumaco","state_district":"Pacífico Sur","state":"Nariño","ISO3166-2-lvl4":"CO-NAR","region":"RAP Pacífico","country":"Colombia","country_code":"co"},"population":105832,"osm_type":"relation","osm_id":1311750,"type":"administrative","location":[-78.7649814,1.8062887],"bbox":[-79.0106571,1.1875043,-78.2556647,2.4523563]}}
{"name":"Tunja","display_name":"Tunja, Centro, Boyacá, RAP (Especial) Central, 150001, Colombia","address":{"city":"Tunja","county":"Tunja","state_district":"Centro","state":"Boyacá","ISO3166-2-lvl4":"CO-BOY","region":"RAP (Especial) Central","postcode":"150001","country":"Colombia","country_code":"co"},"population":200000,"osm_type":"node","osm_id":5548746213,"type":"city","location":[-73.3616014,5.5324313],"bbox":[-73.5216014,5.3724313,-73.2016014,5.6924313],"border":{"name":"Tunja","display_name":"Tunja, Centro, Boyacá, RAP (Especial) Central, Colombia","address":{"county":"Tunja","state_district":"Centro","state":"Boyacá","ISO3166-2-lvl4":"CO-BOY","region":"RAP (Especial) Central","country":"Colombia","country_code":"co"},"osm_type":"relation","osm_id":1344404,"type":"administrative","location":[-73.37947549129368,5.5151038],"bbox":[-73.4471472,5.4463572,-73.3039488,5.5840849]}}
{"name":"Turbo","other_names":{"name:ru":"Турбо"},"display_name":"Turbo, Urabá, Antioquia, RAP del Agua y la Montaña, Colombia","address":{"city":"Turbo","state_district":"Urabá","state":"Antioquia","ISO3166-2-lvl4":"CO-ANT","region":"RAP del Agua y la Montaña","country":"Colombia","country_code":"co"},"population":126025,"osm_type":"node","osm_id":310197569,"type":"city","location":[-76.7289956,8.0952972],"bbox":[-76.8889956,7.9352972,-76.5689956,8.2552972],"border":{"name":"Turbo","other_names":{"name:es":"Turbo","name:ru":"Турбо"},"display_name":"Turbo, Urabá, Antioquia, RAP del Agua y la Montaña, 057868, Colombia","address":{"city":"Turbo","state_district":"Urabá","state":"Antioquia","ISO3166-2-lvl4":"CO-ANT","region":"RAP del Agua y la Montaña","postcode":"057868","country":"Colombia","country_code":"co"},"population":126025,"osm_type":"relation","osm_id":1343460,"type":"administrative","location":[-76.7289956,8.0952972],"bbox":[-77.1270869,7.3148663,-76.3941962,8.4737943]}}
{"name":"Valledupar","other_names":{"name:ru":"Вальедупар"},"display_name":"Valledupar, Perímetro Urbano Valledupar, Valledupar, Cesar, Colombia","address":{"city":"Valledupar","state":"Cesar","ISO3166-2-lvl4":"CO-CES","country":"Colombia","country_code":"co"},"population":490075,"osm_type":"node","osm_id":312257491,"type":"city","location":[-73.2529512,10.4651733],"bbox":[-73.4129512,10.3051733,-73.0929512,10.6251733],"border":{"name":"Valledupar","other_names":{"name:es":"Valledupar","name:ru":"Вальедупар"},"display_name":"Valledupar, Cesar, Colombia","address":{"city":"Valledupar","state":"Cesar","ISO3166-2-lvl4":"CO-CES","country":"Colombia","country_code":"co"},"population":490075,"osm_type":"relation","osm_id":1423509,"type":"administrative","location":[-73.2529512,10.4651733],"bbox":[-73.83836,9.818605,-73.0766077,10.8676198]}}
{"name":"Vereda California","other_names":{"name:es":"Vereda California","alt_name":"Avenida El Obrero"},"display_name":"Vereda California, Urabá, Antioquia, RAP del Agua y la Montaña, Colombia","address":{"city":"Vereda California","state_district":"Urabá","state":"Antioquia","ISO3166-2-lvl4":"CO-ANT","region":"RAP del Agua y la Montaña","country":"Colombia","country_code":"co"},"osm_type":"way","osm_id":210992793,"type":"administrative","location":[-76.67855870597981,7.9724277],"bbox":[-76.682487,7.9638376,-76.6739984,7.9815316],"inferred_type":"city"}
{"name":"Villavicencio","other_names":{"name:en":"Villavicencio","name:ru":"Вильявисенсьо","name:uk":"Віявісенсіо"},"display_name":"Villavicencio, Perímetro Urbano Villavicencio, Villavicencio, Meta, RAP (Especial) Central, Colombia","address":{"city":"Villavicencio","state_district":"Villavicencio","state":"Meta","ISO3166-2-lvl4":"CO-MET","region":"RAP (Especial) Central","country":"Colombia","country_code":"co"},"population":552010,"osm_type":"node","osm_id":703166714,"type":"city","location":[-73.6201517,4.1347644],"bbox":[-73.7801517,3.9747644,-73.4601517,4.2947644],"border":[{"name":"Villavicencio","other_names":{"name:es":"Villavicencio","name:en":"Villavicencio","name:ru":"Вильявисенсьо","name:uk":"Віявісенсіо"},"display_name":"Villavicencio, Meta, RAP (Especial) Central, Colombia","address":{"city":"Villavicencio","state_district":"Villavicencio","state":"Meta","ISO3166-2-lvl4":"CO-MET","region":"RAP (Especial) Central","country":"Colombia","country_code":"co"},"population":407977,"osm_type":"relation","osm_id":11375017,"type":"administrative","location":[-73.6201517,4.1347644],"bbox":[-73.7676148,3.9343543,-73.1656962,4.2882346]},{"name":"Perímetro Urbano Villavicencio","other_names":{"name:es":"Perímetro Urbano Villavicencio","name:en":"Villavicencio","name:ru":"Вильявисенсьо","name:uk":"Віявісенсіо","alt":"Villavicencio"},"display_name":"Perímetro Urbano Villavicencio, Villavicencio, Meta, RAP (Especial) Central, Colombia","address":{"city":"Perímetro Urbano Villavicencio","state_district":"Villavicencio","state":"Meta","ISO3166-2-lvl4":"CO-MET","region":"RAP (Especial) Central","country":"Colombia","country_code":"co"},"population":552010,"osm_type":"relation","osm_id":14699591,"type":"administrative","location":[-73.6201517,4.1347644],"bbox":[-73.7001836,4.0459535,-73.5310114,4.1693285]}]}
{"name":"Yarumal","other_names":{"name:es":"Yarumal","alt_name":"YARUMAL"},"display_name":"Yarumal, Pereira, Risaralda, RAP Eje Cafetero, Colombia","address":{"city":"Yarumal","municipality":"Pereira","state":"Risaralda","ISO3166-2-lvl4":"CO-RIS","region":"RAP Eje Cafetero","country":"Colombia","country_code":"co"},"osm_type":"way","osm_id":631693583,"type":"administrative","location":[-75.67330686789366,4.7137823],"bbox":[-75.6886968,4.6994496,-75.6505134,4.7281153],"inferred_type":"city"}
{"name":"Yopal","other_names":{"name:en":"Yopal","name:ru":"Йопаль","official_name":"El Yopal"},"display_name":"Yopal, Perímetro Urbano Yopal, Yopal, Casanare, RAP Llanos, Colombia","address":{"city":"Yopal","state":"Casanare","ISO3166-2-lvl4":"CO-CAS","region":"RAP Llanos","country":"Colombia","country_code":"co"},"population":133220,"osm_type":"node","osm_id":309872332,"type":"city","location":[-72.3936931,5.3356662],"bbox":[-72.5536931,5.1756662,-72.2336931,5.4956662],"border":[{"name":"Yopal","other_names":{"name:es":"Yopal","name:en":"Yopal","name:ru":"Йопаль","official_name":"El Yopal"},"display_name":"Yopal, Casanare, RAP Llanos, Colombia","address":{"city":"Yopal","state":"Casanare","ISO3166-2-lvl4":"CO-CAS","region":"RAP Llanos","country":"Colombia","country_code":"co"},"population":133220,"osm_type":"relation","osm_id":11313242,"type":"administrative","location":[-72.3936931,5.3356662],"bbox":[-72.5827863,4.9033517,-71.9388835,5.5710364]},{"name":"Perímetro Urbano Yopal","other_names":{"name:es":"Perímetro Urbano Yopal","name:en":"Yopal","name:ru":"Йопаль","official_name":"El Yopal","alt":"Yopal"},"display_name":"Perímetro Urbano Yopal, Yopal, Casanare, RAP Llanos, Colombia","address":{"city":"Perímetro Urbano Yopal","state":"Casanare","ISO3166-2-lvl4":"CO-CAS","region":"RAP Llanos","country":"Colombia","country_code":"co"},"population":133220,"osm_type":"relation","osm_id":13493950,"type":"administrative","location":[-72.3936931,5.3356662],"bbox":[-72.426951,5.2872417,-72.3647574,5.3565694]}]}
