{"name":"Acklins","other_names":{"name:en":"Acklins","ISO3166-2":"BS-AK"},"display_name":"Acklins, The Bahamas","address":{"city":"Acklins","ISO3166-2-lvl8":"BS-AK","country":"The Bahamas","country_code":"bs"},"osm_type":"relation","osm_id":3772879,"type":"administrative","location":[-74.06068311066909,22.4145],"bbox":[-74.507447,21.964,-73.6299336,22.867],"inferred_type":"city"}
{"name":"Berry Islands","other_names":{"name:en":"Berry Islands","ISO3166-2":"BS-BY"},"display_name":"Berry Islands, The Bahamas","address":{"city":"Berry Islands","ISO3166-2-lvl8":"BS-BY","country":"The Bahamas","country_code":"bs"},"osm_type":"relation","osm_id":3776644,"type":"administrative","location":[-77.72610063734791,25.5905],"bbox":[-78.251133,25.1465684,-77.200103,26.034],"inferred_type":"city"}
{"name":"Cat Island","other_names":{"name:en":"Cat Island","name:lt":"Katės sala","name:zh":"卡特岛","ISO3166-2":"BS-CI"},"display_name":"Cat Island, The Bahamas","address":{"city":"Cat Island","ISO3166-2-lvl8":"BS-CI","country":"The Bahamas","country_code":"bs"},"osm_type":"relation","osm_id":3776647,"type":"administrative","location":[-75.61499318805444,24.3385],"bbox":[-76.1705606,23.7812151,-75.0731709,24.896],"inferred_type":"city"}
{"name":"Central Abaco","other_names":{"name:en":"Central Abaco","ISO3166-2":"BS-CO"},"display_name":"Central Abaco, The Bahamas","address":{"city":"Central Abaco","ISO3166-2-lvl8":"BS-CO","country":"The Bahamas","country_code":"bs"},"osm_type":"relation","osm_id":3776648,"type":"administrative","location":[-77.28381175814397,26.52551055],"bbox":[-77.6226687,26.3607577,-76.9798733,26.6593838],"inferred_type":"city"}
{"name":"Central Andros","other_names":{"name:en":"Central Andros","name:lt":"Centrinis Androsas","ISO3166-2":"BS-CS"},"display_name":"Central Andros, The Bahamas","address":{"city":"Central Andros","ISO3166-2-lvl8":"BS-CS","country":"The Bahamas","country_code":"bs"},"osm_type":"relation","osm_id":3776649,"type":"administrative","location":[-77.79340769124343,24.43437495],"bbox":[-78.3492628,24.028,-77.1913177,24.7900874],"inferred_type":"city"}
{"name":"Central Eleuthera","other_names":{"name:en":"Central Eleuthera","name:lt":"Centrinė Eleutera","ISO3166-2":"BS-CE"},"display_name":"Central Eleuthera, The Bahamas","address":{"city":"Central Eleuthera","ISO3166-2-lvl8":"BS-CE","country":"The Bahamas","country_code":"bs"},"osm_type":"relation","osm_id":3776650,"type":"administrative","location":[-76.32916208585709,25.238999999999997],"bbox":[-76.8321502,24.9084357,-75.8932637,25.566],"inferred_type":"city"}
{"name":"Crooked Island and Long Cay","other_names":{"name:en":"Crooked Island and Long Cay","ISO3166-2":"BS-CK"},"display_name":"Crooked Island and Long Cay, The Bahamas","address":{"city":"Crooked Island and Long Cay","ISO3166-2-lvl8":"BS-CK","country":"The Bahamas","country_code":"bs"},"osm_type":"relation","osm_id":3775751,"type":"administrative","location":[-74.03673897499999,22.894],"bbox":[-74.5663435,22.486,-73.3842348,23.302],"inferred_type":"city"}
{"name":"East Grand Bahama","other_names":{"name:en":"East Grand Bahama","ISO3166-2":"BS-EG"},"display_name":"East Grand Bahama, The Bahamas","address":{"city":"East Grand Bahama","ISO3166-2-lvl8":"BS-EG","country":"The Bahamas","country_code":"bs"},"osm_type":"relation","osm_id":3776651,"type":"administrative","location":[-78.01345207548269,26.6772229],"bbox":[-78.6200738,26.244,-77.5144891,27.116],"inferred_type":"city"}
{"name":"Exuma","other_names":{"name:en":"Exuma","name:lt":"Eksuma","ISO3166-2":"BS-EX"},"display_name":"Exuma, The Bahamas","address":{"city":"Exuma","ISO3166-2-lvl8":"BS-EX","country":"The Bahamas","country_code":"bs"},"osm_type":"relation","osm_id":3776652,"type":"administrative","location":[-76.17990486867475,23.9685],"bbox":[-77.3345118,22.84,-75.310208,25.096494],"inferred_type":"city"}
{"name":"Freeport","other_names":{"name:en":"Freeport","name:hu":"Freeport","name:ru":"Фрипорт","name:uk":"Фріпорт"},"display_name":"Freeport, City of Freeport, The Bahamas","address":{"city":"Freeport","ISO3166-2-lvl8":"BS-FP","country":"The Bahamas","country_code":"bs"},"population":45945,"osm_type":"node","osm_id":1891921400,"type":"city","location":[-78.6953623,26.535681],"bbox":[-78.8553623,26.375681,-78.5353623,26.695681],"border":{"name":"City of Freeport","other_names":{"name:en":"City of Freeport","ISO3166-2":"BS-FP","name:hu":"Freeport","name:ru":"Фрипорт","name:uk":"Фріпорт","alt":"Freeport","alt:en":"Freeport"},"display_name":"City of Freeport, The Bahamas","address":{"city":"City of Freeport","ISO3166-2-lvl8":"BS-FP","country":"The Bahamas","country_code":"bs"},"population":45945,"osm_type":"relation","osm_id":3776653,"type":"administrative","location":[-78.6953623,26.535681],"bbox":[-78.9266868,26.289,-78.3055203,26.7231863]}}
{"name":"Grand Cay","other_names":{"name:en":"Grand Cay","ISO3166-2":"BS-GC"},"display_name":"Grand Cay, The Bahamas","address":{"city":"Grand Cay","ISO3166-2-lvl8":"BS-GC","country":"The Bahamas","country_code":"bs"},"osm_type":"relation","osm_id":3776654,"type":"administrative","location":[-78.22069415143268,27.1435],"bbox":[-78.6455759,26.8086437,-77.7750564,27.4734551],"inferred_type":"city"}
{"name":"Harbour Island","other_names":{"name:en":"Harbour Island","ISO3166-2":"BS-HI"},"display_name":"Harbour Island, The Bahamas","address":{"city":"Harbour Island","ISO3166-2-lvl8":"BS-HI","country":"The Bahamas","country_code":"bs"},"osm_type":"relation","osm_id":3776655,"type":"administrative","location":[-76.63072963356036,25.501420850000002],"bbox":[-76.6555378,25.4735853,-76.6065935,25.5245325],"inferred_type":"city"}
{"name":"Inagua","other_names":{"name:en":"Inagua","ISO3166-2":"BS-IN"},"display_name":"Inagua, The Bahamas","address":{"city":"Inagua","ISO3166-2-lvl8":"BS-IN","country":"The Bahamas","country_code":"bs"},"osm_type":"relation","osm_id":3775740,"type":"administrative","location":[-73.30962128736624,21.2325],"bbox":[-73.9166557,20.7059846,-72.6928992,21.761],"inferred_type":"city"}
{"name":"Long Island","other_names":{"name:en":"Long Island","ISO3166-2":"BS-LI"},"display_name":"Long Island, The Bahamas","address":{"city":"Long Island","ISO3166-2-lvl8":"BS-LI","country":"The Bahamas","country_code":"bs"},"osm_type":"relation","osm_id":3776657,"type":"administrative","location":[-75.10587821212229,23.303],"bbox":[-75.6220299,22.651,-74.6100682,23.9606597],"inferred_type":"city"}
{"name":"Mangrove Cay","other_names":{"name:en":"Mangrove Cay","name:lt":"Mangrovės rifas","ISO3166-2":"BS-MC"},"display_name":"Mangrove Cay, The Bahamas","address":{"city":"Mangrove Cay","ISO3166-2-lvl8":"BS-MC","country":"The Bahamas","country_code":"bs"},"osm_type":"relation","osm_id":3776658,"type":"administrative","location":[-77.7176144625749,24.218820450000003],"bbox":[-78.144171,23.907,-77.1430576,24.5253566],"inferred_type":"city"}
{"name":"Mayaguana","other_names":{"name:en":"Mayaguana","ISO3166-2":"BS-MG"},"display_name":"Mayaguana, The Bahamas","address":{"city":"Mayaguana","ISO3166-2-lvl8":"BS-MG","country":"The Bahamas","country_code":"bs"},"osm_type":"relation","osm_id":3775742,"type":"administrative","location":[-73.40247439633593,22.56209305],"bbox":[-73.8304167,22.1993091,-72.5794998,22.756],"inferred_type":"city"}
{"name":"Moore's Island","other_names":{"name:en":"Moore's Island","ISO3166-2":"BS-MI"},"display_name":"Moore's Island, The Bahamas","address":{"city":"Moore's Island","ISO3166-2-lvl8":"BS-MI","country":"The Bahamas","country_code":"bs"},"osm_type":"relation","osm_id":3776659,"type":"administrative","location":[-77.61834261067159,26.26603095],"bbox":[-77.8823902,26.108,-77.3691228,26.4342978],"inferred_type":"city"}
{"name":"Nassau","other_names":{"name:am":"ናሶ","name:ar":"ناساو","name:be":"Насау","name:bg":"Насау","name:bo":"ན་སའོ།","name:br":"Nassau","name:ca":"Nassau","name:ce":"Нассау","name:de":"Nassau","name:el":"Νασσάου","name:en":"Nassau","name:eo":"Nasaŭo","name:es":"Nasáu","name:fa":"ناسائو","name:fr":"Nassau","name:he":"נסאו","name:ht":"Naso","name:hu":"Nassau","name:hy":"Նասաու","name:is":"Nassá","name:ja":"ナッソー","name:ka":"ნასაუ","name:ko":"나소","name:lt":"Nasau","name:lv":"Naso","name:mk":"Насау","name:ml":"നാസോ","name:mr":"नासाउ","name:nn":"Nassau","name:oc":"Nassau","name:os":"Нассау","name:pl":"Nassau","name:ru":"Нассау","name:sr":"Насау","name:sv":"Nassau","name:ta":"நாசோ","name:th":"แนสซอ","name:uk":"Нассау","name:ur":"نساؤ","name:zh":"拿骚","name:ckb":"ناساو","name:grc":"Νασσαῦον","name:sah":"Нассау","name:be-tarask":"Насаў"},"display_name":"Nassau, New Providence, The Bahamas","address":{"city":"Nassau","ISO3166-2-lvl8":"BS-NP","country":"The Bahamas","country_code":"bs"},"population":259300,"osm_type":"node","osm_id":115664268,"type":"city","location":[-77.3383438,25.0782266],"bbox":[-77.4983438,24.9182266,-77.1783438,25.2382266]}
{"name":"New Providence","other_names":{"name:en":"New Providence","name:lt":"Naujasis Providensas","ISO3166-2":"BS-NP"},"display_name":"New Providence, The Bahamas","address":{"city":"New Providence","ISO3166-2-lvl8":"BS-NP","country":"The Bahamas","country_code":"bs"},"osm_type":"relation","osm_id":3776660,"type":"administrative","location":[-77.29532966890318,25.1943588],"bbox":[-77.7741974,24.7900874,-76.8321502,25.5590369],"inferred_type":"city"}
{"name":"North Abaco","other_names":{"name:en":"North Abaco","ISO3166-2":"BS-NO"},"display_name":"North Abaco, The Bahamas","address":{"city":"North Abaco","ISO3166-2-lvl8":"BS-NO","country":"The Bahamas","country_code":"bs"},"osm_type":"relation","osm_id":3776661,"type":"administrative","location":[-77.68382209594239,26.93839435],"bbox":[-78.207198,26.6551692,-77.1787992,27.2494271],"inferred_type":"city"}
{"name":"North Andros","other_names":{"name:en":"North Andros","name:lt":"Šiaurės Androsas","ISO3166-2":"BS-NS"},"display_name":"North Andros, The Bahamas","address":{"city":"North Andros","ISO3166-2-lvl8":"BS-NS","country":"The Bahamas","country_code":"bs"},"osm_type":"relation","osm_id":3776662,"type":"administrative","location":[-78.08116191638643,24.8875],"bbox":[-78.7470343,24.269,-77.3345118,25.506],"inferred_type":"city"}
{"name":"North Eleuthera","other_names":{"name:en":"North Eleuthera","name:lt":"Šiaurės Eleutera","ISO3166-2":"BS-NE"},"display_name":"North Eleuthera, The Bahamas","address":{"city":"North Eleuthera","ISO3166-2-lvl8":"BS-NE","country":"The Bahamas","country_code":"bs"},"osm_type":"relation","osm_id":3776663,"type":"administrative","location":[-76.78426554397748,25.377669400000002],"bbox":[-76.9806846,25.096494,-76.4150119,25.762],"inferred_type":"city"}
{"name":"Ragged Island","other_names":{"name:en":"Ragged Island","ISO3166-2":"BS-RI"},"display_name":"Ragged Island, The Bahamas","address":{"city":"Ragged Island","ISO3166-2-lvl8":"BS-RI","country":"The Bahamas","country_code":"bs"},"osm_type":"relation","osm_id":3776664,"type":"administrative","location":[-75.80209340633456,22.4765594],"bbox":[-76.1132639,21.9187316,-75.3749105,23.098],"inferred_type":"city"}
{"name":"Rum Cay","other_names":{"name:en":"Rum Cay","ISO3166-2":"BS-RC"},"display_name":"Rum Cay, The Bahamas","address":{"city":"Rum Cay","ISO3166-2-lvl8":"BS-RC","country":"The Bahamas","country_code":"bs"},"osm_type":"relation","osm_id":3776665,"type":"administrative","location":[-74.93268294731843,23.8263065],"bbox":[-75.2734719,23.436,-74.5737426,24.054],"inferred_type":"city"}
{"name":"San Salvador","other_names":{"name:en":"San Salvador","ISO3166-2":"BS-SS"},"display_name":"San Salvador, The Bahamas","address":{"city":"San Salvador","ISO3166-2-lvl8":"BS-SS","country":"The Bahamas","country_code":"bs"},"osm_type":"relation","osm_id":3776666,"type":"administrative","location":[-74.49001670000001,24.032],"bbox":[-74.789794,23.736,-74.2095782,24.33],"inferred_type":"city"}
{"name":"South Abaco","other_names":{"name:en":"South Abaco","ISO3166-2":"BS-SO"},"display_name":"South Abaco, The Bahamas","address":{"city":"South Abaco","ISO3166-2-lvl8":"BS-SO","country":"The Bahamas","country_code":"bs"},"osm_type":"relation","osm_id":3776667,"type":"administrative","location":[-77.35670725,26.003999999999998],"bbox":[-77.7910956,25.5590369,-76.7551783,26.445],"inferred_type":"city"}
{"name":"South Andros","other_names":{"name:en":"South Andros","name:lt":"Pietų Androsas","ISO3166-2":"BS-SA"},"display_name":"South Andros, The Bahamas","address":{"city":"South Andros","ISO3166-2-lvl8":"BS-SA","country":"The Bahamas","country_code":"bs"},"osm_type":"relation","osm_id":3776678,"type":"administrative","location":[-77.45654039583333,23.8985],"bbox":[-78.1051935,23.362,-76.8660794,24.4360092],"inferred_type":"city"}
{"name":"South Eleuthera","other_names":{"name:en":"South Eleuthera","name:lt":"Pietų Eleutera","ISO3166-2":"BS-SE"},"display_name":"South Eleuthera, The Bahamas","address":{"city":"South Eleuthera","ISO3166-2-lvl8":"BS-SE","country":"The Bahamas","country_code":"bs"},"osm_type":"relation","osm_id":3776668,"type":"administrative","location":[-76.29269284312099,24.73107935],"bbox":[-76.7001583,24.450927,-75.9035613,25.0423345],"inferred_type":"city"}
{"name":"Spanish Wells","other_names":{"name:en":"Spanish Wells","ISO3166-2":"BS-SW"},"display_name":"Spanish Wells, The Bahamas","address":{"city":"Spanish Wells","ISO3166-2-lvl8":"BS-SW","country":"The Bahamas","country_code":"bs"},"osm_type":"relation","osm_id":3776669,"type":"administrative","location":[-76.96062327369937,25.540233649999998],"bbox":[-77.200103,25.3215776,-76.738352,25.759],"inferred_type":"city"}
{"name":"West Grand Bahama","other_names":{"name:en":"West Grand Bahama","ISO3166-2":"BS-WG"},"display_name":"West Grand Bahama, The Bahamas","address":{"city":"West Grand Bahama","ISO3166-2-lvl8":"BS-WG","country":"The Bahamas","country_code":"bs"},"osm_type":"relation","osm_id":3776685,"type":"administrative","location":[-78.87886847803159,26.744],"bbox":[-79.2425827,26.369,-78.5072124,27.116],"inferred_type":"city"}
