{"name":"Beaumont","other_names":{"name:en":"Beaumont","name:nrf":"Bieau Mont"},"display_name":"Beaumont, St Peter, JE3 7HH, Jersey","address":{"village":"Beaumont","postcode":"JE3 7HH","country":"Jersey","country_code":"je"},"osm_type":"node","osm_id":7677889366,"type":"village","location":[-2.1592066,49.1963415],"bbox":[-2.1792066,49.1763415,-2.1392066,49.2163415]}
{"name":"Carrefour Selous","display_name":"Carrefour Selous, St Lawrence, JE3 3ES, Jersey","address":{"village":"Carrefour Selous","postcode":"JE3 3ES","country":"Jersey","country_code":"je"},"osm_type":"node","osm_id":7677889364,"type":"village","location":[-2.1456462,49.227055],"bbox":[-2.1656462,49.207055,-2.1256462,49.247055]}
{"name":"First Tower","other_names":{"name:en":"First Tower","alt_name":"Ville ès Nouaux"},"display_name":"First Tower, St Helier, JE2 3LN, Jersey","address":{"village":"First Tower","town":"St Helier","postcode":"JE2 3LN","country":"Jersey","country_code":"je"},"osm_type":"node","osm_id":7677889357,"type":"village","location":[-2.1270177,49.1947086],"bbox":[-2.1470177,49.1747086,-2.1070177,49.2147086]}
{"name":"Georgetown","display_name":"Georgetown, St Saviour, JE4 9PG, Jersey","address":{"village":"Georgetown","town":"St Saviour","postcode":"JE4 9PG","country":"Jersey","country_code":"je"},"osm_type":"node","osm_id":7677889362,"type":"village","location":[-2.0935964,49.178851],"bbox":[-2.1135964,49.158851,-2.0735964,49.198851]}
{"name":"Gorey Village","display_name":"Gorey Village, Jersey","address":{"village":"Gorey Village","country":"Jersey","country_code":"je"},"osm_type":"way","osm_id":185752974,"type":"village","location":[-2.033915968249972,49.196746000000005],"bbox":[-2.0381935,49.194413,-2.0289389,49.1989978]}
{"name":"Gorey","other_names":{"name:en":"Gorey","name:fr":"Gouray","name:nrf":"Gouôrray"},"display_name":"Gorey, Grouville, JE3 9EP, Jersey","address":{"village":"Gorey","postcode":"JE3 9EP","country":"Jersey","country_code":"je"},"osm_type":"node","osm_id":2892306356,"type":"village","location":[-2.0317647,49.1988275],"bbox":[-2.0517647,49.1788275,-2.0117647,49.2188275]}
{"name":"Grouville","other_names":{"name:en":"Grouville","name:fr":"Grouville","name:mk":"Грувил","name:nrf":"Grouville","alt_name:nrf":"Grouïlle"},"display_name":"Grouville, Jersey","address":{"village":"Grouville","country":"Jersey","country_code":"je"},"population":4866,"osm_type":"node","osm_id":2892306359,"type":"village","location":[-2.0516828,49.18404],"bbox":[-2.0716828,49.16404,-2.0316828,49.20404],"border":{"name":"Grouville","other_names":{"name:en":"Grouville","name:fr":"Grouville","name:nrf":"Grouville","official_name":"Parish of Grouville","name:mk":"Грувил","alt_name:nrf":"Grouïlle"},"display_name":"Grouville, Jersey","address":{"village":"Grouville","country":"Jersey","country_code":"je"},"population":4866,"osm_type":"relation","osm_id":9238571,"type":"administrative","location":[-2.0516828,49.18404],"bbox":[-2.1796253,48.9549273,-2.0076325,49.202742]}}
{"name":"Les Quennevais","other_names":{"name:en":"Les Quennevais","name:nrf":"Les Tchennevais"},"display_name":"Les Quennevais, St Brelade, JE3 8FA, Jersey","address":{"village":"Les Quennevais","city":"St Brelade","postcode":"JE3 8FA","country":"Jersey","country_code":"je"},"osm_type":"node","osm_id":7758286927,"type":"village","location":[-2.1981085,49.1964948],"bbox":[-2.2181085,49.1764948,-2.1781085,49.2164948]}
{"name":"Maufant","display_name":"Maufant, St Saviour, JE2 7UP, Jersey","address":{"village":"Maufant","town":"St Saviour","postcode":"JE2 7UP","country":"Jersey","country_code":"je"},"osm_type":"node","osm_id":7677889355,"type":"village","location":[-2.0632148,49.2097903],"bbox":[-2.0832148,49.1897903,-2.0432148,49.2297903]}
{"name":"Sion","display_name":"Sion, St John, JE2 4FL, Jersey","address":{"village":"Sion","postcode":"JE2 4FL","country":"Jersey","country_code":"je"},"osm_type":"node","osm_id":7677889354,"type":"village","location":[-2.1142488,49.2199767],"bbox":[-2.1342488,49.1999767,-2.0942488,49.2399767]}
{"name":"St Aubin","other_names":{"name:ar":"القديس أوبين","name:en":"St Aubin","name:fr":"Saint-Aubin","name:mk":"Сент Обен","name:nrf":"Saint Aubîn","alt_name:en":"Saint Aubin"},"display_name":"St Aubin, St Brelade, JE3 8BZ, Jersey","address":{"village":"St Aubin","city":"St Brelade","postcode":"JE3 8BZ","country":"Jersey","country_code":"je"},"osm_type":"node","osm_id":1432784186,"type":"village","location":[-2.1704668,49.1874419],"bbox":[-2.1904668,49.1674419,-2.1504668,49.2074419]}
{"name":"St Clement","other_names":{"name:en":"St Clement","name:fr":"Saint-Clément","name:mk":"Сент Клемент","name:nrf":"Saint Cliément","alt_name:en":"Saint Clement","alt_name:nrf":"St Cliément"},"display_name":"St Clement, Jersey","address":{"village":"St Clement","country":"Jersey","country_code":"je"},"population":9221,"osm_type":"node","osm_id":2892306358,"type":"village","location":[-2.0562124,49.1736373],"bbox":[-2.0762124,49.1536373,-2.0362124,49.1936373],"border":{"name":"St Clement","other_names":{"name:en":"St Clement","name:fr":"Saint-Clément","name:nrf":"Saint Cliément","alt_name:en":"Saint Clement","alt_name:nrf":"St Cliément","name:mk":"Сент Клемент"},"display_name":"St Clement, Jersey","address":{"village":"St Clement","country":"Jersey","country_code":"je"},"population":9221,"osm_type":"relation","osm_id":2832049,"type":"administrative","location":[-2.0562124,49.1736373],"bbox":[-2.0967422,49.1478693,-2.0372246,49.1805858]}}
{"name":"St John","other_names":{"name:en":"St John","name:fr":"Saint-Jean","name:ja":"セント・ジョン","name:mk":"Сент Џон","name:zh":"圣约翰","name:nrf":"Saint Jean","alt_name:en":"Saint John","alt_name:nrf":"St Jean"},"display_name":"St John, Jersey","address":{"village":"St John","country":"Jersey","country_code":"je"},"population":2911,"osm_type":"node","osm_id":12625437,"type":"village","location":[-2.1349726,49.2465535],"bbox":[-2.1549726,49.2265535,-2.1149726,49.2665535],"border":{"name":"St John","other_names":{"name:en":"St John","name:fr":"Saint-Jean","name:nrf":"St Jean","alt_name:en":"Saint John","alt_name:nrf":"Saint Jean","name:ja":"セント・ジョン","name:mk":"Сент Џон","name:zh":"圣约翰","_place_alt_name:nrf":"St Jean","alt:nrf":"Saint Jean"},"display_name":"St John, Jersey","address":{"village":"St John","country":"Jersey","country_code":"je"},"population":2911,"osm_type":"relation","osm_id":9241961,"type":"administrative","location":[-2.1349726,49.2465535],"bbox":[-2.1703126,49.2182156,-2.1081251,49.2621288]}}
{"name":"St Lawrence","other_names":{"name:ar":"القديس لورانس","name:en":"St Lawrence","name:fr":"Saint-Laurent","name:mk":"Сент Лоренс","name:nrf":"Saint Louothains","alt_name:en":"Saint Lawrence","alt_name:nrf":"St Louothains"},"display_name":"St Lawrence, Jersey","address":{"village":"St Lawrence","country":"Jersey","country_code":"je"},"population":5418,"osm_type":"node","osm_id":1432784182,"type":"village","location":[-2.1416892,49.2149124],"bbox":[-2.1616892,49.1949124,-2.1216892,49.2349124],"border":{"name":"St Lawrence","other_names":{"name:en":"Saint Lawrence","name:fr":"Saint-Laurent","name:nrf":"St Louothains","alt_name:en":"Saint Lawrence","alt_name:nrf":"Saint Louothains","name:ar":"القديس لورانس","name:mk":"Сент Лоренс","_place_alt_name:nrf":"St Louothains","alt:en":"St Lawrence","alt:nrf":"Saint Louothains"},"display_name":"St Lawrence, Jersey","address":{"village":"St Lawrence","country":"Jersey","country_code":"je"},"population":5418,"osm_type":"relation","osm_id":9241960,"type":"administrative","location":[-2.1416892,49.2149124],"bbox":[-2.1623755,49.1961489,-2.1196049,49.2364344]}}
{"name":"St Martin","other_names":{"name:en":"St Martin","name:fr":"Saint-Martin","name:mk":"Сент Мартин","name:nrf":"Saint Martîn","alt_name:en":"Saint Martin","alt_name:nrf":"St Martîn"},"display_name":"St Martin, Jersey","address":{"village":"St Martin","country":"Jersey","country_code":"je"},"osm_type":"node","osm_id":1432583071,"type":"village","location":[-2.0516314,49.2177274],"bbox":[-2.0716314,49.1977274,-2.0316314,49.2377274],"border":{"name":"St Martin","other_names":{"name:en":"St Martin","name:fr":"Saint-Martin","name:nrf":"Saint Martîn","alt_name:en":"Saint Martin","alt_name:nrf":"St Martîn","name:mk":"Сент Мартин"},"display_name":"St Martin, Jersey","address":{"village":"St Martin","country":"Jersey","country_code":"je"},"osm_type":"relation","osm_id":9239009,"type":"administrative","location":[-2.0516314,49.2177274],"bbox":[-2.0692981,49.1967141,-1.9123936,49.2991807]}}
{"name":"St Mary","other_names":{"name:cy":"Santes Fair","name:en":"St Mary","name:fr":"Sainte-Marie","name:ja":"セント・メアリー","name:mk":"Сент Мери","name:zh":"圣玛丽","name:nrf":"Sainte Mathie","alt_name:en":"Saint Mary","alt_name:nrf":"Ste Mathie"},"display_name":"St Mary, Jersey","address":{"village":"St Mary","country":"Jersey","country_code":"je"},"osm_type":"node","osm_id":12624694,"type":"village","location":[-2.1716245,49.2364029],"bbox":[-2.1916245,49.2164029,-2.1516245,49.2564029],"border":{"name":"St Mary","other_names":{"name:en":"St Mary","name:fr":"Sainte-Marie","name:nrf":"Sainte Mathie","alt_name:en":"Saint Mary","alt_name:nrf":"Ste Mathie","name:cy":"Santes Fair","name:ja":"セント・メアリー","name:mk":"Сент Мери","name:zh":"圣玛丽"},"display_name":"St Mary, Jersey","address":{"village":"St Mary","country":"Jersey","country_code":"je"},"osm_type":"relation","osm_id":9241959,"type":"administrative","location":[-2.1716245,49.2364029],"bbox":[-2.2004635,49.2225953,-2.148031,49.2538363]}}
{"name":"St Ouen","other_names":{"name:cy":"Sant Won","name:es":"San Ouen","name:fr":"Saint-Ouën","name:mk":"Сент Питер","name:zh":"圣旺","name:nrf":"Saint Ouën","alt_name:en":"Saint Ouen","alt_name:nrf":"St Ouën"},"display_name":"St Ouen, Jersey","address":{"village":"St Ouen","country":"Jersey","country_code":"je"},"osm_type":"node","osm_id":12624393,"type":"village","location":[-2.2020406,49.2335087],"bbox":[-2.2220406,49.2135087,-2.1820406,49.2535087],"border":[{"name":"Saint Ouen","display_name":"Saint Ouen, St Ouen, Jersey","address":{"village":"Saint Ouen","country":"Jersey","country_code":"je"},"osm_type":"relation","osm_id":14056189,"type":"village","location":[-2.2009137008866544,49.2336349],"bbox":[-2.2068855,49.2312975,-2.1929995,49.2359444]},{"name":"St Ouen","other_names":{"name:en":"St Ouen","name:fr":"Saint-Ouen","name:nrf":"Saint Ouën","alt_name:en":"Saint Ouen","alt_name:nrf":"St Ouën","name:cy":"Sant Won","name:es":"San Ouen","name:mk":"Сент Питер","name:zh":"圣旺","alt:fr":"Saint-Ouën"},"display_name":"St Ouen, Jersey","address":{"village":"St Ouen","country":"Jersey","country_code":"je"},"osm_type":"relation","osm_id":9241957,"type":"administrative","location":[-2.2020406,49.2335087],"bbox":[-2.254512,49.2125814,-2.180019,49.2613319]}]}
{"name":"St Peter","other_names":{"name:ar":"القديس بطرس","name:cy":"Sant Pedr","name:es":"San Pedro","name:fr":"Saint-Pierre","name:ja":"セント・ピーター","name:mk":"Сент Питер","name:ru":"Святой Петр","name:zh":"圣彼得","name:nrf":"Saint Pièrre","alt_name:en":"Saint Peter","alt_name:nrf":"St Pièrre"},"display_name":"St Peter, Jersey","address":{"village":"St Peter","country":"Jersey","country_code":"je"},"population":5003,"osm_type":"node","osm_id":1362809683,"type":"village","location":[-2.18372,49.2128288],"bbox":[-2.20372,49.1928288,-2.16372,49.2328288],"border":{"name":"St Peter","other_names":{"name:en":"St Peter","name:fr":"Saint-Pierre","name:nrf":"Saint Pièrre","alt_name:en":"Saint Peter","alt_name:nrf":"St Pièrre","name:ar":"القديس بطرس","name:cy":"Sant Pedr","name:es":"San Pedro","name:ja":"セント・ピーター","name:mk":"Сент Питер","name:ru":"Святой Петр","name:zh":"圣彼得"},"display_name":"St Peter, Jersey","address":{"village":"St Peter","country":"Jersey","country_code":"je"},"population":5003,"osm_type":"relation","osm_id":9241958,"type":"administrative","location":[-2.18372,49.2128288],"bbox":[-2.2267194,49.1953287,-2.1546239,49.2350491]}}
{"name":"Trinity","other_names":{"name:en":"Trinity","name:fr":"La Trinité","name:mk":"Тринити","name:nrf":"La Trinneté"},"display_name":"Trinity, Jersey","address":{"village":"Trinity","country":"Jersey","country_code":"je"},"osm_type":"node","osm_id":1432583068,"type":"village","location":[-2.0929268,49.234492],"bbox":[-2.1129268,49.214492,-2.0729268,49.254492],"border":{"name":"Trinity","other_names":{"name:en":"Trinity","name:fr":"La Trinité","name:nrf":"La Trinneté","name:mk":"Тринити"},"display_name":"Trinity, Jersey","address":{"village":"Trinity","country":"Jersey","country_code":"je"},"osm_type":"relation","osm_id":9239008,"type":"administrative","location":[-2.0929268,49.234492],"bbox":[-2.1146183,49.2070718,-2.0434465,49.2552262]}}
