{"name":"St Helier","other_names":{"name:ar":"ساينت هيلير","name:be":"Сент-Хеліер","name:br":"Sant-Heler","name:ca":"Saint Helier","name:en":"St Helier","name:es":"San Helerio","name:fa":"سن هلیه","name:fr":"Saint-Hélier","name:he":"סנט הלייר","name:hu":"Saint Helier","name:it":"Saint Helier","name:ka":"სენტ-ჰელიერი","name:ko":"세인트헬리어","name:lt":"Sent Helieras","name:mk":"Сент Хелиер","name:pl":"Saint Helier","name:pt":"Santo Helério","name:ro":"St. Helier","name:ru":"Сент-Хелиер","name:th":"เซนต์เฮลิเยอร์","name:tr":"Saint Helier","name:uk":"Сент-Гелієр","name:ur":"سینٹ ہیلیر","name:zh":"聖赫利爾","name:nrf":"Saint Hélyi","short_name":"St. Helier","alt_name:en":"Saint Helier","alt_name:nrf":"St Hélyi","name:zh-Hans":"圣赫利尔","name:zh-Hant":"聖赫利爾","official_name":"Parish of Saint Helier","official_name:short":"Saint Helier"},"display_name":"St Helier, Jersey","address":{"town":"St Helier","country":"Jersey","country_code":"je"},"population":32522,"osm_type":"node","osm_id":2615659256,"type":"town","location":[-2.1102277,49.1856637],"bbox":[-2.1502277,49.1456637,-2.0702277,49.2256637],"border":{"name":"St Helier","other_names":{"name:ar":"ساينت هيلير","name:be":"Сент-Хеліер","name:en":"St Helier","name:es":"San Helerio","name:fa":"سن هلیه","name:fr":"Saint-Hélier","name:he":"סנט הלייר","name:hu":"Saint Helier","name:it":"Saint Helier","name:ka":"სენტ-ჰელიერი","name:ko":"세인트헬리어","name:lt":"Sent Helieras","name:mk":"Сент Хелиер","name:pl":"Saint Helier","name:pt":"Santo Helério","name:ru":"Сент-Хелиер","name:th":"เซนต์เฮลิเยอร์","name:uk":"Сент-Гелієр","name:ur":"سینٹ ہیلیر","name:zh":"聖赫利爾","name:nrf":"Saint Hélyi","short_name":"St. Helier","alt_name:en":"Saint Helier","alt_name:nrf":"St Hélyi","name:zh-Hans":"圣赫利尔","name:zh-Hant":"聖赫利爾","official_name":"Parish of Saint Helier","name:br":"Sant-Heler","name:ca":"Saint Helier","name:ro":"St. Helier","name:tr":"Saint Helier","official_name:short":"Saint Helier"},"display_name":"St Helier, Jersey","address":{"town":"St Helier","country":"Jersey","country_code":"je"},"population":32522,"osm_type":"relation","osm_id":2371948,"type":"administrative","location":[-2.1102277,49.1856637],"bbox":[-2.136942,49.1678468,-2.0849498,49.2188866]}}
{"name":"St Saviour","other_names":{"name:en":"St Saviour","name:fr":"Saint-Sauveur","name:mk":"Сент Сејвиор","name:nrf":"Saint Saûveur","alt_name:en":"Saint Saviour","alt_name:nrf":"St Saûveur"},"display_name":"St Saviour, Jersey","address":{"town":"St Saviour","country":"Jersey","country_code":"je"},"population":13580,"osm_type":"node","osm_id":2615659255,"type":"town","location":[-2.0903183,49.1948946],"bbox":[-2.1303183,49.1548946,-2.0503183,49.2348946],"border":{"name":"St Saviour","other_names":{"name:en":"St Saviour","name:fr":"Saint-Sauveur","name:nrf":"Saint Saûveur","alt_name:en":"Saint Saviour","alt_name:nrf":"St Saûveur","name:mk":"Сент Сејвиор"},"display_name":"St Saviour, Jersey","address":{"town":"St Saviour","country":"Jersey","country_code":"je"},"population":13580,"osm_type":"relation","osm_id":2372005,"type":"administrative","location":[-2.0903183,49.1948946],"bbox":[-2.0993865,49.1762952,-2.0414394,49.2251826]}}
{"name":"St. Brelade","other_names":{"name:ar":"القديس بريليد","name:br":"Sant Branwalader","name:cy":"Sant Brelad","name:en":"St. Brelade","name:fr":"Saint-Brélade","name:ja":"セント・ブレラーデ","name:zh":"圣布雷拉德","name:nrf":"St Brélade"},"display_name":"St. Brelade, St Brelade, JE3 8FX, Jersey","address":{"town":"St. Brelade","city":"St Brelade","postcode":"JE3 8FX","country":"Jersey","country_code":"je"},"population":10568,"osm_type":"node","osm_id":8065898662,"type":"town","location":[-2.1996144,49.1930223],"bbox":[-2.2396144,49.1530223,-2.1596144,49.2330223],"border":{"name":"St Brelade","other_names":{"name:en":"St Brelade","name:fr":"Saint-Brélade","name:nrf":"Saint Brélade","alt_name:en":"Saint Brelade","alt_name:nrf":"St Brélade"},"display_name":"St Brelade, Jersey","address":{"city":"St Brelade","country":"Jersey","country_code":"je"},"osm_type":"relation","osm_id":9244226,"type":"administrative","location":[-2.201034056285811,49.185125549999995],"bbox":[-2.2513153,49.165066,-2.1596839,49.2045755]}}
