{"name":"Ambon","other_names":{"name:ar":"أمبون","name:en":"Ambon","name:ja":"アンボン","name:ru":"Амбон","name:uk":"Амбон","name:zh":"安汶"},"display_name":"Ambon, Maluku, Indonesia","address":{"city":"Ambon","state":"Maluku","ISO3166-2-lvl4":"ID-MA","region":"Maluku","ISO3166-2-lvl3":"ID-ML","country":"Indonesia","country_code":"id"},"population":275888,"osm_type":"node","osm_id":293644383,"type":"city","location":[128.178785,-3.6959434],"bbox":[128.018785,-3.8559434,128.338785,-3.5359434],"border":{"name":"Ambon","other_names":{"name:id":"Ambon","official_name":"Kota Ambon","name:ar":"أمبون","name:en":"Ambon","name:ja":"アンボン","name:ru":"Амбон","name:uk":"Амбон","name:zh":"安汶"},"display_name":"Ambon, Maluku, Indonesia","address":{"city":"Ambon","state":"Maluku","ISO3166-2-lvl4":"ID-MA","region":"Maluku","ISO3166-2-lvl3":"ID-ML","country":"Indonesia","country_code":"id"},"population":275888,"osm_type":"relation","osm_id":13262351,"type":"administrative","location":[128.178785,-3.6959434],"bbox":[128.028397,-3.7943491,128.3010918,-3.5732022]}}
{"name":"Bagan Batu","other_names":{"name:id":"Bagan Batu","name:ms":"Bagan Batu","name:ms-Arab":"باݢن باتو"},"display_name":"Bagan Batu, Bagan Sinembah, Rokan Hilir, Riau, Sumatera, Indonesia","address":{"city":"Bagan Batu","municipality":"Bagan Sinembah","county":"Rokan Hilir","state":"Riau","ISO3166-2-lvl4":"ID-RI","region":"Sumatera","ISO3166-2-lvl3":"ID-SM","country":"Indonesia","country_code":"id"},"population":72765,"osm_type":"node","osm_id":1308473049,"type":"city","location":[100.4015874,1.7046191],"bbox":[100.2415874,1.5446191,100.5615874,1.8646191]}
{"name":"Bagansiapiapi","other_names":{"name:ar":"باقانسيابيابي","name:id":"Bagan Siapi-api","name:ja":"バガンシアピアピ","name:ms":"Bagan Siapi-Api","name:uk":"Баґансіапіапі","alt_name":"Bagan Siapi-api;Bagan siapi api","name:nan":"Bā-gán","short_name":"Bagan;Baganapi","name:ms-Arab":"باݢن سي اڤي اڤي","name:zh-Hant":"峇眼亞比"},"display_name":"Bagansiapiapi, Bangko, Rokan Hilir, Riau, Sumatera, 28911, Indonesia","address":{"city":"Bagansiapiapi","municipality":"Bangko","county":"Rokan Hilir","state":"Riau","ISO3166-2-lvl4":"ID-RI","region":"Sumatera","ISO3166-2-lvl3":"ID-SM","postcode":"28911","country":"Indonesia","country_code":"id"},"population":67650,"osm_type":"node","osm_id":5909471073,"type":"city","location":[100.8076446,2.1613397],"bbox":[100.6476446,2.0013397,100.9676446,2.3213397]}
{"name":"Balikpapan","other_names":{"name:ar":"باليكبابان","name:en":"Balikpapan","name:ja":"バリクパパン","name:ru":"Баликпапан","name:uk":"Балікпапан","name:zh":"巴厘巴板"},"display_name":"Balikpapan, Kalimantan Timur, Kalimantan, Indonesia","address":{"city":"Balikpapan","state":"Kalimantan Timur","ISO3166-2-lvl4":"ID-KI","region":"Kalimantan","ISO3166-2-lvl3":"ID-KA","country":"Indonesia","country_code":"id"},"population":701066,"osm_type":"node","osm_id":2417847197,"type":"city","location":[116.8593379,-1.2398711],"bbox":[116.6993379,-1.3998711,117.0193379,-1.0798711],"border":{"name":"Balikpapan","other_names":{"name:ar":"باليكبابان","name:id":"Balikpapan","official_name":"Kota Balikpapan","name:en":"Balikpapan","name:ja":"バリクパパン","name:ru":"Баликпапан","name:uk":"Балікпапан","name:zh":"巴厘巴板"},"display_name":"Balikpapan, Kalimantan Timur, Kalimantan, Indonesia","address":{"city":"Balikpapan","state":"Kalimantan Timur","ISO3166-2-lvl4":"ID-KI","region":"Kalimantan","ISO3166-2-lvl3":"ID-KA","country":"Indonesia","country_code":"id"},"population":701066,"osm_type":"relation","osm_id":14921096,"type":"administrative","location":[116.8593379,-1.2398711],"bbox":[116.7287975,-1.2823322,117.022665,-1.013304]}}
{"name":"Banda Aceh","other_names":{"name:ar":"باندا آتشيه","name:bn":"বান্দা আচেহ","name:hi":"बंद अटॆ","name:ja":"バンダ・アチェ","name:kn":"ಬಂದ ಅಟೆ","name:ru":"Банда Ачех","name:zh":"班达亚齐","short_name":"BNA","alt_name:ar":"باندا أتشيه","official_name":"Kota Banda Aceh"},"display_name":"Banda Aceh, Aceh, Sumatera, Indonesia","address":{"city":"Banda Aceh","state":"Aceh","ISO3166-2-lvl4":"ID-AC","region":"Sumatera","ISO3166-2-lvl3":"ID-SM","country":"Indonesia","country_code":"id"},"population":223446,"osm_type":"node","osm_id":267556063,"type":"city","location":[95.3192908,5.5528455],"bbox":[95.1592908,5.3928455,95.4792908,5.7128455],"border":{"name":"Banda Aceh","other_names":{"name:bn":"বান্দা আচেহ","name:br":"Banda Aceh","name:id":"Banda Aceh","official_name":"Kota Banda Aceh","name:ar":"باندا آتشيه","name:hi":"बंद अटॆ","name:ja":"バンダ・アチェ","name:kn":"ಬಂದ ಅಟೆ","name:ru":"Банда Ачех","name:zh":"班达亚齐","short_name":"BNA","alt_name:ar":"باندا أتشيه"},"display_name":"Banda Aceh, Aceh, Sumatera, Indonesia","address":{"city":"Banda Aceh","state":"Aceh","ISO3166-2-lvl4":"ID-AC","region":"Sumatera","ISO3166-2-lvl3":"ID-SM","country":"Indonesia","country_code":"id"},"population":223446,"osm_type":"relation","osm_id":5978331,"type":"administrative","location":[95.3192908,5.5528455],"bbox":[95.2750633,5.516391,95.377772,5.6072409]}}
{"name":"Bandar Lampung","other_names":{"name:ar":"بندر لمبونق","name:en":"Bandar Lampung","name:ja":"バンダールランプン","name:lt":"Bandar Lampungas","name:ms":"Bandar Lampung","name:ru":"Бандар-Лампунг","name:uk":"Бандар-Лампунг","name:zh":"班达楠榜","alt_name":"Bandarlampung","short_name":"BDL","alt_name:ar":"بندر لامبونق;بندر لامبونج;بندرلامبونغ","alt_name:ja":"バンダール・ランプン","official_name":"Kota Bandar Lampung"},"display_name":"Bandar Lampung, Lampung, Sumatera, Indonesia","address":{"city":"Bandar Lampung","state":"Lampung","ISO3166-2-lvl4":"ID-LA","region":"Sumatera","ISO3166-2-lvl3":"ID-SM","country":"Indonesia","country_code":"id"},"population":921087,"osm_type":"node","osm_id":544519673,"type":"city","location":[105.2643742,-5.4460713],"bbox":[105.1043742,-5.6060713,105.4243742,-5.2860713],"border":{"name":"Bandar Lampung","other_names":{"name:id":"Bandar Lampung","official_name":"Kota Bandar Lampung","name:ar":"بندر لمبونق","name:en":"Bandar Lampung","name:ja":"バンダールランプン","name:lt":"Bandar Lampungas","name:ms":"Bandar Lampung","name:ru":"Бандар-Лампунг","name:uk":"Бандар-Лампунг","name:zh":"班达楠榜","alt_name":"Bandarlampung","short_name":"BDL","alt_name:ar":"بندر لامبونق;بندر لامبونج;بندرلامبونغ","alt_name:ja":"バンダール・ランプン"},"display_name":"Bandar Lampung, Lampung, Sumatera, Indonesia","address":{"city":"Bandar Lampung","state":"Lampung","ISO3166-2-lvl4":"ID-LA","region":"Sumatera","ISO3166-2-lvl3":"ID-SM","country":"Indonesia","country_code":"id"},"population":921087,"osm_type":"relation","osm_id":11007414,"type":"administrative","location":[105.2643742,-5.4460713],"bbox":[105.1784361,-5.5172236,105.3501897,-5.327031]}}
{"name":"Bandung","other_names":{"name:ar":"باندونق","name:en":"Bandung","name:id":"Bandung","name:ja":"バンドン","name:kn":"ಬಾಂದುಂಗ್","name:nl":"Bandung","name:oc":"Bandung","name:ru":"Бандунг","name:uk":"Бандунг","name:zh":"万隆","alt_name:ar":"باندونغ;باندونج","official_name":"Kota Bandung"},"display_name":"Bandung, Kota Bandung, Jawa Barat, Jawa, Indonesia","address":{"city":"Bandung","state":"Jawa Barat","ISO3166-2-lvl4":"ID-JB","region":"Jawa","ISO3166-2-lvl3":"ID-JW","country":"Indonesia","country_code":"id"},"population":2390120,"osm_type":"node","osm_id":264158895,"type":"city","location":[107.6070833,-6.9218457],"bbox":[107.4470833,-7.0818457,107.7670833,-6.7618457],"border":{"name":"Kota Bandung","other_names":{"name:en":"Bandung City","name:id":"Kota Bandung","name:su":"ᮘᮔ᮪ᮓᮥᮀ","name:zh":"万隆 / 萬隆","name:su-Latn":"Bandung","name:zh-Hans":"万隆","name:zh-Hant":"萬隆","official_name":"Kota Bandung","name:ar":"باندونق","name:ja":"バンドン","name:kn":"ಬಾಂದುಂಗ್","name:nl":"Bandung","name:oc":"Bandung","name:ru":"Бандунг","name:uk":"Бандунг","official_name:en":"Bandung City","official_name:id":"Kota Bandung","official_name:su":"ᮊᮧᮒ ᮘᮔ᮪ᮓᮥᮀ","alt_name:ar":"باندونغ;باندونج","official_name:su-Latn":"Kota Bandung","alt":"Bandung","alt:en":"Bandung","alt:id":"Bandung","alt:zh":"万隆"},"display_name":"Kota Bandung, Jawa Barat, Jawa, Indonesia","address":{"city":"Kota Bandung","state":"Jawa Barat","ISO3166-2-lvl4":"ID-JB","region":"Jawa","ISO3166-2-lvl3":"ID-JW","country":"Indonesia","country_code":"id"},"population":2390120,"osm_type":"relation","osm_id":13290062,"type":"administrative","location":[107.6070833,-6.9218457],"bbox":[107.5453618,-6.969748,107.7395207,-6.8368542]}}
{"name":"Bangil","other_names":{"name:id":"Bangil","name:ja":"バンギル","official_name":"Kecamatan Bangil"},"display_name":"Bangil, Pasuruan, Jawa Timur, Jawa, 67153, Indonesia","address":{"city":"Bangil","county":"Pasuruan","state":"Jawa Timur","ISO3166-2-lvl4":"ID-JI","region":"Jawa","ISO3166-2-lvl3":"ID-JW","postcode":"67153","country":"Indonesia","country_code":"id"},"population":120000,"osm_type":"node","osm_id":2552029646,"type":"city","location":[112.7845343,-7.5976243],"bbox":[112.6245343,-7.7576243,112.9445343,-7.4376243]}
{"name":"Bangkalan","other_names":{"name:ar":"بنقكالان","name:id":"Bangkalan","name:ja":"バンカラン","official_name":"Kecamatan Bangkalan"},"display_name":"Bangkalan, Jawa Timur, Jawa, 69116, Indonesia","address":{"city":"Bangkalan","county":"Bangkalan","state":"Jawa Timur","ISO3166-2-lvl4":"ID-JI","region":"Jawa","ISO3166-2-lvl3":"ID-JW","postcode":"69116","country":"Indonesia","country_code":"id"},"osm_type":"node","osm_id":2565923949,"type":"city","location":[112.7473329,-7.0294703],"bbox":[112.5873329,-7.1894703,112.9073329,-6.8694703]}
{"name":"Bangkinang","other_names":{"name:ar":"بانقكينانق","name:id":"Bangkinang","name:ja":"バンキナン","name:ms":"Bangkinang","name:ms-Arab":"بڠکينڠ"},"display_name":"Bangkinang, Kampar, Riau, Sumatera, 28411, Indonesia","address":{"city":"Bangkinang","county":"Kampar","state":"Riau","ISO3166-2-lvl4":"ID-RI","region":"Sumatera","ISO3166-2-lvl3":"ID-SM","postcode":"28411","country":"Indonesia","country_code":"id"},"population":89616,"osm_type":"node","osm_id":6405474574,"type":"city","location":[101.0214651,0.3442219],"bbox":[100.8614651,0.1842219,101.1814651,0.5042219]}
{"name":"Banjar","other_names":{"name:id":"Banjar","name:ja":"バンジャール","alt_name":"Banjar Patroman","loc_name":"Banjar","nat_name":"Kota Banjar","old_name":"Banjar Pataruman","reg_name":"Kota Banjar","short_name":"BJR","official_name":"Kota Banjar"},"display_name":"Banjar, Jawa Barat, Jawa, 46300, Indonesia","address":{"city":"Banjar","state":"Jawa Barat","ISO3166-2-lvl4":"ID-JB","region":"Jawa","ISO3166-2-lvl3":"ID-JW","postcode":"46300","country":"Indonesia","country_code":"id"},"population":178638,"osm_type":"node","osm_id":1308642693,"type":"city","location":[108.5415225,-7.3695648],"bbox":[108.3815225,-7.5295648,108.7015225,-7.2095648]}
{"name":"Banjarbaru","other_names":{"name:ar":"بنجربارو","name:en":"Banjarbaru","name:id":"Banjarbaru","name:ja":"バンジャルバル","name:zh":"班查巴鲁","alt_name":"Kota Banjarbaru","short_name":"BJB","alt_name:ar":"بنجاربارو;بانجاربارو;بنجربرو;بنجاربرو","official_name":"Kota Banjarbaru","official_name:en":"City of Banjarbaru","official_name:ja":"バンジャルバル市"},"display_name":"Banjarbaru, Kalimantan Selatan, Kalimantan, Indonesia","address":{"city":"Banjarbaru","state":"Kalimantan Selatan","ISO3166-2-lvl4":"ID-KS","region":"Kalimantan","ISO3166-2-lvl3":"ID-KA","country":"Indonesia","country_code":"id"},"population":258753,"osm_type":"node","osm_id":3555451768,"type":"city","location":[114.8308481,-3.4430503],"bbox":[114.6708481,-3.6030503,114.9908481,-3.2830503],"border":{"name":"Banjarbaru","other_names":{"name:en":"Banjarbaru","name:id":"Banjarbaru","name:ja":"バンジャルバル","alt_name":"Banjar Baru","old_name":"Bandjarbaru;Bandjarbaroe","short_name":"BJB","official_name":"Kota Banjarbaru","name:ar":"بنجربارو","name:zh":"班查巴鲁","_place_alt_name":"Kota Banjarbaru","official_name:en":"City of Banjarbaru","alt_name:ar":"بنجاربارو;بانجاربارو;بنجربرو;بنجاربرو","official_name:ja":"バンジャルバル市"},"display_name":"Banjarbaru, Kalimantan Selatan, Kalimantan, Indonesia","address":{"city":"Banjarbaru","state":"Kalimantan Selatan","ISO3166-2-lvl4":"ID-KS","region":"Kalimantan","ISO3166-2-lvl3":"ID-KA","country":"Indonesia","country_code":"id"},"population":270021,"osm_type":"relation","osm_id":12989893,"type":"administrative","location":[114.8308481,-3.4430503],"bbox":[114.6751982,-3.6063725,114.9088776,-3.3725501]}}
{"name":"Banjarmasin","other_names":{"name:ar":"بانجارماسين","name:en":"Banjarmasin","name:id":"Banjarmasin","name:ja":"バンジャルマシン","name:ru":"Банджармасин","name:uk":"Банджармасин","name:zh":"馬辰","alt_name":"Banjar;Bandjarmasin;Bandarmasih;Banjar-Masih;Bandjermasin;Banjarmasch;Bandjermasen;Bandjermassin;Bandjermassing;Benjarmassen","loc_name":"Banjar;Banua","short_name":"BJM","official_name":"Kota Banjarmasin","official_name:en":"City of Banjarmasin","official_name:ja":"バンジャルマシン市"},"display_name":"Banjarmasin, Kalimantan Selatan, Kalimantan, Indonesia","address":{"city":"Banjarmasin","state":"Kalimantan Selatan","ISO3166-2-lvl4":"ID-KS","region":"Kalimantan","ISO3166-2-lvl3":"ID-KA","country":"Indonesia","country_code":"id"},"population":662320,"osm_type":"node","osm_id":544517373,"type":"city","location":[114.5925828,-3.3187496],"bbox":[114.4325828,-3.4787496,114.7525828,-3.1587496],"border":{"name":"Banjarmasin","other_names":{"name:ar":"بانجارماسين","name:en":"Banjarmasin","name:id":"Banjarmasin","name:ja":"バンジャルマシン","name:ru":"Банджармасин","name:uk":"Банджармасин","name:zh":"馬辰","alt_name":"Kota Banjar;Banjar;Banjar Kota","loc_name":"Banua","old_name":"Bandjarmasin;Bandarmasih;Banjar-Masih;Bandjermasin;Banjarmasch;Bandjermasen;Bandjermassin;Bandjermassing;Benjarmassen","short_name":"BJM","official_name":"Kota Banjarmasin","_place_alt_name":"Banjar;Bandjarmasin;Bandarmasih;Banjar-Masih;Bandjermasin;Banjarmasch;Bandjermasen;Bandjermassin;Bandjermassing;Benjarmassen","_place_loc_name":"Banjar;Banua","official_name:en":"City of Banjarmasin","official_name:ja":"バンジャルマシン市"},"display_name":"Banjarmasin, Kalimantan Selatan, Kalimantan, Indonesia","address":{"city":"Banjarmasin","state":"Kalimantan Selatan","ISO3166-2-lvl4":"ID-KS","region":"Kalimantan","ISO3166-2-lvl3":"ID-KA","country":"Indonesia","country_code":"id"},"population":715703,"osm_type":"relation","osm_id":12354003,"type":"administrative","location":[114.5925828,-3.3187496],"bbox":[114.5222778,-3.3822471,114.6595891,-3.2674083]}}
{"name":"Banjarnegara","other_names":{"name:ar":"بانجارنيقارا","name:id":"Banjarnegara","name:ja":"バンジャルヌガラ","name:jv":"ꦧꦤ꧀ꦗꦂꦤꦼꦒꦫ","official_name":"Kecamatan Banjarnegara"},"display_name":"Banjarnegara, Jawa Tengah, Jawa, 53418, Indonesia","address":{"city":"Banjarnegara","county":"Banjarnegara","state":"Jawa Tengah","ISO3166-2-lvl4":"ID-JT","region":"Jawa","ISO3166-2-lvl3":"ID-JW","postcode":"53418","country":"Indonesia","country_code":"id"},"osm_type":"node","osm_id":10957525362,"type":"city","location":[109.6950531,-7.3962647],"bbox":[109.5350531,-7.5562647,109.8550531,-7.2362647]}
{"name":"Bantul","other_names":{"name:ar":"بانتول","name:id":"Bantul","name:ja":"バントゥール","alt_name":"Kota Bantul","official_name":"Kapanewon Bantul"},"display_name":"Bantul, Daerah Istimewa Yogyakarta, Jawa, Indonesia","address":{"city":"Bantul","county":"Bantul","state":"Daerah Istimewa Yogyakarta","ISO3166-2-lvl4":"ID-YO","region":"Jawa","ISO3166-2-lvl3":"ID-JW","country":"Indonesia","country_code":"id"},"osm_type":"node","osm_id":2565956190,"type":"city","location":[110.3274139,-7.8877454],"bbox":[110.1674139,-8.0477454,110.4874139,-7.7277454],"border":[{"name":"Bantul","other_names":{"name:ar":"بانتول","name:id":"Bantul","name:jv":"ꦧꦤ꧀ꦠꦸꦭ꧀","name:ja":"バントゥール","alt_name":"Kota Bantul","official_name":"Kapanewon Bantul"},"display_name":"Bantul, Daerah Istimewa Yogyakarta, Jawa, Indonesia","address":{"city":"Bantul","county":"Bantul","state":"Daerah Istimewa Yogyakarta","ISO3166-2-lvl4":"ID-YO","region":"Jawa","ISO3166-2-lvl3":"ID-JW","country":"Indonesia","country_code":"id"},"osm_type":"relation","osm_id":5615271,"type":"administrative","location":[110.3274139,-7.8877454],"bbox":[110.3094455,-7.9213421,110.3636409,-7.8614353]},{"name":"Bantul","other_names":{"name:ar":"بانتول","name:id":"Bantul"},"display_name":"Bantul, Daerah Istimewa Yogyakarta, Jawa, Indonesia","address":{"city_district":"Bantul","city":"Bantul","county":"Bantul","state":"Daerah Istimewa Yogyakarta","ISO3166-2-lvl4":"ID-YO","region":"Jawa","ISO3166-2-lvl3":"ID-JW","country":"Indonesia","country_code":"id"},"osm_type":"relation","osm_id":5615450,"type":"administrative","location":[110.32972725747166,-7.8853346],"bbox":[110.3192493,-7.9092298,110.3386172,-7.8614353]}]}
{"name":"Banyuwangi","other_names":{"name:ar":"بانيووانقي","name:id":"Banyuwangi","name:ja":"バニュワンギ","name:jv":"ꦧꦚꦸꦮꦔꦶ","name:nl":"Banjoewangi","name:ru":"Баньюванги","name:zh":"外南梦","alt_name":"Banyuwangi Kota","official_name":"Kecamatan Banyuwangi"},"display_name":"Banyuwangi, Kelurahan Kepatihan, Banyuwangi, Jawa Timur, Jawa, 68419, Indonesia","address":{"city":"Banyuwangi","county":"Banyuwangi","state":"Jawa Timur","ISO3166-2-lvl4":"ID-JI","region":"Jawa","ISO3166-2-lvl3":"ID-JW","postcode":"68419","country":"Indonesia","country_code":"id"},"population":117558,"osm_type":"node","osm_id":1565040736,"type":"city","location":[114.3737201,-8.2094973],"bbox":[114.2137201,-8.3694973,114.5337201,-8.0494973]}
{"name":"Batam","other_names":{"name:ar":"باتام","name:en":"Batam","name:ja":"バタム","name:ko":"바탐","name:nl":"Batam","name:zh":"巴淡","alt_name":"Batam City","official_name":"Kota Batam"},"display_name":"Batam, Kepulauan Riau, Sumatera, Indonesia","address":{"city":"Batam","state":"Kepulauan Riau","ISO3166-2-lvl4":"ID-KR","region":"Sumatera","ISO3166-2-lvl3":"ID-SM","country":"Indonesia","country_code":"id"},"population":1196396,"osm_type":"node","osm_id":506735403,"type":"city","location":[104.0383696,1.1030815],"bbox":[103.8783696,0.9430815,104.1983696,1.2630815],"border":{"name":"Batam","other_names":{"name:ar":"باتام","name:id":"Batam","name:ja":"バタム","official_name":"Kota Batam","name:en":"Batam","name:ko":"바탐","name:nl":"Batam","name:zh":"巴淡","alt_name":"Batam City"},"display_name":"Batam, Kepulauan Riau, Sumatera, Indonesia","address":{"city":"Batam","state":"Kepulauan Riau","ISO3166-2-lvl4":"ID-KR","region":"Sumatera","ISO3166-2-lvl3":"ID-SM","country":"Indonesia","country_code":"id"},"population":1196396,"osm_type":"relation","osm_id":10660353,"type":"administrative","location":[104.0383696,1.1030815],"bbox":[103.6514327,0.4625473,104.3707459,1.2047218]}}
{"name":"Batu","other_names":{"name:ar":"باتو","name:ja":"バツ","name:zh":"峇都","alt_name":"Kota Wisata Batu;KWB","official_name":"Kota Batu"},"display_name":"Batu, Kota Batu, Jawa Timur, Jawa, Indonesia","address":{"city":"Batu","state":"Jawa Timur","ISO3166-2-lvl4":"ID-JI","region":"Jawa","ISO3166-2-lvl3":"ID-JW","country":"Indonesia","country_code":"id"},"osm_type":"node","osm_id":6536069494,"type":"city","location":[112.5269482,-7.8711667],"bbox":[112.3669482,-8.0311667,112.6869482,-7.7111667],"border":{"name":"Kota Batu","other_names":{"name:ar":"باتو","name:id":"Kota Batu","official_name":"Kota Batu","name:ja":"バツ","name:zh":"峇都","alt_name":"Kota Wisata Batu;KWB","alt":"Batu"},"display_name":"Kota Batu, Jawa Timur, Jawa, Indonesia","address":{"city":"Kota Batu","state":"Jawa Timur","ISO3166-2-lvl4":"ID-JI","region":"Jawa","ISO3166-2-lvl3":"ID-JW","country":"Indonesia","country_code":"id"},"osm_type":"relation","osm_id":9674153,"type":"administrative","location":[112.5269482,-7.8711667],"bbox":[112.4739303,-7.9410699,112.5949935,-7.7238778]}}
{"name":"Baubau","other_names":{"name:ar":"باوباو","name:id":"Baubau","name:ja":"バウバウ","name:ko":"바우바우","name:cia":"파우파우"},"display_name":"Baubau, Sulawesi Tenggara, Sulawesi, Indonesia","address":{"city":"Baubau","state":"Sulawesi Tenggara","ISO3166-2-lvl4":"ID-SG","region":"Sulawesi","ISO3166-2-lvl3":"ID-SL","country":"Indonesia","country_code":"id"},"population":154877,"osm_type":"node","osm_id":3380624457,"type":"city","location":[122.6057655,-5.4620298],"bbox":[122.4457655,-5.6220298,122.7657655,-5.3020298],"border":{"name":"Baubau","other_names":{"name:ar":"باوباو","name:id":"Baubau","official_name":"Kota Baubau","name:ja":"バウバウ","name:ko":"바우바우","name:cia":"파우파우"},"display_name":"Baubau, Sulawesi Tenggara, Sulawesi, Indonesia","address":{"city":"Baubau","state":"Sulawesi Tenggara","ISO3166-2-lvl4":"ID-SG","region":"Sulawesi","ISO3166-2-lvl3":"ID-SL","country":"Indonesia","country_code":"id"},"population":154877,"osm_type":"relation","osm_id":14910173,"type":"administrative","location":[122.6057655,-5.4620298],"bbox":[122.5557307,-5.5382187,122.7702485,-5.3078682]}}
{"name":"Bekasi","other_names":{"name:en":"Bekasi","name:id":"Bekasi","name:ja":"ブカシ","name:su":"ᮘᮨᮊᮞᮤ","name:zh":"勿加泗","name:su-Latn":"Bekasi","name:zh-Hans":"勿加泗","name:zh-Hant":"勿加泗","official_name":"Kota Bekasi"},"display_name":"Bekasi, Jawa Barat, Jawa, Indonesia","address":{"city":"Bekasi","state":"Jawa Barat","ISO3166-2-lvl4":"ID-JB","region":"Jawa","ISO3166-2-lvl3":"ID-JW","country":"Indonesia","country_code":"id"},"population":2334871,"osm_type":"node","osm_id":318882209,"type":"city","location":[106.9945444,-6.2349858],"bbox":[106.8345444,-6.3949858,107.1545444,-6.0749858],"border":{"name":"Bekasi","other_names":{"name:en":"Bekasi","name:id":"Bekasi","name:su":"ᮘᮨᮊᮞᮤ","name:su-Latn":"Bekasi","official_name":"Kota Bekasi","name:ja":"ブカシ","name:zh":"勿加泗","official_name:en":"Bekasi City","official_name:id":"Kota Bekasi","official_name:su":"ᮊᮧᮒ ᮘᮨᮊᮞᮤ","name:zh-Hans":"勿加泗","name:zh-Hant":"勿加泗","official_name:su-Latn":"Kota Bekasi"},"display_name":"Bekasi, Jawa Barat, Jawa, Indonesia","address":{"city":"Bekasi","state":"Jawa Barat","ISO3166-2-lvl4":"ID-JB","region":"Jawa","ISO3166-2-lvl3":"ID-JW","country":"Indonesia","country_code":"id"},"population":2334871,"osm_type":"relation","osm_id":14509733,"type":"administrative","location":[106.9945444,-6.2349858],"bbox":[106.8977344,-6.3986049,107.0424724,-6.1717663]}}
{"name":"Bengkalis","other_names":{"name:ar":"بنقكاليس","name:fr":"Bengkalis","name:id":"Bengkalis","name:ja":"ベンカリス","name:ms":"Bengkalis","name:nl":"Bengkalis","name:ru":"Бенкалис","name:ms-Arab":"بڠکاليس","name:zh-Hant":"望加麗"},"display_name":"Bengkalis, Riau, Sumatera, 28711, Indonesia","address":{"city":"Bengkalis","municipality":"Bengkalis","county":"Bengkalis","state":"Riau","ISO3166-2-lvl4":"ID-RI","region":"Sumatera","ISO3166-2-lvl3":"ID-SM","postcode":"28711","country":"Indonesia","country_code":"id"},"population":66211,"osm_type":"node","osm_id":3187977623,"type":"city","location":[102.110402,1.4773227],"bbox":[101.950402,1.3173227,102.270402,1.6373227],"border":{"name":"Bengkalis","other_names":{"name:id":"Bengkalis","name:ms":"Bengkalis","name:ms-Arab":"بڠکاليس","official_name":"Kecamatan Bengkalis"},"display_name":"Bengkalis, Riau, Sumatera, Indonesia","address":{"municipality":"Bengkalis","county":"Bengkalis","state":"Riau","ISO3166-2-lvl4":"ID-RI","region":"Sumatera","ISO3166-2-lvl3":"ID-SM","country":"Indonesia","country_code":"id"},"osm_type":"relation","osm_id":10362137,"type":"administrative","location":[102.01531989414266,1.62570945],"bbox":[101.8602555,1.1962444,102.8505046,2.0011654]}}
{"name":"Bengkulu","other_names":{"name:ar":"بنقكولو","name:en":"Bengkulu","name:ja":"ブンクル","name:ru":"Бенкулу","name:uk":"Бенкулу","name:zh":"明古鲁市","short_name":"BGL","alt_name:ar":"بنغكولو;بنجكولو","official_name":"Kota Bengkulu"},"display_name":"Bengkulu, Sumatera, Indonesia","address":{"city":"Bengkulu","state":"Bengkulu","ISO3166-2-lvl4":"ID-BE","region":"Sumatera","ISO3166-2-lvl3":"ID-SM","country":"Indonesia","country_code":"id"},"population":319098,"osm_type":"node","osm_id":2781151358,"type":"city","location":[102.2623797,-3.7922858],"bbox":[102.1023797,-3.9522858,102.4223797,-3.6322858],"border":{"name":"Bengkulu","other_names":{"name:ar":"بينقكولو","name:id":"Bengkulu","official_name":"Kota Bengkulu","name:en":"Bengkulu","name:ja":"ブンクル","name:ru":"Бенкулу","name:uk":"Бенкулу","name:zh":"明古鲁市","short_name":"BGL","alt_name:ar":"بنغكولو;بنجكولو","alt:ar":"بنقكولو"},"display_name":"Bengkulu, Sumatera, Indonesia","address":{"city":"Bengkulu","state":"Bengkulu","ISO3166-2-lvl4":"ID-BE","region":"Sumatera","ISO3166-2-lvl3":"ID-SM","country":"Indonesia","country_code":"id"},"population":319098,"osm_type":"relation","osm_id":16196019,"type":"administrative","location":[102.2623797,-3.7922858],"bbox":[102.1791641,-3.9816708,102.3715354,-3.73952]}}
{"name":"Besuki","other_names":{"name:id":"Besuki","name:ja":"ブスキ","official_name":"Kecamatan Besuki"},"display_name":"Besuki, Situbondo, Jawa Timur, Jawa, Indonesia","address":{"city":"Besuki","county":"Situbondo","state":"Jawa Timur","ISO3166-2-lvl4":"ID-JI","region":"Jawa","ISO3166-2-lvl3":"ID-JW","country":"Indonesia","country_code":"id"},"osm_type":"node","osm_id":2565931263,"type":"city","location":[113.6902407,-7.7343144],"bbox":[113.5302407,-7.8943144,113.8502407,-7.5743144]}
{"name":"Bima","other_names":{"name:ar":"بيما","name:en":"Bima","name:ja":"ビマ","name:mk":"Бима","name:ru":"Бима","name:uk":"Біма","name:zh":"比马","official_name":"Kota Bima"},"display_name":"Bima, Nusa Tenggara Barat, Nusa Tenggara, Indonesia","address":{"city":"Bima","state":"Nusa Tenggara Barat","ISO3166-2-lvl4":"ID-NB","archipelago":"Nusa Tenggara","ISO3166-2-lvl3":"ID-NU","country":"Indonesia","country_code":"id"},"population":136492,"osm_type":"node","osm_id":1406939048,"type":"city","location":[118.727689,-8.4534091],"bbox":[118.567689,-8.6134091,118.887689,-8.2934091],"border":{"name":"Bima","other_names":{"name:ar":"بيما","name:id":"Bima","official_name":"Kota Bima","name:en":"Bima","name:ja":"ビマ","name:mk":"Бима","name:ru":"Бима","name:uk":"Біма","name:zh":"比马"},"display_name":"Bima, Nusa Tenggara Barat, Nusa Tenggara, Indonesia","address":{"city":"Bima","state":"Nusa Tenggara Barat","ISO3166-2-lvl4":"ID-NB","archipelago":"Nusa Tenggara","ISO3166-2-lvl3":"ID-NU","country":"Indonesia","country_code":"id"},"population":136492,"osm_type":"relation","osm_id":13263887,"type":"administrative","location":[118.727689,-8.4534091],"bbox":[118.6978716,-8.5323601,118.8959996,-8.3402228]}}
{"name":"Binjai","other_names":{"name:ar":"بينجاي","name:id":"Binjai","name:ja":"ビンジャイ","name:lt":"Bindžajas","name:ru":"Бинджай","name:ms-Arab":"بينجاي","name:zh-Hant":"民禮","official_name":"Kota Binjai"},"display_name":"Binjai, Kota Binjai, Sumatera Utara, Sumatera, 20712, Indonesia","address":{"city":"Binjai","county":"Kota Binjai","state":"Sumatera Utara","ISO3166-2-lvl4":"ID-SU","region":"Sumatera","ISO3166-2-lvl3":"ID-SM","postcode":"20712","country":"Indonesia","country_code":"id"},"population":267901,"osm_type":"node","osm_id":763976609,"type":"city","location":[98.4899865,3.6063964],"bbox":[98.3299865,3.4463964,98.6499865,3.7663964]}
{"name":"Bitung","other_names":{"name:ar":"بيتونق","name:ja":"ビツン","name:zh":"比通"},"display_name":"Bitung, Sulawesi Utara, Sulawesi, Indonesia","address":{"city":"Bitung","state":"Sulawesi Utara","ISO3166-2-lvl4":"ID-SA","region":"Sulawesi","ISO3166-2-lvl3":"ID-SL","country":"Indonesia","country_code":"id"},"population":218520,"osm_type":"node","osm_id":976683837,"type":"city","location":[125.1940836,1.44344],"bbox":[125.0340836,1.28344,125.3540836,1.60344],"border":{"name":"Bitung","other_names":{"name:ar":"بيتونق","name:id":"Bitung","official_name":"Kota Bitung","name:ja":"ビツン","name:zh":"比通"},"display_name":"Bitung, Sulawesi Utara, Sulawesi, Indonesia","address":{"city":"Bitung","state":"Sulawesi Utara","ISO3166-2-lvl4":"ID-SA","region":"Sulawesi","ISO3166-2-lvl3":"ID-SL","country":"Indonesia","country_code":"id"},"population":218520,"osm_type":"relation","osm_id":14907635,"type":"administrative","location":[125.1940836,1.44344],"bbox":[125.0324936,1.3871218,125.2961765,1.599962]}}
{"name":"Blitar","other_names":{"name:ja":"ブリタール","name:ru":"Блитар","name:zh":"勿里達","official_name":"Kota Blitar"},"display_name":"Blitar, Jawa Timur, Jawa, Indonesia","address":{"city":"Blitar","state":"Jawa Timur","ISO3166-2-lvl4":"ID-JI","region":"Jawa","ISO3166-2-lvl3":"ID-JW","country":"Indonesia","country_code":"id"},"osm_type":"node","osm_id":604396013,"type":"city","location":[112.1650769,-8.0982442],"bbox":[112.0050769,-8.2582442,112.3250769,-7.9382442],"border":{"name":"Blitar","other_names":{"name:ar":"بليتار","name:id":"Blitar","name:zh-Hant":"勿里達","official_name":"Kota Blitar","name:ja":"ブリタール","name:ru":"Блитар","name:zh":"勿里達"},"display_name":"Blitar, Jawa Timur, Jawa, Indonesia","address":{"city":"Blitar","state":"Jawa Timur","ISO3166-2-lvl4":"ID-JI","region":"Jawa","ISO3166-2-lvl3":"ID-JW","country":"Indonesia","country_code":"id"},"osm_type":"relation","osm_id":9676376,"type":"administrative","location":[112.1650769,-8.0982442],"bbox":[112.1324615,-8.1366271,112.199501,-8.0559272]}}
{"name":"Blora","other_names":{"name:ar":"بلورا","name:id":"Blora","name:ja":"ブローラ","name:zh-Hant":"不流老","official_name":"Kecamatan Blora"},"display_name":"Blora, Jawa Tengah, Jawa, Indonesia","address":{"city":"Blora","county":"Blora","state":"Jawa Tengah","ISO3166-2-lvl4":"ID-JT","region":"Jawa","ISO3166-2-lvl3":"ID-JW","country":"Indonesia","country_code":"id"},"population":50000,"osm_type":"node","osm_id":450552097,"type":"city","location":[111.4130521,-6.9691528],"bbox":[111.2530521,-7.1291528,111.5730521,-6.8091528]}
{"name":"Bogor","other_names":{"name:en":"Bogor","name:id":"Bogor","name:ja":"ボゴール","name:ko":"보고르","name:nl":"Buitenzorg","name:ru":"Богор","name:su":"ᮘᮧᮌᮧᮁ","name:uk":"Богор","name:zh":"茂物","name:su-Latn":"Bogor","official_name":"Kota Bogor","name:zh-Latn-pinyin":"Màowù"},"display_name":"Bogor, Jawa Barat, Jawa, Indonesia","address":{"city":"Bogor","state":"Jawa Barat","ISO3166-2-lvl4":"ID-JB","region":"Jawa","ISO3166-2-lvl3":"ID-JW","country":"Indonesia","country_code":"id"},"population":834000,"osm_type":"node","osm_id":319887585,"type":"city","location":[106.7972421,-6.5962986],"bbox":[106.6372421,-6.7562986,106.9572421,-6.4362986],"border":{"name":"Bogor","other_names":{"name:en":"Bogor","name:id":"Bogor","name:su":"ᮘᮧᮌᮧᮁ","alt_name":"Kota Bogor","name:su-Latn":"Bogor","official_name":"Kota Bogor","name:ja":"ボゴール","name:ko":"보고르","name:nl":"Buitenzorg","name:ru":"Богор","name:uk":"Богор","name:zh":"茂物","official_name:en":"Bogor City","official_name:id":"Kota Bogor","official_name:su":"ᮊᮧᮒ ᮘᮧᮌᮧᮁ","official_name:su-Latn":"Kota Bogor","name:zh-Latn-pinyin":"Màowù"},"display_name":"Bogor, Jawa Barat, Jawa, Indonesia","address":{"city":"Bogor","state":"Jawa Barat","ISO3166-2-lvl4":"ID-JB","region":"Jawa","ISO3166-2-lvl3":"ID-JW","country":"Indonesia","country_code":"id"},"population":834000,"osm_type":"relation","osm_id":14745927,"type":"administrative","location":[106.7972421,-6.5962986],"bbox":[106.734837,-6.6813079,106.8485196,-6.5143294]}}
{"name":"Bojonegoro","other_names":{"name:ar":"بوجونيقورو","name:id":"Bojonegoro","name:ja":"ボジョヌゴロ","name:jv":"Bajanegara","name:nl":"Bodjonegoro","name:zh":"新埔頭","official_name":"Kecamatan Bojonegoro"},"display_name":"Bojonegoro, Jawa Timur, Jawa, 62117, Indonesia","address":{"city":"Bojonegoro","municipality":"Bojonegoro","county":"Bojonegoro","state":"Jawa Timur","ISO3166-2-lvl4":"ID-JI","region":"Jawa","ISO3166-2-lvl3":"ID-JW","postcode":"62117","country":"Indonesia","country_code":"id"},"population":380257,"osm_type":"node","osm_id":2560829128,"type":"city","location":[111.8834902,-7.1524904],"bbox":[111.7234902,-7.3124904,112.0434902,-6.9924904],"border":{"name":"Bojonegoro","other_names":{"name:ar":"بوجونيقورو","name:id":"Bojonegoro","name:zh-Hant":"新埔頭"},"display_name":"Bojonegoro, Jawa Timur, Jawa, Indonesia","address":{"municipality":"Bojonegoro","county":"Bojonegoro","state":"Jawa Timur","ISO3166-2-lvl4":"ID-JI","region":"Jawa","ISO3166-2-lvl3":"ID-JW","country":"Indonesia","country_code":"id"},"osm_type":"relation","osm_id":14761715,"type":"administrative","location":[111.88660450042843,-7.158753000000001],"bbox":[111.8533554,-7.1854356,111.9333794,-7.1317026]}}
{"name":"Bongkudai Baru","display_name":"Bongkudai Baru, Bolaang Mongondow Timur, Sulawesi Utara, Sulawesi, Indonesia","address":{"city":"Bongkudai Baru","county":"Bolaang Mongondow Timur","state":"Sulawesi Utara","ISO3166-2-lvl4":"ID-SA","region":"Sulawesi","ISO3166-2-lvl3":"ID-SL","country":"Indonesia","country_code":"id"},"osm_type":"node","osm_id":11237034447,"type":"city","location":[124.443775,0.7649432],"bbox":[124.283775,0.6049432,124.603775,0.9249432]}
{"name":"Bontang","other_names":{"name:ar":"بونتانق","name:en":"Bontang","name:ja":"ボンタン","name:ru":"Бонтанг","name:uk":"Бонтанг","name:zh":"邦唐"},"display_name":"Bontang, Kalimantan Timur, Kalimantan, Indonesia","address":{"city":"Bontang","state":"Kalimantan Timur","ISO3166-2-lvl4":"ID-KI","region":"Kalimantan","ISO3166-2-lvl3":"ID-KA","country":"Indonesia","country_code":"id"},"population":161413,"osm_type":"node","osm_id":536415772,"type":"city","location":[117.471708,0.1236548],"bbox":[117.311708,-0.0363452,117.631708,0.2836548],"border":{"name":"Bontang","other_names":{"name:ar":"بونتانق","name:id":"Bontang","official_name":"Kota Bontang","name:en":"Bontang","name:ja":"ボンタン","name:ru":"Бонтанг","name:uk":"Бонтанг","name:zh":"邦唐"},"display_name":"Bontang, Kalimantan Timur, Kalimantan, Indonesia","address":{"city":"Bontang","state":"Kalimantan Timur","ISO3166-2-lvl4":"ID-KI","region":"Kalimantan","ISO3166-2-lvl3":"ID-KA","country":"Indonesia","country_code":"id"},"population":161413,"osm_type":"relation","osm_id":14921093,"type":"administrative","location":[117.471708,0.1236548],"bbox":[117.388332,0.0224665,117.5653623,0.2060799]}}
{"name":"Boyolali","other_names":{"name:ar":"بيولالي","name:id":"Boyolali","name:ja":"ボヨラリ","name:jv":"ꦧꦺꦴꦪꦭꦭꦶ","alt_name":"Kota Boyolali","official_name":"Kecamatan Boyolali"},"display_name":"Boyolali, Jawa Tengah, Jawa, 57313, Indonesia","address":{"city":"Boyolali","county":"Boyolali","state":"Jawa Tengah","ISO3166-2-lvl4":"ID-JT","region":"Jawa","ISO3166-2-lvl3":"ID-JW","postcode":"57313","country":"Indonesia","country_code":"id"},"osm_type":"node","osm_id":10957525358,"type":"city","location":[110.5972919,-7.5313771],"bbox":[110.4372919,-7.6913771,110.7572919,-7.3713771]}
{"name":"Brebes","other_names":{"name:ar":"بريبيس","name:id":"Brebes","name:ja":"ブルブス","name:jv":"ꦧꦽꦧꦼꦱ꧀","official_name":"Kecamatan Brebes"},"display_name":"Brebes, Jawa Tengah, Jawa, 52212, Indonesia","address":{"city":"Brebes","county":"Brebes","state":"Jawa Tengah","ISO3166-2-lvl4":"ID-JT","region":"Jawa","ISO3166-2-lvl3":"ID-JW","postcode":"52212","country":"Indonesia","country_code":"id"},"osm_type":"node","osm_id":10957525368,"type":"city","location":[109.0369034,-6.870636],"bbox":[108.8769034,-7.030636,109.1969034,-6.710636]}
{"name":"Bukittinggi","other_names":{"name:ar":"بوكيتينقي","name:en":"Bukittinggi","name:id":"Bukittinggi","name:ja":"ブキティンギ","name:ru":"Бикиттинги","loc_name":"Bukik Tinggi","name:min":"Bukik Tinggi","old_name":"Fort de Kock","alt_name:ar":"بوكيك تينقي","name:ms-Arab":"بوكيق تيڠڬي","name:zh-Hant":"武吉丁宜","old_name:min":"Nagari Kurai Limo Jorong","official_name":"Kota Bukittinggi","official_name:en":"City of Bukittinggi","official_name:ms":"Bandar Bukittinggi"},"display_name":"Bukittinggi, Sumatera Barat, Sumatera, Indonesia","address":{"city":"Bukittinggi","state":"Sumatera Barat","ISO3166-2-lvl4":"ID-SB","region":"Sumatera","ISO3166-2-lvl3":"ID-SM","country":"Indonesia","country_code":"id"},"population":100254,"osm_type":"node","osm_id":336643803,"type":"city","location":[100.3694921,-0.3051954],"bbox":[100.2094921,-0.4651954,100.5294921,-0.1451954],"border":{"name":"Bukittinggi","other_names":{"name:ar":"بوكيتينقي","name:id":"Bukittinggi","loc_name":"Bukik Tinggi","official_name":"Kota Bukittinggi","name:en":"Bukittinggi","name:ja":"ブキティンギ","name:ru":"Бикиттинги","name:min":"Bukik Tinggi","old_name":"Fort de Kock","alt_name:ar":"بوكيك تينقي","name:ms-Arab":"بوكيق تيڠڬي","name:zh-Hant":"武吉丁宜","old_name:min":"Nagari Kurai Limo Jorong","official_name:en":"City of Bukittinggi","official_name:ms":"Bandar Bukittinggi"},"display_name":"Bukittinggi, Sumatera Barat, Sumatera, Indonesia","address":{"city":"Bukittinggi","state":"Sumatera Barat","ISO3166-2-lvl4":"ID-SB","region":"Sumatera","ISO3166-2-lvl3":"ID-SM","country":"Indonesia","country_code":"id"},"population":100254,"osm_type":"relation","osm_id":14954677,"type":"administrative","location":[100.3694921,-0.3051954],"bbox":[100.3331444,-0.3261709,100.4056763,-0.2710317]}}
{"name":"Bungur Raya","other_names":{"name:en":"Bungur Raya","name:id":"Bungur Raya","name:su":"ᮘᮥᮍᮥᮁ ᮛᮚ","name:su-Latn":"Bungur Raya","official_name":"Desa Bungur Raya","official_name:en":"Bungur Raya Rural-Village","official_name:id":"Desa Bungur Raya","official_name:su":"ᮓᮦᮞ ᮘᮥᮍᮥᮁ ᮛᮚ","official_name:su-Latn":"Désa Bungur Raya"},"display_name":"Bungur Raya, Pangandaran, Jawa Barat, Jawa, Indonesia","address":{"city":"Bungur Raya","county":"Pangandaran","state":"Jawa Barat","ISO3166-2-lvl4":"ID-JB","region":"Jawa","ISO3166-2-lvl3":"ID-JW","country":"Indonesia","country_code":"id"},"osm_type":"relation","osm_id":17222275,"type":"administrative","location":[108.51384724630367,-7.539475449999999],"bbox":[108.4986528,-7.5558864,108.5325121,-7.5229527],"inferred_type":"city"}
{"name":"Ciamis","other_names":{"name:ar":"سياميس","name:id":"Ciamis","name:ja":"チアミス","name:su":"ᮎᮤᮃᮙᮤᮞ᮪","name:tr":"Ciamis","official_name":"Kecamatan Ciamis"},"display_name":"Ciamis, Jawa Barat, Jawa, Indonesia","address":{"city":"Ciamis","county":"Ciamis","state":"Jawa Barat","ISO3166-2-lvl4":"ID-JB","region":"Jawa","ISO3166-2-lvl3":"ID-JW","country":"Indonesia","country_code":"id"},"population":99508,"osm_type":"node","osm_id":445615869,"type":"city","location":[108.3531111,-7.3266659],"bbox":[108.1931111,-7.4866659,108.5131111,-7.1666659],"border":[{"name":"Ciamis","other_names":{"name:id":"Ciamis","name:su":"ᮎᮤᮃᮙᮤᮞ᮪","name:su-Latn":"Ciamis","name:ar":"سياميس","name:ja":"チアミス","name:tr":"Ciamis","official_name":"Kecamatan Ciamis"},"display_name":"Ciamis, Jawa Barat, Jawa, Indonesia","address":{"city":"Ciamis","county":"Ciamis","state":"Jawa Barat","ISO3166-2-lvl4":"ID-JB","region":"Jawa","ISO3166-2-lvl3":"ID-JW","country":"Indonesia","country_code":"id"},"population":99508,"osm_type":"relation","osm_id":15721092,"type":"administrative","location":[108.3531111,-7.3266659],"bbox":[108.2912283,-7.3598194,108.3808485,-7.2915487]},{"name":"Ciamis","other_names":{"name:id":"Ciamis","name:su":"ᮎᮤᮃᮙᮤᮞ᮪","name:su-Latn":"Ciamis"},"display_name":"Ciamis, Jawa Barat, Jawa, 46211, Indonesia","address":{"village":"Ciamis","city":"Ciamis","county":"Ciamis","state":"Jawa Barat","ISO3166-2-lvl4":"ID-JB","region":"Jawa","ISO3166-2-lvl3":"ID-JW","postcode":"46211","country":"Indonesia","country_code":"id"},"osm_type":"relation","osm_id":15647285,"type":"administrative","location":[108.3542399982239,-7.3325610999999995],"bbox":[108.3378547,-7.3435086,108.3625028,-7.3217099]}]}
{"name":"Cianjur","other_names":{"name:id":"Cianjur","name:ja":"チアンジュール","name:zh":"展玉","official_name":"Kecamatan Cianjur"},"display_name":"Cianjur, Jawa Barat, Jawa, 43212, Indonesia","address":{"city":"Cianjur","county":"Cianjur","state":"Jawa Barat","ISO3166-2-lvl4":"ID-JB","region":"Jawa","ISO3166-2-lvl3":"ID-JW","postcode":"43212","country":"Indonesia","country_code":"id"},"osm_type":"node","osm_id":676574228,"type":"city","location":[107.1392952,-6.8224448],"bbox":[106.9792952,-6.9824448,107.2992952,-6.6624448]}
{"name":"Cilacap","other_names":{"name:ar":"سيلاساب","name:id":"Cilacap","name:ja":"チラチャプ","name:jv":"ꦕꦶꦭꦕꦥ꧀","name:ru":"Чилачап","name:zh":"芝拉扎","official_name":"Kecamatan Cilacap"},"display_name":"Cilacap, Kelurahan Sidanegara Kecamatan Cilacap, Cilacap, Jawa Tengah, Jawa, 53212, Indonesia","address":{"city":"Cilacap","county":"Cilacap","state":"Jawa Tengah","ISO3166-2-lvl4":"ID-JT","region":"Jawa","ISO3166-2-lvl3":"ID-JW","postcode":"53212","country":"Indonesia","country_code":"id"},"population":271323,"osm_type":"node","osm_id":1308651254,"type":"city","location":[109.009662,-7.7271847],"bbox":[108.849662,-7.8871847,109.169662,-7.5671847]}
{"name":"Cilegon","other_names":{"name:ar":"سيليقون","name:en":"Cilegon","name:ja":"チレゴン","name:ko":"칠레곤","name:ms":"Kota Cilegon","name:su":"ᮎᮤᮜᮨᮌᮧᮔ᮪","name:ta":"சிலெகோன்","name:zh":"芝勒贡","official_name":"Kota Cilegon"},"display_name":"Cilegon, Banten, Jawa, Indonesia","address":{"city":"Cilegon","state":"Banten","ISO3166-2-lvl4":"ID-BT","region":"Jawa","ISO3166-2-lvl3":"ID-JW","country":"Indonesia","country_code":"id"},"population":374559,"osm_type":"node","osm_id":2623323572,"type":"city","location":[106.0537688,-6.017389],"bbox":[105.8937688,-6.177389,106.2137688,-5.857389],"border":{"name":"Cilegon","other_names":{"name:ar":"سيليقون","name:id":"Cilegon","official_name":"Kota Cilegon","name:en":"Cilegon","name:ja":"チレゴン","name:ko":"칠레곤","name:ms":"Kota Cilegon","name:su":"ᮎᮤᮜᮨᮌᮧᮔ᮪","name:ta":"சிலெகோன்","name:zh":"芝勒贡"},"display_name":"Cilegon, Banten, Jawa, Indonesia","address":{"city":"Cilegon","state":"Banten","ISO3166-2-lvl4":"ID-BT","region":"Jawa","ISO3166-2-lvl3":"ID-JW","country":"Indonesia","country_code":"id"},"population":374559,"osm_type":"relation","osm_id":7641589,"type":"administrative","location":[106.0537688,-6.017389],"bbox":[105.9217027,-6.0797051,106.087675,-5.8757314]}}
{"name":"Cimahi","other_names":{"name:en":"Cimahi","name:id":"Cimahi","name:ja":"チマヒ","name:nl":"Tjimahi","name:zh":"芝馬墟","official_name":"Kota Cimahi"},"display_name":"Cimahi, Jawa Barat, Jawa, Indonesia","address":{"city":"Cimahi","state":"Jawa Barat","ISO3166-2-lvl4":"ID-JB","region":"Jawa","ISO3166-2-lvl3":"ID-JW","country":"Indonesia","country_code":"id"},"population":561386,"osm_type":"node","osm_id":1308696523,"type":"city","location":[107.5423099,-6.8731527],"bbox":[107.3823099,-7.0331527,107.7023099,-6.7131527],"border":{"name":"Cimahi","other_names":{"name:en":"Cimahi","name:id":"Cimahi","name:su":"ᮎᮤᮙᮠᮤ","name:su-Latn":"Cimahi","official_name":"Kota Cimahi","name:ja":"チマヒ","name:nl":"Tjimahi","name:zh":"芝馬墟","official_name:en":"Cimahi City","official_name:id":"Kota Cimahi","official_name:su":"ᮊᮧᮒ ᮎᮤᮙᮠᮤ","official_name:su-Latn":"Kota Cimahi"},"display_name":"Cimahi, Jawa Barat, Jawa, Indonesia","address":{"city":"Cimahi","state":"Jawa Barat","ISO3166-2-lvl4":"ID-JB","region":"Jawa","ISO3166-2-lvl3":"ID-JW","country":"Indonesia","country_code":"id"},"population":561386,"osm_type":"relation","osm_id":14935961,"type":"administrative","location":[107.5423099,-6.8731527],"bbox":[107.5103193,-6.9328613,107.5761272,-6.8273522]}}
{"name":"Cirebon","other_names":{"name:en":"Cirebon","name:id":"Cirebon","name:ja":"チレボン","name:jv":"ꦕꦶꦉꦧꦺꦴꦤ꧀","name:mk":"Чиребон","name:nl":"Tjirebon","name:ru":"Чиребон","name:su":"ᮎᮤᮛᮨᮘᮧᮔ᮪","name:uk":"Чиребон","name:zh":"井裡汶","old_name":"Cheribon","name:su-Latn":"Cirebon","official_name":"Kota Cirebon"},"display_name":"Cirebon, Kota Cirebon, Jawa Barat, Jawa, Indonesia","address":{"city":"Cirebon","state":"Jawa Barat","ISO3166-2-lvl4":"ID-JB","region":"Jawa","ISO3166-2-lvl3":"ID-JW","country":"Indonesia","country_code":"id"},"population":318741,"osm_type":"node","osm_id":2142261809,"type":"city","location":[108.5608483,-6.7137044],"bbox":[108.4008483,-6.8737044,108.7208483,-6.5537044],"border":{"name":"Kota Cirebon","other_names":{"name:en":"Cirebon","name:id":"Cirebon","name:jv":"Cirebon","name:su":"ᮎᮤᮛᮨᮘᮧᮔ᮪","old_name":"Cheribon","name:su-Latn":"Cirebon","official_name":"Kota Cirebon","name:ja":"チレボン","name:mk":"Чиребон","name:nl":"Tjirebon","name:ru":"Чиребон","name:uk":"Чиребон","name:zh":"井裡汶","official_name:en":"Cirebon City","official_name:id":"Kota Cirebon","official_name:su":"ᮊᮧᮒ ᮎᮤᮛᮨᮘᮧᮔ᮪","official_name:su-Latn":"Kota Cirebon","alt":"Cirebon","alt:jv":"ꦕꦶꦉꦧꦺꦴꦤ꧀"},"display_name":"Kota Cirebon, Jawa Barat, Jawa, Indonesia","address":{"city":"Kota Cirebon","state":"Jawa Barat","ISO3166-2-lvl4":"ID-JB","region":"Jawa","ISO3166-2-lvl3":"ID-JW","country":"Indonesia","country_code":"id"},"population":318741,"osm_type":"relation","osm_id":16991199,"type":"administrative","location":[108.5608483,-6.7137044],"bbox":[108.5182305,-6.7963866,108.5909888,-6.690998]}}
{"name":"Delanggu","other_names":{"name:ja":"ドゥラング","name:jv":"ꦢꦺꦭꦁꦒꦸ","official_name":"Kecamatan Delanggu"},"display_name":"Delanggu, Klaten, Jawa Tengah, Jawa, Indonesia","address":{"city":"Delanggu","county":"Klaten","state":"Jawa Tengah","ISO3166-2-lvl4":"ID-JT","region":"Jawa","ISO3166-2-lvl3":"ID-JW","country":"Indonesia","country_code":"id"},"osm_type":"node","osm_id":12578359471,"type":"city","location":[110.6993385,-7.6194196],"bbox":[110.5393385,-7.7794196,110.8593385,-7.4594196]}
{"name":"Demak","other_names":{"name:ar":"ديماك","name:id":"Demak","name:ja":"デマック","name:jv":"ꦢꦼꦩꦏ꧀","name:zh-Hant":"淡目","official_name":"Kecamatan Demak"},"display_name":"Demak, Jawa Tengah, Jawa, 59517, Indonesia","address":{"city":"Demak","county":"Demak","state":"Jawa Tengah","ISO3166-2-lvl4":"ID-JT","region":"Jawa","ISO3166-2-lvl3":"ID-JW","postcode":"59517","country":"Indonesia","country_code":"id"},"osm_type":"node","osm_id":262265672,"type":"city","location":[110.6385435,-6.8947538],"bbox":[110.4785435,-7.0547538,110.7985435,-6.7347538]}
{"name":"Denpasar","other_names":{"name:ar":"دنباسار","name:en":"Denpasar","name:ja":"デンパサール","name:kn":"ಡೆಣ್ ಪಸರ್","name:mk":"Денпасар","name:ru":"Денпасар","name:uk":"Денпасар","name:zh":"登巴萨","name:ban":"ᬤᬾᬦ᭄ᬧᬲᬃ","alt_name:ar":"دنبسار;دينباسار;دينبسار","official_name":"Kota Denpasar"},"display_name":"Denpasar, Bali, Nusa Tenggara, Indonesia","address":{"city":"Denpasar","state":"Bali","ISO3166-2-lvl4":"ID-BA","archipelago":"Nusa Tenggara","ISO3166-2-lvl3":"ID-NU","country":"Indonesia","country_code":"id"},"population":788445,"osm_type":"node","osm_id":274113797,"type":"city","location":[115.2191175,-8.6524973],"bbox":[115.0591175,-8.8124973,115.3791175,-8.4924973],"border":{"name":"Denpasar","other_names":{"name:id":"Denpasar","name:mk":"Денпасар","name:ru":"Денпасар","name:ar":"دنباسار","name:en":"Denpasar","name:ja":"デンパサール","name:kn":"ಡೆಣ್ ಪಸರ್","name:uk":"Денпасар","name:zh":"登巴萨","name:ban":"ᬤᬾᬦ᭄ᬧᬲᬃ","alt_name:ar":"دنبسار;دينباسار;دينبسار","official_name":"Kota Denpasar"},"display_name":"Denpasar, Bali, Nusa Tenggara, Indonesia","address":{"city":"Denpasar","state":"Bali","ISO3166-2-lvl4":"ID-BA","archipelago":"Nusa Tenggara","ISO3166-2-lvl3":"ID-NU","country":"Indonesia","country_code":"id"},"population":788445,"osm_type":"relation","osm_id":7789828,"type":"administrative","location":[115.2191175,-8.6524973],"bbox":[115.173186,-9.0374877,115.4521505,-8.5908402]}}
{"name":"Depok","other_names":{"name:bg":"Депок","name:en":"Depok","name:id":"Depok","name:ja":"デポック","name:su":"ᮓᮦᮕᮧᮊ᮪","name:zh":"德博","old_name:zh":"帝博","name:su-Latn":"Dépok","official_name":"Kota Depok"},"display_name":"Depok, Jawa Barat, Jawa, Indonesia","address":{"city":"Depok","state":"Jawa Barat","ISO3166-2-lvl4":"ID-JB","region":"Jawa","ISO3166-2-lvl3":"ID-JW","country":"Indonesia","country_code":"id"},"population":1738570,"osm_type":"node","osm_id":1641250216,"type":"city","location":[106.8158371,-6.40719],"bbox":[106.6558371,-6.56719,106.9758371,-6.24719]}
{"name":"Dumai","other_names":{"name:ar":"دوماي","name:en":"Dumai","name:id":"Dumai","name:ja":"デゥマイ","name:ms":"Dumai","name:ru":"Думай","name:zh":"杜迈","name:ms-Arab":"دوماي","official_name":"Kota Dumai","official_name:en":"Dumai City"},"display_name":"Dumai, Riau, Sumatera, Indonesia","address":{"city":"Dumai","state":"Riau","ISO3166-2-lvl4":"ID-RI","region":"Sumatera","ISO3166-2-lvl3":"ID-SM","country":"Indonesia","country_code":"id"},"population":343597,"osm_type":"node","osm_id":5654083439,"type":"city","location":[101.4470369,1.6631967],"bbox":[101.2870369,1.5031967,101.6070369,1.8231967],"border":{"name":"Dumai","other_names":{"name:ar":"دوماي","name:en":"Dumai City","name:id":"Dumai","name:ja":"デゥマイ","name:ms":"Dumai","short_name":"DUM","name:ms-Arab":"دوماي","official_name":"Kota Dumai","name:ru":"Думай","name:zh":"杜迈","official_name:en":"Dumai City","alt:en":"Dumai"},"display_name":"Dumai, Riau, Sumatera, Indonesia","address":{"city":"Dumai","state":"Riau","ISO3166-2-lvl4":"ID-RI","region":"Sumatera","ISO3166-2-lvl3":"ID-SM","country":"Indonesia","country_code":"id"},"population":337070,"osm_type":"relation","osm_id":7830590,"type":"administrative","location":[101.4470369,1.6631967],"bbox":[101.0092922,1.4310619,101.7281693,2.2742801]}}
{"name":"Duri","other_names":{"name:id":"Duri","name:ms":"Duri","name:ms-Arab":"دوري"},"display_name":"Duri, Mandau, Bengkalis, Riau, Sumatera, 38884, Indonesia","address":{"city":"Duri","municipality":"Mandau","county":"Bengkalis","state":"Riau","ISO3166-2-lvl4":"ID-RI","region":"Sumatera","ISO3166-2-lvl3":"ID-SM","postcode":"38884","country":"Indonesia","country_code":"id"},"population":227959,"osm_type":"node","osm_id":596675858,"type":"city","location":[101.2095359,1.2570178],"bbox":[101.0495359,1.0970178,101.3695359,1.4170178]}
{"name":"Garut","other_names":{"name:en":"Garut","name:id":"Garut","name:ja":"ガルット","name:ru":"Гарут","name:su":"ᮌᮛᮥᮒ᮪","name:uk":"Гарут","name:zh":"牙律","alt_name":"Garut","name:su-Latn":"Garut"},"display_name":"Garut, Jawa Barat, Jawa, Indonesia","address":{"city":"Garut","state":"Jawa Barat","ISO3166-2-lvl4":"ID-JB","region":"Jawa","ISO3166-2-lvl3":"ID-JW","country":"Indonesia","country_code":"id"},"osm_type":"node","osm_id":2623323553,"type":"city","location":[107.9014912,-7.2162774],"bbox":[107.7414912,-7.3762774,108.0614912,-7.0562774],"border":{"name":"Garut","other_names":{"name:en":"Garut","name:id":"Garut","name:su":"ᮌᮛᮥᮒ᮪","name:su-Latn":"Garut","official_name":"Kabupaten Garut","name:ja":"ガルット","name:ru":"Гарут","name:uk":"Гарут","name:zh":"牙律","alt_name":"Garut","official_name:en":"Garut Regency","official_name:id":"Kabupaten Garut","official_name:su":"ᮊᮘᮥᮕᮒᮦᮔ᮪ ᮌᮛᮥᮒ᮪","official_name:su-Latn":"Kabupatén Garut"},"display_name":"Garut, Jawa Barat, Jawa, Indonesia","address":{"city":"Garut","state":"Jawa Barat","ISO3166-2-lvl4":"ID-JB","region":"Jawa","ISO3166-2-lvl3":"ID-JW","country":"Indonesia","country_code":"id"},"osm_type":"relation","osm_id":14925429,"type":"administrative","location":[107.9014912,-7.2162774],"bbox":[107.4202819,-7.7400634,108.1363508,-6.9456975]}}
{"name":"Gorontalo","other_names":{"name:ar":"قورونتالو","name:en":"Gorontalo","name:ja":"ゴロンタロ","name:ru":"Горонтало","name:uk":"Горонтало","name:zh":"哥倫打洛","alt_name:ar":"جورونتالو"},"display_name":"Gorontalo, Sulawesi, Indonesia","address":{"city":"Gorontalo","state":"Gorontalo","ISO3166-2-lvl4":"ID-GO","region":"Sulawesi","ISO3166-2-lvl3":"ID-SL","country":"Indonesia","country_code":"id"},"population":150000,"osm_type":"node","osm_id":542116772,"type":"city","location":[123.0594971,0.5384433],"bbox":[122.8994971,0.3784433,123.2194971,0.6984433],"border":{"name":"Gorontalo","other_names":{"name:id":"Gorontalo","official_name":"Kota Gorontalo","name:ar":"قورونتالو","name:en":"Gorontalo","name:ja":"ゴロンタロ","name:ru":"Горонтало","name:uk":"Горонтало","name:zh":"哥倫打洛","alt_name:ar":"جورونتالو"},"display_name":"Gorontalo, Sulawesi, Indonesia","address":{"city":"Gorontalo","state":"Gorontalo","ISO3166-2-lvl4":"ID-GO","region":"Sulawesi","ISO3166-2-lvl3":"ID-SL","country":"Indonesia","country_code":"id"},"population":150000,"osm_type":"relation","osm_id":14909128,"type":"administrative","location":[123.0594971,0.5384433],"bbox":[122.9950361,0.4796619,123.09994,0.5901306]}}
{"name":"Gunungsitoli","other_names":{"name:ar":"قونونقستيولي","name:id":"Gunungsitoli","name:ja":"グヌン・シトリ","official_name":"Kota Gunungsitoli"},"display_name":"Gunungsitoli, Kota Gunungsitoli, Sumatera Utara, Sumatera, 22811, Indonesia","address":{"city":"Gunungsitoli","county":"Kota Gunungsitoli","state":"Sumatera Utara","ISO3166-2-lvl4":"ID-SU","region":"Sumatera","ISO3166-2-lvl3":"ID-SM","postcode":"22811","country":"Indonesia","country_code":"id"},"population":139281,"osm_type":"node","osm_id":5654023575,"type":"city","location":[97.6150768,1.2900569],"bbox":[97.4550768,1.1300569,97.7750768,1.4500569]}
{"name":"Indramayu","other_names":{"name:id":"Indramayu","name:ja":"インドラマユ","name:jv":"ꦎꦤ꧀ꦢꦿꦩꦪꦸ","name:zh":"南安由","alt_name":"Indramayu Kota;Kota Indramayu","official_name":"Kecamatan Indramayu"},"display_name":"Indramayu, Jawa Barat, Jawa, 45211, Indonesia","address":{"city":"Indramayu","county":"Indramayu","state":"Jawa Barat","ISO3166-2-lvl4":"ID-JB","region":"Jawa","ISO3166-2-lvl3":"ID-JW","postcode":"45211","country":"Indonesia","country_code":"id"},"population":24000,"osm_type":"node","osm_id":2401281742,"type":"city","location":[108.3229169,-6.326433],"bbox":[108.1629169,-6.486433,108.4829169,-6.166433]}
{"name":"Jakarta Timur","other_names":{"name:ar":"شرق جاكرتا","name:en":"East Jakarta","name:id":"Jakarta Timur","name:ja":"東ジャカルタ","alt_name":"Jakarte Belah Wetan;Kota Jakarta Timur","name:bew":"Jakarte Beletan","short_name":"Jaktim","official_name":"Kota Administrasi Jakarta Timur"},"display_name":"Jakarta Timur, Daerah Khusus ibukota Jakarta, Jawa, Indonesia","address":{"city":"Jakarta Timur","ISO3166-2-lvl4":"ID-JK","region":"Jawa","ISO3166-2-lvl3":"ID-JW","country":"Indonesia","country_code":"id"},"osm_type":"relation","osm_id":5802441,"type":"administrative","location":[106.88222894692834,-6.26289085],"bbox":[106.8383412,-6.3744575,106.973975,-6.151338],"inferred_type":"city"}
{"name":"Jakarta","other_names":{"name:af":"Djakarta","name:am":"ጃካርታ","name:ar":"جاكرتا","name:as":"জাকাৰ্টা","name:az":"Cakarta","name:ba":"Джакарта","name:be":"Джакарта","name:bg":"Джакарта","name:bh":"जकार्ता","name:bn":"জাকার্তা","name:bo":"ཊ་ཁར་ཏ།","name:bs":"Džakarta","name:ca":"Jakarta","name:ce":"Джакарта","name:cv":"Джакарта","name:de":"Jakarta","name:el":"Τζακάρτα","name:en":"Jakarta","name:eo":"Ĝakarto","name:es":"Yakarta","name:fa":"جاکارتا","name:fj":"Jakata","name:fr":"Jakarta","name:fy":"Djakarta","name:ga":"Iacárta","name:gl":"Iacarta - Jakarta","name:gn":"Jakáta","name:gu":"જાકાર્તા","name:he":"ג'קרטה","name:hi":"जकार्ता","name:hu":"Jakarta","name:hy":"Ջակարտա","name:id":"Jakarta","name:is":"Djakarta","name:it":"Giacarta","name:ja":"ジャカルタ","name:jv":"Jakartah","name:ka":"ჯაკარტა","name:kk":"Джакарта","name:km":"ចាការតា","name:kn":"ಜಕಾರ್ತ","name:ko":"자카르타","name:ks":"جَکارتا","name:ku":"Cakarta","name:kv":"Джакарта","name:ky":"Жакарта","name:lo":"ຈາກາຕາ","name:lt":"Džakarta","name:lv":"Džakarta","name:mk":"Џакарта","name:ml":"ജക്കാർത്ത","name:mn":"Жакарта","name:mr":"जकार्ता","name:mt":"Ġakarta","name:my":"ဂျကာတာမြို့","name:ne":"जाकार्ता","name:oc":"Jakarta","name:or":"ଜାକର୍ତା","name:os":"Джакартæ","name:pa":"ਜਕਾਰਤਾ","name:pl":"Dżakarta","name:ps":"جکارتا","name:pt":"Jacarta","name:ru":"Джакарта","name:sa":"जकार्ता","name:sc":"Giacarta","name:sd":"جڪارتا","name:sh":"Džakarta","name:si":"ජකාර්තා","name:sk":"Džakarta","name:sl":"Džakarta","name:sq":"Xhakarta","name:sr":"Џакарта","name:sv":"Jakarta","name:ta":"ஜகார்த்தா","name:te":"జకార్తా","name:tg":"Ҷакарта","name:th":"จาการ์ตา","name:tr":"Cakarta","name:tt":"Cakarta","name:tw":"Gyakata","name:ug":"جاكارتا","name:uk":"Джакарта","name:ur":"جکارتہ","name:yi":"דזשאקארטא","name:za":"Yajgyadaz","name:zh":"雅加达 / 雅加達","name:arz":"جاكارتا","name:ckb":"جاکارتا","name:hak":"Ngâ-kâ-tha̍t Sú-tû Thi̍t-khî","name:jbo":".djakartas.","name:lmo":"Giacarta","name:mhr":"Джакарта","name:mwl":"Jacarta","name:mzn":"جاکارتا","name:nah":"Yakarta","name:pms":"Giacarta","name:pnb":"جکارتہ","name:rue":"Джакарта","name:sah":"Дьакарта","name:szl":"Dżakarta","name:vec":"Xacarta","name:yue":"耶加達","old_name":"Batavia","alt_name:ar":"جاكارتا","old_name:zh":"巴達維亞","name:bat-smg":"Džakarta","name:zh-Hans":"雅加达","name:zh-Hant":"雅加達","name:roa-tara":"Giacarta","official_name":"Daerah Khusus Ibukota Jakarta"},"display_name":"Jakarta, Daerah Khusus ibukota Jakarta, Jawa, Indonesia","address":{"city":"Jakarta","ISO3166-2-lvl4":"ID-JK","region":"Jawa","ISO3166-2-lvl3":"ID-JW","country":"Indonesia","country_code":"id"},"population":10467629,"osm_type":"node","osm_id":29939632,"type":"city","location":[106.827168,-6.1754049],"bbox":[106.667168,-6.3354049,106.987168,-6.0154049],"border":{"name":"Daerah Khusus ibukota Jakarta","other_names":{"ref":"JK-22","name:ar":"منطقة جاكرتا العاصمة","name:cs":"Jakarta","name:de":"Besondere Hauptstadtregion Jakarta","name:en":"Special capital Region of Jakarta","name:id":"Daerah Khusus Ibukota Jakarta","name:nl":"Speciale Hoofdstedelijke Regio Jakarta","name:pl":"Specjalny Region Stołeczny Dżakarta","name:ru":"Особый столичный округ Джакарта","name:su":"ᮓᮆᮛᮂ ᮠᮥᮞᮥᮞ᮪ ᮏᮊᮁᮒ","name:zh":"雅加达首都特区 / 雅加達首都特區","alt_name":"DKI Jakarta","old_name":"Batavia","ISO3166-2":"ID-JK","short_name":"JKT","old_name:zh":"巴達維亞","name:su-Latn":"Daérah Husus ibukota Ibukota Jakarta","name:zh-Hans":"雅加达首都特区","name:zh-Hant":"雅加達首都特區","official_name":"Daerah Khusus Ibukota Jakarta","name:af":"Djakarta","name:am":"ጃካርታ","name:as":"জাকাৰ্টা","name:az":"Cakarta","name:ba":"Джакарта","name:be":"Джакарта","name:bg":"Джакарта","name:bh":"जकार्ता","name:bn":"জাকার্তা","name:bo":"ཊ་ཁར་ཏ།","name:bs":"Džakarta","name:ca":"Jakarta","name:ce":"Джакарта","name:cv":"Джакарта","name:el":"Τζακάρτα","name:eo":"Ĝakarto","name:es":"Yakarta","name:fa":"جاکارتا","name:fj":"Jakata","name:fr":"Jakarta","name:fy":"Djakarta","name:ga":"Iacárta","name:gl":"Iacarta - Jakarta","name:gn":"Jakáta","name:gu":"જાકાર્તા","name:he":"ג'קרטה","name:hi":"जकार्ता","name:hu":"Jakarta","name:hy":"Ջակարտա","name:is":"Djakarta","name:it":"Giacarta","name:ja":"ジャカルタ","name:jv":"Jakartah","name:ka":"ჯაკარტა","name:kk":"Джакарта","name:km":"ចាការតា","name:kn":"ಜಕಾರ್ತ","name:ko":"자카르타","name:ks":"جَکارتا","name:ku":"Cakarta","name:kv":"Джакарта","name:ky":"Жакарта","name:lo":"ຈາກາຕາ","name:lt":"Džakarta","name:lv":"Džakarta","name:mk":"Џакарта","name:ml":"ജക്കാർത്ത","name:mn":"Жакарта","name:mr":"जकार्ता","name:mt":"Ġakarta","name:my":"ဂျကာတာမြို့","name:ne":"जाकार्ता","name:oc":"Jakarta","name:or":"ଜାକର୍ତା","name:os":"Джакартæ","name:pa":"ਜਕਾਰਤਾ","name:ps":"جکارتا","name:pt":"Jacarta","name:sa":"जकार्ता","name:sc":"Giacarta","name:sd":"جڪارتا","name:sh":"Džakarta","name:si":"ජකාර්තා","name:sk":"Džakarta","name:sl":"Džakarta","name:sq":"Xhakarta","name:sr":"Џакарта","name:sv":"Jakarta","name:ta":"ஜகார்த்தா","name:te":"జకార్తా","name:tg":"Ҷакарта","name:th":"จาการ์ตา","name:tr":"Cakarta","name:tt":"Cakarta","name:tw":"Gyakata","name:ug":"جاكارتا","name:uk":"Джакарта","name:ur":"جکارتہ","name:yi":"דזשאקארטא","name:za":"Yajgyadaz","name:arz":"جاكارتا","name:ckb":"جاکارتا","name:hak":"Ngâ-kâ-tha̍t Sú-tû Thi̍t-khî","name:jbo":".djakartas.","name:lmo":"Giacarta","name:mhr":"Джакарта","name:mwl":"Jacarta","name:mzn":"جاکارتا","name:nah":"Yakarta","name:pms":"Giacarta","name:pnb":"جکارتہ","name:rue":"Джакарта","name:sah":"Дьакарта","name:szl":"Dżakarta","name:vec":"Xacarta","name:yue":"耶加達","alt_name:ar":"جاكارتا","name:bat-smg":"Džakarta","name:roa-tara":"Giacarta","short_name:2007-2024":"DKI Jakarta","alt":"Jakarta","alt:ar":"جاكرتا","alt:de":"Jakarta","alt:en":"Jakarta","alt:id":"Jakarta","alt:pl":"Dżakarta","alt:ru":"Джакарта","alt:zh":"雅加达 / 雅加達","alt:zh-Hans":"雅加达","alt:zh-Hant":"雅加達"},"display_name":"Daerah Khusus ibukota Jakarta, Jawa, Indonesia","address":{"city":"Daerah Khusus ibukota Jakarta","ISO3166-2-lvl4":"ID-JK","region":"Jawa","ISO3166-2-lvl3":"ID-JW","country":"Indonesia","country_code":"id"},"population":11337563,"osm_type":"relation","osm_id":6362934,"type":"administrative","location":[106.827168,-6.1754049],"bbox":[106.3146732,-6.3744575,106.973975,-4.9993635]}}
{"name":"Jambi","other_names":{"name:ar":"جمبي","name:ja":"ジャンビ","name:zh":"占碑市","short_name":"JMB","official_name":"Kota Jambi"},"display_name":"Jambi, Sumatera, Indonesia","address":{"city":"Jambi","state":"Jambi","ISO3166-2-lvl4":"ID-JA","region":"Sumatera","ISO3166-2-lvl3":"ID-SM","country":"Indonesia","country_code":"id"},"population":750857,"osm_type":"node","osm_id":5654100228,"type":"city","location":[103.6077806,-1.6296917],"bbox":[103.4477806,-1.7896917,103.7677806,-1.4696917],"border":{"name":"Jambi","other_names":{"name:id":"Jambi","official_name":"Kota Jambi","name:ar":"جمبي","name:ja":"ジャンビ","name:zh":"占碑市","short_name":"JMB"},"display_name":"Jambi, Sumatera, Indonesia","address":{"city":"Jambi","state":"Jambi","ISO3166-2-lvl4":"ID-JA","region":"Sumatera","ISO3166-2-lvl3":"ID-SM","country":"Indonesia","country_code":"id"},"population":750857,"osm_type":"relation","osm_id":14940955,"type":"administrative","location":[103.6077806,-1.6296917],"bbox":[103.5242194,-1.6961314,103.6810556,-1.5466667]}}
{"name":"Jayapura","other_names":{"name:ar":"جايابورا","name:be":"Джаяпура","name:br":"Port Numbay","name:ca":"Jayapura","name:cs":"Jayapura","name:de":"Jayapura","name:el":"Τζαγιαπούρα","name:en":"Jayapura","name:eo":"Ĝajpuro","name:es":"Jayapura","name:et":"Jayapura","name:eu":"Jayapura","name:fa":"جایاپورا","name:fi":"Jayapura","name:fr":"Jayapura","name:he":"ג'איאפורה","name:hi":"जयपुरा","name:hu":"Jayapura","name:hy":"Ջայապուրա","name:id":"Kota Jayapura","name:it":"Jayapura","name:ja":"ジャヤプラ","name:jv":"Kutha Jayapura","name:ka":"ჯაიაპურა","name:kn":"ಜಯಪುರ","name:ko":"자야푸라","name:lt":"Džajapura","name:lv":"Džajapura","name:mg":"Kota Jayapura","name:ml":"ജയപുര","name:ms":"Kota Jayapura","name:nl":"Jayapura","name:no":"Jaya Pura","name:pl":"Jayapura","name:pt":"Jaiapura","name:ro":"Jayapura","name:ru":"Джаяпура","name:sr":"Џајапура","name:su":"Port Numbay","name:sv":"Jayapura","name:th":"จายาปูรา","name:tr":"Jayapura","name:tt":"Җаяпура","name:uk":"Джаяпура","name:ur":"جایاپورا","name:vi":"Jayapura","name:zh":"查亚普拉","alt_name":"Port Numbay","name:min":"Kota Jayapura","name:nan":"Jayapura Chhī","name:pnb":"جے پورا","name:sco":"Jayapura","name:war":"Port Numbay","name:wuu":"查亞普拉","name:yue":"查亞普拉","old_name":"Hollandia","old_name:id":"Kota Baru, Sukarnapura","old_name:nl":"Hollandia"},"display_name":"Jayapura, Papua, Western New Guinea, Indonesia","address":{"city":"Jayapura","state":"Papua","ISO3166-2-lvl4":"ID-PA","region":"Western New Guinea","ISO3166-2-lvl3":"ID-PP","country":"Indonesia","country_code":"id"},"population":233859,"osm_type":"node","osm_id":2036439111,"type":"city","location":[140.7037389,-2.5387539],"bbox":[140.5437389,-2.6987539,140.8637389,-2.3787539],"border":{"name":"Jayapura","other_names":{"name:id":"Jayapura","name:zh":"查雅普拉","official_name":"Kota Jayapura","name:ar":"جايابورا","name:be":"Джаяпура","name:br":"Port Numbay","name:ca":"Jayapura","name:cs":"Jayapura","name:de":"Jayapura","name:el":"Τζαγιαπούρα","name:en":"Jayapura","name:eo":"Ĝajpuro","name:es":"Jayapura","name:et":"Jayapura","name:eu":"Jayapura","name:fa":"جایاپورا","name:fi":"Jayapura","name:fr":"Jayapura","name:he":"ג'איאפורה","name:hi":"जयपुरा","name:hu":"Jayapura","name:hy":"Ջայապուրա","name:it":"Jayapura","name:ja":"ジャヤプラ","name:jv":"Kutha Jayapura","name:ka":"ჯაიაპურა","name:kn":"ಜಯಪುರ","name:ko":"자야푸라","name:lt":"Džajapura","name:lv":"Džajapura","name:mg":"Kota Jayapura","name:ml":"ജയപുര","name:ms":"Kota Jayapura","name:nl":"Jayapura","name:no":"Jaya Pura","name:pl":"Jayapura","name:pt":"Jaiapura","name:ro":"Jayapura","name:ru":"Джаяпура","name:sr":"Џајапура","name:su":"Port Numbay","name:sv":"Jayapura","name:th":"จายาปูรา","name:tr":"Jayapura","name:tt":"Җаяпура","name:uk":"Джаяпура","name:ur":"جایاپورا","name:vi":"Jayapura","alt_name":"Port Numbay","name:min":"Kota Jayapura","name:nan":"Jayapura Chhī","name:pnb":"جے پورا","name:sco":"Jayapura","name:war":"Port Numbay","name:wuu":"查亞普拉","name:yue":"查亞普拉","old_name":"Hollandia","old_name:id":"Kota Baru, Sukarnapura","old_name:nl":"Hollandia","alt:id":"Kota Jayapura","alt:zh":"查亚普拉"},"display_name":"Jayapura, Papua, Western New Guinea, Indonesia","address":{"city":"Jayapura","state":"Papua","ISO3166-2-lvl4":"ID-PA","region":"Western New Guinea","ISO3166-2-lvl3":"ID-PP","country":"Indonesia","country_code":"id"},"population":233859,"osm_type":"relation","osm_id":7754451,"type":"administrative","location":[140.7037389,-2.5387539],"bbox":[140.6027795,-2.8392466,141,-2.4737106]}}
{"name":"Jember","other_names":{"name:ar":"جيمبر","name:en":"Jember","name:ja":"ジュンブル","name:nl":"Djember","name:ru":"Джембер","name:zh":"任抹","alt_name:ar":"جمبر"},"display_name":"Jember, Jawa Timur, Jawa, Indonesia","address":{"city":"Jember","state":"Jawa Timur","ISO3166-2-lvl4":"ID-JI","region":"Jawa","ISO3166-2-lvl3":"ID-JW","country":"Indonesia","country_code":"id"},"osm_type":"node","osm_id":703862658,"type":"city","location":[113.7021772,-8.1688563],"bbox":[113.5421772,-8.3288563,113.8621772,-8.0088563],"border":{"name":"Jember","other_names":{"name:ar":"جيمبر","name:id":"Jember","alt_name:ar":"جمبر","official_name":"Kabupaten Jember","name:en":"Jember","name:ja":"ジュンブル","name:nl":"Djember","name:ru":"Джембер","name:zh":"任抹"},"display_name":"Jember, Jawa Timur, Jawa, Indonesia","address":{"city":"Jember","state":"Jawa Timur","ISO3166-2-lvl4":"ID-JI","region":"Jawa","ISO3166-2-lvl3":"ID-JW","country":"Indonesia","country_code":"id"},"osm_type":"relation","osm_id":9674158,"type":"administrative","location":[113.7021772,-8.1688563],"bbox":[113.2642462,-8.5584451,114.0434187,-7.9682727]}}
{"name":"Jepara","other_names":{"name:ar":"جيبارا","name:id":"Jepara","name:ja":"ジェパラ","name:zh":"日巴拉","official_name":"Kecamatan Jepara"},"display_name":"Jepara, Jawa Tengah, Jawa, Indonesia","address":{"city":"Jepara","state":"Jawa Tengah","ISO3166-2-lvl4":"ID-JT","region":"Jawa","ISO3166-2-lvl3":"ID-JW","country":"Indonesia","country_code":"id"},"population":96940,"osm_type":"node","osm_id":1811389215,"type":"city","location":[110.6672987,-6.5899148],"bbox":[110.5072987,-6.7499148,110.8272987,-6.4299148],"border":{"name":"Jepara","other_names":{"name:ar":"جيبارا","name:id":"Jepara","name:jv":"ꦗꦼꦥꦫ","alt_name":"Kabupaten Jepara","official_name":"Kabupaten Jepara","name:ja":"ジェパラ","name:zh":"日巴拉","_place_official_name":"Kecamatan Jepara"},"display_name":"Jepara, Jawa Tengah, Jawa, Indonesia","address":{"city":"Jepara","state":"Jawa Tengah","ISO3166-2-lvl4":"ID-JT","region":"Jawa","ISO3166-2-lvl3":"ID-JW","country":"Indonesia","country_code":"id"},"population":96940,"osm_type":"relation","osm_id":9687056,"type":"administrative","location":[110.6672987,-6.5899148],"bbox":[110.1630771,-6.7963586,110.9770279,-5.7254082]}}
{"name":"Jombang","other_names":{"name:ar":"جومبانق","name:id":"Jombang","name:ja":"ジョンバン","name:jv":"ꦗꦺꦴꦩ꧀ꦧꦁ","name:nl":"Djombang","name:zh":"絨網","official_name":"Kecamatan Jombang"},"display_name":"Jombang, Jawa Timur, Jawa, 61417, Indonesia","address":{"city":"Jombang","county":"Jombang","state":"Jawa Timur","ISO3166-2-lvl4":"ID-JI","region":"Jawa","ISO3166-2-lvl3":"ID-JW","postcode":"61417","country":"Indonesia","country_code":"id"},"osm_type":"node","osm_id":449707412,"type":"city","location":[112.2379884,-7.5384528],"bbox":[112.0779884,-7.6984528,112.3979884,-7.3784528]}
{"name":"Karang Dowo & Jalin","other_names":{"name:id":"KarangDowo & Jalin"},"display_name":"Karang Dowo & Jalin, Karangdowo, Klaten, Jawa Tengah, Jawa, Indonesia","address":{"city":"Karang Dowo & Jalin","municipality":"Karangdowo","county":"Klaten","state":"Jawa Tengah","ISO3166-2-lvl4":"ID-JT","region":"Jawa","ISO3166-2-lvl3":"ID-JW","country":"Indonesia","country_code":"id"},"osm_type":"relation","osm_id":19233199,"type":"administrative","location":[110.73742267174796,-7.712859999999999],"bbox":[110.729456,-7.7199322,110.7463258,-7.7059099],"inferred_type":"city"}
{"name":"Karanganyar","other_names":{"name:id":"Karanganyar","name:ja":"カランアンヤル","name:jv":"ꦏꦫꦁꦄꦚꦂ","official_name":"Kecamatan Karanganyar"},"display_name":"Karanganyar, Jawa Tengah, Jawa, 57713, Indonesia","address":{"city":"Karanganyar","county":"Karanganyar","state":"Jawa Tengah","ISO3166-2-lvl4":"ID-JT","region":"Jawa","ISO3166-2-lvl3":"ID-JW","postcode":"57713","country":"Indonesia","country_code":"id"},"osm_type":"node","osm_id":3056671337,"type":"city","location":[110.946872,-7.5975877],"bbox":[110.786872,-7.7575877,111.106872,-7.4375877]}
{"name":"Kebumen","other_names":{"name:en":"Kebumen","name:id":"Kebumen","name:ja":"ケブメン","name:zh":"加布棉","official_name":"Kecamatan Kebumen"},"display_name":"Kebumen, Jawa Tengah, Jawa, 54361, Indonesia","address":{"city":"Kebumen","county":"Kebumen","state":"Jawa Tengah","ISO3166-2-lvl4":"ID-JT","region":"Jawa","ISO3166-2-lvl3":"ID-JW","postcode":"54361","country":"Indonesia","country_code":"id"},"population":121580,"osm_type":"node","osm_id":448090107,"type":"city","location":[109.6519465,-7.6686894],"bbox":[109.4919465,-7.8286894,109.8119465,-7.5086894]}
{"name":"Kediri","other_names":{"name:en":"Kediri","name:ja":"クディリ","name:jv":"Kedhiri","name:mk":"Кедири","name:ru":"Кедири","name:uk":"Кедірі","name:zh":"諫義里","official_name":"Kota Kediri"},"display_name":"Kediri, Kota Kediri, Jawa Timur, Jawa, Indonesia","address":{"city":"Kediri","state":"Jawa Timur","ISO3166-2-lvl4":"ID-JI","region":"Jawa","ISO3166-2-lvl3":"ID-JW","country":"Indonesia","country_code":"id"},"population":267435,"osm_type":"node","osm_id":558877091,"type":"city","location":[112.0046051,-7.8111057],"bbox":[111.8446051,-7.9711057,112.1646051,-7.6511057],"border":{"name":"Kota Kediri","other_names":{"name:ar":"كيديري","name:en":"Kediri City","name:id":"Kota Kediri","official_name":"Kota Kediri","name:ja":"クディリ","name:jv":"Kedhiri","name:mk":"Кедири","name:ru":"Кедири","name:uk":"Кедірі","name:zh":"諫義里","alt":"Kediri","alt:en":"Kediri"},"display_name":"Kota Kediri, Jawa Timur, Jawa, Indonesia","address":{"city":"Kota Kediri","state":"Jawa Timur","ISO3166-2-lvl4":"ID-JI","region":"Jawa","ISO3166-2-lvl3":"ID-JW","country":"Indonesia","country_code":"id"},"population":267435,"osm_type":"relation","osm_id":9676375,"type":"administrative","location":[112.0046051,-7.8111057],"bbox":[111.9544067,-7.8728532,112.0808181,-7.7714174]}}
{"name":"Kendal","other_names":{"name:ar":"كيندال","name:id":"Kendal","name:ja":"ケンダル","name:jv":"ꦏꦼꦤ꧀ꦢꦭ꧀","alt_name":"Kota Kendal;Kendal Kota","official_name":"Kecamatan Kendal"},"display_name":"Kendal, Jawa Tengah, Jawa, 51313, Indonesia","address":{"city":"Kendal","county":"Kendal","state":"Jawa Tengah","ISO3166-2-lvl4":"ID-JT","region":"Jawa","ISO3166-2-lvl3":"ID-JW","postcode":"51313","country":"Indonesia","country_code":"id"},"population":62406,"osm_type":"node","osm_id":275792450,"type":"city","location":[110.2040344,-6.9217033],"bbox":[110.0440344,-7.0817033,110.3640344,-6.7617033]}
{"name":"Kendari","other_names":{"name:ar":"كنداري","name:en":"Kendari","name:ja":"ケンダリ","name:ru":"Кендари","name:uk":"Кендарі","name:zh":"肯達里","alt_name:ar":"كينداري"},"display_name":"Kendari, Sulawesi Tenggara, Sulawesi, Indonesia","address":{"city":"Kendari","state":"Sulawesi Tenggara","ISO3166-2-lvl4":"ID-SG","region":"Sulawesi","ISO3166-2-lvl3":"ID-SL","country":"Indonesia","country_code":"id"},"population":289709,"osm_type":"node","osm_id":1271864187,"type":"city","location":[122.5180066,-3.9918068],"bbox":[122.3580066,-4.1518068,122.6780066,-3.8318068],"border":{"name":"Kendari","other_names":{"name:id":"Kendari","name:zh":"肯达里","official_name":"Kota Kendari","name:ar":"كنداري","name:en":"Kendari","name:ja":"ケンダリ","name:ru":"Кендари","name:uk":"Кендарі","alt_name:ar":"كينداري","alt:zh":"肯達里"},"display_name":"Kendari, Sulawesi Tenggara, Sulawesi, Indonesia","address":{"city":"Kendari","state":"Sulawesi Tenggara","ISO3166-2-lvl4":"ID-SG","region":"Sulawesi","ISO3166-2-lvl3":"ID-SL","country":"Indonesia","country_code":"id"},"population":289709,"osm_type":"relation","osm_id":1795267,"type":"administrative","location":[122.5180066,-3.9918068],"bbox":[122.4338285,-4.0869523,122.6508095,-3.9014259]}}
{"name":"Ketapang","other_names":{"name:id":"Ketapang","name:ja":"クタパン","official_name":"Kecamatan Ketapang"},"display_name":"Ketapang, Sampang, Jawa Timur, Jawa, 69261, Indonesia","address":{"city":"Ketapang","county":"Sampang","state":"Jawa Timur","ISO3166-2-lvl4":"ID-JI","region":"Jawa","ISO3166-2-lvl3":"ID-JW","postcode":"69261","country":"Indonesia","country_code":"id"},"osm_type":"node","osm_id":559545616,"type":"city","location":[113.2829191,-6.8942334],"bbox":[113.1229191,-7.0542334,113.4429191,-6.7342334]}
{"name":"Klaten","other_names":{"name:id":"Klaten","name:ja":"クラテン","name:jv":"ꦏ꧀ꦭꦠꦺꦤ꧀","alt_name":"Kota Klaten;Klaten Kota","official_name":"Kecamatan Klaten"},"display_name":"Klaten, Klaten City, Klaten, Jawa Tengah, Jawa, 57415, Indonesia","address":{"city":"Klaten","county":"Klaten","state":"Jawa Tengah","ISO3166-2-lvl4":"ID-JT","region":"Jawa","ISO3166-2-lvl3":"ID-JW","postcode":"57415","country":"Indonesia","country_code":"id"},"population":133078,"osm_type":"node","osm_id":2565961463,"type":"city","location":[110.6018046,-7.7049502],"bbox":[110.4418046,-7.8649502,110.7618046,-7.5449502],"border":{"name":"Klaten City","other_names":{"name:ar":"كلاتن","name:id":"Klaten City","name:jv":"ꦏꦸꦛꦏ꧀ꦭꦠꦺꦤ꧀","name:ja":"クラテン","alt_name":"Kota Klaten;Klaten Kota","official_name":"Kecamatan Klaten","alt":"Klaten","alt:id":"Klaten","alt:jv":"ꦏ꧀ꦭꦠꦺꦤ꧀"},"display_name":"Klaten City, Klaten, Jawa Tengah, Jawa, Indonesia","address":{"city":"Klaten City","county":"Klaten","state":"Jawa Tengah","ISO3166-2-lvl4":"ID-JT","region":"Jawa","ISO3166-2-lvl3":"ID-JW","country":"Indonesia","country_code":"id"},"population":133078,"osm_type":"relation","osm_id":18896714,"type":"city","location":[110.6018046,-7.7049502],"bbox":[110.5698863,-7.7538784,110.6435562,-7.6746592]}}
{"name":"Kotamobagu","other_names":{"name:ar":"كوتاموباقو","name:zh":"哥打莫巴谷"},"display_name":"Kotamobagu, Sulawesi Utara, Sulawesi, Indonesia","address":{"city":"Kotamobagu","state":"Sulawesi Utara","ISO3166-2-lvl4":"ID-SA","region":"Sulawesi","ISO3166-2-lvl3":"ID-SL","country":"Indonesia","country_code":"id"},"population":116194,"osm_type":"node","osm_id":1183444041,"type":"city","location":[124.3154057,0.7352231],"bbox":[124.1554057,0.5752231,124.4754057,0.8952231]}
{"name":"Kudus","other_names":{"name:ar":"كودوس","name:id":"Kudus","name:ja":"クドゥス","name:zh":"古突士","alt_name":"Kota Kudus","official_name":"Kecamatan Kudus"},"display_name":"Kudus, Jawa Tengah, Jawa, 59318, Indonesia","address":{"city":"Kudus","county":"Kudus","state":"Jawa Tengah","ISO3166-2-lvl4":"ID-JT","region":"Jawa","ISO3166-2-lvl3":"ID-JW","postcode":"59318","country":"Indonesia","country_code":"id"},"population":90341,"osm_type":"node","osm_id":262265665,"type":"city","location":[110.8416866,-6.8078233],"bbox":[110.6816866,-6.9678233,111.0016866,-6.6478233]}
{"name":"Kuningan","other_names":{"name:en":"Kuningan","name:id":"Kuningan","name:ja":"クニンガン","name:su":"ᮊᮔᮤᮍᮔ᮪","name:su-Latn":"Kuningan","official_name":"Kecamatan Kuningan"},"display_name":"Kuningan, Jawa Barat, Jawa, 45511, Indonesia","address":{"city":"Kuningan","county":"Kuningan","state":"Jawa Barat","ISO3166-2-lvl4":"ID-JB","region":"Jawa","ISO3166-2-lvl3":"ID-JW","postcode":"45511","country":"Indonesia","country_code":"id"},"osm_type":"node","osm_id":5925540969,"type":"city","location":[108.4768043,-6.9821453],"bbox":[108.3168043,-7.1421453,108.6368043,-6.8221453]}
{"name":"Kupang","other_names":{"name:ar":"كوبانق","name:en":"Kupang","name:ja":"クパン","name:nl":"Koepang","name:pt":"Cupão","name:ru":"Купанг","name:uk":"Купанг","name:zh":"古邦","alt_name:ar":"كوبانغ;كوبانج"},"display_name":"Kupang, Nusa Tenggara Timur, Nusa Tenggara, Indonesia","address":{"city":"Kupang","state":"Nusa Tenggara Timur","ISO3166-2-lvl4":"ID-NT","archipelago":"Nusa Tenggara","ISO3166-2-lvl3":"ID-NU","country":"Indonesia","country_code":"id"},"population":450360,"osm_type":"node","osm_id":262314145,"type":"city","location":[123.6017755,-10.1632209],"bbox":[123.4417755,-10.3232209,123.7617755,-10.0032209],"border":{"name":"Kupang","other_names":{"name:ar":"كوبانق","name:id":"Kupang","name:zh":"古邦","official_name":"Kota Kupang","name:en":"Kupang","name:ja":"クパン","name:nl":"Koepang","name:pt":"Cupão","name:ru":"Купанг","name:uk":"Купанг","alt_name:ar":"كوبانغ;كوبانج"},"display_name":"Kupang, Nusa Tenggara Timur, Nusa Tenggara, Indonesia","address":{"city":"Kupang","state":"Nusa Tenggara Timur","ISO3166-2-lvl4":"ID-NT","archipelago":"Nusa Tenggara","ISO3166-2-lvl3":"ID-NU","country":"Indonesia","country_code":"id"},"population":450360,"osm_type":"relation","osm_id":11226931,"type":"administrative","location":[123.6017755,-10.1632209],"bbox":[123.5270742,-10.2927858,123.6831699,-10.1250952]}}
{"name":"Labuan Bajo","other_names":{"name:ar":"لابوان باجو","name:id":"Labuan Bajo","name:ja":"ラブハンバジョ","name:zh":"拉布汉巴焦"},"display_name":"Labuan Bajo, Manggarai Barat, Nusa Tenggara Timur, Nusa Tenggara, 86754, Indonesia","address":{"city":"Labuan Bajo","county":"Manggarai Barat","state":"Nusa Tenggara Timur","ISO3166-2-lvl4":"ID-NT","archipelago":"Nusa Tenggara","ISO3166-2-lvl3":"ID-NU","postcode":"86754","country":"Indonesia","country_code":"id"},"osm_type":"node","osm_id":1271856012,"type":"city","location":[119.8855688,-8.4944201],"bbox":[119.7255688,-8.6544201,120.0455688,-8.3344201]}
{"name":"Lamongan","other_names":{"name:ar":"لامونقان","name:id":"Lamongan","name:ja":"ラモンガン","official_name":"Kecamatan Lamongan"},"display_name":"Lamongan, Jawa Timur, Jawa, 62211, Indonesia","address":{"city":"Lamongan","county":"Lamongan","state":"Jawa Timur","ISO3166-2-lvl4":"ID-JI","region":"Jawa","ISO3166-2-lvl3":"ID-JW","postcode":"62211","country":"Indonesia","country_code":"id"},"osm_type":"node","osm_id":2518148509,"type":"city","location":[112.4155881,-7.1204411],"bbox":[112.2555881,-7.2804411,112.5755881,-6.9604411]}
{"display_name":"Lampung, Sumatera, Indonesia","address":{"state":"Lampung","ISO3166-2-lvl4":"ID-LA","region":"Sumatera","ISO3166-2-lvl3":"ID-SM","country":"Indonesia","country_code":"id"},"osm_type":"way","osm_id":842826320,"type":"city","location":[105.25353121130362,-5.41486415],"bbox":[105.2521323,-5.4165569,105.2556988,-5.4129871]}
{"display_name":"Lampung, Sumatera, Indonesia","address":{"state":"Lampung","ISO3166-2-lvl4":"ID-LA","region":"Sumatera","ISO3166-2-lvl3":"ID-SM","country":"Indonesia","country_code":"id"},"osm_type":"way","osm_id":712216162,"type":"city","location":[105.25882220250091,-5.41922085],"bbox":[105.2582528,-5.4222109,105.2593768,-5.4175822]}
{"name":"Langsa","other_names":{"name:ar":"لانقسا","name:en":"Langsa","name:ja":"ランサ","name:ru":"Лангса","name:uk":"Лангса","name:zh":"冷沙","alt_name:ar":"لانغسا","official_name":"Kota Langsa"},"display_name":"Langsa, Aceh, Sumatera, Indonesia","address":{"city":"Langsa","county":"Langsa","state":"Aceh","ISO3166-2-lvl4":"ID-AC","region":"Sumatera","ISO3166-2-lvl3":"ID-SM","country":"Indonesia","country_code":"id"},"population":182424,"osm_type":"node","osm_id":746731552,"type":"city","location":[97.9681841,4.4730892],"bbox":[97.8081841,4.3130892,98.1281841,4.6330892],"border":{"name":"Langsa","other_names":{"name:ar":"لانقسا","name:id":"Langsa","name:zh":"冷沙","alt_name:ar":"لانغسا","official_name":"Kabupaten Langsa","name:en":"Langsa","name:ja":"ランサ","name:ru":"Лангса","name:uk":"Лангса","_place_official_name":"Kota Langsa"},"display_name":"Langsa, Aceh, Sumatera, 24412, Indonesia","address":{"county":"Langsa","state":"Aceh","ISO3166-2-lvl4":"ID-AC","region":"Sumatera","ISO3166-2-lvl3":"ID-SM","postcode":"24412","country":"Indonesia","country_code":"id"},"population":182424,"osm_type":"relation","osm_id":8922311,"type":"administrative","location":[97.9681841,4.4730892],"bbox":[97.897542,4.406532,98.083722,4.5627632]}}
{"name":"Lemah ireng","other_names":{"name:id":"Tanah Hitam","name:jv":"Lemah Ireng"},"display_name":"Lemah ireng, Pedan, Klaten, Jawa Tengah, Jawa, Indonesia","address":{"city":"Lemah ireng","municipality":"Pedan","county":"Klaten","state":"Jawa Tengah","ISO3166-2-lvl4":"ID-JT","region":"Jawa","ISO3166-2-lvl3":"ID-JW","country":"Indonesia","country_code":"id"},"osm_type":"relation","osm_id":18772596,"type":"administrative","location":[110.70057714550529,-7.66838115],"bbox":[110.6947761,-7.6747363,110.7061231,-7.6620249],"inferred_type":"city"}
{"name":"Lhokseumawe","other_names":{"name:en":"Lhokseumawe","name:ja":"ロークスマウェ","name:lt":"Lhokseumavė","name:ru":"Лхоксёмаве","name:zh":"司马威","official_name":"Kota Lhokseumawe"},"display_name":"Lhokseumawe, Aceh, Sumatera, Indonesia","address":{"city":"Lhokseumawe","state":"Aceh","ISO3166-2-lvl4":"ID-AC","region":"Sumatera","ISO3166-2-lvl3":"ID-SM","country":"Indonesia","country_code":"id"},"population":190624,"osm_type":"node","osm_id":653399882,"type":"city","location":[97.1480544,5.1789659],"bbox":[96.9880544,5.0189659,97.3080544,5.3389659],"border":{"name":"Lhokseumawe","other_names":{"name:ar":"لوكسيوماوي","name:id":"Lhokseumawe","name:zh":"司馬委","official_name":"Kota Lhokseumawe","name:en":"Lhokseumawe","name:ja":"ロークスマウェ","name:lt":"Lhokseumavė","name:ru":"Лхоксёмаве","alt:zh":"司马威"},"display_name":"Lhokseumawe, Aceh, Sumatera, Indonesia","address":{"city":"Lhokseumawe","state":"Aceh","ISO3166-2-lvl4":"ID-AC","region":"Sumatera","ISO3166-2-lvl3":"ID-SM","country":"Indonesia","country_code":"id"},"population":190624,"osm_type":"relation","osm_id":4126220,"type":"administrative","location":[97.1480544,5.1789659],"bbox":[97.0260901,5.0837903,97.1827626,5.241721]}}
{"name":"Lubai Ulu","other_names":{"name:en":"Lubai Ulu","name:id":"Lubai Ulu"},"display_name":"Lubai Ulu, Muara Enim, Sumatera Selatan, Sumatera, 31173, Indonesia","address":{"city":"Lubai Ulu","municipality":"Lubai Ulu","county":"Muara Enim","state":"Sumatera Selatan","ISO3166-2-lvl4":"ID-SS","region":"Sumatera","ISO3166-2-lvl3":"ID-SM","postcode":"31173","country":"Indonesia","country_code":"id"},"osm_type":"way","osm_id":621730329,"type":"administrative","location":[104.1183256489934,-3.8062985],"bbox":[103.94238,-3.919973,104.266241,-3.690838],"inferred_type":"city","border":{"name":"Lubai Ulu","other_names":{"name:en":"Lubai Ulu","name:id":"Lubai Ulu"},"display_name":"Lubai Ulu, Muara Enim, Sumatera Selatan, Sumatera, 31173, Indonesia","address":{"city":"Lubai Ulu","municipality":"Lubai Ulu","county":"Muara Enim","state":"Sumatera Selatan","ISO3166-2-lvl4":"ID-SS","region":"Sumatera","ISO3166-2-lvl3":"ID-SM","postcode":"31173","country":"Indonesia","country_code":"id"},"osm_type":"relation","osm_id":8705376,"type":"administrative","location":[104.1183256489934,-3.8062985],"bbox":[103.94238,-3.919973,104.266241,-3.690838]}}
{"name":"Lubuklinggau","other_names":{"name:ar":"لوبوكلينقاو","name:ja":"ルブックリンガウ","official_name":"Kota Lubuklinggau"},"display_name":"Lubuklinggau, Sumatera Selatan, Sumatera, Indonesia","address":{"city":"Lubuklinggau","state":"Sumatera Selatan","ISO3166-2-lvl4":"ID-SS","region":"Sumatera","ISO3166-2-lvl3":"ID-SM","country":"Indonesia","country_code":"id"},"population":214952,"osm_type":"node","osm_id":4396427794,"type":"city","location":[102.8715732,-3.2919136],"bbox":[102.7115732,-3.4519136,103.0315732,-3.1319136],"border":{"name":"Lubuklinggau","other_names":{"name:ar":"لوبوكلينقاو","name:id":"Lubuklinggau","official_name":"Kota Lubuklinggau","name:ja":"ルブックリンガウ"},"display_name":"Lubuklinggau, Sumatera Selatan, Sumatera, Indonesia","address":{"city":"Lubuklinggau","state":"Sumatera Selatan","ISO3166-2-lvl4":"ID-SS","region":"Sumatera","ISO3166-2-lvl3":"ID-SM","country":"Indonesia","country_code":"id"},"population":214952,"osm_type":"relation","osm_id":10004781,"type":"administrative","location":[102.8715732,-3.2919136],"bbox":[102.7677041,-3.377988,102.9824555,-3.1292598]}}
{"name":"Lumajang","other_names":{"name:ar":"لوماجانق","name:id":"Lumajang","name:ja":"ルマジャン","name:nl":"Loemadjang","name:zh":"南海漳","official_name":"Kecamatan Lumajang"},"display_name":"Lumajang, Jawa Timur, Jawa, 67313, Indonesia","address":{"city":"Lumajang","county":"Lumajang","state":"Jawa Timur","ISO3166-2-lvl4":"ID-JI","region":"Jawa","ISO3166-2-lvl3":"ID-JW","postcode":"67313","country":"Indonesia","country_code":"id"},"osm_type":"node","osm_id":1563563116,"type":"city","location":[113.2244162,-8.135205],"bbox":[113.0644162,-8.295205,113.3844162,-7.975205]}
{"name":"Madiun","other_names":{"name:ar":"ماديون","name:en":"Madiun","name:id":"Madiun","name:ja":"マディウン","name:jv":"ꦩꦢꦶꦪꦸꦤ꧀","name:ru":"Мадиун","name:uk":"Мадіун","name:zh":"茉莉芬","official_name":"Kota Madiun"},"display_name":"Madiun, Kota Madiun, Jawa Timur, Jawa, Indonesia","address":{"city":"Madiun","state":"Jawa Timur","ISO3166-2-lvl4":"ID-JI","region":"Jawa","ISO3166-2-lvl3":"ID-JW","country":"Indonesia","country_code":"id"},"population":175767,"osm_type":"node","osm_id":2535859348,"type":"city","location":[111.5168819,-7.6290837],"bbox":[111.3568819,-7.7890837,111.6768819,-7.4690837],"border":{"name":"Kota Madiun","other_names":{"name:ar":"ماديون","name:id":"Kota Madiun","name:jv":"ꦏꦸꦛꦩꦢꦶꦪꦸꦤ꧀","official_name":"Kota Madiun","name:en":"Madiun","name:ja":"マディウン","name:ru":"Мадиун","name:uk":"Мадіун","name:zh":"茉莉芬","alt":"Madiun","alt:id":"Madiun","alt:jv":"ꦩꦢꦶꦪꦸꦤ꧀"},"display_name":"Kota Madiun, Jawa Timur, Jawa, Indonesia","address":{"city":"Kota Madiun","state":"Jawa Timur","ISO3166-2-lvl4":"ID-JI","region":"Jawa","ISO3166-2-lvl3":"ID-JW","country":"Indonesia","country_code":"id"},"population":175767,"osm_type":"relation","osm_id":9676370,"type":"administrative","location":[111.5168819,-7.6290837],"bbox":[111.498768,-7.6649093,111.5664368,-7.59485]}}
{"name":"Magelang","other_names":{"name:ar":"ماقيلانق","name:ja":"マゲラン","name:zh":"马吉冷","official_name":"Kota Magelang"},"display_name":"Magelang, Kota Magelang, Jawa Tengah, Jawa, Indonesia","address":{"city":"Magelang","state":"Jawa Tengah","ISO3166-2-lvl4":"ID-JT","region":"Jawa","ISO3166-2-lvl3":"ID-JW","country":"Indonesia","country_code":"id"},"population":118227,"osm_type":"node","osm_id":1308686196,"type":"city","location":[110.2182164,-7.4770747],"bbox":[110.0582164,-7.6370747,110.3782164,-7.3170747]}
{"name":"Magetan","other_names":{"name:ar":"ماقيتان","name:id":"Magetan","name:ja":"マゲタン","name:jv":"ꦩꦒꦼꦠꦤ꧀","official_name":"Kecamatan Magetan"},"display_name":"Magetan, Jawa Timur, Jawa, 63361, Indonesia","address":{"city":"Magetan","county":"Magetan","state":"Jawa Timur","ISO3166-2-lvl4":"ID-JI","region":"Jawa","ISO3166-2-lvl3":"ID-JW","postcode":"63361","country":"Indonesia","country_code":"id"},"osm_type":"node","osm_id":1308670176,"type":"city","location":[111.3281197,-7.6560219],"bbox":[111.1681197,-7.8160219,111.4881197,-7.4960219]}
{"name":"Majalengka","other_names":{"name:en":"Majalengka","name:id":"Majalengka","name:ja":"マジャレンカ","name:su":"ᮙᮏᮜᮦᮀᮊ","name:su-Latn":"Majaléngka","official_name":"Kecamatan Majalengka"},"display_name":"Majalengka, Jawa Barat, Jawa, 45418, Indonesia","address":{"city":"Majalengka","county":"Majalengka","state":"Jawa Barat","ISO3166-2-lvl4":"ID-JB","region":"Jawa","ISO3166-2-lvl3":"ID-JW","postcode":"45418","country":"Indonesia","country_code":"id"},"population":20906,"osm_type":"node","osm_id":2613117002,"type":"city","location":[108.2277623,-6.8351874],"bbox":[108.0677623,-6.9951874,108.3877623,-6.6751874]}
{"name":"Makassar","other_names":{"name:ar":"مكسر","name:en":"Makassar","name:et":"Makassar","name:fr":"Makassar","name:hi":"मकस्सर","name:ja":"マカッサル","name:kn":"ಮಕಸ್ಸರ","name:mk":"Макасар","name:pl":"Makasar","name:pt":"Macáçar","name:ru":"Макасар","name:uk":"Макассар","name:zh":"望加锡","alt_name":"Macassar, Mangkasar","name:bug":"ᨍᨘᨇᨉ","name:mak":"ᨆᨀᨔᨑ","old_name":"Ujung Pandang","alt_name:ar":"ماكاسار;ماكاسر"},"display_name":"Makassar, Sulawesi Selatan, Sulawesi, Indonesia","address":{"city":"Makassar","state":"Sulawesi Selatan","ISO3166-2-lvl4":"ID-SN","region":"Sulawesi","ISO3166-2-lvl3":"ID-SL","country":"Indonesia","country_code":"id"},"population":1427619,"osm_type":"node","osm_id":297406682,"type":"city","location":[119.4124282,-5.1342962],"bbox":[119.2524282,-5.2942962,119.5724282,-4.9742962],"border":[{"name":"Makassar","other_names":{"name:en":"Makassar","name:id":"Makassar","name:su":"ᮙᮊᮞ᮪ᮞᮁ","name:zh":"望加锡","name:mak":"ᨆᨀᨔᨑ","name:su-Latn":"Makassar","official_name":"Kota Makassar","name:ar":"مكسر","name:et":"Makassar","name:fr":"Makassar","name:hi":"मकस्सर","name:ja":"マカッサル","name:kn":"ಮಕಸ್ಸರ","name:mk":"Макасар","name:pl":"Makasar","name:pt":"Macáçar","name:ru":"Макасар","name:uk":"Макассар","alt_name":"Macassar, Mangkasar","name:bug":"ᨍᨘᨇᨉ","old_name":"Ujung Pandang","alt_name:ar":"ماكاسار;ماكاسر"},"display_name":"Makassar, Sulawesi Selatan, Sulawesi, Indonesia","address":{"city":"Makassar","state":"Sulawesi Selatan","ISO3166-2-lvl4":"ID-SN","region":"Sulawesi","ISO3166-2-lvl3":"ID-SL","country":"Indonesia","country_code":"id"},"population":1427619,"osm_type":"relation","osm_id":11243159,"type":"administrative","location":[119.4124282,-5.1342962],"bbox":[119.0738176,-5.232416,119.543383,-4.9750306]},{"name":"Ujung Pandang","other_names":{"name:en":"Ujung Pandang","name:id":"Ujung Pandang","name:su":"ᮅᮏᮥᮀ ᮕᮔ᮪ᮓᮀ","name:mak":"ᨕᨘᨍᨘ ᨄᨉ","name:su-Latn":"Ujung Pandang"},"display_name":"Ujung Pandang, Makassar, Sulawesi Selatan, Sulawesi, Indonesia","address":{"city_district":"Ujung Pandang","city":"Makassar","state":"Sulawesi Selatan","ISO3166-2-lvl4":"ID-SN","region":"Sulawesi","ISO3166-2-lvl3":"ID-SL","country":"Indonesia","country_code":"id"},"osm_type":"relation","osm_id":12222140,"type":"administrative","location":[119.4136705800444,-5.141435550000001],"bbox":[119.3427256,-5.1520294,119.4214353,-5.1134366]}]}
{"name":"Malang","other_names":{"name:ar":"مالانق","name:en":"Malang","name:ja":"マラン","name:jv":"ꦩꦭꦁ","name:ko":"말랑","name:mk":"Маланг","name:nl":"Malang","name:ru":"Маланг","name:uk":"Маланг","name:zh":"瑪琅","official_name":"Kota Malang"},"display_name":"Malang, Kota Malang, Jawa Timur, Jawa, Indonesia","address":{"city":"Malang","state":"Jawa Timur","ISO3166-2-lvl4":"ID-JI","region":"Jawa","ISO3166-2-lvl3":"ID-JW","country":"Indonesia","country_code":"id"},"population":857891,"osm_type":"node","osm_id":2518173352,"type":"city","location":[112.6340265,-7.9771308],"bbox":[112.4740265,-8.1371308,112.7940265,-7.8171308],"border":{"name":"Kota Malang","other_names":{"name:ar":"مالانق","name:id":"Kota Malang","name:jv":"ꦠꦸꦛꦩꦭꦁ","official_name":"Kota Malang","name:en":"Malang","name:ja":"マラン","name:ko":"말랑","name:mk":"Маланг","name:nl":"Malang","name:ru":"Маланг","name:uk":"Маланг","name:zh":"瑪琅","alt":"Malang","alt:jv":"ꦩꦭꦁ"},"display_name":"Kota Malang, Jawa Timur, Jawa, Indonesia","address":{"city":"Kota Malang","state":"Jawa Timur","ISO3166-2-lvl4":"ID-JI","region":"Jawa","ISO3166-2-lvl3":"ID-JW","country":"Indonesia","country_code":"id"},"population":857891,"osm_type":"relation","osm_id":9674151,"type":"administrative","location":[112.6340265,-7.9771308],"bbox":[112.5698776,-8.0502632,112.6947173,-7.9108818]}}
{"name":"Mamuju","other_names":{"name:ar":"ماموجو","name:en":"Mamuju","name:id":"Mamuju","name:ja":"マムジュ","name:ru":"Мамуджу","name:uk":"Мамуджу","name:zh":"马穆朱"},"display_name":"Mamuju, Sulawesi Barat, Sulawesi, 91515, Indonesia","address":{"city":"Mamuju","county":"Mamuju","state":"Sulawesi Barat","ISO3166-2-lvl4":"ID-SR","region":"Sulawesi","ISO3166-2-lvl3":"ID-SL","postcode":"91515","country":"Indonesia","country_code":"id"},"population":107864,"osm_type":"node","osm_id":2339328548,"type":"city","location":[118.8885839,-2.6757443],"bbox":[118.7285839,-2.8357443,119.0485839,-2.5157443]}
{"name":"Mamuju","other_names":{"name:ar":"ماموجو","name:id":"Mamuju"},"display_name":"Mamuju, Sulawesi Barat, Sulawesi, 91515, Indonesia","address":{"city":"Mamuju","county":"Mamuju","state":"Sulawesi Barat","ISO3166-2-lvl4":"ID-SR","region":"Sulawesi","ISO3166-2-lvl3":"ID-SL","postcode":"91515","country":"Indonesia","country_code":"id"},"osm_type":"node","osm_id":7686434884,"type":"city","location":[118.8847947,-2.6756302],"bbox":[118.7247947,-2.8356302,119.0447947,-2.5156302]}
{"name":"Manado","other_names":{"name:ar":"منادو","name:en":"Manado","name:ja":"マナド","name:ru":"Манадо","name:uk":"Манадо","name:zh":"万鸦老","alt_name:ar":"مانادو"},"display_name":"Manado, Sulawesi Utara, Sulawesi, Indonesia","address":{"city":"Manado","state":"Sulawesi Utara","ISO3166-2-lvl4":"ID-SA","region":"Sulawesi","ISO3166-2-lvl3":"ID-SL","country":"Indonesia","country_code":"id"},"population":423257,"osm_type":"node","osm_id":317529477,"type":"city","location":[124.8408708,1.4900578],"bbox":[124.6808708,1.3300578,125.0008708,1.6500578],"border":{"name":"Manado","other_names":{"name:id":"Manado","official_name":"Kota Manado","name:ar":"منادو","name:en":"Manado","name:ja":"マナド","name:ru":"Манадо","name:uk":"Манадо","name:zh":"万鸦老","alt_name:ar":"مانادو"},"display_name":"Manado, Sulawesi Utara, Sulawesi, Indonesia","address":{"city":"Manado","state":"Sulawesi Utara","ISO3166-2-lvl4":"ID-SA","region":"Sulawesi","ISO3166-2-lvl3":"ID-SL","country":"Indonesia","country_code":"id"},"population":423257,"osm_type":"relation","osm_id":14907638,"type":"administrative","location":[124.8408708,1.4900578],"bbox":[124.6815473,1.4280234,124.9341182,1.6491886]}}
{"name":"Manokwari","other_names":{"name:ar":"مانوكواري","name:en":"Manokwari","name:id":"Manokwari","name:ja":"マノクワリ","name:ru":"Маноквари","name:uk":"Манокварі","name:zh":"马诺夸里"},"display_name":"Manokwari, Papua Barat, Western New Guinea, 98311, Indonesia","address":{"city":"Manokwari","county":"Manokwari","state":"Papua Barat","ISO3166-2-lvl4":"ID-PB","region":"Western New Guinea","ISO3166-2-lvl3":"ID-PP","postcode":"98311","country":"Indonesia","country_code":"id"},"population":136302,"osm_type":"node","osm_id":2036443318,"type":"city","location":[134.0767324,-0.8614456],"bbox":[133.9167324,-1.0214456,134.2367324,-0.7014456]}
{"name":"Mataram","other_names":{"name:ar":"مطرم","name:en":"Mataram","name:ja":"マタラム","name:mk":"Матарам","name:ru":"Матарам","name:uk":"Матарам","name:zh":"马塔兰","alt_name:ar":"ماطارام;مطرام;مطارام;مترم;ماتارام;متارام;مترام","official_name":"Kota Mataram"},"display_name":"Mataram, Nusa Tenggara Barat, Nusa Tenggara, Indonesia","address":{"city":"Mataram","state":"Nusa Tenggara Barat","ISO3166-2-lvl4":"ID-NB","archipelago":"Nusa Tenggara","ISO3166-2-lvl3":"ID-NU","country":"Indonesia","country_code":"id"},"population":402843,"osm_type":"node","osm_id":413451054,"type":"city","location":[116.10685,-8.5837726],"bbox":[115.94685,-8.7437726,116.26685,-8.4237726],"border":{"name":"Mataram","other_names":{"name:ar":"مطرم","name:id":"Mataram","alt_name":"ماطارام;مطرام;مطارام;مترم;ماتارام;متارام;مترام","official_name":"Kota Mataram","name:en":"Mataram","name:ja":"マタラム","name:mk":"Матарам","name:ru":"Матарам","name:uk":"Матарам","name:zh":"马塔兰","alt_name:ar":"ماطارام;مطرام;مطارام;مترم;ماتارام;متارام;مترام"},"display_name":"Mataram, Nusa Tenggara Barat, Nusa Tenggara, Indonesia","address":{"city":"Mataram","state":"Nusa Tenggara Barat","ISO3166-2-lvl4":"ID-NB","archipelago":"Nusa Tenggara","ISO3166-2-lvl3":"ID-NU","country":"Indonesia","country_code":"id"},"population":402843,"osm_type":"relation","osm_id":14315479,"type":"administrative","location":[116.10685,-8.5837726],"bbox":[116.0692547,-8.6265792,116.1699271,-8.5509299]}}
{"name":"Medan","other_names":{"name:ar":"ميدان","name:en":"Medan","name:hi":"मॆदान्","name:id":"Medan","name:ja":"メダン","name:kn":"ಮೆದಾನ್","name:lt":"Medanas","name:no":"Medan","name:oc":"Medan","name:pt":"Medan","name:ru":"Медан","name:uk":"Медан","name:zh":"棉兰","name:bbc":"ᯔᯩᯑᯉ᯲","short_name":"MDN","official_name":"Kota Medan"},"display_name":"Medan, Kota Medan, Sumatera Utara, Sumatera, Indonesia","address":{"city":"Medan","state":"Sumatera Utara","ISO3166-2-lvl4":"ID-SU","region":"Sumatera","ISO3166-2-lvl3":"ID-SM","country":"Indonesia","country_code":"id"},"population":2097610,"osm_type":"node","osm_id":267554214,"type":"city","location":[98.6741623,3.5894617],"bbox":[98.5141623,3.4294617,98.8341623,3.7494617],"border":{"name":"Kota Medan","other_names":{"name:ar":"ميدان","name:en":"City of Medan","name:id":"Kota Medan","name:hi":"मॆदान्","name:ja":"メダン","name:kn":"ಮೆದಾನ್","name:lt":"Medanas","name:no":"Medan","name:oc":"Medan","name:pt":"Medan","name:ru":"Медан","name:uk":"Медан","name:zh":"棉兰","name:bbc":"ᯔᯩᯑᯉ᯲","short_name":"MDN","official_name":"Kota Medan","alt":"Medan","alt:en":"Medan","alt:id":"Medan"},"display_name":"Kota Medan, Sumatera Utara, Sumatera, Indonesia","address":{"city":"Kota Medan","state":"Sumatera Utara","ISO3166-2-lvl4":"ID-SU","region":"Sumatera","ISO3166-2-lvl3":"ID-SM","country":"Indonesia","country_code":"id"},"population":2097610,"osm_type":"relation","osm_id":8484616,"type":"administrative","location":[98.6741623,3.5894617],"bbox":[98.5924674,3.4881173,98.7465201,3.8019525]}}
{"name":"Merauke","other_names":{"name:ar":"مراوكي","name:en":"Merauke","name:id":"Merauke","name:ja":"メラウケ","name:ru":"Мерауке","name:uk":"Мерауке","name:zh":"马老奇","alt_name:ar":"ميراوكي;ميروكي","name:ms-Arab":"مروکي"},"display_name":"Merauke, Maro, Merauke, Papua Selatan, Western New Guinea, 99616, Indonesia","address":{"city":"Merauke","village":"Maro","county":"Merauke","state":"Papua Selatan","ISO3166-2-lvl4":"ID-PS","region":"Western New Guinea","ISO3166-2-lvl3":"ID-PP","postcode":"99616","country":"Indonesia","country_code":"id"},"population":87634,"osm_type":"node","osm_id":541933847,"type":"city","location":[140.395582,-8.4902766],"bbox":[140.235582,-8.6502766,140.555582,-8.3302766]}
{"name":"Metro","other_names":{"name:ar":"ميترو","name:ja":"メトロ","official_name":"Kota Metro"},"display_name":"Metro, Lampung, Sumatera, Indonesia","address":{"city":"Metro","state":"Lampung","ISO3166-2-lvl4":"ID-LA","region":"Sumatera","ISO3166-2-lvl3":"ID-SM","country":"Indonesia","country_code":"id"},"population":149361,"osm_type":"node","osm_id":3514132563,"type":"city","location":[105.3078642,-5.1078839],"bbox":[105.1478642,-5.2678839,105.4678642,-4.9478839],"border":{"name":"Metro","other_names":{"name:ar":"ميترو","name:id":"Metro","official_name":"Kota Metro","name:ja":"メトロ"},"display_name":"Metro, Lampung, Sumatera, Indonesia","address":{"city":"Metro","state":"Lampung","ISO3166-2-lvl4":"ID-LA","region":"Sumatera","ISO3166-2-lvl3":"ID-SM","country":"Indonesia","country_code":"id"},"population":149361,"osm_type":"relation","osm_id":11007423,"type":"administrative","location":[105.3078642,-5.1078839],"bbox":[105.2622023,-5.1787502,105.3592337,-5.054534]}}
{"name":"Mojokerto","other_names":{"name:ar":"موجوكيرتو","name:en":"Mojokerto","name:ja":"モジョケルト","name:jv":"Majakerta","name:nl":"Modjokerto","name:ru":"Моджокерто","name:uk":"Моджокерто","name:zh":"惹班","official_name":"Kota Mojokerto"},"display_name":"Mojokerto, Kota Mojokerto, Jawa Timur, Jawa, Indonesia","address":{"city":"Mojokerto","state":"Jawa Timur","ISO3166-2-lvl4":"ID-JI","region":"Jawa","ISO3166-2-lvl3":"ID-JW","country":"Indonesia","country_code":"id"},"osm_type":"node","osm_id":2518148508,"type":"city","location":[112.4319852,-7.4631537],"bbox":[112.2719852,-7.6231537,112.5919852,-7.3031537],"border":{"name":"Kota Mojokerto","other_names":{"name:ar":"موجوكيرتو","name:id":"Kota Mojokerto","name:zh-Hant":"惹班","official_name":"Kota Mojokerto","name:en":"Mojokerto","name:ja":"モジョケルト","name:jv":"Majakerta","name:nl":"Modjokerto","name:ru":"Моджокерто","name:uk":"Моджокерто","name:zh":"惹班","alt":"Mojokerto"},"display_name":"Kota Mojokerto, Jawa Timur, Jawa, Indonesia","address":{"city":"Kota Mojokerto","state":"Jawa Timur","ISO3166-2-lvl4":"ID-JI","region":"Jawa","ISO3166-2-lvl3":"ID-JW","country":"Indonesia","country_code":"id"},"osm_type":"relation","osm_id":12553602,"type":"administrative","location":[112.4319852,-7.4631537],"bbox":[112.4055153,-7.4949763,112.4690564,-7.4472273]}}
{"name":"Nabire","other_names":{"name:ar":"نابير","name:id":"Nabire"},"display_name":"Nabire, Kabupaten Nabire, Papua Tengah, Western New Guinea, 98815, Indonesia","address":{"city":"Nabire","county":"Kabupaten Nabire","state":"Papua Tengah","ISO3166-2-lvl4":"ID-PT","region":"Western New Guinea","ISO3166-2-lvl3":"ID-PP","postcode":"98815","country":"Indonesia","country_code":"id"},"population":74197,"osm_type":"node","osm_id":541928444,"type":"city","location":[135.5023653,-3.360285],"bbox":[135.3423653,-3.520285,135.6623653,-3.200285]}
{"name":"Nganjuk","other_names":{"name:ar":"ناقنجوك","name:id":"Nganjuk","name:ja":"ガンジュク","name:nl":"Ngandjoek","official_name":"Kecamatan Nganjuk"},"display_name":"Nganjuk, Jawa Timur, Jawa, 64414, Indonesia","address":{"city":"Nganjuk","county":"Nganjuk","state":"Jawa Timur","ISO3166-2-lvl4":"ID-JI","region":"Jawa","ISO3166-2-lvl3":"ID-JW","postcode":"64414","country":"Indonesia","country_code":"id"},"osm_type":"node","osm_id":2546462080,"type":"city","location":[111.9010553,-7.6023595],"bbox":[111.7410553,-7.7623595,112.0610553,-7.4423595]}
{"name":"Ngawi","other_names":{"name:ar":"نقاوي","name:ja":"ガウィ","name:jv":"ꦔꦮꦶ","official_name":"Kecamatan Ngawi"},"display_name":"Ngawi, Jawa Timur, Jawa, Indonesia","address":{"city":"Ngawi","state":"Jawa Timur","ISO3166-2-lvl4":"ID-JI","region":"Jawa","ISO3166-2-lvl3":"ID-JW","country":"Indonesia","country_code":"id"},"osm_type":"node","osm_id":1565413690,"type":"city","location":[111.4443448,-7.402722],"bbox":[111.2843448,-7.562722,111.6043448,-7.242722],"border":{"name":"Ngawi","other_names":{"name:ar":"نقاوي","name:id":"Ngawi","name:jv":"ꦔꦮꦶ","official_name":"Kabupaten Ngawi","name:ja":"ガウィ","_place_official_name":"Kecamatan Ngawi"},"display_name":"Ngawi, Jawa Timur, Jawa, Indonesia","address":{"city":"Ngawi","state":"Jawa Timur","ISO3166-2-lvl4":"ID-JI","region":"Jawa","ISO3166-2-lvl3":"ID-JW","country":"Indonesia","country_code":"id"},"osm_type":"relation","osm_id":9676651,"type":"administrative","location":[111.4443448,-7.402722],"bbox":[111.1184387,-7.6204158,111.6712189,-7.244574]}}
{"name":"Nusantara","other_names":{"name:ca":"Nusantara","name:de":"Nusantara","name:en":"Nusantara","name:fi":"Nusantara","name:id":"Nusantara","name:ja":"ヌサンタラ","name:ko":"누산타라","name:ms":"Nusantara","name:pl":"Nusantara","name:sr":"Нусантара","name:zh":"努山塔拉","alt_name":"Ibu Kota Negara","short_name":"IKN","alt_name:en":"Nusantara City","alt_name:id":"Ibu Kota Negara","alt_name:zh":"努桑塔拉","name:sr-Latn":"Nusantara","name:zh-Hans":"努山塔拉","name:zh-Hant":"努山塔拉","official_name":"Ibu Kota Nusantara","official_name:en":"Capital City of Nusantara","official_name:id":"Ibu Kota Nusantara"},"display_name":"Nusantara, Penajam Paser Utara, Kalimantan Timur, Kalimantan, Indonesia","address":{"city":"Nusantara","county":"Penajam Paser Utara","state":"Kalimantan Timur","ISO3166-2-lvl4":"ID-KI","region":"Kalimantan","ISO3166-2-lvl3":"ID-KA","country":"Indonesia","country_code":"id"},"osm_type":"node","osm_id":9442672492,"type":"city","location":[116.7087104,-0.9730669],"bbox":[116.5487104,-1.1330669,116.8687104,-0.8130669]}
{"name":"Padang Panjang","other_names":{"name:ar":"بادانق بانجانق","name:id":"Padang Panjang","name:ja":"パダン・パンジャン","name:ru":"Падангпанджанг","alt_name":"Padangpanjang","official_name":"Kota Padang Panjang"},"display_name":"Padang Panjang, Sumatera Barat, Sumatera, Indonesia","address":{"city":"Padang Panjang","state":"Sumatera Barat","ISO3166-2-lvl4":"ID-SB","region":"Sumatera","ISO3166-2-lvl3":"ID-SM","country":"Indonesia","country_code":"id"},"population":104499,"osm_type":"node","osm_id":595344601,"type":"city","location":[100.3932441,-0.4654636],"bbox":[100.2332441,-0.6254636,100.5532441,-0.3054636],"border":{"name":"Padang Panjang","other_names":{"name:ar":"بادانق بانجانق","name:id":"Padang Panjang","alt_name":"Kota Padang Panjang","official_name":"Kota Padang Panjang","name:ja":"パダン・パンジャン","name:ru":"Падангпанджанг","_place_alt_name":"Padangpanjang"},"display_name":"Padang Panjang, Sumatera Barat, Sumatera, Indonesia","address":{"city":"Padang Panjang","state":"Sumatera Barat","ISO3166-2-lvl4":"ID-SB","region":"Sumatera","ISO3166-2-lvl3":"ID-SM","country":"Indonesia","country_code":"id"},"population":104499,"osm_type":"relation","osm_id":14954678,"type":"administrative","location":[100.3932441,-0.4654636],"bbox":[100.3653356,-0.4899417,100.4374976,-0.4498704]}}
{"name":"Padang","other_names":{"name:ar":"بدنق","name:en":"Padang","name:ja":"パダン","name:pt":"Padang","name:ru":"Паданг","name:uk":"Паданг","name:zh":"巴东","short_name":"PAD","alt_name:ar":"بادنق;بادنغ;بادانغ;بدنغ;بدنك","name:zh-Hant":"巴東","official_name":"Kota Padang"},"display_name":"Padang, Sumatera Barat, Sumatera, Indonesia","address":{"city":"Padang","state":"Sumatera Barat","ISO3166-2-lvl4":"ID-SB","region":"Sumatera","ISO3166-2-lvl3":"ID-SM","country":"Indonesia","country_code":"id"},"population":1000096,"osm_type":"node","osm_id":2781151359,"type":"city","location":[100.3632561,-0.9247587],"bbox":[100.2032561,-1.0847587,100.5232561,-0.7647587],"border":{"name":"Padang","other_names":{"name:ar":"بدنق","name:id":"Padang","alt_name":"Kota Padang","alt_name:ar":"بادنق;بادنغ;بادانغ;بدنغ;بدنك","official_name":"Kota Padang","name:en":"Padang","name:ja":"パダン","name:pt":"Padang","name:ru":"Паданг","name:uk":"Паданг","name:zh":"巴东","short_name":"PAD","name:zh-Hant":"巴東"},"display_name":"Padang, Sumatera Barat, Sumatera, Indonesia","address":{"city":"Padang","state":"Sumatera Barat","ISO3166-2-lvl4":"ID-SB","region":"Sumatera","ISO3166-2-lvl3":"ID-SM","country":"Indonesia","country_code":"id"},"population":1000096,"osm_type":"relation","osm_id":14954680,"type":"administrative","location":[100.3632561,-0.9247587],"bbox":[100.0988431,-1.1372351,100.56561,-0.726285]}}
{"name":"Padangsidimpuan","other_names":{"name:en":"Padang Sidempuan","name:ja":"パダンサイデンプアン","name:lt":"Padang Sidempuanas","name:pl":"Padang Sidempuan","name:ru":"Падангсидемпуан","alt_name":"Padang Sidempuan;Kota Padang Sidempuan","short_name":"PSP","official_name":"Kota Padangsidimpuan"},"display_name":"Padangsidimpuan, Padang Sidempuan, Padangsidimpuan, Sumatera Utara, Sumatera, Indonesia","address":{"city":"Padangsidimpuan","county":"Padangsidimpuan","state":"Sumatera Utara","ISO3166-2-lvl4":"ID-SU","region":"Sumatera","ISO3166-2-lvl3":"ID-SM","country":"Indonesia","country_code":"id"},"population":178818,"osm_type":"node","osm_id":545624718,"type":"city","location":[99.2727172,1.372696],"bbox":[99.1127172,1.212696,99.4327172,1.532696],"border":{"name":"Padang Sidempuan","other_names":{"name:ar":"بادانق سيديمبوان","name:en":"Padang Sidempuan","name:id":"Padang Sidempuan","name:ja":"パダン サイデンプアン","name:lt":"Padang Sidempuanas","name:pl":"Padang Sidempuan","name:ru":"Падангсидемпуан","name:zh":"巴东石林潘","alt_name":"Padang Sidempuan;Kota Padang Sidempuan","short_name":"PSP","official_name":"Kota Padangsidimpuan","alt":"Padangsidimpuan","alt:ja":"パダンサイデンプアン"},"display_name":"Padang Sidempuan, Padangsidimpuan, Sumatera Utara, Sumatera, Indonesia","address":{"city":"Padang Sidempuan","county":"Padangsidimpuan","state":"Sumatera Utara","ISO3166-2-lvl4":"ID-SU","region":"Sumatera","ISO3166-2-lvl3":"ID-SM","country":"Indonesia","country_code":"id"},"population":178818,"osm_type":"relation","osm_id":6935042,"type":"city","location":[99.2727172,1.372696],"bbox":[99.2489681,1.35992,99.283236,1.402174]}}
{"name":"Padawaras","other_names":{"name:id":"Padawaras","official_name":"Desa Padawaras"},"display_name":"Padawaras, Cipatujah, Tasikmalaya, Jawa Barat, Jawa, Indonesia","address":{"city":"Padawaras","subdistrict":"Cipatujah","county":"Tasikmalaya","state":"Jawa Barat","ISO3166-2-lvl4":"ID-JB","region":"Jawa","ISO3166-2-lvl3":"ID-JW","country":"Indonesia","country_code":"id"},"osm_type":"relation","osm_id":18205377,"type":"administrative","location":[108.05128174412295,-7.67475345],"bbox":[108.0366026,-7.687974,108.0705519,-7.6615126],"inferred_type":"city"}
{"name":"Padawaras","other_names":{"name:id":"Padawaras","official_name":"Desa Padawaras"},"display_name":"Padawaras, Cipatujah, Tasikmalaya, Jawa Barat, Jawa, Indonesia","address":{"city":"Padawaras","subdistrict":"Cipatujah","county":"Tasikmalaya","state":"Jawa Barat","ISO3166-2-lvl4":"ID-JB","region":"Jawa","ISO3166-2-lvl3":"ID-JW","country":"Indonesia","country_code":"id"},"osm_type":"relation","osm_id":18205376,"type":"administrative","location":[108.07750752242302,-7.67129465],"bbox":[108.0633557,-7.6947176,108.0985053,-7.6477204],"inferred_type":"city"}
{"name":"Pagar Alam","other_names":{"name:ja":"パガー・アラム","alt_name":"Pageralam","official_name":"Kota Pagar Alam"},"display_name":"Pagar Alam, Sumatera Selatan, Sumatera, Indonesia","address":{"city":"Pagar Alam","state":"Sumatera Selatan","ISO3166-2-lvl4":"ID-SS","region":"Sumatera","ISO3166-2-lvl3":"ID-SM","country":"Indonesia","country_code":"id"},"population":133862,"osm_type":"node","osm_id":3461715028,"type":"city","location":[103.2501603,-4.0209526],"bbox":[103.0901603,-4.1809526,103.4101603,-3.8609526],"border":{"name":"Pagar Alam","other_names":{"name:id":"Pagar Alam","official_name":"Kota Pagar Alam","name:ja":"パガー・アラム","alt_name":"Pageralam"},"display_name":"Pagar Alam, Sumatera Selatan, Sumatera, Indonesia","address":{"city":"Pagar Alam","state":"Sumatera Selatan","ISO3166-2-lvl4":"ID-SS","region":"Sumatera","ISO3166-2-lvl3":"ID-SM","country":"Indonesia","country_code":"id"},"population":133862,"osm_type":"relation","osm_id":10005020,"type":"administrative","location":[103.2501603,-4.0209526],"bbox":[103.1300238,-4.2671728,103.4154074,-3.9847772]}}
{"name":"Palangka Raya","other_names":{"name:ar":"بالانقكا رايا","name:en":"Palangka Raya","name:id":"Palangkaraya","name:ja":"パランカラヤ","name:ru":"Паланкарая","name:uk":"Паланкарая","name:zh":"帕朗卡拉亚","alt_name":"Palangkaraya","short_name":"PRY;PKY","alt_name:ar":"بالانقكاريا;بالانغكارايا;بالانجكارايا"},"display_name":"Palangka Raya, Kalimantan Tengah, Kalimantan, Indonesia","address":{"city":"Palangka Raya","state":"Kalimantan Tengah","ISO3166-2-lvl4":"ID-KT","region":"Kalimantan","ISO3166-2-lvl3":"ID-KA","country":"Indonesia","country_code":"id"},"population":220962,"osm_type":"node","osm_id":861117370,"type":"city","location":[113.9164372,-2.2072919],"bbox":[113.7564372,-2.3672919,114.0764372,-2.0472919],"border":{"name":"Palangka Raya","other_names":{"name:en":"Palangka Raya","name:id":"Palangka Raya","alt_name":"Palangkaraya","short_name":"PKY;PRY;Palangka","official_name":"Kota Palangka Raya","name:ar":"بالانقكا رايا","name:ja":"パランカラヤ","name:ru":"Паланкарая","name:uk":"Паланкарая","name:zh":"帕朗卡拉亚","_place_short_name":"PRY;PKY","alt_name:ar":"بالانقكاريا;بالانغكارايا;بالانجكارايا","alt:id":"Palangkaraya"},"display_name":"Palangka Raya, Kalimantan Tengah, Kalimantan, Indonesia","address":{"city":"Palangka Raya","state":"Kalimantan Tengah","ISO3166-2-lvl4":"ID-KT","region":"Kalimantan","ISO3166-2-lvl3":"ID-KA","country":"Indonesia","country_code":"id"},"population":220962,"osm_type":"relation","osm_id":16179713,"type":"administrative","location":[113.9164372,-2.2072919],"bbox":[113.4756897,-2.4036174,114.1082873,-1.5847192]}}
{"name":"Palembang","other_names":{"name:ar":"باليمبانق","name:en":"Palembang","name:ja":"パレンバン","name:kn":"ಪಲೆಂಬಂಗ್","name:ru":"Палембанг","name:uk":"Палембанг","name:zh":"巨港","short_name":"PLG","alt_name:ar":"بالمبانك;باليمبانج;فلمبان","name:ms-Arab":"ڤليمبڠ","official_name":"Kota Palembang"},"display_name":"Palembang, Sumatera Selatan, Sumatera, Indonesia","address":{"city":"Palembang","state":"Sumatera Selatan","ISO3166-2-lvl4":"ID-SS","region":"Sumatera","ISO3166-2-lvl3":"ID-SM","country":"Indonesia","country_code":"id"},"population":1708413,"osm_type":"node","osm_id":2081450443,"type":"city","location":[104.7568507,-2.9888243],"bbox":[104.5968507,-3.1488243,104.9168507,-2.8288243],"border":{"name":"Palembang","other_names":{"name:id":"Palembang","official_name":"Kota Palembang","name:ar":"باليمبانق","name:en":"Palembang","name:ja":"パレンバン","name:kn":"ಪಲೆಂಬಂಗ್","name:ru":"Палембанг","name:uk":"Палембанг","name:zh":"巨港","short_name":"PLG","alt_name:ar":"بالمبانك;باليمبانج;فلمبان","name:ms-Arab":"ڤليمبڠ"},"display_name":"Palembang, Sumatera Selatan, Sumatera, Indonesia","address":{"city":"Palembang","state":"Sumatera Selatan","ISO3166-2-lvl4":"ID-SS","region":"Sumatera","ISO3166-2-lvl3":"ID-SM","country":"Indonesia","country_code":"id"},"population":1708413,"osm_type":"relation","osm_id":10713145,"type":"administrative","location":[104.7568507,-2.9888243],"bbox":[104.6137224,-3.1162084,104.8606248,-2.8545935]}}
{"name":"Palopo","other_names":{"name:ar":"بالوبو","name:en":"Palopo","name:ja":"パロポ","name:ru":"Палопо","name:uk":"Палопо","name:zh":"帕洛波"},"display_name":"Palopo, Sulawesi Selatan, Sulawesi, Indonesia","address":{"city":"Palopo","state":"Sulawesi Selatan","ISO3166-2-lvl4":"ID-SN","region":"Sulawesi","ISO3166-2-lvl3":"ID-SL","country":"Indonesia","country_code":"id"},"population":187331,"osm_type":"node","osm_id":1279966686,"type":"city","location":[120.1920679,-2.9996306],"bbox":[120.0320679,-3.1596306,120.3520679,-2.8396306],"border":{"name":"Palopo","other_names":{"ref":"M","name:ar":"بالوبو","name:id":"Palopo","official_name":"Kota Palopo","name:en":"Palopo","name:ja":"パロポ","name:ru":"Палопо","name:uk":"Палопо","name:zh":"帕洛波"},"display_name":"Palopo, Sulawesi Selatan, Sulawesi, Indonesia","address":{"city":"Palopo","state":"Sulawesi Selatan","ISO3166-2-lvl4":"ID-SN","region":"Sulawesi","ISO3166-2-lvl3":"ID-SL","country":"Indonesia","country_code":"id"},"population":187331,"osm_type":"relation","osm_id":14752329,"type":"administrative","location":[120.1920679,-2.9996306],"bbox":[120.0474357,-3.0848964,120.2330061,-2.8863444]}}
{"name":"Palu","other_names":{"name:ar":"بالو","name:en":"Palu","name:id":"Palu","name:ja":"パル","name:ru":"Палу","name:uk":"Палу","name:zh":"帕卢","name:zh-Hant":"帕盧"},"display_name":"Palu, Kecamatan Palu Timur, Palu, Sulawesi Tengah, Sulawesi, 94112, Indonesia","address":{"city":"Palu","municipality":"Kecamatan Palu Timur","region":"Palu","state":"Sulawesi Tengah","ISO3166-2-lvl4":"ID-ST","ISO3166-2-lvl3":"ID-SL","postcode":"94112","country":"Indonesia","country_code":"id"},"population":335297,"osm_type":"node","osm_id":296110116,"type":"city","location":[119.8679974,-0.8957793],"bbox":[119.7079974,-1.0557793,120.0279974,-0.7357793]}
{"name":"Pamekasan","other_names":{"name:ar":"باميكاسان","name:id":"Pamekasan","name:ja":"パムカサン","official_name":"Kecamatan Pamekasan"},"display_name":"Pamekasan, Jawa Timur, Jawa, 69317, Indonesia","address":{"city":"Pamekasan","county":"Pamekasan","state":"Jawa Timur","ISO3166-2-lvl4":"ID-JI","region":"Jawa","ISO3166-2-lvl3":"ID-JW","postcode":"69317","country":"Indonesia","country_code":"id"},"population":795918,"osm_type":"node","osm_id":2565923956,"type":"city","location":[113.4826273,-7.1605439],"bbox":[113.3226273,-7.3205439,113.6426273,-7.0005439]}
{"name":"Pandeglang","other_names":{"name:ar":"بانديقلانق","name:id":"Pandeglang"},"display_name":"Pandeglang, Banten, Jawa, 42212, Indonesia","address":{"city":"Pandeglang","county":"Pandeglang","state":"Banten","ISO3166-2-lvl4":"ID-BT","region":"Jawa","ISO3166-2-lvl3":"ID-JW","postcode":"42212","country":"Indonesia","country_code":"id"},"osm_type":"node","osm_id":1308695673,"type":"city","location":[106.1065355,-6.3096519],"bbox":[105.9465355,-6.4696519,106.2665355,-6.1496519]}
{"name":"Pangandaran","other_names":{"name:id":"Pangandaran","name:zh":"龐岸達蘭"},"display_name":"Pangandaran, Jawa Barat, Jawa, 46396, Indonesia","address":{"city":"Pangandaran","county":"Pangandaran","state":"Jawa Barat","ISO3166-2-lvl4":"ID-JB","region":"Jawa","ISO3166-2-lvl3":"ID-JW","postcode":"46396","country":"Indonesia","country_code":"id"},"population":60751,"osm_type":"node","osm_id":9820106104,"type":"city","location":[108.6499552,-7.6852138],"bbox":[108.4899552,-7.8452138,108.8099552,-7.5252138]}
{"name":"Pangkalan Kerinci","other_names":{"name:ar":"بنقكالان كيرينسي","name:id":"Pangkalan Kerinci","name:ja":"パンカラン・クリンチ","name:ms":"Pangkalan Kerinci","name:ms-Arab":"ڤڠکلن کرينچي"},"display_name":"Pangkalan Kerinci, Pelalawan, Riau, Sumatera, 28381, Indonesia","address":{"city":"Pangkalan Kerinci","municipality":"Pangkalan Kerinci","county":"Pelalawan","state":"Riau","ISO3166-2-lvl4":"ID-RI","region":"Sumatera","ISO3166-2-lvl3":"ID-SM","postcode":"28381","country":"Indonesia","country_code":"id"},"population":109800,"osm_type":"node","osm_id":599027714,"type":"city","location":[101.8581198,0.3854115],"bbox":[101.6981198,0.2254115,102.0181198,0.5454115],"border":{"name":"Pangkalan Kerinci","other_names":{"name:id":"Pangkalan Kerinci","name:ms":"Pangkalan Kerinci","name:ms-Arab":"ڤڠکلن کرينچي","official_name":"Kecamatan Pangkalan Kerinci"},"display_name":"Pangkalan Kerinci, Pelalawan, Riau, Sumatera, Indonesia","address":{"municipality":"Pangkalan Kerinci","county":"Pelalawan","state":"Riau","ISO3166-2-lvl4":"ID-RI","region":"Sumatera","ISO3166-2-lvl3":"ID-SM","country":"Indonesia","country_code":"id"},"osm_type":"relation","osm_id":10359146,"type":"administrative","location":[101.8481375999425,0.3822856],"bbox":[101.756926,0.2684644,101.9179794,0.4951389]}}
{"name":"Pangkalpinang","other_names":{"name:ar":"بانقكال بينانق","name:en":"Pangkalpinang","name:ja":"パンカルピナン","name:ru":"Панкалпинанг","name:uk":"Панкалпінанг","name:zh":"邦加槟港","alt_name":"Pangkal Pinang","old_name":"Pangkal Pinang","short_name":"PGP","alt_name:ar":"بانغكال بينانغ","official_name":"Kota Pangkalpinang"},"display_name":"Pangkalpinang, Kepulauan Bangka Belitung, Sumatera, Indonesia","address":{"city":"Pangkalpinang","state":"Kepulauan Bangka Belitung","ISO3166-2-lvl4":"ID-BB","region":"Sumatera","ISO3166-2-lvl3":"ID-SM","country":"Indonesia","country_code":"id"},"population":209383,"osm_type":"node","osm_id":1432744791,"type":"city","location":[106.1134604,-2.1206733],"bbox":[105.9534604,-2.2806733,106.2734604,-1.9606733],"border":{"name":"Pangkalpinang","other_names":{"name:id":"Pangkalpinang","name:zh":"邦加槟港","official_name":"Kota Pangkalpinang","name:ar":"بانقكال بينانق","name:en":"Pangkalpinang","name:ja":"パンカルピナン","name:ru":"Панкалпинанг","name:uk":"Панкалпінанг","alt_name":"Pangkal Pinang","old_name":"Pangkal Pinang","short_name":"PGP","alt_name:ar":"بانغكال بينانغ"},"display_name":"Pangkalpinang, Kepulauan Bangka Belitung, Sumatera, Indonesia","address":{"city":"Pangkalpinang","state":"Kepulauan Bangka Belitung","ISO3166-2-lvl4":"ID-BB","region":"Sumatera","ISO3166-2-lvl3":"ID-SM","country":"Indonesia","country_code":"id"},"population":209383,"osm_type":"relation","osm_id":11018585,"type":"administrative","location":[106.1134604,-2.1206733],"bbox":[106.0394394,-2.1609975,106.1822176,-2.0575008]}}
{"name":"Pare-Pare","other_names":{"name:ar":"باريباري","name:en":"Pare-Pare","name:id":"Parepare","name:ja":"パレパレ","name:ru":"Паре-Паре","name:uk":"Паре-Паре"},"display_name":"Pare-Pare, Parepare, Sulawesi Selatan, Sulawesi, Indonesia","address":{"city":"Pare-Pare","state":"Sulawesi Selatan","ISO3166-2-lvl4":"ID-SN","region":"Sulawesi","ISO3166-2-lvl3":"ID-SL","country":"Indonesia","country_code":"id"},"population":152922,"osm_type":"node","osm_id":1256313302,"type":"city","location":[119.6236101,-4.0057055],"bbox":[119.4636101,-4.1657055,119.7836101,-3.8457055],"border":{"name":"Parepare","other_names":{"name:ar":"باريباري","name:id":"Parepare","official_name":"Kota Parepare","name:en":"Pare-Pare","name:ja":"パレパレ","name:ru":"Паре-Паре","name:uk":"Паре-Паре","alt":"Pare-Pare"},"display_name":"Parepare, Sulawesi Selatan, Sulawesi, Indonesia","address":{"city":"Parepare","state":"Sulawesi Selatan","ISO3166-2-lvl4":"ID-SN","region":"Sulawesi","ISO3166-2-lvl3":"ID-SL","country":"Indonesia","country_code":"id"},"population":152922,"osm_type":"relation","osm_id":13246109,"type":"administrative","location":[119.6236101,-4.0057055],"bbox":[119.6167789,-4.0799832,119.7214445,-3.9605426]}}
{"name":"Pariaman","other_names":{"name:ar":"باريامان","name:id":"Pariaman","name:ja":"パリアマン","official_name":"Kota Pariaman"},"display_name":"Pariaman, Sumatera Barat, Sumatera, Indonesia","address":{"city":"Pariaman","state":"Sumatera Barat","ISO3166-2-lvl4":"ID-SB","region":"Sumatera","ISO3166-2-lvl3":"ID-SM","country":"Indonesia","country_code":"id"},"population":97901,"osm_type":"node","osm_id":5971681088,"type":"city","location":[100.1177778,-0.6263889],"bbox":[99.9577778,-0.7863889,100.2777778,-0.4663889],"border":{"name":"Pariaman","other_names":{"name:ar":"باريامان","name:id":"Pariaman","alt_name":"Kota Pariaman","official_name":"Kota Pariaman","name:ja":"パリアマン"},"display_name":"Pariaman, Sumatera Barat, Sumatera, Indonesia","address":{"city":"Pariaman","state":"Sumatera Barat","ISO3166-2-lvl4":"ID-SB","region":"Sumatera","ISO3166-2-lvl3":"ID-SM","country":"Indonesia","country_code":"id"},"population":97901,"osm_type":"relation","osm_id":14954679,"type":"administrative","location":[100.1177778,-0.6263889],"bbox":[100.0745246,-0.6999572,100.2187701,-0.5478317]}}
{"name":"Pasir Pengaraian","other_names":{"name:ar":"باسير بينقارايان","name:id":"Pasir Pengaraian","name:ja":"パシル・プンガライアン","name:ms":"Pasir Pengaraian","alt_name:ar":"باسير بنقارايان","name:ms-Arab":"ڤاسير ڤڠارايان"},"display_name":"Pasir Pengaraian, Rambah, Rokan Hulu, Riau, Sumatera, 28557, Indonesia","address":{"city":"Pasir Pengaraian","municipality":"Rambah","county":"Rokan Hulu","state":"Riau","ISO3166-2-lvl4":"ID-RI","region":"Sumatera","ISO3166-2-lvl3":"ID-SM","postcode":"28557","country":"Indonesia","country_code":"id"},"population":47340,"osm_type":"node","osm_id":1369130087,"type":"city","location":[100.3088729,0.8944439],"bbox":[100.1488729,0.7344439,100.4688729,1.0544439]}
{"name":"Pasuruan","other_names":{"name:ar":"باسوروان","name:id":"Pasuruan","name:ja":"パスルアン","name:nl":"Pasoeroean","name:ru":"Пасуруан","name:zh":"岩望","official_name":"Kota Pasuruan"},"display_name":"Pasuruan, Kota Pasuruan, Jawa Timur, Jawa, Indonesia","address":{"city":"Pasuruan","state":"Jawa Timur","ISO3166-2-lvl4":"ID-JI","region":"Jawa","ISO3166-2-lvl3":"ID-JW","country":"Indonesia","country_code":"id"},"osm_type":"node","osm_id":1562561227,"type":"city","location":[112.9070632,-7.6399593],"bbox":[112.7470632,-7.7999593,113.0670632,-7.4799593],"border":{"name":"Kota Pasuruan","other_names":{"name:ar":"باسوروان","name:id":"Kota Pasuruan","official_name":"Kota Pasuruan","name:ja":"パスルアン","name:nl":"Pasoeroean","name:ru":"Пасуруан","name:zh":"岩望","alt":"Pasuruan","alt:id":"Pasuruan"},"display_name":"Kota Pasuruan, Jawa Timur, Jawa, Indonesia","address":{"city":"Kota Pasuruan","state":"Jawa Timur","ISO3166-2-lvl4":"ID-JI","region":"Jawa","ISO3166-2-lvl3":"ID-JW","country":"Indonesia","country_code":"id"},"osm_type":"relation","osm_id":9674155,"type":"administrative","location":[112.9070632,-7.6399593],"bbox":[112.8682708,-7.6862722,112.9527569,-7.6158289]}}
{"name":"Pati","other_names":{"name:ar":"باتي","name:id":"Pati","name:ja":"パティ","name:jv":"ꦥꦠꦶ","name:uk":"Паті","official_name":"Kecamatan Pati"},"display_name":"Pati, Kecamatan Pati, Pati, Jawa Tengah, Jawa, Indonesia","address":{"city":"Pati","state":"Jawa Tengah","ISO3166-2-lvl4":"ID-JT","region":"Jawa","ISO3166-2-lvl3":"ID-JW","country":"Indonesia","country_code":"id"},"population":1359364,"osm_type":"node","osm_id":5645202453,"type":"city","location":[111.0399982,-6.7534144],"bbox":[110.8799982,-6.9134144,111.1999982,-6.5934144],"border":[{"name":"Pati","other_names":{"name:ar":"باتي","name:id":"Pati","name:jv":"ꦥꦠꦶ","official_name":"Kabupaten Pati","name:ja":"パティ","name:uk":"Паті","_place_official_name":"Kecamatan Pati"},"display_name":"Pati, Jawa Tengah, Jawa, Indonesia","address":{"city":"Pati","state":"Jawa Tengah","ISO3166-2-lvl4":"ID-JT","region":"Jawa","ISO3166-2-lvl3":"ID-JW","country":"Indonesia","country_code":"id"},"population":1359364,"osm_type":"relation","osm_id":9687058,"type":"administrative","location":[111.0399982,-6.7534144],"bbox":[110.8032379,-7.0036692,111.2708893,-6.4105008]},{"name":"Kecamatan Pati","other_names":{"name:id":"Kecamatan Pati","name:ar":"باتي","name:ja":"パティ","name:jv":"ꦥꦠꦶ","name:uk":"Паті","official_name":"Kecamatan Pati","alt":"Pati","alt:id":"Pati"},"display_name":"Kecamatan Pati, Pati, Jawa Tengah, Jawa, Indonesia","address":{"city":"Kecamatan Pati","state":"Jawa Tengah","ISO3166-2-lvl4":"ID-JT","region":"Jawa","ISO3166-2-lvl3":"ID-JW","country":"Indonesia","country_code":"id"},"population":1359364,"osm_type":"relation","osm_id":18959145,"type":"administrative","location":[111.0399982,-6.7534144],"bbox":[111.0171245,-6.7862846,111.1064824,-6.709484]}]}
{"name":"Payakumbuh","other_names":{"name:ar":"باياكومبوه","name:id":"Payakumbuh","name:ja":"パヤクンブ","name:ms-Arab":"ڤايوكومبواه","name:zh-Hant":"巴爺公務","official_name":"Kota Payakumbuh"},"display_name":"Payakumbuh, Sumatera Barat, Sumatera, Indonesia","address":{"city":"Payakumbuh","state":"Sumatera Barat","ISO3166-2-lvl4":"ID-SB","region":"Sumatera","ISO3166-2-lvl3":"ID-SM","country":"Indonesia","country_code":"id"},"population":133639,"osm_type":"node","osm_id":336643439,"type":"city","location":[100.6319419,-0.2242687],"bbox":[100.4719419,-0.3842687,100.7919419,-0.0642687],"border":{"name":"Payakumbuh","other_names":{"name:ar":"باياكومبوه","name:id":"Payakumbuh","alt_name":"Kota Payakumbuh","official_name":"Kota Payakumbuh","name:ja":"パヤクンブ","name:ms-Arab":"ڤايوكومبواه","name:zh-Hant":"巴爺公務"},"display_name":"Payakumbuh, Sumatera Barat, Sumatera, 26218, Indonesia","address":{"city":"Payakumbuh","state":"Sumatera Barat","ISO3166-2-lvl4":"ID-SB","region":"Sumatera","ISO3166-2-lvl3":"ID-SM","postcode":"26218","country":"Indonesia","country_code":"id"},"population":133639,"osm_type":"relation","osm_id":14954676,"type":"administrative","location":[100.6319419,-0.2242687],"bbox":[100.5824073,-0.2784412,100.6856803,-0.1862389]}}
{"name":"Pekalongan","other_names":{"name:ar":"بيكالونقون","name:ja":"プカロンガン","name:jv":"ꦦꦼꦏꦭꦺꦴꦔꦤ꧀","name:zh":"北加浪岸","official_name":"Kota Pekalongan"},"display_name":"Pekalongan, Jawa Tengah, Jawa, Indonesia","address":{"city":"Pekalongan","state":"Jawa Tengah","ISO3166-2-lvl4":"ID-JT","region":"Jawa","ISO3166-2-lvl3":"ID-JW","country":"Indonesia","country_code":"id"},"osm_type":"node","osm_id":10957525364,"type":"city","location":[109.6761489,-6.8905065],"bbox":[109.5161489,-7.0505065,109.8361489,-6.7305065],"border":{"name":"Pekalongan","other_names":{"name:ar":"بيكالونقون","name:id":"Pekalongan","official_name":"Kota Pekalongan","name:ja":"プカロンガン","name:jv":"ꦦꦼꦏꦭꦺꦴꦔꦤ꧀","name:zh":"北加浪岸"},"display_name":"Pekalongan, Jawa Tengah, Jawa, Indonesia","address":{"city":"Pekalongan","state":"Jawa Tengah","ISO3166-2-lvl4":"ID-JT","region":"Jawa","ISO3166-2-lvl3":"ID-JW","country":"Indonesia","country_code":"id"},"osm_type":"relation","osm_id":9686826,"type":"administrative","location":[109.6761489,-6.8905065],"bbox":[109.6421433,-6.9357107,109.7145539,-6.8525543]}}
{"name":"Pekanbaru","other_names":{"name:ar":"بيكنبارو","name:en":"Pekanbaru","name:id":"Pekanbaru","name:ja":"プカンバル","name:ms":"Pekanbaru","name:pt":"Pekanbaru","name:ru":"Пеканбару","name:zh":"北干巴鲁","alt_name":"Pakanbaru;Pekan Baru","name:min":"Pakanbaru","old_name":"Pakanbaroe","short_name":"PBR;PKU","alt_name:ar":"بيكانبارو","name:ms-Arab":"ڤکن بارو","official_name":"Kota Pekanbaru","official_name:en":"Pekanbaru City"},"display_name":"Pekanbaru, Riau, Sumatera, Indonesia","address":{"city":"Pekanbaru","state":"Riau","ISO3166-2-lvl4":"ID-RI","region":"Sumatera","ISO3166-2-lvl3":"ID-SM","country":"Indonesia","country_code":"id"},"population":1167599,"osm_type":"node","osm_id":5654074539,"type":"city","location":[101.4515727,0.5262455],"bbox":[101.2915727,0.3662455,101.6115727,0.6862455],"border":[{"name":"Pekanbaru","other_names":{"name:ar":"بيكنبارو","name:en":"Pekanbaru","name:id":"Pekanbaru","name:ja":"プカンバル","name:ko":"페깐바루","name:ms":"Pekanbaru","name:ru":"Пеканбару","name:zh":"北干巴鲁","alt_name":"Pekan baru","old_name":"Pakanbaru;Pekan baharu","short_name":"Pekan;PKU;PBR","old_name:nl":"Pakanbaroe","name:ms-Arab":"ڤکن بارو","official_name":"Kota Pekanbaru","name:pt":"Pekanbaru","_place_alt_name":"Pakanbaru;Pekan Baru","name:min":"Pakanbaru","_place_old_name":"Pakanbaroe","official_name:en":"Pekanbaru City","official_name:ms":"Bandaraya Pekanbaru","_place_short_name":"PBR;PKU","alt_name:ar":"بيكانبارو"},"display_name":"Pekanbaru, Riau, Sumatera, Indonesia","address":{"city":"Pekanbaru","state":"Riau","ISO3166-2-lvl4":"ID-RI","region":"Sumatera","ISO3166-2-lvl3":"ID-SM","country":"Indonesia","country_code":"id"},"population":1036560,"osm_type":"relation","osm_id":16563796,"type":"administrative","location":[101.4515727,0.5262455],"bbox":[101.3240039,0.4203945,101.6054021,0.690923]},{"name":"Pekanbaru Kota","other_names":{"ref":"Peta Administrasi Pekanbaru Kota - Open Data Kota Pekanbaru","name:ar":"بيكنبارو","name:en":"District of Pekanbaru Kota","name:id":"Kecamatan Pekanbaru Kota","name:ms":"Kecamatan Pekanbaru Kota","name:nl":"District Pekanbaroe Kota","alt_name":"Pekan Baru Kota","short_name":"Pekanbaru Kota","name:ms-Arab":"کچامتن ڤکنبارو کوتا","official_name":"Kecamatan Pekanbaru Kota"},"display_name":"Pekanbaru Kota, Pekanbaru, Riau, Sumatera, Indonesia","address":{"city_district":"Pekanbaru Kota","city":"Pekanbaru","state":"Riau","ISO3166-2-lvl4":"ID-RI","region":"Sumatera","ISO3166-2-lvl3":"ID-SM","country":"Indonesia","country_code":"id"},"osm_type":"relation","osm_id":18716281,"type":"administrative","location":[101.44795792874149,0.52033485],"bbox":[101.4420511,0.5085167,101.4537688,0.532244]}]}
{"name":"Pemalang","other_names":{"name:ar":"بيمالانق","name:id":"Pemalang","name:ja":"プマラン","name:jv":"ꦥꦼꦩꦭꦁ","alt_name":"Kota Pemalang","official_name":"Kecamatan Pemalang"},"display_name":"Pemalang, Jawa Tengah, Jawa, 52312, Indonesia","address":{"city":"Pemalang","county":"Pemalang","state":"Jawa Tengah","ISO3166-2-lvl4":"ID-JT","region":"Jawa","ISO3166-2-lvl3":"ID-JW","postcode":"52312","country":"Indonesia","country_code":"id"},"osm_type":"node","osm_id":10957525365,"type":"city","location":[109.3806311,-6.8903801],"bbox":[109.2206311,-7.0503801,109.5406311,-6.7303801]}
{"name":"Pematang Siantar","other_names":{"name:ar":"بيماتانق سيانتار","name:en":"Pematang Siantar","name:id":"Pematang Siantar","name:ja":"プマタン・シアンタル","name:ms":"Permatang Siantar","name:ru":"Пематангсиантар","name:zh":"先达","official_name":"Kota Pematang Siantar"},"display_name":"Pematang Siantar, Kota Pematang Siantar, Kota Pematang Siantar–Simalungun, Sumatera Utara, Sumatera, Indonesia","address":{"city":"Pematang Siantar","county":"Kota Pematang Siantar–Simalungun","state":"Sumatera Utara","ISO3166-2-lvl4":"ID-SU","region":"Sumatera","ISO3166-2-lvl3":"ID-SM","country":"Indonesia","country_code":"id"},"population":247411,"osm_type":"node","osm_id":736405241,"type":"city","location":[99.0653646,2.9588631],"bbox":[98.9053646,2.7988631,99.2253646,3.1188631],"border":{"name":"Kota Pematang Siantar","other_names":{"name:ar":"بيماتانق سيانتار","name:en":"City of Pematang Siantar","name:id":"Kota Pematang Siantar","official_name":"Kota Pematangsiantar","name:ja":"プマタン・シアンタル","name:ms":"Permatang Siantar","name:ru":"Пематангсиантар","name:zh":"先达","_place_official_name":"Kota Pematang Siantar","alt":"Pematang Siantar","alt:en":"Pematang Siantar","alt:id":"Pematang Siantar"},"display_name":"Kota Pematang Siantar, Kota Pematang Siantar–Simalungun, Sumatera Utara, Sumatera, Indonesia","address":{"city":"Kota Pematang Siantar","county":"Kota Pematang Siantar–Simalungun","state":"Sumatera Utara","ISO3166-2-lvl4":"ID-SU","region":"Sumatera","ISO3166-2-lvl3":"ID-SM","country":"Indonesia","country_code":"id"},"population":247411,"osm_type":"relation","osm_id":8484618,"type":"administrative","location":[99.0653646,2.9588631],"bbox":[99.0164782,2.8905207,99.1105094,3.0170659]}}
{"name":"Perawang","other_names":{"name:id":"Perawang","name:ms":"Perawang","name:ms-Arab":"ڤراوڠ"},"display_name":"Perawang, Tualang, Siak, Riau, Sumatera, Indonesia","address":{"city":"Perawang","municipality":"Tualang","county":"Siak","state":"Riau","ISO3166-2-lvl4":"ID-RI","region":"Sumatera","ISO3166-2-lvl3":"ID-SM","country":"Indonesia","country_code":"id"},"population":112699,"osm_type":"node","osm_id":457837553,"type":"city","location":[101.6024189,0.6653324],"bbox":[101.4424189,0.5053324,101.7624189,0.8253324]}
{"name":"Ponorogo","other_names":{"name:ar":"بونوروقو","name:id":"Ponorogo","name:ja":"ポノゴロ","name:jv":"ꦥꦤꦫꦒ","name:uk":"Понороґо","official_name":"Kecamatan Ponorogo"},"display_name":"Ponorogo, Jawa Timur, Jawa, 63416, Indonesia","address":{"city":"Ponorogo","county":"Ponorogo","state":"Jawa Timur","ISO3166-2-lvl4":"ID-JI","region":"Jawa","ISO3166-2-lvl3":"ID-JW","postcode":"63416","country":"Indonesia","country_code":"id"},"osm_type":"node","osm_id":4603000430,"type":"city","location":[111.4623017,-7.8710975],"bbox":[111.3023017,-8.0310975,111.6223017,-7.7110975]}
{"name":"Pontianak","other_names":{"name:ar":"بونتياناك","name:en":"Pontianak","name:ja":"ポンティアナック","name:ru":"Понтианак","name:uk":"Понтіанак","name:zh":"坤甸"},"display_name":"Pontianak, Kalimantan Barat, Kalimantan, Indonesia","address":{"city":"Pontianak","state":"Kalimantan Barat","ISO3166-2-lvl4":"ID-KB","region":"Kalimantan","ISO3166-2-lvl3":"ID-KA","country":"Indonesia","country_code":"id"},"population":672440,"osm_type":"node","osm_id":544513863,"type":"city","location":[109.3447488,-0.0226903],"bbox":[109.1847488,-0.1826903,109.5047488,0.1373097],"border":{"name":"Pontianak","other_names":{"name:ar":"بونتياناك","name:id":"Pontianak","name:zh":"坤甸","official_name":"Kota Pontianak","name:en":"Pontianak","name:ja":"ポンティアナック","name:ru":"Понтианак","name:uk":"Понтіанак","official_name:en":"City of Pontianak"},"display_name":"Pontianak, Kalimantan Barat, Kalimantan, Indonesia","address":{"city":"Pontianak","state":"Kalimantan Barat","ISO3166-2-lvl4":"ID-KB","region":"Kalimantan","ISO3166-2-lvl3":"ID-KA","country":"Indonesia","country_code":"id"},"population":672440,"osm_type":"relation","osm_id":10617336,"type":"administrative","location":[109.3447488,-0.0226903],"bbox":[109.2741676,-0.0981948,109.3853475,0.0381168]}}
{"name":"Prabumulih","other_names":{"name:ar":"برابوموليه","name:ja":"プラブムリー","name:uk":"Прабумуліг","name:zh":"普拉布穆利","official_name":"Kota Prabumulih"},"display_name":"Prabumulih, Sumatera Selatan, Sumatera, Indonesia","address":{"city":"Prabumulih","state":"Sumatera Selatan","ISO3166-2-lvl4":"ID-SS","region":"Sumatera","ISO3166-2-lvl3":"ID-SM","country":"Indonesia","country_code":"id"},"population":188082,"osm_type":"node","osm_id":1308469970,"type":"city","location":[104.2310181,-3.4382688],"bbox":[104.0710181,-3.5982688,104.3910181,-3.2782688],"border":{"name":"Prabumulih","other_names":{"name:ar":"برابوموليه","name:id":"Prabumulih","name:uk":"Прабумуліг","name:zh":"普拉布穆利","official_name":"Kota Prabumulih","name:ja":"プラブムリー"},"display_name":"Prabumulih, Sumatera Selatan, Sumatera, Indonesia","address":{"city":"Prabumulih","state":"Sumatera Selatan","ISO3166-2-lvl4":"ID-SS","region":"Sumatera","ISO3166-2-lvl3":"ID-SM","country":"Indonesia","country_code":"id"},"population":188082,"osm_type":"relation","osm_id":10713043,"type":"administrative","location":[104.2310181,-3.4382688],"bbox":[104.0948863,-3.6292112,104.3488789,-3.3163732]}}
{"name":"Probolinggo","other_names":{"name:ar":"بروبولينقو","name:ja":"プロボリンゴ","name:jv":"Prabalingga","name:ru":"Проболинго","name:zh":"龐越","official_name":"Kota Probolinggo"},"display_name":"Probolinggo, Kota Probolinggo, Jawa Timur, Jawa, Indonesia","address":{"city":"Probolinggo","state":"Jawa Timur","ISO3166-2-lvl4":"ID-JI","region":"Jawa","ISO3166-2-lvl3":"ID-JW","country":"Indonesia","country_code":"id"},"osm_type":"node","osm_id":269588616,"type":"city","location":[113.2158401,-7.7441461],"bbox":[113.0558401,-7.9041461,113.3758401,-7.5841461],"border":{"name":"Kota Probolinggo","other_names":{"name:ar":"بروبولينقو","name:id":"Kota Probolinggo","official_name":"Kota Probolinggo","name:ja":"プロボリンゴ","name:jv":"Prabalingga","name:ru":"Проболинго","name:zh":"龐越","alt":"Probolinggo"},"display_name":"Kota Probolinggo, Jawa Timur, Jawa, Indonesia","address":{"city":"Kota Probolinggo","state":"Jawa Timur","ISO3166-2-lvl4":"ID-JI","region":"Jawa","ISO3166-2-lvl3":"ID-JW","country":"Indonesia","country_code":"id"},"osm_type":"relation","osm_id":9674161,"type":"administrative","location":[113.2158401,-7.7441461],"bbox":[113.1639174,-7.8257224,113.2424468,-7.7221888]}}
{"name":"Purbalingga","other_names":{"name:ar":"بوربالينقا","name:id":"Purbalingga","name:ja":"プルバリンッガ","name:jv":"ꦥꦸꦂꦧꦭꦶꦁꦒ","name:zh-Hant":"萬靈牙","official_name":"Kecamatan Purbalingga"},"display_name":"Purbalingga, Jawa Tengah, Jawa, 53311, Indonesia","address":{"city":"Purbalingga","county":"Purbalingga","state":"Jawa Tengah","ISO3166-2-lvl4":"ID-JT","region":"Jawa","ISO3166-2-lvl3":"ID-JW","postcode":"53311","country":"Indonesia","country_code":"id"},"osm_type":"node","osm_id":10957525369,"type":"city","location":[109.3630117,-7.3895937],"bbox":[109.2030117,-7.5495937,109.5230117,-7.2295937]}
{"name":"Purwakarta","other_names":{"name:en":"Purwakarta","name:id":"Purwakarta","name:ja":"プルワカルタ","name:su":"ᮕᮥᮁᮝᮊᮁᮒ","name:su-Latn":"Purwakarta","official_name":"Kecamatan Purwakarta"},"display_name":"Purwakarta, Jawa Barat, Jawa, 41113, Indonesia","address":{"city":"Purwakarta","county":"Purwakarta","state":"Jawa Barat","ISO3166-2-lvl4":"ID-JB","region":"Jawa","ISO3166-2-lvl3":"ID-JW","postcode":"41113","country":"Indonesia","country_code":"id"},"population":170836,"osm_type":"node","osm_id":3307637471,"type":"city","location":[107.4439799,-6.5607313],"bbox":[107.2839799,-6.7207313,107.6039799,-6.4007313]}
{"name":"Purwodadi","other_names":{"name:ar":"بورودادي","name:id":"Purwodadi","name:ja":"プルウォダディ","name:jv":"ꦥꦸꦂꦮꦢꦢꦶ","official_name":"Kecamatan Purwodadi"},"display_name":"Purwodadi, Grobogan, Jawa Tengah, Jawa, 58111, Indonesia","address":{"city":"Purwodadi","county":"Grobogan","state":"Jawa Tengah","ISO3166-2-lvl4":"ID-JT","region":"Jawa","ISO3166-2-lvl3":"ID-JW","postcode":"58111","country":"Indonesia","country_code":"id"},"osm_type":"node","osm_id":1308712305,"type":"city","location":[110.9172873,-7.0811262],"bbox":[110.7572873,-7.2411262,111.0772873,-6.9211262]}
{"name":"Purwokerto","other_names":{"name:ar":"بوروكيرتو","name:en":"Purwokerto","name:id":"Purwokerto","name:ja":"プルウォケルト","name:mk":"Пурвокерто","name:zh":"普禾加多"},"display_name":"Purwokerto, Banyumas, Jawa Tengah, Jawa, 53116, Indonesia","address":{"city":"Purwokerto","county":"Banyumas","state":"Jawa Tengah","ISO3166-2-lvl4":"ID-JT","region":"Jawa","ISO3166-2-lvl3":"ID-JW","postcode":"53116","country":"Indonesia","country_code":"id"},"population":292782,"osm_type":"node","osm_id":620786541,"type":"city","location":[109.2408501,-7.4279011],"bbox":[109.0808501,-7.5879011,109.4008501,-7.2679011]}
{"name":"Purworejo","other_names":{"name:ar":"بوروريجو","name:ja":"プルウォレジョ","name:jv":"ꦥꦸꦂꦮꦉꦗ","name:jv-Latn":"Purwarêja","official_name":"Kecamatan Purworejo"},"display_name":"Purworejo, Jawa Tengah, Jawa, Indonesia","address":{"city":"Purworejo","state":"Jawa Tengah","ISO3166-2-lvl4":"ID-JT","region":"Jawa","ISO3166-2-lvl3":"ID-JW","country":"Indonesia","country_code":"id"},"population":98620,"osm_type":"node","osm_id":271845399,"type":"city","location":[110.0090605,-7.7130761],"bbox":[109.8490605,-7.8730761,110.1690605,-7.5530761],"border":[{"name":"Purworejo","other_names":{"name:ar":"بوروريجو","name:id":"Purworejo","name:jv":"ꦥꦸꦂꦮꦉꦗ","official_name":"Kabupaten Purworejo","name:ja":"プルウォレジョ","name:jv-Latn":"Purwarêja","_place_official_name":"Kecamatan Purworejo"},"display_name":"Purworejo, Jawa Tengah, Jawa, Indonesia","address":{"city":"Purworejo","state":"Jawa Tengah","ISO3166-2-lvl4":"ID-JT","region":"Jawa","ISO3166-2-lvl3":"ID-JW","country":"Indonesia","country_code":"id"},"population":98620,"osm_type":"relation","osm_id":9686809,"type":"administrative","location":[110.0090605,-7.7130761],"bbox":[109.7980674,-7.8953718,110.1414352,-7.5192694]},{"name":"Purworejo","display_name":"Purworejo, Jawa Tengah, Jawa, Indonesia","address":{"city_district":"Purworejo","city":"Purworejo","state":"Jawa Tengah","ISO3166-2-lvl4":"ID-JT","region":"Jawa","ISO3166-2-lvl3":"ID-JW","country":"Indonesia","country_code":"id"},"osm_type":"relation","osm_id":17701262,"type":"administrative","location":[110.01670439618209,-7.726264049999999],"bbox":[109.9854621,-7.7688407,110.0772473,-7.683682]},{"name":"Purworejo","display_name":"Purworejo, Jawa Tengah, Jawa, 54151, Indonesia","address":{"suburb":"Purworejo","city_district":"Purworejo","city":"Purworejo","state":"Jawa Tengah","ISO3166-2-lvl4":"ID-JT","region":"Jawa","ISO3166-2-lvl3":"ID-JW","postcode":"54151","country":"Indonesia","country_code":"id"},"osm_type":"relation","osm_id":17704009,"type":"administrative","location":[110.01437746484291,-7.709805],"bbox":[110.0052778,-7.7203372,110.0218749,-7.6991058]}]}
{"name":"Rangkasbitung","other_names":{"name:ar":"رانقكاسبيتونق","name:id":"Rangkasbitung","name:ja":"ランカスビツン","alt_name":"Rangkas Bitung;Rangkas","official_name":"Kecamatan Rangkasbitung"},"display_name":"Rangkasbitung, Lebak, Banten, Jawa, 42312, Indonesia","address":{"city":"Rangkasbitung","county":"Lebak","state":"Banten","ISO3166-2-lvl4":"ID-BT","region":"Jawa","ISO3166-2-lvl3":"ID-JW","postcode":"42312","country":"Indonesia","country_code":"id"},"osm_type":"node","osm_id":2623323578,"type":"city","location":[106.2505031,-6.354225],"bbox":[106.0905031,-6.514225,106.4105031,-6.194225]}
{"name":"Rantau Prapat","other_names":{"name:ar":"رانتو برابات","name:id":"Rantau Prapat","name:zh-Hant":"蘭都"},"display_name":"Rantau Prapat, Labuhanbatu, Sumatera Utara, Sumatera, 21411, Indonesia","address":{"city":"Rantau Prapat","county":"Labuhanbatu","state":"Sumatera Utara","ISO3166-2-lvl4":"ID-SU","region":"Sumatera","ISO3166-2-lvl3":"ID-SM","postcode":"21411","country":"Indonesia","country_code":"id"},"osm_type":"node","osm_id":1308395308,"type":"city","location":[99.8298439,2.096023],"bbox":[99.6698439,1.936023,99.9898439,2.256023]}
{"name":"Rembang","other_names":{"name:ar":"ريمبانق","name:id":"Rembang","name:ja":"ルンバン","name:jv":"ꦉꦩ꧀ꦧꦁ","name:zh":"南旺","official_name":"Kecamatan Rembang"},"display_name":"Rembang, Jawa Tengah, Jawa, 59211, Indonesia","address":{"city":"Rembang","county":"Rembang","state":"Jawa Tengah","ISO3166-2-lvl4":"ID-JT","region":"Jawa","ISO3166-2-lvl3":"ID-JW","postcode":"59211","country":"Indonesia","country_code":"id"},"osm_type":"node","osm_id":5645200572,"type":"city","location":[111.3486234,-6.7056856],"bbox":[111.1886234,-6.8656856,111.5086234,-6.5456856]}
{"name":"Rengat","other_names":{"name:ar":"رينقات","name:ms":"Rengat","alt_name:ar":"رنقات","name:ms-Arab":"رڠت"},"display_name":"Rengat, Indragiri Hulu, Riau, Sumatera, Indonesia","address":{"city":"Rengat","county":"Indragiri Hulu","state":"Riau","ISO3166-2-lvl4":"ID-RI","region":"Sumatera","ISO3166-2-lvl3":"ID-SM","country":"Indonesia","country_code":"id"},"population":52285,"osm_type":"node","osm_id":5161474374,"type":"city","location":[102.5459897,-0.3746482],"bbox":[102.3859897,-0.5346482,102.7059897,-0.2146482],"border":{"name":"Rengat","other_names":{"name:ar":"رينقات","name:en":"Rengat","name:id":"Rengat","name:ms":"Rengat","alt_name:ar":"رنقات","name:ms-Arab":"رڠت","official_name":"Kecamatan Rengat","official_name:en":"Rengat District"},"display_name":"Rengat, Indragiri Hulu, Riau, Sumatera, 29319, Indonesia","address":{"city":"Rengat","county":"Indragiri Hulu","state":"Riau","ISO3166-2-lvl4":"ID-RI","region":"Sumatera","ISO3166-2-lvl3":"ID-SM","postcode":"29319","country":"Indonesia","country_code":"id"},"population":52285,"osm_type":"relation","osm_id":10357579,"type":"administrative","location":[102.5459897,-0.3746482],"bbox":[102.4317888,-0.5151313,102.603072,0.1025911]}}
{"name":"Sabang","other_names":{"name:ar":"سابانق","name:en":"Sabang","name:ja":"サバン","name:lt":"Sabangas","name:ru":"Сабанг","name:uk":"Сабанг","name:zh":"沙璜","official_name":"Kota Sabang"},"display_name":"Sabang, Aceh, Sumatera, Indonesia","address":{"city":"Sabang","state":"Aceh","ISO3166-2-lvl4":"ID-AC","region":"Sumatera","ISO3166-2-lvl3":"ID-SM","country":"Indonesia","country_code":"id"},"population":43391,"osm_type":"node","osm_id":545741079,"type":"city","location":[95.3225751,5.8927453],"bbox":[95.1625751,5.7327453,95.4825751,6.0527453],"border":{"name":"Sabang","other_names":{"name:ar":"سابانق","name:id":"Sabang","name:zh":"沙璜","official_name":"Kota Sabang","name:en":"Sabang","name:ja":"サバン","name:lt":"Sabangas","name:ru":"Сабанг","name:uk":"Сабанг"},"display_name":"Sabang, Aceh, Sumatera, Indonesia","address":{"city":"Sabang","state":"Aceh","ISO3166-2-lvl4":"ID-AC","region":"Sumatera","ISO3166-2-lvl3":"ID-SM","country":"Indonesia","country_code":"id"},"population":43391,"osm_type":"relation","osm_id":9020791,"type":"administrative","location":[95.3225751,5.8927453],"bbox":[95.1102509,5.7716692,95.377366,6.076744]}}
{"name":"Salatiga","other_names":{"name:ar":"سالاتيقا","name:ja":"サラティガ","name:ko":"살라티가","name:ms":"Kota Salatiga","name:ru":"Салатига","name:ta":"சலாத்திகா","name:zh":"沙拉迪加","official_name":"Kota Salatiga"},"display_name":"Salatiga, Jawa Tengah, Jawa, Indonesia","address":{"city":"Salatiga","state":"Jawa Tengah","ISO3166-2-lvl4":"ID-JT","region":"Jawa","ISO3166-2-lvl3":"ID-JW","country":"Indonesia","country_code":"id"},"population":201369,"osm_type":"node","osm_id":2576644117,"type":"city","location":[110.4995353,-7.3302642],"bbox":[110.3395353,-7.4902642,110.6595353,-7.1702642]}
{"name":"Samarinda","other_names":{"name:ar":"سمرندا","name:en":"Samarinda","name:ja":"サマリンダ","name:ko":"사마린다","name:ru":"Самаринда","name:uk":"Самарінда","name:zh":"沙马林达","alt_name:ar":"سامريندا;سمريندا;سامرندا;سامارندا;ساماريندا","alt_name:zh":"三马林达","name:zh-Hant":"沙馬林達","alt_name:zh-Hant":"三馬林達"},"display_name":"Samarinda, Kalimantan Timur, Kalimantan, Indonesia","address":{"city":"Samarinda","state":"Kalimantan Timur","ISO3166-2-lvl4":"ID-KI","region":"Kalimantan","ISO3166-2-lvl3":"ID-KA","country":"Indonesia","country_code":"id"},"population":726223,"osm_type":"node","osm_id":525277257,"type":"city","location":[117.1393089,-0.5017804],"bbox":[116.9793089,-0.6617804,117.2993089,-0.3417804],"border":{"name":"Samarinda","other_names":{"name:id":"Samarinda","official_name":"Kota Samarinda","name:ar":"سمرندا","name:en":"Samarinda","name:ja":"サマリンダ","name:ko":"사마린다","name:ru":"Самаринда","name:uk":"Самарінда","name:zh":"沙马林达","alt_name:ar":"سامريندا;سمريندا;سامرندا;سامارندا;ساماريندا","alt_name:zh":"三马林达","name:zh-Hant":"沙馬林達","alt_name:zh-Hant":"三馬林達"},"display_name":"Samarinda, Kalimantan Timur, Kalimantan, Indonesia","address":{"city":"Samarinda","state":"Kalimantan Timur","ISO3166-2-lvl4":"ID-KI","region":"Kalimantan","ISO3166-2-lvl3":"ID-KA","country":"Indonesia","country_code":"id"},"population":726223,"osm_type":"relation","osm_id":14921097,"type":"administrative","location":[117.1393089,-0.5017804],"bbox":[117.05395,-0.716764,117.29823,-0.314361]}}
{"name":"Sampang","other_names":{"name:ar":"سامبانق","name:id":"Sampang","name:ja":"サンパン","official_name":"Kecamatan Sampang"},"display_name":"Sampang, Jawa Timur, Jawa, 69211, Indonesia","address":{"city":"Sampang","county":"Sampang","state":"Jawa Timur","ISO3166-2-lvl4":"ID-JI","region":"Jawa","ISO3166-2-lvl3":"ID-JW","postcode":"69211","country":"Indonesia","country_code":"id"},"population":794914,"osm_type":"node","osm_id":2565923943,"type":"city","location":[113.2511017,-7.1955709],"bbox":[113.0911017,-7.3555709,113.4111017,-7.0355709]}
{"name":"Sawahlunto","other_names":{"name:ar":"سواهلنتو","name:ja":"サワルント","official_name":"Kota Sawahlunto"},"display_name":"Sawahlunto, Sumatera Barat, Sumatera, Indonesia","address":{"city":"Sawahlunto","state":"Sumatera Barat","ISO3166-2-lvl4":"ID-SB","region":"Sumatera","ISO3166-2-lvl3":"ID-SM","country":"Indonesia","country_code":"id"},"population":61427,"osm_type":"node","osm_id":638322885,"type":"city","location":[100.778552,-0.6818141],"bbox":[100.618552,-0.8418141,100.938552,-0.5218141],"border":{"name":"Sawahlunto","other_names":{"name:ar":"سواهلنتو","name:id":"Sawahlunto","alt_name":"Kota Sawahlunto","official_name":"Kota Sawahlunto","name:ja":"サワルント"},"display_name":"Sawahlunto, Sumatera Barat, Sumatera, 27422, Indonesia","address":{"city":"Sawahlunto","state":"Sumatera Barat","ISO3166-2-lvl4":"ID-SB","region":"Sumatera","ISO3166-2-lvl3":"ID-SM","postcode":"27422","country":"Indonesia","country_code":"id"},"population":61427,"osm_type":"relation","osm_id":14954681,"type":"administrative","location":[100.778552,-0.6818141],"bbox":[100.687534,-0.772782,100.8135734,-0.5477222]}}
{"name":"Selatpanjang","other_names":{"name:id":"Selatpanjang","name:ms":"Selat Panjang","name:nan":"siā la̍t pan jiāng","name:ms-Arab":"سلاتفنجاغ","name:zh-Hant":"石叻班讓"},"display_name":"Selatpanjang, Tebing Tinggi, Kepulauan Meranti, Riau, Sumatera, 28753, Indonesia","address":{"city":"Selatpanjang","municipality":"Tebing Tinggi","county":"Kepulauan Meranti","state":"Riau","ISO3166-2-lvl4":"ID-RI","region":"Sumatera","ISO3166-2-lvl3":"ID-SM","postcode":"28753","country":"Indonesia","country_code":"id"},"population":66385,"osm_type":"node","osm_id":9191851945,"type":"city","location":[102.7112005,1.0091426],"bbox":[102.5512005,0.8491426,102.8712005,1.1691426]}
{"name":"Semarang","other_names":{"name:ar":"سامرانق","name:en":"Semarang","name:ja":"スマラン","name:kn":"ಸೆಮರಂಗ್","name:mk":"Семаранг","name:oc":"Semarang","name:pt":"Semarang","name:ru":"Семаранг","name:uk":"Семаранг","name:zh":"三宝垄","alt_name:ar":"سامرانغ;سامرانج","official_name":"Kota Semarang"},"display_name":"Semarang, Kota Semarang, Jawa Tengah, Jawa, Indonesia","address":{"city":"Semarang","state":"Jawa Tengah","ISO3166-2-lvl4":"ID-JT","region":"Jawa","ISO3166-2-lvl3":"ID-JW","country":"Indonesia","country_code":"id"},"population":1555984,"osm_type":"node","osm_id":256555232,"type":"city","location":[110.4229104,-6.9903988],"bbox":[110.2629104,-7.1503988,110.5829104,-6.8303988],"border":{"name":"Kota Semarang","other_names":{"name:ar":"سامرانق","name:id":"Kota Semarang","name:jv":"ꦏꦸꦛꦱꦼꦩꦫꦁ","official_name":"Kota Semarang","name:en":"Semarang","name:ja":"スマラン","name:kn":"ಸೆಮರಂಗ್","name:mk":"Семаранг","name:oc":"Semarang","name:pt":"Semarang","name:ru":"Семаранг","name:uk":"Семаранг","name:zh":"三宝垄","alt_name:ar":"سامرانغ;سامرانج","alt":"Semarang"},"display_name":"Kota Semarang, Jawa Tengah, Jawa, Indonesia","address":{"city":"Kota Semarang","state":"Jawa Tengah","ISO3166-2-lvl4":"ID-JT","region":"Jawa","ISO3166-2-lvl3":"ID-JW","country":"Indonesia","country_code":"id"},"population":1555984,"osm_type":"relation","osm_id":8409116,"type":"administrative","location":[110.4229104,-6.9903988],"bbox":[110.2672863,-7.1144639,110.5088836,-6.9281859]}}
{"name":"Sentani","display_name":"Sentani, Jayapura, Papua, Western New Guinea, 99532, Indonesia","address":{"city":"Sentani","county":"Jayapura","state":"Papua","ISO3166-2-lvl4":"ID-PA","region":"Western New Guinea","ISO3166-2-lvl3":"ID-PP","postcode":"99532","country":"Indonesia","country_code":"id"},"population":60531,"osm_type":"node","osm_id":1308645341,"type":"city","location":[140.5057435,-2.566079],"bbox":[140.3457435,-2.726079,140.6657435,-2.406079]}
{"name":"Serang","other_names":{"name:ar":"سيرانق","name:ja":"セラン","name:ko":"세랑","name:ms":"Serang","name:ru":"Серанг","name:su":"ᮞᮦᮛᮀ","name:zh":"西冷","alt_name:ar":"سيرانغ;سيرانج","official_name":"Kota Serang"},"display_name":"Serang, Banten, Jawa, Indonesia","address":{"city":"Serang","state":"Banten","ISO3166-2-lvl4":"ID-BT","region":"Jawa","ISO3166-2-lvl3":"ID-JW","country":"Indonesia","country_code":"id"},"population":618802,"osm_type":"node","osm_id":2623323577,"type":"city","location":[106.1518079,-6.1169662],"bbox":[105.9918079,-6.2769662,106.3118079,-5.9569662],"border":{"name":"Serang","other_names":{"name:ar":"سيرانق","name:id":"Serang","official_name":"Kota Serang","name:ja":"セラン","name:ko":"세랑","name:ms":"Serang","name:ru":"Серанг","name:su":"ᮞᮦᮛᮀ","name:zh":"西冷","alt_name:ar":"سيرانغ;سيرانج"},"display_name":"Serang, Banten, Jawa, Indonesia","address":{"city":"Serang","state":"Banten","ISO3166-2-lvl4":"ID-BT","region":"Jawa","ISO3166-2-lvl3":"ID-JW","country":"Indonesia","country_code":"id"},"population":618802,"osm_type":"relation","osm_id":7641588,"type":"administrative","location":[106.1518079,-6.1169662],"bbox":[106.0659325,-6.21964,106.25331,-6.0151463]}}
{"name":"Siak Sri Indrapura","other_names":{"name:ar":"سياك سري إندرابورا","name:id":"Siak Sri Indrapura","name:ja":"シアク・スリ・インドラプラ","name:ms":"Siak Seri Inderapura","name:ms-Arab":"سياق سري ايندراڤورا"},"display_name":"Siak Sri Indrapura, Siak, Riau, Sumatera, 28671, Indonesia","address":{"city":"Siak Sri Indrapura","municipality":"Siak","county":"Siak","state":"Riau","ISO3166-2-lvl4":"ID-RI","region":"Sumatera","ISO3166-2-lvl3":"ID-SM","postcode":"28671","country":"Indonesia","country_code":"id"},"population":37307,"osm_type":"node","osm_id":3478404969,"type":"city","location":[102.0484298,0.7938906],"bbox":[101.8884298,0.6338906,102.2084298,0.9538906]}
{"name":"Sibolga","other_names":{"name:ar":"سيبولقا","name:en":"Sibolga","name:id":"Sibolga","name:ja":"シボルガ","name:ru":"Сиболга","name:uk":"Сіболга","old_name":"Siboga","name:zh-Hant":"實武牙","official_name":"Kota Sibolga"},"display_name":"Sibolga, Kota Sibolga, Sumatera Utara, Sumatera, Indonesia","address":{"city":"Sibolga","county":"Kota Sibolga","state":"Sumatera Utara","ISO3166-2-lvl4":"ID-SU","region":"Sumatera","ISO3166-2-lvl3":"ID-SM","country":"Indonesia","country_code":"id"},"population":95471,"osm_type":"node","osm_id":721235772,"type":"city","location":[98.78461,1.736957],"bbox":[98.62461,1.576957,98.94461,1.896957]}
{"name":"Sidoarjo","other_names":{"name:ar":"سيدوأرجو","name:ja":"シドアルジョ","name:jv":"Sidaharja","name:nl":"Sidoardjo","name:zh":"徐圖利祖","alt_name:zh":"诗都阿佐","official_name":"Kecamatan Sidoarjo"},"display_name":"Sidoarjo, Jawa Timur, Jawa, Indonesia","address":{"city":"Sidoarjo","county":"Sidoarjo","state":"Jawa Timur","ISO3166-2-lvl4":"ID-JI","region":"Jawa","ISO3166-2-lvl3":"ID-JW","country":"Indonesia","country_code":"id"},"population":201115,"osm_type":"node","osm_id":2565940519,"type":"city","location":[112.7178614,-7.4460408],"bbox":[112.5578614,-7.6060408,112.8778614,-7.2860408],"border":{"name":"Sidoarjo","other_names":{"name:ar":"سيدوأرجو","name:id":"Sidoarjo","name:ja":"シドアルジョ","name:jv":"Sidaharja","name:nl":"Sidoardjo","name:zh":"徐圖利祖","alt_name:zh":"诗都阿佐","official_name":"Kecamatan Sidoarjo"},"display_name":"Sidoarjo, Jawa Timur, Jawa, Indonesia","address":{"city":"Sidoarjo","county":"Sidoarjo","state":"Jawa Timur","ISO3166-2-lvl4":"ID-JI","region":"Jawa","ISO3166-2-lvl3":"ID-JW","country":"Indonesia","country_code":"id"},"population":201115,"osm_type":"relation","osm_id":9680045,"type":"administrative","location":[112.7178614,-7.4460408],"bbox":[112.6596657,-7.5255927,112.8238636,-7.421784]}}
{"name":"Singkawang","other_names":{"name:ar":"سينقكاوانق","name:en":"Singkawang","name:hi":"सिंगकावंग","name:ja":"シンカワン","name:ko":"싱카왕","name:ms":"Kota Singkawang","name:ru":"Синкаванг","name:th":"ซิงกาวัง","name:zh":"山口洋"},"display_name":"Singkawang, Kalimantan Barat, Kalimantan, Indonesia","address":{"city":"Singkawang","state":"Kalimantan Barat","ISO3166-2-lvl4":"ID-KB","region":"Kalimantan","ISO3166-2-lvl3":"ID-KA","country":"Indonesia","country_code":"id"},"population":239260,"osm_type":"node","osm_id":2531732319,"type":"city","location":[108.9889657,0.9069861],"bbox":[108.8289657,0.7469861,109.1489657,1.0669861],"border":{"name":"Singkawang","other_names":{"name:ar":"سينقكاوانق","name:id":"Singkawang","name:hak":"San-kheu-jong","name:ms-Arab":"سيڠكاوڠ","name:zh-Hant":"山口洋","official_name":"Kota Singkawang","name:en":"Singkawang","name:hi":"सिंगकावंग","name:ja":"シンカワン","name:ko":"싱카왕","name:ms":"Kota Singkawang","name:ru":"Синкаванг","name:th":"ซิงกาวัง","name:zh":"山口洋","official_name:en":"City of Singkawang"},"display_name":"Singkawang, Kalimantan Barat, Kalimantan, Indonesia","address":{"city":"Singkawang","state":"Kalimantan Barat","ISO3166-2-lvl4":"ID-KB","region":"Kalimantan","ISO3166-2-lvl3":"ID-KA","country":"Indonesia","country_code":"id"},"population":230376,"osm_type":"relation","osm_id":10616895,"type":"administrative","location":[108.9889657,0.9069861],"bbox":[108.8740424,0.7451542,109.1760488,1.0180185]}}
{"name":"Situbondo","other_names":{"name:ar":"سيتوبوندو","name:id":"Situbondo","name:ja":"シトゥボンド","name:jv":"Situbanda","name:zh":"詩都文羅","official_name":"Kecamatan Situbondo"},"display_name":"Situbondo, Jawa Timur, Jawa, 68311, Indonesia","address":{"city":"Situbondo","county":"Situbondo","state":"Jawa Timur","ISO3166-2-lvl4":"ID-JI","region":"Jawa","ISO3166-2-lvl3":"ID-JW","postcode":"68311","country":"Indonesia","country_code":"id"},"osm_type":"node","osm_id":2565931264,"type":"city","location":[114.0054142,-7.7067843],"bbox":[113.8454142,-7.8667843,114.1654142,-7.5467843]}
{"name":"Slawi","other_names":{"name:id":"Slawi","name:ja":"スラウィ","official_name":"Kecamatan Slawi"},"display_name":"Slawi, Tegal, Jawa Tengah, Jawa, 52419, Indonesia","address":{"city":"Slawi","county":"Tegal","state":"Jawa Tengah","ISO3166-2-lvl4":"ID-JT","region":"Jawa","ISO3166-2-lvl3":"ID-JW","postcode":"52419","country":"Indonesia","country_code":"id"},"osm_type":"node","osm_id":10957525366,"type":"city","location":[109.1363731,-6.9829139],"bbox":[108.9763731,-7.1429139,109.2963731,-6.8229139]}
{"name":"Sleman","other_names":{"name:ar":"سليمان","name:id":"Sleman","name:ja":"スレマン","name:jv":"ꦱ꧀ꦭꦺꦩꦤ꧀","official_name":"Kecamatan Sleman"},"display_name":"Sleman, Triharjo, Sleman, Daerah Istimewa Yogyakarta, Jawa, 55514, Indonesia","address":{"city":"Sleman","village":"Triharjo","municipality":"Sleman","county":"Sleman","state":"Daerah Istimewa Yogyakarta","ISO3166-2-lvl4":"ID-YO","region":"Jawa","ISO3166-2-lvl3":"ID-JW","postcode":"55514","country":"Indonesia","country_code":"id"},"osm_type":"node","osm_id":2565956187,"type":"city","location":[110.3419864,-7.6902467],"bbox":[110.1819864,-7.8502467,110.5019864,-7.5302467],"border":{"name":"Sleman","other_names":{"name:ar":"سليمان","name:id":"Sleman"},"display_name":"Sleman, Daerah Istimewa Yogyakarta, Jawa, Indonesia","address":{"municipality":"Sleman","county":"Sleman","state":"Daerah Istimewa Yogyakarta","ISO3166-2-lvl4":"ID-YO","region":"Jawa","ISO3166-2-lvl3":"ID-JW","country":"Indonesia","country_code":"id"},"osm_type":"relation","osm_id":5615310,"type":"administrative","location":[110.34462923977276,-7.6952864000000005],"bbox":[110.3066983,-7.7285871,110.3823705,-7.662031]}}
{"name":"Solok","other_names":{"name:ar":"سولوك","name:ja":"ソロク","official_name":"Kota Solok"},"display_name":"Solok, Sumatera Barat, Sumatera, Indonesia","address":{"city":"Solok","state":"Sumatera Barat","ISO3166-2-lvl4":"ID-SB","region":"Sumatera","ISO3166-2-lvl3":"ID-SM","country":"Indonesia","country_code":"id"},"population":59317,"osm_type":"node","osm_id":638322810,"type":"city","location":[100.6529829,-0.7991165],"bbox":[100.4929829,-0.9591165,100.8129829,-0.6391165],"border":{"name":"Solok","other_names":{"name:ar":"سولوك","name:id":"Solok","alt_name":"Kota Solok","official_name":"Kota Solok","name:ja":"ソロク"},"display_name":"Solok, Sumatera Barat, Sumatera, Indonesia","address":{"city":"Solok","state":"Sumatera Barat","ISO3166-2-lvl4":"ID-SB","region":"Sumatera","ISO3166-2-lvl3":"ID-SM","country":"Indonesia","country_code":"id"},"population":59317,"osm_type":"relation","osm_id":14954683,"type":"administrative","location":[100.6529829,-0.7991165],"bbox":[100.541466,-0.819047,100.685341,-0.741423]}}
{"name":"Sorong","other_names":{"name:ar":"سورونق","name:en":"Sorong","name:ja":"ソロン","name:ru":"Соронг","name:uk":"Соронг","name:zh":"索龍","alt_name:ar":"سورونغ;سورونج"},"display_name":"Sorong, Papua Barat Daya, Western New Guinea, Indonesia","address":{"city":"Sorong","state":"Papua Barat Daya","ISO3166-2-lvl4":"ID-PD","region":"Western New Guinea","ISO3166-2-lvl3":"ID-PP","country":"Indonesia","country_code":"id"},"population":255100,"osm_type":"node","osm_id":806841357,"type":"city","location":[131.2544805,-0.8634105],"bbox":[131.0944805,-1.0234105,131.4144805,-0.7034105],"border":{"name":"Sorong","other_names":{"name:id":"Sorong","official_name":"Kota Sorong","name:ar":"سورونق","name:en":"Sorong","name:ja":"ソロン","name:ru":"Соронг","name:uk":"Соронг","name:zh":"索龍","alt_name:ar":"سورونغ;سورونج"},"display_name":"Sorong, Papua Barat Daya, Western New Guinea, Indonesia","address":{"city":"Sorong","state":"Papua Barat Daya","ISO3166-2-lvl4":"ID-PD","region":"Western New Guinea","ISO3166-2-lvl3":"ID-PP","country":"Indonesia","country_code":"id"},"population":255100,"osm_type":"relation","osm_id":14905729,"type":"administrative","location":[131.2544805,-0.8634105],"bbox":[131.1847052,-0.952167,131.3965323,-0.781799]}}
{"name":"Sragen","other_names":{"name:ar":"سراقن","name:id":"Sragen","name:ja":"スラゲン","name:jv":"ꦱꦿꦒꦺꦤ꧀","official_name":"Kecamatan Sragen"},"display_name":"Sragen, Jawa Tengah, Jawa, 57211, Indonesia","address":{"city":"Sragen","county":"Sragen","state":"Jawa Tengah","ISO3166-2-lvl4":"ID-JT","region":"Jawa","ISO3166-2-lvl3":"ID-JW","postcode":"57211","country":"Indonesia","country_code":"id"},"osm_type":"node","osm_id":1347352076,"type":"city","location":[111.023494,-7.4277335],"bbox":[110.863494,-7.5877335,111.183494,-7.2677335]}
{"name":"Subang","other_names":{"name:en":"Subang","name:id":"Subang","name:ja":"スバン","name:su":"ᮞᮥᮘᮀ","name:zh":"蘇橫","name:su-Latn":"Subang","official_name":"Kecamatan Subang"},"display_name":"Subang, Jawa Barat, Jawa, 41211, Indonesia","address":{"city":"Subang","county":"Subang","state":"Jawa Barat","ISO3166-2-lvl4":"ID-JB","region":"Jawa","ISO3166-2-lvl3":"ID-JW","postcode":"41211","country":"Indonesia","country_code":"id"},"osm_type":"node","osm_id":2370356376,"type":"city","location":[107.7587397,-6.5689807],"bbox":[107.5987397,-6.7289807,107.9187397,-6.4089807]}
{"name":"Subulussalam","other_names":{"name:ar":"سبل السلام","name:ja":"スブルッサラム","official_name":"Kota Subulussalam"},"display_name":"Subulussalam, Aceh, Sumatera, Indonesia","address":{"city":"Subulussalam","county":"Subulussalam","state":"Aceh","ISO3166-2-lvl4":"ID-AC","region":"Sumatera","ISO3166-2-lvl3":"ID-SM","country":"Indonesia","country_code":"id"},"population":67316,"osm_type":"node","osm_id":1308402757,"type":"city","location":[98.0052459,2.6403146],"bbox":[97.8452459,2.4803146,98.1652459,2.8003146],"border":{"name":"Subulussalam","other_names":{"name:ar":"سبل السلام","name:id":"Subulussalam","official_name":"Kabupaten Subulussalam","name:ja":"スブルッサラム","_place_official_name":"Kota Subulussalam"},"display_name":"Subulussalam, Aceh, Sumatera, 24783, Indonesia","address":{"county":"Subulussalam","state":"Aceh","ISO3166-2-lvl4":"ID-AC","region":"Sumatera","ISO3166-2-lvl3":"ID-SM","postcode":"24783","country":"Indonesia","country_code":"id"},"population":67316,"osm_type":"relation","osm_id":8922307,"type":"administrative","location":[98.0052459,2.6403146],"bbox":[97.7665349,2.4986201,98.116913,3.009527]}}
{"name":"Sukabumi","other_names":{"name:id":"Sukabumi","name:ja":"スカブミ","name:su":"ᮞᮥᮊᮘᮥᮙᮤ","name:zh":"蘇甲巫眉","alt_name:zh":"苏加武眉","official_name":"Kota Sukabumi"},"display_name":"Sukabumi, Jawa Barat, Jawa, Indonesia","address":{"city":"Sukabumi","state":"Jawa Barat","ISO3166-2-lvl4":"ID-JB","region":"Jawa","ISO3166-2-lvl3":"ID-JW","country":"Indonesia","country_code":"id"},"population":320970,"osm_type":"node","osm_id":2413854179,"type":"city","location":[106.9265095,-6.9199289],"bbox":[106.7665095,-7.0799289,107.0865095,-6.7599289],"border":{"name":"Sukabumi","other_names":{"name:en":"Sukabumi","name:id":"Sukabumi","name:su":"ᮞᮥᮊᮘᮥᮙᮤ","name:su-Latn":"Sukabumi","official_name":"Kota Sukabumi","name:ja":"スカブミ","name:zh":"蘇甲巫眉","official_name:en":"Sukabumi City","official_name:id":"Kota Sukabumi","official_name:su":"ᮊᮧᮒ ᮞᮥᮊᮘᮥᮙᮤ","alt_name:zh":"苏加武眉","official_name:su-Latn":"Kota Sukabumi"},"display_name":"Sukabumi, Jawa Barat, Jawa, Indonesia","address":{"city":"Sukabumi","state":"Jawa Barat","ISO3166-2-lvl4":"ID-JB","region":"Jawa","ISO3166-2-lvl3":"ID-JW","country":"Indonesia","country_code":"id"},"population":320970,"osm_type":"relation","osm_id":14918119,"type":"administrative","location":[106.9265095,-6.9199289],"bbox":[106.8716656,-6.978919,106.96017,-6.892417]}}
{"name":"Sumedang","other_names":{"name:ar":"سوميدانغ","name:bn":"সেমেডাং","name:de":"Sumedang","name:el":"Σουμεντάνγκ","name:en":"Sumedang","name:fr":"Sumedang","name:he":"סואמדנג","name:hi":"सुमाडांग","name:id":"Sumedang","name:it":"Sumedang","name:ja":"スメダン","name:ko":"수메당","name:ru":"Сумеданг","name:su":"ᮞᮥᮙᮨᮓᮀ","name:sv":"Sumedang","name:uk":"Сумеданг","name:zh":"雙木丹","name:su-Latn":"Sumedang"},"display_name":"Sumedang, Jawa Barat, Jawa, 45355, Indonesia","address":{"city":"Sumedang","county":"Sumedang","state":"Jawa Barat","ISO3166-2-lvl4":"ID-JB","region":"Jawa","ISO3166-2-lvl3":"ID-JW","postcode":"45355","country":"Indonesia","country_code":"id"},"osm_type":"node","osm_id":2400196532,"type":"city","location":[107.9207066,-6.8597179],"bbox":[107.7607066,-7.0197179,108.0807066,-6.6997179]}
{"name":"Sumenep","other_names":{"name:ar":"سومنب","name:id":"Sumenep","name:ja":"スムヌップ","name:ru":"Суменеп","name:zh":"漯水","alt_name":"Kota Sumenep","alt_name:ar":"سومينب;سومينيب","official_name":"Kecamatan Kota Sumenep"},"display_name":"Sumenep, Jawa Timur, Jawa, 69417, Indonesia","address":{"city":"Sumenep","county":"Sumenep","state":"Jawa Timur","ISO3166-2-lvl4":"ID-JI","region":"Jawa","ISO3166-2-lvl3":"ID-JW","postcode":"69417","country":"Indonesia","country_code":"id"},"population":1041915,"osm_type":"node","osm_id":2565923953,"type":"city","location":[113.8598666,-7.006745],"bbox":[113.6998666,-7.166745,114.0198666,-6.846745]}
{"name":"Sungai Penuh","other_names":{"name:ar":"سونقاي بينوه","name:ja":"スンガイ・プヌー","official_name":"Kota Sungai Penuh"},"display_name":"Sungai Penuh, Jambi, Sumatera, Indonesia","address":{"city":"Sungai Penuh","state":"Jambi","ISO3166-2-lvl4":"ID-JA","region":"Sumatera","ISO3166-2-lvl3":"ID-SM","country":"Indonesia","country_code":"id"},"population":82293,"osm_type":"node","osm_id":5654090135,"type":"city","location":[101.3961054,-2.0706799],"bbox":[101.2361054,-2.2306799,101.5561054,-1.9106799],"border":{"name":"Sungai Penuh","other_names":{"name:ar":"سونقاي بينوه","name:id":"Sungai Penuh","official_name":"Kota Sungai Penuh","name:ja":"スンガイ・プヌー"},"display_name":"Sungai Penuh, Jambi, Sumatera, Indonesia","address":{"city":"Sungai Penuh","state":"Jambi","ISO3166-2-lvl4":"ID-JA","region":"Sumatera","ISO3166-2-lvl3":"ID-SM","country":"Indonesia","country_code":"id"},"population":82293,"osm_type":"relation","osm_id":13754726,"type":"administrative","location":[101.3961054,-2.0706799],"bbox":[101.2396831,-2.251,101.456275,-2.0261311]}}
{"name":"Surabaya","other_names":{"name:ar":"سورابايا","name:az":"Surabaya","name:be":"Сурабая","name:cs":"Surabája","name:de":"Surabaya","name:en":"Surabaya","name:es":"Surabaya","name:he":"סורבאיה","name:hr":"Surabaya","name:ja":"スラバヤ","name:jv":"ꦱꦸꦫꦧꦪ","name:kn":"ಸುರಬಯ","name:mk":"Сурабаја","name:oc":"Surabaya","name:pl":"Surabaja","name:ru":"Сурабая","name:sk":"Surabaja","name:sl":"Surabaja","name:sr":"Сурабаја","name:uk":"Сурабая","name:zh":"泗水","official_name":"Kota Surabaya"},"display_name":"Surabaya, Jawa Timur, Jawa, Indonesia","address":{"city":"Surabaya","state":"Jawa Timur","ISO3166-2-lvl4":"ID-JI","region":"Jawa","ISO3166-2-lvl3":"ID-JW","country":"Indonesia","country_code":"id"},"population":2765487,"osm_type":"node","osm_id":2886429652,"type":"city","location":[112.7377674,-7.2462836],"bbox":[112.5777674,-7.4062836,112.8977674,-7.0862836],"border":{"name":"Surabaya","other_names":{"name:cs":"Surabája","name:en":"Surabaya","name:id":"Surabaya","name:jv":"ꦱꦸꦫꦧꦪ","name:sk":"Surabaja","name:zh":"泗水","short_name":"SBY","alt_name:zh":"苏腊巴亚","official_name":"Kota Surabaya","name:ar":"سورابايا","name:az":"Surabaya","name:be":"Сурабая","name:de":"Surabaya","name:es":"Surabaya","name:he":"סורבאיה","name:hr":"Surabaya","name:ja":"スラバヤ","name:kn":"ಸುರಬಯ","name:mk":"Сурабаја","name:oc":"Surabaya","name:pl":"Surabaja","name:ru":"Сурабая","name:sl":"Surabaja","name:sr":"Сурабаја","name:uk":"Сурабая"},"display_name":"Surabaya, Jawa Timur, Jawa, Indonesia","address":{"city":"Surabaya","state":"Jawa Timur","ISO3166-2-lvl4":"ID-JI","region":"Jawa","ISO3166-2-lvl3":"ID-JW","country":"Indonesia","country_code":"id"},"population":2765487,"osm_type":"relation","osm_id":8225862,"type":"administrative","location":[112.7377674,-7.2462836],"bbox":[112.5915698,-7.3514405,112.8466755,-7.1842308]}}
{"name":"Surakarta","other_names":{"name:ar":"سوراكارتا","name:en":"Surakarta","name:ja":"スラカルタ","name:jv":"ꦱꦸꦫꦏꦂꦠ","name:mk":"Суракарта","name:nl":"Surakarta","name:ru":"Суракарта","name:uk":"Суракарта","name:zh":"梭罗","alt_name":"Solo","alt_name:ja":"ソロ","alt_name:jv":"Sala","name:zh-Hant":"梭羅","official_name":"Kota Surakarta"},"display_name":"Surakarta, Jawa Tengah, Jawa, Indonesia","address":{"city":"Surakarta","state":"Jawa Tengah","ISO3166-2-lvl4":"ID-JT","region":"Jawa","ISO3166-2-lvl3":"ID-JW","country":"Indonesia","country_code":"id"},"population":503421,"osm_type":"node","osm_id":260119406,"type":"city","location":[110.828448,-7.5692489],"bbox":[110.668448,-7.7292489,110.988448,-7.4092489],"border":{"name":"Surakarta","other_names":{"name:ar":"سوراكارتا","name:id":"Surakarta","name:jv":"ꦱꦸꦫꦏꦂꦠ","loc_name":"Solo","official_name":"Kota Surakarta","name:en":"Surakarta","name:ja":"スラカルタ","name:mk":"Суракарта","name:nl":"Surakarta","name:ru":"Суракарта","name:uk":"Суракарта","name:zh":"梭罗","alt_name":"Solo","alt_name:ja":"ソロ","alt_name:jv":"Sala","name:zh-Hant":"梭羅"},"display_name":"Surakarta, Jawa Tengah, Jawa, Indonesia","address":{"city":"Surakarta","state":"Jawa Tengah","ISO3166-2-lvl4":"ID-JT","region":"Jawa","ISO3166-2-lvl3":"ID-JW","country":"Indonesia","country_code":"id"},"population":503421,"osm_type":"relation","osm_id":9687063,"type":"administrative","location":[110.828448,-7.5692489],"bbox":[110.7690994,-7.5952116,110.8689442,-7.5232191]}}
{"name":"Taluk Kuantan","other_names":{"name:ar":"كوانتان","name:id":"Taluk Kuantan","name:ja":"タルック・クアンタン","name:ms":"Teluk Kuantan","alt_name":"Teluk Kuantan","name:ms-Arab":"تلوق کوانتان"},"display_name":"Taluk Kuantan, Kuantan Tengah, Kuantan Singingi, Riau, Sumatera, Indonesia","address":{"city":"Taluk Kuantan","municipality":"Kuantan Tengah","county":"Kuantan Singingi","state":"Riau","ISO3166-2-lvl4":"ID-RI","region":"Sumatera","ISO3166-2-lvl3":"ID-SM","country":"Indonesia","country_code":"id"},"population":40235,"osm_type":"node","osm_id":351689667,"type":"city","location":[101.5712719,-0.5326522],"bbox":[101.4112719,-0.6926522,101.7312719,-0.3726522]}
{"name":"Tangerang Selatan","other_names":{"name:en":"South Tangerang","name:id":"Tangerang Selatan","name:ja":"南タンゲラン","name:zh":"南丹格朗","alt_name":"South Tangerang City","official_name":"Kota Tangerang Selatan","official_name:en":"City of South Tangerang"},"display_name":"Tangerang Selatan, Banten, Jawa, Indonesia","address":{"city":"Tangerang Selatan","state":"Banten","ISO3166-2-lvl4":"ID-BT","region":"Jawa","ISO3166-2-lvl3":"ID-JW","country":"Indonesia","country_code":"id"},"population":1747906,"osm_type":"node","osm_id":3060343521,"type":"city","location":[106.7085737,-6.3227016],"bbox":[106.5485737,-6.4827016,106.8685737,-6.1627016],"border":{"name":"Tangerang Selatan","other_names":{"name:en":"South Tangerang","name:id":"Tangerang Selatan","name:ja":"南タンゲラン","name:zh":"南丹格朗","alt_name":"South Tangerang City","short_name":"Tangsel","official_name":"Kota Tangeran Selatan","official_name:en":"City of South Tangerang","_place_official_name":"Kota Tangerang Selatan"},"display_name":"Tangerang Selatan, Banten, Jawa, Indonesia","address":{"city":"Tangerang Selatan","state":"Banten","ISO3166-2-lvl4":"ID-BT","region":"Jawa","ISO3166-2-lvl3":"ID-JW","country":"Indonesia","country_code":"id"},"population":1290322,"osm_type":"relation","osm_id":7641582,"type":"administrative","location":[106.7085737,-6.3227016],"bbox":[106.6366233,-6.3622676,106.7800127,-6.2289594]}}
{"name":"Tangerang","other_names":{"name:ar":"تانقيرانق","name:en":"Tangerang","name:id":"Tangerang","name:ja":"タンゲラン市","name:ru":"Тангеранг","name:zh":"丹格朗","alt_name":"Tangerang City","old_name:zh":"文登","official_name":"Kota Tangerang","official_name:en":"City of Tangerang"},"display_name":"Tangerang, Banten, Jawa, Indonesia","address":{"city":"Tangerang","state":"Banten","ISO3166-2-lvl4":"ID-BT","region":"Jawa","ISO3166-2-lvl3":"ID-JW","country":"Indonesia","country_code":"id"},"population":2185304,"osm_type":"node","osm_id":318881337,"type":"city","location":[106.6382161,-6.1761924],"bbox":[106.4782161,-6.3361924,106.7982161,-6.0161924],"border":[{"name":"Tangerang","other_names":{"name:ar":"تانقيرانق","name:id":"Tangerang","official_name":"Kota Tangerang","name:en":"Tangerang","name:ja":"タンゲラン市","name:ru":"Тангеранг","name:zh":"丹格朗","alt_name":"Tangerang City","old_name:zh":"文登","official_name:en":"City of Tangerang"},"display_name":"Tangerang, Banten, Jawa, Indonesia","address":{"city":"Tangerang","state":"Banten","ISO3166-2-lvl4":"ID-BT","region":"Jawa","ISO3166-2-lvl3":"ID-JW","country":"Indonesia","country_code":"id"},"population":2185304,"osm_type":"relation","osm_id":7641583,"type":"administrative","location":[106.6382161,-6.1761924],"bbox":[106.551454,-6.2576223,106.7486519,-6.0972705]},{"name":"Tangerang","display_name":"Tangerang, Banten, Jawa, Indonesia","address":{"city_district":"Tangerang","city":"Tangerang","state":"Banten","ISO3166-2-lvl4":"ID-BT","region":"Jawa","ISO3166-2-lvl3":"ID-JW","country":"Indonesia","country_code":"id"},"osm_type":"relation","osm_id":11220162,"type":"administrative","location":[106.64108465161493,-6.1902326],"bbox":[106.6197823,-6.215842,106.6622288,-6.1640006]}]}
{"name":"Tanjung Karang Barat","display_name":"Tanjung Karang Barat, Lampung, Sumatera, 35119, Indonesia","address":{"city":"Tanjung Karang Barat","state":"Lampung","ISO3166-2-lvl4":"ID-LA","region":"Sumatera","ISO3166-2-lvl3":"ID-SM","postcode":"35119","country":"Indonesia","country_code":"id"},"osm_type":"way","osm_id":859679166,"type":"city","location":[105.25374863628787,-5.41766425],"bbox":[105.246816,-5.4245677,105.2584058,-5.4106295]}
{"name":"Tanjungbalai","other_names":{"name:ar":"تانجونقبالاي","name:en":"Tanjung Balai","name:id":"Tanjungbalai","name:ja":"タンジュンバライ","name:lt":"Tandžung Balajus","alt_name":"Tanjung Balai","name:zh-Hant":"丹絨峇萊","official_name":"Kota Tanjungbalai"},"display_name":"Tanjungbalai, Kota Tanjung Balai, Sumatera Utara, Sumatera, 21314, Indonesia","address":{"city":"Tanjungbalai","county":"Kota Tanjung Balai","state":"Sumatera Utara","ISO3166-2-lvl4":"ID-SU","region":"Sumatera","ISO3166-2-lvl3":"ID-SM","postcode":"21314","country":"Indonesia","country_code":"id"},"population":176027,"osm_type":"node","osm_id":736405240,"type":"city","location":[99.8020903,2.9703419],"bbox":[99.6420903,2.8103419,99.9620903,3.1303419]}
{"name":"Tanjungpinang","other_names":{"name:ar":"تانجونقبينانق","name:en":"Tanjung Pinang","name:ja":"タンジュンピナン","name:ru":"Танджунг-Пинанг","name:uk":"Танджунг-Пінанг","name:zh":"丹戎槟榔","alt_name":"Tanjung Pinang;Kota Tanjung Pinang","short_name":"TPG","official_name":"Kota Tanjungpinang"},"display_name":"Tanjungpinang, Kepulauan Riau, Sumatera, Indonesia","address":{"city":"Tanjungpinang","state":"Kepulauan Riau","ISO3166-2-lvl4":"ID-KR","region":"Sumatera","ISO3166-2-lvl3":"ID-SM","country":"Indonesia","country_code":"id"},"population":239854,"osm_type":"node","osm_id":503789390,"type":"city","location":[104.446094,0.9236915],"bbox":[104.286094,0.7636915,104.606094,1.0836915],"border":{"name":"Tanjungpinang","other_names":{"name:ar":"تانجونقبينانق","name:id":"Tanjungpinang","name:zh":"丹戎槟榔","official_name":"Kota Tanjungpinang","name:en":"Tanjung Pinang","name:ja":"タンジュンピナン","name:ru":"Танджунг-Пинанг","name:uk":"Танджунг-Пінанг","alt_name":"Tanjung Pinang;Kota Tanjung Pinang","short_name":"TPG"},"display_name":"Tanjungpinang, Kepulauan Riau, Sumatera, Indonesia","address":{"city":"Tanjungpinang","state":"Kepulauan Riau","ISO3166-2-lvl4":"ID-KR","region":"Sumatera","ISO3166-2-lvl3":"ID-SM","country":"Indonesia","country_code":"id"},"population":239854,"osm_type":"relation","osm_id":10660352,"type":"administrative","location":[104.446094,0.9236915],"bbox":[104.3363241,0.8385882,104.5518343,0.9875593]}}
{"name":"Tarakan","other_names":{"name:ar":"تاراكان","name:en":"Tarakan","name:ja":"タラカン","name:ru":"Таракан","name:uk":"Таракан","name:zh":"打拉根"},"display_name":"Tarakan, Kalimantan Utara, Kalimantan, Indonesia","address":{"city":"Tarakan","state":"Kalimantan Utara","ISO3166-2-lvl4":"ID-KU","region":"Kalimantan","ISO3166-2-lvl3":"ID-KA","country":"Indonesia","country_code":"id"},"population":239973,"osm_type":"node","osm_id":1811755606,"type":"city","location":[117.6330159,3.3000169],"bbox":[117.4730159,3.1400169,117.7930159,3.4600169],"border":{"name":"Tarakan","other_names":{"name:ar":"تاراكان","name:id":"Tarakan","name:zh":"打拉根","official_name":"Kota Tarakan","name:en":"Tarakan","name:ja":"タラカン","name:ru":"Таракан","name:uk":"Таракан"},"display_name":"Tarakan, Kalimantan Utara, Kalimantan, Indonesia","address":{"city":"Tarakan","state":"Kalimantan Utara","ISO3166-2-lvl4":"ID-KU","region":"Kalimantan","ISO3166-2-lvl3":"ID-KA","country":"Indonesia","country_code":"id"},"population":239973,"osm_type":"relation","osm_id":9884460,"type":"administrative","location":[117.6330159,3.3000169],"bbox":[117.5144881,3.2395184,117.6690888,3.4434266]}}
{"name":"Tasikmalaya","other_names":{"name:en":"Tasikmalaya","name:id":"Tasikmalaya","name:ja":"タシクマラヤ","name:ru":"Тасикмалая","name:su":"ᮒᮞᮤᮊ᮪ᮙᮜᮚ","name:uk":"Тасікмалая","name:zh":"打橫","alt_name:zh":"鬥旺","name:su-Latn":"Tasikmalaya","official_name":"Kota Tasikmalaya"},"display_name":"Tasikmalaya, Jawa Barat, Jawa, Indonesia","address":{"city":"Tasikmalaya","state":"Jawa Barat","ISO3166-2-lvl4":"ID-JB","region":"Jawa","ISO3166-2-lvl3":"ID-JW","country":"Indonesia","country_code":"id"},"population":733467,"osm_type":"node","osm_id":3419455375,"type":"city","location":[108.2201154,-7.3262484],"bbox":[108.0601154,-7.4862484,108.3801154,-7.1662484],"border":{"name":"Tasikmalaya","other_names":{"name:en":"Tasikmalaya","name:id":"Tasikmalaya","name:su":"ᮒᮞᮤᮊ᮪ᮙᮜᮚ","name:su-Latn":"Tasikmalaya","official_name":"Kota Tasikmalaya","name:ja":"タシクマラヤ","name:ru":"Тасикмалая","name:uk":"Тасікмалая","name:zh":"打橫","official_name:en":"Tasikmalaya City","official_name:id":"Kota Tasikmalaya","official_name:su":"ᮊᮧᮒ ᮒᮞᮤᮊ᮪ᮙᮜᮚ","alt_name:zh":"鬥旺","official_name:su-Latn":"Kota Tasikmalaya"},"display_name":"Tasikmalaya, Jawa Barat, Jawa, Indonesia","address":{"city":"Tasikmalaya","state":"Jawa Barat","ISO3166-2-lvl4":"ID-JB","region":"Jawa","ISO3166-2-lvl3":"ID-JW","country":"Indonesia","country_code":"id"},"population":733467,"osm_type":"relation","osm_id":14925431,"type":"administrative","location":[108.2201154,-7.3262484],"bbox":[108.1524714,-7.4505039,108.3094482,-7.2693132]}}
{"name":"Tebing Tinggi","other_names":{"name:ar":"تبينق تينقي","name:en":"Tebing Tinggi","name:id":"Tebing Tinggi","name:ja":"トゥビン・ティンギ","name:lt":"Tebing Tingis","name:ru":"Тебингтинги","alt_name:ar":"تيبينق تينقي","name:zh-Hant":"直明丁宜","official_name":"Kota Tebing Tinggi"},"display_name":"Tebing Tinggi, Kota Tebing Tinggi, Sumatera Utara, Sumatera, 20600, Indonesia","address":{"city":"Tebing Tinggi","county":"Kota Tebing Tinggi","state":"Sumatera Utara","ISO3166-2-lvl4":"ID-SU","region":"Sumatera","ISO3166-2-lvl3":"ID-SM","postcode":"20600","country":"Indonesia","country_code":"id"},"population":135000,"osm_type":"node","osm_id":342092420,"type":"city","location":[99.1623025,3.3273686],"bbox":[99.0023025,3.1673686,99.3223025,3.4873686]}
{"name":"Tegal","other_names":{"name:ar":"تقال","name:ja":"ツガル","name:jv":"ꦠꦼꦒꦭ꧀","name:zh":"直葛","official_name":"Kota Tegal"},"display_name":"Tegal, Jawa Tengah, Jawa, Indonesia","address":{"city":"Tegal","state":"Jawa Tengah","ISO3166-2-lvl4":"ID-JT","region":"Jawa","ISO3166-2-lvl3":"ID-JW","country":"Indonesia","country_code":"id"},"osm_type":"node","osm_id":10957525367,"type":"city","location":[109.1378271,-6.8674488],"bbox":[108.9778271,-7.0274488,109.2978271,-6.7074488],"border":{"name":"Tegal","other_names":{"name:ar":"تقال","name:id":"Tegal","name:jv":"ꦠꦼꦒꦭ꧀","official_name":"Kota Tegal","name:ja":"ツガル","name:zh":"直葛"},"display_name":"Tegal, Jawa Tengah, Jawa, Indonesia","address":{"city":"Tegal","state":"Jawa Tengah","ISO3166-2-lvl4":"ID-JT","region":"Jawa","ISO3166-2-lvl3":"ID-JW","country":"Indonesia","country_code":"id"},"osm_type":"relation","osm_id":9686828,"type":"administrative","location":[109.1378271,-6.8674488],"bbox":[109.074997,-6.9000169,109.1619612,-6.8394888]}}
{"name":"Temanggung","other_names":{"name:ar":"تيمانقونق","name:id":"Temanggung","name:ja":"ツマングン","name:jv":"ꦠꦼꦩꦁꦒꦸꦁ","name:zh":"淡滿光","alt_name":"Temanggung Kota","official_name":"Kecamatan Temanggung"},"display_name":"Temanggung, Jawa Tengah, Jawa, 56216, Indonesia","address":{"city":"Temanggung","county":"Temanggung","state":"Jawa Tengah","ISO3166-2-lvl4":"ID-JT","region":"Jawa","ISO3166-2-lvl3":"ID-JW","postcode":"56216","country":"Indonesia","country_code":"id"},"osm_type":"node","osm_id":10957525360,"type":"city","location":[110.1755869,-7.3162826],"bbox":[110.0155869,-7.4762826,110.3355869,-7.1562826]}
{"name":"Tembilahan","other_names":{"name:ar":"تمبيلاهان","name:id":"Tembilahan","name:ja":"テゥンビラハン","name:ms":"Tembilahan","name:ms-Arab":"تمبيلاهن"},"display_name":"Tembilahan, Indragiri Hilir, Riau, Sumatera, 29200, Indonesia","address":{"city":"Tembilahan","municipality":"Tembilahan","county":"Indragiri Hilir","state":"Riau","ISO3166-2-lvl4":"ID-RI","region":"Sumatera","ISO3166-2-lvl3":"ID-SM","postcode":"29200","country":"Indonesia","country_code":"id"},"population":127194,"osm_type":"node","osm_id":6405474575,"type":"city","location":[103.1617457,-0.321442],"bbox":[103.0017457,-0.481442,103.3217457,-0.161442],"border":{"name":"Tembilahan","other_names":{"name:id":"Tembilahan","name:ms":"Tembilahan","name:ms-Arab":"تمبيلاهن","official_name":"Kecamatan Tembilahan"},"display_name":"Tembilahan, Indragiri Hilir, Riau, Sumatera, Indonesia","address":{"municipality":"Tembilahan","county":"Indragiri Hilir","state":"Riau","ISO3166-2-lvl4":"ID-RI","region":"Sumatera","ISO3166-2-lvl3":"ID-SM","country":"Indonesia","country_code":"id"},"osm_type":"relation","osm_id":10360096,"type":"administrative","location":[103.18144593986541,-0.35096625000000004],"bbox":[103.1084924,-0.4321742,103.2460479,-0.2671719]}}
{"name":"Ternate","other_names":{"name:en":"Ternate","name:ja":"テルナテ","name:ru":"Тернате","name:uk":"Тернате","name:zh":"特爾納特"},"display_name":"Ternate, Maluku Utara, Maluku, Indonesia","address":{"city":"Ternate","state":"Maluku Utara","ISO3166-2-lvl4":"ID-MU","region":"Maluku","ISO3166-2-lvl3":"ID-ML","country":"Indonesia","country_code":"id"},"population":255100,"osm_type":"node","osm_id":545807270,"type":"city","location":[127.3832342,0.7852043],"bbox":[127.2232342,0.6252043,127.5432342,0.9452043],"border":{"name":"Ternate","other_names":{"name:ar":"تيرناتي","name:id":"Ternate","official_name":"Kota Ternate","name:en":"Ternate","name:ja":"テルナテ","name:ru":"Тернате","name:uk":"Тернате","name:zh":"特爾納特"},"display_name":"Ternate, Maluku Utara, Maluku, Indonesia","address":{"city":"Ternate","state":"Maluku Utara","ISO3166-2-lvl4":"ID-MU","region":"Maluku","ISO3166-2-lvl3":"ID-ML","country":"Indonesia","country_code":"id"},"population":255100,"osm_type":"relation","osm_id":13263676,"type":"administrative","location":[127.3832342,0.7852043],"bbox":[126.127274,0.432722,127.4398988,1.3516821]}}
{"name":"Tidore Kepulauan","other_names":{"name:zh":"蒂多雷","int_name":"Tidore"},"display_name":"Tidore Kepulauan, Maluku Utara, Maluku, Indonesia","address":{"city":"Tidore Kepulauan","state":"Maluku Utara","ISO3166-2-lvl4":"ID-MU","region":"Maluku","ISO3166-2-lvl3":"ID-ML","country":"Indonesia","country_code":"id"},"osm_type":"node","osm_id":6382839164,"type":"city","location":[127.4483156,0.6786796],"bbox":[127.2883156,0.5186796,127.6083156,0.8386796],"border":{"name":"Tidore Kepulauan","other_names":{"name:ar":"تيدوري","name:id":"Tidore Kepulauan","official_name":"Kota Tidore Kepulauan","name:zh":"蒂多雷","int_name":"Tidore"},"display_name":"Tidore Kepulauan, Maluku Utara, Maluku, Indonesia","address":{"city":"Tidore Kepulauan","state":"Maluku Utara","ISO3166-2-lvl4":"ID-MU","region":"Maluku","ISO3166-2-lvl3":"ID-ML","country":"Indonesia","country_code":"id"},"osm_type":"relation","osm_id":13263677,"type":"administrative","location":[127.4483156,0.6786796],"bbox":[127.3620316,-0.0102782,127.8316131,0.7892043]}}
{"name":"Timika","other_names":{"name:id":"Timika","name:ja":"ティミカ","name:zh":"蒂米卡"},"display_name":"Timika, Mimika, Papua Tengah, Western New Guinea, 99971, Indonesia","address":{"city":"Timika","county":"Mimika","state":"Papua Tengah","ISO3166-2-lvl4":"ID-PT","region":"Western New Guinea","ISO3166-2-lvl3":"ID-PP","postcode":"99971","country":"Indonesia","country_code":"id"},"population":142000,"osm_type":"node","osm_id":1248767553,"type":"city","location":[136.889884,-4.5481052],"bbox":[136.729884,-4.7081052,137.049884,-4.3881052]}
{"name":"Tomohon","other_names":{"name:ar":"توموهون","name:ja":"トモホン","name:zh":"托莫洪"},"display_name":"Tomohon, Sulawesi Utara, Sulawesi, Indonesia","address":{"city":"Tomohon","state":"Sulawesi Utara","ISO3166-2-lvl4":"ID-SA","region":"Sulawesi","ISO3166-2-lvl3":"ID-SL","country":"Indonesia","country_code":"id"},"population":100373,"osm_type":"node","osm_id":976750838,"type":"city","location":[124.838605,1.3255914],"bbox":[124.678605,1.1655914,124.998605,1.4855914],"border":{"name":"Tomohon","other_names":{"name:ar":"توموهون","name:id":"Tomohon","official_name":"Kota Tomohon","name:ja":"トモホン","name:zh":"托莫洪"},"display_name":"Tomohon, Sulawesi Utara, Sulawesi, Indonesia","address":{"city":"Tomohon","state":"Sulawesi Utara","ISO3166-2-lvl4":"ID-SA","region":"Sulawesi","ISO3166-2-lvl3":"ID-SL","country":"Indonesia","country_code":"id"},"population":100373,"osm_type":"relation","osm_id":14907637,"type":"administrative","location":[124.838605,1.3255914],"bbox":[124.731238,1.2425428,124.9094975,1.4051332]}}
{"name":"Trenggalek","other_names":{"name:ar":"ترنقاليك","name:id":"Trenggalek","name:ja":"ツレンガレック","name:nl":"Trenggalek","official_name":"Kecamatan Trenggalek"},"display_name":"Trenggalek, Jawa Timur, Jawa, 66311, Indonesia","address":{"city":"Trenggalek","county":"Trenggalek","state":"Jawa Timur","ISO3166-2-lvl4":"ID-JI","region":"Jawa","ISO3166-2-lvl3":"ID-JW","postcode":"66311","country":"Indonesia","country_code":"id"},"osm_type":"node","osm_id":2578080305,"type":"city","location":[111.7090951,-8.0490793],"bbox":[111.5490951,-8.2090793,111.8690951,-7.8890793]}
{"name":"Tual","display_name":"Tual, Maluku, Indonesia","address":{"city":"Tual","county":"Tual","state":"Maluku","ISO3166-2-lvl4":"ID-MA","region":"Maluku","ISO3166-2-lvl3":"ID-ML","country":"Indonesia","country_code":"id"},"population":67783,"osm_type":"node","osm_id":6390287481,"type":"city","location":[132.7429249,-5.6389933],"bbox":[132.5829249,-5.7989933,132.9029249,-5.4789933]}
{"name":"Tuban","other_names":{"name:ar":"توبان","name:id":"Tuban","name:ja":"ツバン","name:jv":"ꦠꦸꦧꦤ꧀","name:zh":"廚閩","official_name":"Kecamatan Tuban"},"display_name":"Tuban, Jawa Timur, Jawa, 62318, Indonesia","address":{"city":"Tuban","town":"Tuban","county":"Tuban","state":"Jawa Timur","ISO3166-2-lvl4":"ID-JI","region":"Jawa","ISO3166-2-lvl3":"ID-JW","postcode":"62318","country":"Indonesia","country_code":"id"},"population":1266396,"osm_type":"node","osm_id":6634921246,"type":"city","location":[112.0650714,-6.8962656],"bbox":[111.9050714,-7.0562656,112.2250714,-6.7362656]}
{"name":"Tulungagung","other_names":{"name:ar":"تولوناقونق","name:id":"Tulungagung","name:ja":"トゥルンアグン","name:nl":"Toeloengagoeng","name:zh":"多隆亞公","alt_name":"Tulung Agung;Tulung-agung","official_name":"Kecamatan Tulungagung"},"display_name":"Tulungagung, Jawa Timur, Jawa, 66212, Indonesia","address":{"city":"Tulungagung","county":"Tulungagung","state":"Jawa Timur","ISO3166-2-lvl4":"ID-JI","region":"Jawa","ISO3166-2-lvl3":"ID-JW","postcode":"66212","country":"Indonesia","country_code":"id"},"population":65952,"osm_type":"node","osm_id":1706010372,"type":"city","location":[111.9008897,-8.0661437],"bbox":[111.7408897,-8.2261437,112.0608897,-7.9061437]}
{"name":"Ungaran","other_names":{"name:id":"Ungaran","name:ja":"ウンガラン"},"display_name":"Ungaran, Kabupaten Semarang, Jawa Tengah, Jawa, 50511, Indonesia","address":{"city":"Ungaran","county":"Kabupaten Semarang","state":"Jawa Tengah","ISO3166-2-lvl4":"ID-JT","region":"Jawa","ISO3166-2-lvl3":"ID-JW","postcode":"50511","country":"Indonesia","country_code":"id"},"osm_type":"node","osm_id":10957525359,"type":"city","location":[110.4038912,-7.1290892],"bbox":[110.2438912,-7.2890892,110.5638912,-6.9690892]}
{"name":"Wamena","other_names":{"name:ar":"وامينا","name:id":"Wamena","name:zh":"瓦梅纳","alt_name":"Wamena Kota"},"display_name":"Wamena, Jayawijaya, Papua Pegunungan, Western New Guinea, 99511, Indonesia","address":{"city":"Wamena","municipality":"Wamena","county":"Jayawijaya","state":"Papua Pegunungan","ISO3166-2-lvl4":"ID-PE","region":"Western New Guinea","ISO3166-2-lvl3":"ID-PP","postcode":"99511","country":"Indonesia","country_code":"id"},"population":155836,"osm_type":"node","osm_id":1701246326,"type":"city","location":[138.9466574,-4.0943705],"bbox":[138.7866574,-4.2543705,139.1066574,-3.9343705],"border":{"name":"Wamena","display_name":"Wamena, Jayawijaya, Papua Pegunungan, Western New Guinea, 99511, Indonesia","address":{"municipality":"Wamena","county":"Jayawijaya","state":"Papua Pegunungan","ISO3166-2-lvl4":"ID-PE","region":"Western New Guinea","ISO3166-2-lvl3":"ID-PP","postcode":"99511","country":"Indonesia","country_code":"id"},"osm_type":"relation","osm_id":8681677,"type":"administrative","location":[138.93770099700697,-4.08623515],"bbox":[138.8930225,-4.1112336,138.9724913,-4.060765]}}
{"name":"Wates","other_names":{"name:ar":"واتس","name:id":"Wates","name:ja":"ワテス","name:jv":"ꦮꦠꦼꦱ꧀","alt_name":"Kecamatan Wates","official_name":"Kapanewon Wates"},"display_name":"Wates, Bendungan, Wates, Kulonprogo, Daerah Istimewa Yogyakarta, Jawa, 55651, Indonesia","address":{"city":"Wates","municipality":"Wates","county":"Kulonprogo","state":"Daerah Istimewa Yogyakarta","ISO3166-2-lvl4":"ID-YO","region":"Jawa","ISO3166-2-lvl3":"ID-JW","postcode":"55651","country":"Indonesia","country_code":"id"},"population":48738,"osm_type":"node","osm_id":3054874947,"type":"city","location":[110.1571473,-7.8586461],"bbox":[109.9971473,-8.0186461,110.3171473,-7.6986461],"border":{"name":"Wates","display_name":"Wates, Kulonprogo, Daerah Istimewa Yogyakarta, Jawa, 55611, Indonesia","address":{"municipality":"Wates","county":"Kulonprogo","state":"Daerah Istimewa Yogyakarta","ISO3166-2-lvl4":"ID-YO","region":"Jawa","ISO3166-2-lvl3":"ID-JW","postcode":"55611","country":"Indonesia","country_code":"id"},"osm_type":"relation","osm_id":5615303,"type":"administrative","location":[110.14075199888796,-7.88590185],"bbox":[110.0763217,-7.9294362,110.1666748,-7.842036]}}
{"name":"Wonogiri","other_names":{"name:ar":"ونوقيري","name:id":"Wonogiri","name:ja":"ヲノギリ","name:jv":"ꦮꦤꦒꦶꦫꦶ","name:zh":"沃諾吉里","official_name":"Kecamatan Wonogiri"},"display_name":"Wonogiri, Jawa Tengah, Jawa, 57612, Indonesia","address":{"city":"Wonogiri","county":"Wonogiri","state":"Jawa Tengah","ISO3166-2-lvl4":"ID-JT","region":"Jawa","ISO3166-2-lvl3":"ID-JW","postcode":"57612","country":"Indonesia","country_code":"id"},"osm_type":"node","osm_id":10951602023,"type":"city","location":[110.9259617,-7.814198],"bbox":[110.7659617,-7.974198,111.0859617,-7.654198]}
{"name":"Wonosari","other_names":{"name:ar":"ونوساري","name:id":"Wonosari","name:ja":"ウォノサリ","name:jv":"ꦮꦤꦱꦫꦶ","official_name":"Kapanewon Wonosari"},"display_name":"Wonosari, Kabupaten Gunung Kidul, Daerah Istimewa Yogyakarta, Jawa, Indonesia","address":{"city":"Wonosari","municipality":"Wonosari","county":"Kabupaten Gunung Kidul","state":"Daerah Istimewa Yogyakarta","ISO3166-2-lvl4":"ID-YO","region":"Jawa","ISO3166-2-lvl3":"ID-JW","country":"Indonesia","country_code":"id"},"osm_type":"node","osm_id":2088536248,"type":"city","location":[110.6019278,-7.9647903],"bbox":[110.4419278,-8.1247903,110.7619278,-7.8047903],"border":[{"name":"Wonosari","display_name":"Wonosari, Kabupaten Gunung Kidul, Daerah Istimewa Yogyakarta, Jawa, Indonesia","address":{"municipality":"Wonosari","county":"Kabupaten Gunung Kidul","state":"Daerah Istimewa Yogyakarta","ISO3166-2-lvl4":"ID-YO","region":"Jawa","ISO3166-2-lvl3":"ID-JW","country":"Indonesia","country_code":"id"},"osm_type":"relation","osm_id":5615260,"type":"administrative","location":[110.59523412415436,-7.9803703],"bbox":[110.5497149,-8.0602428,110.6305049,-7.9001603]},{"name":"Wonosari","other_names":{"name:id":"Wonosari","name:ar":"ونوساري","name:ja":"ウォノサリ","name:jv":"ꦮꦤꦱꦫꦶ","official_name":"Kapanewon Wonosari"},"display_name":"Wonosari, Kabupaten Gunung Kidul, Daerah Istimewa Yogyakarta, Jawa, Indonesia","address":{"city":"Wonosari","municipality":"Wonosari","county":"Kabupaten Gunung Kidul","state":"Daerah Istimewa Yogyakarta","ISO3166-2-lvl4":"ID-YO","region":"Jawa","ISO3166-2-lvl3":"ID-JW","country":"Indonesia","country_code":"id"},"osm_type":"relation","osm_id":5615473,"type":"administrative","location":[110.6019278,-7.9647903],"bbox":[110.5948988,-7.9723313,110.6180245,-7.9508277]}]}
{"name":"Wonosobo","other_names":{"name:ar":"ونوسوبو","name:id":"Wonosobo","name:ja":"ウォノソボ","name:jv":"ꦮꦤꦱꦧ","alt_name":"Wanasaba","name:zh-Hant":"文羅梭婆","official_name":"Kecamatan Wonosobo"},"display_name":"Wonosobo, Jawa Tengah, Jawa, 56311, Indonesia","address":{"city":"Wonosobo","county":"Wonosobo","state":"Jawa Tengah","ISO3166-2-lvl4":"ID-JT","region":"Jawa","ISO3166-2-lvl3":"ID-JW","postcode":"56311","country":"Indonesia","country_code":"id"},"osm_type":"node","osm_id":448090119,"type":"city","location":[109.9032937,-7.3588662],"bbox":[109.7432937,-7.5188662,110.0632937,-7.1988662]}
{"name":"Yogyakarta","other_names":{"name:ar":"يوقياكرتا","name:en":"Yogyakarta","name:ja":"ジョグジャカルタ","name:jv":"ꦔꦪꦺꦴꦒꦾꦏꦂꦠ","name:kn":"ಯೊಗ್ಯಾಕರ್ಟ","name:mk":"Јогјакарта","name:ru":"Джокьякарта","name:uk":"Джок'якарта","name:zh":"日惹","alt_name":"Jogja;Yogya","old_name":"Ngayogyakarta Hadiningrat","alt_name:ar":"يوغياكرتا;يوجياكرتا","name:jv-Java":"ꦲꦩꦼꦩꦪꦸꦲꦪꦸꦤꦶꦁꦧꦮꦤ","name:jv-Latn":"Ngayogyakarta","name:sr-Latn":"Jogjakarta","official_name":"Kota Yogyakarta"},"display_name":"Yogyakarta, Kota Yogyakarta, Daerah Istimewa Yogyakarta, Jawa, Indonesia","address":{"city":"Yogyakarta","state":"Daerah Istimewa Yogyakarta","ISO3166-2-lvl4":"ID-YO","region":"Jawa","ISO3166-2-lvl3":"ID-JW","country":"Indonesia","country_code":"id"},"population":636660,"osm_type":"node","osm_id":1390375711,"type":"city","location":[110.3646857,-7.8012646],"bbox":[110.2046857,-7.9612646,110.5246857,-7.6412646],"border":{"name":"Kota Yogyakarta","other_names":{"name:id":"Kota Yogyakarta","name:jv":"ꦏꦸꦛꦔꦪꦺꦴꦒꦾꦏꦂꦠ","name:zh":"日惹","loc_name":"Jogja","name:ar":"يوقياكرتا","name:en":"Yogyakarta","name:ja":"ジョグジャカルタ","name:kn":"ಯೊಗ್ಯಾಕರ್ಟ","name:mk":"Јогјакарта","name:ru":"Джокьякарта","name:uk":"Джок'якарта","alt_name":"Jogja;Yogya","old_name":"Ngayogyakarta Hadiningrat","alt_name:ar":"يوغياكرتا;يوجياكرتا","name:jv-Java":"ꦲꦩꦼꦩꦪꦸꦲꦪꦸꦤꦶꦁꦧꦮꦤ","name:jv-Latn":"Ngayogyakarta","name:sr-Latn":"Jogjakarta","official_name":"Kota Yogyakarta","alt":"Yogyakarta","alt:jv":"ꦔꦪꦺꦴꦒꦾꦏꦂꦠ"},"display_name":"Kota Yogyakarta, Daerah Istimewa Yogyakarta, Jawa, Indonesia","address":{"city":"Kota Yogyakarta","state":"Daerah Istimewa Yogyakarta","ISO3166-2-lvl4":"ID-YO","region":"Jawa","ISO3166-2-lvl3":"ID-JW","country":"Indonesia","country_code":"id"},"population":636660,"osm_type":"relation","osm_id":5615250,"type":"administrative","location":[110.3646857,-7.8012646],"bbox":[110.3442608,-7.8401773,110.4067929,-7.7664911]}}
