{"name":"Benguela","other_names":{"name:ar":"بنغيلا","name:el":"Μπενγκέλα","name:fa":"بنگوئلا","name:ko":"벵겔라","name:pt":"Benguela","name:ru":"Бенгела","name:uk":"Бенгела","name:ur":"بینگوئلا"},"display_name":"Benguela, Angola","address":{"city":"Benguela","state":"Benguela","ISO3166-2-lvl4":"AO-BGU","country":"Angola","country_code":"ao"},"population":513000,"osm_type":"node","osm_id":331385969,"type":"city","location":[13.4037117,-12.5790048],"bbox":[13.2437117,-12.7390048,13.5637117,-12.4190048]}
{"name":"Buco-Zau","other_names":{"name:pt":"Buco-Zau","alt_name":"Buco Zau","short_name":"AOCDA010301"},"display_name":"Buco-Zau, Cabinda, Angola","address":{"city":"Buco-Zau","state":"Cabinda","ISO3166-2-lvl4":"AO-CAB","country":"Angola","country_code":"ao"},"population":20686,"osm_type":"node","osm_id":9686042429,"type":"city","location":[12.5388765,-4.7621662],"bbox":[12.3788765,-4.9221662,12.6988765,-4.6021662]}
{"name":"Cabinda","other_names":{"name:el":"Καμπίντα","name:ko":"카빈다","name:pt":"Cabinda","name:ru":"Кабинда","name:uk":"Кабінда"},"display_name":"Cabinda, Angola","address":{"city":"Cabinda","state":"Cabinda","ISO3166-2-lvl4":"AO-CAB","country":"Angola","country_code":"ao"},"population":377931,"osm_type":"node","osm_id":279009752,"type":"city","location":[12.1919468,-5.5576435],"bbox":[12.0319468,-5.7176435,12.3519468,-5.3976435]}
{"name":"CENTRALIDADE DO QUIBAÚLA (Sumbe)","display_name":"CENTRALIDADE DO QUIBAÚLA (Sumbe), Cuanza Sul, Angola","address":{"city":"CENTRALIDADE DO QUIBAÚLA (Sumbe)","state":"Cuanza Sul","ISO3166-2-lvl4":"AO-CUS","country":"Angola","country_code":"ao"},"osm_type":"way","osm_id":373339768,"type":"city","location":[13.902805212896222,-11.102339],"bbox":[13.8981516,-11.1073099,13.9084641,-11.0974974]}
{"name":"Chicala","display_name":"Chicala, Moxico, Angola","address":{"city":"Chicala","state":"Moxico","ISO3166-2-lvl4":"AO-MOX","country":"Angola","country_code":"ao"},"osm_type":"node","osm_id":9643718914,"type":"city","location":[19.6321032,-11.9381082],"bbox":[19.4721032,-12.0981082,19.7921032,-11.7781082]}
{"name":"Cuito","display_name":"Cuito, Bié, Angola","address":{"city":"Cuito","state":"Bié","ISO3166-2-lvl4":"AO-BIE","country":"Angola","country_code":"ao"},"osm_type":"node","osm_id":11900536243,"type":"city","location":[16.9389975,-12.384867],"bbox":[16.7789975,-12.544867,17.0989975,-12.224867]}
{"name":"Cuíto","other_names":{"name:de":"Kuito","name:el":"Cουίτο","name:en":"Cuito","name:es":"Cuito","name:fr":"Cuito","name:it":"Cuito","name:pt":"Cuíto","name:ru":"Cвито","old_name":"Silva Porto","old_name:de":"Silva Porto","old_name:en":"Silva Porto","old_name:es":"Silva Porto","old_name:fr":"Silva Porto","old_name:it":"Silva Porto","old_name:nl":"Silva Porto","old_name:pl":"Silva Porto","old_name:pt":"Silva Porto","old_name:ru":"Сильва Порту"},"display_name":"Cuíto, Bié, Angola","address":{"city":"Cuíto","state":"Bié","ISO3166-2-lvl4":"AO-BIE","country":"Angola","country_code":"ao"},"population":114000,"osm_type":"node","osm_id":279010365,"type":"city","location":[16.9425484,-12.3831319],"bbox":[16.7825484,-12.5431319,17.1025484,-12.2231319]}
{"name":"Huambo","other_names":{"name:el":"Χουάμπο","name:ko":"우암부","name:pt":"Huambo","name:ru":"Уамбо","name:uk":"Уамбо","old_name":"Nova Lisboa","old_name:de":"Neue Lissabon","old_name:en":"New Lisbon","old_name:es":"Nueva Lisboa","old_name:fr":"Nouveau Lisbonne","old_name:it":"Nuova Lisbona","old_name:nl":"Nieuw Lissabon","old_name:pl":"Nowa Lizbona","old_name:pt":"Nova Lisboa","old_name:ru":"Новый Лиссабон"},"display_name":"Huambo, Angola","address":{"city":"Huambo","state":"Huambo","ISO3166-2-lvl4":"AO-HUA","country":"Angola","country_code":"ao"},"osm_type":"node","osm_id":279010032,"type":"city","location":[15.7346713,-12.7772455],"bbox":[15.5746713,-12.9372455,15.8946713,-12.6172455]}
{"name":"Lobito","other_names":{"name:ar":"وبيتو","name:el":"Λομπίτο","name:fa":"لبیتو","name:ko":"로비투","name:pt":"Lobito","name:ru":"Лобиту","name:uk":"Лобіту"},"display_name":"Lobito, Benguela, Angola","address":{"city":"Lobito","state":"Benguela","ISO3166-2-lvl4":"AO-BGU","country":"Angola","country_code":"ao"},"population":805000,"osm_type":"node","osm_id":279010461,"type":"city","location":[13.5464318,-12.3506867],"bbox":[13.3864318,-12.5106867,13.7064318,-12.1906867]}
{"name":"Luanda","other_names":{"name:ab":"Луанда","name:am":"ሏንዳ","name:ar":"لواندا","name:ba":"Луанда","name:be":"Луанда","name:bg":"Луанда","name:bn":"লুয়ান্ডা","name:bo":"ལའུན་ཌ།","name:br":"Luanda","name:ca":"Luanda","name:ce":"Луанда","name:cs":"Luanda","name:de":"Luanda","name:el":"Λουάντα","name:en":"Luanda","name:eo":"Luando","name:es":"Luanda","name:fa":"لوآندا","name:fr":"Luanda","name:fy":"Lûanda","name:he":"לואנדה","name:hi":"लुआण्डा","name:ht":"Louanda","name:hu":"Luanda","name:hy":"Լուանդա","name:is":"Lúanda","name:it":"Luanda","name:ja":"ルアンダ","name:ka":"ლუანდა","name:kg":"Lwanda","name:kk":"Луанда","name:kn":"ಲೂಆಂಡ","name:ko":"루안다","name:ku":"Luanda","name:ky":"Луанда","name:ln":"Lwanda","name:lt":"Luanda","name:mi":"Ruanata","name:mk":"Луанда","name:ml":"ലുവാൻഡ","name:mn":"Луанда","name:mr":"लुआंडा","name:my":"လုအန်ဒါမြို့","name:nl":"Luanda","name:no":"Luanda","name:oc":"Luanda","name:os":"Луандæ","name:pa":"ਲੁਆਂਦਾ","name:pl":"Luanda","name:ps":"لوآندا","name:pt":"Luanda","name:ru":"Луанда","name:sd":"لوانڊا","name:si":"ලොන්ඩා","name:so":"Luwanda","name:sr":"Луанда","name:sv":"Luanda","name:ta":"லுவாண்டா","name:tg":"Луанда","name:th":"ลูอันดา","name:tr":"Luanda","name:ug":"لۇئاندا","name:uk":"Луанда","name:ur":"لواندا","name:yi":"לואנדע","name:zh":"罗安达","name:ckb":"لواندا","name:mrj":"Луанда","name:pnb":"لونڈا","name:udm":"Луанда","name:vep":"Luand","name:zh-Hans":"罗安达","name:be-tarask":"Луанда","name:zh-Hant-CN":"羅安達","name:zh-Hant-HK":"羅安達","name:zh-Hant-TW":"魯安達"},"display_name":"Luanda, Município de Luanda, Luanda, Angola","address":{"city":"Luanda","county":"Município de Luanda","state":"Luanda","ISO3166-2-lvl4":"AO-LUA","country":"Angola","country_code":"ao"},"population":5172900,"osm_type":"node","osm_id":27564941,"type":"city","location":[13.2439512,-8.8272699],"bbox":[13.0839512,-8.9872699,13.4039512,-8.6672699],"border":[{"name":"Luanda","other_names":{"name:de":"Luanda","name:en":"Luanda","name:es":"Luanda","name:fr":"Luanda","name:it":"Luanda","name:ja":"ルアンダ","name:nl":"Luanda","name:pl":"Luanda","name:pt":"Luanda","name:ru":"Луанда","name:zh-Hans":"罗安达","name:zh-Hant":"羅安達","name:ab":"Луанда","name:am":"ሏንዳ","name:ar":"لواندا","name:ba":"Луанда","name:be":"Луанда","name:bg":"Луанда","name:bn":"লুয়ান্ডা","name:bo":"ལའུན་ཌ།","name:br":"Luanda","name:ca":"Luanda","name:ce":"Луанда","name:cs":"Luanda","name:el":"Λουάντα","name:eo":"Luando","name:fa":"لوآندا","name:fy":"Lûanda","name:he":"לואנדה","name:hi":"लुआण्डा","name:ht":"Louanda","name:hu":"Luanda","name:hy":"Լուանդա","name:is":"Lúanda","name:ka":"ლუანდა","name:kg":"Lwanda","name:kk":"Луанда","name:kn":"ಲೂಆಂಡ","name:ko":"루안다","name:ku":"Luanda","name:ky":"Луанда","name:ln":"Lwanda","name:lt":"Luanda","name:mi":"Ruanata","name:mk":"Луанда","name:ml":"ലുവാൻഡ","name:mn":"Луанда","name:mr":"लुआंडा","name:my":"လုအန်ဒါမြို့","name:no":"Luanda","name:oc":"Luanda","name:os":"Луандæ","name:pa":"ਲੁਆਂਦਾ","name:ps":"لوآندا","name:sd":"لوانڊا","name:si":"ලොන්ඩා","name:so":"Luwanda","name:sr":"Луанда","name:sv":"Luanda","name:ta":"லுவாண்டா","name:tg":"Луанда","name:th":"ลูอันดา","name:tr":"Luanda","name:ug":"لۇئاندا","name:uk":"Луанда","name:ur":"لواندا","name:yi":"לואנדע","name:zh":"罗安达","name:ckb":"لواندا","name:mrj":"Луанда","name:pnb":"لونڈا","name:udm":"Луанда","name:vep":"Luand","name:be-tarask":"Луанда","name:zh-Hant-CN":"羅安達","name:zh-Hant-HK":"羅安達","name:zh-Hant-TW":"魯安達"},"display_name":"Luanda, Município de Luanda, Luanda, Angola","address":{"city":"Luanda","county":"Município de Luanda","state":"Luanda","ISO3166-2-lvl4":"AO-LUA","country":"Angola","country_code":"ao"},"population":2600000,"osm_type":"way","osm_id":693999814,"type":"city","location":[13.2439512,-8.8272699],"bbox":[13.1732251,-8.9208267,13.3108619,-8.759227]},{"name":"Município de Luanda","other_names":{"name:de":"Stadtverwaltung von Luanda","name:en":"Municipality of Luanda","name:es":"Municipio de Luanda","name:fr":"Luanda","name:it":"Comune di Luanda","name:ja":"ルアンダ市","name:nl":"Gemeente Luanda","name:pl":"Gmina Luanda","name:pt":"Município de Luanda","name:ru":"Муниципалитет Луанды","name:zh-Hans":"罗安达市","name:zh-Hant":"羅安達市"},"display_name":"Município de Luanda, Luanda, Angola","address":{"county":"Município de Luanda","state":"Luanda","ISO3166-2-lvl4":"AO-LUA","country":"Angola","country_code":"ao"},"osm_type":"relation","osm_id":11704226,"type":"administrative","location":[13.247970021649556,-8.8315747],"bbox":[13.173451,-8.9067496,13.311135,-8.7564303]}]}
{"name":"Lubango","other_names":{"name:el":"Λουμπάνγκο","name:ko":"루방구","name:ru":"Лубанго","name:uk":"Лубанго","old_name:de":"Sá da Bandeira","old_name:en":"Sá da Bandeira","old_name:es":"Sá da Bandeira","old_name:fr":"Sá da Bandeira","old_name:it":"Sá da Bandeira","old_name:nl":"Sá da Bandeira","old_name:pl":"Sá da Bandeira","old_name:pt":"Sá da Bandeira","old_name:ru":"Сан-да-Бандейра"},"display_name":"Lubango, Huíla, Angola","address":{"city":"Lubango","state":"Huíla","ISO3166-2-lvl4":"AO-HUI","country":"Angola","country_code":"ao"},"population":775249,"osm_type":"node","osm_id":279010261,"type":"city","location":[13.4897509,-14.9195617],"bbox":[13.3297509,-15.0795617,13.6497509,-14.7595617],"border":[{"name":"Lubango","other_names":{"name:pt":"Lubango","old_name":"Sá da Bandeira","official_name":"Município do Lubango","name:el":"Λουμπάνγκο","name:ko":"루방구","name:ru":"Лубанго","name:uk":"Лубанго","old_name:de":"Sá da Bandeira","old_name:en":"Sá da Bandeira","old_name:es":"Sá da Bandeira","old_name:fr":"Sá da Bandeira","old_name:it":"Sá da Bandeira","old_name:nl":"Sá da Bandeira","old_name:pl":"Sá da Bandeira","old_name:pt":"Sá da Bandeira","old_name:ru":"Сан-да-Бандейра"},"display_name":"Lubango, Huíla, Angola","address":{"city":"Lubango","state":"Huíla","ISO3166-2-lvl4":"AO-HUI","country":"Angola","country_code":"ao"},"population":775249,"osm_type":"relation","osm_id":11162239,"type":"administrative","location":[13.4897509,-14.9195617],"bbox":[13.3583382,-15.126628,14.3556651,-14.3277132]},{"name":"Lubango","display_name":"Lubango, Huíla, Angola","address":{"city_district":"Lubango","city":"Lubango","state":"Huíla","ISO3166-2-lvl4":"AO-HUI","country":"Angola","country_code":"ao"},"osm_type":"relation","osm_id":11704248,"type":"administrative","location":[13.48891865965896,-14.9238876],"bbox":[13.4389777,-14.9621992,13.5408629,-14.8856842]}]}
{"name":"Lucapa","other_names":{"name:pt":"Lucapa","name:ru":"Лукапа","name:uk":"Лукапа"},"display_name":"Lucapa, Lunda Norte, Angola","address":{"city":"Lucapa","state":"Lunda Norte","ISO3166-2-lvl4":"AO-LNO","country":"Angola","country_code":"ao"},"population":125000,"osm_type":"node","osm_id":668065028,"type":"city","location":[20.7410918,-8.4195244],"bbox":[20.5810918,-8.5795244,20.9010918,-8.2595244]}
{"name":"Luena","other_names":{"name:de":"Luena","name:el":"Λουένα","name:en":"Luena","name:es":"Luena","name:fr":"Luena","name:it":"Luena","name:ko":"루에나","name:nl":"Luena","name:pl":"Luena","name:pt":"Luena","name:ru":"Луена","name:uk":"Луена","old_name":"Luso","old_name:de":"Luso","old_name:en":"Luso","old_name:es":"Luso","old_name:fr":"Luso","old_name:it":"Luso","old_name:nl":"Luso","old_name:pl":"Luso","old_name:pt":"Luso","old_name:ru":"Лузо"},"display_name":"Luena, Moxico, Angola","address":{"city":"Luena","state":"Moxico","ISO3166-2-lvl4":"AO-MOX","country":"Angola","country_code":"ao"},"population":456000,"osm_type":"node","osm_id":349039206,"type":"city","location":[19.9122676,-11.7790355],"bbox":[19.7522676,-11.9390355,20.0722676,-11.6190355]}
{"name":"M'banza Congo","other_names":{"name:el":"Μ'μπάνζα Κόνγκο","name:ko":"음반자콩구","name:pt":"M'banza Congo","name:ru":"Мбанза-Конго","name:uk":"М'Банза-Конго","alt_name":"Mbanza Congo","old_name":"São Salvador do Congo; São Salvador"},"display_name":"M'banza Congo, Zaire, Angola","address":{"city":"M'banza Congo","state":"Zaire","ISO3166-2-lvl4":"AO-ZAI","country":"Angola","country_code":"ao"},"population":83400,"osm_type":"node","osm_id":668897842,"type":"city","location":[14.2417957,-6.2678204],"bbox":[14.0817957,-6.4278204,14.4017957,-6.1078204]}
{"name":"Malanje","other_names":{"name:el":"Μαλάνζε","name:ko":"말란즈","name:pt":"Malanje","name:ru":"Маланже","name:uk":"Маланже"},"display_name":"Malanje, Malanje - Malange, Malanje, Angola","address":{"city":"Malanje","county":"Malanje - Malange","state":"Malanje","ISO3166-2-lvl4":"AO-MAL","country":"Angola","country_code":"ao"},"population":220000,"osm_type":"node","osm_id":279010432,"type":"city","location":[16.3475335,-9.5483991],"bbox":[16.1875335,-9.7083991,16.5075335,-9.3883991]}
{"name":"Menongue","other_names":{"name:el":"Μενόνγκε","name:ko":"메농그","name:pt":"Menongue","name:ru":"Менонгве","name:uk":"Менонге","old_name":"Serpa Pinto"},"display_name":"Menongue, Cuando Cubango, Angola","address":{"city":"Menongue","state":"Cuando Cubango","ISO3166-2-lvl4":"AO-CCU","country":"Angola","country_code":"ao"},"population":361446,"osm_type":"node","osm_id":668130569,"type":"city","location":[17.6820336,-14.6610713],"bbox":[17.5220336,-14.8210713,17.8420336,-14.5010713]}
{"name":"Moçâmedes","other_names":{"name:de":"Moçâmedes","name:en":"Moçâmedes","name:es":"Moçâmedes","name:fr":"Moçâmedes","name:it":"Moçâmedes","name:ja":"モザメデス","name:ko":"모자 메데스","name:nl":"Moçâmedes","name:pl":"Moçâmedes","name:pt":"Moçâmedes","name:ru":"Мосамедиш","name:uk":"Мозамэдес","old_name":"Namibe","short_name":"AONBE150101","old_name:de":"Namibe","old_name:el":"Ναμίμπε","old_name:en":"Namibe","old_name:es":"Namibe","old_name:fr":"Namibe","old_name:it":"Namibe","old_name:ja":"ナミベ","old_name:ko":"나미브","old_name:lt":"Namibė","old_name:nl":"Namibe","old_name:pl":"Namibe","old_name:pt":"Namibe","old_name:ru":"Намиб","old_name:uk":"Намібе","name:zh-Hans":"木萨米迪什","name:zh-Hant":"木薩米迪什","old_name:zh-Hans":"纳米贝","old_name:zh-Hant":"納米貝"},"display_name":"Moçâmedes, Namibe, Angola","address":{"city":"Moçâmedes","state":"Namibe","ISO3166-2-lvl4":"AO-NAM","country":"Angola","country_code":"ao"},"population":162000,"osm_type":"node","osm_id":331386368,"type":"city","location":[12.1458085,-15.195064],"bbox":[11.9858085,-15.355064,12.3058085,-15.035064]}
{"name":"N'dalatando","other_names":{"name:el":"Ν'νταλατάντο","name:pt":"N'dalatando","name:ru":"Н’Далатандо","name:uk":"Н'Далатандо","alt_name":"Ndalatando","old_name":"Vila Salazar;Salazar"},"display_name":"N'dalatando, Cuanza Norte, Angola","address":{"city":"N'dalatando","state":"Cuanza Norte","ISO3166-2-lvl4":"AO-CNO","country":"Angola","country_code":"ao"},"osm_type":"node","osm_id":669059480,"type":"city","location":[14.9144981,-9.2984831],"bbox":[14.7544981,-9.4584831,15.0744981,-9.1384831]}
{"name":"Ondjiva","other_names":{"name:de":"Ondjiva","name:el":"Οντζίβα","name:en":"Ondjiva","name:es":"Ondjiva","name:fr":"Ondjiva","name:it":"Ondjiva","name:nl":"Ondjiva","name:pl":"Ondjiva","name:pt":"Ondjiva","name:ru":"Онджива","name:uk":"Онджива","old_name":"Vila Pereira d'Eça;Vila Pereira de Eça","old_name:de":"Vila Pereira d'Eça","old_name:en":"Vila Pereira d'Eça","old_name:es":"Vila Pereira d'Eça","old_name:fr":"Vila Pereira d'Eça","old_name:it":"Vila Pereira d'Eça","old_name:nl":"Vila Pereira d'Eça","old_name:pl":"Vila Pereira d'Eça","old_name:pt":"Vila Pereira d'Eça;Vila Pereira de Eça","old_name:ru":"Перейра де Эса"},"display_name":"Ondjiva, Cunene, Angola","address":{"city":"Ondjiva","state":"Cunene","ISO3166-2-lvl4":"AO-CNN","country":"Angola","country_code":"ao"},"osm_type":"node","osm_id":331392785,"type":"city","location":[15.7280115,-17.0705234],"bbox":[15.5680115,-17.2305234,15.8880115,-16.9105234]}
{"name":"Porto Quipiri","other_names":{"name:pt":"Porto Quipiri","alt_name":"Porto Quipire"},"display_name":"Porto Quipiri, Bengo, Angola","address":{"city":"Porto Quipiri","state":"Bengo","ISO3166-2-lvl4":"AO-BGO","country":"Angola","country_code":"ao"},"osm_type":"way","osm_id":419217416,"type":"administrative","location":[13.555874094216108,-8.6157531],"bbox":[13.5430567,-8.6348467,13.5667077,-8.5966759],"inferred_type":"city"}
{"name":"Saurimo","other_names":{"name:el":"Σαουρίμο","name:pt":"Saurimo","name:ru":"Сауримо","name:uk":"Сауримо"},"display_name":"Saurimo, Lunda Sul, Angola","address":{"city":"Saurimo","state":"Lunda Sul","ISO3166-2-lvl4":"AO-LSU","country":"Angola","country_code":"ao"},"population":200000,"osm_type":"node","osm_id":293386732,"type":"city","location":[20.3981118,-9.6589303],"bbox":[20.2381118,-9.8189303,20.5581118,-9.4989303]}
{"name":"Sumbe","other_names":{"name:de":"Sumbe","name:el":"Σούμπε","name:en":"Sumbe","name:es":"Sumbe","name:fr":"Sumbe","name:it":"Sumbe","name:nl":"Sumbe","name:pl":"Sumbe","name:pt":"Sumbe","name:ru":"Сумбе","name:uk":"Сумбе","old_name":"Novo Redondo;Ngunza","old_name:de":"Neu Redondo","old_name:en":"New Redondo","old_name:es":"Nuevo Redondo","old_name:fr":"Nouveau Redondo","old_name:it":"Nuovo Redondo","old_name:nl":"Nieuw Redondo","old_name:pl":"Nowy Redondo","old_name:pt":"Novo Redondo","old_name:ru":"Нью Редондо"},"display_name":"Sumbe, Cuanza Sul, Angola","address":{"city":"Sumbe","state":"Cuanza Sul","ISO3166-2-lvl4":"AO-CUS","country":"Angola","country_code":"ao"},"population":26000,"osm_type":"node","osm_id":331385964,"type":"city","location":[13.8396845,-11.2019365],"bbox":[13.6796845,-11.3619365,13.9996845,-11.0419365]}
{"name":"Uíge","other_names":{"name:el":"Ουίγκε","name:pt":"Uíge","name:ru":"Уиже","name:uk":"Уїже","old_name":"Carmona; Vila Marechal Carmona"},"display_name":"Uíge, Angola","address":{"city":"Uíge","state":"Uíge","ISO3166-2-lvl4":"AO-UIG","country":"Angola","country_code":"ao"},"population":616605,"osm_type":"node","osm_id":279010696,"type":"city","location":[15.0563515,-7.6117323],"bbox":[14.8963515,-7.7717323,15.2163515,-7.4517323]}
