{"name":"Bubanza","other_names":{"name:ru":"Бубанза"},"display_name":"Bubanza, Burundi","address":{"city":"Bubanza","state":"Bubanza","ISO3166-2-lvl4":"BI-BB","country":"Burundi","country_code":"bi"},"population":83678,"osm_type":"node","osm_id":498681772,"type":"city","location":[29.3948368,-3.0845915],"bbox":[29.2348368,-3.2445915,29.5548368,-2.9245915],"border":{"name":"Bubanza","other_names":{"name:fr":"Bubanza","name:ru":"Бубанза"},"display_name":"Bubanza, Burundi","address":{"city":"Bubanza","state":"Bubanza","ISO3166-2-lvl4":"BI-BB","country":"Burundi","country_code":"bi"},"population":83678,"osm_type":"way","osm_id":1356612344,"type":"administrative","location":[29.3948368,-3.0845915],"bbox":[29.3798584,-3.0948074,29.4111659,-3.07215]}}
{"name":"Bujumbura","other_names":{"name:af":"Bujumbura","name:am":"ቡጁምቡራ","name:an":"Buyumbura","name:ar":"بوجومبورا","name:az":"Bujumbura","name:be":"Бужумбура","name:bg":"Бужумбура","name:bo":"བུ་ཇུམ་བུ་ར།","name:br":"Bujumbura","name:bs":"Bujumbura","name:ca":"Mbabane","name:ce":"Бужумбура","name:cs":"Bujumbura","name:cy":"Bujumbura","name:da":"Bujumbura","name:de":"Bujumbura","name:el":"Μπουζουμπούρα","name:en":"Bujumbura","name:eo":"Buĵumburo","name:es":"Buyumbura","name:et":"Bujumbura","name:eu":"Bujumbura","name:fa":"بوجومبورا","name:fi":"Bujumbura","name:fr":"Bujumbura","name:fy":"Bûjûmbûra","name:ga":"Bujumbura","name:gd":"Bujumbura","name:gl":"Bujumbura","name:ha":"Bujumbura","name:he":"בוג'ומבורה","name:hr":"Bujumbura","name:ht":"Boujoumboura","name:hu":"Bujumbura","name:hy":"Բուժումբուրա","name:id":"Bujumbura","name:ie":"Bujumbura","name:io":"Bujumbura","name:is":"Bújúmbúra","name:it":"Bujumbura","name:ja":"ブジュンブラ","name:jv":"Bujumbura","name:ka":"ბუჟუმბურა","name:kg":"Bujumbura","name:kk":"Бужумбура","name:ko":"부줌부라","name:ku":"Bujumbura","name:kw":"Bujumbura","name:ky":"Бужумбура","name:la":"Bujumbura","name:lb":"Bujumbura","name:ln":"Bujumbúra","name:lt":"Bužumbūra","name:lv":"Bužumbura","name:mg":"Bujumbura","name:mk":"Буџумбура","name:ml":"ബുജുംബുറ","name:mn":"Бужумбура","name:mr":"बुजुंबुरा","name:ms":"Bujumbura","name:na":"Bujumbura","name:nl":"Bujumbura","name:nn":"Bujumbura","name:no":"Bujumbura","name:ny":"Bujumbura","name:oc":"Bujumbura","name:pa":"ਬੁਜੁੰਬੁਰਾ","name:pl":"Bużumbura","name:ps":"بوجومبورا","name:pt":"Bujumbura","name:qu":"Bujumbura","name:rn":"Bujumbura","name:ro":"Bujumbura","name:ru":"Бужумбура","name:rw":"Bujumbura","name:sh":"Bujumbura","name:sk":"Bujumbura","name:sl":"Bujumbura","name:sn":"Bujumbura","name:so":"Bujumbura","name:sq":"Buzhumbura","name:sr":"Буџумбура","name:sv":"Bujumbura","name:sw":"Bujumbura","name:ta":"புசும்புரா","name:tg":"Буҷумбура","name:th":"บูจุมบูรา","name:tl":"Bujumbura","name:tr":"Bujumbura","name:uk":"Бужумбура","name:ur":"بوجومبرا","name:uz":"Bujumbura","name:vi":"Bujumbura","name:wo":"Bujumbura","name:yi":"בוזשומבורע","name:yo":"Bujumbura","name:zh":"布琼布拉","name:zu":"Bujumbura","name:arz":"بوجومبورا","name:ast":"Buxumbura","name:azb":"بوجومبورا","name:cdo":"Bujumbura","name:ceb":"Bujumbura","name:ckb":"بوجومبورا","name:diq":"Bucumbura","name:frp":"Buj·umbura","name:frr":"Bujumbura","name:hak":"Bujumbura","name:hif":"Bujumbura","name:hsb":"Bujumbura","name:ilo":"Bujumbura","name:kab":"Bujumbura","name:lfn":"Bujumbura","name:lij":"Bujumbura","name:lmo":"Bujumbura","name:mrj":"Бужумбура","name:nah":"Buyumbura","name:nan":"Bujumbura","name:pap":"Bujumbura","name:pms":"Bujumbura","name:pnb":"باجمبورا","name:sco":"Bujumbura","name:shi":"Bujumbura","name:smn":"Bujumbura","name:szl":"Bużumbura","name:udm":"Бужумбура","name:vec":"Bujumbura","name:vep":"Bužumbur","name:war":"Bujumbura","name:wuu":"布琼布拉","name:xmf":"ბუჟუმბურა","name:yue":"布松布拉","alt_name:en":"Usumbura","name:be-tarask":"Бужумбура"},"display_name":"Bujumbura, Bujumbura Mairie, Burundi","address":{"city":"Bujumbura","state":"Bujumbura Mairie","ISO3166-2-lvl4":"BI-BM","country":"Burundi","country_code":"bi"},"population":658859,"osm_type":"node","osm_id":60715062,"type":"city","location":[29.3675028,-3.3638125],"bbox":[29.2075028,-3.5238125,29.5275028,-3.2038125]}
{"name":"Bururi","other_names":{"name:ar":"بوروري","name:de":"Bururi","name:en":"Bururi","name:fa":"بوروری","name:fr":"Bururi","name:he":"בורורי","name:pl":"Bururi","name:ps":"بوروري","name:ru":"Бурури","name:sr":"Бурури","name:uk":"Бурурі","name:ur":"بوروری","name:azb":"بوروری"},"display_name":"Bururi, Burundi","address":{"city":"Bururi","state":"Bururi","ISO3166-2-lvl4":"BI-BR","country":"Burundi","country_code":"bi"},"population":83614,"osm_type":"node","osm_id":498675511,"type":"city","location":[29.6192469,-3.9453227],"bbox":[29.4592469,-4.1053227,29.7792469,-3.7853227],"border":{"name":"Bururi","other_names":{"name:fr":"Bururi","name:ar":"بوروري","name:de":"Bururi","name:en":"Bururi","name:fa":"بوروری","name:he":"בורורי","name:pl":"Bururi","name:ps":"بوروري","name:ru":"Бурури","name:sr":"Бурури","name:uk":"Бурурі","name:ur":"بوروری","name:azb":"بوروری"},"display_name":"Bururi, Burundi","address":{"city":"Bururi","state":"Bururi","ISO3166-2-lvl4":"BI-BR","country":"Burundi","country_code":"bi"},"population":83614,"osm_type":"way","osm_id":1356612339,"type":"administrative","location":[29.6192469,-3.9453227],"bbox":[29.6138414,-3.958398,29.6390714,-3.9306222]}}
{"name":"Cankuzo","other_names":{"name:ru":"Чанкузо"},"display_name":"Cankuzo, Burundi","address":{"city":"Cankuzo","state":"Cankuzo","ISO3166-2-lvl4":"BI-CA","country":"Burundi","country_code":"bi"},"population":47972,"osm_type":"node","osm_id":498682112,"type":"city","location":[30.5495774,-3.2204922],"bbox":[30.3895774,-3.3804922,30.7095774,-3.0604922],"border":{"name":"Cankuzo","other_names":{"name:fr":"Cankuzo","name:ru":"Чанкузо"},"display_name":"Cankuzo, Burundi","address":{"city":"Cankuzo","state":"Cankuzo","ISO3166-2-lvl4":"BI-CA","country":"Burundi","country_code":"bi"},"population":47972,"osm_type":"relation","osm_id":2985726,"type":"administrative","location":[30.5495774,-3.2204922],"bbox":[30.3147125,-3.3141212,30.66806,-3.0703349]}}
{"name":"Cibitoke","other_names":{"name:ru":"Чибитоке"},"display_name":"Cibitoke, Burundi","address":{"city":"Cibitoke","state":"Cibitoke","ISO3166-2-lvl4":"BI-CI","country":"Burundi","country_code":"bi"},"population":69045,"osm_type":"node","osm_id":498681622,"type":"city","location":[29.1244074,-2.8919231],"bbox":[28.9644074,-3.0519231,29.2844074,-2.7319231],"border":{"name":"Cibitoke","other_names":{"name:fr":"Cibitoke","name:ru":"Чибитоке"},"display_name":"Cibitoke, Burundi","address":{"city":"Cibitoke","state":"Cibitoke","ISO3166-2-lvl4":"BI-CI","country":"Burundi","country_code":"bi"},"population":69045,"osm_type":"way","osm_id":1356612342,"type":"administrative","location":[29.1244074,-2.8919231],"bbox":[29.0964509,-2.9093752,29.1345964,-2.8554488]}}
{"name":"Gitega","other_names":{"name:ar":"غيتيغا","name:br":"Gitega","name:ca":"Gitega","name:de":"Gitega","name:el":"Γκιτέγκα","name:en":"Gitega","name:es":"Gitega","name:fa":"گیتگا","name:fr":"Gitega","name:ko":"기테가","name:ks":"گیتیگا","name:ku":"Gîtêga","name:mr":"गितीगा","name:ru":"Гитега","name:ur":"گیتیگا","name:azb":"قیتقا","name:ckb":"گیتێگا","name:az-Arab":"قیتقا"},"display_name":"Gitega, Burundi","address":{"city":"Gitega","state":"Gitega","ISO3166-2-lvl4":"BI-GI","country":"Burundi","country_code":"bi"},"population":155005,"osm_type":"node","osm_id":301351574,"type":"city","location":[29.9249718,-3.4284953],"bbox":[29.7649718,-3.5884953,30.0849718,-3.2684953]}
{"name":"Kampezi","other_names":{"name:fr":"Kampezi","official_name":"Colline de Kampezi"},"display_name":"Kampezi, Gitega, Burundi","address":{"city":"Kampezi","state":"Gitega","ISO3166-2-lvl4":"BI-GI","country":"Burundi","country_code":"bi"},"osm_type":"relation","osm_id":17418155,"type":"administrative","location":[29.792164419713572,-3.7777738000000003],"bbox":[29.7607693,-3.799086,29.8100154,-3.7564433],"inferred_type":"city"}
{"name":"Karuzi","other_names":{"name:de":"Karuzi","name:fa":"کاروزی","name:fr":"Karuzi","name:hy":"Կարուզի","name:ru":"Карузи","name:ur":"کاروزی","name:azb":"کاروزی"},"display_name":"Karuzi, Burundi","address":{"city":"Karuzi","state":"Karuzi","ISO3166-2-lvl4":"BI-KR","country":"Burundi","country_code":"bi"},"osm_type":"node","osm_id":498681136,"type":"city","location":[30.1647524,-3.1011687],"bbox":[30.0047524,-3.2611687,30.3247524,-2.9411687]}
{"name":"Kayanza","other_names":{"name:fr":"Kayanza","name:ru":"Каянза"},"display_name":"Kayanza, Burundi","address":{"city":"Kayanza","state":"Kayanza","ISO3166-2-lvl4":"BI-KY","country":"Burundi","country_code":"bi"},"population":97252,"osm_type":"node","osm_id":498680729,"type":"city","location":[29.6321188,-2.9297133],"bbox":[29.4721188,-3.0897133,29.7921188,-2.7697133]}
{"name":"Kirundo","display_name":"Kirundo, Burundi","address":{"city":"Kirundo","state":"Kirundo","ISO3166-2-lvl4":"BI-KI","country":"Burundi","country_code":"bi"},"population":93110,"osm_type":"node","osm_id":301399969,"type":"city","location":[30.0933449,-2.5853872],"bbox":[29.9333449,-2.7453872,30.2533449,-2.4253872],"border":{"name":"Kirundo","display_name":"Kirundo, Burundi","address":{"city":"Kirundo","state":"Kirundo","ISO3166-2-lvl4":"BI-KI","country":"Burundi","country_code":"bi"},"population":93110,"osm_type":"relation","osm_id":2985688,"type":"administrative","location":[30.0933449,-2.5853872],"bbox":[30.0284864,-2.6670688,30.1793296,-2.4248823]}}
{"name":"Makamba","other_names":{"name:fr":"Makamba","name:ru":"Макамба"},"display_name":"Makamba, Burundi","address":{"city":"Makamba","state":"Makamba","ISO3166-2-lvl4":"BI-MA","country":"Burundi","country_code":"bi"},"population":93558,"osm_type":"node","osm_id":498665827,"type":"city","location":[29.8046322,-4.1347916],"bbox":[29.6446322,-4.2947916,29.9646322,-3.9747916]}
{"name":"Muramvya","other_names":{"name:de":"Muramvya","name:fa":"مورامویا","name:fr":"Muramvya","name:hy":"Մուրամվյա","name:ru":"Мурамвья","name:ur":"مورامویا","name:azb":"مورامویا"},"display_name":"Muramvya, Burundi","address":{"city":"Muramvya","state":"Muramvya","ISO3166-2-lvl4":"BI-MU","country":"Burundi","country_code":"bi"},"population":81257,"osm_type":"node","osm_id":498856704,"type":"city","location":[29.6167289,-3.2663248],"bbox":[29.4567289,-3.4263248,29.7767289,-3.1063248]}
{"name":"Muyinga","other_names":{"name:fr":"Muyinga","name:ru":"Муйинга"},"display_name":"Muyinga, Burundi","address":{"city":"Muyinga","county":"Muyinga","state":"Muyinga","ISO3166-2-lvl4":"BI-MY","country":"Burundi","country_code":"bi"},"population":138227,"osm_type":"node","osm_id":498681309,"type":"city","location":[30.3393883,-2.8453256],"bbox":[30.1793883,-3.0053256,30.4993883,-2.6853256],"border":{"name":"Muyinga","display_name":"Muyinga, Burundi","address":{"county":"Muyinga","state":"Muyinga","ISO3166-2-lvl4":"BI-MY","country":"Burundi","country_code":"bi"},"osm_type":"relation","osm_id":2985428,"type":"administrative","location":[30.374185158557054,-2.80816655],"bbox":[30.2480621,-2.9625402,30.5295665,-2.6538475]}}
{"name":"Mwaro","other_names":{"name:de":"Mwaro","name:fa":"موارو","name:fr":"Mwaro","name:ru":"Мваро","name:ur":"موارو","name:azb":"موارو"},"display_name":"Mwaro, Burundi","address":{"city":"Mwaro","state":"Mwaro","ISO3166-2-lvl4":"BI-MW","country":"Burundi","country_code":"bi"},"osm_type":"node","osm_id":1343439979,"type":"city","location":[29.7050017,-3.5116676],"bbox":[29.5450017,-3.6716676,29.8650017,-3.3516676]}
{"name":"Ndava","other_names":{"name:fr":"Ndava","official_name":"Colline de Ndava"},"display_name":"Ndava, Gitega, Burundi","address":{"city":"Ndava","state":"Gitega","ISO3166-2-lvl4":"BI-GI","country":"Burundi","country_code":"bi"},"osm_type":"relation","osm_id":17420200,"type":"administrative","location":[29.810668621410258,-3.74191495],"bbox":[29.7692755,-3.7641997,29.8269692,-3.7196479],"inferred_type":"city"}
{"name":"Ngozi","other_names":{"name:fr":"Ngozi","name:ru":"Нгози"},"display_name":"Ngozi, Burundi","address":{"city":"Ngozi","county":"Ngozi","state":"Ngozi","ISO3166-2-lvl4":"BI-NG","country":"Burundi","country_code":"bi"},"population":120557,"osm_type":"node","osm_id":498680416,"type":"city","location":[29.8230442,-2.909091],"bbox":[29.6630442,-3.069091,29.9830442,-2.749091],"border":{"name":"Ngozi","display_name":"Ngozi, Burundi","address":{"county":"Ngozi","state":"Ngozi","ISO3166-2-lvl4":"BI-NG","country":"Burundi","country_code":"bi"},"osm_type":"relation","osm_id":2985868,"type":"administrative","location":[29.83152109834775,-2.9506770500000004],"bbox":[29.7489467,-3.0195537,29.928323,-2.8819687]}}
{"name":"Nyabikenke","other_names":{"name:fr":"Nyabikenke","official_name":"Colline de Nyabikenke"},"display_name":"Nyabikenke, Gitega, Burundi","address":{"city":"Nyabikenke","state":"Gitega","ISO3166-2-lvl4":"BI-GI","country":"Burundi","country_code":"bi"},"osm_type":"relation","osm_id":17420290,"type":"administrative","location":[29.782870790768015,-3.73824575],"bbox":[29.7692939,-3.7569155,29.7977643,-3.7196479],"inferred_type":"city"}
{"name":"Rumonge","other_names":{"name:de":"Rumonge","name:en":"Rumonge","name:eo":"Rumonge","name:fa":"رومونگه","name:fi":"Rumonge","name:fr":"Rumonge","name:nl":"Rumonge","name:pl":"Rumonge","name:rn":"Rumonge","name:ru":"Румонге","name:sv":"Rumonge","name:sw":"Rumonge","name:ur":"رومونگی","name:zh":"魯蒙蓋","name:zu":"Rumonge","name:arz":"رومنجى","name:ceb":"Rumonge","name:frr":"Rumonge"},"display_name":"Rumonge, Burundi","address":{"city":"Rumonge","state":"Rumonge","ISO3166-2-lvl4":"BI-RM","country":"Burundi","country_code":"bi"},"population":145074,"osm_type":"node","osm_id":1345876693,"type":"city","location":[29.439294,-3.9745473],"bbox":[29.279294,-4.1345473,29.599294,-3.8145473]}
{"name":"Rutana","other_names":{"name:de":"Rutana","name:fa":"روتانا","name:fr":"Rutana","name:hy":"Ռուտանա","name:ru":"Рутана","name:ur":"روتانا","name:azb":"روتانا"},"display_name":"Rutana, Burundi","address":{"city":"Rutana","state":"Rutana","ISO3166-2-lvl4":"BI-RT","country":"Burundi","country_code":"bi"},"population":55177,"osm_type":"node","osm_id":498671062,"type":"city","location":[29.990574,-3.9263608],"bbox":[29.830574,-4.0863608,30.150574,-3.7663608]}
{"name":"Ruyigi","other_names":{"name:de":"Ruyigi","name:fr":"Ruyigi","name:ru":"Руйиги","name:ur":"روئیگی","name:azb":"روییقی"},"display_name":"Ruyigi, Burundi","address":{"city":"Ruyigi","state":"Ruyigi","ISO3166-2-lvl4":"BI-RY","country":"Burundi","country_code":"bi"},"population":56631,"osm_type":"node","osm_id":498682265,"type":"city","location":[30.2501278,-3.4733471],"bbox":[30.0901278,-3.6333471,30.4101278,-3.3133471]}
