{"name":"Az-zintan","other_names":{"name:ar":"الزنتان"},"display_name":"Az-zintan, الجبل الغربي, ليبيا","address":{"city":"Az-zintan","state":"الجبل الغربي","ISO3166-2-lvl4":"LY-JG","country":"ليبيا","country_code":"ly"},"population":0,"osm_type":"way","osm_id":787506431,"type":"city","location":[12.251195410088657,31.92793015],"bbox":[12.2505583,31.9273872,12.2518779,31.9284776]}
{"name":"أوباري","other_names":{"name:ar":"أوباري","name:bg":"Аубари","name:de":"Ubari","name:en":"Awbari","name:eo":"Aŭbari","name:es":"Awbari","name:fa":"اوباری","name:fr":"Oubari","name:it":"Ubari","name:ka":"ავბარი","name:ko":"우바리","name:ks":"اوباری","name:lt":"Ubaris","name:pl":"Aubari","name:pt":"Awbari","name:ro":"Ubari","name:ru":"Авбари","name:tr":"Ubari","name:uk":"Аубарі","name:ur":"اوباری","name:vi":"Ubari","name:vo":"Äubari","name:azb":"اوباری","name:kab":"Ubari"},"display_name":"أوباري, وادي الحياة, ليبيا","address":{"city":"أوباري","state":"وادي الحياة","ISO3166-2-lvl4":"LY-WD","country":"ليبيا","country_code":"ly"},"population":35000,"osm_type":"node","osm_id":260715532,"type":"city","location":[12.7695658,26.5909391],"bbox":[12.6095658,26.4309391,12.9295658,26.7509391]}
{"name":"إجدابيا","other_names":{"name:ar":"إجدابيا","name:az":"Əcdəbiyyə","name:be":"Адждабія","name:bg":"Адждабия","name:ca":"Agedabia","name:cs":"Adžedábíja","name:cy":"Agedabia","name:da":"Ajdabiya","name:de":"Adschdabiya","name:en":"Ajdabiya","name:eo":"Aĝdabija","name:es":"Ajdabiya","name:et":"Ajdābiyā","name:eu":"Ajdabiya","name:fa":"اجدابیا","name:fi":"Ajdabiya","name:fr":"Ajdabiya","name:he":"אג'דאביא","name:hu":"Adzsdábija","name:hy":"Աժդաբիա","name:id":"Ajdabiya","name:it":"Agedabia","name:ja":"アジュダービヤー","name:ka":"აჯდაბია","name:ko":"아지다비야","name:la":"Corniclanum","name:lt":"Adždabija","name:ms":"Ajdabiya","name:nb":"Agedabia","name:nl":"Ajdabiya","name:pl":"Adżdabija","name:pt":"Agedábia","name:ru":"Адждабия","name:sc":"Agedabia","name:sk":"Adždábijá","name:sr":"Аџдабија","name:sv":"Ajdabiya","name:tr":"Ecdebiye","name:uk":"Адждабія","name:vi":"Ajdabiya","name:vo":"Äcdabiya","name:zh":"艾季达比耶","name:zu":"Ajdabiya","alt_name":"اجدابيا;أجدابيا","name:kab":"Ajdabiya","alt_name:ar":"اجدابيا;أجدابيا"},"display_name":"إجدابيا, الواحات, ليبيا","address":{"city":"إجدابيا","state":"الواحات","ISO3166-2-lvl4":"LY-WA","country":"ليبيا","country_code":"ly"},"population":153806,"osm_type":"node","osm_id":277399765,"type":"city","location":[20.2233582,30.7549616],"bbox":[20.0633582,30.5949616,20.3833582,30.9149616]}
{"name":"الأبيار","other_names":{"name:ar":"الأبيار","name:en":"Al Abyar","name:es":"Al Abyar","name:fa":"الابیار","name:fr":"Al Abyar","name:it":"Al Abyar","name:azb":"الابیار","name:kab":"Lebyar"},"display_name":"الأبيار, بنغازي, ليبيا","address":{"city":"الأبيار","state":"بنغازي","ISO3166-2-lvl4":"LY-BA","country":"ليبيا","country_code":"ly"},"population":30616,"osm_type":"node","osm_id":1565508929,"type":"city","location":[20.5945086,32.1896453],"bbox":[20.4345086,32.0296453,20.7545086,32.3496453]}
{"name":"الأصابعة","other_names":{"name:ar":"الأصابعة","name:az":"Əsbiyyə","name:en":"Asbi'a","name:fr":"Al Asabia","name:ka":"ასბია","name:pt":"Assaba"},"display_name":"الأصابعة, الجبل الغربي, ليبيا","address":{"city":"الأصابعة","state":"الجبل الغربي","ISO3166-2-lvl4":"LY-JG","country":"ليبيا","country_code":"ly"},"osm_type":"node","osm_id":1565508963,"type":"city","location":[12.8719462,32.0351904],"bbox":[12.7119462,31.8751904,13.0319462,32.1951904]}
{"name":"البيضاء","other_names":{"name:ar":"البيضاء","name:de":"al-Baida","name:en":"Bayda","name:et":"Al-Bayḑā’","name:eu":"Baida","name:fi":"Beida","name:fr":"El Beïda","name:pl":"Al-Bajda","name:ru":"Аль-Байда","name:uk":"Аль-Байда","name:zh":"贝达","alt_name":"El Beida","name:kab":"Lbayḍa"},"display_name":"البيضاء, الجبل الأخضر, ليبيا","address":{"city":"البيضاء","state":"الجبل الأخضر","ISO3166-2-lvl4":"LY-JA","country":"ليبيا","country_code":"ly"},"population":310329,"osm_type":"node","osm_id":288491858,"type":"city","location":[21.7577175,32.7609529],"bbox":[21.5977175,32.6009529,21.9177175,32.9209529]}
{"name":"التضامن","other_names":{"name:ar":"التضامن","official_name":"التضامن"},"display_name":"التضامن, الجبل الغربي, ليبيا","address":{"city":"التضامن","state":"الجبل الغربي","ISO3166-2-lvl4":"LY-JG","country":"ليبيا","country_code":"ly"},"osm_type":"node","osm_id":12456403546,"type":"city","location":[12.8516516,31.3893219],"bbox":[12.6916516,31.2293219,13.0116516,31.5493219]}
{"name":"الخمس","other_names":{"name:ar":"الخمس","name:de":"al-Chums","name:en":"Khoms","name:eo":"Al Ĥums","name:et":"Al-Khums","name:fa":"الخمس","name:fr":"Khoms","name:it":"Homs","name:la":"Leptis Magna","name:pl":"Al-Chums","name:ru":"Хомс","name:ur":"خمس","name:azb":"الخمس","name:kab":"Lxums"},"display_name":"الخمس, محافظة المرقب, ليبيا","address":{"city":"الخمس","state":"محافظة المرقب","ISO3166-2-lvl4":"LY-MB","country":"ليبيا","country_code":"ly"},"population":103743,"osm_type":"node","osm_id":277399357,"type":"city","location":[14.26801,32.652183],"bbox":[14.10801,32.492183,14.42801,32.812183]}
{"name":"الرحيبات","other_names":{"name:ar":"الرحيبات","name:de":"Rahibat","name:en":"Rahibat","name:fr":"Rahibat","name:ia":"Rahibat","name:it":"Rahebat","name:ber":"ⴰⵎⵙⵉⵏ"},"display_name":"الرحيبات, الجبل الغربي, ليبيا","address":{"city":"الرحيبات","state":"الجبل الغربي","ISO3166-2-lvl4":"LY-JG","country":"ليبيا","country_code":"ly"},"osm_type":"node","osm_id":4212111529,"type":"city","location":[11.8986142,31.8836726],"bbox":[11.7386142,31.7236726,12.0586142,32.0436726]}
{"name":"الزاوية","other_names":{"name:ar":"الزاوية","name:de":"al-Sawija","name:en":"Al Zawiyah","name:et":"Az-Zāwiyah","name:eu":"Zawiya","name:fa":"زاویه","name:fr":"Zaouïa","name:it":"Zauia","name:pl":"Az-Zawija","name:ru":"Эз-Завия","name:uk":"Ез-Завія","name:ur":"زاویہ","name:kab":"Zzaweyya"},"display_name":"الزاوية, شعبية الزاوية, ليبيا","address":{"city":"الزاوية","state":"شعبية الزاوية","ISO3166-2-lvl4":"LY-ZA","country":"ليبيا","country_code":"ly"},"population":318726,"osm_type":"node","osm_id":277399530,"type":"city","location":[12.7355967,32.7596665],"bbox":[12.5755967,32.5996665,12.8955967,32.9196665]}
{"name":"الزهراء","other_names":{"name:ar":"الزهراء","name:en":"Al-Zahra","name:fr":"Al-Zahra","name:it":"Al-Zahra"},"display_name":"الزهراء, الجفارة, ليبيا","address":{"city":"الزهراء","state":"الجفارة","ISO3166-2-lvl4":"LY-JI","country":"ليبيا","country_code":"ly"},"osm_type":"node","osm_id":1181267424,"type":"city","location":[12.8725109,32.6780313],"bbox":[12.7125109,32.5180313,13.0325109,32.8380313]}
{"name":"العجيلات","other_names":{"name:ar":"العجيلات","name:en":"Al Ajyaylat","name:fr":"Adjelat","name:it":"El-Agelat"},"display_name":"العجيلات, النقاط الخمس, ليبيا","address":{"city":"العجيلات","state":"النقاط الخمس","ISO3166-2-lvl4":"LY-NQ","country":"ليبيا","country_code":"ly"},"population":4878,"osm_type":"node","osm_id":1169743113,"type":"city","location":[12.3773801,32.7577581],"bbox":[12.2173801,32.5977581,12.5373801,32.9177581]}
{"name":"العزيزية","other_names":{"name:ar":"العزيزية","name:de":"Al ’Azīziyah","name:en":"Al Aziziya","name:es":"Al Aziziya","name:fr":"El Azizia","name:it":"El-Azizia","name:ckb":"عەزیزیە"},"display_name":"العزيزية, الجفارة, ليبيا","address":{"city":"العزيزية","state":"الجفارة","ISO3166-2-lvl4":"LY-JI","country":"ليبيا","country_code":"ly"},"population":23399,"osm_type":"node","osm_id":3300366408,"type":"city","location":[13.0176242,32.5330923],"bbox":[12.8576242,32.3730923,13.1776242,32.6930923]}
{"name":"العوينية","other_names":{"name:ar":"العوينية","name:en":"Al-Awainia","name:fr":"Al-Awainia"},"display_name":"العوينية, الجبل الغربي, ليبيا","address":{"city":"العوينية","state":"الجبل الغربي","ISO3166-2-lvl4":"LY-JG","country":"ليبيا","country_code":"ly"},"osm_type":"way","osm_id":26325865,"type":"city","location":[12.457307121530702,31.98266055],"bbox":[12.3984991,31.9400406,12.516007,32.0231002]}
{"name":"الغريفة","other_names":{"name:ar":"الغريفة","name:de":"Al Ghurayfah","name:en":"Ghurayfah","name:fr":"Ghurayfah","name:it":"Al-Gurayfah","alt_name":"الغريفه","alt_name:ar":"الغريفه"},"display_name":"الغريفة, وادي الحياة, ليبيا","address":{"city":"الغريفة","state":"وادي الحياة","ISO3166-2-lvl4":"LY-WD","country":"ليبيا","country_code":"ly"},"population":14800,"osm_type":"node","osm_id":260715668,"type":"city","location":[13.0099491,26.5258867],"bbox":[12.8499491,26.3658867,13.1699491,26.6858867]}
{"name":"القطرون","other_names":{"name:ar":"القطرون","name:de":"Al-Qatrun","name:en":"Qatrun","name:es":"Al Qatrun","name:fi":"Al-Qatrun","name:fr":"Gatrone","name:it":"El-Gatrun","name:nl":"Al Qatrun","name:pl":"Al-Katrun","name:sv":"Al Qaţrūn","name:vi":"Al Qatrun","alt_name":"Al Katrun;Gatrone;Al Gatrun"},"display_name":"القطرون, مرزق, ليبيا","address":{"city":"القطرون","state":"مرزق","ISO3166-2-lvl4":"LY-MQ","country":"ليبيا","country_code":"ly"},"osm_type":"node","osm_id":419488780,"type":"city","location":[14.5315003,24.8894679],"bbox":[14.3715003,24.7294679,14.6915003,25.0494679]}
{"name":"المرج","other_names":{"name:ar":"المرج","name:az":"Əl Məric","name:ca":"Al Marj","name:cs":"Mardž","name:de":"Al Marj","name:en":"Marj","name:eo":"Al Marĝ","name:es":"Al Marj","name:fa":"مرج (لیبی)","name:fr":"Al Marj","name:hy":"Ալ-Մարջ","name:it":"Barce","name:ja":"マルジュ","name:ka":"ელ-მარჯი","name:ko":"마르지","name:pl":"Al-Mardż","name:pt":"Marje","name:ro":"Al Marj","name:ru":"Эль-Мардж","name:sc":"El Merj","name:sh":"Mardž","name:uk":"Ель-Мардж","name:ur":"مرج","name:vi":"Marj","name:vo":"Märc","name:zh":"迈尔季","name:zu":"Marj","alt_name":"El Merj","int_name":"Al Marj","name:arz":"المرج (تجمع سكان فى شعبيه المرج)","name:azb":"مرج (لیبی)","name:ceb":"Al Marj (kapital sa distrito)","name:kab":"Lmarj","name:sco":"Al Marj","old_name":"Barce","alt_name:it":"Al-Marj","old_name:cs":"Barka","name:zh-Hant":"迈尔季"},"display_name":"المرج, ليبيا","address":{"city":"المرج","state":"المرج","ISO3166-2-lvl4":"LY-MJ","country":"ليبيا","country_code":"ly"},"population":90667,"osm_type":"node","osm_id":1159112554,"type":"city","location":[20.832738,32.4853167],"bbox":[20.672738,32.3253167,20.992738,32.6453167]}
{"name":"بنغازي","other_names":{"name:af":"Benghazi","name:ar":"بنغازي","name:az":"Benqazi","name:be":"Бенгазі","name:bg":"Бенгази","name:bn":"বেনগাজি","name:br":"Benghazi","name:bs":"Bengazi","name:ca":"Bengasi","name:cs":"Benghází","name:cy":"Bengasi","name:da":"Benghazi","name:de":"Bengasi","name:el":"Βεγγάζη","name:en":"Benghazi","name:eo":"Bengazi","name:es":"Bengasi","name:et":"Benghazi","name:eu":"Bengazi","name:fa":"بنغازی","name:fi":"Bengasi","name:fr":"Benghazi","name:fy":"Bengazy","name:ga":"Benghazi","name:ha":"Benghazi","name:he":"בנגאזי","name:hi":"बेनगाज़ी","name:hr":"Bengazi","name:hu":"Bengázi","name:hy":"Բենգազի","name:id":"Benghazi","name:ie":"Bengasi","name:io":"Benghazi","name:is":"Benghazi","name:it":"Bengasi","name:ja":"ベンガジ","name:ka":"ბენღაზი","name:kk":"Бенгази","name:ko":"벵가지","name:la":"Berenice","name:lt":"Bengazis","name:lv":"Bengāzī","name:mr":"बेनगाझी","name:ms":"Benghazi","name:nb":"Benghazi","name:nl":"Benghazi","name:nn":"Benghazi","name:oc":"Bengazi","name:os":"Бенгази","name:pa":"ਬਨਗ਼ਾਜ਼ੀ","name:pl":"Bengazi","name:ps":"بنغازی","name:pt":"Bengasi","name:ro":"Benghazi","name:ru":"Бенгази","name:sk":"Bengázi","name:sl":"Bengazi","name:sq":"Bengazi","name:sr":"Бенгази","name:sv":"Benghazi","name:sw":"Benghazi","name:ta":"பங்காசி","name:tg":"Вилояти Бенғази","name:th":"เบงกาซี","name:tr":"Bingazi","name:uk":"Бенгазі","name:ur":"بنغازی","name:uz":"Bingʻozi","name:vi":"Benghazi","name:vo":"Bängasi","name:zh":"班加西","name:zu":"Benghazi","name:kab":"Benɣazi","alt_name:cs":"Bengází","name:zh-Hans":"班加西"},"display_name":"بنغازي, ليبيا","address":{"city":"بنغازي","state":"بنغازي","ISO3166-2-lvl4":"LY-BA","country":"ليبيا","country_code":"ly"},"population":631555,"osm_type":"node","osm_id":1312442225,"type":"city","location":[20.0812174,32.1200168],"bbox":[19.9212174,31.9600168,20.2412174,32.2800168]}
{"name":"بني وليد","other_names":{"name:af":"Bani Walid","name:ar":"بني وليد","name:az":"Beni-Valid","name:be":"Бені-Валід","name:bg":"Бани Уалид","name:cs":"Baní Walíd","name:de":"Bani Walid","name:en":"Bani Walid","name:eo":"Beni Valid","name:es":"Bani Walid","name:fi":"Bani Walid","name:fr":"Beni Oualid","name:hu":"Bani Valíd","name:id":"Beni Ulid","name:it":"Beni Ulid","name:ja":"バニワリード","name:ka":"ბანი-ვალიდი","name:ko":"바니왈리드","name:lt":"Bani Validas","name:nl":"Bani Walid","name:pl":"Bani Walid","name:pt":"Bani Ualide","name:ro":"Bani Walid","name:ru":"Бени-Валид","name:sr":"Бани Валид","name:sv":"Banī Walīd","name:tr":"Beni Velid","name:uk":"Бені-Валід","name:vi":"Bani Walid","name:vo":"Bäni Välid","name:zh":"巴尼·瓦利德","name:zu":"Bani Walid","name:kab":"Bni Walid"},"display_name":"بني وليد, محافظة بني وليد, ليبيا","address":{"city":"بني وليد","state":"محافظة بني وليد","ISO3166-2-lvl4":"LY-MI","country":"ليبيا","country_code":"ly"},"population":100000,"osm_type":"node","osm_id":1160881649,"type":"city","location":[14.0173184,31.7599817],"bbox":[13.8573184,31.5999817,14.1773184,31.9199817]}
{"name":"ترهونة","other_names":{"name:ar":"ترهونة","name:az":"Tarhuna","name:be":"Тархуна","name:cs":"Tarhúna","name:en":"Tarhuna","name:eo":"Tarhuna","name:es":"Tarhuna","name:fi":"Tarhuna","name:fr":"Tarhounah","name:it":"Tarhuna","name:ka":"ტარჰუანა","name:lt":"Tarhuna","name:nb":"Tarhuna","name:pl":"Tarhuna","name:pt":"Taruna","name:ro":"Tarhoona","name:ru":"Тархуна","name:sv":"Tarhuna","name:vi":"Tarhuna","name:vo":"Tärhunä","name:zu":"Tarhuna","name:kab":"Tarhuna"},"display_name":"ترهونة, محافظة المرقب, ليبيا","address":{"city":"ترهونة","state":"محافظة المرقب","ISO3166-2-lvl4":"LY-MB","country":"ليبيا","country_code":"ly"},"population":120000,"osm_type":"node","osm_id":277399044,"type":"city","location":[13.6350687,32.4345861],"bbox":[13.4750687,32.2745861,13.7950687,32.5945861]}
{"name":"جالو","other_names":{"name:ar":"جالو","name:en":"Jalu","name:fr":"Oasis de Jalo","name:it":"Gialo","name:ko":"잘루","alt_name":"Jalo"},"display_name":"جالو, الواحات, ليبيا","address":{"city":"جالو","state":"الواحات","ISO3166-2-lvl4":"LY-WA","country":"ليبيا","country_code":"ly"},"population":7963,"osm_type":"node","osm_id":1160843625,"type":"city","location":[21.5482209,29.0331149],"bbox":[21.3882209,28.8731149,21.7082209,29.1931149]}
{"name":"درنة","other_names":{"name:ar":"درنة","name:de":"Darna","name:el":"Ντέρνα","name:en":"Darnah","name:es":"Derna","name:fa":"درنه","name:fr":"Derna","name:it":"Derna","name:ks":"درنہ","name:pl":"Darna","name:ru":"Дерна","name:tr":"Derne","name:ur":"درنہ","name:azb":"درنه","name:ota":"درنه","name:pnb":"درنہ"},"display_name":"درنة, ليبيا","address":{"city":"درنة","state":"درنة","ISO3166-2-lvl4":"LY-DR","country":"ليبيا","country_code":"ly"},"population":50000,"osm_type":"node","osm_id":288493021,"type":"city","location":[22.6383195,32.7593795],"bbox":[22.4783195,32.5993795,22.7983195,32.9193795],"border":{"name":"درنة","other_names":{"name:ar":"درنة","name:de":"Darna","name:es":"Derna","name:it":"Derna","name:el":"Ντέρνα","name:en":"Darnah","name:fa":"درنه","name:fr":"Derna","name:ks":"درنہ","name:pl":"Darna","name:ru":"Дерна","name:tr":"Derne","name:ur":"درنہ","name:azb":"درنه","name:ota":"درنه","name:pnb":"درنہ"},"display_name":"درنة, ليبيا","address":{"city":"درنة","state":"درنة","ISO3166-2-lvl4":"LY-DR","country":"ليبيا","country_code":"ly"},"population":50000,"osm_type":"way","osm_id":26332048,"type":"city","location":[22.6383195,32.7593795],"bbox":[22.5567585,32.7400541,22.6842874,32.7914515]}}
{"name":"رأس لانوف","other_names":{"name:af":"Ras Lanoef","name:ar":"رأس لانوف","name:bg":"Рас Лануф","name:ca":"Ras Lanuf","name:cs":"Rás Lanúf","name:de":"Ras Lanuf","name:en":"Ras Lanuf","name:eo":"Ras Lanuf","name:es":"Ras Lanuf","name:fr":"Ras Lanouf","name:he":"ראס לאנוף","name:hu":"Rász Lánúf","name:it":"Ras Lanuf","name:ja":"ラス・ラーヌーフ","name:ka":"რას-ელ-ანუფი","name:nl":"Ra's Lanoef","name:pl":"Ras al-Unuf","name:pt":"Ras Lanufe","name:ru":"Рас-эль-Ануф","name:sr":"Рас Лануф","name:uk":"Рас-Лануф","name:vi":"Ras Lanuf","name:zu":"Ra's Lanuf","name:kab":"Ras Lanuf","alt_name":"Ra’s al Unūf","alt_name:ar":"راس لانوف","name:ar-Latn":"Rā's Lānūf","alt:ru":"Рас-Лануф"},"display_name":"رأس لانوف, سرت, ليبيا","address":{"town":"رأس لانوف","state":"سرت","ISO3166-2-lvl4":"LY-SR","country":"ليبيا","country_code":"ly"},"population":13000,"osm_type":"way","osm_id":177407251,"type":"city","location":[18.417789,30.586862],"bbox":[18.3936583,30.5685075,18.4412433,30.6023889]}
{"name":"رقدالين","other_names":{"name:ar":"رقدالين","name:en":"Riqdalin","name:fr":"Regdaline","name:it":"Regdalin"},"display_name":"رقدالين, النقاط الخمس, ليبيا","address":{"city":"رقدالين","state":"النقاط الخمس","ISO3166-2-lvl4":"LY-NQ","country":"ليبيا","country_code":"ly"},"osm_type":"node","osm_id":1169748265,"type":"city","location":[11.9870728,32.8863864],"bbox":[11.8270728,32.7263864,12.1470728,33.0463864]}
{"name":"زلطن","other_names":{"name:ar":"زلطن","name:de":"Zelten","name:en":"Zulten","name:fr":"Zelten","name:it":"Zaltan"},"display_name":"زلطن, النقاط الخمس, ليبيا","address":{"city":"زلطن","state":"النقاط الخمس","ISO3166-2-lvl4":"LY-NQ","country":"ليبيا","country_code":"ly"},"population":17000,"osm_type":"node","osm_id":1169748270,"type":"city","location":[11.866804,32.9461461],"bbox":[11.706804,32.7861461,12.026804,33.1061461]}
{"name":"زليتن","other_names":{"name:ar":"زليتن","name:de":"Zliten","name:en":"Zliten","name:es":"Zliten","name:et":"Zlīţan","name:fr":"Zliten","alt_name":"Zliten","name:kab":"Zliten"},"display_name":"زليتن, محافظة بني وليد, ليبيا","address":{"city":"زليتن","state":"محافظة بني وليد","ISO3166-2-lvl4":"LY-MI","country":"ليبيا","country_code":"ly"},"population":240000,"osm_type":"node","osm_id":1170583242,"type":"city","location":[14.56564,32.467562],"bbox":[14.40564,32.307562,14.72564,32.627562]}
{"name":"زوارة","other_names":{"name:ar":"زوارة","name:de":"Zuara","name:en":"Zuara","name:es":"Zuara","name:et":"Zuwārah","name:fr":"Zouara","name:it":"Zuara","name:lt":"Zuvara","name:pl":"Zuwara","name:ru":"Зуара","name:uk":"Зуара","name:jbn":"ⵜⴰⵎⵓⵔⵜ ⵏ ⵡⴰⵜ ⵡⵉⵍⵍⵓⵍ","name:kab":"At Willul","official_name":"بلدية زوارة","official_name:ar":"بلدية زوارة"},"display_name":"زوارة, النقاط الخمس, ليبيا","address":{"city":"زوارة","state":"النقاط الخمس","ISO3166-2-lvl4":"LY-NQ","country":"ليبيا","country_code":"ly"},"population":80310,"osm_type":"node","osm_id":277399662,"type":"city","location":[12.0806069,32.9327858],"bbox":[11.9206069,32.7727858,12.2406069,33.0927858]}
{"name":"سبها","other_names":{"name:ar":"سبها","name:de":"Sabha","name:en":"Sabha","name:es":"Sabha","name:et":"Şabḩā","name:fa":"سبها","name:fr":"Sabha","name:it":"Seba","name:ko":"세바","name:ku":"Sabha","name:lt":"Sabha","name:pl":"Sabha","name:ru":"Себха","name:tr":"Sabha","name:uk":"Себха","name:ur":"سبها","name:azb":"سبها","name:ota":"سبها"},"display_name":"سبها, ليبيا","address":{"city":"سبها","state":"سبها","ISO3166-2-lvl4":"LY-SB","country":"ليبيا","country_code":"ly"},"population":138231,"osm_type":"node","osm_id":260716549,"type":"city","location":[14.4290398,27.0364864],"bbox":[14.2690398,26.8764864,14.5890398,27.1964864]}
{"name":"سرت","other_names":{"name:ar":"سرت","name:de":"Surt","name:el":"Σύρτη","name:en":"Sirte","name:es":"Sirte","name:fa":"سرت","name:fr":"Syrte","name:he":"סירת","name:it":"Sirte","name:ks":"سرت","name:pl":"Syrta","name:ru":"Сирт","name:uk":"Сирт","name:ur":"سرت","name:azb":"سرت","name:kab":"Surt","official_name":"بلدية سرت","official_name:ar":"بلدية سرت"},"display_name":"سرت, ليبيا","address":{"city":"سرت","state":"سرت","ISO3166-2-lvl4":"LY-SR","country":"ليبيا","country_code":"ly"},"population":48504,"osm_type":"node","osm_id":299616414,"type":"city","location":[16.5836206,31.2059625],"bbox":[16.4236206,31.0459625,16.7436206,31.3659625]}
{"name":"سواني فسانو","other_names":{"name:ar":"فسانو","name:en":"Fessano","name:fr":"Sawani Fassano","alt:ar":"سواني فسانو","alt:en":"Sawani Fassanu"},"display_name":"سواني فسانو, الجبل الغربي, ليبيا","address":{"village":"سواني فسانو","state":"الجبل الغربي","ISO3166-2-lvl4":"LY-JG","country":"ليبيا","country_code":"ly"},"population":1,"osm_type":"way","osm_id":126488593,"type":"city","location":[12.78546,31.3290481],"bbox":[12.5036267,30.8780985,12.8332683,31.3501901]}
{"name":"صرمان","other_names":{"name:ar":"صرمان","name:bn":"সুরমান","name:cs":"Surmán","name:de":"Surman","name:el":"Σούρμαν","name:en":"Surman","name:fa":"سورمان","name:fr":"Sourman","name:he":"סורמן","name:hi":"सुर्मन","name:hy":"Սուրման","name:it":"Sorman","name:ja":"サーマン","name:ko":"서먼","name:ru":"Сурман","name:sk":"Surmán","name:th":"เซอร์แมน","name:tr":"surman","name:uk":"Сурман","name:ur":"سورمن","name:vi":"Người Surman","name:zh":"蘇爾曼","alt_name":"Sorman:Serman","name:kab":"Ṣerman"},"display_name":"صرمان, بلدية صرمان, ليبيا","address":{"city":"صرمان","municipality":"بلدية صرمان","ISO3166-2-lvl4":"LY-SU","country":"ليبيا","country_code":"ly"},"population":100000,"osm_type":"node","osm_id":375717610,"type":"city","location":[12.5743485,32.7549766],"bbox":[12.4143485,32.5949766,12.7343485,32.9149766]}
{"name":"طبرق","other_names":{"name:ar":"طبرق","name:de":"Tobruk","name:en":"Tobruk","name:es":"Tobruk","name:et":"Ţubruq","name:fa":"طبرق","name:fi":"Tobruk","name:fr":"Tobrouk","name:it":"Tobruch","name:ks":"طبرق","name:lt":"Tubrukas","name:nl":"Tobroek","name:pl":"Tobruk","name:ru":"Тобрук","name:sk":"Tobruk","name:uk":"Тобрук","name:ur":"طبرق","name:azb":"طبرق","name:kab":"Ṭubruq","name:ota":"طبرق","name:az-Arab":"طبرق"},"display_name":"طبرق, البطنان, ليبيا","address":{"city":"طبرق","state":"البطنان","ISO3166-2-lvl4":"LY-BU","country":"ليبيا","country_code":"ly"},"population":131102,"osm_type":"node","osm_id":277520853,"type":"city","location":[23.9599988,32.0773764],"bbox":[23.7999988,31.9173764,24.1199988,32.2373764]}
{"name":"طرابلس","other_names":{"name:af":"Tripoli","name:am":"ትሪፖሊ","name:an":"Tripoli","name:ar":"طرابلس","name:az":"Tripoli","name:ba":"Триполи","name:be":"Трыпалі","name:bg":"Триполи","name:bn":"ত্রিপোলি","name:bo":"ཐི་རི་ཕོ་ལི","name:br":"Tripoli","name:bs":"Tripoli","name:ca":"Trípoli","name:ce":"ТӀарабулус","name:cs":"Tripolis","name:cy":"Tripoli","name:da":"Tripoli","name:de":"Tripolis","name:el":"Τρίπολη","name:en":"Tripoli","name:eo":"Tripolo","name:es":"Trípoli","name:et":"Tripoli","name:eu":"Tripoli","name:fa":"طرابلس","name:fi":"Tripoli","name:fr":"Tripoli","name:fy":"Tripoly","name:ga":"Tripilí","name:gd":"Tripoli","name:gl":"Trípoli","name:ha":"Tripoli","name:he":"טריפולי","name:hi":"ताराबूलस","name:hr":"Tripoli","name:ht":"Tripoli","name:hu":"Tripoli","name:hy":"Տրիպոլի","name:ia":"Tripoli","name:id":"Tripoli","name:ie":"Tripolis","name:io":"Tripoli","name:is":"Trípólí","name:it":"Tripoli","name:ja":"トリポリ","name:jv":"Tripoli","name:ka":"ტრიპოლი","name:kg":"Tripoli","name:kk":"Триполи","name:kl":"Tripoli","name:kn":"ಟ್ರಿಪೋಲಿ","name:ko":"트리폴리","name:ks":"طرابلس","name:ku":"Trablûs","name:kw":"Tripoli","name:ky":"Триполи","name:la":"Oea","name:lb":"Tripolis","name:lt":"Tripolis","name:lv":"Tripole","name:mg":"Tripoli","name:mk":"Триполи","name:ml":"ട്രിപ്പോളി","name:mn":"Триполи","name:mr":"त्रिपोली","name:ms":"Tripoli","name:mt":"Tripli","name:nb":"Tripoli","name:nl":"Tripoli","name:nn":"Tripoli","name:no":"Tripoli","name:nv":"Táaʼgokin","name:oc":"Trípol","name:os":"Триполи","name:pa":"ਤਰਾਬਲਸ","name:pl":"Trypolis","name:ps":"ترابلس","name:pt":"Trípoli","name:qu":"Tripoli","name:ro":"Tripoli","name:ru":"Триполи","name:sc":"Tripoli","name:sh":"Tripoli","name:si":"ට්‍රිපොලි","name:sk":"Tripolis","name:sl":"Tripoli","name:sn":"Tripoli","name:so":"Triboli","name:sq":"Tripoli","name:sr":"Триполи","name:sv":"Tripoli","name:sw":"Tripoli","name:ta":"திரிப்பொலி","name:tg":"Триполи","name:th":"ตริโปลี","name:tk":"Tripoli","name:tl":"Tripoli","name:tr":"Trablus","name:tw":"Tripoli","name:ug":"ترىپولى","name:uk":"Триполі","name:ur":"طرابلس","name:uz":"Tarobulus al-Gʻarb","name:vi":"Tripoli","name:vo":"Tarabulus","name:wo":"Tripoli","name:yi":"טריפאלי","name:yo":"Tripoli","name:zh":"的黎波里","name:zu":"Tripoli","int_name":"Ṭarābulus","name:ace":"Tarabulus","name:arz":"طرابلس","name:ast":"Trípoli","name:azb":"طرابلس","name:bcl":"Tripoli","name:ckb":"تەرابلوس","name:ext":"Trípoli","name:grc":"Τρίπολις","name:hif":"Tripoli","name:hyw":"Թրիփոլի","name:kab":"Ṭrables","name:lad":"Tripoli","name:lij":"Tripoli","name:lmo":"Tripul","name:mrj":"Триполи","name:nan":"Tripoli","name:nov":"Tripoli","name:pap":"Tripoli","name:pms":"Trìpoli","name:pnb":"طرابلس","name:pnt":"Τρίπολις","name:scn":"Trìpuli","name:sco":"Tripoli","name:udm":"Триполи","name:vec":"Tripołi","name:war":"Tripoli","name:yue":"的黎波里","name:simple":"Tripoli","name:map-bms":"Tripoli","name:roa-rup":"Tripoli","name:be-tarask":"Трыпалі"},"display_name":"طرابلس, ليبيا","address":{"city":"طرابلس","state":"طرابلس","ISO3166-2-lvl4":"LY-TB","country":"ليبيا","country_code":"ly"},"population":2127000,"osm_type":"node","osm_id":1699640925,"type":"city","location":[13.1777923,32.896672],"bbox":[13.0177923,32.736672,13.3377923,33.056672],"border":{"name":"طرابلس","other_names":{"name:af":"Tripoli","name:am":"ትሪፖሊ","name:an":"Tripoli","name:ar":"طرابلس","name:az":"Tripoli","name:be":"Трыпалі","name:bg":"Триполи","name:bn":"ত্রিপোলি","name:bo":"ཐི་རི་ཕོ་ལི","name:br":"Tripoli","name:bs":"Tripoli","name:ca":"Trípoli","name:cs":"Tripolis","name:cy":"Tripoli","name:da":"Tripoli","name:de":"Tripolis","name:el":"Τρίπολη","name:en":"Tripoli","name:eo":"Tripolo","name:es":"Trípoli","name:et":"Tripoli","name:eu":"Tripoli","name:fa":"طرابلس","name:fi":"Tripoli","name:fr":"Tripoli","name:fy":"Tripoly","name:ga":"Tripilí","name:gd":"Tripoli","name:gl":"Trípoli","name:he":"טריפולי","name:hi":"ताराबूलस","name:hr":"Tripoli","name:ht":"Tripoli","name:hu":"Tripoli","name:hy":"Տրիպոլի","name:ia":"Tripoli","name:id":"Tripoli","name:io":"Tripoli","name:is":"Trípólí","name:it":"Tripoli","name:ja":"トリポリ","name:jv":"Tripoli","name:ka":"ტრიპოლი","name:kk":"Триполи","name:kl":"Tripoli","name:kn":"ಟ್ರಿಪೋಲಿ","name:ko":"트리폴리","name:ks":"طرابلس","name:ku":"Trablûs","name:kw":"Tripoli","name:ky":"Триполи","name:lt":"Tripolis","name:lv":"Tripole","name:mi":"Tiriporī","name:mk":"Триполи","name:ml":"ട്രിപ്പോളി","name:mn":"Триполи","name:mr":"त्रिपोली","name:ms":"Tripoli","name:nl":"Tripoli","name:nn":"Tripoli","name:no":"Tripoli","name:oc":"Trípol","name:os":"Триполи","name:pl":"Trypolis","name:ps":"ترابلس","name:pt":"Trípoli","name:qu":"Tripoli","name:ro":"Tripoli","name:ru":"Триполи","name:sc":"Tripoli","name:sh":"Tripoli","name:sk":"Tripolis","name:sl":"Tripoli","name:so":"Triboli","name:sr":"Триполи","name:sv":"Tripoli","name:sw":"Tripoli","name:ta":"திரிப்பொலி","name:tg":"Триполи","name:th":"ตริโปลี","name:tl":"Tripoli","name:tr":"Trablus","name:ug":"ترىپولى","name:uk":"Триполі","name:ur":"طرابلس","name:vi":"Tripoli","name:vo":"Tarabulus","name:wo":"Tripoli","name:yi":"טריפאלי","name:yo":"Tripoli","name:zh":"的黎波里","int_name":"Ṭarābulus","name:ace":"Tarabulus","name:arz":"طرابلس","name:ast":"Trípoli","name:azb":"طرابلس","name:bcl":"Tripoli","name:ckb":"تەرابلوس","name:ext":"Trípoli","name:grc":"Τρίπολις","name:hif":"Tripoli","name:hyw":"Թրիփոլի","name:lad":"Tripoli","name:lij":"Tripoli","name:lmo":"Tripul","name:mrj":"Триполи","name:nan":"Tripoli","name:nov":"Tripoli","name:pap":"Tripoli","name:pms":"Trìpoli","name:pnb":"طرابلس","name:pnt":"Τρίπολις","name:scn":"Trìpuli","name:sco":"Tripoli","name:szl":"Trypolis","name:udm":"Триполи","name:vec":"Tripołi","name:war":"Tripoli","name:yue":"的黎波里","name:simple":"Tripoli","name:map-bms":"Tripoli","name:roa-rup":"Tripoli","name:ba":"Триполи","name:ce":"ТӀарабулус","name:ha":"Tripoli","name:ie":"Tripolis","name:kg":"Tripoli","name:la":"Oea","name:lb":"Tripolis","name:mg":"Tripoli","name:mt":"Tripli","name:nb":"Tripoli","name:nv":"Táaʼgokin","name:pa":"ਤਰਾਬਲਸ","name:si":"ට්‍රිපොලි","name:sn":"Tripoli","name:sq":"Tripoli","name:tk":"Tripoli","name:tw":"Tripoli","name:uz":"Tarobulus al-Gʻarb","name:zu":"Tripoli","name:be-tarask":"Трыпалі","name:kab":"Ṭrables"},"display_name":"طرابلس, ليبيا","address":{"city":"طرابلس","state":"طرابلس","ISO3166-2-lvl4":"LY-TB","country":"ليبيا","country_code":"ly"},"population":2127000,"osm_type":"relation","osm_id":5466235,"type":"city","location":[13.1777923,32.896672],"bbox":[13.0657395,32.6253078,13.59814,32.9212205]}}
{"name":"غات","other_names":{"name:ar":"غات","name:ca":"Ghat","name:de":"Ghat","name:en":"Ghat","name:eo":"Gat","name:es":"Ghat","name:fi":"Ghat","name:fr":"Ghat","name:fy":"Ghat","name:hu":"Gát","name:it":"Gat","name:ja":"ガート","name:ka":"ღათი","name:ko":"가트","name:lt":"Gatas","name:nl":"Ghat","name:pl":"Ghat","name:pt":"Gate","name:ro":"Ghat","name:ru":"Гат","name:sl":"Gat","name:sv":"Ghat","name:tr":"Gat","name:uk":"Гат","name:vi":"Ghat","name:vo":"Gat","name:zh":"加特","name:zu":"Ghat","name:kab":"Ɣat"},"display_name":"غات, ليبيا","address":{"city":"غات","state":"غات","ISO3166-2-lvl4":"LY-GT","country":"ليبيا","country_code":"ly"},"population":22000,"osm_type":"node","osm_id":260714409,"type":"city","location":[10.1797167,24.9626299],"bbox":[10.0197167,24.8026299,10.3397167,25.1226299]}
{"name":"غدامس","other_names":{"name:af":"Ghadames","name:ar":"غدامس","name:az":"Qədamis","name:ba":"Гадамес","name:be":"Гадамес","name:bg":"Гадамес","name:bn":"ঘাদামিস","name:ca":"Gadames","name:cs":"Ghadames","name:cy":"Gadames","name:da":"Ghadames","name:de":"Ghadames","name:el":"Γκανταμές","name:en":"Ghadames","name:eo":"Ghadames","name:es":"Gadamés","name:eu":"Ghadames","name:fi":"Ghadamés","name:fr":"Ghadamès","name:he":"רדאמס","name:hr":"Gadames","name:hu":"Gadámesz","name:id":"Ghadames","name:it":"Gadames","name:ja":"ガダミス","name:ka":"ღადამესი","name:ko":"가다메스","name:lt":"Gadamesas","name:my":"ဂဒါးမစ်မြို့","name:nb":"Ghadames","name:ne":"घदामेस","name:nl":"Ghadames","name:nn":"Ghadamis","name:oc":"Gadames","name:pl":"Ghadamis","name:pt":"Gadamés","name:ro":"Ghadames","name:ru":"Гадамес","name:sr":"Гадамес","name:sv":"Ghadames","name:tr":"Gadames","name:uk":"Гадамес","name:vi":"Ghadames","name:vo":"Gadamis","name:zh":"古达米斯","name:zu":"Ghadames","alt_name":"Ghadamis","int_name":"Ghadamis","name:kab":"ɣdames"},"display_name":"غدامس, نالوت, ليبيا","address":{"city":"غدامس","state":"نالوت","ISO3166-2-lvl4":"LY-NL","country":"ليبيا","country_code":"ly"},"population":10000,"osm_type":"node","osm_id":276850140,"type":"city","location":[9.4900658,30.1258404],"bbox":[9.3300658,29.9658404,9.6500658,30.2858404]}
{"name":"غريان","other_names":{"name:ar":"غريان","name:az":"Qaryan","name:be":"Гар’ян","name:cs":"Gharján","name:de":"Garian","name:en":"Gharyan","name:eo":"Garjan","name:es":"Garian","name:et":"Gharyān","name:fi":"Gharyan","name:fr":"Gharyan","name:it":"Garian","name:ja":"ガリヤン","name:ka":"ღარიანი","name:ko":"가리안","name:lt":"Garjanas","name:nl":"Gharyan","name:pl":"Gharjan","name:pt":"Gariã","name:ro":"Ghiryan","name:ru":"Гарьян","name:sv":"Gharyan","name:tr":"Geryan","name:uk":"Ґар'ян","name:vi":"Gharyan","name:vo":"Garyan","name:zh":"盖尔扬","name:zu":"Gharyan","name:ber":"ⵖⵔⵢⴰⵏ","name:kab":"Ɣeryan"},"display_name":"غريان, الجبل الغربي, ليبيا","address":{"city":"غريان","state":"الجبل الغربي","ISO3166-2-lvl4":"LY-JG","country":"ليبيا","country_code":"ly"},"population":187854,"osm_type":"node","osm_id":1565510610,"type":"city","location":[13.0211451,32.1715873],"bbox":[12.8611451,32.0115873,13.1811451,32.3315873]}
{"name":"قصر بن غشير","other_names":{"name:ar":"قصر بن غشير","name:be":"Каср-Бен-Гашыр","name:de":"Qasr bin Ghaschir","name:en":"Qasr Bin Ghashir","name:fr":"Kasr ben Ghachir","name:it":"Castillo Benito","name:ka":"ქასრ-ბენ-ღაშირი","name:pt":"Alcácer ibne Gaxir","name:ru":"Бин-Гашир","name:zu":"Qasr bin Ghashir","alt_name:fr":"Kasr ben Gachir;Kasr bin Gachir;Kasr bin Ghachir","alt_name:it":"Ben Gascir"},"display_name":"قصر بن غشير, الجفارة, ليبيا","address":{"city":"قصر بن غشير","state":"الجفارة","ISO3166-2-lvl4":"LY-JI","country":"ليبيا","country_code":"ly"},"population":6569,"osm_type":"node","osm_id":1565512489,"type":"city","location":[13.1764996,32.6859736],"bbox":[13.0164996,32.5259736,13.3364996,32.8459736]}
{"name":"مدينة البريقة","other_names":{"name:ar":"مدينة البريقة","name:de":"Neu-Brega","name:en":"New Brega","name:es":"Nueva Brega","name:fr":"New Brega","name:it":"Nuova Brega"},"display_name":"مدينة البريقة, الواحات, ليبيا","address":{"city":"مدينة البريقة","state":"الواحات","ISO3166-2-lvl4":"LY-WA","country":"ليبيا","country_code":"ly"},"osm_type":"way","osm_id":420087277,"type":"city","location":[19.74120018520202,30.427879349999998],"bbox":[19.5384508,30.3455004,19.8477417,30.507989]}
{"name":"مدينة جرمة","other_names":{"name:ar":"مدينة جرمة","name:de":"Garama","name:en":"Germa","name:es":"Germa","name:fr":"Germa","name:it":"Germa","int_name":"Jarmah","short_name:ar":"جرمة"},"display_name":"مدينة جرمة, وادي الحياة, ليبيا","address":{"city":"مدينة جرمة","state":"وادي الحياة","ISO3166-2-lvl4":"LY-WD","country":"ليبيا","country_code":"ly"},"population":4839,"osm_type":"node","osm_id":260715664,"type":"city","location":[13.0696338,26.5284969],"bbox":[12.9096338,26.3684969,13.2296338,26.6884969]}
{"name":"مرزق","other_names":{"name:ar":"مرزق","name:de":"Murzuk","name:en":"Murzuq","name:es":"Murzuq","name:fa":"مرزق","name:fr":"Mourzouq","name:it":"Murzuch","name:ko":"무르주크","name:ks":"مرزق","name:pl":"Murzuk","name:ru":"Марзук","name:uk":"Марзук","name:ur":"مرزق","name:azb":"مرزق","name:kab":"Murzuq"},"display_name":"مرزق, ليبيا","address":{"city":"مرزق","state":"مرزق","ISO3166-2-lvl4":"LY-MQ","country":"ليبيا","country_code":"ly"},"population":12746,"osm_type":"node","osm_id":260716346,"type":"city","location":[13.9197199,25.9140852],"bbox":[13.7597199,25.7540852,14.0797199,26.0740852]}
{"name":"مزدة","other_names":{"name:ar":"مزدة","name:en":"Mizda","name:es":"Mizda","name:fa":"مزده","name:fr":"Mizda","name:azb":"مزده","name:az-Arab":"مزده","name:de":"Mizda","name:kab":"Mizda"},"display_name":"مزدة, الجبل الغربي, ليبيا","address":{"town":"مزدة","state":"الجبل الغربي","ISO3166-2-lvl4":"LY-JG","country":"ليبيا","country_code":"ly"},"population":23000,"osm_type":"way","osm_id":26326726,"type":"city","location":[12.9821357,31.4494857],"bbox":[12.9384801,31.4173167,13.014715,31.4903085]}
{"name":"مسلاتة المركز","other_names":{"name:ar":"مسلاتة المركز","name:en":"Central Msallata","name:fr":"Msallata centrale"},"display_name":"مسلاتة المركز, محافظة المرقب, ليبيا","address":{"city":"مسلاتة المركز","state":"محافظة المرقب","ISO3166-2-lvl4":"LY-MB","country":"ليبيا","country_code":"ly"},"osm_type":"node","osm_id":506650392,"type":"city","location":[14.0417371,32.579922],"bbox":[13.8817371,32.419922,14.2017371,32.739922]}
{"name":"مصراتة","other_names":{"name:ar":"مصراتة","name:cs":"Misuráta","name:de":"Misrata","name:el":"Μισράτα","name:en":"Misrata","name:es":"Misurata","name:et":"Mişrātah","name:eu":"Misratah","name:fi":"Al Misratah","name:fr":"Misrata","name:it":"Misurata","name:ro":"Misrata","name:ru":"Мисурата","name:sk":"Misuráta","name:zh":"米苏拉塔","name:kab":"Miṣrata","alt_name:cs":"Misráta","alt_name:de":"Misurata;Misratah","alt_name:en":"Misurata;Misratah","alt_name:sk":"Misráta","name:zh-Hans":"米苏拉塔"},"display_name":"مصراتة, محافظة بني وليد, ليبيا","address":{"city":"مصراتة","state":"محافظة بني وليد","ISO3166-2-lvl4":"LY-MI","country":"ليبيا","country_code":"ly"},"population":600000,"osm_type":"node","osm_id":5431087789,"type":"city","location":[15.0905803,32.3745923],"bbox":[14.9305803,32.2145923,15.2505803,32.5345923]}
{"name":"نالوت","other_names":{"name:ar":"نالوت","name:de":"Nalut","name:en":"Nalut","name:es":"Nalut","name:fr":"Nalout","name:pl":"Nalut","name:ru":"Налут","name:uk":"Налут","name:kab":"Nalut"},"display_name":"نالوت, ليبيا","address":{"city":"نالوت","state":"نالوت","ISO3166-2-lvl4":"LY-NL","country":"ليبيا","country_code":"ly"},"population":99256,"osm_type":"node","osm_id":277270298,"type":"city","location":[10.9827903,31.8637865],"bbox":[10.8227903,31.7037865,11.1427903,32.0237865]}
{"name":"هون","other_names":{"name:ar":"هون","name:de":"Hun","name:en":"Hun","name:es":"Hun","name:fa":"هون","name:fi":"Hun","name:fr":"Houn","name:it":"Hun","name:ja":"フーン","name:ka":"ჰუნი","name:ko":"훈","name:pl":"Hun","name:pt":"Hune","name:ru":"Хун","name:sh":"Hun","name:sr":"Хун","name:sv":"Hūn","name:tr":"Hun","name:uk":"Хун","name:ur":"ہون","name:vi":"Houn","name:vo":"Hun","name:zh":"胡恩","name:zu":"Hun","name:arz":"هون","name:azb":"هون","name:kab":"Hun","name:sco":"Hun","name:az-Arab":"هون"},"display_name":"هون, شعبية الجفرة, ليبيا","address":{"city":"هون","state":"شعبية الجفرة","ISO3166-2-lvl4":"LY-JU","country":"ليبيا","country_code":"ly"},"population":30715,"osm_type":"node","osm_id":1170597942,"type":"city","location":[15.9402605,29.1245649],"bbox":[15.7802605,28.9645649,16.1002605,29.2845649]}
{"name":"ودان","other_names":{"name:ar":"ودان","name:az":"Vaddan","name:de":"Waddan","name:en":"Waddan","name:es":"Waddan","name:fa":"ودان","name:fr":"Waddan","name:it":"Ueddan","name:ka":"უადანი","name:ks":"ودان","name:ps":"ودان","name:pt":"Uadane","name:sv":"Waddān","name:uk":"Ваддай","name:ur":"ودان","name:zu":"Waddan","name:azb":"ودان","name:kab":"Weddan","name:ota":"ودان","name:pnb":"ودان"},"display_name":"ودان, شعبية الجفرة, ليبيا","address":{"city":"ودان","state":"شعبية الجفرة","ISO3166-2-lvl4":"LY-JU","country":"ليبيا","country_code":"ly"},"population":27590,"osm_type":"node","osm_id":1193623176,"type":"city","location":[16.141311,29.1613826],"bbox":[15.981311,29.0013826,16.301311,29.3213826]}
