{"name":"Al Kufrah","other_names":{"name:ar":"الكفرة"},"display_name":"Al Kufrah, الكفرة, ليبيا","address":{"town":"Al Kufrah","state":"الكفرة","ISO3166-2-lvl4":"LY-KF","country":"ليبيا","country_code":"ly"},"osm_type":"node","osm_id":12814338455,"type":"town","location":[23.2759053,24.1799597],"bbox":[23.2359053,24.1399597,23.3159053,24.2199597]}
{"name":"أبو سليم","other_names":{"name:ar":"أبو سليم","name:en":"Abu Salim","name:fr":"Abu Salim"},"display_name":"أبو سليم, طرابلس, ليبيا","address":{"town":"أبو سليم","state":"طرابلس","ISO3166-2-lvl4":"LY-TB","country":"ليبيا","country_code":"ly"},"osm_type":"node","osm_id":1411070218,"type":"town","location":[13.1712207,32.8495473],"bbox":[13.1312207,32.8095473,13.2112207,32.8895473]}
{"name":"أبو غيلان","other_names":{"name:ar":"أبو غيلان","name:en":"Abu Ghaylan","name:fr":"Abu Ghaylan","alt_name:ar":"بوغيلان غريان"},"display_name":"أبو غيلان, الجبل الغربي, ليبيا","address":{"town":"أبو غيلان","state":"الجبل الغربي","ISO3166-2-lvl4":"LY-JG","country":"ليبيا","country_code":"ly"},"osm_type":"node","osm_id":1565508856,"type":"town","location":[13.038171,32.2564249],"bbox":[12.998171,32.2164249,13.078171,32.2964249]}
{"name":"أبو قرين","other_names":{"name:ar":"أبو قرين","name:cs":"Abú Grajn","name:en":"Abu Qurayn","name:fr":"Abu Qurayn","name:sk":"Abú Grajn","alt_name:ar":"أبوقرين","alt_name:en":"Abu Grein"},"display_name":"أبو قرين, محافظة بني وليد, ليبيا","address":{"town":"أبو قرين","state":"محافظة بني وليد","ISO3166-2-lvl4":"LY-MI","country":"ليبيا","country_code":"ly"},"osm_type":"node","osm_id":1185649367,"type":"town","location":[15.2550137,31.4497354],"bbox":[15.2150137,31.4097354,15.2950137,31.4897354]}
{"name":"أم الرزم","other_names":{"name:ar":"أم الرزم","name:en":"Umm ar Rizam","name:fr":"Umm Ar Rizam"},"display_name":"أم الرزم, درنة, ليبيا","address":{"town":"أم الرزم","state":"درنة","ISO3166-2-lvl4":"LY-DR","country":"ليبيا","country_code":"ly"},"osm_type":"node","osm_id":1172162124,"type":"town","location":[23.0087542,32.5317445],"bbox":[22.9687542,32.4917445,23.0487542,32.5717445],"border":{"name":"أم الرزم","other_names":{"name:ar":"أم الرزم","name:en":"Umm ar Rizam","name:fr":"Umm Ar Rizam"},"display_name":"أم الرزم, درنة, ليبيا","address":{"town":"أم الرزم","state":"درنة","ISO3166-2-lvl4":"LY-DR","country":"ليبيا","country_code":"ly"},"osm_type":"way","osm_id":26332174,"type":"town","location":[23.0087542,32.5317445],"bbox":[22.9961765,32.524377,23.0196941,32.5444346]}}
{"name":"أم ساعد","other_names":{"name:ar":"أم ساعد","name:en":"Umm Sa'ad","name:fr":"Umm Sa'ad","name:uk":"Ум Саад"},"display_name":"أم ساعد, البطنان, ليبيا","address":{"town":"أم ساعد","state":"البطنان","ISO3166-2-lvl4":"LY-BU","country":"ليبيا","country_code":"ly"},"osm_type":"node","osm_id":1170179740,"type":"town","location":[25.0485024,31.6135318],"bbox":[25.0085024,31.5735318,25.0885024,31.6535318]}
{"name":"أوجلة","other_names":{"name:ar":"أوجلة","name:en":"Awjilah","name:fr":"Awjilah"},"display_name":"أوجلة, الواحات, ليبيا","address":{"town":"أوجلة","state":"الواحات","ISO3166-2-lvl4":"LY-WA","country":"ليبيا","country_code":"ly"},"population":4756,"osm_type":"node","osm_id":1565509942,"type":"town","location":[21.2975,29.140278],"bbox":[21.2575,29.100278,21.3375,29.180278]}
{"name":"أولاد بدر","other_names":{"name:ar":"أولاد بدر","name:en":"Awlad Badr","name:fr":"Awlad Badr"},"display_name":"أولاد بدر, الجبل الغربي, ليبيا","address":{"town":"أولاد بدر","state":"الجبل الغربي","ISO3166-2-lvl4":"LY-JG","country":"ليبيا","country_code":"ly"},"population":2890,"osm_type":"node","osm_id":1565509964,"type":"town","location":[11.9672429,32.0182239],"bbox":[11.9272429,31.9782239,12.0072429,32.0582239]}
{"name":"أولاد مسعود","other_names":{"name:ar":"أولاد مسعود","name:en":"Awlad Mas`ud","name:fr":"Awlad Mas`ud"},"display_name":"أولاد مسعود, الجبل الغربي, ليبيا","address":{"town":"أولاد مسعود","state":"الجبل الغربي","ISO3166-2-lvl4":"LY-JG","country":"ليبيا","country_code":"ly"},"population":3147,"osm_type":"node","osm_id":1565510039,"type":"town","location":[12.121976,31.9724],"bbox":[12.081976,31.9324,12.161976,32.0124]}
{"name":"أولاد يحيى","other_names":{"name:ar":"أولاد يحيى","name:en":"Awlad Yahya","name:fr":"Awlad Yahya","name:ber":"ⵉⵏⴷ ⵢⵃⵢⴰ"},"display_name":"أولاد يحيى, الجبل الغربي, ليبيا","address":{"town":"أولاد يحيى","state":"الجبل الغربي","ISO3166-2-lvl4":"LY-JG","country":"ليبيا","country_code":"ly"},"osm_type":"node","osm_id":1565510129,"type":"town","location":[12.5206902,32.0183362],"bbox":[12.4806902,31.9783362,12.5606902,32.0583362]}
{"name":"إدري","other_names":{"name:ar":"إدري","name:de":"Idri","name:en":"Adiri","name:fa":"ادری","name:fr":"Adiri","name:it":"Adiri","name:ru":"Адири","name:uk":"Адірі"},"display_name":"إدري, وادي الشاطئ, ليبيا","address":{"town":"إدري","state":"وادي الشاطئ","ISO3166-2-lvl4":"LY-WS","country":"ليبيا","country_code":"ly"},"population":4611,"osm_type":"node","osm_id":1198398303,"type":"town","location":[13.0491001,27.4457392],"bbox":[13.0091001,27.4057392,13.0891001,27.4857392]}
{"name":"إسبيعة","other_names":{"name:ar":"إسبيعة","name:en":"Sebiaa","name:fr":"Sebiaa","alt_name":"Subay‘ah"},"display_name":"إسبيعة, الجفارة, ليبيا","address":{"town":"إسبيعة","state":"الجفارة","ISO3166-2-lvl4":"LY-JI","country":"ليبيا","country_code":"ly"},"osm_type":"node","osm_id":1286668670,"type":"town","location":[13.1765255,32.5362047],"bbox":[13.1365255,32.4962047,13.2165255,32.5762047]}
{"name":"ابريك","other_names":{"name:ar":"ابريك","name:de":"Burayk","name:en":"Burayk","name:fr":"Burayk"},"display_name":"ابريك, وادي الحياة, ليبيا","address":{"town":"ابريك","state":"وادي الحياة","ISO3166-2-lvl4":"LY-WD","country":"ليبيا","country_code":"ly"},"osm_type":"node","osm_id":1565510688,"type":"town","location":[13.1130219,26.5568364],"bbox":[13.0730219,26.5168364,13.1530219,26.5968364],"border":{"name":"ابريك","other_names":{"name:ar":"ابريك","name:en":"Burayk","name:fr":"Burik","name:de":"Burayk","alt:fr":"Burayk"},"display_name":"ابريك, وادي الحياة, ليبيا","address":{"town":"ابريك","state":"وادي الحياة","ISO3166-2-lvl4":"LY-WD","country":"ليبيا","country_code":"ly"},"osm_type":"way","osm_id":268316776,"type":"town","location":[13.1130219,26.5568364],"bbox":[13.1025346,26.5438371,13.1218143,26.5617646]}}
{"name":"اجخرة","other_names":{"name:ar":"اجخره","name:en":"Jikharrah","name:fr":"Jikharrah"},"display_name":"اجخرة, الواحات, ليبيا","address":{"town":"اجخرة","state":"الواحات","ISO3166-2-lvl4":"LY-WA","country":"ليبيا","country_code":"ly"},"osm_type":"node","osm_id":1565511190,"type":"town","location":[21.6498982,29.2962533],"bbox":[21.6098982,29.2562533,21.6898982,29.3362533]}
{"name":"اسبيطات","other_names":{"name:ar":"اسبيطات","name:en":"As Subaytat","name:fr":"As Subaytat"},"display_name":"اسبيطات, مرزق, ليبيا","address":{"town":"اسبيطات","state":"مرزق","ISO3166-2-lvl4":"LY-MQ","country":"ليبيا","country_code":"ly"},"osm_type":"node","osm_id":1565509703,"type":"town","location":[13.693092,26.0954771],"bbox":[13.653092,26.0554771,13.733092,26.1354771],"border":{"name":"اسبيطات","other_names":{"name:ar":"اسبيطات","name:en":"As Subaytat","name:fr":"As Subaytat"},"display_name":"اسبيطات, مرزق, ليبيا","address":{"town":"اسبيطات","state":"مرزق","ISO3166-2-lvl4":"LY-MQ","country":"ليبيا","country_code":"ly"},"osm_type":"way","osm_id":276084991,"type":"town","location":[13.693092,26.0954771],"bbox":[13.6768076,26.0744755,13.7058398,26.1056756]}}
{"name":"اسلنطة","other_names":{"name:ar":"اسلنطة","name:en":"ASuluntah","name:fr":"ASuluntah"},"display_name":"اسلنطة, الجبل الأخضر, ليبيا","address":{"town":"اسلنطة","state":"الجبل الأخضر","ISO3166-2-lvl4":"LY-JA","country":"ليبيا","country_code":"ly"},"population":2512,"osm_type":"node","osm_id":1565512736,"type":"town","location":[21.715833,32.590278],"bbox":[21.675833,32.550278,21.755833,32.630278]}
{"name":"اقار","other_names":{"name:ar":"اقار","name:en":"Aqqar","name:fr":"Aqqar"},"display_name":"اقار, مرزق, ليبيا","address":{"town":"اقار","state":"مرزق","ISO3166-2-lvl4":"LY-MQ","country":"ليبيا","country_code":"ly"},"osm_type":"node","osm_id":1565509549,"type":"town","location":[13.5521343,26.0936474],"bbox":[13.5121343,26.0536474,13.5921343,26.1336474],"border":{"name":"اقار","other_names":{"name:ar":"اقار","name:en":"aqqar","name:fr":"aqqar","alt:en":"Aqqar","alt:fr":"Aqqar"},"display_name":"اقار, مرزق, ليبيا","address":{"town":"اقار","state":"مرزق","ISO3166-2-lvl4":"LY-MQ","country":"ليبيا","country_code":"ly"},"osm_type":"way","osm_id":275858638,"type":"town","location":[13.5521343,26.0936474],"bbox":[13.5406813,26.0771681,13.590742,26.1080399]}}
{"name":"الأبرق","other_names":{"name:ar":"الأبرق","name:en":"Al Abraq","name:fr":"Al Abraq"},"display_name":"الأبرق, درنة, ليبيا","address":{"town":"الأبرق","state":"درنة","ISO3166-2-lvl4":"LY-DR","country":"ليبيا","country_code":"ly"},"osm_type":"node","osm_id":1565508919,"type":"town","location":[21.997782,32.786528],"bbox":[21.957782,32.746528,22.037782,32.826528]}
{"name":"البخي","other_names":{"name:ar":"البخي","name:en":"Al Bakhi","name:fr":"Al Bakhi"},"display_name":"البخي, مرزق, ليبيا","address":{"town":"البخي","state":"مرزق","ISO3166-2-lvl4":"LY-MQ","country":"ليبيا","country_code":"ly"},"population":2920,"osm_type":"node","osm_id":1565508983,"type":"town","location":[14.4959068,24.8287583],"bbox":[14.4559068,24.7887583,14.5359068,24.8687583],"border":{"name":"البخي","other_names":{"name:ar":"البخي","name:en":"Al Bakhi","name:fr":"Al Bakhi"},"display_name":"البخي, مرزق, ليبيا","address":{"town":"البخي","state":"مرزق","ISO3166-2-lvl4":"LY-MQ","country":"ليبيا","country_code":"ly"},"population":2920,"osm_type":"way","osm_id":103103748,"type":"town","location":[14.4959068,24.8287583],"bbox":[14.481358,24.8181775,14.514832,24.8547479]}}
{"name":"البردي","other_names":{"name:ar":"البردية","name:en":"Bardia","name:fr":"Bardia","name:he":"ברדיה","name:it":"Badrdia","name:uk":"Бардія","alt_name:ar":"البردي","alt_name:en":"El Burdi;Bardi"},"display_name":"البردي, البطنان, ليبيا","address":{"town":"البردي","state":"البطنان","ISO3166-2-lvl4":"LY-BU","country":"ليبيا","country_code":"ly"},"osm_type":"node","osm_id":1173193744,"type":"town","location":[25.081821,31.756018],"bbox":[25.041821,31.716018,25.121821,31.796018],"border":{"name":"البردية","other_names":{"name:ar":"البردية","name:en":"Bardia","name:fr":"Bardia","name:it":"Badrdia","alt_name:ar":"البردي","alt_name:en":"El Burdi;Bardiya"},"display_name":"البردية, البطنان, ليبيا","address":{"town":"البردية","state":"البطنان","ISO3166-2-lvl4":"LY-BU","country":"ليبيا","country_code":"ly"},"osm_type":"way","osm_id":26259296,"type":"town","location":[25.075698574162573,31.75849355],"bbox":[25.0716533,31.7532748,25.0962467,31.7638012]}}
{"name":"البريقة الجديدة","other_names":{"name:ar":"البريقة الجديدة","name:de":"Neu-Brega","name:en":"New Brega","name:es":"Nueva Brega","name:fr":"Nueva Brega","name:it":"Nuova Brega"},"display_name":"البريقة الجديدة, الواحات, ليبيا","address":{"town":"البريقة الجديدة","state":"الواحات","ISO3166-2-lvl4":"LY-WA","country":"ليبيا","country_code":"ly"},"osm_type":"node","osm_id":361358942,"type":"town","location":[19.7250842,30.4829221],"bbox":[19.6850842,30.4429221,19.7650842,30.5229221]}
{"name":"التميمي","other_names":{"name:ar":"التميمي","name:en":"Timimi","name:fr":"Timimi","alt_name":"At Timimi","alt_name:1":"Tmimi"},"display_name":"التميمي, درنة, ليبيا","address":{"town":"التميمي","state":"درنة","ISO3166-2-lvl4":"LY-DR","country":"ليبيا","country_code":"ly"},"population":4667,"osm_type":"node","osm_id":1172167545,"type":"town","location":[23.0603792,32.3306589],"bbox":[23.0203792,32.2906589,23.1003792,32.3706589]}
{"name":"الجغبوب","other_names":{"name:ar":"الجغبوب","name:en":"Al Jaghbub","name:fr":"Al Jaghbub","name:it":"Giarabub","name:uk":"Ель-Джагбуб"},"display_name":"الجغبوب, البطنان, ليبيا","address":{"town":"الجغبوب","state":"البطنان","ISO3166-2-lvl4":"LY-BU","country":"ليبيا","country_code":"ly"},"population":2768,"osm_type":"node","osm_id":1237297697,"type":"town","location":[24.5147549,29.7418903],"bbox":[24.4747549,29.7018903,24.5547549,29.7818903]}
{"name":"الجميل","other_names":{"name:ar":"الجميل","name:en":"Al Jamil","name:fr":"Al Jamil","name:it":"Al Jamil","name:pl":"Al-Dżumajl"},"display_name":"الجميل, النقاط الخمس, ليبيا","address":{"town":"الجميل","state":"النقاط الخمس","ISO3166-2-lvl4":"LY-NQ","country":"ليبيا","country_code":"ly"},"population":23797,"osm_type":"node","osm_id":1169748259,"type":"town","location":[12.0576736,32.8497149],"bbox":[12.0176736,32.8097149,12.0976736,32.8897149]}
{"name":"الجوش","other_names":{"name:ar":"الجوش","name:en":"Al Jawsh","name:fr":"Al Jawsh"},"display_name":"الجوش, نالوت, ليبيا","address":{"town":"الجوش","state":"نالوت","ISO3166-2-lvl4":"LY-NL","country":"ليبيا","country_code":"ly"},"osm_type":"node","osm_id":1565509284,"type":"town","location":[11.6731936,31.9947128],"bbox":[11.6331936,31.9547128,11.7131936,32.0347128]}
{"name":"الجوف","other_names":{"name:ar":"الجوف","name:de":"al-Dschauf","name:en":"Al Jawf","name:fr":"Al Jawf","name:it":"El-Giof"},"display_name":"الجوف, الكفرة, ليبيا","address":{"town":"الجوف","state":"الكفرة","ISO3166-2-lvl4":"LY-KF","country":"ليبيا","country_code":"ly"},"osm_type":"node","osm_id":277407893,"type":"town","location":[23.2938969,24.1985492],"bbox":[23.2538969,24.1585492,23.3338969,24.2385492]}
{"name":"الحرشة","other_names":{"name:ar":"الحرشة","name:en":"Al Hurshah","name:fr":"Al Hurshah"},"display_name":"الحرشة, شعبية الزاوية, ليبيا","address":{"town":"الحرشة","state":"شعبية الزاوية","ISO3166-2-lvl4":"LY-ZA","country":"ليبيا","country_code":"ly"},"population":3759,"osm_type":"node","osm_id":1565509219,"type":"town","location":[12.673889,32.764722],"bbox":[12.633889,32.724722,12.713889,32.804722]}
{"name":"الحطيه","other_names":{"name:ar":"الحطيه","name:de":"Al Hatiyah","name:en":"Al Hatiyah","name:fr":"Alhatiy"},"display_name":"الحطيه, وادي الحياة, ليبيا","address":{"town":"الحطيه","state":"وادي الحياة","ISO3166-2-lvl4":"LY-WD","country":"ليبيا","country_code":"ly"},"osm_type":"node","osm_id":1565509178,"type":"town","location":[12.9342343,26.5769596],"bbox":[12.8942343,26.5369596,12.9742343,26.6169596],"border":{"name":"الحطيه","other_names":{"name:ar":"الحطيه","name:en":"Al Hatiyah","name:fr":"Alhatiy","name:de":"Al Hatiyah"},"display_name":"الحطيه, وادي الحياة, ليبيا","address":{"town":"الحطيه","state":"وادي الحياة","ISO3166-2-lvl4":"LY-WD","country":"ليبيا","country_code":"ly"},"osm_type":"way","osm_id":288632906,"type":"town","location":[12.9342343,26.5769596],"bbox":[12.9063078,26.5586697,12.9717423,26.5929518]}}
{"name":"الحميدية","other_names":{"name:ar":"الحميدية","name:en":"Al Hamidiyah","name:fr":"Al Hamidiyah"},"display_name":"الحميدية, طرابلس, ليبيا","address":{"town":"الحميدية","city":"طرابلس","state":"طرابلس","ISO3166-2-lvl4":"LY-TB","country":"ليبيا","country_code":"ly"},"osm_type":"node","osm_id":1565509143,"type":"town","location":[13.390833,32.884444],"bbox":[13.350833,32.844444,13.430833,32.924444]}
{"name":"الحوامد","other_names":{"name:ar":"الحوامد","name:en":"Al Hawamid","name:fr":"AI Hawamid"},"display_name":"الحوامد, نالوت, ليبيا","address":{"town":"الحوامد","state":"نالوت","ISO3166-2-lvl4":"LY-NL","country":"ليبيا","country_code":"ly"},"osm_type":"node","osm_id":1246799070,"type":"town","location":[11.1622355,31.9754962],"bbox":[11.1222355,31.9354962,11.2022355,32.0154962],"border":{"name":"الحوامد","other_names":{"name:ar":"الحوامد","name:en":"AI Hawamid","name:fr":"AI Hawamid","alt:en":"Al Hawamid"},"display_name":"الحوامد, نالوت, ليبيا","address":{"town":"الحوامد","state":"نالوت","ISO3166-2-lvl4":"LY-NL","country":"ليبيا","country_code":"ly"},"osm_type":"way","osm_id":26305914,"type":"town","location":[11.1622355,31.9754962],"bbox":[11.1346283,31.9565308,11.1768986,31.9843815]}}
{"name":"الخضراء-ترهونة","other_names":{"name:ar":"الخضراء-ترهونة","name:en":"Khadra - Tarhuna"},"display_name":"الخضراء-ترهونة, محافظة المرقب, ليبيا","address":{"town":"الخضراء-ترهونة","state":"محافظة المرقب","ISO3166-2-lvl4":"LY-MB","country":"ليبيا","country_code":"ly"},"osm_type":"node","osm_id":7179243412,"type":"town","location":[13.7168685,32.4378831],"bbox":[13.6768685,32.3978831,13.7568685,32.4778831]}
{"name":"الخوالق","other_names":{"name:ar":"الخوالق","name:en":"Al-Khawaliq"},"display_name":"الخوالق, محافظة المرقب, ليبيا","address":{"town":"الخوالق","state":"محافظة المرقب","ISO3166-2-lvl4":"LY-MB","country":"ليبيا","country_code":"ly"},"osm_type":"node","osm_id":9583406646,"type":"town","location":[13.5824658,32.6162265],"bbox":[13.5424658,32.5762265,13.6224658,32.6562265]}
{"name":"الدريبي","other_names":{"name:ar":"الدريبي","name:en":"Adribe","name:fr":"Adribe"},"display_name":"الدريبي, طرابلس, ليبيا","address":{"town":"الدريبي","state":"طرابلس","ISO3166-2-lvl4":"LY-TB","country":"ليبيا","country_code":"ly"},"osm_type":"node","osm_id":7241028752,"type":"town","location":[13.1305795,32.8506941],"bbox":[13.0905795,32.8106941,13.1705795,32.8906941]}
{"name":"الديسه","other_names":{"name:ar":"الديسه","name:de":"Aldeesa","name:en":"Aldeesa","name:fr":"Aldeesa"},"display_name":"الديسه, وادي الحياة, ليبيا","address":{"town":"الديسه","state":"وادي الحياة","ISO3166-2-lvl4":"LY-WD","country":"ليبيا","country_code":"ly"},"osm_type":"node","osm_id":2916531179,"type":"town","location":[12.8207919,26.5863816],"bbox":[12.7807919,26.5463816,12.8607919,26.6263816],"border":{"name":"الديسة","other_names":{"name:ar":"الديسه","name:en":"aldeesa","name:fr":"Aldeesa"},"display_name":"الديسة, وادي الحياة, ليبيا","address":{"town":"الديسة","state":"وادي الحياة","ISO3166-2-lvl4":"LY-WD","country":"ليبيا","country_code":"ly"},"osm_type":"way","osm_id":288110959,"type":"town","location":[12.831340147193727,26.59064125],"bbox":[12.8083034,26.5644466,12.8600379,26.6177315]}}
{"name":"الرجبان","other_names":{"name:ar":"الرجبان","name:en":"Al Rujban","name:fr":"Al Rujban","alt_name":"Ar Raqubah"},"display_name":"الرجبان, الجبل الغربي, ليبيا","address":{"town":"الرجبان","state":"الجبل الغربي","ISO3166-2-lvl4":"LY-JG","country":"ليبيا","country_code":"ly"},"osm_type":"node","osm_id":1157457006,"type":"town","location":[12.0908186,31.9411296],"bbox":[12.0508186,31.9011296,12.1308186,31.9811296]}
{"name":"الرقيبة","other_names":{"name:ar":"الرقيبة","name:de":"al riqebah","name:en":"al riqebah","name:fr":"al riqebah","alt_name":"الرقيبه","alt_name:ar":"الرقيبه"},"display_name":"الرقيبة, وادي الحياة, ليبيا","address":{"town":"الرقيبة","state":"وادي الحياة","ISO3166-2-lvl4":"LY-WD","country":"ليبيا","country_code":"ly"},"osm_type":"node","osm_id":3358128553,"type":"town","location":[13.559371,26.6047089],"bbox":[13.519371,26.5647089,13.599371,26.6447089],"border":{"name":"الرقيبة","other_names":{"name:ar":"الرقيبة","name:en":"al riqebah","name:fr":"al riqebah","alt_name":"الرقيبه","alt_name:ar":"الرقيبه","name:de":"al riqebah"},"display_name":"الرقيبة, وادي الحياة, ليبيا","address":{"town":"الرقيبة","state":"وادي الحياة","ISO3166-2-lvl4":"LY-WD","country":"ليبيا","country_code":"ly"},"osm_type":"way","osm_id":269967460,"type":"town","location":[13.559371,26.6047089],"bbox":[13.5199644,26.5725651,13.6042394,26.6223647]}}
{"name":"الرواجح","other_names":{"name:ar":"الرواجح","name:en":"Al-Rawajih","name:fr":"Al-Rawajih"},"display_name":"الرواجح, محافظة المرقب, ليبيا","address":{"town":"الرواجح","state":"محافظة المرقب","ISO3166-2-lvl4":"LY-MB","country":"ليبيا","country_code":"ly"},"osm_type":"way","osm_id":817866752,"type":"town","location":[13.670318307218633,32.68106525],"bbox":[13.6092864,32.6215818,13.7325393,32.7396812]}
{"name":"الرياينة","other_names":{"name:ar":"الرياينة","name:en":"Ar Rayāyinah","name:fr":"Ar Rayāyinah","alt_name":"Ryayna;Riaina;Er-Riaina;Qabīlat Awlād Bū Ḩusayn"},"display_name":"الرياينة, الجبل الغربي, ليبيا","address":{"town":"الرياينة","state":"الجبل الغربي","ISO3166-2-lvl4":"LY-JG","country":"ليبيا","country_code":"ly"},"osm_type":"node","osm_id":1281223987,"type":"town","location":[12.3449843,31.9941147],"bbox":[12.3049843,31.9541147,12.3849843,32.0341147]}
{"name":"الزرقان","other_names":{"name:ar":"الزرقان","name:en":"Az Zurqan","name:fr":"Az Zurqan","name:ber":"ⴰⵣⵔⴳⴰⵏ"},"display_name":"الزرقان, الجبل الغربي, ليبيا","address":{"town":"الزرقان","state":"الجبل الغربي","ISO3166-2-lvl4":"LY-JG","country":"ليبيا","country_code":"ly"},"osm_type":"node","osm_id":1565510329,"type":"town","location":[12.508514,32.015883],"bbox":[12.468514,31.975883,12.548514,32.055883]}
{"name":"الزهراء","other_names":{"name:ar":"الزهراء","name:en":"Azzahra","name:fr":"Azzahra","name:it":"Al-Zahra","alt:en":"Al-Zahra","alt:fr":"Al-Zahra"},"display_name":"الزهراء, الجفارة, ليبيا","address":{"city":"الزهراء","state":"الجفارة","ISO3166-2-lvl4":"LY-JI","country":"ليبيا","country_code":"ly"},"osm_type":"way","osm_id":338209189,"type":"town","location":[12.8725109,32.6780313],"bbox":[12.8111801,32.6511041,12.9222128,32.7062648]}
{"name":"الزوية","other_names":{"name:ar":"الزوية","name:de":"Azwaiya","name:en":"Azwaiya","name:fr":"Azwaiya"},"display_name":"الزوية, وادي الشاطئ, ليبيا","address":{"town":"الزوية","state":"وادي الشاطئ","ISO3166-2-lvl4":"LY-WS","country":"ليبيا","country_code":"ly"},"population":11022,"osm_type":"node","osm_id":1565512848,"type":"town","location":[14.2268086,27.5738026],"bbox":[14.1868086,27.5338026,14.2668086,27.6138026]}
{"name":"الزيغن","other_names":{"name:ar":"الزيغن","name:en":"Al Zighan","name:fr":"Al Zighan"},"display_name":"الزيغن, سبها, ليبيا","address":{"town":"الزيغن","state":"سبها","ISO3166-2-lvl4":"LY-SB","country":"ليبيا","country_code":"ly"},"osm_type":"node","osm_id":3309936122,"type":"town","location":[14.9128119,27.3694561],"bbox":[14.8728119,27.3294561,14.9528119,27.4094561],"border":{"name":"الزيغن","other_names":{"name:ar":"الزيغن","name:en":"Al Zighan","name:fr":"Al Zighan"},"display_name":"الزيغن, سبها, ليبيا","address":{"town":"الزيغن","state":"سبها","ISO3166-2-lvl4":"LY-SB","country":"ليبيا","country_code":"ly"},"osm_type":"way","osm_id":278719897,"type":"town","location":[14.9128119,27.3694561],"bbox":[14.8984342,27.3581891,14.9226814,27.3777072]}}
{"name":"الشريدات","other_names":{"name:ar":"الشريدات","name:en":"Sheridat"},"display_name":"الشريدات, محافظة المرقب, ليبيا","address":{"town":"الشريدات","state":"محافظة المرقب","ISO3166-2-lvl4":"LY-MB","country":"ليبيا","country_code":"ly"},"osm_type":"node","osm_id":4529751692,"type":"town","location":[13.7859064,32.7117434],"bbox":[13.7459064,32.6717434,13.8259064,32.7517434]}
{"name":"الشويرف","other_names":{"name:ar":"الشويرف","name:en":"Al Shuwairif","name:fr":"Ash Shurayf","alt_name":"Shuwairif"},"display_name":"الشويرف, الجبل الغربي, ليبيا","address":{"town":"الشويرف","state":"الجبل الغربي","ISO3166-2-lvl4":"LY-JG","country":"ليبيا","country_code":"ly"},"osm_type":"node","osm_id":1193620130,"type":"town","location":[14.259466,29.9823801],"bbox":[14.219466,29.9423801,14.299466,30.0223801]}
{"name":"الطويبية","other_names":{"name:ar":"الطويبية","name:en":"Al Tuwaybiyah","name:fr":"Al Tuwaybiyah"},"display_name":"الطويبية, الجفارة, ليبيا","address":{"town":"الطويبية","state":"الجفارة","ISO3166-2-lvl4":"LY-JI","country":"ليبيا","country_code":"ly"},"population":4316,"osm_type":"node","osm_id":1565509932,"type":"town","location":[12.8392684,32.7776772],"bbox":[12.7992684,32.7376772,12.8792684,32.8176772],"border":{"name":"الطويبية","other_names":{"name:ar":"الطويبية","name:en":"Al Tuwaybiyah","name:fr":"Al Tuwaybiyah"},"display_name":"الطويبية, الجفارة, ليبيا","address":{"town":"الطويبية","state":"الجفارة","ISO3166-2-lvl4":"LY-JI","country":"ليبيا","country_code":"ly"},"population":4316,"osm_type":"way","osm_id":343780546,"type":"town","location":[12.8392684,32.7776772],"bbox":[12.8287756,32.7574328,12.8650391,32.7974842]}}
{"name":"الطويشة","other_names":{"name:ar":"الطويشة","name:en":"Twaishah","name:fr":"Twaishah"},"display_name":"الطويشة, الجفارة, ليبيا","address":{"town":"الطويشة","state":"الجفارة","ISO3166-2-lvl4":"LY-JI","country":"ليبيا","country_code":"ly"},"osm_type":"node","osm_id":3497125512,"type":"town","location":[13.0718724,32.6380615],"bbox":[13.0318724,32.5980615,13.1118724,32.6780615],"border":{"name":"الطويشة","other_names":{"name:ar":"الطويشة","name:en":"al Twaishah","name:fr":"al Twaishah","alt:en":"Twaishah","alt:fr":"Twaishah"},"display_name":"الطويشة, الجفارة, ليبيا","address":{"town":"الطويشة","state":"الجفارة","ISO3166-2-lvl4":"LY-JI","country":"ليبيا","country_code":"ly"},"osm_type":"way","osm_id":342753839,"type":"town","location":[13.0718724,32.6380615],"bbox":[13.0386774,32.6157611,13.1685393,32.6594711]}}
{"name":"العامرية","other_names":{"name:ar":"العامرية","name:en":"AL AMERYA","name:fr":"Al-Amiriya"},"display_name":"العامرية, الجفارة, ليبيا","address":{"town":"العامرية","state":"الجفارة","ISO3166-2-lvl4":"LY-JI","country":"ليبيا","country_code":"ly"},"osm_type":"node","osm_id":3460305547,"type":"town","location":[12.9512354,32.6368785],"bbox":[12.9112354,32.5968785,12.9912354,32.6768785],"border":{"name":"العامرية","other_names":{"name:ar":"العامرية","name:en":"Al Amiriya\\","name:fr":"Al Amiriya","alt:en":"AL AMERYA","alt:fr":"Al-Amiriya"},"display_name":"العامرية, الجفارة, ليبيا","address":{"town":"العامرية","state":"الجفارة","ISO3166-2-lvl4":"LY-JI","country":"ليبيا","country_code":"ly"},"osm_type":"way","osm_id":338876618,"type":"town","location":[12.9512354,32.6368785],"bbox":[12.9241344,32.6167105,12.9812547,32.65706]}}
{"name":"العربان","other_names":{"name:ar":"العربان","name:en":"Al Urban","name:fr":"Al Urban"},"display_name":"العربان, الجبل الغربي, ليبيا","address":{"town":"العربان","state":"الجبل الغربي","ISO3166-2-lvl4":"LY-JG","country":"ليبيا","country_code":"ly"},"osm_type":"node","osm_id":1565509495,"type":"town","location":[13.2521897,32.038151],"bbox":[13.2121897,31.998151,13.2921897,32.078151]}
{"name":"العرقوب","other_names":{"name:ar":"العرقوب","name:en":"Al Urqub","name:fr":"Al Urqub"},"display_name":"العرقوب, الجبل الغربي, ليبيا","address":{"town":"العرقوب","state":"الجبل الغربي","ISO3166-2-lvl4":"LY-JG","country":"ليبيا","country_code":"ly"},"population":3554,"osm_type":"node","osm_id":1565509498,"type":"town","location":[12.217953,31.946448],"bbox":[12.177953,31.906448,12.257953,31.986448]}
{"name":"العسة","other_names":{"name:ar":"العسة","name:en":"Al Assa","name:fr":"Al Assa"},"display_name":"العسة, النقاط الخمس, ليبيا","address":{"town":"العسة","state":"النقاط الخمس","ISO3166-2-lvl4":"LY-NQ","country":"ليبيا","country_code":"ly"},"osm_type":"node","osm_id":1264730570,"type":"town","location":[11.6271918,32.8280514],"bbox":[11.5871918,32.7880514,11.6671918,32.8680514],"border":{"name":"العسة","other_names":{"name:ar":"العسة","name:en":"Al Assa","name:fr":"Al Assa"},"display_name":"العسة, النقاط الخمس, ليبيا","address":{"town":"العسة","state":"النقاط الخمس","ISO3166-2-lvl4":"LY-NQ","country":"ليبيا","country_code":"ly"},"osm_type":"way","osm_id":313918583,"type":"town","location":[11.6271918,32.8280514],"bbox":[11.6043445,32.8186445,11.6591045,32.8477627]}}
{"name":"العواتة","other_names":{"name:ar":"العواتة","name:en":"Al Awata","name:fr":"Al Awata"},"display_name":"العواتة, الجفارة, ليبيا","address":{"town":"العواتة","state":"الجفارة","ISO3166-2-lvl4":"LY-JI","country":"ليبيا","country_code":"ly"},"osm_type":"node","osm_id":7821172286,"type":"town","location":[13.2694179,32.3018488],"bbox":[13.2294179,32.2618488,13.3094179,32.3418488]}
{"name":"العوينات","other_names":{"name:ar":"العوينات","name:de":"Al Awaynat","name:en":"Al 'Uwaynat","name:fr":"Al Awaynat","name:it":"Al Awaynat"},"display_name":"العوينات, غات, ليبيا","address":{"town":"العوينات","state":"غات","ISO3166-2-lvl4":"LY-GT","country":"ليبيا","country_code":"ly"},"osm_type":"node","osm_id":260715301,"type":"town","location":[10.5630366,25.7766127],"bbox":[10.5230366,25.7366127,10.6030366,25.8166127],"border":{"name":"العوينات","other_names":{"name:ar":"العوينات","name:en":"Al Awaynat","name:fr":"Al Awaynat","name:de":"Al Awaynat","name:it":"Al Awaynat","alt:en":"Al 'Uwaynat"},"display_name":"العوينات, غات, ليبيا","address":{"town":"العوينات","state":"غات","ISO3166-2-lvl4":"LY-GT","country":"ليبيا","country_code":"ly"},"osm_type":"way","osm_id":103806689,"type":"town","location":[10.5630366,25.7766127],"bbox":[10.5345175,25.745494,10.5857326,25.8005051]}}
{"name":"الفجيج","other_names":{"name:ar":"الفجيج","name:de":"Al Fujayj","name:en":"Al Fujayj","name:fr":"Al Fujayj","int_name":"Al Fujayj"},"display_name":"الفجيج, وادي الحياة, ليبيا","address":{"town":"الفجيج","state":"وادي الحياة","ISO3166-2-lvl4":"LY-WD","country":"ليبيا","country_code":"ly"},"osm_type":"node","osm_id":260715722,"type":"town","location":[13.314964,26.5434446],"bbox":[13.274964,26.5034446,13.354964,26.5834446],"border":{"name":"الفجيج","other_names":{"name:ar":"الفجيج","name:en":"al Fjayj","name:fr":"al Fjayj","name:de":"Al Fujayj","int_name":"Al Fujayj","alt:en":"Al Fujayj","alt:fr":"Al Fujayj"},"display_name":"الفجيج, وادي الحياة, ليبيا","address":{"town":"الفجيج","state":"وادي الحياة","ISO3166-2-lvl4":"LY-WD","country":"ليبيا","country_code":"ly"},"osm_type":"way","osm_id":329041144,"type":"town","location":[13.314964,26.5434446],"bbox":[13.3020727,26.5188194,13.3621113,26.5527793]}}
{"name":"الفخفاخة","other_names":{"name:ar":"الفخفاخة","name:de":"al fkhfakhah","name:en":"al fkhfakhah","name:fr":"al fkhfakhah"},"display_name":"الفخفاخة, وادي الحياة, ليبيا","address":{"town":"الفخفاخة","state":"وادي الحياة","ISO3166-2-lvl4":"LY-WD","country":"ليبيا","country_code":"ly"},"osm_type":"node","osm_id":2744041747,"type":"town","location":[13.1260524,26.5627074],"bbox":[13.0860524,26.5227074,13.1660524,26.6027074],"border":{"name":"الفخفاخة","other_names":{"name:ar":"الفخفاخة","name:en":"al fkhfakhah","name:fr":"al fkhfakhah","name:de":"al fkhfakhah"},"display_name":"الفخفاخة, وادي الحياة, ليبيا","address":{"town":"الفخفاخة","state":"وادي الحياة","ISO3166-2-lvl4":"LY-WD","country":"ليبيا","country_code":"ly"},"osm_type":"way","osm_id":268275416,"type":"town","location":[13.1260524,26.5627074],"bbox":[13.1168432,26.5563153,13.1327685,26.5702875]}}
{"name":"القبة","other_names":{"name:ar":"القبة","name:en":"Al Qubbah","name:fr":"Al Qubbah","name:it":"Gubba","name:kab":"Lqubba","old_name":"بيرتا","old_name:ar":"بيرتا","old_name:it":"Berta"},"display_name":"القبة, درنة, ليبيا","address":{"town":"القبة","state":"درنة","ISO3166-2-lvl4":"LY-DR","country":"ليبيا","country_code":"ly"},"population":24631,"osm_type":"node","osm_id":1172146730,"type":"town","location":[22.2417527,32.7630561],"bbox":[22.2017527,32.7230561,22.2817527,32.8030561]}
{"name":"القرضة","other_names":{"name:ar":"القرضة","name:en":"Al Qurda","name:fr":"Al Qurda","name:de":"Al Qurda"},"display_name":"القرضة, وادي الشاطئ, ليبيا","address":{"village":"القرضة","state":"وادي الشاطئ","ISO3166-2-lvl4":"LY-WS","country":"ليبيا","country_code":"ly"},"osm_type":"way","osm_id":277201134,"type":"town","location":[13.9726852,27.4970971],"bbox":[13.9420651,27.483392,13.9887141,27.4996055]}
{"name":"القره بوللي","other_names":{"name:ar":"القره بوللي","name:en":"Qasr al Qarabulli","name:fr":"Qasr al Qarabulli","name:it":"Castelverde"},"display_name":"القره بوللي, محافظة المرقب, ليبيا","address":{"town":"القره بوللي","state":"محافظة المرقب","ISO3166-2-lvl4":"LY-MB","country":"ليبيا","country_code":"ly"},"osm_type":"node","osm_id":375721059,"type":"town","location":[13.712796,32.742728],"bbox":[13.672796,32.702728,13.752796,32.782728]}
{"name":"القريات الشرقية","other_names":{"name:ar":"القريات الشرقية","name:en":"Al Qaryat al Sharqiyah","name:fr":"Al Qaryat al Sharqiyah"},"display_name":"القريات الشرقية, الجبل الغربي, ليبيا","address":{"town":"القريات الشرقية","state":"الجبل الغربي","ISO3166-2-lvl4":"LY-JG","country":"ليبيا","country_code":"ly"},"osm_type":"node","osm_id":277339119,"type":"town","location":[13.5817506,30.3889088],"bbox":[13.5417506,30.3489088,13.6217506,30.4289088]}
{"name":"القريات","other_names":{"name:ar":"القريات","name:en":"Al Qaryat","name:fr":"Al Qaryat"},"display_name":"القريات, الجبل الغربي, ليبيا","address":{"town":"القريات","state":"الجبل الغربي","ISO3166-2-lvl4":"LY-JG","country":"ليبيا","country_code":"ly"},"osm_type":"node","osm_id":3303648800,"type":"town","location":[13.5842627,30.3843564],"bbox":[13.5442627,30.3443564,13.6242627,30.4243564]}
{"name":"القنافيد","other_names":{"name:ar":"القنافيد","name:en":"Al Qanafidh","name:fr":"Al Qanafidh"},"display_name":"القنافيد, الجبل الغربي, ليبيا","address":{"town":"القنافيد","state":"الجبل الغربي","ISO3166-2-lvl4":"LY-JG","country":"ليبيا","country_code":"ly"},"population":2431,"osm_type":"node","osm_id":1565509464,"type":"town","location":[11.8300157,31.8410141],"bbox":[11.7900157,31.8010141,11.8700157,31.8810141]}
{"name":"القواسم","other_names":{"name:ar":"القواسم","name:en":"Al Qawasim","name:fr":"Al Qawasim"},"display_name":"القواسم, الجبل الغربي, ليبيا","address":{"town":"القواسم","state":"الجبل الغربي","ISO3166-2-lvl4":"LY-JG","country":"ليبيا","country_code":"ly"},"osm_type":"node","osm_id":3302658161,"type":"town","location":[13.0428058,32.2198895],"bbox":[13.0028058,32.1798895,13.0828058,32.2598895]}
{"name":"القيو","other_names":{"name:ar":"القيو","name:en":"Al Gew"},"display_name":"القيو, الجفارة, ليبيا","address":{"town":"القيو","state":"الجفارة","ISO3166-2-lvl4":"LY-JI","country":"ليبيا","country_code":"ly"},"osm_type":"node","osm_id":4368397990,"type":"town","location":[13.3118138,32.7020834],"bbox":[13.2718138,32.6620834,13.3518138,32.7420834]}
{"name":"الكحيلي","other_names":{"name:ar":"الكحيلي","name:en":"Al-Kahili","name:fr":"Al-Kahili"},"display_name":"الكحيلي, طرابلس, ليبيا","address":{"town":"الكحيلي","state":"طرابلس","ISO3166-2-lvl4":"LY-TB","country":"ليبيا","country_code":"ly"},"osm_type":"node","osm_id":5477163203,"type":"town","location":[13.3044861,32.7792121],"bbox":[13.2644861,32.7392121,13.3444861,32.8192121]}
{"name":"الكريمية","other_names":{"name:ar":"الكريمية","name:en":"Al kirimiya","name:fr":"Al kirimiya"},"display_name":"الكريمية, الجفارة, ليبيا","address":{"town":"الكريمية","state":"الجفارة","ISO3166-2-lvl4":"LY-JI","country":"ليبيا","country_code":"ly"},"osm_type":"node","osm_id":3491677511,"type":"town","location":[13.0867342,32.7540993],"bbox":[13.0467342,32.7140993,13.1267342,32.7940993],"border":{"name":"الكريمية","other_names":{"name:ar":"الكريمية","name:en":"Al Krimiya","name:fr":"Al Krimiya","alt:en":"Al kirimiya","alt:fr":"Al kirimiya"},"display_name":"الكريمية, الجفارة, ليبيا","address":{"town":"الكريمية","state":"الجفارة","ISO3166-2-lvl4":"LY-JI","country":"ليبيا","country_code":"ly"},"osm_type":"way","osm_id":342138800,"type":"town","location":[13.0867342,32.7540993],"bbox":[13.0209672,32.728455,13.1046763,32.7759485]}}
{"name":"المالقي","other_names":{"name:ar":"المالقي","name:de":"Al-Malaqi","name:en":"Al Malaqi","name:es":"Almálaqi","name:fr":"Al Malaqi"},"display_name":"المالقي, مرزق, ليبيا","address":{"town":"المالقي","state":"مرزق","ISO3166-2-lvl4":"LY-MQ","country":"ليبيا","country_code":"ly"},"osm_type":"node","osm_id":1565509386,"type":"town","location":[15.5705038,23.3121646],"bbox":[15.5305038,23.2721646,15.6105038,23.3521646]}
{"name":"الماية","other_names":{"name:ar":"الماية","name:en":"Al Maya","name:fr":"Al Maya"},"display_name":"الماية, الجفارة, ليبيا","address":{"town":"الماية","state":"الجفارة","ISO3166-2-lvl4":"LY-JI","country":"ليبيا","country_code":"ly"},"osm_type":"node","osm_id":1195255987,"type":"town","location":[12.8852783,32.7918642],"bbox":[12.8452783,32.7518642,12.9252783,32.8318642]}
{"name":"المجابرة","other_names":{"name:ar":"المجابرة","name:en":"Al Majabirah","name:fr":"Al Majabirah"},"display_name":"المجابرة, نالوت, ليبيا","address":{"town":"المجابرة","state":"نالوت","ISO3166-2-lvl4":"LY-NL","country":"ليبيا","country_code":"ly"},"population":4116,"osm_type":"node","osm_id":1565509384,"type":"town","location":[11.159167,31.86],"bbox":[11.119167,31.82,11.199167,31.9]}
{"name":"المحروقة","other_names":{"name:ar":"المحروقة","name:de":"Al Mahruqah","name:en":"Al Mahruqah","name:fr":"Al Mahruqah"},"display_name":"المحروقة, وادي الشاطئ, ليبيا","address":{"town":"المحروقة","state":"وادي الشاطئ","ISO3166-2-lvl4":"LY-WS","country":"ليبيا","country_code":"ly"},"population":5104,"osm_type":"node","osm_id":1565509383,"type":"town","location":[14.0155815,27.5019982],"bbox":[13.9755815,27.4619982,14.0555815,27.5419982],"border":{"name":"المحروقة","other_names":{"name:ar":"المحروقة","name:en":"Al Mahruqah","name:fr":"Al Mahruqah","name:de":"Al Mahruqah"},"display_name":"المحروقة, وادي الشاطئ, ليبيا","address":{"town":"المحروقة","state":"وادي الشاطئ","ISO3166-2-lvl4":"LY-WS","country":"ليبيا","country_code":"ly"},"population":5104,"osm_type":"way","osm_id":277201244,"type":"town","location":[14.0155815,27.5019982],"bbox":[13.994851,27.4958599,14.0621106,27.5233453]}}
{"name":"المردوم","other_names":{"name:ar":"المردوم","name:en":"Al Marduom Town","name:fr":"Al Marduom"},"display_name":"المردوم, محافظة بني وليد, ليبيا","address":{"town":"المردوم","state":"محافظة بني وليد","ISO3166-2-lvl4":"LY-MI","country":"ليبيا","country_code":"ly"},"osm_type":"node","osm_id":7509528089,"type":"town","location":[14.4123982,31.7634152],"bbox":[14.3723982,31.7234152,14.4523982,31.8034152]}
{"name":"المشاشطة","other_names":{"name:ar":"المشاشطة","name:de":"Al-Maschāschiṭa","name:en":"Al-Mashāshiṭa","name:fr":"Al-Mashāshiṭa","name:it":"Masciascita","int_name":"المشاشطة","alt_name:ar":"المشاشطه"},"display_name":"المشاشطة, الجفارة, ليبيا","address":{"town":"المشاشطة","state":"الجفارة","ISO3166-2-lvl4":"LY-JI","country":"ليبيا","country_code":"ly"},"osm_type":"node","osm_id":1565509417,"type":"town","location":[12.9992739,32.8004609],"bbox":[12.9592739,32.7604609,13.0392739,32.8404609]}
{"name":"المعمورة","other_names":{"name:ar":"المعمورة","name:en":"Al Ma`murah","name:fr":"Al Ma`murah"},"display_name":"المعمورة, الجفارة, ليبيا","address":{"town":"المعمورة","state":"الجفارة","ISO3166-2-lvl4":"LY-JI","country":"ليبيا","country_code":"ly"},"osm_type":"node","osm_id":1565509358,"type":"town","location":[12.856944,32.719167],"bbox":[12.816944,32.679167,12.896944,32.759167]}
{"name":"الناصرية","other_names":{"name:ar":"الناصرية‎","name:en":"Al-Nasiriyya","name:fr":"Al-Nasiriyya","name:it":"Giordani","int_name":"Giordani"},"display_name":"الناصرية, الجفارة, ليبيا","address":{"town":"الناصرية","state":"الجفارة","ISO3166-2-lvl4":"LY-JI","country":"ليبيا","country_code":"ly"},"population":2287,"osm_type":"node","osm_id":1565509525,"type":"town","location":[12.8731681,32.633494],"bbox":[12.8331681,32.593494,12.9131681,32.673494]}
{"name":"الهضبة البدري","other_names":{"name:ar":"الهضبة البدري","name:en":"Al Hadba Al Badri","name:fr":"Al Hadba Al Badri"},"display_name":"الهضبة البدري, طرابلس, ليبيا","address":{"town":"الهضبة البدري","state":"طرابلس","ISO3166-2-lvl4":"LY-TB","country":"ليبيا","country_code":"ly"},"osm_type":"node","osm_id":7885064069,"type":"town","location":[13.2099421,32.8414463],"bbox":[13.1699421,32.8014463,13.2499421,32.8814463]}
{"name":"الوشكة","other_names":{"name:ar":"الوشكة","name:en":"Al Wachkah","name:fr":"Al Wachkah"},"display_name":"الوشكة, سرت, ليبيا","address":{"town":"الوشكة","state":"سرت","ISO3166-2-lvl4":"LY-SR","country":"ليبيا","country_code":"ly"},"osm_type":"node","osm_id":665116031,"type":"town","location":[15.5708517,31.3733582],"bbox":[15.5308517,31.3333582,15.6108517,31.4133582]}
{"name":"ام الارانب","other_names":{"name:ar":"ام الارانب","name:en":"Umm al Aranib","name:fr":"Umm al Aranib"},"display_name":"ام الارانب, مرزق, ليبيا","address":{"town":"ام الارانب","state":"مرزق","ISO3166-2-lvl4":"LY-MQ","country":"ليبيا","country_code":"ly"},"osm_type":"way","osm_id":328719466,"type":"town","location":[14.742087315917825,26.134977149999997],"bbox":[14.7077427,26.1055481,14.7741971,26.1533632]}
{"name":"امساعد","other_names":{"name:ar":"امساعد","name:de":"Musa'id","name:en":"Musaid","name:fr":"Musaid","name:uk":"Мусаїд"},"display_name":"امساعد, البطنان, ليبيا","address":{"town":"امساعد","state":"البطنان","ISO3166-2-lvl4":"LY-BU","country":"ليبيا","country_code":"ly"},"osm_type":"node","osm_id":1170179748,"type":"town","location":[25.048457,31.605405],"bbox":[25.008457,31.565405,25.088457,31.645405]}
{"name":"اولاد جابر","other_names":{"name:ar":"Awlad Jabir","name:fr":"Awlad Jabir"},"display_name":"اولاد جابر, الجبل الغربي, ليبيا","address":{"town":"اولاد جابر","state":"الجبل الغربي","ISO3166-2-lvl4":"LY-JG","country":"ليبيا","country_code":"ly"},"population":2283,"osm_type":"node","osm_id":1565509988,"type":"town","location":[12.15422,31.9466308],"bbox":[12.11422,31.9066308,12.19422,31.9866308]}
{"name":"بئر الاسطي ميلاد","other_names":{"name:ar":"بئر الاسطي ميلاد","name:en":"Bir Al-Asta Milad","name:fr":"Bir Al-Asta Milad"},"display_name":"بئر الاسطي ميلاد, طرابلس, ليبيا","address":{"town":"بئر الاسطي ميلاد","city":"طرابلس","state":"طرابلس","ISO3166-2-lvl4":"LY-TB","country":"ليبيا","country_code":"ly"},"osm_type":"node","osm_id":8254010628,"type":"town","location":[13.3048114,32.8513254],"bbox":[13.2648114,32.8113254,13.3448114,32.8913254]}
{"name":"بئر التوتة","other_names":{"name:ar":"بئر التوتة","name:en":"Bir Attuta","name:fr":"Bir Attuta"},"display_name":"بئر التوتة, الجفارة, ليبيا","address":{"town":"بئر التوتة","state":"الجفارة","ISO3166-2-lvl4":"LY-JI","country":"ليبيا","country_code":"ly"},"osm_type":"node","osm_id":7241078221,"type":"town","location":[13.2363534,32.6913278],"bbox":[13.1963534,32.6513278,13.2763534,32.7313278]}
{"name":"بئر العالم","other_names":{"name:ar":"بئر العالم","name:en":"Bir Al Alam"},"display_name":"بئر العالم, الجفارة, ليبيا","address":{"town":"بئر العالم","state":"الجفارة","ISO3166-2-lvl4":"LY-JI","country":"ليبيا","country_code":"ly"},"osm_type":"node","osm_id":7241078222,"type":"town","location":[13.3219383,32.6869221],"bbox":[13.2819383,32.6469221,13.3619383,32.7269221]}
{"name":"باب العزيزية","other_names":{"name:ar":"باب العزيزية","name:en":"Bab Al Aziziya"},"display_name":"باب العزيزية, طرابلس, ليبيا","address":{"town":"باب العزيزية","state":"طرابلس","ISO3166-2-lvl4":"LY-TB","country":"ليبيا","country_code":"ly"},"osm_type":"node","osm_id":7241078218,"type":"town","location":[13.1709108,32.8753263],"bbox":[13.1309108,32.8353263,13.2109108,32.9153263]}
{"name":"باب الفرناج","other_names":{"name:ar":"باب الفرناج","name:en":"Bab Al Firnaj"},"display_name":"باب الفرناج, طرابلس, ليبيا","address":{"town":"باب الفرناج","state":"طرابلس","ISO3166-2-lvl4":"LY-TB","country":"ليبيا","country_code":"ly"},"osm_type":"node","osm_id":10076064442,"type":"town","location":[13.2163021,32.8769725],"bbox":[13.1763021,32.8369725,13.2563021,32.9169725]}
{"name":"باب الملاحة","other_names":{"name:ar":"باب الملاحة","name:en":"Bab Mallaha"},"display_name":"باب الملاحة, طرابلس, ليبيا","address":{"town":"باب الملاحة","state":"طرابلس","ISO3166-2-lvl4":"LY-TB","country":"ليبيا","country_code":"ly"},"osm_type":"node","osm_id":10074101854,"type":"town","location":[13.2195688,32.9011915],"bbox":[13.1795688,32.8611915,13.2595688,32.9411915]}
{"name":"باب بن غشير","other_names":{"name:ar":"باب بن غشير","name:en":"Bab Bin Ghashir"},"display_name":"باب بن غشير, طرابلس, ليبيا","address":{"town":"باب بن غشير","state":"طرابلس","ISO3166-2-lvl4":"LY-TB","country":"ليبيا","country_code":"ly"},"osm_type":"node","osm_id":5475837424,"type":"town","location":[13.1956239,32.8723335],"bbox":[13.1556239,32.8323335,13.2356239,32.9123335]}
{"name":"باب ترهونة","other_names":{"name:ar":"باب ترهونة","name:en":"Bab Tarhuna"},"display_name":"باب ترهونة, طرابلس, ليبيا","address":{"town":"باب ترهونة","state":"طرابلس","ISO3166-2-lvl4":"LY-TB","country":"ليبيا","country_code":"ly"},"osm_type":"node","osm_id":10074087391,"type":"town","location":[13.2213067,32.8824989],"bbox":[13.1813067,32.8424989,13.2613067,32.9224989]}
{"name":"باب سيدي المصري","other_names":{"name:ar":"باب سيدي المصري","name:en":"Bab Sidi Al Massri"},"display_name":"باب سيدي المصري, طرابلس, ليبيا","address":{"town":"باب سيدي المصري","state":"طرابلس","ISO3166-2-lvl4":"LY-TB","country":"ليبيا","country_code":"ly"},"osm_type":"node","osm_id":10076064443,"type":"town","location":[13.2072952,32.8699891],"bbox":[13.1672952,32.8299891,13.2472952,32.9099891]}
{"name":"باب عكارة","other_names":{"name:ar":"باب عكارة","name:en":"Bab Akara"},"display_name":"باب عكارة, طرابلس, ليبيا","address":{"town":"باب عكارة","state":"طرابلس","ISO3166-2-lvl4":"LY-TB","country":"ليبيا","country_code":"ly"},"osm_type":"node","osm_id":10073965240,"type":"town","location":[13.1788577,32.8733285],"bbox":[13.1388577,32.8333285,13.2188577,32.9133285]}
{"name":"باب عمروص","other_names":{"name:ar":"باب عمروص","name:en":"Bab Amrus"},"display_name":"باب عمروص, طرابلس, ليبيا","address":{"town":"باب عمروص","state":"طرابلس","ISO3166-2-lvl4":"LY-TB","country":"ليبيا","country_code":"ly"},"osm_type":"node","osm_id":10074098707,"type":"town","location":[13.2217778,32.8965456],"bbox":[13.1817778,32.8565456,13.2617778,32.9365456]}
{"name":"باب عين زارة","other_names":{"name:ar":"باب عين زارة","name:en":"Bab Ain Zara"},"display_name":"باب عين زارة, طرابلس, ليبيا","address":{"town":"باب عين زارة","city":"طرابلس","state":"طرابلس","ISO3166-2-lvl4":"LY-TB","country":"ليبيا","country_code":"ly"},"osm_type":"node","osm_id":10076064444,"type":"town","location":[13.2154223,32.8726474],"bbox":[13.1754223,32.8326474,13.2554223,32.9126474]}
{"name":"باب قرجي","other_names":{"name:ar":"باب قرجي","name:en":"Bab Gorji"},"display_name":"باب قرجي, طرابلس, ليبيا","address":{"town":"باب قرجي","city":"طرابلس","state":"طرابلس","ISO3166-2-lvl4":"LY-TB","country":"ليبيا","country_code":"ly"},"osm_type":"node","osm_id":10073965242,"type":"town","location":[13.1562331,32.8761947],"bbox":[13.1162331,32.8361947,13.1962331,32.9161947]}
{"name":"باب قرقارش","other_names":{"name:ar":"باب قرقارش","name:en":"Bab Ghirgharish"},"display_name":"باب قرقارش, طرابلس, ليبيا","address":{"town":"باب قرقارش","state":"طرابلس","ISO3166-2-lvl4":"LY-TB","country":"ليبيا","country_code":"ly"},"osm_type":"node","osm_id":10073965241,"type":"town","location":[13.1538843,32.8804057],"bbox":[13.1138843,32.8404057,13.1938843,32.9204057]}
{"name":"بدر","other_names":{"name:ar":"بدر","name:en":"Badr","name:fr":"Badr"},"display_name":"بدر, نالوت, ليبيا","address":{"town":"بدر","state":"نالوت","ISO3166-2-lvl4":"LY-NL","country":"ليبيا","country_code":"ly"},"population":18693,"osm_type":"node","osm_id":1246799128,"type":"town","location":[11.5424707,32.0607887],"bbox":[11.5024707,32.0207887,11.5824707,32.1007887]}
{"name":"براك الشاطئ","other_names":{"name:ar":"براك","name:de":"Brak","name:en":"Brak Al Shaati","name:fr":"Birak","name:it":"Brach","name:ru":"Брак","name:uk":"Бірак","alt_name":"Birak","name:kab":"Brak","alt_name:1":"Biraq"},"display_name":"براك الشاطئ, وادي الشاطئ, ليبيا","address":{"town":"براك الشاطئ","state":"وادي الشاطئ","ISO3166-2-lvl4":"LY-WS","country":"ليبيا","country_code":"ly"},"population":43100,"osm_type":"node","osm_id":1194502733,"type":"town","location":[14.272144,27.55163],"bbox":[14.232144,27.51163,14.312144,27.59163]}
{"name":"برقن","other_names":{"name:ar":"برقن","name:en":"Barqin","name:fr":"Barqin","name:de":"Barqin"},"display_name":"برقن, وادي الشاطئ, ليبيا","address":{"village":"برقن","state":"وادي الشاطئ","ISO3166-2-lvl4":"LY-WS","country":"ليبيا","country_code":"ly"},"osm_type":"way","osm_id":277180257,"type":"town","location":[13.6297759,27.5479702],"bbox":[13.605099,27.5285143,13.6569836,27.5680859]}
{"name":"بشر","other_names":{"name:ar":"بشر","name:en":"Qariat Bashir","name:fr":"Bashir"},"display_name":"بشر, الواحات, ليبيا","address":{"town":"بشر","state":"الواحات","ISO3166-2-lvl4":"LY-WA","country":"ليبيا","country_code":"ly"},"osm_type":"way","osm_id":419965834,"type":"town","location":[19.42682199134131,30.295050449999998],"bbox":[19.4026615,30.2766881,19.4694164,30.3132612]}
{"name":"بطة","other_names":{"name:ar":"بطة","name:en":"Battah","name:fr":"Battah"},"display_name":"بطة, المرج, ليبيا","address":{"town":"بطة","state":"المرج","ISO3166-2-lvl4":"LY-MJ","country":"ليبيا","country_code":"ly"},"population":2649,"osm_type":"node","osm_id":1565510525,"type":"town","location":[21.1077228,32.6574771],"bbox":[21.0677228,32.6174771,21.1477228,32.6974771]}
{"name":"بلدة اشميخ","other_names":{"name:ar":"بلدة اشميخ","name:en":"Eshmekh Town","name:fr":"Eshmekh"},"display_name":"بلدة اشميخ, محافظة بني وليد, ليبيا","address":{"town":"بلدة اشميخ","state":"محافظة بني وليد","ISO3166-2-lvl4":"LY-MI","country":"ليبيا","country_code":"ly"},"osm_type":"node","osm_id":6295612485,"type":"town","location":[13.9783782,31.4115652],"bbox":[13.9383782,31.3715652,14.0183782,31.4515652]}
{"name":"بن جواد","other_names":{"name:ar":"بن جواد","name:en":"Ben Jawwad","name:fr":"Ben Jawad","name:ru":"Бен-Джавад","alt_name":"Bin Jawwad","name:ar-Latn":"Bin Ğawād"},"display_name":"بن جواد, سرت, ليبيا","address":{"town":"بن جواد","state":"سرت","ISO3166-2-lvl4":"LY-SR","country":"ليبيا","country_code":"ly"},"population":9675,"osm_type":"node","osm_id":1190768731,"type":"town","location":[18.077852,30.804405],"bbox":[18.037852,30.764405,18.117852,30.844405]}
{"name":"بنت بية","other_names":{"name:ar":"بنت بية","name:de":"Bint Bayyah","name:en":"Bint Bayyah","name:fr":"Bint Bayyah","alt_name":"بنت بيه","alt_name:ar":"بنت بيه"},"display_name":"بنت بية, وادي الحياة, ليبيا","address":{"town":"بنت بية","state":"وادي الحياة","ISO3166-2-lvl4":"LY-WD","country":"ليبيا","country_code":"ly"},"osm_type":"node","osm_id":2750711785,"type":"town","location":[13.6532273,26.643809],"bbox":[13.6132273,26.603809,13.6932273,26.683809],"border":{"name":"بنت بية","other_names":{"name:ar":"بنت بية","name:en":"Bint Bayyah","name:fr":"Bint Bayyah","alt_name":"بنت بيه","alt_name:ar":"بنت بيه","name:de":"Bint Bayyah"},"display_name":"بنت بية, وادي الحياة, ليبيا","address":{"town":"بنت بية","state":"وادي الحياة","ISO3166-2-lvl4":"LY-WD","country":"ليبيا","country_code":"ly"},"osm_type":"way","osm_id":269960322,"type":"town","location":[13.6532273,26.643809],"bbox":[13.6383869,26.6316679,13.6934655,26.6625881]}}
{"name":"بنينا","other_names":{"name:ar":"بنينا","name:en":"Benina","name:it":"Benina","int_name":"Benina"},"display_name":"بنينا, بنغازي, ليبيا","address":{"town":"بنينا","state":"بنغازي","ISO3166-2-lvl4":"LY-BA","country":"ليبيا","country_code":"ly"},"osm_type":"node","osm_id":1565510468,"type":"town","location":[20.2548987,32.0873756],"bbox":[20.2148987,32.0473756,20.2948987,32.1273756]}
{"name":"بوفاخرة","other_names":{"name:ar":"بوفاخرة","name:en":"Bu Fakhirah","name:fr":"Bu Fakhirah"},"display_name":"بوفاخرة, بنغازي, ليبيا","address":{"town":"بوفاخرة","state":"بنغازي","ISO3166-2-lvl4":"LY-BA","country":"ليبيا","country_code":"ly"},"osm_type":"way","osm_id":325851120,"type":"town","location":[19.996807922989852,31.95743815],"bbox":[19.9678474,31.9390927,20.0167066,31.9754675]}
{"name":"بومريم","other_names":{"name:ar":"بومريم","name:en":"Bu Mariam","name:fr":"Bu Mariam","name:it":"Bu Mariam","int_name":"Bu Mariam"},"display_name":"بومريم, بنغازي, ليبيا","address":{"town":"بومريم","state":"بنغازي","ISO3166-2-lvl4":"LY-BA","country":"ليبيا","country_code":"ly"},"population":2785,"osm_type":"node","osm_id":1565510638,"type":"town","location":[20.506459,32.1447383],"bbox":[20.466459,32.1047383,20.546459,32.1847383]}
{"name":"تاجوراء","other_names":{"name:ar":"تاجوراء","name:az":"Tacura","name:be":"Таджура","name:bg":"Таджура","name:de":"Tagiura","name:en":"Tajura","name:es":"Tajura","name:fr":"Tadjourah","name:it":"Tagiura","name:ka":"ტაჯურა","name:pt":"Tajura","name:ro":"Tajoura","name:ru":"Таджура","name:sv":"Tagiura","name:tr":"Tacura","name:ur":"تاجوراء","name:vi":"Tajura","name:vo":"Tacura","name:zh":"塔朱拉","name:zu":"Tajura","name:kab":"Tajura"},"display_name":"تاجوراء, طرابلس, ليبيا","address":{"town":"تاجوراء","state":"طرابلس","ISO3166-2-lvl4":"LY-TB","country":"ليبيا","country_code":"ly"},"population":48836,"osm_type":"node","osm_id":1221370214,"type":"town","location":[13.3525476,32.8834447],"bbox":[13.3125476,32.8434447,13.3925476,32.9234447]}
{"name":"تازربو","other_names":{"name:ar":"تازربو","name:de":"Tazerbo","name:en":"Tazirbu","name:fr":"Tazerbo","name:ka":"ტაზირბუ","name:nl":"Tazirbu","name:ur":"تازربو"},"display_name":"تازربو, الكفرة, ليبيا","address":{"town":"تازربو","state":"الكفرة","ISO3166-2-lvl4":"LY-KF","country":"ليبيا","country_code":"ly"},"osm_type":"node","osm_id":1574963952,"type":"town","location":[21.0621118,25.6716095],"bbox":[21.0221118,25.6316095,21.1021118,25.7116095]}
{"name":"تاكنس","other_names":{"name:ar":"تاكنس","name:en":"Taknis","name:fr":"Taknis","name:it":"Borgo Torelli"},"display_name":"تاكنس, المرج, ليبيا","address":{"town":"تاكنس","state":"المرج","ISO3166-2-lvl4":"LY-MJ","country":"ليبيا","country_code":"ly"},"population":3144,"osm_type":"node","osm_id":1565512821,"type":"town","location":[21.1266826,32.4803518],"bbox":[21.0866826,32.4403518,21.1666826,32.5203518]}
{"name":"تجرهي","other_names":{"name:ar":"تجرهي","name:en":"Tajerhi","name:fr":"Tajerhi"},"display_name":"تجرهي, مرزق, ليبيا","address":{"town":"تجرهي","state":"مرزق","ISO3166-2-lvl4":"LY-MQ","country":"ليبيا","country_code":"ly"},"osm_type":"node","osm_id":3354582744,"type":"town","location":[14.2677731,24.3298183],"bbox":[14.2277731,24.2898183,14.3077731,24.3698183]}
{"name":"تراغن","other_names":{"name:ar":"تراغن","name:de":"Traghan","name:en":"Taraghin","name:fr":"Taraghin","name:it":"Taragin","int_name":"Tarāghin"},"display_name":"تراغن, مرزق, ليبيا","address":{"town":"تراغن","state":"مرزق","ISO3166-2-lvl4":"LY-MQ","country":"ليبيا","country_code":"ly"},"osm_type":"node","osm_id":260716413,"type":"town","location":[14.4308885,25.9371],"bbox":[14.3908885,25.8971,14.4708885,25.9771],"border":{"name":"تراغن","other_names":{"name:ar":"تراغن","name:en":"Taraghin","name:fr":"Taraghin","name:de":"Traghan","name:it":"Taragin","int_name":"Tarāghin"},"display_name":"تراغن, مرزق, ليبيا","address":{"town":"تراغن","state":"مرزق","ISO3166-2-lvl4":"LY-MQ","country":"ليبيا","country_code":"ly"},"osm_type":"way","osm_id":328748810,"type":"town","location":[14.4308885,25.9371],"bbox":[14.4008747,25.9114106,14.4807691,25.9552223]}}
{"name":"تساوه","other_names":{"name:ar":"تساوه","name:de":"Tasawah","name:en":"Tasawah","name:fr":"Tasawah"},"display_name":"تساوه, مرزق, ليبيا","address":{"town":"تساوه","state":"مرزق","ISO3166-2-lvl4":"LY-MQ","country":"ليبيا","country_code":"ly"},"osm_type":"node","osm_id":1565512958,"type":"town","location":[13.5080513,26.0875113],"bbox":[13.4680513,26.0475113,13.5480513,26.1275113],"border":{"name":"تساوه","other_names":{"name:ar":"تساوه","name:en":"Tasawah","name:fr":"Tasawah","name:de":"Tasawah"},"display_name":"تساوه, مرزق, ليبيا","address":{"town":"تساوه","state":"مرزق","ISO3166-2-lvl4":"LY-MQ","country":"ليبيا","country_code":"ly"},"osm_type":"way","osm_id":328810989,"type":"town","location":[13.5080513,26.0875113],"bbox":[13.4742769,26.0680839,13.5379633,26.1124461]}}
{"name":"تمنهنت","other_names":{"name:ar":"تمنهنت","name:de":"Taminhint","name:en":"Taminhint","name:fr":"Taminhint"},"display_name":"تمنهنت, سبها, ليبيا","address":{"town":"تمنهنت","state":"سبها","ISO3166-2-lvl4":"LY-SB","country":"ليبيا","country_code":"ly"},"osm_type":"node","osm_id":4153684744,"type":"town","location":[14.6263766,27.2108188],"bbox":[14.5863766,27.1708188,14.6663766,27.2508188],"border":{"name":"تمنهنت","other_names":{"name:ar":"تمنهنت","name:en":"Taminhint","name:fr":"Taminhint","name:de":"Taminhint"},"display_name":"تمنهنت, سبها, ليبيا","address":{"town":"تمنهنت","state":"سبها","ISO3166-2-lvl4":"LY-SB","country":"ليبيا","country_code":"ly"},"osm_type":"way","osm_id":378765082,"type":"town","location":[14.6263766,27.2108188],"bbox":[14.6196415,27.2027992,14.6400027,27.2152091]}}
{"name":"تهللت","other_names":{"name:ar":"تهللت","name:en":"Tahlilt"},"display_name":"تهللت, الجفارة, ليبيا","address":{"town":"تهللت","state":"الجفارة","ISO3166-2-lvl4":"LY-JI","country":"ليبيا","country_code":"ly"},"osm_type":"node","osm_id":7211904385,"type":"town","location":[13.039539,32.5075521],"bbox":[12.999539,32.4675521,13.079539,32.5475521]}
{"name":"توش","other_names":{"name:ar":"توش","name:de":"Tuosc","name:en":"Tuosc","name:fr":"Tuosc"},"display_name":"توش, وادي الحياة, ليبيا","address":{"town":"توش","state":"وادي الحياة","ISO3166-2-lvl4":"LY-WD","country":"ليبيا","country_code":"ly"},"osm_type":"node","osm_id":1565513008,"type":"town","location":[13.0970753,26.5408647],"bbox":[13.0570753,26.5008647,13.1370753,26.5808647],"border":{"name":"توش","other_names":{"name:ar":"توش","name:en":"tuosh","name:fr":"tuosh","name:de":"Tuosc","alt:en":"Tuosc","alt:fr":"Tuosc"},"display_name":"توش, وادي الحياة, ليبيا","address":{"town":"توش","state":"وادي الحياة","ISO3166-2-lvl4":"LY-WD","country":"ليبيا","country_code":"ly"},"osm_type":"way","osm_id":268518167,"type":"town","location":[13.0970753,26.5408647],"bbox":[13.0885183,26.5327581,13.1091264,26.5486623]}}
{"name":"توكرة","other_names":{"name:ar":"توكرة","name:ca":"Arsinoe","name:de":"Taucheira","name:el":"Ταύχειρα","name:en":"Tocra","name:es":"Tocra","name:fr":"Tocra","name:it":"Tocra","name:ka":"ტუკრა","name:pl":"Arsinoe","name:pt":"Tocra","name:sv":"Tūkrah","name:zu":"Tocra","alt_name":"Taucheira","name:kab":"Tukra","old_name":"Arsinoe","alt_name_1":"Tauchira","alt_name_2":"Tukrah","alt_name_3":"Tauquira","alt_name_4":"Teuchira","alt_name:ar":"توكرة (العاقورية)"},"display_name":"توكرة, بنغازي, ليبيا","address":{"town":"توكرة","state":"بنغازي","ISO3166-2-lvl4":"LY-BA","country":"ليبيا","country_code":"ly"},"osm_type":"node","osm_id":1574963951,"type":"town","location":[20.572222,32.532222],"bbox":[20.532222,32.492222,20.612222,32.572222],"border":{"name":"توكرة","other_names":{"name:ar":"توكرة","name:en":"Tukara","name:ca":"Arsinoe","name:de":"Taucheira","name:el":"Ταύχειρα","name:es":"Tocra","name:fr":"Tocra","name:it":"Tocra","name:ka":"ტუკრა","name:pl":"Arsinoe","name:pt":"Tocra","name:sv":"Tūkrah","name:zu":"Tocra","alt_name":"Taucheira","name:kab":"Tukra","old_name":"Arsinoe","alt_name_1":"Tauchira","alt_name_2":"Tukrah","alt_name_3":"Tauquira","alt_name_4":"Teuchira","alt_name:ar":"توكرة (العاقورية)","alt:en":"Tocra"},"display_name":"توكرة, بنغازي, ليبيا","address":{"town":"توكرة","state":"بنغازي","ISO3166-2-lvl4":"LY-BA","country":"ليبيا","country_code":"ly"},"osm_type":"way","osm_id":100754446,"type":"town","location":[20.572222,32.532222],"bbox":[20.5634946,32.5221483,20.5972248,32.5426669]}}
{"name":"تويوه","other_names":{"name:ar":"تويوه","name:de":"Tuwiwah","name:en":"Tuwiwah","name:fr":"Tuwiwah"},"display_name":"تويوه, وادي الحياة, ليبيا","address":{"town":"تويوه","state":"وادي الحياة","ISO3166-2-lvl4":"LY-WD","country":"ليبيا","country_code":"ly"},"osm_type":"node","osm_id":1565512992,"type":"town","location":[13.1528461,26.563073],"bbox":[13.1128461,26.523073,13.1928461,26.603073],"border":{"name":"تويوه","other_names":{"name:ar":"تويوه","name:en":"Tuwiwah","name:fr":"Tuwiwah","name:de":"Tuwiwah"},"display_name":"تويوه, وادي الحياة, ليبيا","address":{"town":"تويوه","state":"وادي الحياة","ISO3166-2-lvl4":"LY-WD","country":"ليبيا","country_code":"ly"},"osm_type":"way","osm_id":275816968,"type":"town","location":[13.1528461,26.563073],"bbox":[13.143345,26.5442132,13.1734572,26.5740049]}}
{"name":"تيجي","other_names":{"name:ar":"تيجي","name:en":"Tiji","name:fr":"Tiji"},"display_name":"تيجي, نالوت, ليبيا","address":{"town":"تيجي","state":"نالوت","ISO3166-2-lvl4":"LY-NL","country":"ليبيا","country_code":"ly"},"osm_type":"node","osm_id":1246799080,"type":"town","location":[11.3600996,32.0109901],"bbox":[11.3200996,31.9709901,11.4000996,32.0509901]}
{"name":"تينيناي","other_names":{"name:ar":"تينيناي","name:en":"Tininai","name:fr":"Tininai"},"display_name":"تينيناي, محافظة بني وليد, ليبيا","address":{"town":"تينيناي","state":"محافظة بني وليد","ISO3166-2-lvl4":"LY-MI","country":"ليبيا","country_code":"ly"},"osm_type":"node","osm_id":3305364529,"type":"town","location":[13.7427116,31.3931076],"bbox":[13.7027116,31.3531076,13.7827116,31.4331076]}
{"name":"جادو","other_names":{"name:ar":"جادو","name:en":"Jadu","name:fr":"Jadu","name:it":"Giado","name:pl":"Dżadu","name:kab":"Jadu","old_name":"Giado"},"display_name":"جادو, الجبل الغربي, ليبيا","address":{"town":"جادو","state":"الجبل الغربي","ISO3166-2-lvl4":"LY-JG","country":"ليبيا","country_code":"ly"},"osm_type":"node","osm_id":1214773929,"type":"town","location":[12.0273335,31.9527593],"bbox":[11.9873335,31.9127593,12.0673335,31.9927593]}
{"name":"جردس العبيد","other_names":{"name:ar":"جردس العبيد","name:en":"Jardas al Abid","name:fr":"Jardas al Abid"},"display_name":"جردس العبيد, المرج, ليبيا","address":{"town":"جردس العبيد","state":"المرج","ISO3166-2-lvl4":"LY-MJ","country":"ليبيا","country_code":"ly"},"osm_type":"node","osm_id":1173420973,"type":"town","location":[20.9868175,32.3026585],"bbox":[20.9468175,32.2626585,21.0268175,32.3426585]}
{"name":"جعفر","other_names":{"name:ar":"جعفر","name:en":"Jaffar","name:fr":"Jaffar"},"display_name":"جعفر, الجبل الغربي, ليبيا","address":{"town":"جعفر","state":"الجبل الغربي","ISO3166-2-lvl4":"LY-JG","country":"ليبيا","country_code":"ly"},"osm_type":"node","osm_id":1215763443,"type":"town","location":[13.0555778,32.142882],"bbox":[13.0155778,32.102882,13.0955778,32.182882]}
{"name":"جنزور","other_names":{"name:ar":"جنزور","name:de":"Dschansur","name:en":"Janzur","name:fr":"Janzour","name:it":"Gianzur","name:pt":"Janzur","name:tr":"Cenzur"},"display_name":"جنزور, الجفارة, ليبيا","address":{"town":"جنزور","state":"الجفارة","ISO3166-2-lvl4":"LY-JI","country":"ليبيا","country_code":"ly"},"osm_type":"node","osm_id":364324276,"type":"town","location":[13.0262526,32.8254462],"bbox":[12.9862526,32.7854462,13.0662526,32.8654462]}
{"name":"حي الأندلس","other_names":{"name:ar":"حي الأندلس","name:en":"Hey al-Andalus","name:fr":"Hay Andalous"},"display_name":"حي الأندلس, طرابلس, ليبيا","address":{"town":"حي الأندلس","state":"طرابلس","ISO3166-2-lvl4":"LY-TB","country":"ليبيا","country_code":"ly"},"osm_type":"node","osm_id":2681366573,"type":"town","location":[13.1282512,32.8751045],"bbox":[13.0882512,32.8351045,13.1682512,32.9151045]}
{"name":"درج","other_names":{"name:ar":"درج","name:en":"Dirj","name:fr":"Dirj"},"display_name":"درج, نالوت, ليبيا","address":{"town":"درج","state":"نالوت","ISO3166-2-lvl4":"LY-NL","country":"ليبيا","country_code":"ly"},"osm_type":"node","osm_id":1278520315,"type":"town","location":[10.4579565,30.1635865],"bbox":[10.4179565,30.1235865,10.4979565,30.2035865]}
{"name":"دريانة","other_names":{"name:ar":"دريانة","name:en":"Daryanah","name:fr":"Daryanah"},"display_name":"دريانة, بنغازي, ليبيا","address":{"town":"دريانة","state":"بنغازي","ISO3166-2-lvl4":"LY-BA","country":"ليبيا","country_code":"ly"},"population":4097,"osm_type":"node","osm_id":1565510740,"type":"town","location":[20.3111096,32.3480012],"bbox":[20.2711096,32.3080012,20.3511096,32.3880012]}
{"name":"رأس اجدير","other_names":{"name:ar":"رأس اجدير","name:en":"Ras Ajdir","name:fr":"Ras Jdir","name:it":"Ras Agedir","name:pl":"Ras Adżdir","int_name":"Ra's Ajdir","name:ar1":"رأس جدير"},"display_name":"رأس اجدير, النقاط الخمس, ليبيا","address":{"town":"رأس اجدير","state":"النقاط الخمس","ISO3166-2-lvl4":"LY-NQ","country":"ليبيا","country_code":"ly"},"osm_type":"node","osm_id":1172802069,"type":"town","location":[11.5679306,33.1494989],"bbox":[11.5279306,33.1094989,11.6079306,33.1894989]}
{"name":"رأس بياض","other_names":{"name:ar":"بياض","name:en":"Madinat Ras Bayad","name:fr":"Bayad"},"display_name":"رأس بياض, البطنان, ليبيا","address":{"town":"رأس بياض","state":"البطنان","ISO3166-2-lvl4":"LY-BU","country":"ليبيا","country_code":"ly"},"osm_type":"node","osm_id":1170259159,"type":"town","location":[24.0127517,32.0000224],"bbox":[23.9727517,31.9600224,24.0527517,32.0400224]}
{"name":"رأس لانوف","other_names":{"name:ar":"رأس لانوف","name:en":"Ras Lanuf","name:fr":"Ras Lanouf","name:ru":"Рас-Лануф","name:uk":"Рас-Лануф","alt_name":"Ra’s al Unūf","alt_name:ar":"راس لانوف","name:ar-Latn":"Rā's Lānūf"},"display_name":"رأس لانوف, سرت, ليبيا","address":{"town":"رأس لانوف","state":"سرت","ISO3166-2-lvl4":"LY-SR","country":"ليبيا","country_code":"ly"},"population":13000,"osm_type":"node","osm_id":1170541982,"type":"town","location":[18.417789,30.586862],"bbox":[18.377789,30.546862,18.457789,30.626862]}
{"name":"زعرارة","other_names":{"name:ar":"زعرارة","name:en":"Za`rarah","name:fr":"Za`rarah"},"display_name":"زعرارة, نالوت, ليبيا","address":{"town":"زعرارة","state":"نالوت","ISO3166-2-lvl4":"LY-NL","country":"ليبيا","country_code":"ly"},"population":2321,"osm_type":"node","osm_id":1565513116,"type":"town","location":[11.652961,31.920649],"bbox":[11.612961,31.880649,11.692961,31.960649]}
{"name":"زلة","other_names":{"name:ar":"زلة","name:en":"Zillah","name:fr":"Zillah","alt_name:ar":"زله"},"display_name":"زلة, شعبية الجفرة, ليبيا","address":{"town":"زلة","state":"شعبية الجفرة","ISO3166-2-lvl4":"LY-JU","country":"ليبيا","country_code":"ly"},"osm_type":"node","osm_id":1193695763,"type":"town","location":[17.549951,28.550048],"bbox":[17.509951,28.510048,17.589951,28.590048]}
{"name":"زويلة","other_names":{"name:ar":"زويلة","name:de":"Zawilah","name:en":"Zawilah","name:fr":"Zawilah","alt_name:ar":"زويله"},"display_name":"زويلة, زويله, مرزق, ليبيا","address":{"town":"زويلة","state":"مرزق","ISO3166-2-lvl4":"LY-MQ","country":"ليبيا","country_code":"ly"},"osm_type":"node","osm_id":1198419680,"type":"town","location":[15.1251161,26.163861],"bbox":[15.0851161,26.123861,15.1651161,26.203861],"border":{"name":"زويله","other_names":{"name:ar":"زويله","name:en":"Zawilah","name:fr":"Zawilah","name:de":"Zawilah","alt_name:ar":"زويله","alt":"زويلة","alt:ar":"زويلة"},"display_name":"زويله, مرزق, ليبيا","address":{"town":"زويله","state":"مرزق","ISO3166-2-lvl4":"LY-MQ","country":"ليبيا","country_code":"ly"},"osm_type":"way","osm_id":103814163,"type":"town","location":[15.1251161,26.163861],"bbox":[15.0559341,26.1479086,15.1708908,26.2302631]}}
{"name":"سلوق","other_names":{"name:ar":"سلوق","name:en":"Suluq"},"display_name":"سلوق, بنغازي, ليبيا","address":{"town":"سلوق","state":"بنغازي","ISO3166-2-lvl4":"LY-BA","country":"ليبيا","country_code":"ly"},"osm_type":"node","osm_id":11177984852,"type":"town","location":[20.2469344,31.6704303],"bbox":[20.2069344,31.6304303,20.2869344,31.7104303],"border":{"name":"سلوق","other_names":{"name:ar":"سلوق","name:en":"Suluq","name:fr":"Suluq"},"display_name":"سلوق, بنغازي, ليبيا","address":{"town":"سلوق","state":"بنغازي","ISO3166-2-lvl4":"LY-BA","country":"ليبيا","country_code":"ly"},"osm_type":"way","osm_id":26327022,"type":"town","location":[20.2469344,31.6704303],"bbox":[20.2374,31.6569503,20.2666396,31.6803264]}}
{"name":"سمنو","other_names":{"name:ar":"سمنو","name:de":"Samnu","name:en":"Samnu","name:fr":"Samnu"},"display_name":"سمنو, سبها, ليبيا","address":{"town":"سمنو","state":"سبها","ISO3166-2-lvl4":"LY-SB","country":"ليبيا","country_code":"ly"},"population":4500,"osm_type":"node","osm_id":2628393721,"type":"town","location":[14.8842307,27.2754103],"bbox":[14.8442307,27.2354103,14.9242307,27.3154103],"border":{"name":"سمنو","other_names":{"name:ar":"سمنو","name:en":"Samnu","name:fr":"Samnu","name:de":"Samnu"},"display_name":"سمنو, سبها, ليبيا","address":{"town":"سمنو","state":"سبها","ISO3166-2-lvl4":"LY-SB","country":"ليبيا","country_code":"ly"},"population":4500,"osm_type":"way","osm_id":278752692,"type":"town","location":[14.8842307,27.2754103],"bbox":[14.8674035,27.2043956,14.911263,27.3009572]}}
{"name":"سواني بن آدم","other_names":{"name:ar":"سواني بن آدم","name:en":"Sawani Bin Adam","name:fr":"Sawani Bin Adam","int_name":"Sawani Bin Adam"},"display_name":"سواني بن آدم, الجفارة, ليبيا","address":{"town":"سواني بن آدم","state":"الجفارة","ISO3166-2-lvl4":"LY-JI","country":"ليبيا","country_code":"ly"},"osm_type":"node","osm_id":1565512631,"type":"town","location":[13.0672434,32.7123557],"bbox":[13.0272434,32.6723557,13.1072434,32.7523557],"border":{"name":"سواني بن آدم","other_names":{"name:ar":"سواني بن آدم","name:en":"Sawani Bin Adam","name:fr":"Sawani Bin Adam","int_name":"Sawani Bin Adam"},"display_name":"سواني بن آدم, الجفارة, ليبيا","address":{"town":"سواني بن آدم","state":"الجفارة","ISO3166-2-lvl4":"LY-JI","country":"ليبيا","country_code":"ly"},"osm_type":"way","osm_id":342138801,"type":"town","location":[13.0672434,32.7123557],"bbox":[13.0273236,32.6777427,13.0946108,32.7297888]}}
{"name":"سوسة","other_names":{"name:ar":"سوسة","name:de":"Susah","name:el":"Σούσα","name:en":"Susah","name:es":"Susa","name:fr":"Susah","name:it":"Apollonia","alt_name":"Soussa","old_name":"Apollonia","alt_name:es":"Apolonia de Cirene","alt_name:it":"Marsa Susa","short_name:it":"Susa"},"display_name":"سوسة, الجبل الأخضر, ليبيا","address":{"town":"سوسة","state":"الجبل الأخضر","ISO3166-2-lvl4":"LY-JA","country":"ليبيا","country_code":"ly"},"osm_type":"node","osm_id":1159019634,"type":"town","location":[21.9650703,32.8978426],"bbox":[21.9250703,32.8578426,22.0050703,32.9378426]}
{"name":"سوق الجمعة","other_names":{"name:ar":"سوق الجمعة","name:en":"Suq Aljumea","name:fr":"Suq Aljumea"},"display_name":"سوق الجمعة, طرابلس, ليبيا","address":{"town":"سوق الجمعة","state":"طرابلس","ISO3166-2-lvl4":"LY-TB","country":"ليبيا","country_code":"ly"},"osm_type":"node","osm_id":7870006895,"type":"town","location":[13.2570714,32.8833769],"bbox":[13.2170714,32.8433769,13.2970714,32.9233769]}
{"name":"سوكنة","other_names":{"name:ar":"سوكنة","name:en":"Suknah","name:fr":"Suknah"},"display_name":"سوكنة, شعبية الجفرة, ليبيا","address":{"town":"سوكنة","state":"شعبية الجفرة","ISO3166-2-lvl4":"LY-JU","country":"ليبيا","country_code":"ly"},"osm_type":"node","osm_id":1565512727,"type":"town","location":[15.782664,29.069411],"bbox":[15.742664,29.029411,15.822664,29.109411],"border":{"name":"سوكنة","other_names":{"name:ar":"سوكنه","name:en":"Suknah","name:fr":"Suknah","name:kab":"Isuknen","alt:ar":"سوكنة"},"display_name":"سوكنة, شعبية الجفرة, ليبيا","address":{"town":"سوكنة","state":"شعبية الجفرة","ISO3166-2-lvl4":"LY-JU","country":"ليبيا","country_code":"ly"},"osm_type":"way","osm_id":26352658,"type":"town","location":[15.782664,29.069411],"bbox":[15.7387872,29.0151597,15.8335229,29.1351642]}}
{"name":"شحات","other_names":{"name:ar":"شحات","name:de":"Kyrene","name:en":"Shahhat","name:fr":"Cyrène","name:it":"Cirene","name:la":"Cyrene","name:sr":"Кирена","name:uk":"Кирена","name:grc":"Κυρήνη","name:kab":"Siren"},"display_name":"شحات, الجبل الأخضر, ليبيا","address":{"town":"شحات","state":"الجبل الأخضر","ISO3166-2-lvl4":"LY-JA","country":"ليبيا","country_code":"ly"},"population":43376,"osm_type":"node","osm_id":1159019627,"type":"town","location":[21.8696836,32.808215],"bbox":[21.8296836,32.768215,21.9096836,32.848215]}
{"name":"صبراتة الاثرية","display_name":"صبراتة الاثرية, النقاط الخمس, ليبيا","address":{"town":"صبراتة الاثرية","state":"النقاط الخمس","ISO3166-2-lvl4":"LY-NQ","country":"ليبيا","country_code":"ly"},"population":140000,"osm_type":"way","osm_id":1336960682,"type":"town","location":[12.491343980230237,32.78849825],"bbox":[12.4795833,32.7830387,12.498377,32.7998223]}
{"name":"صلاح الدين","other_names":{"name:ar":"صلاح الدين","name:en":"Salah Aldeen","name:fr":"Salah Aldeen"},"display_name":"صلاح الدين, طرابلس, ليبيا","address":{"town":"صلاح الدين","city":"طرابلس","state":"طرابلس","ISO3166-2-lvl4":"LY-TB","country":"ليبيا","country_code":"ly"},"osm_type":"node","osm_id":3195901761,"type":"town","location":[13.22008,32.8240749],"bbox":[13.18008,32.7840749,13.26008,32.8640749]}
{"name":"صياد","other_names":{"name:ar":"صياد","name:en":"Sayyad","name:fr":"Sayyad"},"display_name":"صياد, الجفارة, ليبيا","address":{"town":"صياد","state":"الجفارة","ISO3166-2-lvl4":"LY-JI","country":"ليبيا","country_code":"ly"},"population":3725,"osm_type":"node","osm_id":1565512664,"type":"town","location":[12.95,32.816667],"bbox":[12.91,32.776667,12.99,32.856667],"border":{"name":"صياد","other_names":{"name:ar":"صياد","name:en":"Sayyad","name:fr":"Sayyad"},"display_name":"صياد, الجفارة, ليبيا","address":{"town":"صياد","state":"الجفارة","ISO3166-2-lvl4":"LY-JI","country":"ليبيا","country_code":"ly"},"population":3725,"osm_type":"way","osm_id":345428940,"type":"town","location":[12.95,32.816667],"bbox":[12.918855,32.7713677,12.9808033,32.8294813]}}
{"name":"عين زارة الوسط","other_names":{"name:ar":"عين زارة الوسط","name:en":"Ain Zara center","name:fr":"Ain Zara centre"},"display_name":"عين زارة الوسط, طرابلس, ليبيا","address":{"town":"عين زارة الوسط","state":"طرابلس","ISO3166-2-lvl4":"LY-TB","country":"ليبيا","country_code":"ly"},"osm_type":"node","osm_id":8074340992,"type":"town","location":[13.3450426,32.8075067],"bbox":[13.3050426,32.7675067,13.3850426,32.8475067]}
{"name":"عين زارة","other_names":{"name:ar":"عين زارة","name:en":"Ain Zara","name:fr":"Ain Zara","name:it":"Ain Zara"},"display_name":"عين زارة, طرابلس, ليبيا","address":{"town":"عين زارة","state":"طرابلس","ISO3166-2-lvl4":"LY-TB","country":"ليبيا","country_code":"ly"},"osm_type":"node","osm_id":1565510267,"type":"town","location":[13.2869321,32.7952137],"bbox":[13.2469321,32.7552137,13.3269321,32.8352137]}
{"name":"غدوة","other_names":{"name:ar":"غدوة","name:en":"Ghadduwah","name:fr":"Ghadduwah","alt_name":"غدوه","alt_name:ar":"غدوة","alt_name:en":"Ghudwah"},"display_name":"غدوة, سبها, ليبيا","address":{"town":"غدوة","state":"سبها","ISO3166-2-lvl4":"LY-SB","country":"ليبيا","country_code":"ly"},"osm_type":"node","osm_id":260716310,"type":"town","location":[14.27264,26.438827],"bbox":[14.23264,26.398827,14.31264,26.478827],"border":{"name":"غدوة","other_names":{"name:ar":"غدوة","name:en":"Ghadduwah","name:fr":"Ghadduwah","alt_name":"غدوه","alt_name:ar":"غدوه","_place_alt_name:ar":"غدوة","alt_name:en":"Ghudwah"},"display_name":"غدوة, سبها, ليبيا","address":{"town":"غدوة","state":"سبها","ISO3166-2-lvl4":"LY-SB","country":"ليبيا","country_code":"ly"},"osm_type":"way","osm_id":328837607,"type":"town","location":[14.27264,26.438827],"bbox":[14.2645156,26.4171812,14.2880337,26.4539465]}}
{"name":"غوط الشعال","other_names":{"name:ar":"غوط الشعال","name:en":"Ghot Alsha'al","name:fr":"Ghot Alsha'al","int_name":"Ghot Alshaal"},"display_name":"غوط الشعال, طرابلس, ليبيا","address":{"village":"غوط الشعال","state":"طرابلس","ISO3166-2-lvl4":"LY-TB","country":"ليبيا","country_code":"ly"},"osm_type":"way","osm_id":172702394,"type":"town","location":[13.0963868,32.8528804],"bbox":[13.076895,32.8404347,13.1115179,32.8651978]}
{"name":"قراقره","other_names":{"name:ar":"قراقره","name:de":"Garagara","name:en":"Garagara","name:fr":"Garagara","name:it":"Garagara"},"display_name":"قراقره, وادي الحياة, ليبيا","address":{"town":"قراقره","state":"وادي الحياة","ISO3166-2-lvl4":"LY-WD","country":"ليبيا","country_code":"ly"},"osm_type":"node","osm_id":260715669,"type":"town","location":[13.2111543,26.5505744],"bbox":[13.1711543,26.5105744,13.2511543,26.5905744],"border":{"name":"قراقره","other_names":{"name:ar":"قراقره","name:en":"Garagara","name:fr":"Garagara","name:de":"Garagara","name:it":"Garagara"},"display_name":"قراقره, وادي الحياة, ليبيا","address":{"town":"قراقره","state":"وادي الحياة","ISO3166-2-lvl4":"LY-WD","country":"ليبيا","country_code":"ly"},"osm_type":"way","osm_id":329042351,"type":"town","location":[13.2111543,26.5505744],"bbox":[13.1954496,26.5417976,13.2303612,26.5628539]}}
{"name":"قصر ابوهادي","other_names":{"name:ar":"قصر ابوهادي","name:en":"Qasr Abu Hadi","name:fr":"Qasr Abu Hadi"},"display_name":"قصر ابوهادي, سرت, ليبيا","address":{"town":"قصر ابوهادي","state":"سرت","ISO3166-2-lvl4":"LY-SR","country":"ليبيا","country_code":"ly"},"osm_type":"way","osm_id":52249520,"type":"town","location":[16.648050942576113,31.0667787],"bbox":[16.6323493,31.0453258,16.6698609,31.0882359]}
{"name":"قمينس","other_names":{"name:ar":"قمينس","name:en":"Chemines","name:fr":"Chemines","alt_name":"Chemines"},"display_name":"قمينس, بنغازي, ليبيا","address":{"town":"قمينس","state":"بنغازي","ISO3166-2-lvl4":"LY-BA","country":"ليبيا","country_code":"ly"},"osm_type":"way","osm_id":26327081,"type":"town","location":[20.013925248394763,31.659587549999998],"bbox":[20.0029853,31.6455523,20.0243823,31.6722769]}
{"name":"قندولة","other_names":{"name:ar":"قندولة","name:en":"Qandulah","name:fr":"Qandulah"},"display_name":"قندولة, الجبل الأخضر, ليبيا","address":{"town":"قندولة","state":"الجبل الأخضر","ISO3166-2-lvl4":"LY-JA","country":"ليبيا","country_code":"ly"},"population":2422,"osm_type":"node","osm_id":1565511715,"type":"town","location":[21.5764655,32.5373828],"bbox":[21.5364655,32.4973828,21.6164655,32.5773828]}
{"name":"كاباو","other_names":{"name:ar":"كاباو","name:en":"Kabaw","name:fr":"Kabaw","name:pl":"Kabau","alt_name":"Cabao","name:kab":"Kabaw","alt_name:1":"Kabao"},"display_name":"كاباو, نالوت, ليبيا","address":{"town":"كاباو","state":"نالوت","ISO3166-2-lvl4":"LY-NL","country":"ليبيا","country_code":"ly"},"osm_type":"node","osm_id":1246799127,"type":"town","location":[11.3406478,31.8463361],"bbox":[11.3006478,31.8063361,11.3806478,31.8863361]}
{"name":"كرسة","other_names":{"name:ar":"كرسة","name:en":"Karsah","name:fr":"Karsah"},"display_name":"كرسة, درنة, ليبيا","address":{"town":"كرسة","state":"درنة","ISO3166-2-lvl4":"LY-DR","country":"ليبيا","country_code":"ly"},"population":2252,"osm_type":"node","osm_id":1565511239,"type":"town","location":[22.416987,32.849626],"bbox":[22.376987,32.809626,22.456987,32.889626]}
{"name":"ككلة","other_names":{"name:ar":"ككلة","name:en":"Kikla","name:fr":"Kikla"},"display_name":"ككلة, الجبل الغربي, ليبيا","address":{"town":"ككلة","state":"الجبل الغربي","ISO3166-2-lvl4":"LY-JG","country":"ليبيا","country_code":"ly"},"osm_type":"node","osm_id":7212959831,"type":"town","location":[12.6952536,32.0629189],"bbox":[12.6552536,32.0229189,12.7352536,32.1029189]}
{"name":"لملودة","other_names":{"name:ar":"لملودة","name:en":"Lamludah","name:fr":"Lamludah"},"display_name":"لملودة, درنة, ليبيا","address":{"town":"لملودة","state":"درنة","ISO3166-2-lvl4":"LY-DR","country":"ليبيا","country_code":"ly"},"population":2294,"osm_type":"node","osm_id":1565511281,"type":"town","location":[22.1422593,32.7813412],"bbox":[22.1022593,32.7413412,22.1822593,32.8213412]}
{"display_name":"محافظة المرقب, ليبيا","address":{"state":"محافظة المرقب","ISO3166-2-lvl4":"LY-MB","country":"ليبيا","country_code":"ly"},"osm_type":"way","osm_id":217165016,"type":"town","location":[13.712872149421672,32.74290445],"bbox":[13.6990085,32.7370398,13.7272447,32.7492385]}
{"name":"محلة نعيمة","other_names":{"name:ar":"نعيمة","name:fr":"Na`imah","alt_name":"Naimah","int_name":"Na`imah"},"display_name":"محلة نعيمة, محافظة بني وليد, ليبيا","address":{"town":"محلة نعيمة","state":"محافظة بني وليد","ISO3166-2-lvl4":"LY-MI","country":"ليبيا","country_code":"ly"},"osm_type":"node","osm_id":1191267828,"type":"town","location":[14.6676077,32.4330768],"bbox":[14.6276077,32.3930768,14.7076077,32.4730768]}
{"name":"مدينة طبرق","other_names":{"name:ar":"مدينة طبرق","name:en":"tobruk city"},"display_name":"مدينة طبرق, البطنان, ليبيا","address":{"town":"مدينة طبرق","state":"البطنان","ISO3166-2-lvl4":"LY-BU","country":"ليبيا","country_code":"ly"},"osm_type":"node","osm_id":9763658889,"type":"town","location":[23.9653181,32.0793969],"bbox":[23.9253181,32.0393969,24.0053181,32.1193969]}
{"name":"مدينة طرابلس القديمة","other_names":{"name:ar":"مدينة طرابلس القديمة","name:en":"Old city of Tripoli","name:fr":"l'ancienne ville","name:it":"Città vecchia di Tripoli"},"display_name":"مدينة طرابلس القديمة, طرابلس, ليبيا","address":{"town":"مدينة طرابلس القديمة","state":"طرابلس","ISO3166-2-lvl4":"LY-TB","country":"ليبيا","country_code":"ly"},"osm_type":"node","osm_id":3297503861,"type":"town","location":[13.176055,32.8976601],"bbox":[13.136055,32.8576601,13.216055,32.9376601]}
{"name":"مدينه المرج القديمة","other_names":{"name:ar":"مدينه المرج القديمة","name:cs":"Barka","name:en":"Old City Al Marj","name:fr":"Vieille ville Al Marj","name:it":"Antica città di Barce","alt_name:it":"Antica città di Barca"},"display_name":"مدينه المرج القديمة, المرج, ليبيا","address":{"town":"مدينه المرج القديمة","state":"المرج","ISO3166-2-lvl4":"LY-MJ","country":"ليبيا","country_code":"ly"},"osm_type":"node","osm_id":3237889499,"type":"town","location":[20.8929729,32.5006761],"bbox":[20.8529729,32.4606761,20.9329729,32.5406761]}
{"name":"مرادة","other_names":{"name:ar":"مرادة","name:en":"Maradah","name:fr":"Maradah"},"display_name":"مرادة, الواحات, ليبيا","address":{"town":"مرادة","state":"الواحات","ISO3166-2-lvl4":"LY-WA","country":"ليبيا","country_code":"ly"},"population":2229,"osm_type":"node","osm_id":1239730812,"type":"town","location":[19.2039671,29.2234819],"bbox":[19.1639671,29.1834819,19.2439671,29.2634819]}
{"name":"مراوة","other_names":{"name:ar":"مراوة","name:en":"Marawah","name:fr":"Marawah"},"display_name":"مراوة, الجبل الأخضر, ليبيا","address":{"town":"مراوة","state":"الجبل الأخضر","ISO3166-2-lvl4":"LY-JA","country":"ليبيا","country_code":"ly"},"osm_type":"node","osm_id":1565511323,"type":"town","location":[21.4096623,32.4833738],"bbox":[21.3696623,32.4433738,21.4496623,32.5233738]}
{"name":"مرتوبة","other_names":{"name:ar":"مرتوبة","name:en":"Martubah","name:fr":"Martubah"},"display_name":"مرتوبة, درنة, ليبيا","address":{"town":"مرتوبة","state":"درنة","ISO3166-2-lvl4":"LY-DR","country":"ليبيا","country_code":"ly"},"population":2396,"osm_type":"node","osm_id":1565511332,"type":"town","location":[22.7618696,32.5751478],"bbox":[22.7218696,32.5351478,22.8018696,32.6151478]}
{"name":"مرتوبة","other_names":{"name:ar":"مرتوبة","name:en":"Martubah","name:fr":"Martubah"},"display_name":"مرتوبة, درنة, ليبيا","address":{"town":"مرتوبة","state":"درنة","ISO3166-2-lvl4":"LY-DR","country":"ليبيا","country_code":"ly"},"osm_type":"node","osm_id":3240603834,"type":"town","location":[22.7717326,32.5987061],"bbox":[22.7317326,32.5587061,22.8117326,32.6387061]}
{"name":"مرسى البريقة","other_names":{"name:ar":"مرسى البريقة","name:de":"Marsa al-Brega","name:en":"Brega","name:es":"Marsa Brega","name:fr":"Marsa El Brega","name:it":"Brega","name:kab":"Lmerṣa Briga"},"display_name":"مرسى البريقة, الواحات, ليبيا","address":{"town":"مرسى البريقة","state":"الواحات","ISO3166-2-lvl4":"LY-WA","country":"ليبيا","country_code":"ly"},"osm_type":"node","osm_id":1565509044,"type":"town","location":[19.578771,30.407313],"bbox":[19.538771,30.367313,19.618771,30.447313]}
{"name":"مزدة","other_names":{"name:ar":"مزدة","name:de":"Mizda","name:en":"Mizda","name:es":"Mizda","name:fa":"مزده","name:fr":"Mizda","name:azb":"مزده","name:kab":"Mizda","name:az-Arab":"مزده"},"display_name":"مزدة, الجبل الغربي, ليبيا","address":{"town":"مزدة","state":"الجبل الغربي","ISO3166-2-lvl4":"LY-JG","country":"ليبيا","country_code":"ly"},"osm_type":"node","osm_id":8519193504,"type":"town","location":[12.9821357,31.4494857],"bbox":[12.9421357,31.4094857,13.0221357,31.4894857]}
{"name":"مسة","other_names":{"name:ar":"مسة","name:en":"Massa","name:fr":"Massa","name:it":"Massa","int_name":"Massah"},"display_name":"مسة, الجبل الأخضر, ليبيا","address":{"town":"مسة","state":"الجبل الأخضر","ISO3166-2-lvl4":"LY-JA","country":"ليبيا","country_code":"ly"},"population":3104,"osm_type":"node","osm_id":1565511354,"type":"town","location":[21.626667,32.751944],"bbox":[21.586667,32.711944,21.666667,32.791944]}
{"name":"مسوس","other_names":{"name:ar":"مسوس","name:en":"Zawiyat Masus","name:fr":"Zawiyat Masus"},"display_name":"مسوس, بنغازي, ليبيا","address":{"town":"مسوس","state":"بنغازي","ISO3166-2-lvl4":"LY-BA","country":"ليبيا","country_code":"ly"},"osm_type":"node","osm_id":1565513140,"type":"town","location":[21.0093261,31.5793497],"bbox":[20.9693261,31.5393497,21.0493261,31.6193497]}
{"name":"مشروع الهضبة","other_names":{"name:ar":"مشروع الهضبة","name:en":"Al Hadba Project","name:fr":"Al Hadba projet"},"display_name":"مشروع الهضبة, طرابلس, ليبيا","address":{"town":"مشروع الهضبة","state":"طرابلس","ISO3166-2-lvl4":"LY-TB","country":"ليبيا","country_code":"ly"},"osm_type":"node","osm_id":7523070220,"type":"town","location":[13.1621468,32.7895147],"bbox":[13.1221468,32.7495147,13.2021468,32.8295147]}
{"name":"نسمة","other_names":{"name:ar":"نسمة","name:en":"Nasmah","name:fr":"Nasmah"},"display_name":"نسمة, الجبل الغربي, ليبيا","address":{"town":"نسمة","state":"الجبل الغربي","ISO3166-2-lvl4":"LY-JG","country":"ليبيا","country_code":"ly"},"population":3687,"osm_type":"node","osm_id":1565511456,"type":"town","location":[13.3284421,31.3919333],"bbox":[13.2884421,31.3519333,13.3684421,31.4319333]}
{"name":"وادي الربيع","other_names":{"name:ar":"وادي الربيع","name:en":"Wadi Al Rabie","name:fr":"Wadi Al Rabie"},"display_name":"وادي الربيع, طرابلس, ليبيا","address":{"town":"وادي الربيع","city":"طرابلس","state":"طرابلس","ISO3166-2-lvl4":"LY-TB","country":"ليبيا","country_code":"ly"},"osm_type":"node","osm_id":7241078220,"type":"town","location":[13.3160064,32.7265472],"bbox":[13.2760064,32.6865472,13.3560064,32.7665472]}
{"name":"وادي جارف","other_names":{"name:ar":"وادي جارف","name:en":"Wadi Jarv","name:fr":"Wadi Jarv"},"display_name":"وادي جارف, سرت, ليبيا","address":{"town":"وادي جارف","state":"سرت","ISO3166-2-lvl4":"LY-SR","country":"ليبيا","country_code":"ly"},"osm_type":"node","osm_id":3307096902,"type":"town","location":[16.3102059,31.0794414],"bbox":[16.2702059,31.0394414,16.3502059,31.1194414]}
{"name":"وازن","other_names":{"name:ar":"وازن","name:en":"Wazin","name:fr":"Wazin","name:it":"Wazin","alt_name":"Wazzin;Wāzzin;Wazen"},"display_name":"وازن, نالوت, ليبيا","address":{"town":"وازن","state":"نالوت","ISO3166-2-lvl4":"LY-NL","country":"ليبيا","country_code":"ly"},"population":360,"osm_type":"node","osm_id":1253979845,"type":"town","location":[10.669785,31.945646],"bbox":[10.629785,31.905646,10.709785,31.985646]}
{"name":"ونزريك","other_names":{"name:ar":"ونزريك","name:de":"Wanzarik","name:en":"Wanzarik","name:fr":"Wanzarik"},"display_name":"ونزريك, وادي الشاطئ, ليبيا","address":{"town":"ونزريك","state":"وادي الشاطئ","ISO3166-2-lvl4":"LY-WS","country":"ليبيا","country_code":"ly"},"population":2531,"osm_type":"node","osm_id":1565513091,"type":"town","location":[13.3305317,27.4818424],"bbox":[13.2905317,27.4418424,13.3705317,27.5218424]}
{"name":"يفرن","other_names":{"name:ar":"يفرن","name:en":"Yafran","name:fr":"Yefren","name:pl":"Jafran","name:ru":"Яфран","alt_name":"Yifrin","int_name":"Yafran","name:ber":"ⵢⴼⵔⵏ","name:kab":"Yefren"},"display_name":"يفرن, الجبل الغربي, ليبيا","address":{"town":"يفرن","state":"الجبل الغربي","ISO3166-2-lvl4":"LY-JG","country":"ليبيا","country_code":"ly"},"population":72662,"osm_type":"node","osm_id":1157505021,"type":"town","location":[12.5271413,32.0633249],"bbox":[12.4871413,32.0233249,12.5671413,32.1033249]}
