{"name":"Blowing Point","other_names":{"name:el":"Μπλόουινγκ Πόιντ Βίλατζ","name:en":"Blowing Point","name:mk":"Блоуинг Поинт","name:zh":"布洛英角","alt_name":"Blowing Point Village"},"display_name":"Blowing Point, Anguilla","address":{"village":"Blowing Point","country":"Anguilla","country_code":"ai"},"osm_type":"node","osm_id":2107882090,"type":"village","location":[-63.0936881,18.17504],"bbox":[-63.1136881,18.15504,-63.0736881,18.19504]}
{"name":"East End","other_names":{"name:el":"Ιστ Εντ","name:en":"East End","name:mk":"Ист Енд"},"display_name":"East End, Anguilla","address":{"village":"East End","country":"Anguilla","country_code":"ai"},"osm_type":"node","osm_id":2108011517,"type":"village","location":[-62.997374,18.2342629],"bbox":[-63.017374,18.2142629,-62.977374,18.2542629]}
{"name":"George Hill","other_names":{"name:el":"Τζορτζ Χιλ","name:en":"George Hill","name:mk":"Џорџ Хил"},"display_name":"George Hill, AI-2640, Anguilla","address":{"village":"George Hill","postcode":"AI-2640","country":"Anguilla","country_code":"ai"},"osm_type":"node","osm_id":2107882095,"type":"village","location":[-63.0648112,18.2036599],"bbox":[-63.0848112,18.1836599,-63.0448112,18.2236599]}
{"name":"Island Harbour","other_names":{"name:el":"Άιλαντ Χάρμπορ","name:en":"Island Harbour","name:mk":"Ајленд Харбор","name:zh":"岛港"},"display_name":"Island Harbour, Anguilla","address":{"village":"Island Harbour","country":"Anguilla","country_code":"ai"},"population":1110,"osm_type":"node","osm_id":2108011516,"type":"village","location":[-63.0012814,18.2556888],"bbox":[-63.0212814,18.2356888,-62.9812814,18.2756888]}
{"name":"Long Bay Village","other_names":{"name:el":"Λογνκ Μπέι Βίλατζ","name:en":"Long Bay Village","name:mk":"Лонг Беј Вилиџ"},"display_name":"Long Bay Village, Anguilla","address":{"village":"Long Bay Village","country":"Anguilla","country_code":"ai"},"osm_type":"node","osm_id":2107910778,"type":"village","location":[-63.1278901,18.1877705],"bbox":[-63.1478901,18.1677705,-63.1078901,18.2077705]}
{"name":"North Hill Village","other_names":{"name:el":"Νορθ Χιλ Βίλατζ","name:en":"North Hill Village","name:mk":"Норт Хил Вилиџ"},"display_name":"North Hill Village, AI-2640, Anguilla","address":{"village":"North Hill Village","postcode":"AI-2640","country":"Anguilla","country_code":"ai"},"osm_type":"node","osm_id":2109392064,"type":"village","location":[-63.079784,18.2076275],"bbox":[-63.099784,18.1876275,-63.059784,18.2276275]}
{"name":"Sandy Ground","other_names":{"name:el":"Σάντι Γκράουντ","name:en":"Sandy Ground","name:mk":"Сенди Граунд"},"display_name":"Sandy Ground, AI-2640, Anguilla","address":{"village":"Sandy Ground","postcode":"AI-2640","country":"Anguilla","country_code":"ai"},"osm_type":"node","osm_id":2108033406,"type":"village","location":[-63.0901674,18.1998488],"bbox":[-63.1101674,18.1798488,-63.0701674,18.2198488]}
{"name":"Shoal Bay Village","other_names":{"name:el":"Σόαλ Μπέι Βίλατζ","name:en":"Shoal Bay Village","name:mk":"Шоул Беј Вилиџ"},"display_name":"Shoal Bay Village, AI-2640, Anguilla","address":{"village":"Shoal Bay Village","postcode":"AI-2640","country":"Anguilla","country_code":"ai"},"osm_type":"node","osm_id":2110691792,"type":"village","location":[-63.0304291,18.2533199],"bbox":[-63.0504291,18.2333199,-63.0104291,18.2733199]}
{"name":"South Hill","other_names":{"name:el":"Σάουθ Χιλ","name:en":"South Hill","name:mk":"Саут Хил"},"display_name":"South Hill, Anguilla","address":{"village":"South Hill","country":"Anguilla","country_code":"ai"},"osm_type":"node","osm_id":2107882094,"type":"village","location":[-63.0900886,18.1932111],"bbox":[-63.1100886,18.1732111,-63.0700886,18.2132111]}
{"name":"Stoney Ground","other_names":{"name:el":"Στόουνι Γκράουντ","name:en":"Stoney Ground","name:mk":"Стоуни Граунд"},"display_name":"Stoney Ground, AI-2640, Anguilla","address":{"village":"Stoney Ground","postcode":"AI-2640","country":"Anguilla","country_code":"ai"},"osm_type":"node","osm_id":2108011519,"type":"village","location":[-63.0438427,18.2252215],"bbox":[-63.0638427,18.2052215,-63.0238427,18.2452215]}
{"name":"West End Village","display_name":"West End Village, Anguilla","address":{"village":"West End Village","country":"Anguilla","country_code":"ai"},"population":813,"osm_type":"node","osm_id":9727508822,"type":"village","location":[-63.1451941,18.1734379],"bbox":[-63.1651941,18.1534379,-63.1251941,18.1934379]}
