{"name":"Hamilton","other_names":{"name:af":"Hamilton","name:ar":"هاميلتون","name:be":"Гамільтан","name:bg":"Хамилтън","name:ca":"Hamilton","name:da":"Hamilton","name:de":"Hamilton","name:el":"Χάμιλτον","name:en":"Hamilton","name:eo":"Hamiltono","name:es":"Hamilton","name:et":"Hamilton","name:fa":"همیلتون","name:fr":"Hamilton","name:he":"המילטון","name:hu":"Hamilton","name:hy":"Համիլթոն","name:it":"Hamilton","name:ja":"ハミルトン","name:ka":"ჰამილტონი","name:ko":"해밀턴","name:lt":"Hamiltonas","name:mk":"Хамилтон","name:mr":"हॅमिल्टन","name:nl":"Hamilton","name:no":"Hamilton","name:pl":"Hamilton","name:pt":"Hamilton","name:ro":"Hamilton","name:ru":"Гамильтон","name:sv":"Hamilton","name:th":"แฮมิลตัน","name:tr":"Hamilton","name:uk":"Гамільтон","name:ur":"ہیملٹن","name:yi":"האַמילטאָן","name:zh":"哈密尔顿","official_name":"City of Hamilton"},"display_name":"Hamilton, City of Hamilton, Bermuda","address":{"city":"Hamilton","country":"Bermuda","country_code":"bm"},"population":854,"osm_type":"node","osm_id":1811574522,"type":"city","location":[-64.7853167,32.2942679],"bbox":[-64.9453167,32.1342679,-64.6253167,32.4542679],"border":{"name":"City of Hamilton","other_names":{"name:en":"City of Hamilton","name:es":"Ciudad de Hamilton","name:fr":"Ville de Hamilton","name:ja":"ハミルトン市","name:pt":"Cidade de Hamilton","name:ru":"город Гамильтон","name:uk":"місто Гамільтон","short_name":"Hamilton","name:af":"Hamilton","name:ar":"هاميلتون","name:be":"Гамільтан","name:bg":"Хамилтън","name:ca":"Hamilton","name:da":"Hamilton","name:de":"Hamilton","name:el":"Χάμιλτον","name:eo":"Hamiltono","name:et":"Hamilton","name:fa":"همیلتون","name:he":"המילטון","name:hu":"Hamilton","name:hy":"Համիլթոն","name:it":"Hamilton","name:ka":"ჰამილტონი","name:ko":"해밀턴","name:lt":"Hamiltonas","name:mk":"Хамилтон","name:mr":"हॅमिल्टन","name:nl":"Hamilton","name:no":"Hamilton","name:pl":"Hamilton","name:ro":"Hamilton","name:sv":"Hamilton","name:th":"แฮมิลตัน","name:tr":"Hamilton","name:ur":"ہیملٹن","name:yi":"האַמילטאָן","name:zh":"哈密尔顿","official_name":"City of Hamilton","alt":"Hamilton","alt:en":"Hamilton","alt:es":"Hamilton","alt:fr":"Hamilton","alt:ja":"ハミルトン","alt:pt":"Hamilton","alt:ru":"Гамильтон","alt:uk":"Гамільтон"},"display_name":"City of Hamilton, Bermuda","address":{"city":"City of Hamilton","country":"Bermuda","country_code":"bm"},"population":854,"osm_type":"relation","osm_id":2833628,"type":"administrative","location":[-64.7853167,32.2942679],"bbox":[-64.7889323,32.2905093,-64.7774884,32.2997335]}}
