{"name":"St. George's","other_names":{"name:af":"Saint George","name:ar":"سانت جورج","name:ca":"Saint George's","name:de":"Saint George's","name:el":"Άγιος Γεώργιος","name:en":"St. George's","name:eo":"Sankta Georgo","name:es":"Saint George","name:fa":"سنت جورج","name:fr":"Saint George's","name:he":"סנט ג'ורג'ס","name:it":"Saint George","name:ja":"セントジョージ","name:ka":"სენტ-ჯორჯესი","name:ko":"세인트조지스","name:lt":"Sent Džordžas","name:mk":"Сент Џорџес","name:nl":"Saint George","name:pt":"Saint George","name:ru":"Сент-Джордж","name:sv":"Saint George","name:uk":"Сент-Джордж","name:ur":"سینٹ جارج","name:zh":"圣乔治斯","alt_name":"St. George's Town","old_name":"New London","official_name":"Town of St. George"},"display_name":"St. George's, Town of St. George, Bermuda","address":{"town":"St. George's","country":"Bermuda","country_code":"bm"},"population":1527,"osm_type":"node","osm_id":316780804,"type":"town","location":[-64.676717,32.3810447],"bbox":[-64.716717,32.3410447,-64.636717,32.4210447],"border":[{"name":"St. George's","other_names":{"name:ar":"سانت جورج","name:en":"St. George's","name:es":"Saint George","name:fr":"Saint George's","name:ja":"セントジョージ","name:mk":"Сент Џорџес","name:pt":"Saint George","name:ru":"Сент-Джордж","name:uk":"Сент-Джордж","name:zh":"圣乔治堂区","alt_name":"St. George's Parish","_place_alt_name":"Saint George's Parish","short_name":"St. George's","alt":"St. George's Parish","alt:en":"St. George's Parish","alt:es":"Parroquia de Saint George","alt:fr":"Paroisse de Saint George's","alt:ja":"セントジョージ教区","alt:mk":"Парохија Сент Џорџес","alt:pt":"Paróquia de Saint George","alt:ru":"округ Сент-Джордж","alt:uk":"парафія Сент-Джордж"},"display_name":"St. George's, Bermuda","address":{"state":"St. George's","country":"Bermuda","country_code":"bm"},"population":5659,"osm_type":"relation","osm_id":3644285,"type":"administrative","location":[-64.698502,32.3722689],"bbox":[-64.7170351,32.3283678,-64.6472395,32.38264]},{"name":"Town of St. George","other_names":{"name:en":"Town of St. George","name:es":"Ciudad de Saint George","name:fr":"Ville de Saint George's","name:ja":"セントジョージ町","name:pt":"Cidade de Saint George","name:ru":"город Сент-Джордж","name:uk":"місто Сент-Джордж","name:zh":"圣乔治斯","alt_name":"Town of Saint George","short_name":"St. George's","name:af":"Saint George","name:ar":"سانت جورج","name:ca":"Saint George's","name:de":"Saint George's","name:el":"Άγιος Γεώργιος","name:eo":"Sankta Georgo","name:fa":"سنت جورج","name:he":"סנט ג'ורג'ס","name:it":"Saint George","name:ka":"სენტ-ჯორჯესი","name:ko":"세인트조지스","name:lt":"Sent Džordžas","name:mk":"Сент Џорџес","name:nl":"Saint George","name:sv":"Saint George","name:ur":"سینٹ جارج","_place_alt_name":"St. George's Town","old_name":"New London","official_name":"Town of St. George","alt":"St. George's","alt:en":"St. George's","alt:es":"Saint George","alt:fr":"Saint George's","alt:ja":"セントジョージ","alt:pt":"Saint George","alt:ru":"Сент-Джордж","alt:uk":"Сент-Джордж"},"display_name":"Town of St. George, Bermuda","address":{"town":"Town of St. George","country":"Bermuda","country_code":"bm"},"population":1527,"osm_type":"relation","osm_id":3247239,"type":"administrative","location":[-64.676717,32.3810447],"bbox":[-64.6875367,32.3777291,-64.6670995,32.3909894]}]}
