{"name":"الرفاع","other_names":{"name:ar":"الرفاع","name:cs":"ar-Riffá","name:de":"Ar-Riffa","name:en":"Riffa","name:es":"Riffa","name:fa":"رفاع","name:fr":"Riffa","name:he":"ריפה","name:ks":"رفاع","name:ml":"റിഫാ","name:ru":"Эр-Рифа","name:ur":"رفاع"},"display_name":"الرفاع, المحافظة الجنوبية, 912, البحرين","address":{"city":"الرفاع","state":"المحافظة الجنوبية","ISO3166-2-lvl4":"BH-14","postcode":"912","country":"البحرين","country_code":"bh"},"population":121566,"osm_type":"node","osm_id":2189166838,"type":"city","location":[50.5503431,26.1315261],"bbox":[50.3903431,25.9715261,50.7103431,26.2915261]}
{"name":"المحرق","other_names":{"name:ar":"المحرق","name:cs":"Muhárrak","name:de":"al-Muharraq","name:en":"Muharraq","name:es":"Muharraq","name:fr":"Muharraq","name:he":"מוחארק","name:ml":"മുഹറഖ്","name:ru":"Мухаррак","name:zh":"穆哈拉克","alt_name:ar":"المُحَرَّقْ"},"display_name":"المحرق, محافظة المحرق, 210, البحرين","address":{"city":"المحرق","state":"محافظة المحرق","ISO3166-2-lvl4":"BH-15","postcode":"210","country":"البحرين","country_code":"bh"},"population":75000,"osm_type":"node","osm_id":2189170851,"type":"city","location":[50.6164127,26.2465946],"bbox":[50.4564127,26.0865946,50.7764127,26.4065946]}
{"name":"المنامة","other_names":{"name:af":"Manama","name:am":"ማናማ","name:an":"Manama","name:ar":"المنامة","name:az":"Manama","name:ba":"Манама","name:be":"Манама","name:bg":"Манама","name:bn":"মানামা","name:bo":"མ་ན་མ།","name:br":"Manama","name:bs":"Manama","name:ca":"Al-Manama","name:ce":"Манама","name:cs":"Manáma","name:cy":"Manama","name:da":"Manama","name:de":"Manama","name:el":"Μανάμα","name:en":"Manama","name:eo":"Manamo","name:es":"Manama","name:et":"Manama","name:eu":"Manama","name:fa":"منامه","name:fi":"Manama","name:fr":"Manama","name:fy":"Manama","name:ga":"Manama","name:gd":"Manama","name:gl":"Manama","name:he":"מנאמה","name:hi":"मनामा","name:hr":"Manama","name:ht":"Manama","name:hu":"Manáma","name:hy":"Մանամա","name:ia":"Manama","name:id":"Al-Manamah","name:ie":"Manama","name:io":"Al Manamah","name:is":"Manama","name:it":"Manama","name:ja":"マナーマ","name:ka":"მანამა","name:ki":"Manama","name:kk":"Манама","name:kn":"ಮನಾಮ","name:ko":"마나마","name:ku":"Mename","name:ky":"Манама","name:la":"Manama","name:lb":"Manama","name:lt":"Menama","name:lv":"Manāma","name:mg":"Manama","name:mk":"Манама","name:ml":"മനാമ","name:mn":"Манама","name:mr":"मनामा","name:ms":"Manama","name:mt":"Manama","name:my":"မာနာမာမြို့","name:na":"Manama","name:ne":"मनामा","name:nl":"Manamah","name:no":"Manama","name:oc":"Manama","name:os":"Манамæ","name:pa":"ਮਨਾਮਾ","name:pl":"Manama","name:ps":"منامه","name:pt":"Manama","name:rm":"Manama","name:ro":"Manama","name:ru":"Манама","name:rw":"Manama","name:sc":"Manama","name:sh":"Manama","name:sk":"Manáma","name:sl":"Manama","name:sn":"Manama","name:sq":"Manama","name:sr":"Манама","name:su":"Al-Manamah","name:sv":"Manama","name:sw":"Manama","name:ta":"மனாமா","name:tg":"Манама","name:th":"มานามา","name:tl":"Manama","name:tr":"Menâme","name:uk":"Манама","name:ur":"منامہ","name:uz":"Manama","name:vi":"Manama","name:vo":"Mänamä","name:yo":"Manama","name:zh":"麥納麥","name:ace":"Al-Manamah","name:als":"Manama","name:ang":"Manama","name:arz":"المنامه","name:ast":"Manama","name:azb":"منامه","name:bcl":"Manama","name:cdo":"Manama","name:ceb":"Manama","name:ckb":"مەنامە","name:diq":"Mename","name:frp":"Manama","name:hak":"Manama","name:hif":"Manama","name:hsb":"Manama","name:ilo":"Manama","name:kaa":"Manama","name:kab":"Manama","name:lij":"Manama","name:lmo":"Manama","name:mai":"मनामा","name:myv":"Манама","name:nah":"Manāmah","name:pap":"Manama","name:pih":"Manaama","name:pms":"Manama","name:pnb":"مانامہ","name:sat":"ᱢᱟᱱᱟᱢᱟ","name:scn":"Manama","name:sco":"Manama","name:udm":"Манама","name:vep":"Manam","name:war":"Manama","name:wuu":"麦纳麦","name:xmf":"მანამა","name:yue":"麥納瑪","name:be-tarask":"Манама"},"display_name":"المنامة, محافظة العاصمة, 308, البحرين","address":{"city":"المنامة","state":"محافظة العاصمة","ISO3166-2-lvl4":"BH-13","postcode":"308","country":"البحرين","country_code":"bh"},"population":157474,"osm_type":"node","osm_id":38903284,"type":"city","location":[50.5822436,26.2235041],"bbox":[50.4222436,26.0635041,50.7422436,26.3835041]}
{"name":"جِدحفص","other_names":{"name:ar":"جِدحفص","name:cs":"Džidd Hafs","name:en":"Jid Hafs","name:ml":"ജിദ് ഹഫസ്","alt_name":"(جِدْ حَفص)","int_name":"Jid Hafs"},"display_name":"جِدحفص, محافظة العاصمة, 406, البحرين","address":{"city":"جِدحفص","state":"محافظة العاصمة","ISO3166-2-lvl4":"BH-13","postcode":"406","country":"البحرين","country_code":"bh"},"osm_type":"node","osm_id":2363180279,"type":"city","location":[50.5407172,26.2163449],"bbox":[50.3807172,26.0563449,50.7007172,26.3763449]}
{"name":"عالي","other_names":{"name:ar":"عالي","name:cs":"Álí","name:de":"A'ali","name:en":"A'ali","name:es":"A'ali","name:fr":"A'ali","name:ml":"ആലി"},"display_name":"عالي, المحافظة الشمالية, 973, البحرين","address":{"city":"عالي","state":"المحافظة الشمالية","ISO3166-2-lvl4":"BH-17","postcode":"973","country":"البحرين","country_code":"bh"},"population":100553,"osm_type":"node","osm_id":2141284320,"type":"city","location":[50.5273639,26.1544539],"bbox":[50.3673639,25.9944539,50.6873639,26.3144539]}
