{"name":"البديع","other_names":{"name:ar":"البديع","name:en":"Budaiya","name:fr":"Boudaya","name:ml":"ബുദൈയ"},"display_name":"البديع, المحافظة الشمالية, 533, البحرين","address":{"town":"البديع","state":"المحافظة الشمالية","ISO3166-2-lvl4":"BH-17","postcode":"533","country":"البحرين","country_code":"bh"},"population":30702,"osm_type":"node","osm_id":2189168653,"type":"town","location":[50.4523545,26.2156292],"bbox":[50.4123545,26.1756292,50.4923545,26.2556292]}
{"name":"الحد","other_names":{"name:ar":"الحد","name:cs":"al-Hidd","name:en":"Al-Hidd","name:fr":"Al-Hadd","name:ml":"അൽ-ഹിദ്"},"display_name":"الحد, محافظة المحرق, 101, البحرين","address":{"town":"الحد","state":"محافظة المحرق","ISO3166-2-lvl4":"BH-15","postcode":"101","country":"البحرين","country_code":"bh"},"population":12797,"osm_type":"node","osm_id":1935263128,"type":"town","location":[50.6528891,26.2440537],"bbox":[50.6128891,26.2040537,50.6928891,26.2840537]}
{"name":"الزلاق","other_names":{"name:ar":"الزلاق","name:cs":"Zallak","name:en":"Zallaq","name:ko":"알잘라크","name:ml":"സല്ലഖ്","int_name":"Zallaq"},"display_name":"الزلاق, المحافظة الجنوبية, 902, البحرين","address":{"town":"الزلاق","state":"المحافظة الجنوبية","ISO3166-2-lvl4":"BH-14","postcode":"902","country":"البحرين","country_code":"bh"},"osm_type":"node","osm_id":315862374,"type":"town","location":[50.4869845,26.0484553],"bbox":[50.4469845,26.0084553,50.5269845,26.0884553]}
{"name":"المعامير","other_names":{"name:ar":"المعامير","name:en":"Ma'ameer","name:ml":"മാമീർ","int_name":"Ma'ameer"},"display_name":"المعامير, محافظة العاصمة, 626, البحرين","address":{"town":"المعامير","state":"محافظة العاصمة","ISO3166-2-lvl4":"BH-13","postcode":"626","country":"البحرين","country_code":"bh"},"osm_type":"node","osm_id":2363091252,"type":"town","location":[50.6151344,26.1331901],"bbox":[50.5751344,26.0931901,50.6551344,26.1731901]}
{"name":"بسيتين","other_names":{"name:ar":"بسيتين","name:en":"Busaiteen","name:ml":"ബുസൈത്തീൻ"},"display_name":"بسيتين, محافظة المحرق, 225, البحرين","address":{"town":"بسيتين","state":"محافظة المحرق","ISO3166-2-lvl4":"BH-15","postcode":"225","country":"البحرين","country_code":"bh"},"population":19185,"osm_type":"node","osm_id":2125987766,"type":"town","location":[50.6028404,26.2719165],"bbox":[50.5628404,26.2319165,50.6428404,26.3119165]}
{"name":"جزر أمواج","other_names":{"name:ar":"جزر أمواج","name:cs":"Amwajské ostrovy","name:en":"Amwaj Islands","name:es":"Islas Amwaj","name:fr":"Îles Amwaj","name:ml":"അംവാജ് ദ്വീപുകൾ"},"display_name":"جزر أمواج, محافظة المحرق, 257, البحرين","address":{"town":"جزر أمواج","state":"محافظة المحرق","ISO3166-2-lvl4":"BH-15","postcode":"257","country":"البحرين","country_code":"bh"},"osm_type":"node","osm_id":1812751158,"type":"town","location":[50.666445,26.2947431],"bbox":[50.626445,26.2547431,50.706445,26.3347431]}
{"name":"جو","other_names":{"name:ar":"جو","name:en":"Jaww","name:ml":"ജൗ","int_name":"Jaww"},"display_name":"جو, المحافظة الجنوبية, البحرين","address":{"town":"جو","state":"المحافظة الجنوبية","ISO3166-2-lvl4":"BH-14","country":"البحرين","country_code":"bh"},"osm_type":"node","osm_id":658736581,"type":"town","location":[50.6176993,26.0012848],"bbox":[50.5776993,25.9612848,50.6576993,26.0412848]}
{"name":"دار كليب","other_names":{"name:ar":"دار كُلَيب","name:cs":"Dár Kulajb","name:en":"Dar Kulayb","name:ml":"ദാർ കുലൈബ്","int_name":"Dar Kulayb"},"display_name":"دار كليب, المحافظة الشمالية, 902, البحرين","address":{"town":"دار كليب","state":"المحافظة الشمالية","ISO3166-2-lvl4":"BH-17","postcode":"902","country":"البحرين","country_code":"bh"},"osm_type":"node","osm_id":659277749,"type":"town","location":[50.5122187,26.0651104],"bbox":[50.4722187,26.0251104,50.5522187,26.1051104]}
{"name":"سلماباد","other_names":{"name:ar":"سلماباد","name:de":"Salmabad","name:en":"Salmabad","name:fa":"سلم‌آباد","name:ml":"സൽമാബാദ്"},"display_name":"سلماباد, المحافظة الشمالية, 000, البحرين","address":{"town":"سلماباد","state":"المحافظة الشمالية","ISO3166-2-lvl4":"BH-17","postcode":"000","country":"البحرين","country_code":"bh"},"population":19342,"osm_type":"node","osm_id":8717747963,"type":"town","location":[50.5253883,26.1846],"bbox":[50.4853883,26.1446,50.5653883,26.2246]}
{"name":"عراد","other_names":{"name:ar":"عراد","name:cs":"Arad","name:en":"Arad","name:ml":"അറാദ്","int_name":"Arad"},"display_name":"عراد, محافظة المحرق, 109, البحرين","address":{"town":"عراد","state":"محافظة المحرق","ISO3166-2-lvl4":"BH-15","postcode":"109","country":"البحرين","country_code":"bh"},"osm_type":"node","osm_id":1934092516,"type":"town","location":[50.6326852,26.2512038],"bbox":[50.5926852,26.2112038,50.6726852,26.2912038]}
{"name":"عوالي","other_names":{"name:ar":"عوالي","name:en":"Awali","name:fr":"Awali","name:ml":"അവാലി","int_name":"Awali"},"display_name":"عوالي, المحافظة الجنوبية, 905, البحرين","address":{"town":"عوالي","state":"المحافظة الجنوبية","ISO3166-2-lvl4":"BH-14","postcode":"905","country":"البحرين","country_code":"bh"},"osm_type":"node","osm_id":2189162638,"type":"town","location":[50.5489052,26.0834264],"bbox":[50.5089052,26.0434264,50.5889052,26.1234264]}
{"name":"مدينة حمد","other_names":{"name:ar":"مدينة حمد","name:cs":"Madínat Hamad","name:de":"Hamad","name:en":"Hamad Town","name:es":"Madinat Hamad","name:fr":"Hamad Town","name:ml":"ഹമദ് ടൗൺ","int_name":"Madinat Hamad","alt_name:en":"Madinat Hamad"},"display_name":"مدينة حمد, المحافظة الشمالية, 1203, البحرين","address":{"town":"مدينة حمد","state":"المحافظة الشمالية","ISO3166-2-lvl4":"BH-17","postcode":"1203","country":"البحرين","country_code":"bh"},"population":133350,"osm_type":"node","osm_id":659360718,"type":"town","location":[50.4983356,26.1267463],"bbox":[50.4583356,26.0867463,50.5383356,26.1667463]}
{"name":"مدينة عيسى","other_names":{"name:ar":"مدينة عيسى","name:en":"Isa Town","name:ml":"ഈസ ടൗൺ","int_name":"Madinat 'Isa"},"display_name":"مدينة عيسى, المحافظة الجنوبية, 802, البحرين","address":{"town":"مدينة عيسى","state":"المحافظة الجنوبية","ISO3166-2-lvl4":"BH-14","postcode":"802","country":"البحرين","country_code":"bh"},"population":36876,"osm_type":"node","osm_id":2363170274,"type":"town","location":[50.5473432,26.1741995],"bbox":[50.5073432,26.1341995,50.5873432,26.2141995]}
