{"name":"Calivigny","display_name":"Calivigny, Saint George, Grenada","address":{"town":"Calivigny","county":"Saint George","ISO3166-2-lvl6":"GD-03","country":"Grenada","country_code":"gd"},"osm_type":"node","osm_id":279035371,"type":"town","location":[-61.7249223,12.0166739],"bbox":[-61.7649223,11.9766739,-61.6849223,12.0566739]}
{"name":"Gouyave","display_name":"Gouyave, Saint John, Grenada","address":{"town":"Gouyave","county":"Saint John","ISO3166-2-lvl6":"GD-04","country":"Grenada","country_code":"gd"},"osm_type":"node","osm_id":279034566,"type":"town","location":[-61.7297144,12.1665178],"bbox":[-61.7697144,12.1265178,-61.6897144,12.2065178]}
{"name":"Grand Anse","other_names":{"name:en":"Grand Anse","name:gcf":"Grann lans"},"display_name":"Grand Anse, Saint George, Grenada","address":{"town":"Grand Anse","county":"Saint George","ISO3166-2-lvl6":"GD-03","country":"Grenada","country_code":"gd"},"osm_type":"node","osm_id":288863935,"type":"town","location":[-61.7570692,12.0240306],"bbox":[-61.7970692,11.9840306,-61.7170692,12.0640306]}
{"name":"Grenville","display_name":"Grenville, Saint Andrew, Grenada","address":{"town":"Grenville","county":"Saint Andrew","ISO3166-2-lvl6":"GD-01","country":"Grenada","country_code":"gd"},"osm_type":"node","osm_id":279031056,"type":"town","location":[-61.6225151,12.1228312],"bbox":[-61.6625151,12.0828312,-61.5825151,12.1628312]}
{"name":"Hillsborough","other_names":{"name:en":"Hillsborough","name:hu":"Hillsborough"},"display_name":"Hillsborough, Carriacou and Petite Martinique, Grenada","address":{"town":"Hillsborough","county":"Carriacou and Petite Martinique","ISO3166-2-lvl6":"GD-10","country":"Grenada","country_code":"gd"},"population":1000,"osm_type":"node","osm_id":279034393,"type":"town","location":[-61.4567557,12.4833286],"bbox":[-61.4967557,12.4433286,-61.4167557,12.5233286]}
{"name":"Sauteurs","display_name":"Sauteurs, Saint Patrick, Grenada","address":{"town":"Sauteurs","county":"Saint Patrick","ISO3166-2-lvl6":"GD-06","country":"Grenada","country_code":"gd"},"osm_type":"node","osm_id":279034508,"type":"town","location":[-61.6379798,12.2251172],"bbox":[-61.6779798,12.1851172,-61.5979798,12.2651172]}
{"name":"St. George's","other_names":{"name:ar":"سانت جورجز","name:az":"Sent Corces","name:be":"Сент-Джорджэс","name:bg":"Сейнт Джорджис","name:bo":"སན་ཐ་ཇོར་ཇི།","name:br":"Saint George's","name:bs":"St. George's","name:ca":"Saint George's","name:cy":"St. George's","name:da":"Saint George's","name:de":"St. George's","name:el":"Σαιντ Τζόρτζις","name:en":"St. George's","name:eo":"Sankta Georgo","name:es":"Saint George","name:fa":"سینت‌جورجس","name:fr":"Saint-Georges","name:fy":"Sint George's","name:gl":"Saint George's","name:he":"סנט ג'ורג'","name:hr":"St. George's","name:ht":"Sen Jòj","name:hu":"St. George's","name:hy":"Սենտ Ջորջես","name:id":"St. George's","name:io":"St Georges","name:it":"Saint George's","name:ja":"セントジョージズ","name:ka":"სენტ-ჯორჯესი","name:ko":"세인트조지스","name:lt":"Sent Džordžas","name:mk":"Сент Џорџ","name:mn":"Сент Жоржес","name:mr":"सेंट जॉर्जेस","name:nl":"Saint George's","name:no":"St. George's","name:pl":"Saint George's","name:pt":"São Jorge","name:ru":"Сент-Джорджес","name:sk":"Saint George’s","name:sr":"Сент Џорџиз","name:sv":"Saint George's","name:ta":"செயிண்ட். ஜோர்ஜ்ஸ், கிரெனடா","name:th":"เซนต์จอร์เจส","name:tr":"St. George's","name:uk":"Сент-Джорджес","name:zh":"圣乔治","name:acf":"Sen jòj","name:gcf":"Sen jòj","name:lmo":"St. George's","name:nah":"Saint George","name:pms":"St. George's","name:sah":"Сент Дьордьес","name:be-tarask":"Сэнт Джорджэс"},"display_name":"St. George's, Saint George, Grenada","address":{"town":"St. George's","county":"Saint George","ISO3166-2-lvl6":"GD-03","country":"Grenada","country_code":"gd"},"population":3929,"osm_type":"node","osm_id":246514396,"type":"town","location":[-61.751805,12.0535331],"bbox":[-61.791805,12.0135331,-61.711805,12.0935331],"border":{"name":"Saint George","other_names":{"name:en":"Saint George","ISO3166-2":"GD-03"},"display_name":"Saint George, Grenada","address":{"county":"Saint George","ISO3166-2-lvl6":"GD-03","country":"Grenada","country_code":"gd"},"osm_type":"relation","osm_id":12344153,"type":"administrative","location":[-61.73250696582862,12.05013275],"bbox":[-61.8024525,11.9849018,-61.6946741,12.1130004]}}
{"name":"Victoria","display_name":"Victoria, Saint Mark, Grenada","address":{"town":"Victoria","county":"Saint Mark","ISO3166-2-lvl6":"GD-05","country":"Grenada","country_code":"gd"},"osm_type":"node","osm_id":279034512,"type":"town","location":[-61.7050822,12.1952359],"bbox":[-61.7450822,12.1552359,-61.6650822,12.2352359]}
