{"name":"Anna Regina","other_names":{"name:en":"Anna Regina","name:es":"Anna Regina"},"display_name":"Anna Regina, Anna Regina - Cotton Field District, Three Friends-Walton Hall Local Government District, Anna Regina, Pomeroon-Supenaam, Guyana","address":{"city":"Anna Regina","municipality":"Three Friends-Walton Hall Local Government District","county":"Anna Regina","state":"Pomeroon-Supenaam","ISO3166-2-lvl4":"GY-PM","country":"Guyana","country_code":"gy"},"osm_type":"node","osm_id":982912586,"type":"city","location":[-58.4823019,7.2623434],"bbox":[-58.6423019,7.1023434,-58.3223019,7.4223434],"border":{"name":"Anna Regina","display_name":"Anna Regina, Pomeroon-Supenaam, Guyana","address":{"county":"Anna Regina","state":"Pomeroon-Supenaam","ISO3166-2-lvl4":"GY-PM","country":"Guyana","country_code":"gy"},"osm_type":"relation","osm_id":11222568,"type":"administrative","location":[-58.50796676650462,7.2835058],"bbox":[-58.5579283,7.2289793,-58.4753805,7.3381024]}}
{"name":"Bartica","other_names":{"name:en":"Bartica","name:es":"Bartica","name:ru":"Бартика"},"display_name":"Bartica, Bartica East Central, Bartica, Cuyuni-Mazaruni, Guyana","address":{"city":"Bartica","county":"Bartica","state":"Cuyuni-Mazaruni","ISO3166-2-lvl4":"GY-CU","country":"Guyana","country_code":"gy"},"osm_type":"node","osm_id":726945706,"type":"city","location":[-58.6214256,6.4053312],"bbox":[-58.7814256,6.2453312,-58.4614256,6.5653312],"border":{"name":"Bartica","display_name":"Bartica, Cuyuni-Mazaruni, Guyana","address":{"county":"Bartica","state":"Cuyuni-Mazaruni","ISO3166-2-lvl4":"GY-CU","country":"Guyana","country_code":"gy"},"osm_type":"relation","osm_id":11227906,"type":"administrative","location":[-58.62619024678992,6.4039698000000005],"bbox":[-58.6349008,6.3962631,-58.6170977,6.4113365]}}
{"name":"Fort Wellington","other_names":{"name:en":"Fort Wellington","alt_name":"Catherinas Lust"},"display_name":"Fort Wellington, Naarstigheid-Union Local Government District, Union - Naarstigheid, Mahaica-Berbice, Guyana","address":{"city":"Fort Wellington","municipality":"Naarstigheid-Union Local Government District","county":"Union - Naarstigheid","state":"Mahaica-Berbice","ISO3166-2-lvl4":"GY-MA","country":"Guyana","country_code":"gy"},"osm_type":"node","osm_id":4156226706,"type":"city","location":[-57.5957649,6.3921778],"bbox":[-57.7557649,6.2321778,-57.4357649,6.5521778]}
{"name":"Georgetown","other_names":{"name:am":"ጆርጅታውን","name:ar":"جورج تاون","name:be":"Джорджтаўн","name:bg":"Джорджтаун","name:bo":"ཅོར་ཅི་ཐོན།","name:br":"Georgetown","name:ca":"Georgetown","name:de":"Georgetown","name:el":"Τζώρτζταουν","name:en":"Georgetown","name:eo":"Ĝorĝtaŭno","name:es":"Georgetown","name:fa":"جورج‌تاون","name:fr":"Georgetown","name:he":"ג'ורג'טאון","name:ht":"Jòjtòn","name:hu":"Georgetown","name:is":"Georgetown","name:it":"Georgetown","name:ja":"ジョージタウン","name:ka":"ჯორჯტაუნი","name:kn":"ಜಾರ್ಜ್ಟೌಣ್","name:ko":"조지타운","name:la":"Georgiopolis","name:lt":"Džordžtaunas","name:lv":"Džordžtauna","name:mk":"Џорџтаун","name:mr":"जॉर्जटाउन, गयाना","name:nl":"Georgetown","name:no":"Georgetown","name:oc":"Georgetown","name:os":"Джорджтаун","name:pl":"Georgetown","name:ru":"Джорджтаун","name:sr":"Џорџтаун","name:sv":"Georgetown, Guyana","name:ta":"ஜோர்ஜ்டவுண், கயானா","name:th":"จอร์จทาวน์","name:tr":"Georgetown","name:uk":"Джорджтаун","name:ur":"جارج ٹاؤن","name:zh":"喬治敦","name:be-tarask":"Джорджтаўн"},"display_name":"Georgetown, Plaisance-Industry Local Government, Demerara-Mahaica, Guyana","address":{"city":"Georgetown","municipality":"Plaisance-Industry Local Government","state":"Demerara-Mahaica","ISO3166-2-lvl4":"GY-DE","country":"Guyana","country_code":"gy"},"population":310320,"osm_type":"node","osm_id":293789508,"type":"city","location":[-58.1624465,6.8137426],"bbox":[-58.3224465,6.6537426,-58.0024465,6.9737426],"border":[{"name":"Georgetown","other_names":{"name:en":"Georgetown","official_name":"City of Georgetown","name:am":"ጆርጅታውን","name:ar":"جورج تاون","name:be":"Джорджтаўн","name:bg":"Джорджтаун","name:bo":"ཅོར་ཅི་ཐོན།","name:br":"Georgetown","name:ca":"Georgetown","name:de":"Georgetown","name:el":"Τζώρτζταουν","name:eo":"Ĝorĝtaŭno","name:es":"Georgetown","name:fa":"جورج‌تاون","name:fr":"Georgetown","name:he":"ג'ורג'טאון","name:ht":"Jòjtòn","name:hu":"Georgetown","name:is":"Georgetown","name:it":"Georgetown","name:ja":"ジョージタウン","name:ka":"ჯორჯტაუნი","name:kn":"ಜಾರ್ಜ್ಟೌಣ್","name:ko":"조지타운","name:la":"Georgiopolis","name:lt":"Džordžtaunas","name:lv":"Džordžtauna","name:mk":"Џорџтаун","name:mr":"जॉर्जटाउन, गयाना","name:nl":"Georgetown","name:no":"Georgetown","name:oc":"Georgetown","name:os":"Джорджтаун","name:pl":"Georgetown","name:ru":"Джорджтаун","name:sr":"Џорџтаун","name:sv":"Georgetown, Guyana","name:ta":"ஜோர்ஜ்டவுண், கயானா","name:th":"จอร์จทาวน์","name:tr":"Georgetown","name:uk":"Джорджтаун","name:ur":"جارج ٹاؤن","name:zh":"喬治敦","name:be-tarask":"Джорджтаўн"},"display_name":"Georgetown, Plaisance-Industry Local Government, Demerara-Mahaica, Guyana","address":{"city":"Georgetown","municipality":"Plaisance-Industry Local Government","state":"Demerara-Mahaica","ISO3166-2-lvl4":"GY-DE","country":"Guyana","country_code":"gy"},"population":310320,"osm_type":"relation","osm_id":18902918,"type":"city","location":[-58.1624465,6.8137426],"bbox":[-58.1747151,6.7670936,-58.1052699,6.8279772]},{"name":"City of Georgetown","other_names":{"name:en":"City of Georgetown","name:am":"ጆርጅታውን","name:ar":"جورج تاون","name:be":"Джорджтаўн","name:bg":"Джорджтаун","name:bo":"ཅོར་ཅི་ཐོན།","name:br":"Georgetown","name:ca":"Georgetown","name:de":"Georgetown","name:el":"Τζώρτζταουν","name:eo":"Ĝorĝtaŭno","name:es":"Georgetown","name:fa":"جورج‌تاون","name:fr":"Georgetown","name:he":"ג'ורג'טאון","name:ht":"Jòjtòn","name:hu":"Georgetown","name:is":"Georgetown","name:it":"Georgetown","name:ja":"ジョージタウン","name:ka":"ჯორჯტაუნი","name:kn":"ಜಾರ್ಜ್ಟೌಣ್","name:ko":"조지타운","name:la":"Georgiopolis","name:lt":"Džordžtaunas","name:lv":"Džordžtauna","name:mk":"Џорџтаун","name:mr":"जॉर्जटाउन, गयाना","name:nl":"Georgetown","name:no":"Georgetown","name:oc":"Georgetown","name:os":"Джорджтаун","name:pl":"Georgetown","name:ru":"Джорджтаун","name:sr":"Џорџтаун","name:sv":"Georgetown, Guyana","name:ta":"ஜோர்ஜ்டவுண், கயானா","name:th":"จอร์จทาวน์","name:tr":"Georgetown","name:uk":"Джорджтаун","name:ur":"جارج ٹاؤن","name:zh":"喬治敦","name:be-tarask":"Джорджтаўн","alt":"Georgetown","alt:en":"Georgetown"},"display_name":"City of Georgetown, Demerara-Mahaica, Guyana","address":{"city":"City of Georgetown","state":"Demerara-Mahaica","ISO3166-2-lvl4":"GY-DE","country":"Guyana","country_code":"gy"},"population":310320,"osm_type":"relation","osm_id":11210397,"type":"administrative","location":[-58.1624465,6.8137426],"bbox":[-58.1747151,6.7670936,-58.1052699,6.8279772]}]}
{"name":"Lethem","other_names":{"name:en":"Lethem","name:es":"Lethem","name:ru":"Летем"},"display_name":"Lethem, Third Street, Ireng - Sawariwau, Upper Takutu-Upper Essequibo, Guyana","address":{"city":"Lethem","county":"Ireng - Sawariwau","state":"Upper Takutu-Upper Essequibo","ISO3166-2-lvl4":"GY-UT","country":"Guyana","country_code":"gy"},"osm_type":"node","osm_id":343756782,"type":"city","location":[-59.7958674,3.3749987],"bbox":[-59.9558674,3.2149987,-59.6358674,3.5349987]}
{"name":"Linden","other_names":{"name:es":"Linden"},"display_name":"Linden, Upper Demerara-Berbice, Guyana","address":{"city":"Linden","state":"Upper Demerara-Berbice","ISO3166-2-lvl4":"GY-UD","country":"Guyana","country_code":"gy"},"population":60000,"osm_type":"node","osm_id":2667842900,"type":"city","location":[-58.312488,6.0100019],"bbox":[-58.472488,5.8500019,-58.152488,6.1700019],"border":{"name":"Linden","other_names":{"name:en":"Linden","name:es":"Linden"},"display_name":"Linden, Upper Demerara-Berbice, Guyana","address":{"city":"Linden","state":"Upper Demerara-Berbice","ISO3166-2-lvl4":"GY-UD","country":"Guyana","country_code":"gy"},"population":60000,"osm_type":"relation","osm_id":11228365,"type":"administrative","location":[-58.312488,6.0100019],"bbox":[-58.3999005,5.8950764,-58.2041207,6.0726954]}}
{"name":"Mahdia","other_names":{"name:ar":"المهدية","name:en":"Mahdia","name:es":"Mahdia"},"display_name":"Mahdia, Mahdia - Kurubrong River - Mona Falls, Potaro-Siparuni, Guyana","address":{"city":"Mahdia","county":"Mahdia - Kurubrong River - Mona Falls","state":"Potaro-Siparuni","ISO3166-2-lvl4":"GY-PT","country":"Guyana","country_code":"gy"},"osm_type":"node","osm_id":697397853,"type":"city","location":[-59.1495337,5.2820588],"bbox":[-59.3095337,5.1220588,-58.9895337,5.4420588]}
{"name":"New Amsterdam","other_names":{"name:es":"Nueva Ámsterdam","name:ru":"Нью-Амстердам"},"display_name":"New Amsterdam, East Berbice-Corentyne, Guyana","address":{"city":"New Amsterdam","state":"East Berbice-Corentyne","ISO3166-2-lvl4":"GY-EB","country":"Guyana","country_code":"gy"},"osm_type":"node","osm_id":364838273,"type":"city","location":[-57.5168359,6.2426407],"bbox":[-57.6768359,6.0826407,-57.3568359,6.4026407],"border":{"name":"New Amsterdam","other_names":{"name:en":"New Amsterdam","name:es":"Nueva Ámsterdam","name:ru":"Нью-Амстердам"},"display_name":"New Amsterdam, East Berbice-Corentyne, Guyana","address":{"city":"New Amsterdam","state":"East Berbice-Corentyne","ISO3166-2-lvl4":"GY-EB","country":"Guyana","country_code":"gy"},"osm_type":"relation","osm_id":11218359,"type":"administrative","location":[-57.5168359,6.2426407],"bbox":[-57.5324593,6.1847469,-57.5046193,6.2605677]}}
{"name":"Paradise","display_name":"Paradise, Buxton - Foulis, Demerara-Mahaica, Guyana","address":{"city":"Paradise","county":"Buxton - Foulis","state":"Demerara-Mahaica","ISO3166-2-lvl4":"GY-DE","country":"Guyana","country_code":"gy"},"osm_type":"node","osm_id":373016067,"type":"city","location":[-57.9982911,6.7715775],"bbox":[-58.1582911,6.6115775,-57.8382911,6.9315775]}
{"name":"Vreed-En-Hoop","other_names":{"name:en":"Vreed-En-Hoop","name:es":"Vreed en Hoop"},"display_name":"Vreed-En-Hoop, Klien Pouderoyen-Best Local Government District, Best - Klein Pouderoyen, Essequibo Islands, Guyana","address":{"city":"Vreed-En-Hoop","municipality":"Klien Pouderoyen-Best Local Government District","county":"Best - Klein Pouderoyen","state":"Essequibo Islands","ISO3166-2-lvl4":"GY-ES","country":"Guyana","country_code":"gy"},"osm_type":"node","osm_id":373016260,"type":"city","location":[-58.1848349,6.8091616],"bbox":[-58.3448349,6.6491616,-58.0248349,6.9691616]}
