{"name":"أوتيل ديو","other_names":{"ref":"64","name:ar":"أوتيل ديو","name:en":"Hôtel Dieu","name:fr":"Hôtel Dieu"},"display_name":"أوتيل ديو, الأشرفية, محافظة بيروت, لبنان","address":{"city":"أوتيل ديو","municipality":"الأشرفية","state":"محافظة بيروت","ISO3166-2-lvl4":"LB-BA","country":"لبنان","country_code":"lb"},"osm_type":"relation","osm_id":7153780,"type":"administrative","location":[35.5177298572213,33.881362100000004],"bbox":[35.5129673,33.8786959,35.5228342,33.8843761],"inferred_type":"city"}
{"name":"الاشرفية","other_names":{"ref":"63","name:ar":"الاشرفية","name:de":"Aschrafiyya","name:en":"Achrafieh","name:fr":"Achrafiyé"},"display_name":"الاشرفية, الأشرفية, محافظة بيروت, لبنان","address":{"city":"الاشرفية","municipality":"الأشرفية","state":"محافظة بيروت","ISO3166-2-lvl4":"LB-BA","country":"لبنان","country_code":"lb"},"osm_type":"relation","osm_id":7074074,"type":"administrative","location":[35.51936096088911,33.88586035],"bbox":[35.5145073,33.8827035,35.5250108,33.8892232],"inferred_type":"city"}
{"name":"الاونيسكو","other_names":{"ref":"46","name:ar":"الاونيسكو","name:en":"Unesco","name:fr":"Unesco"},"display_name":"الاونيسكو, مصيطبة, محافظة بيروت, لبنان","address":{"city":"الاونيسكو","municipality":"مصيطبة","state":"محافظة بيروت","ISO3166-2-lvl4":"LB-BA","country":"لبنان","country_code":"lb"},"osm_type":"relation","osm_id":7121582,"type":"administrative","location":[35.48269175755201,33.876830049999995],"bbox":[35.4743818,33.8677141,35.486844,33.8858223],"inferred_type":"city"}
{"name":"البارك","other_names":{"ref":"58","name:ar":"البارك","name:en":"Park","name:fr":"Parc"},"display_name":"البارك, مزرعة, محافظة بيروت, لبنان","address":{"city":"البارك","municipality":"مزرعة","state":"محافظة بيروت","ISO3166-2-lvl4":"LB-BA","country":"لبنان","country_code":"lb"},"osm_type":"relation","osm_id":7084958,"type":"administrative","location":[35.510957242821874,33.8707748],"bbox":[35.5054205,33.8628544,35.519747,33.8786959],"inferred_type":"city"}
{"name":"الباشورة","other_names":{"ref":"26","name:ar":"الباشورة","name:de":"Baschura","name:en":"Bashura","name:fr":"Bachoura"},"display_name":"الباشورة, باشورة, محافظة بيروت, لبنان","address":{"city":"الباشورة","municipality":"باشورة","state":"محافظة بيروت","ISO3166-2-lvl4":"LB-BA","country":"لبنان","country_code":"lb"},"osm_type":"relation","osm_id":7097746,"type":"administrative","location":[35.50416722698179,33.89220055],"bbox":[35.5007364,33.8890942,35.5067423,33.8953714],"inferred_type":"city"}
{"name":"البسطة التحتا","other_names":{"ref":"25","name:ar":"البسطة التحتا","name:de":"Basta Tahta","name:en":"Basta Tahta","name:fr":"Basta Tahta"},"display_name":"البسطة التحتا, باشورة, محافظة بيروت, لبنان","address":{"city":"البسطة التحتا","municipality":"باشورة","state":"محافظة بيروت","ISO3166-2-lvl4":"LB-BA","country":"لبنان","country_code":"lb"},"osm_type":"relation","osm_id":7088627,"type":"administrative","location":[35.50389107785905,33.88773895],"bbox":[35.5001725,33.8854032,35.5084867,33.8901671],"inferred_type":"city"}
{"name":"البسطة الفوقا","other_names":{"name:ar":"البسطة الفوقا","name:en":"Basta Faouka","name:fr":"Basta Faouka","alt_name":"بسطة فوقا"},"display_name":"البسطة الفوقا, مزرعة, محافظة بيروت, لبنان","address":{"city":"البسطة الفوقا","municipality":"مزرعة","state":"محافظة بيروت","ISO3166-2-lvl4":"LB-BA","country":"لبنان","country_code":"lb"},"osm_type":"relation","osm_id":7086561,"type":"administrative","location":[35.503510517284525,33.884504050000004],"bbox":[35.5005158,33.88245,35.5060191,33.8865162],"inferred_type":"city"}
{"name":"الجامعة","other_names":{"ref":"31","name:ar":"الجامعة","name:en":"Al Jaameah","name:fr":"Jamia","alt_name":"American University of Beirut"},"display_name":"الجامعة, دار المريسة, محافظة بيروت, لبنان","address":{"city":"الجامعة","municipality":"دار المريسة","state":"محافظة بيروت","ISO3166-2-lvl4":"LB-BA","country":"لبنان","country_code":"lb"},"osm_type":"relation","osm_id":7083266,"type":"administrative","location":[35.481940432633664,33.9012825],"bbox":[35.4779853,33.8988783,35.486238,33.9036793],"inferred_type":"city"}
{"name":"الجسر","other_names":{"name:ar":"الجسر","name:de":"Jisr","name:en":"Jisr","name:fr":"Jisr"},"display_name":"الجسر, مدور, محافظة بيروت, 2077 7209, لبنان","address":{"city":"الجسر","municipality":"مدور","state":"محافظة بيروت","ISO3166-2-lvl4":"LB-BA","postcode":"2077 7209","country":"لبنان","country_code":"lb"},"osm_type":"relation","osm_id":7080257,"type":"administrative","location":[35.53694644064421,33.901887],"bbox":[35.5334917,33.8950779,35.542581,33.9088968],"inferred_type":"city"}
{"name":"الجعيتاوي","other_names":{"name:ar":"الجعيتاوي","name:de":"Ej Jeitaoui","name:en":"Ej Jeitaoui","name:fr":"Getawi"},"display_name":"الجعيتاوي, الرميل, محافظة بيروت, 2078, لبنان","address":{"city":"الجعيتاوي","municipality":"الرميل","state":"محافظة بيروت","ISO3166-2-lvl4":"LB-BA","postcode":"2078","country":"لبنان","country_code":"lb"},"osm_type":"relation","osm_id":7076199,"type":"administrative","location":[35.5296070594254,33.894374049999996],"bbox":[35.5259882,33.891328,35.5323225,33.8974097],"inferred_type":"city"}
{"name":"الحرج","other_names":{"ref":"57","name:ar":"الحرج","name:en":"El Horge","name:fr":"El Horge"},"display_name":"الحرج, مزرعة, محافظة بيروت, لبنان","address":{"city":"الحرج","municipality":"مزرعة","state":"محافظة بيروت","ISO3166-2-lvl4":"LB-BA","country":"لبنان","country_code":"lb"},"osm_type":"relation","osm_id":7122724,"type":"administrative","location":[35.50427850214179,33.86997545],"bbox":[35.5000259,33.8623309,35.5072331,33.8776772],"inferred_type":"city"}
{"name":"الحكمة","other_names":{"name:ar":"الحكمة","name:de":"Al Hikmat","name:en":"Al Hikmat","name:fr":"Al Hikmat"},"display_name":"الحكمة, الرميل, محافظة بيروت, لبنان","address":{"city":"الحكمة","municipality":"الرميل","state":"محافظة بيروت","ISO3166-2-lvl4":"LB-BA","country":"لبنان","country_code":"lb"},"osm_type":"relation","osm_id":7074994,"type":"administrative","location":[35.52114668059689,33.89373525],"bbox":[35.5176045,33.8912512,35.5242433,33.8962135],"inferred_type":"city"}
{"name":"الخضر","other_names":{"name:ar":"الخضر","name:de":"Khodr","name:en":"Khodr","name:fr":"Khodr"},"display_name":"الخضر, مدور, محافظة بيروت, لبنان","address":{"city":"الخضر","municipality":"مدور","state":"محافظة بيروت","ISO3166-2-lvl4":"LB-BA","country":"لبنان","country_code":"lb"},"osm_type":"relation","osm_id":7080255,"type":"administrative","location":[35.53108343939837,33.90273775],"bbox":[35.524701,33.8963049,35.5370137,33.9092555],"inferred_type":"city"}
{"name":"الرميل","other_names":{"name:ar":"الرميل","name:de":"Rmeil","name:en":"Rmeil","name:fr":"Remeil"},"display_name":"الرميل, مدور, محافظة بيروت, لبنان","address":{"city":"الرميل","municipality":"مدور","state":"محافظة بيروت","ISO3166-2-lvl4":"LB-BA","country":"لبنان","country_code":"lb"},"osm_type":"relation","osm_id":7081119,"type":"administrative","location":[35.517190595273675,33.89623815],"bbox":[35.5125966,33.8950138,35.5212782,33.8973782],"inferred_type":"city"}
{"name":"السيوفي","other_names":{"ref":"67","name:ar":"السيوفي","name:en":"Syoufi","name:fr":"Sioufi"},"display_name":"السيوفي, الأشرفية, محافظة بيروت, لبنان","address":{"city":"السيوفي","municipality":"الأشرفية","state":"محافظة بيروت","ISO3166-2-lvl4":"LB-BA","country":"لبنان","country_code":"lb"},"osm_type":"relation","osm_id":7153457,"type":"administrative","location":[35.52587408172414,33.8834642],"bbox":[35.5215205,33.8801325,35.5303427,33.8867531],"inferred_type":"city"}
{"name":"الصنايع","other_names":{"ref":"41","name:ar":"الصنايع","name:en":"Sanayeh","name:fr":"Sanayeh"},"display_name":"الصنايع, مصيطبة, محافظة بيروت, لبنان","address":{"city":"الصنايع","municipality":"مصيطبة","state":"محافظة بيروت","ISO3166-2-lvl4":"LB-BA","country":"لبنان","country_code":"lb"},"osm_type":"relation","osm_id":12301065,"type":"administrative","location":[35.48954149364404,33.89126825],"bbox":[35.4869976,33.8875837,35.491873,33.8945219],"inferred_type":"city"}
{"name":"الظريف","other_names":{"ref":"40","name:ar":"الظريف","name:en":"Zarif","name:fr":"Zarif"},"display_name":"الظريف, مصيطبة, محافظة بيروت, لبنان","address":{"city":"الظريف","municipality":"مصيطبة","state":"محافظة بيروت","ISO3166-2-lvl4":"LB-BA","country":"لبنان","country_code":"lb"},"osm_type":"relation","osm_id":12301103,"type":"administrative","location":[35.49384269776748,33.891700150000005],"bbox":[35.4903974,33.8882588,35.4960786,33.8947892],"inferred_type":"city"}
{"name":"العادلية","other_names":{"ref":"66","name:ar":"العادلية","name:en":"Palais de Justice","name:fr":"Palais de Justice","alt_name":"قشرالعدل;Al Eadliyah"},"display_name":"العادلية, الأشرفية, محافظة بيروت, لبنان","address":{"city":"العادلية","municipality":"الأشرفية","state":"محافظة بيروت","ISO3166-2-lvl4":"LB-BA","country":"لبنان","country_code":"lb"},"osm_type":"relation","osm_id":7074138,"type":"administrative","location":[35.52678022563201,33.879937600000005],"bbox":[35.5150268,33.8751597,35.5324064,33.8847137],"inferred_type":"city"}
{"name":"العاملية","other_names":{"name:ar":"العاملية","name:en":"Al Eamiliyeh","name:fr":"El Aamiliyé"},"display_name":"العاملية, مزرعة, محافظة بيروت, لبنان","address":{"city":"العاملية","municipality":"مزرعة","state":"محافظة بيروت","ISO3166-2-lvl4":"LB-BA","country":"لبنان","country_code":"lb"},"osm_type":"relation","osm_id":7122738,"type":"administrative","location":[35.50669125344514,33.88094105],"bbox":[35.5053111,33.8780707,35.508455,33.8838623],"inferred_type":"city"}
{"name":"الغابي","other_names":{"ref":"68","name:ar":"الغابي","name:de":"Ghabi","name:en":"Ghabi","name:fr":"Ghabi"},"display_name":"الغابي, الأشرفية, محافظة بيروت, لبنان","address":{"city":"الغابي","municipality":"الأشرفية","state":"محافظة بيروت","ISO3166-2-lvl4":"LB-BA","country":"لبنان","country_code":"lb"},"osm_type":"relation","osm_id":7153456,"type":"administrative","location":[35.528232582172684,33.88915675],"bbox":[35.5244804,33.885424,35.5330084,33.8933757],"inferred_type":"city"}
{"name":"القنطاري","other_names":{"ref":"22","name:ar":"القنطاري","name:de":"Kantari","name:en":"Kantari","name:fr":"Kantari"},"display_name":"القنطاري, ميناء الحصن, محافظة بيروت, لبنان","address":{"city":"القنطاري","municipality":"ميناء الحصن","state":"محافظة بيروت","ISO3166-2-lvl4":"LB-BA","country":"لبنان","country_code":"lb"},"osm_type":"relation","osm_id":7083411,"type":"administrative","location":[35.49353306546601,33.8968632],"bbox":[35.4910289,33.8945219,35.495975,33.899158],"inferred_type":"city"}
{"name":"المجيدية","other_names":{"name:ar":"المجيدية","name:en":"Majidiyeh","name:fr":"Majidiyé"},"display_name":"المجيدية, المرفأ, محافظة بيروت, لبنان","address":{"city":"المجيدية","municipality":"المرفأ","state":"محافظة بيروت","ISO3166-2-lvl4":"LB-BA","country":"لبنان","country_code":"lb"},"osm_type":"relation","osm_id":7094646,"type":"administrative","location":[35.50484517794645,33.8998941],"bbox":[35.5025613,33.8977766,35.506616,33.9018014],"inferred_type":"city"}
{"name":"المرفأ","other_names":{"name:ar":"المرفأ","name:de":"Marfaa","name:en":"Marfaa","name:fr":"Marfaa"},"display_name":"المرفأ, محافظة بيروت, لبنان","address":{"city":"المرفأ","municipality":"المرفأ","state":"محافظة بيروت","ISO3166-2-lvl4":"LB-BA","country":"لبنان","country_code":"lb"},"osm_type":"relation","osm_id":7094667,"type":"administrative","location":[35.51819250889059,33.9001431],"bbox":[35.5062264,33.8963528,35.5218742,33.9039465],"inferred_type":"city"}
{"name":"المزرعة","other_names":{"name:ar":"المزرعة","name:en":"Mazreah","name:fr":"Mazraa"},"display_name":"المزرعة, مزرعة, محافظة بيروت, لبنان","address":{"city":"المزرعة","municipality":"مزرعة","state":"محافظة بيروت","ISO3166-2-lvl4":"LB-BA","country":"لبنان","country_code":"lb"},"osm_type":"relation","osm_id":7115458,"type":"administrative","location":[35.50124702227084,33.88023785],"bbox":[35.4964054,33.8775306,35.5063424,33.8829055],"inferred_type":"city"}
{"name":"المصيطبة","other_names":{"ref":"49","name:ar":"المصيطبة","name:de":"Mussaitbeh","name:en":"Mussaitbeh","name:fr":"Moussaitbé"},"display_name":"المصيطبة, مصيطبة, محافظة بيروت, لبنان","address":{"city":"المصيطبة","municipality":"مصيطبة","state":"محافظة بيروت","ISO3166-2-lvl4":"LB-BA","country":"لبنان","country_code":"lb"},"osm_type":"relation","osm_id":7121604,"type":"administrative","location":[35.49624406940178,33.88518085],"bbox":[35.4916761,33.8808481,35.5003481,33.8896814],"inferred_type":"city"}
{"name":"الملعب","other_names":{"name:ar":"الملعب","name:en":"Malaab","name:fr":"Malaab"},"display_name":"الملعب, مزرعة, محافظة بيروت, لبنان","address":{"city":"الملعب","municipality":"مزرعة","state":"محافظة بيروت","ISO3166-2-lvl4":"LB-BA","country":"لبنان","country_code":"lb"},"osm_type":"relation","osm_id":7115472,"type":"administrative","location":[35.5001791623514,33.87482285],"bbox":[35.495347,33.8704337,35.5051284,33.8789823],"inferred_type":"city"}
{"name":"الناصرة","other_names":{"ref":"62","name:ar":"الناصرة","name:de":"Nasrah","name:en":"Nasrah","name:fr":"Nasra"},"display_name":"الناصرة, الأشرفية, محافظة بيروت, لبنان","address":{"city":"الناصرة","municipality":"الأشرفية","state":"محافظة بيروت","ISO3166-2-lvl4":"LB-BA","country":"لبنان","country_code":"lb"},"osm_type":"relation","osm_id":7074881,"type":"administrative","location":[35.51233055191551,33.88471025],"bbox":[35.5073251,33.8808467,35.5153246,33.8885665],"inferred_type":"city"}
{"name":"النبطية التحتا","other_names":{"name:ar":"نبطية التحتى","name:de":"Nabatieh et Tahta","name:en":"Nabatieh et Tahta","name:fr":"Nabatieh et Tahta","name:ml":"നബത്തിയ അത്തഹ്ത","name:ru":"Эн-Набатия","name:ur":"نبطیہ تحتیٰ","alt_name":"An Nabatiyah at Tahta;An Nabaţīyah at Taḩtā;Nabatîyé et Tahta"},"display_name":"النبطية التحتا, نبطية التحتا, قضاء النبطية, محافظة النبطية, 1700, لبنان","address":{"city":"النبطية التحتا","municipality":"نبطية التحتا","state_district":"قضاء النبطية","state":"محافظة النبطية","ISO3166-2-lvl4":"LB-NA","postcode":"1700","country":"لبنان","country_code":"lb"},"osm_type":"node","osm_id":564343271,"type":"city","location":[35.4833734,33.3775564],"bbox":[35.3233734,33.2175564,35.6433734,33.5375564]}
{"name":"النبطية","other_names":{"name:ar":"النبطية","name:cs":"Nabatíja","name:de":"Nabatäa","name:el":"Ναμπατίγια","name:en":"Nabatieh","name:es":"Nabatieh","name:fa":"نبطیه","name:fr":"Nabatieh","name:he":"א-נבטיה","name:hi":"नबटिया","name:hr":"Nabateja","name:lt":"Nabatija","name:ml":"നബത്തിയ","name:ru":"Эн-Набатия","name:sr":"Набатија","name:tr":"Nebatiye","name:uk":"Набатія","name:ur":"نبطیہ","alt_name":"An Nabatiyah;An Nabaţīyah;Nabatîyé"},"display_name":"النبطية, نبطية التحتا, قضاء النبطية, محافظة النبطية, 1700, لبنان","address":{"city":"النبطية","municipality":"نبطية التحتا","state_district":"قضاء النبطية","state":"محافظة النبطية","ISO3166-2-lvl4":"LB-NA","postcode":"1700","country":"لبنان","country_code":"lb"},"osm_type":"node","osm_id":1102281755,"type":"city","location":[35.4825346,33.3812029],"bbox":[35.3225346,33.2212029,35.6425346,33.5412029]}
{"name":"النجمة","other_names":{"name:ar":"النجمة","name:de":"Nejmeh Square","name:en":"Nejmeh Square","name:fr":"Najmeh"},"display_name":"النجمة, المرفأ, محافظة بيروت, لبنان","address":{"city":"النجمة","municipality":"المرفأ","state":"محافظة بيروت","ISO3166-2-lvl4":"LB-BA","country":"لبنان","country_code":"lb"},"osm_type":"relation","osm_id":7083782,"type":"administrative","location":[35.504616290224874,33.8965872],"bbox":[35.5022038,33.8948514,35.5072365,33.8986101],"inferred_type":"city"}
{"name":"الوطى","other_names":{"ref":"48","name:ar":"الوطى","name:en":"Wata","name:fr":"Wata"},"display_name":"الوطى, مصيطبة, محافظة بيروت, لبنان","address":{"city":"الوطى","municipality":"مصيطبة","state":"محافظة بيروت","ISO3166-2-lvl4":"LB-BA","country":"لبنان","country_code":"lb"},"osm_type":"relation","osm_id":7121590,"type":"administrative","location":[35.49349321869147,33.8798562],"bbox":[35.4891758,33.8762673,35.4973634,33.8830509],"inferred_type":"city"}
{"name":"اليسوعية","other_names":{"ref":"27","name:ar":"اليسوعية","name:de":"Yesouiyeh","name:en":"Yesouiyeh","name:fr":"Yesouiyé","alt_name":"Université Saint-Joseph;Saint Joseph University"},"display_name":"اليسوعية, الصيفي, محافظة بيروت, لبنان","address":{"city":"اليسوعية","municipality":"الصيفي","state":"محافظة بيروت","ISO3166-2-lvl4":"LB-BA","country":"لبنان","country_code":"lb"},"osm_type":"relation","osm_id":7073404,"type":"administrative","location":[35.5085978526,33.8899823],"bbox":[35.5064687,33.8880504,35.5107547,33.8917321],"inferred_type":"city"}
{"name":"باب إدريس","other_names":{"ref":"21","name:ar":"باب إدريس","name:de":"Bab Idriss","name:en":"Bab Idriss","name:fr":"Bab Idriss"},"display_name":"باب إدريس, ميناء الحصن, محافظة بيروت, لبنان","address":{"city":"باب إدريس","municipality":"ميناء الحصن","state":"محافظة بيروت","ISO3166-2-lvl4":"LB-BA","country":"لبنان","country_code":"lb"},"osm_type":"relation","osm_id":7083454,"type":"administrative","location":[35.49854286414354,33.897313100000005],"bbox":[35.4955721,33.8957551,35.5025613,33.8987744],"inferred_type":"city"}
{"name":"برج أبي حيدر","other_names":{"name:ar":"برج أبي حيدر","name:en":"Burj Abi Haidar","name:fr":"Bourj Abi Haidar","alt_name:en":"Bourj Abi Haydar;Borj Abi Haidar"},"display_name":"برج أبي حيدر, مزرعة, محافظة بيروت, لبنان","address":{"city":"برج أبي حيدر","municipality":"مزرعة","state":"محافظة بيروت","ISO3166-2-lvl4":"LB-BA","country":"لبنان","country_code":"lb"},"osm_type":"relation","osm_id":7086501,"type":"administrative","location":[35.49970900752873,33.88348645],"bbox":[35.4973634,33.8803813,35.5017319,33.8867076],"inferred_type":"city"}
{"name":"بعلبك","other_names":{"name:ar":"بعلبك","name:cs":"Baalbek","name:de":"Baalbek","name:el":"Μπάαλμπεκ","name:en":"Baalbek","name:es":"Baalbek","name:eu":"Baalbek","name:fa":"بعلبک","name:fr":"Baalbek","name:he":"בעלבכ","name:hi":"बाल्बेक","name:hy":"Բաալբեկ","name:ks":"بعلبک","name:lt":"Baalbekas","name:ml":"ബാൽബെക്ക്","name:ru":"Баальбек","name:uk":"Баальбек","name:ur":"بعلبک","name:arz":"بعلبك","name:azb":"بعلبک","name:grc":"Ἡλιούπολις","name:hyw":"Պաալպէք","name:mzn":"بعلبک","name:ota":"بعلبک","name:pnb":"بعلبک","name:pnt":"Ἡλιούπολις"},"display_name":"بعلبك, قضاء بعلبك, محافظة بعلبك الهرمل, 1800, لبنان","address":{"city":"بعلبك","state_district":"قضاء بعلبك","state":"محافظة بعلبك الهرمل","ISO3166-2-lvl4":"LB-BH","postcode":"1800","country":"لبنان","country_code":"lb"},"population":82608,"osm_type":"node","osm_id":428339508,"type":"city","location":[36.2117096,34.009653],"bbox":[36.0517096,33.849653,36.3717096,34.169653],"border":{"name":"بعلبك","other_names":{"name:ar":"بعلبك","name:de":"Baalbek","name:en":"Baalbek","name:es":"Baalbek","name:fa":"بعلبک","name:fr":"Baalbek","name:hy":"Բաալբեկ","name:ks":"بعلبک","name:ur":"بعلبک","name:arz":"بعلبك","name:azb":"بعلبک","name:grc":"Ἡλιούπολις","name:hyw":"Պաալպէք","name:mzn":"بعلبک","name:ota":"بعلبک","name:pnb":"بعلبک","name:pnt":"Ἡλιούπολις","name:cs":"Baalbek","name:el":"Μπάαλμπεκ","name:eu":"Baalbek","name:he":"בעלבכ","name:hi":"बाल्बेक","name:lt":"Baalbekas","name:ml":"ബാൽബെക്ക്","name:ru":"Баальбек","name:uk":"Баальбек"},"display_name":"بعلبك, قضاء بعلبك, محافظة بعلبك الهرمل, 1800, لبنان","address":{"city":"بعلبك","state_district":"قضاء بعلبك","state":"محافظة بعلبك الهرمل","ISO3166-2-lvl4":"LB-BH","postcode":"1800","country":"لبنان","country_code":"lb"},"population":82608,"osm_type":"relation","osm_id":3095790,"type":"administrative","location":[36.2117096,34.009653],"bbox":[36.1505556,33.9848075,36.2584468,34.0496549]}}
{"name":"بيروت","other_names":{"name:af":"Beiroet","name:am":"ቤይሩት","name:an":"Beirut","name:ar":"بيروت","name:as":"বেইৰুত","name:az":"Beyrut","name:ba":"Бәйрүт","name:be":"Бейрут","name:bg":"Бейрут","name:bn":"বৈরুত","name:bo":"པེ་རུ་ཐེ།","name:br":"Beirout","name:bs":"Bejrut","name:ca":"Beirut","name:ce":"Бейрут","name:cs":"Bejrút","name:cv":"Бейрут","name:cy":"Beirut","name:da":"Beirut","name:de":"Beirut","name:el":"Βηρυτός","name:en":"Beirut","name:eo":"Bejruto","name:es":"Beirut","name:et":"Beirut","name:eu":"Beirut","name:fa":"بیروت","name:fi":"Beirut","name:fr":"Beyrouth","name:fy":"Beirût","name:ga":"Béiriút","name:gd":"Beirut","name:gl":"Beirut","name:gn":"Beirut","name:gv":"Beirut","name:ha":"Beirut","name:he":"ביירות","name:hi":"बेयरूत","name:hr":"Bejrut","name:ht":"Bewout","name:hu":"Bejrút","name:hy":"Պէյրութ","name:ia":"Beirut","name:id":"Beirut","name:ie":"Beirut","name:io":"Beirut","name:is":"Beirút","name:it":"Beirut","name:ja":"ベイルート","name:jv":"Beirut","name:ka":"ბეირუთი","name:kk":"Бейрут","name:kn":"ಬೈರುತ್","name:ko":"베이루트","name:ku":"Bêrût","name:ky":"Бейрут","name:la":"Berytus","name:lb":"Beirut","name:li":"Beiroet","name:lt":"Beirutas","name:lv":"Beirūta","name:mg":"Beirut","name:mk":"Бејрут","name:ml":"ബെയ്റൂത്ത്","name:mn":"Бейрут","name:mr":"बैरूत","name:ms":"Beirut","name:mt":"Bejrut","name:my":"ဘေရွတ်မြို့","name:nb":"Beirut","name:ne":"बेरुत","name:nl":"Beiroet","name:nn":"Beirut","name:nv":"Tó Hadahadleeh","name:oc":"Barut","name:os":"Бейрут","name:pa":"ਬੇਰੂਤ","name:pl":"Bejrut","name:ps":"بېروت","name:pt":"Beirute","name:qu":"Beyrut","name:ro":"Beirut","name:ru":"Бейрут","name:sc":"Beirut","name:sh":"Bejrut","name:sk":"Bejrút","name:sl":"Bejrut","name:sn":"Beirut","name:so":"Beyruut","name:sq":"Bejrut","name:sr":"Бејрут","name:sv":"Beirut","name:sw":"Beirut","name:ta":"பெய்ரூத்","name:te":"బీరుట్","name:tg":"Бейрут","name:th":"เบรุต","name:tk":"Beýrut","name:tl":"Beirut","name:tr":"Beyrut","name:tt":"Бәйрут","name:ug":"بېيرۇت","name:uk":"Бейрут","name:ur":"بیروت","name:uz":"Bayrut","name:vi":"Beirut","name:vo":"Bäyrut","name:yi":"ביירוט","name:yo":"Beirut","name:zh":"貝魯特","int_name":"Beirut","name:arc":"ܒܝܪܘܬ","name:arz":"بيروت","name:ckb":"بەیرووت","name:gag":"Beyrut","name:kab":"Birut","name:mdf":"Бейрут ошсь","name:mzn":"بیروت","name:nan":"Beyrouth","name:nov":"Beyrut","name:pnb":"بیروت","name:sah":"Бейрут","name:tet":"Beirute","name:wuu":"贝鲁特","name:bat-smg":"Beirots","name:be-tarask":"Бэйрут"},"display_name":"بيروت, محافظة بيروت, 2034 1111, لبنان","address":{"city":"بيروت","state":"محافظة بيروت","ISO3166-2-lvl4":"LB-BA","postcode":"2034 1111","country":"لبنان","country_code":"lb"},"population":1252000,"osm_type":"node","osm_id":289346590,"type":"city","location":[35.47843,33.8959203],"bbox":[35.31843,33.7359203,35.63843,34.0559203]}
{"name":"تلة الخيّاط","other_names":{"ref":"45","name:ar":"تلة الخيّاط","name:de":"Tallet Khayat","name:en":"Tallet Khayat","name:fr":"Tallet Khayat"},"display_name":"تلة الخيّاط, مصيطبة, محافظة بيروت, لبنان","address":{"city":"تلة الخيّاط","municipality":"مصيطبة","state":"محافظة بيروت","ISO3166-2-lvl4":"LB-BA","country":"لبنان","country_code":"lb"},"osm_type":"relation","osm_id":7121561,"type":"administrative","location":[35.48845258773191,33.88145605],"bbox":[35.4832242,33.8781192,35.4916761,33.8849919],"inferred_type":"city"}
{"name":"تلة الدروز","other_names":{"name:ar":"تلة الدروز","name:en":"Tallet Druze","name:fr":"Tallet Druze"},"display_name":"تلة الدروز, مصيطبة, محافظة بيروت, لبنان","address":{"city":"تلة الدروز","municipality":"مصيطبة","state":"محافظة بيروت","ISO3166-2-lvl4":"LB-BA","country":"لبنان","country_code":"lb"},"osm_type":"relation","osm_id":7121560,"type":"administrative","location":[35.48599987346198,33.8910631],"bbox":[35.483245,33.8887853,35.487731,33.8934021],"inferred_type":"city"}
{"name":"جميزة","other_names":{"name:ar":"جميزة","name:de":"Dschumaiza","name:en":"Jumayza","name:fr":"Gemmayzé"},"display_name":"جميزة, الصيفي, محافظة بيروت, لبنان","address":{"city":"جميزة","municipality":"الصيفي","state":"محافظة بيروت","ISO3166-2-lvl4":"LB-BA","country":"لبنان","country_code":"lb"},"osm_type":"relation","osm_id":7073578,"type":"administrative","location":[35.51006586751204,33.896279899999996],"bbox":[35.5064975,33.8948786,35.5134028,33.897772],"inferred_type":"city"}
{"name":"جونيه","other_names":{"name:ar":"جونيه","name:de":"Jounieh","name:el":"Τζουνίγια","name:en":"Jounieh","name:es":"Joünié","name:eu":"Jounieh","name:fa":"جونیه","name:fr":"Jounieh","name:he":"ג'וניה","name:hr":"Džunije","name:hy":"Ջունիա","name:ml":"ജൂണിയെ","name:ru":"Джуния","name:sr":"Џуније","name:tr":"Cünye","name:uk":"Джунія","name:azb":"Cuniyə"},"display_name":"جونيه, ذوق مكايل, قضاء كسروان, محافظة كسروان جبيل, 1200, لبنان","address":{"city":"جونيه","town":"ذوق مكايل","state_district":"قضاء كسروان","state":"محافظة كسروان جبيل","postcode":"1200","country":"لبنان","country_code":"lb"},"osm_type":"node","osm_id":258842202,"type":"city","location":[35.6200633,33.9741506],"bbox":[35.4600633,33.8141506,35.7800633,34.1341506]}
{"name":"دار الفتوى","other_names":{"ref":"44","name:ar":"دار الفتوى","name:de":"Dar Al Fatwa","name:en":"Dar Al Fatwa","name:fr":"Dar El Fatoua"},"display_name":"دار الفتوى, مصيطبة, محافظة بيروت, لبنان","address":{"city":"دار الفتوى","municipality":"مصيطبة","state":"محافظة بيروت","ISO3166-2-lvl4":"LB-BA","country":"لبنان","country_code":"lb"},"osm_type":"relation","osm_id":7121559,"type":"administrative","location":[35.48836561651244,33.8862414],"bbox":[35.4832076,33.8830509,35.4942743,33.8894323],"inferred_type":"city"}
{"name":"دنها","other_names":{"name:ar":"دنها","name:en":"Danha","name:fr":"Danha"},"display_name":"دنها, قضاء زغرتا, محافظة الشمال, لبنان","address":{"city":"دنها","state_district":"قضاء زغرتا","state":"محافظة الشمال","ISO3166-2-lvl4":"LB-AS","country":"لبنان","country_code":"lb"},"osm_type":"relation","osm_id":11300184,"type":"administrative","location":[35.93345842136304,34.39347405],"bbox":[35.9247136,34.3859148,35.9442398,34.4031896],"inferred_type":"city"}
{"name":"رأس النبع","other_names":{"ref":"52","name:ar":"رأس النبع","name:en":"Ras El-Nabaa","name:fr":"Ras El-Nabaa"},"display_name":"رأس النبع, مزرعة, محافظة بيروت, 2052 6703, لبنان","address":{"city":"رأس النبع","municipality":"مزرعة","state":"محافظة بيروت","ISO3166-2-lvl4":"LB-BA","postcode":"2052 6703","country":"لبنان","country_code":"lb"},"osm_type":"relation","osm_id":7087023,"type":"administrative","location":[35.50960169259348,33.882385299999996],"bbox":[35.5057556,33.8782744,35.5150268,33.8865096],"inferred_type":"city"}
{"name":"رأس بيروت","other_names":{"ref":"35","name:ar":"رأس بيروت","name:en":"Ras Beirut","name:fr":"Ras-Beyrouth"},"display_name":"رأس بيروت, دار المريسة, محافظة بيروت, لبنان","address":{"city":"رأس بيروت","municipality":"دار المريسة","state":"محافظة بيروت","ISO3166-2-lvl4":"LB-BA","country":"لبنان","country_code":"lb"},"osm_type":"relation","osm_id":7083254,"type":"administrative","location":[35.47433668337953,33.89960345],"bbox":[35.4677351,33.8962857,35.4787984,33.9027185],"inferred_type":"city"}
{"name":"زحلة","other_names":{"name:ar":"زحلة","name:cs":"Zahlé","name:de":"Zahlé","name:en":"Zahle","name:es":"Zahlé","name:fr":"Zahlé","name:he":"זחלה","name:lt":"Zahlė","name:ml":"സഹ്ലെ","name:ru":"Захла","name:uk":"Захла","alt_name":"Zahlah;Zahle;Zahleh;Zahlé;Zakhla;Zaḩlah;Захла;זחל;,زحلة;Zahlé","alt_name:uk":"Захле"},"display_name":"زحلة, قضاء زحلة, محافظة البقاع, 1801, لبنان","address":{"city":"زحلة","state_district":"قضاء زحلة","state":"محافظة البقاع","ISO3166-2-lvl4":"LB-BI","postcode":"1801","country":"لبنان","country_code":"lb"},"osm_type":"node","osm_id":564377442,"type":"city","location":[35.9024955,33.8477069],"bbox":[35.7424955,33.6877069,36.0624955,34.0077069]}
{"name":"صور","other_names":{"name:am":"ጢሮስ","name:ar":"صور","name:az":"Sur","name:be":"Тыр","name:bg":"Тир","name:cs":"Týr","name:de":"Tyros","name:el":"Τύρος","name:en":"Tyre","name:eo":"Tiro","name:es":"Tiro","name:et":"Şūr","name:eu":"Tiro","name:fa":"صور","name:fi":"Tyros","name:fr":"Tyr","name:gl":"Tiro","name:he":"צור","name:hi":"सोर","name:hr":"Tir","name:hy":"Տյուրոս","name:is":"Týros","name:it":"Tiro","name:ks":"صور","name:ku":"Teyra","name:la":"Tyros","name:lt":"Tyras","name:ml":"സൂർ","name:nl":"Tyrus","name:pl":"Tyr","name:pt":"Tiro","name:ru":"Сур","name:sl":"Tir","name:sr":"Тир","name:sv":"Tyros","name:sw":"Tiro","name:tl":"Tiro","name:tr":"Sûr","name:uk":"Сур","name:ur":"صور","name:vi":"Týros","name:zh":"泰尔","name:arc":"ܨܘܪ","name:azb":"صور","name:ceb":"Tiro","name:ckb":"تەیرا","name:grc":"Τύρος","name:hyw":"Սուր","name:pnt":"Τύρος","name:syc":"ܨܘܪ","name:war":"Tiro","alt_name:ml":"ടൈർ"},"display_name":"صور, قضاء صور, محافظة الجنوب, 1601, لبنان","address":{"city":"صور","state_district":"قضاء صور","state":"محافظة الجنوب","ISO3166-2-lvl4":"LB-JA","postcode":"1601","country":"لبنان","country_code":"lb"},"population":135000,"osm_type":"node","osm_id":803018184,"type":"city","location":[35.1964023,33.2721211],"bbox":[35.0364023,33.1121211,35.3564023,33.4321211],"border":{"name":"صور","other_names":{"name:am":"ጢሮስ","name:ar":"صور","name:be":"Тыр","name:bg":"Тир","name:de":"Tyros","name:el":"Τύρος","name:en":"Tyre","name:eo":"Tiro","name:es":"Tiro","name:eu":"Tiro","name:fa":"صور","name:fi":"Tyros","name:fr":"Tyr","name:gl":"Tiro","name:hy":"Տյուրոս","name:is":"Týros","name:it":"Tiro","name:ks":"صور","name:la":"Tyros","name:pl":"Tyr","name:pt":"Tiro","name:ru":"Сур","name:sr":"Тир","name:sv":"Tyros","name:sw":"Tiro","name:tl":"Tiro","name:uk":"Сур","name:ur":"صور","name:vi":"Týros","name:arc":"ܨܘܪ","name:azb":"صور","name:ceb":"Tiro","name:grc":"Τύρος","name:hyw":"Սուր","name:pnt":"Τύρος","name:syc":"ܨܘܪ","name:war":"Tiro","name:az":"Sur","name:cs":"Týr","name:et":"Şūr","name:he":"צור","name:hi":"सोर","name:hr":"Tir","name:ku":"Teyra","name:lt":"Tyras","name:ml":"സൂർ","name:nl":"Tyrus","name:sl":"Tir","name:tr":"Sûr","name:zh":"泰尔","name:ckb":"تەیرا","alt_name:ml":"ടൈർ"},"display_name":"صور, قضاء صور, محافظة الجنوب, 1601, لبنان","address":{"city":"صور","state_district":"قضاء صور","state":"محافظة الجنوب","ISO3166-2-lvl4":"LB-JA","postcode":"1601","country":"لبنان","country_code":"lb"},"population":135000,"osm_type":"relation","osm_id":12196423,"type":"administrative","location":[35.1964023,33.2721211],"bbox":[35.1905905,33.2199129,35.2298069,33.2771935]}}
{"name":"صيدا","other_names":{"name:ar":"صيدا","name:az":"Sayda","name:cs":"Sidón","name:de":"Sidon","name:el":"Σιδώνα","name:en":"Sidon","name:es":"Sidón","name:eu":"Sidon","name:fr":"Sidon","name:gd":"Sìdon","name:he":"צידון","name:hi":"सिदोन","name:hr":"Sidon","name:hy":"Սայդա","name:mi":"Hitōna","name:ml":"സൈദ","name:nl":"Sidon","name:ru":"Сайда","name:sl":"Sidon","name:sr":"Сидон","name:tr":"Sayda","name:uk":"Сідон","name:ur":"صیدا","alt_name":"صيدون","name:arc":"ܨܝܕܘܢ","name:azb":"صیدا","name:grc":"Σιδών","name:syc":"ܨܝܕܘܢ","alt_name:ar":"صيدون","alt_name:de":"Saida","alt_name:fr":"Saïda","alt_name:ml":"സീദോൻ"},"display_name":"صيدا, قضاء صيدا, محافظة الجنوب, 1600, لبنان","address":{"city":"صيدا","state_district":"قضاء صيدا","state":"محافظة الجنوب","ISO3166-2-lvl4":"LB-JA","postcode":"1600","country":"لبنان","country_code":"lb"},"osm_type":"node","osm_id":4799206602,"type":"city","location":[35.3780338,33.5618345],"bbox":[35.2180338,33.4018345,35.5380338,33.7218345],"border":{"name":"صيدا","other_names":{"name:ar":"صيدا","name:cs":"Sidón","name:en":"Sidon","name:fr":"Sidon","name:mi":"Hitōna","alt_name:cs":"Sajdá","alt_name:en":"Saida","alt_name:mi":"Haitā","name:az":"Sayda","name:de":"Sidon","name:el":"Σιδώνα","name:es":"Sidón","name:eu":"Sidon","name:gd":"Sìdon","name:he":"צידון","name:hi":"सिदोन","name:hr":"Sidon","name:hy":"Սայդա","name:ml":"സൈദ","name:nl":"Sidon","name:ru":"Сайда","name:sl":"Sidon","name:sr":"Сидон","name:tr":"Sayda","name:uk":"Сідон","name:ur":"صیدا","alt_name":"صيدون","name:arc":"ܨܝܕܘܢ","name:azb":"صیدا","name:grc":"Σιδών","name:syc":"ܨܝܕܘܢ","alt_name:ar":"صيدون","alt_name:de":"Saida","alt_name:fr":"Saïda","alt_name:ml":"സീദോൻ"},"display_name":"صيدا, قضاء صيدا, محافظة الجنوب, 1600, لبنان","address":{"city":"صيدا","state_district":"قضاء صيدا","state":"محافظة الجنوب","ISO3166-2-lvl4":"LB-JA","postcode":"1600","country":"لبنان","country_code":"lb"},"osm_type":"relation","osm_id":16414025,"type":"administrative","location":[35.3780338,33.5618345],"bbox":[35.3595584,33.533803,35.3944945,33.5889928]}}
{"name":"طرابلس","other_names":{"name:ar":"طرابلس","name:az":"Tərabülüs əş-Şam","name:be":"Трыпалі","name:bg":"Триполи","name:bn":"ত্রিপোলি","name:br":"Tripoli","name:ca":"Trípoli","name:cs":"Tripolis","name:cy":"Tripoli","name:da":"Tripoli","name:de":"Tripoli","name:el":"Τρίπολη","name:en":"Tripoli","name:eo":"Tripolo","name:es":"Trípoli","name:et":"Tripoli","name:eu":"Tripoli","name:fa":"طرابلس","name:fi":"Tripoli","name:fr":"Tripoli","name:ga":"Tripilí","name:gl":"Trípoli","name:he":"טריפולי","name:hi":"ताराबूलस","name:hr":"Tripoli","name:hu":"Tripoli","name:hy":"Տրիպոլի","name:id":"Tripoli","name:ie":"Tripoli","name:it":"Tripoli","name:ja":"トリポリ","name:ka":"ტრიპოლი","name:ko":"트리폴리","name:ks":"طرابلس","name:ku":"Trablûs","name:lt":"Tripolis","name:lv":"Tripole","name:mg":"Tripoli","name:ml":"തറാബുലുസ്","name:mr":"त्रिपोली","name:ms":"Tripoli","name:nb":"Tripoli","name:nl":"Tripoli","name:nn":"Tripoli","name:oc":"Trípol","name:os":"Триполи","name:pl":"Trypolis","name:pt":"Trípoli","name:ro":"Tripoli","name:ru":"Триполи","name:sk":"Tripolis","name:sl":"Tripoli","name:sq":"Tripoli","name:sr":"Триполи","name:sv":"Tripoli","name:ta":"திரிப்போலி","name:tg":"Таробулус-аш-Шом","name:th":"ตริโปลี","name:tl":"Tripoli","name:tr":"Trablusşam","name:ug":"تەرابۇلۇس","name:uk":"Триполі","name:ur":"طرابلس","name:uz":"Tarobulus ash-Shom","name:vi":"Tripoli","name:yi":"טריפאלי","name:zh":"的黎波里","name:arz":"طرابلس","name:azb":"طرابلس","name:grc":"Τρίπολις","name:hyw":"Թրիփոլի","name:mzn":"طرابلس","name:pnt":"Τρίπολις","alt_name:ml":"ട്രിപ്പോളി"},"display_name":"طرابلس, قضاء طرابلس, محافظة الشمال, 1300, لبنان","address":{"city":"طرابلس","state_district":"قضاء طرابلس","state":"محافظة الشمال","ISO3166-2-lvl4":"LB-AS","postcode":"1300","country":"لبنان","country_code":"lb"},"population":999000,"osm_type":"node","osm_id":258516078,"type":"city","location":[35.8348551,34.4373616],"bbox":[35.6748551,34.2773616,35.9948551,34.5973616],"border":{"name":"طرابلس","other_names":{"name:ar":"طرابلس","name:be":"Трыпалі","name:bg":"Триполи","name:ca":"Trípoli","name:cs":"Tripolis","name:de":"Tripoli","name:el":"Τρίπολη","name:en":"Tripoli","name:es":"Trípoli","name:fa":"طرابلس","name:fr":"Tripoli","name:gl":"Trípoli","name:he":"טריפולי","name:hy":"Տրիպոլի","name:ka":"ტრიპოლი","name:ks":"طرابلس","name:lt":"Tripolis","name:pl":"Trypolis","name:pt":"Trípoli","name:ru":"Триполи","name:sk":"Tripolis","name:sr":"Триполи","name:uk":"Триполі","name:ur":"طرابلس","name:arz":"طرابلس","name:azb":"طرابلس","name:grc":"Τρίπολις","name:hyw":"Թրիփոլի","name:mzn":"طرابلس","name:pnt":"Τρίπολις","name:az":"Tərabülüs əş-Şam","name:bn":"ত্রিপোলি","name:br":"Tripoli","name:cy":"Tripoli","name:da":"Tripoli","name:eo":"Tripolo","name:et":"Tripoli","name:eu":"Tripoli","name:fi":"Tripoli","name:ga":"Tripilí","name:hi":"ताराबूलस","name:hr":"Tripoli","name:hu":"Tripoli","name:id":"Tripoli","name:ie":"Tripoli","name:it":"Tripoli","name:ja":"トリポリ","name:ko":"트리폴리","name:ku":"Trablûs","name:lv":"Tripole","name:mg":"Tripoli","name:ml":"തറാബുലുസ്","name:mr":"त्रिपोली","name:ms":"Tripoli","name:nb":"Tripoli","name:nl":"Tripoli","name:nn":"Tripoli","name:oc":"Trípol","name:os":"Триполи","name:ro":"Tripoli","name:sl":"Tripoli","name:sq":"Tripoli","name:sv":"Tripoli","name:ta":"திரிப்போலி","name:tg":"Таробулус-аш-Шом","name:th":"ตริโปลี","name:tl":"Tripoli","name:tr":"Trablusşam","name:ug":"تەرابۇلۇس","name:uz":"Tarobulus ash-Shom","name:vi":"Tripoli","name:yi":"טריפאלי","name:zh":"的黎波里","alt_name:ml":"ട്രിപ്പോളി"},"display_name":"طرابلس, قضاء طرابلس, محافظة الشمال, 1300, لبنان","address":{"city":"طرابلس","state_district":"قضاء طرابلس","state":"محافظة الشمال","ISO3166-2-lvl4":"LB-AS","postcode":"1300","country":"لبنان","country_code":"lb"},"population":999000,"osm_type":"relation","osm_id":4869639,"type":"administrative","location":[35.8348551,34.4373616],"bbox":[35.8177578,34.3910093,35.8727563,34.4668863]}}
{"name":"طريق الجديدة","other_names":{"name:ar":"طريق الجديدة","name:en":"Tariq El Jedeedeh","name:fr":"Tariq El Jedidé"},"display_name":"طريق الجديدة, مزرعة, محافظة بيروت, لبنان","address":{"city":"طريق الجديدة","municipality":"مزرعة","state":"محافظة بيروت","ISO3166-2-lvl4":"LB-BA","country":"لبنان","country_code":"lb"},"osm_type":"relation","osm_id":7122723,"type":"administrative","location":[35.49738469099472,33.87152405],"bbox":[35.4942712,33.8674508,35.5017366,33.8753876],"inferred_type":"city"}
{"name":"عاليه","other_names":{"name:ar":"عاليه","name:de":"Aley","name:el":"Αλέι","name:en":"Aley","name:es":"Aley","name:fa":"عالیه","name:fr":"Aley","name:he":"עאליי","name:hr":"Alej","name:ml":"ആലൈ","name:ru":"Алайх","name:sr":"Алеј","name:tr":"Aley","name:uk":"Алей","alt_name":"Aaley"},"display_name":"عاليه, قضاء عاليه, محافظة جبل لبنان, 1501, لبنان","address":{"city":"عاليه","state_district":"قضاء عاليه","state":"محافظة جبل لبنان","ISO3166-2-lvl4":"LB-JL","postcode":"1501","country":"لبنان","country_code":"lb"},"osm_type":"node","osm_id":5046640267,"type":"city","location":[35.6061181,33.8082697],"bbox":[35.4461181,33.6482697,35.7661181,33.9682697],"border":{"name":"عاليه","other_names":{"name:ar":"عاليه","name:en":"Aley","name:fr":"Aley","name:de":"Aley","name:el":"Αλέι","name:es":"Aley","name:fa":"عالیه","name:he":"עאליי","name:hr":"Alej","name:ml":"ആലൈ","name:ru":"Алайх","name:sr":"Алеј","name:tr":"Aley","name:uk":"Алей","alt_name":"Aaley"},"display_name":"عاليه, قضاء عاليه, محافظة جبل لبنان, 1501, لبنان","address":{"city":"عاليه","state_district":"قضاء عاليه","state":"محافظة جبل لبنان","ISO3166-2-lvl4":"LB-JL","postcode":"1501","country":"لبنان","country_code":"lb"},"osm_type":"relation","osm_id":10605904,"type":"administrative","location":[35.6061181,33.8082697],"bbox":[35.5793953,33.7910784,35.6273423,33.8246915]}}
{"name":"عين المريسة","other_names":{"ref":"30","name:ar":"عين المريسة","name:de":"Ain Mreisse","name:en":"Ain Mreisse","name:fr":"Aïn Mreissé"},"display_name":"عين المريسة, دار المريسة, محافظة بيروت, لبنان","address":{"city":"عين المريسة","municipality":"دار المريسة","state":"محافظة بيروت","ISO3166-2-lvl4":"LB-BA","country":"لبنان","country_code":"lb"},"osm_type":"relation","osm_id":7083281,"type":"administrative","location":[35.48958405423305,33.90086155],"bbox":[35.4848119,33.8985684,35.493631,33.9033119],"inferred_type":"city"}
{"name":"فرن الحايك","other_names":{"ref":"61","name:ar":"فرن الحايك","name:de":"Furn El Hayek","name:en":"Furn El Hayek","name:fr":"Furn-El-Hayek"},"display_name":"فرن الحايك, الأشرفية, محافظة بيروت, لبنان","address":{"city":"فرن الحايك","municipality":"الأشرفية","state":"محافظة بيروت","ISO3166-2-lvl4":"LB-BA","country":"لبنان","country_code":"lb"},"osm_type":"relation","osm_id":7073454,"type":"administrative","location":[35.51405895675204,33.8903447],"bbox":[35.5102157,33.8881605,35.5176045,33.8923206],"inferred_type":"city"}
{"name":"كورنيش النهر","other_names":{"ref":"69","name:ar":"كورنيش النهر","name:en":"Corniche Al Naher","name:fr":"Corniche El-Nahr"},"display_name":"كورنيش النهر, الأشرفية, محافظة بيروت, لبنان","address":{"city":"كورنيش النهر","municipality":"الأشرفية","state":"محافظة بيروت","ISO3166-2-lvl4":"LB-BA","country":"لبنان","country_code":"lb"},"osm_type":"relation","osm_id":7153776,"type":"administrative","location":[35.53249219398808,33.88814575],"bbox":[35.5298767,33.883072,35.5353796,33.8931241],"inferred_type":"city"}
{"name":"مار إلياس","other_names":{"ref":"47","name:ar":"مار إلياس","name:en":"Mar Elias","name:fr":"Mar Elias","alt_name:ar":"مار الياس"},"display_name":"مار إلياس, مصيطبة, محافظة بيروت, لبنان","address":{"city":"مار إلياس","municipality":"مصيطبة","state":"محافظة بيروت","ISO3166-2-lvl4":"LB-BA","country":"لبنان","country_code":"lb"},"osm_type":"relation","osm_id":7083079,"type":"administrative","location":[35.48975527851962,33.87407015],"bbox":[35.4829753,33.8675305,35.4955447,33.8796316],"inferred_type":"city"}
{"name":"مار متر","other_names":{"ref":"65","name:ar":"مار متر","name:de":"Mar Mitr","name:en":"Mar Mitr","name:fr":"Mar Mitr"},"display_name":"مار متر, الأشرفية, محافظة بيروت, 1100, لبنان","address":{"city":"مار متر","municipality":"الأشرفية","state":"محافظة بيروت","ISO3166-2-lvl4":"LB-BA","postcode":"1100","country":"لبنان","country_code":"lb"},"osm_type":"relation","osm_id":7073430,"type":"administrative","location":[35.52132098300582,33.88893425],"bbox":[35.5175556,33.8865493,35.5253337,33.8913458],"inferred_type":"city"}
{"name":"مار مخايل","other_names":{"name:ar":"مار مخايل","name:de":"Mar Mikhael","name:en":"Mar Mikhael","name:fr":"Mar Mikhael"},"display_name":"مار مخايل, مدور, محافظة بيروت, 1104, لبنان","address":{"city":"مار مخايل","municipality":"مدور","state":"محافظة بيروت","ISO3166-2-lvl4":"LB-BA","postcode":"1104","country":"لبنان","country_code":"lb"},"osm_type":"relation","osm_id":7080256,"type":"administrative","location":[35.52395467493153,33.90115585],"bbox":[35.5197282,33.8956888,35.5277624,33.9069768],"inferred_type":"city"}
{"name":"مار مرون","other_names":{"name:ar":"مار مرون","name:de":"Mar Maroun","name:en":"Mar Maroun","name:fr":"Mar Maroun"},"display_name":"مار مرون, الصيفي, محافظة بيروت, لبنان","address":{"city":"مار مرون","municipality":"الصيفي","state":"محافظة بيروت","ISO3166-2-lvl4":"LB-BA","country":"لبنان","country_code":"lb"},"osm_type":"relation","osm_id":7074036,"type":"administrative","location":[35.508771327625226,33.893407749999994],"bbox":[35.506346,33.8915232,35.5115153,33.8951019],"inferred_type":"city"}
{"name":"مار نيكولا","other_names":{"name:ar":"مار نيكولا","name:de":"Mar Nicolas","name:en":"Mar Nicolas","name:fr":"Mar Nicolas"},"display_name":"مار نيكولا, الرميل, محافظة بيروت, لبنان","address":{"city":"مار نيكولا","municipality":"الرميل","state":"محافظة بيروت","ISO3166-2-lvl4":"LB-BA","country":"لبنان","country_code":"lb"},"osm_type":"relation","osm_id":7118487,"type":"administrative","location":[35.51481889095278,33.893183500000006],"bbox":[35.5109896,33.8912881,35.5194508,33.8951177],"inferred_type":"city"}
{"name":"مستشفى الروم","other_names":{"name:ar":"مستشفى الروم","name:en":"Orthodox Hospital","name:fr":"Hôpital Orthodoxe"},"display_name":"مستشفى الروم, الرميل, محافظة بيروت, لبنان","address":{"city":"مستشفى الروم","municipality":"الرميل","state":"محافظة بيروت","ISO3166-2-lvl4":"LB-BA","country":"لبنان","country_code":"lb"},"osm_type":"relation","osm_id":7074950,"type":"administrative","location":[35.525157702296994,33.89431545],"bbox":[35.5230739,33.891206,35.5273549,33.8974097],"inferred_type":"city"}
{"name":"نطقة ميناء الحصن","other_names":{"ref":"20","name:ar":"نطقة ميناء الحصن","name:en":"Secteur Minet El Hosn","name:fr":"Secteur Minet El Hosn","alt_name:ar":"ميناء الحصن","short_name:ar":"ميناء الحصن"},"display_name":"نطقة ميناء الحصن, ميناء الحصن, محافظة بيروت, لبنان","address":{"city":"نطقة ميناء الحصن","municipality":"ميناء الحصن","state":"محافظة بيروت","ISO3166-2-lvl4":"LB-BA","country":"لبنان","country_code":"lb"},"osm_type":"relation","osm_id":7083322,"type":"administrative","location":[35.49810157210722,33.900987400000005],"bbox":[35.4928107,33.8985735,35.5032899,33.9030507],"inferred_type":"city"}
