{"name":"Bayada","other_names":{"name:en":"Bayada","name:fr":"Bayada"},"display_name":"Bayada, جزين, قضاء جزين, محافظة الجنوب, 1623, لبنان","address":{"hamlet":"Bayada","town":"جزين","state_district":"قضاء جزين","state":"محافظة الجنوب","ISO3166-2-lvl4":"LB-JA","postcode":"1623","country":"لبنان","country_code":"lb"},"osm_type":"node","osm_id":12025576642,"type":"hamlet","location":[35.5656758,33.5242192],"bbox":[35.5456758,33.5042192,35.5856758,33.5442192]}
{"name":"إسكندرونة","other_names":{"name:ar":"إسكندرونة","name:de":"Iskandaruna","name:en":"Iskandaruna","name:fr":"Iskandaruna","alt_name":"Iskanndarouna;Iskandarouna","alt_name:ar":"اسكندرونا;إسكندرونا"},"display_name":"إسكندرونة, البياضة, إسكندرونة, قضاء صور, محافظة الجنوب, لبنان","address":{"hamlet":"إسكندرونة","village":"البياضة","municipality":"إسكندرونة","state_district":"قضاء صور","state":"محافظة الجنوب","ISO3166-2-lvl4":"LB-JA","country":"لبنان","country_code":"lb"},"osm_type":"node","osm_id":6344226771,"type":"hamlet","location":[35.1724367,33.1524913],"bbox":[35.1524367,33.1324913,35.1924367,33.1724913],"border":{"name":"إسكندرونة","other_names":{"name:ar":"إسكندرونة","name:en":"Iskandarouna","name:fr":"Iskandarouna"},"display_name":"إسكندرونة, قضاء صور, محافظة الجنوب, لبنان","address":{"municipality":"إسكندرونة","state_district":"قضاء صور","state":"محافظة الجنوب","ISO3166-2-lvl4":"LB-JA","country":"لبنان","country_code":"lb"},"osm_type":"relation","osm_id":12192446,"type":"administrative","location":[35.17959800576175,33.1533709],"bbox":[35.1590093,33.1380501,35.2070318,33.1686502]}}
{"name":"الزعرورة","other_names":{"name:ar":"الزعرورة","name:de":"Ez Zaaroura","name:en":"Al Zaaroura","name:fr":"Ez Zaaroura","alt_name":"Az Zu`rurah;Az Zu`rūrah;Ez Zaaroûra"},"display_name":"الزعرورة, تعلبايا, قضاء زحلة, محافظة البقاع, 1802, لبنان","address":{"hamlet":"الزعرورة","village":"تعلبايا","municipality":"تعلبايا","state_district":"قضاء زحلة","state":"محافظة البقاع","ISO3166-2-lvl4":"LB-BI","postcode":"1802","country":"لبنان","country_code":"lb"},"osm_type":"node","osm_id":564376469,"type":"hamlet","location":[35.8708333,33.8125],"bbox":[35.8508333,33.7925,35.8908333,33.8325]}
{"name":"السياحة","other_names":{"name:ar":"السياحة","name:de":"As Siyaha","name:en":"As Siyaha"},"display_name":"السياحة, المنصوري, قضاء صور, محافظة الجنوب, لبنان","address":{"hamlet":"السياحة","village":"المنصوري","municipality":"المنصوري","state_district":"قضاء صور","state":"محافظة الجنوب","ISO3166-2-lvl4":"LB-JA","country":"لبنان","country_code":"lb"},"osm_type":"node","osm_id":6489727877,"type":"hamlet","location":[35.2091218,33.1794808],"bbox":[35.1891218,33.1594808,35.2291218,33.1994808]}
{"name":"الضيعة","other_names":{"name:ar":"الضيعة"},"display_name":"الضيعة, عانوت, قضاء الشوف, محافظة جبل لبنان, لبنان","address":{"hamlet":"الضيعة","village":"عانوت","municipality":"عانوت","state_district":"قضاء الشوف","state":"محافظة جبل لبنان","ISO3166-2-lvl4":"LB-JL","country":"لبنان","country_code":"lb"},"osm_type":"node","osm_id":268989140,"type":"hamlet","location":[35.5121526,33.6290803],"bbox":[35.4921526,33.6090803,35.5321526,33.6490803]}
{"name":"القاطع","other_names":{"name:ar":"القاطع"},"display_name":"القاطع, عانوت, قضاء الشوف, محافظة جبل لبنان, لبنان","address":{"hamlet":"القاطع","village":"عانوت","municipality":"عانوت","state_district":"قضاء الشوف","state":"محافظة جبل لبنان","ISO3166-2-lvl4":"LB-JL","country":"لبنان","country_code":"lb"},"osm_type":"node","osm_id":258400274,"type":"hamlet","location":[35.5182677,33.6244623],"bbox":[35.4982677,33.6044623,35.5382677,33.6444623]}
{"name":"القبيات","other_names":{"name:ar":"القبيات","name:de":"Qobaiyat","name:en":"Qobaiyat","name:fr":"Qobaiyat"},"display_name":"القبيات, الرميل, محافظة بيروت, 2078, لبنان","address":{"hamlet":"القبيات","city":"القبيات","municipality":"الرميل","state":"محافظة بيروت","ISO3166-2-lvl4":"LB-BA","postcode":"2078","country":"لبنان","country_code":"lb"},"osm_type":"node","osm_id":4762297031,"type":"hamlet","location":[35.5342344,33.8948019],"bbox":[35.5142344,33.8748019,35.5542344,33.9148019],"border":{"name":"القبيات","other_names":{"name:ar":"القبيات","name:de":"Qobaiyat","name:en":"Qobaiyat","name:fr":"Qobaiyat"},"display_name":"القبيات, الرميل, محافظة بيروت, لبنان","address":{"city":"القبيات","municipality":"الرميل","state":"محافظة بيروت","ISO3166-2-lvl4":"LB-BA","country":"لبنان","country_code":"lb"},"osm_type":"relation","osm_id":7080211,"type":"administrative","location":[35.53427362469821,33.89494555],"bbox":[35.5288318,33.8926452,35.5367954,33.8972078]}}
{"name":"القلعة","other_names":{"name:ar":"القلعة","name:en":"Qalaa"},"display_name":"القلعة, حلتا, كفر شوبا, قضاء حاصبيا, محافظة النبطية, لبنان","address":{"hamlet":"القلعة","village":"حلتا","municipality":"كفر شوبا","state_district":"قضاء حاصبيا","state":"محافظة النبطية","ISO3166-2-lvl4":"LB-NA","country":"لبنان","country_code":"lb"},"osm_type":"node","osm_id":6563281945,"type":"hamlet","location":[35.6640484,33.3026351],"bbox":[35.6440484,33.2826351,35.6840484,33.3226351]}
{"name":"الكساير","other_names":{"name:ar":"الكساير"},"display_name":"الكساير, كفرقوق, قضاء راشيا, محافظة البقاع, لبنان","address":{"hamlet":"الكساير","municipality":"كفرقوق","state_district":"قضاء راشيا","state":"محافظة البقاع","ISO3166-2-lvl4":"LB-BI","country":"لبنان","country_code":"lb"},"osm_type":"node","osm_id":5832182846,"type":"hamlet","location":[35.866167,33.5341682],"bbox":[35.846167,33.5141682,35.886167,33.5541682]}
{"name":"المنطقة المستحدثة","other_names":{"name:ar":"المنطقة المستحدثة","name:de":"Neuer Sektor","name:en":"New Sector","name:eu":"Sektore Berria","name:fr":"Nouveau Secteur"},"display_name":"المنطقة المستحدثة, المرفأ, محافظة بيروت, 2033 9105, لبنان","address":{"hamlet":"المنطقة المستحدثة","city":"المنطقة المستحدثة","municipality":"المرفأ","state":"محافظة بيروت","ISO3166-2-lvl4":"LB-BA","postcode":"2033 9105","country":"لبنان","country_code":"lb"},"osm_type":"node","osm_id":387261948,"type":"hamlet","location":[35.5053319,33.9052059],"bbox":[35.4853319,33.8852059,35.5253319,33.9252059],"border":{"name":"المنطقة المستحدثة","other_names":{"ref":"00","name:ar":"المنطقة المستحدثة","name:de":"Neuer Sektor","name:en":"New Sector","name:eu":"Sektore Berria","name:fr":"Nouveau Secteur"},"display_name":"المنطقة المستحدثة, المرفأ, محافظة بيروت, لبنان","address":{"city":"المنطقة المستحدثة","municipality":"المرفأ","state":"محافظة بيروت","ISO3166-2-lvl4":"LB-BA","country":"لبنان","country_code":"lb"},"osm_type":"relation","osm_id":7094693,"type":"administrative","location":[35.52307600855788,33.90870945],"bbox":[35.4935554,33.9012013,35.5331084,33.9161128]}}
{"name":"الوعرات","other_names":{"name:ar":"الوعرات"},"display_name":"الوعرات, كفرقوق, قضاء راشيا, محافظة البقاع, لبنان","address":{"hamlet":"الوعرات","municipality":"كفرقوق","state_district":"قضاء راشيا","state":"محافظة البقاع","ISO3166-2-lvl4":"LB-BI","country":"لبنان","country_code":"lb"},"osm_type":"node","osm_id":5832183006,"type":"hamlet","location":[35.910832,33.5575704],"bbox":[35.890832,33.5375704,35.930832,33.5775704]}
{"name":"بئر القنديل","other_names":{"name:ar":"بئر القنديل","name:de":"Bir el Qandeel","name:en":"Bir el Qandeel","name:fr":"Bir el Qandeel"},"display_name":"بئر القنديل, النبطية التحتا, نبطية التحتا, قضاء النبطية, محافظة النبطية, 1700, لبنان","address":{"hamlet":"بئر القنديل","city":"النبطية التحتا","municipality":"نبطية التحتا","state_district":"قضاء النبطية","state":"محافظة النبطية","ISO3166-2-lvl4":"LB-NA","postcode":"1700","country":"لبنان","country_code":"lb"},"osm_type":"node","osm_id":2707897372,"type":"hamlet","location":[35.4808112,33.3760784],"bbox":[35.4608112,33.3560784,35.5008112,33.3960784]}
{"name":"بطيشية","other_names":{"name:ar":"بطيشية","name:en":"Al Butayshiyya","name:fr":"Btaychiyeh","alt_name":"Btaichiye","alt_name:ar":"البطيشية;البطيشة"},"display_name":"بطيشية, قضاء صور, محافظة الجنوب, لبنان","address":{"hamlet":"بطيشية","municipality":"بطيشية","state_district":"قضاء صور","state":"محافظة الجنوب","ISO3166-2-lvl4":"LB-JA","country":"لبنان","country_code":"lb"},"osm_type":"node","osm_id":529953286,"type":"hamlet","location":[35.209298,33.1055687],"bbox":[35.189298,33.0855687,35.229298,33.1255687],"border":{"name":"بطيشية","other_names":{"name:ar":"بطيشية","name:en":"Btaychiyeh","name:fr":"Btaychiyeh"},"display_name":"بطيشية, قضاء صور, محافظة الجنوب, لبنان","address":{"municipality":"بطيشية","state_district":"قضاء صور","state":"محافظة الجنوب","ISO3166-2-lvl4":"LB-JA","country":"لبنان","country_code":"lb"},"osm_type":"relation","osm_id":11564278,"type":"administrative","location":[35.207451589781186,33.1098918],"bbox":[35.1947905,33.0985685,35.2167276,33.1213106]}}
{"name":"تلة جورة النجاص","other_names":{"name:ar":"تلة جورة النجاص","name:fr":"Tallet Jouret en Njas"},"display_name":"تلة جورة النجاص, مراح الخوخ, قضاء عكار, محافظة عكار, لبنان","address":{"hamlet":"تلة جورة النجاص","village":"مراح الخوخ","state_district":"قضاء عكار","state":"محافظة عكار","ISO3166-2-lvl4":"LB-AK","country":"لبنان","country_code":"lb"},"osm_type":"node","osm_id":5850107277,"type":"hamlet","location":[36.3589126,34.5763622],"bbox":[36.3389126,34.5563622,36.3789126,34.5963622]}
{"name":"جبل عين التينة","other_names":{"name:ar":"جبل عين التينة","name:fr":"Jabel Aïn et Tīné"},"display_name":"جبل عين التينة, عين التينة, قضاء البقاع الغربي, محافظة البقاع, لبنان","address":{"hamlet":"جبل عين التينة","village":"عين التينة","municipality":"عين التينة","state_district":"قضاء البقاع الغربي","state":"محافظة البقاع","ISO3166-2-lvl4":"LB-BI","country":"لبنان","country_code":"lb"},"osm_type":"node","osm_id":5827129389,"type":"hamlet","location":[35.6317078,33.5072068],"bbox":[35.6117078,33.4872068,35.6517078,33.5272068]}
{"name":"ججيم","other_names":{"name:ar":"ججيم","name:en":"Jijim","name:fr":"Jijim","alt_name":"Jejim;Jijim"},"display_name":"ججيم, قضاء صور, محافظة الجنوب, لبنان","address":{"hamlet":"ججيم","municipality":"ججيم","state_district":"قضاء صور","state":"محافظة الجنوب","ISO3166-2-lvl4":"LB-JA","country":"لبنان","country_code":"lb"},"osm_type":"node","osm_id":6344226694,"type":"hamlet","location":[35.1930378,33.123234],"bbox":[35.1730378,33.103234,35.2130378,33.143234],"border":{"name":"ججيم","other_names":{"name:ar":"ججيم","name:en":"Jijim","name:fr":"Jijim"},"display_name":"ججيم, قضاء صور, محافظة الجنوب, لبنان","address":{"municipality":"ججيم","state_district":"قضاء صور","state":"محافظة الجنوب","ISO3166-2-lvl4":"LB-JA","country":"لبنان","country_code":"lb"},"osm_type":"relation","osm_id":12667387,"type":"administrative","location":[35.19025270074896,33.12742085],"bbox":[35.1792319,33.1173138,35.201447,33.1375063]}}
{"name":"جرديح","other_names":{"name:ar":"جرديح","name:de":"Jurdeih","name:en":"Jurdeih","name:fr":"Jourdeih"},"display_name":"جرديح, المطمورة, ظهيرة, قضاء صور, محافظة الجنوب, لبنان","address":{"hamlet":"جرديح","village":"المطمورة","municipality":"ظهيرة","state_district":"قضاء صور","state":"محافظة الجنوب","ISO3166-2-lvl4":"LB-JA","country":"لبنان","country_code":"lb"},"osm_type":"node","osm_id":278473401,"type":"hamlet","location":[35.216927,33.1002392],"bbox":[35.196927,33.0802392,35.236927,33.1202392]}
{"name":"جسر الواطي","other_names":{"name:ar":"جسر الواطي","name:de":"Jisr al Wati","name:en":"Jisr al Wati","name:fr":"Jisr al Wati"},"display_name":"جسر الواطي, سن الفيل, قضاء المتن, محافظة جبل لبنان, 1203, لبنان","address":{"hamlet":"جسر الواطي","town":"سن الفيل","municipality":"سن الفيل","state_district":"قضاء المتن","state":"محافظة جبل لبنان","ISO3166-2-lvl4":"LB-JL","postcode":"1203","country":"لبنان","country_code":"lb"},"osm_type":"node","osm_id":291444016,"type":"hamlet","location":[35.5327775,33.8798436],"bbox":[35.5127775,33.8598436,35.5527775,33.8998436]}
{"name":"جلال عيرم","other_names":{"name:ar":"جلال عيرم","name:de":"Jlall Aairam","name:en":"Jlall Aairam","name:fr":"Jlall Aairam"},"display_name":"جلال عيرم, صيدا الدكرمان, صيدا, قضاء صيدا, محافظة الجنوب, 1600, لبنان","address":{"hamlet":"جلال عيرم","city_district":"صيدا الدكرمان","city":"صيدا","state_district":"قضاء صيدا","state":"محافظة الجنوب","ISO3166-2-lvl4":"LB-JA","postcode":"1600","country":"لبنان","country_code":"lb"},"osm_type":"node","osm_id":386776547,"type":"hamlet","location":[35.3670406,33.5532562],"bbox":[35.3470406,33.5332562,35.3870406,33.5732562]}
{"name":"حارة حمزة","other_names":{"name:ar":"حارة حمزة","name:en":"Haret Hamzeh","name:fr":"Haret Hamzeh"},"display_name":"حارة حمزة, قضاء بعبدا, محافظة جبل لبنان, لبنان","address":{"hamlet":"حارة حمزة","municipality":"حارة حمزة","state_district":"قضاء بعبدا","state":"محافظة جبل لبنان","ISO3166-2-lvl4":"LB-JL","country":"لبنان","country_code":"lb"},"osm_type":"node","osm_id":12739547720,"type":"hamlet","location":[35.6652152,33.8208852],"bbox":[35.6452152,33.8008852,35.6852152,33.8408852],"border":{"name":"حارة حمزة","other_names":{"name:ar":"حارة حمزة","name:en":"Haret Hamzeh","name:fr":"Haret Hamzeh"},"display_name":"حارة حمزة, قضاء بعبدا, محافظة جبل لبنان, لبنان","address":{"municipality":"حارة حمزة","state_district":"قضاء بعبدا","state":"محافظة جبل لبنان","ISO3166-2-lvl4":"LB-JL","country":"لبنان","country_code":"lb"},"osm_type":"relation","osm_id":18962283,"type":"administrative","location":[35.66157421145817,33.82113925],"bbox":[35.6526518,33.8117961,35.6699252,33.8298138]}}
{"name":"حامول","other_names":{"name:ar":"حامول","name:de":"Hamul","name:en":"Hamoul","name:fr":"Hamoul","name:he":"חמול","alt_name:en":"Hamoul"},"display_name":"حامول, قضاء صور, محافظة الجنوب, لبنان","address":{"hamlet":"حامول","municipality":"حامول","state_district":"قضاء صور","state":"محافظة الجنوب","ISO3166-2-lvl4":"LB-JA","country":"لبنان","country_code":"lb"},"osm_type":"node","osm_id":6128278995,"type":"hamlet","location":[35.1666018,33.1258618],"bbox":[35.1466018,33.1058618,35.1866018,33.1458618],"border":{"name":"حامول","other_names":{"name:ar":"حامول","name:en":"Hamoul","name:fr":"Hamoul"},"display_name":"حامول, قضاء صور, محافظة الجنوب, لبنان","address":{"municipality":"حامول","state_district":"قضاء صور","state":"محافظة الجنوب","ISO3166-2-lvl4":"LB-JA","country":"لبنان","country_code":"lb"},"osm_type":"relation","osm_id":11359248,"type":"administrative","location":[35.16834175827918,33.135890700000004],"bbox":[35.1471999,33.1200241,35.1899814,33.1514177]}}
{"name":"حي الراهبات","other_names":{"name:ar":"حي الراهبات","name:de":"Al Rahibbat","name:en":"Al Rahibbat"},"display_name":"حي الراهبات, النبطية, نبطية التحتا, قضاء النبطية, محافظة النبطية, 1700, لبنان","address":{"hamlet":"حي الراهبات","city":"النبطية","municipality":"نبطية التحتا","state_district":"قضاء النبطية","state":"محافظة النبطية","ISO3166-2-lvl4":"LB-NA","postcode":"1700","country":"لبنان","country_code":"lb"},"osm_type":"way","osm_id":1358373251,"type":"hamlet","location":[35.48607335350107,33.3829272],"bbox":[35.485974,33.3828427,35.4861727,33.3829994]}
{"name":"حي الروم","other_names":{"name:ar":"حي الروم","name:de":"Hai er Roum","name:en":"Hai er Roum","name:fr":"Hai er Roum","alt_name":"Haï er Roum"},"display_name":"حي الروم, جل الديب, قضاء المتن, محافظة جبل لبنان, 1201, لبنان","address":{"hamlet":"حي الروم","village":"جل الديب","municipality":"جل الديب","state_district":"قضاء المتن","state":"محافظة جبل لبنان","ISO3166-2-lvl4":"LB-JL","postcode":"1201","country":"لبنان","country_code":"lb"},"osm_type":"node","osm_id":564367612,"type":"hamlet","location":[35.5888394,33.9051102],"bbox":[35.5688394,33.8851102,35.6088394,33.9251102]}
{"name":"حي السرايا","other_names":{"name:ar":"حي السرايا","name:de":"Assaraya","name:en":"Assaraya","name:fr":"Assaraya"},"display_name":"حي السرايا, النبطية التحتا, نبطية التحتا, قضاء النبطية, محافظة النبطية, 1700, لبنان","address":{"hamlet":"حي السرايا","city":"النبطية التحتا","municipality":"نبطية التحتا","state_district":"قضاء النبطية","state":"محافظة النبطية","ISO3166-2-lvl4":"LB-NA","postcode":"1700","country":"لبنان","country_code":"lb"},"osm_type":"node","osm_id":2707916722,"type":"hamlet","location":[35.4834559,33.3760144],"bbox":[35.4634559,33.3560144,35.5034559,33.3960144]}
{"name":"حي المسلخ","other_names":{"name:ar":"حي المسلخ","name:de":"Maslakh","name:en":"Maslakh","name:fr":"Maslakh"},"display_name":"حي المسلخ, النبطية التحتا, نبطية التحتا, قضاء النبطية, محافظة النبطية, لبنان","address":{"hamlet":"حي المسلخ","city":"النبطية التحتا","municipality":"نبطية التحتا","state_district":"قضاء النبطية","state":"محافظة النبطية","ISO3166-2-lvl4":"LB-NA","country":"لبنان","country_code":"lb"},"osm_type":"way","osm_id":1360611210,"type":"hamlet","location":[35.491502388313336,33.376021550000004],"bbox":[35.4913818,33.375923,35.491623,33.3761099]}
{"name":"حي المسيحيين","other_names":{"name:ar":"حي المسيحيين","name:en":"Christians Neighbourhood"},"display_name":"حي المسيحيين, النبطية التحتا, نبطية التحتا, قضاء النبطية, محافظة النبطية, 1700, لبنان","address":{"hamlet":"حي المسيحيين","city":"النبطية التحتا","municipality":"نبطية التحتا","state_district":"قضاء النبطية","state":"محافظة النبطية","ISO3166-2-lvl4":"LB-NA","postcode":"1700","country":"لبنان","country_code":"lb"},"osm_type":"node","osm_id":2707868905,"type":"hamlet","location":[35.4883452,33.3783069],"bbox":[35.4683452,33.3583069,35.5083452,33.3983069]}
{"name":"حي المشاع","other_names":{"name:ar":"حي المشاع","name:en":"Mashaa","name:fr":"Haï El Mchâa"},"display_name":"حي المشاع, النبطية, نبطية التحتا, قضاء النبطية, محافظة النبطية, 1700, لبنان","address":{"hamlet":"حي المشاع","city":"النبطية","municipality":"نبطية التحتا","state_district":"قضاء النبطية","state":"محافظة النبطية","ISO3166-2-lvl4":"LB-NA","postcode":"1700","country":"لبنان","country_code":"lb"},"osm_type":"node","osm_id":2707866489,"type":"hamlet","location":[35.4782035,33.3877176],"bbox":[35.4582035,33.3677176,35.4982035,33.4077176]}
{"name":"خلة حبيبي","other_names":{"name:ar":"خلة حبيبي"},"display_name":"خلة حبيبي, كفرقوق, قضاء راشيا, محافظة البقاع, لبنان","address":{"hamlet":"خلة حبيبي","municipality":"كفرقوق","state_district":"قضاء راشيا","state":"محافظة البقاع","ISO3166-2-lvl4":"LB-BI","country":"لبنان","country_code":"lb"},"osm_type":"node","osm_id":5832182847,"type":"hamlet","location":[35.8765056,33.5404699],"bbox":[35.8565056,33.5204699,35.8965056,33.5604699]}
{"name":"دير المخلص","other_names":{"name:ar":"دير المخلص","name:de":"Deir El Mkhalles","name:en":"Deir El Mkhalles","name:fr":"Deir El Mkhalles"},"display_name":"دير المخلص, العقبة, قضاء الشوف, محافظة جبل لبنان, 6644, لبنان","address":{"hamlet":"دير المخلص","village":"العقبة","state_district":"قضاء الشوف","state":"محافظة جبل لبنان","ISO3166-2-lvl4":"LB-JL","postcode":"6644","country":"لبنان","country_code":"lb"},"osm_type":"node","osm_id":6918958781,"type":"hamlet","location":[35.4795107,33.584326],"bbox":[35.4595107,33.564326,35.4995107,33.604326]}
{"name":"رأس المصري","other_names":{"name:ar":"رأس المصري","name:de":"Ras el Masri","name:en":"Ras el Masri","name:fr":"Ras el Masri","alt_name":"Raʾs al-Miṣrī"},"display_name":"رأس المصري, علما الشعب, قضاء صور, محافظة الجنوب, لبنان","address":{"hamlet":"رأس المصري","village":"علما الشعب","municipality":"علما الشعب","state_district":"قضاء صور","state":"محافظة الجنوب","ISO3166-2-lvl4":"LB-JA","country":"لبنان","country_code":"lb"},"osm_type":"node","osm_id":6344226273,"type":"hamlet","location":[35.1716986,33.1139341],"bbox":[35.1516986,33.0939341,35.1916986,33.1339341]}
{"name":"سفري","other_names":{"name:ar":"سفري","name:en":"Sifri","name:fr":"Sifri","alt_name":"Es Sifri"},"display_name":"سفري, خضر, قضاء بعلبك, محافظة بعلبك الهرمل, لبنان","address":{"hamlet":"سفري","municipality":"خضر","state_district":"قضاء بعلبك","state":"محافظة بعلبك الهرمل","ISO3166-2-lvl4":"LB-BH","country":"لبنان","country_code":"lb"},"osm_type":"node","osm_id":6772832025,"type":"hamlet","location":[36.0803502,33.9221596],"bbox":[36.0603502,33.9021596,36.1003502,33.9421596]}
{"name":"شربينه","other_names":{"name:ar":"شربينه","name:en":"Charbineh","name:fr":"Charbineh"},"display_name":"شربينه, مزرعة السياد, قضاء جبيل, محافظة كسروان جبيل, لبنان","address":{"hamlet":"شربينه","village":"مزرعة السياد","state_district":"قضاء جبيل","state":"محافظة كسروان جبيل","country":"لبنان","country_code":"lb"},"osm_type":"node","osm_id":6612995581,"type":"hamlet","location":[35.860974,34.118206],"bbox":[35.840974,34.098206,35.880974,34.138206]}
{"name":"ضهر الجمل","other_names":{"name:ar":"ضهر الجمل","name:de":"Dahr El Jammal","name:en":"Dahr Ej Jammal","name:fr":"Dahr Ej Jammal"},"display_name":"ضهر الجمل, سن الفيل, قضاء المتن, محافظة جبل لبنان, 1203, لبنان","address":{"hamlet":"ضهر الجمل","town":"سن الفيل","municipality":"سن الفيل","state_district":"قضاء المتن","state":"محافظة جبل لبنان","ISO3166-2-lvl4":"LB-JL","postcode":"1203","country":"لبنان","country_code":"lb"},"osm_type":"node","osm_id":291443088,"type":"hamlet","location":[35.5339981,33.8837442],"bbox":[35.5139981,33.8637442,35.5539981,33.9037442]}
{"name":"عمّاطور","other_names":{"name:ar":"عمّاطور","name:de":"Amatouri","name:en":"Amatouri","name:fr":"Aammatour"},"display_name":"عمّاطور, سن الفيل, قضاء المتن, محافظة جبل لبنان, 2703, لبنان","address":{"hamlet":"عمّاطور","town":"سن الفيل","municipality":"سن الفيل","state_district":"قضاء المتن","state":"محافظة جبل لبنان","ISO3166-2-lvl4":"LB-JL","postcode":"2703","country":"لبنان","country_code":"lb"},"osm_type":"node","osm_id":291444126,"type":"hamlet","location":[35.5335046,33.8753419],"bbox":[35.5135046,33.8553419,35.5535046,33.8953419]}
{"name":"كرم عقيل","other_names":{"name:ar":"كرم عقيل","name:en":"Karm Aaqil","name:fr":"Karm Aaqil"},"display_name":"كرم عقيل, ريحا, قضاء بعلبك, محافظة بعلبك الهرمل, لبنان","address":{"hamlet":"كرم عقيل","municipality":"ريحا","state_district":"قضاء بعلبك","state":"محافظة بعلبك الهرمل","ISO3166-2-lvl4":"LB-BH","country":"لبنان","country_code":"lb"},"osm_type":"node","osm_id":5829411590,"type":"hamlet","location":[36.2240168,34.141882],"bbox":[36.2040168,34.121882,36.2440168,34.161882]}
{"name":"كفر بدَه","other_names":{"name:ar":"كفر بدَه","name:en":"Kfar Beda","name:fr":"Kfar Beda"},"display_name":"كفر بدَه, قضاء صيدا, محافظة الجنوب, لبنان","address":{"hamlet":"كفر بدَه","municipality":"كفر بدَه","state_district":"قضاء صيدا","state":"محافظة الجنوب","ISO3166-2-lvl4":"LB-JA","country":"لبنان","country_code":"lb"},"osm_type":"node","osm_id":11229849592,"type":"hamlet","location":[35.2658075,33.3613638],"bbox":[35.2458075,33.3413638,35.2858075,33.3813638],"border":{"name":"كفر بدَه","other_names":{"name:ar":"كفر بدَه","name:en":"Kfar Beda","name:fr":"Kfar Beda"},"display_name":"كفر بدَه, قضاء صيدا, محافظة الجنوب, لبنان","address":{"municipality":"كفر بدَه","state_district":"قضاء صيدا","state":"محافظة الجنوب","ISO3166-2-lvl4":"LB-JA","country":"لبنان","country_code":"lb"},"osm_type":"relation","osm_id":16404078,"type":"administrative","location":[35.26964211522277,33.36681634999999],"bbox":[35.2602231,33.3601047,35.2770567,33.3727389]}}
{"name":"كفر قواص","other_names":{"name:ar":"كفر قواص","name:en":"Kfar Qouas","name:fr":"Kfar Qouas"},"display_name":"كفر قواص, قضاء جبيل, محافظة كسروان جبيل, 4504, لبنان","address":{"hamlet":"كفر قواص","municipality":"كفر قواص","state_district":"قضاء جبيل","state":"محافظة كسروان جبيل","postcode":"4504","country":"لبنان","country_code":"lb"},"osm_type":"node","osm_id":12961992474,"type":"hamlet","location":[35.6972408,34.1241242],"bbox":[35.6772408,34.1041242,35.7172408,34.1441242],"border":{"name":"كفر قواص","other_names":{"name:ar":"كفر قواص","name:en":"Kfar Qouas","name:fr":"Kfar Qouas"},"display_name":"كفر قواص, قضاء جبيل, محافظة كسروان جبيل, لبنان","address":{"municipality":"كفر قواص","state_district":"قضاء جبيل","state":"محافظة كسروان جبيل","country":"لبنان","country_code":"lb"},"osm_type":"relation","osm_id":19302271,"type":"administrative","location":[35.69921078863337,34.1230851],"bbox":[35.6940007,34.1197899,35.7050615,34.1265222]}}
{"name":"كوكبا السوق","other_names":{"name:ar":"أبو عرب"},"display_name":"كوكبا السوق, كوكبا, قضاء حاصبيا, محافظة النبطية, 1704, لبنان","address":{"hamlet":"كوكبا السوق","municipality":"كوكبا","state_district":"قضاء حاصبيا","state":"محافظة النبطية","ISO3166-2-lvl4":"LB-NA","postcode":"1704","country":"لبنان","country_code":"lb"},"osm_type":"node","osm_id":5832802679,"type":"hamlet","location":[35.6384678,33.3840797],"bbox":[35.6184678,33.3640797,35.6584678,33.4040797]}
{"name":"لبونة","other_names":{"name:ar":"لبونة","name:en":"Labbouneh","name:fr":"Labbouneh","name:he":"לבונה","alt_name:ar":"اللبونة;اللبّونة;لبوني","alt_name:en":"Labboune;Labbuna;Labouneh"},"display_name":"لبونة, علما الشعب, قضاء صور, محافظة الجنوب, لبنان","address":{"hamlet":"لبونة","municipality":"علما الشعب","state_district":"قضاء صور","state":"محافظة الجنوب","ISO3166-2-lvl4":"LB-JA","country":"لبنان","country_code":"lb"},"osm_type":"node","osm_id":6344226275,"type":"hamlet","location":[35.1486833,33.0933145],"bbox":[35.1286833,33.0733145,35.1686833,33.1133145]}
{"name":"مار سركيس","other_names":{"name:ar":"مار سركيس","name:en":"Mar Sarkis","name:fr":"Mar Sarkis"},"display_name":"مار سركيس, قضاء جبيل, محافظة كسروان جبيل, لبنان","address":{"hamlet":"مار سركيس","municipality":"مار سركيس","state_district":"قضاء جبيل","state":"محافظة كسروان جبيل","country":"لبنان","country_code":"lb"},"osm_type":"node","osm_id":6188269906,"type":"hamlet","location":[35.8564694,34.0974848],"bbox":[35.8364694,34.0774848,35.8764694,34.1174848],"border":{"name":"مار سركيس","other_names":{"name:ar":"مار سركيس","name:en":"Mar Sarkis","name:fr":"Mar Sarkis"},"display_name":"مار سركيس, قضاء جبيل, محافظة كسروان جبيل, لبنان","address":{"municipality":"مار سركيس","state_district":"قضاء جبيل","state":"محافظة كسروان جبيل","country":"لبنان","country_code":"lb"},"osm_type":"relation","osm_id":18242543,"type":"administrative","location":[35.85992687817611,34.0955251],"bbox":[35.8524442,34.0905896,35.866617,34.1015442]}}
{"name":"مزرعة أم الرب","other_names":{"name:ar":"مزرعة أم الرب","name:de":"Mazraat Umm ar-Rubb","name:en":"Mazraat Umm ar-Rubb","name:fr":"Mazraat Umm ar-Rubb","alt_name":"Mazraat Oum er Robb","alt_name:ar":"أم الرب"},"display_name":"مزرعة أم الرب, حامول, قضاء صور, محافظة الجنوب, لبنان","address":{"hamlet":"مزرعة أم الرب","municipality":"حامول","state_district":"قضاء صور","state":"محافظة الجنوب","ISO3166-2-lvl4":"LB-JA","country":"لبنان","country_code":"lb"},"osm_type":"node","osm_id":6344226770,"type":"hamlet","location":[35.1732568,33.14207],"bbox":[35.1532568,33.12207,35.1932568,33.16207]}
{"name":"مزرعة الخريبة","other_names":{"name:ar":"مزرعة الخريبة","name:en":"Mzaraat El Khreibeh","name:fr":"Mzaraat El Khreibeh"},"display_name":"مزرعة الخريبة, قضاء النبطية, محافظة النبطية, لبنان","address":{"hamlet":"مزرعة الخريبة","municipality":"مزرعة الخريبة","state_district":"قضاء النبطية","state":"محافظة النبطية","ISO3166-2-lvl4":"LB-NA","country":"لبنان","country_code":"lb"},"osm_type":"node","osm_id":12173791176,"type":"hamlet","location":[35.4581058,33.4724486],"bbox":[35.4381058,33.4524486,35.4781058,33.4924486],"border":{"name":"مزرعة الخريبة","other_names":{"name:ar":"مزرعة الخريبة","name:en":"Mzaraat El Khreibeh","name:fr":"Mzaraat El Khreibeh"},"display_name":"مزرعة الخريبة, قضاء النبطية, محافظة النبطية, لبنان","address":{"municipality":"مزرعة الخريبة","state_district":"قضاء النبطية","state":"محافظة النبطية","ISO3166-2-lvl4":"LB-NA","country":"لبنان","country_code":"lb"},"osm_type":"relation","osm_id":18038968,"type":"administrative","location":[35.45806599207887,33.4726365],"bbox":[35.4465508,33.4672756,35.4676437,33.4774064]}}
{"name":"مزرعة دير حنا","other_names":{"name:ar":"مزرعة دير حنا","name:de":"Mazraat Deir Hanna","name:en":"Mazraat Dayr Hanna","name:fr":"Mazraat Dair Hanna","alt_name":"Mazraat Deir Hanna"},"display_name":"مزرعة دير حنا, البياضة, إسكندرونة, قضاء صور, محافظة الجنوب, لبنان","address":{"hamlet":"مزرعة دير حنا","village":"البياضة","municipality":"إسكندرونة","state_district":"قضاء صور","state":"محافظة الجنوب","ISO3166-2-lvl4":"LB-JA","country":"لبنان","country_code":"lb"},"osm_type":"node","osm_id":6344226732,"type":"hamlet","location":[35.1784678,33.1585134],"bbox":[35.1584678,33.1385134,35.1984678,33.1785134]}
{"name":"مزيرعة بعبدا","other_names":{"name:ar":"مزيرعة بعبدا","name:en":"Mzairaa Baabda","name:fr":"Mzairaa Baabda"},"display_name":"مزيرعة بعبدا, قضاء بعبدا, محافظة جبل لبنان, 5101, لبنان","address":{"hamlet":"مزيرعة بعبدا","municipality":"مزيرعة بعبدا","state_district":"قضاء بعبدا","state":"محافظة جبل لبنان","ISO3166-2-lvl4":"LB-JL","postcode":"5101","country":"لبنان","country_code":"lb"},"osm_type":"node","osm_id":12681722280,"type":"hamlet","location":[35.6524372,33.829856],"bbox":[35.6324372,33.809856,35.6724372,33.849856],"border":{"name":"مزيرعة بعبدا","other_names":{"name:ar":"مزيرعة بعبدا","name:en":"Mzairaa Baabda","name:fr":"Mzairaa Baabda"},"display_name":"مزيرعة بعبدا, قضاء بعبدا, محافظة جبل لبنان, لبنان","address":{"municipality":"مزيرعة بعبدا","state_district":"قضاء بعبدا","state":"محافظة جبل لبنان","ISO3166-2-lvl4":"LB-JL","country":"لبنان","country_code":"lb"},"osm_type":"relation","osm_id":18861795,"type":"administrative","location":[35.65449144242889,33.8297758],"bbox":[35.647974,33.825988,35.6600976,33.8340091]}}
