{"name":"أميون","other_names":{"name:ar":"أميون","name:en":"Amioun","name:fr":"Amioun","name:ml":"അമിയൂൺ"},"display_name":"أميون, قضاء الكورة, محافظة الشمال, 1306, لبنان","address":{"town":"أميون","state_district":"قضاء الكورة","state":"محافظة الشمال","ISO3166-2-lvl4":"LB-AS","postcode":"1306","country":"لبنان","country_code":"lb"},"osm_type":"node","osm_id":5659045412,"type":"town","location":[35.816685,34.3004082],"bbox":[35.776685,34.2604082,35.856685,34.3404082],"border":{"name":"أميون","other_names":{"name:ar":"أميون","name:en":"Amioun","name:fr":"Amioun","name:ml":"അമിയൂൺ"},"display_name":"أميون, قضاء الكورة, محافظة الشمال, 1306, لبنان","address":{"town":"أميون","state_district":"قضاء الكورة","state":"محافظة الشمال","ISO3166-2-lvl4":"LB-AS","postcode":"1306","country":"لبنان","country_code":"lb"},"osm_type":"relation","osm_id":8347406,"type":"administrative","location":[35.816685,34.3004082],"bbox":[35.7756042,34.2798435,35.8278965,34.3199048]}}
{"name":"أنطلياس","other_names":{"name:ar":"أنطلياس","name:de":"Antelias","name:en":"Antelias","name:fr":"Antelias","name:ml":"ആൻ്റിലിയാസ്"},"display_name":"أنطلياس, قضاء المتن, محافظة جبل لبنان, 1201, لبنان","address":{"town":"أنطلياس","municipality":"أنطلياس","state_district":"قضاء المتن","state":"محافظة جبل لبنان","ISO3166-2-lvl4":"LB-JL","postcode":"1201","country":"لبنان","country_code":"lb"},"osm_type":"node","osm_id":4703987182,"type":"town","location":[35.5936231,33.9123639],"bbox":[35.5536231,33.8723639,35.6336231,33.9523639],"border":{"name":"أنطلياس","other_names":{"name:ar":"أنطلياس","name:en":"Antelias","name:fr":"Antelias"},"display_name":"أنطلياس, قضاء المتن, محافظة جبل لبنان, 1201, لبنان","address":{"municipality":"أنطلياس","state_district":"قضاء المتن","state":"محافظة جبل لبنان","ISO3166-2-lvl4":"LB-JL","postcode":"1201","country":"لبنان","country_code":"lb"},"osm_type":"relation","osm_id":7322344,"type":"administrative","location":[35.586627538054174,33.9142355],"bbox":[35.578938,33.9054538,35.6124061,33.922618]}}
{"name":"إهدن","other_names":{"name:ar":"إهدن","name:de":"Ehden","name:en":"Ehden","name:fa":"اهدن","name:fr":"Ehden","name:ml":"എഹ്ദെൻ"},"display_name":"إهدن, قضاء زغرتا, محافظة الشمال, لبنان","address":{"town":"إهدن","state_district":"قضاء زغرتا","state":"محافظة الشمال","ISO3166-2-lvl4":"LB-AS","country":"لبنان","country_code":"lb"},"osm_type":"node","osm_id":5051679201,"type":"town","location":[35.9656763,34.2906583],"bbox":[35.9256763,34.2506583,36.0056763,34.3306583]}
{"name":"البازورية","other_names":{"name:ar":"البازورية","name:de":"Al Bazuriya","name:en":"Al Bazuriya","name:fr":"Al Bazuriya","name:he":"באזוריה","name:ml":"ബാസൂറിയ","alt_name:ar":"بازورية;البازوريه","alt_name:en":"Bazouriyeh;Bazouriye;al-Bazouriyeh;Bazourieh"},"display_name":"البازورية, بازورية, قضاء صور, محافظة الجنوب, لبنان","address":{"town":"البازورية","municipality":"بازورية","state_district":"قضاء صور","state":"محافظة الجنوب","ISO3166-2-lvl4":"LB-JA","country":"لبنان","country_code":"lb"},"osm_type":"node","osm_id":5852580191,"type":"town","location":[35.2713871,33.2533555],"bbox":[35.2313871,33.2133555,35.3113871,33.2933555],"border":{"name":"بازورية","other_names":{"name:ar":"بازورية","name:en":"Bazouriyeh","name:fr":"Bazouriyeh"},"display_name":"بازورية, قضاء صور, محافظة الجنوب, لبنان","address":{"municipality":"بازورية","state_district":"قضاء صور","state":"محافظة الجنوب","ISO3166-2-lvl4":"LB-JA","country":"لبنان","country_code":"lb"},"osm_type":"relation","osm_id":17404463,"type":"administrative","location":[35.2657673564233,33.25349265],"bbox":[35.2403855,33.2371441,35.2961969,33.2699278]}}
{"name":"البترون","other_names":{"name:ar":"البترون","name:de":"Batrun","name:el":"Μπατρούν","name:en":"Batroun","name:es":"Batrún","name:eu":"Batroun","name:fa":"البترون","name:fr":"Batroûn","name:he":"בתרון","name:hr":"Batrun","name:hy":"Ալ-Բաթրուն","name:ks":"البترون","name:ml":"ബത്രൂൺ","name:sl":"Batrun","name:tr":"Betrun","name:uk":"Батрун","name:ur":"البترون","name:arc":"ܒܬܪܘܢ","name:azb":"البترون","name:grc":"Βοτρύς","name:mzn":"البترون","name:syc":"ܒܬܪܘܢ","alt_name:el":"Μπατρούνα","alt_name:grc":"Βοθρύς","name:az-Arab":"البترون"},"display_name":"البترون, قضاء البترون, محافظة الشمال, لبنان","address":{"town":"البترون","state_district":"قضاء البترون","state":"محافظة الشمال","ISO3166-2-lvl4":"LB-AS","country":"لبنان","country_code":"lb"},"population":45000,"osm_type":"node","osm_id":4746546642,"type":"town","location":[35.6588567,34.2548879],"bbox":[35.6188567,34.2148879,35.6988567,34.2948879],"border":{"name":"البترون","other_names":{"name:ar":"البترون","name:de":"Batrun","name:el":"Μπατρούν","name:en":"Batroun","name:es":"Batrún","name:fa":"البترون","name:fr":"Batroûn","name:hy":"Ալ-Բաթրուն","name:ks":"البترون","name:ur":"البترون","name:arc":"ܒܬܪܘܢ","name:azb":"البترون","name:grc":"Βοτρύς","name:mzn":"البترون","name:syc":"ܒܬܪܘܢ","alt_name:el":"Μπατρούνα","alt_name:grc":"Βοθρύς","name:az-Arab":"البترون","name:eu":"Batroun","name:he":"בתרון","name:hr":"Batrun","name:ml":"ബത്രൂൺ","name:sl":"Batrun","name:tr":"Betrun","name:uk":"Батрун"},"display_name":"البترون, قضاء البترون, محافظة الشمال, 1400, لبنان","address":{"town":"البترون","state_district":"قضاء البترون","state":"محافظة الشمال","ISO3166-2-lvl4":"LB-AS","postcode":"1400","country":"لبنان","country_code":"lb"},"population":45000,"osm_type":"relation","osm_id":9200211,"type":"administrative","location":[35.6588567,34.2548879],"bbox":[35.6554842,34.2404374,35.686469,34.2728574]}}
{"name":"الجية","other_names":{"name:ar":"الجية","name:de":"Jieh","name:en":"Jieh","name:fa":"الجیة","name:fr":"Jieh","name:ml":"ജിയെ","alt_name":"جية","alt_name:ar":"جية"},"display_name":"الجية, قضاء الشوف, محافظة جبل لبنان, لبنان","address":{"town":"الجية","state_district":"قضاء الشوف","state":"محافظة جبل لبنان","ISO3166-2-lvl4":"LB-JL","country":"لبنان","country_code":"lb"},"osm_type":"node","osm_id":5764388273,"type":"town","location":[35.4036543,33.6455445],"bbox":[35.3636543,33.6055445,35.4436543,33.6855445],"border":{"name":"الجية","other_names":{"name:ar":"الجية","name:de":"Jieh","name:en":"Jieh","name:fa":"الجیة","name:fr":"Jieh","alt_name":"جية","alt_name:ar":"جية","alt_name:en":"Jiyeh","name:ml":"ജിയെ"},"display_name":"الجية, قضاء الشوف, محافظة جبل لبنان, لبنان","address":{"town":"الجية","state_district":"قضاء الشوف","state":"محافظة جبل لبنان","ISO3166-2-lvl4":"LB-JL","country":"لبنان","country_code":"lb"},"osm_type":"relation","osm_id":9093670,"type":"administrative","location":[35.4036543,33.6455445],"bbox":[35.3978724,33.6407763,35.4411649,33.6899668]}}
{"name":"الحوش","other_names":{"name:ar":"الحوش","name:en":"Hosh","name:fr":"El Haouch","name:ml":"ഹോഷ്","alt_name":"Haouch"},"display_name":"الحوش, عين بعل, قضاء صور, محافظة الجنوب, لبنان","address":{"town":"الحوش","municipality":"عين بعل","state_district":"قضاء صور","state":"محافظة الجنوب","ISO3166-2-lvl4":"LB-JA","country":"لبنان","country_code":"lb"},"osm_type":"node","osm_id":8913085270,"type":"town","location":[35.2384758,33.2434255],"bbox":[35.1984758,33.2034255,35.2784758,33.2834255]}
{"name":"الضبية","other_names":{"name:ar":"الضبية","name:en":"Dbayeh","name:fr":"Dbayeh","name:ml":"ദുബയ്യ","alt_name:ar":"ضبية‎‎‎‎;ضبيه","alt_name:en":"Dbaye;Dbaiye;Ad Dubayya;Ad-Dubayya"},"display_name":"الضبية, الضبية‎‎, قضاء المتن, محافظة جبل لبنان, 2502, لبنان","address":{"town":"الضبية","municipality":"الضبية‎‎","state_district":"قضاء المتن","state":"محافظة جبل لبنان","ISO3166-2-lvl4":"LB-JL","postcode":"2502","country":"لبنان","country_code":"lb"},"osm_type":"node","osm_id":4703976395,"type":"town","location":[35.5937934,33.9420159],"bbox":[35.5537934,33.9020159,35.6337934,33.9820159],"border":{"name":"الضبية‎‎","other_names":{"name:ar":"الضبية‎‎","name:de":"Dbayeh","name:en":"Dbayeh","name:fr":"Dbayeh","alt_name:ar":"ضبية‎‎‎‎;ضبيه","alt_name:en":"Dbaye;Dbaiye"},"display_name":"الضبية‎‎, قضاء المتن, محافظة جبل لبنان, 2502, لبنان","address":{"municipality":"الضبية‎‎","state_district":"قضاء المتن","state":"محافظة جبل لبنان","ISO3166-2-lvl4":"LB-JL","postcode":"2502","country":"لبنان","country_code":"lb"},"osm_type":"relation","osm_id":7276833,"type":"administrative","location":[35.59118704945981,33.93883135],"bbox":[35.5814715,33.9254719,35.598376,33.95226]}}
{"name":"الطيبة","other_names":{"name:ar":"الطيبة","name:en":"Et Taibeh","name:fr":"Et Taibeh","name:he":"טייבה","name:ml":"തൈബ","alt_name":"طيبة","name:he1":"א-טייבה","alt_name:ar":"طيبة","alt_name:en":"Tayibe;At Taybah;At-Tayyiba"},"display_name":"الطيبة, طيبة, قضاء مرجعيون, محافظة النبطية, لبنان","address":{"town":"الطيبة","municipality":"طيبة","state_district":"قضاء مرجعيون","state":"محافظة النبطية","ISO3166-2-lvl4":"LB-NA","country":"لبنان","country_code":"lb"},"population":3000,"osm_type":"node","osm_id":5155720617,"type":"town","location":[35.5205286,33.2749784],"bbox":[35.4805286,33.2349784,35.5605286,33.3149784],"border":{"name":"طيبة","other_names":{"name:ar":"طيبة","name:en":"Taibeh","name:fr":"Taibeh"},"display_name":"طيبة, قضاء مرجعيون, محافظة النبطية, لبنان","address":{"municipality":"طيبة","state_district":"قضاء مرجعيون","state":"محافظة النبطية","ISO3166-2-lvl4":"LB-NA","country":"لبنان","country_code":"lb"},"osm_type":"relation","osm_id":13136624,"type":"administrative","location":[35.5140403154757,33.2790322],"bbox":[35.4936075,33.2599702,35.5327892,33.2996811]}}
{"name":"العباسية","other_names":{"name:ar":"العباسية","name:en":"Al Aabbasiyya","name:fr":"Aabbassiyeh","name:he":"עבאסיה","name:ml":"അൽ-അബ്ബാസിയ","alt_name:ar":"العبّاسية;العباسيّة;عباسية","alt_name:en":"Aabbassiyeh;Aabbassiye;Abbasiya"},"display_name":"العباسية, عباسية, قضاء صور, محافظة الجنوب, لبنان","address":{"town":"العباسية","municipality":"عباسية","state_district":"قضاء صور","state":"محافظة الجنوب","ISO3166-2-lvl4":"LB-JA","country":"لبنان","country_code":"lb"},"osm_type":"node","osm_id":6313979980,"type":"town","location":[35.2830699,33.2971048],"bbox":[35.2430699,33.2571048,35.3230699,33.3371048],"border":{"name":"عباسية","other_names":{"name:ar":"عباسية","name:en":"Aabbassiyeh","name:fr":"Aabbassiyeh"},"display_name":"عباسية, قضاء صور, محافظة الجنوب, لبنان","address":{"municipality":"عباسية","state_district":"قضاء صور","state":"محافظة الجنوب","ISO3166-2-lvl4":"LB-JA","country":"لبنان","country_code":"lb"},"osm_type":"relation","osm_id":16406028,"type":"administrative","location":[35.26899807759057,33.29336565],"bbox":[35.2093926,33.2721883,35.291605,33.3145707]}}
{"name":"الغازية","other_names":{"name:ar":"الغازية","name:de":"Ghaziyeh","name:en":"Ghaziyeh","name:fr":"Ghaziyeh","name:he":"ע'אזיה","name:ml":"ഗാസിയെ","alt_name:ar":"غازية","alt_name:en":"Ghaziye;Ghazieh"},"display_name":"الغازية, غازية, قضاء صيدا, محافظة الجنوب, 1600, لبنان","address":{"town":"الغازية","municipality":"غازية","state_district":"قضاء صيدا","state":"محافظة الجنوب","ISO3166-2-lvl4":"LB-JA","postcode":"1600","country":"لبنان","country_code":"lb"},"osm_type":"node","osm_id":6090945083,"type":"town","location":[35.372579,33.5193876],"bbox":[35.332579,33.4793876,35.412579,33.5593876],"border":{"name":"غازية","other_names":{"name:ar":"غازية","name:en":"Ghaziyeh","name:fr":"Ghaziyeh"},"display_name":"غازية, قضاء صيدا, محافظة الجنوب, لبنان","address":{"municipality":"غازية","state_district":"قضاء صيدا","state":"محافظة الجنوب","ISO3166-2-lvl4":"LB-JA","country":"لبنان","country_code":"lb"},"osm_type":"relation","osm_id":16330682,"type":"administrative","location":[35.373265664066025,33.51144055],"bbox":[35.3260553,33.4860417,35.3807187,33.5367684]}}
{"name":"الفنار","other_names":{"name:ar":"الفنار","name:en":"Fanar","name:fr":"Fanar","name:ml":"ഫനാർ","alt_name:ar":"فنار"},"display_name":"الفنار, قضاء المتن, محافظة جبل لبنان, 2611, لبنان","address":{"town":"الفنار","municipality":"الفنار","state_district":"قضاء المتن","state":"محافظة جبل لبنان","ISO3166-2-lvl4":"LB-JL","postcode":"2611","country":"لبنان","country_code":"lb"},"osm_type":"node","osm_id":6069187779,"type":"town","location":[35.5748183,33.8803602],"bbox":[35.5348183,33.8403602,35.6148183,33.9203602],"border":{"name":"الفنار","other_names":{"name:ar":"الفنار","name:en":"Fanar","name:fr":"Fanar","alt_name:ar":"فنار"},"display_name":"الفنار, قضاء المتن, محافظة جبل لبنان, 2611, لبنان","address":{"municipality":"الفنار","state_district":"قضاء المتن","state":"محافظة جبل لبنان","ISO3166-2-lvl4":"LB-JL","postcode":"2611","country":"لبنان","country_code":"lb"},"osm_type":"relation","osm_id":9106590,"type":"administrative","location":[35.5750096728705,33.8787799],"bbox":[35.5631303,33.8688477,35.5838155,33.8886932]}}
{"name":"القاع","other_names":{"name:ar":"القاع","name:de":"Qaa","name:en":"Qaa","name:es":"Qaa","name:fr":"Qaa","name:ml":"അൽ-ഖാ","alt_name":"Qaa;El Kaa;Al Qaa;El Qaa"},"display_name":"القاع, قضاء بعلبك, محافظة بعلبك الهرمل, لبنان","address":{"town":"القاع","state_district":"قضاء بعلبك","state":"محافظة بعلبك الهرمل","ISO3166-2-lvl4":"LB-BH","country":"لبنان","country_code":"lb"},"osm_type":"node","osm_id":5022971097,"type":"town","location":[36.4800435,34.3408227],"bbox":[36.4400435,34.3008227,36.5200435,34.3808227]}
{"name":"القبيات","other_names":{"name:ar":"القبيات","name:en":"Al Qoubaiyat","name:fr":"Koubayat","name:ml":"ഖുബൈയാത്ത്"},"display_name":"القبيات, قضاء عكار, محافظة عكار, 5599, لبنان","address":{"town":"القبيات","state_district":"قضاء عكار","state":"محافظة عكار","ISO3166-2-lvl4":"LB-AK","postcode":"5599","country":"لبنان","country_code":"lb"},"population":32000,"osm_type":"node","osm_id":5750147409,"type":"town","location":[36.2803399,34.568685],"bbox":[36.2403399,34.528685,36.3203399,34.608685]}
{"name":"الكحالة","other_names":{"name:ar":"الكحالة","name:en":"Kahale","name:fr":"Kahale","name:ml":"കഹാല","alt_name":"Kahhaleh;Kahaleh"},"display_name":"الكحالة, قضاء عاليه, محافظة جبل لبنان, 1501, لبنان","address":{"town":"الكحالة","municipality":"الكحالة","state_district":"قضاء عاليه","state":"محافظة جبل لبنان","ISO3166-2-lvl4":"LB-JL","postcode":"1501","country":"لبنان","country_code":"lb"},"osm_type":"node","osm_id":5348916658,"type":"town","location":[35.5829141,33.8226878],"bbox":[35.5429141,33.7826878,35.6229141,33.8626878],"border":{"name":"الكحالة","other_names":{"name:ar":"الكحالة","name:en":"Kahale","name:fr":"Kahale"},"display_name":"الكحالة, قضاء عاليه, محافظة جبل لبنان, لبنان","address":{"municipality":"الكحالة","state_district":"قضاء عاليه","state":"محافظة جبل لبنان","ISO3166-2-lvl4":"LB-JL","country":"لبنان","country_code":"lb"},"osm_type":"relation","osm_id":10625875,"type":"administrative","location":[35.58291317661059,33.82173645],"bbox":[35.5718422,33.8124038,35.5981707,33.8296886]}}
{"name":"الكسليك","other_names":{"name:ar":"الكسليك","name:de":"Kaslik","name:en":"Kaslik","name:fr":"Kaslik","name:he":"קסליק","name:ml":"കസ്ലിക്"},"display_name":"الكسليك, صربا, قضاء كسروان, محافظة كسروان جبيل, 1200, لبنان","address":{"town":"الكسليك","state_district":"قضاء كسروان","state":"محافظة كسروان جبيل","postcode":"1200","country":"لبنان","country_code":"lb"},"osm_type":"node","osm_id":4704006960,"type":"town","location":[35.6191594,33.9840398],"bbox":[35.5791594,33.9440398,35.6591594,34.0240398]}
{"name":"المطيلب","other_names":{"name:ar":"المطيلب","name:de":"Mtaileb","name:en":"Mtaileb","name:fr":"Mtaileb","name:ml":"മത്തൈലബ്","alt_name":"Mtayleb"},"display_name":"المطيلب, قضاء المتن, محافظة جبل لبنان, 2426, لبنان","address":{"town":"المطيلب","municipality":"المطيلب","state_district":"قضاء المتن","state":"محافظة جبل لبنان","ISO3166-2-lvl4":"LB-JL","postcode":"2426","country":"لبنان","country_code":"lb"},"osm_type":"node","osm_id":7061198750,"type":"town","location":[35.6124763,33.9203908],"bbox":[35.5724763,33.8803908,35.6524763,33.9603908],"border":{"name":"المطيلب","other_names":{"name:ar":"المطيلب","name:en":"Mtaileb","name:fr":"Mtaileb"},"display_name":"المطيلب, قضاء المتن, محافظة جبل لبنان, 2426, لبنان","address":{"municipality":"المطيلب","state_district":"قضاء المتن","state":"محافظة جبل لبنان","ISO3166-2-lvl4":"LB-JL","postcode":"2426","country":"لبنان","country_code":"lb"},"osm_type":"relation","osm_id":10418452,"type":"administrative","location":[35.6155933302966,33.921502950000004],"bbox":[35.6009173,33.9158003,35.6250169,33.9281593]}}
{"name":"المنية","other_names":{"name:ar":"المنية","name:en":"Miniyeh","name:fr":"Minieh","name:ml":"മിനിയെ"},"display_name":"المنية, قضاء المنية ضنيّة, محافظة الشمال, لبنان","address":{"town":"المنية","municipality":"المنية","state_district":"قضاء المنية ضنيّة","state":"محافظة الشمال","ISO3166-2-lvl4":"LB-AS","country":"لبنان","country_code":"lb"},"osm_type":"node","osm_id":5790210190,"type":"town","location":[35.9304694,34.4757384],"bbox":[35.8904694,34.4357384,35.9704694,34.5157384],"border":{"name":"المنية","other_names":{"name:ar":"المنية","name:en":"Miniyeh","name:fr":"Miniyeh"},"display_name":"المنية, قضاء المنية ضنيّة, محافظة الشمال, لبنان","address":{"municipality":"المنية","state_district":"قضاء المنية ضنيّة","state":"محافظة الشمال","ISO3166-2-lvl4":"LB-AS","country":"لبنان","country_code":"lb"},"osm_type":"relation","osm_id":9741896,"type":"administrative","location":[35.93807857131374,34.48313125],"bbox":[35.9116522,34.4656825,35.9541535,34.5002455]}}
{"name":"الميناء","other_names":{"name:ar":"مينا","name:en":"Mina","name:fr":"Mina","name:ml":"മിന","alt_name":"El Mina"},"display_name":"الميناء, قضاء طرابلس, محافظة الشمال, 1301, لبنان","address":{"town":"الميناء","municipality":"الميناء","state_district":"قضاء طرابلس","state":"محافظة الشمال","ISO3166-2-lvl4":"LB-AS","postcode":"1301","country":"لبنان","country_code":"lb"},"osm_type":"node","osm_id":7056934724,"type":"town","location":[35.8145821,34.4511126],"bbox":[35.7745821,34.4111126,35.8545821,34.4911126],"border":{"name":"الميناء","other_names":{"name:ar":"المينا","name:en":"El Mina","name:fr":"El Mina","alt_name":"الميناء"},"display_name":"الميناء, قضاء طرابلس, محافظة الشمال, 1301, لبنان","address":{"municipality":"الميناء","state_district":"قضاء طرابلس","state":"محافظة الشمال","ISO3166-2-lvl4":"LB-AS","postcode":"1301","country":"لبنان","country_code":"lb"},"osm_type":"relation","osm_id":14263520,"type":"administrative","location":[35.82041117106368,34.44246355],"bbox":[35.8040953,34.4264553,35.8345021,34.4716574]}}
{"name":"النقاش","other_names":{"name:ar":"النقاش","name:en":"Naqqach","name:fr":"Naqqach","name:ml":"നഖാഷ്","alt_name":"Naccache"},"display_name":"النقاش, قضاء المتن, محافظة جبل لبنان, لبنان","address":{"town":"النقاش","state_district":"قضاء المتن","state":"محافظة جبل لبنان","ISO3166-2-lvl4":"LB-JL","country":"لبنان","country_code":"lb"},"osm_type":"node","osm_id":4893724245,"type":"town","location":[35.5970889,33.9228218],"bbox":[35.5570889,33.8828218,35.6370889,33.9628218],"border":{"name":"النقاش","other_names":{"name:ar":"النقاش","name:en":"Naqqach","name:fr":"Naqqach","alt_name":"Naccache","name:ml":"നഖാഷ്"},"display_name":"النقاش, قضاء المتن, محافظة جبل لبنان, لبنان","address":{"town":"النقاش","state_district":"قضاء المتن","state":"محافظة جبل لبنان","ISO3166-2-lvl4":"LB-JL","country":"لبنان","country_code":"lb"},"osm_type":"relation","osm_id":7311356,"type":"administrative","location":[35.5970889,33.9228218],"bbox":[35.5807328,33.9131439,35.6075949,33.9315726]}}
{"name":"الهرمل","other_names":{"name:ar":"الهرمل","name:de":"Hermel","name:en":"Hermel","name:fr":"Hermel","name:he":"אל-הרמל","name:ml":"ഹിർമിൽ","name:ru":"Эль-Хирмиль","alt_name:ml":"ഹെർമെൽ"},"display_name":"الهرمل, هرمل, قضاء الهرمل, محافظة بعلبك الهرمل, 1805, لبنان","address":{"town":"الهرمل","municipality":"هرمل","state_district":"قضاء الهرمل","state":"محافظة بعلبك الهرمل","ISO3166-2-lvl4":"LB-BH","postcode":"1805","country":"لبنان","country_code":"lb"},"osm_type":"node","osm_id":4753052124,"type":"town","location":[36.3889577,34.3973279],"bbox":[36.3489577,34.3573279,36.4289577,34.4373279],"border":{"name":"هرمل","other_names":{"name:ar":"هرمل","name:en":"Hermel","name:fr":"Hermel"},"display_name":"هرمل, قضاء الهرمل, محافظة بعلبك الهرمل, 1805, لبنان","address":{"municipality":"هرمل","state_district":"قضاء الهرمل","state":"محافظة بعلبك الهرمل","ISO3166-2-lvl4":"LB-BH","postcode":"1805","country":"لبنان","country_code":"lb"},"osm_type":"relation","osm_id":18397947,"type":"administrative","location":[36.42136944624356,34.4205303],"bbox":[36.3400268,34.3291905,36.4956522,34.5097113]}}
{"name":"انفه","other_names":{"name:ar":"انفه","name:de":"Anfah","name:en":"Enfeh","name:es":"Enfeh","name:eu":"Enfeh","name:fr":"Enfé","name:ml":"അൻഫ","alt_name":"Anfe;Enfe"},"display_name":"انفه, أنفه, قضاء الكورة, محافظة الشمال, لبنان","address":{"town":"انفه","municipality":"أنفه","state_district":"قضاء الكورة","state":"محافظة الشمال","ISO3166-2-lvl4":"LB-AS","country":"لبنان","country_code":"lb"},"osm_type":"node","osm_id":5018293944,"type":"town","location":[35.7339496,34.3578742],"bbox":[35.6939496,34.3178742,35.7739496,34.3978742],"border":{"name":"أنفه","other_names":{"name:ar":"أنفه","name:en":"Enfeh","name:fr":"Enfeh"},"display_name":"أنفه, قضاء الكورة, محافظة الشمال, لبنان","address":{"municipality":"أنفه","state_district":"قضاء الكورة","state":"محافظة الشمال","ISO3166-2-lvl4":"LB-AS","country":"لبنان","country_code":"lb"},"osm_type":"relation","osm_id":15612883,"type":"administrative","location":[35.738595707031564,34.351217399999996],"bbox":[35.7245459,34.334772,35.7578373,34.3676694]}}
{"name":"بتغرين","other_names":{"name:ar":"بتغرين","name:en":"Bteghrine","name:fr":"Bteghrine","name:ml":"ബത്തെഗ്രീൻ"},"display_name":"بتغرين, قضاء المتن, محافظة جبل لبنان, 4838, لبنان","address":{"town":"بتغرين","municipality":"بتغرين","state_district":"قضاء المتن","state":"محافظة جبل لبنان","ISO3166-2-lvl4":"LB-JL","postcode":"4838","country":"لبنان","country_code":"lb"},"osm_type":"node","osm_id":5774000075,"type":"town","location":[35.7445191,33.9303973],"bbox":[35.7045191,33.8903973,35.7845191,33.9703973],"border":{"name":"بتغرين","other_names":{"name:ar":"بتغرين","name:en":"Bteghrine","name:fr":"Bteghrine"},"display_name":"بتغرين, قضاء المتن, محافظة جبل لبنان, لبنان","address":{"municipality":"بتغرين","state_district":"قضاء المتن","state":"محافظة جبل لبنان","ISO3166-2-lvl4":"LB-JL","country":"لبنان","country_code":"lb"},"osm_type":"relation","osm_id":13092037,"type":"administrative","location":[35.76048102754734,33.927445],"bbox":[35.7384015,33.9186129,35.7837367,33.9367199]}}
{"name":"بحمدون المحطة","other_names":{"name:ar":"بحمدون المحطة","name:en":"Bhamdoun Al Mahatta","name:fr":"Bhamdoûn al Mahatta","name:ml":"ബഹംദൂൻ അൽ മഹത്ത"},"display_name":"بحمدون المحطة, قضاء عاليه, محافظة جبل لبنان, لبنان","address":{"town":"بحمدون المحطة","state_district":"قضاء عاليه","state":"محافظة جبل لبنان","ISO3166-2-lvl4":"LB-JL","country":"لبنان","country_code":"lb"},"osm_type":"node","osm_id":9137610208,"type":"town","location":[35.6566429,33.8093551],"bbox":[35.6166429,33.7693551,35.6966429,33.8493551]}
{"name":"بحمدون","other_names":{"name:ar":"بحمدون","name:en":"Bhamdoun","name:fr":"Bhamdoun","name:he":"בחמדון","name:ml":"ബഹംദൂൻ"},"display_name":"بحمدون, قضاء عاليه, محافظة جبل لبنان, لبنان","address":{"town":"بحمدون","state_district":"قضاء عاليه","state":"محافظة جبل لبنان","ISO3166-2-lvl4":"LB-JL","country":"لبنان","country_code":"lb"},"osm_type":"node","osm_id":6125607812,"type":"town","location":[35.6594457,33.8030684],"bbox":[35.6194457,33.7630684,35.6994457,33.8430684]}
{"name":"بر إلياس","other_names":{"name:ar":"بر إلياس","name:de":"Bar Elias","name:en":"Bar Elias","name:fr":"Bar Elias","name:ml":"ബർ ഏലിയാസ്","alt_name":"بر الياس","alt_name:ar":"بر الياس","alt_name:en":"Barr Elias"},"display_name":"بر إلياس, قضاء زحلة, محافظة البقاع, لبنان","address":{"town":"بر إلياس","state_district":"قضاء زحلة","state":"محافظة البقاع","ISO3166-2-lvl4":"LB-BI","country":"لبنان","country_code":"lb"},"osm_type":"node","osm_id":5322872469,"type":"town","location":[35.9043906,33.7743538],"bbox":[35.8643906,33.7343538,35.9443906,33.8143538]}
{"name":"برج البراجنة","other_names":{"name:ar":"برج البراجنة","name:de":"Burj El Brajneh","name:en":"Burj El Brajneh","name:fr":"Bourj El Barajneh","name:ml":"ബുർജ് അൽ ബറാജ്ന","alt_name":"Burj al-Barajneh;Borj El Barajneh"},"display_name":"برج البراجنة, قضاء بعبدا, محافظة جبل لبنان, 1001, لبنان","address":{"town":"برج البراجنة","municipality":"برج البراجنة","state_district":"قضاء بعبدا","state":"محافظة جبل لبنان","ISO3166-2-lvl4":"LB-JL","postcode":"1001","country":"لبنان","country_code":"lb"},"osm_type":"node","osm_id":382345519,"type":"town","location":[35.4990347,33.8410614],"bbox":[35.4590347,33.8010614,35.5390347,33.8810614],"border":{"name":"برج البراجنة","other_names":{"name:ar":"برج البراجنة","name:en":"Bourj El Brajneh","name:fr":"Bourj El Brajneh"},"display_name":"برج البراجنة, قضاء بعبدا, محافظة جبل لبنان, 1001, لبنان","address":{"municipality":"برج البراجنة","state_district":"قضاء بعبدا","state":"محافظة جبل لبنان","ISO3166-2-lvl4":"LB-JL","postcode":"1001","country":"لبنان","country_code":"lb"},"osm_type":"relation","osm_id":18196950,"type":"administrative","location":[35.50468832122116,33.84145915],"bbox":[35.4925239,33.8324807,35.5169213,33.851762]}}
{"name":"برج الشمالي","other_names":{"name:ar":"برج الشمالي","name:en":"Burj Al Shamali","name:fr":"Burj Al Shamali","name:he":"בורג' אל-שמאלי","name:ml":"ബുർജ് അൽ-ഷമാലി","alt_name:en":"Borj El Chmali;Borj Ech Chemali;Burj ash Shamali;Burj ash-Shamali;Borj Ech Chmali;"},"display_name":"برج الشمالي, قضاء صور, محافظة الجنوب, 1601, لبنان","address":{"town":"برج الشمالي","municipality":"برج الشمالي","state_district":"قضاء صور","state":"محافظة الجنوب","ISO3166-2-lvl4":"LB-JA","postcode":"1601","country":"لبنان","country_code":"lb"},"osm_type":"node","osm_id":6337692471,"type":"town","location":[35.2368296,33.2615583],"bbox":[35.1968296,33.2215583,35.2768296,33.3015583],"border":{"name":"برج الشمالي","other_names":{"name:ar":"برج الشمالي","name:en":"Burj Al Shamali","name:fr":"Burj El Chamali","alt_name":"Burj Ech Chemali"},"display_name":"برج الشمالي, قضاء صور, محافظة الجنوب, لبنان","address":{"municipality":"برج الشمالي","state_district":"قضاء صور","state":"محافظة الجنوب","ISO3166-2-lvl4":"LB-JA","country":"لبنان","country_code":"lb"},"osm_type":"relation","osm_id":16405986,"type":"administrative","location":[35.23092394843173,33.2609705],"bbox":[35.2135205,33.2390285,35.2612853,33.2826827]}}
{"name":"برج حموﺪ","other_names":{"name:ar":"برج حموﺪ","name:de":"Burj Hammoud","name:en":"Burj Hammoud","name:fr":"Bourj Hammoud","name:he":"בורג' חמוד","name:hy":"Պուրճ Համուտ","name:ml":"ബുർജ് ഹമൂദ്","alt_name":"Borj Hamud;Borj Hammoud"},"display_name":"برج حموﺪ, قضاء المتن, محافظة جبل لبنان, 1203, لبنان","address":{"town":"برج حموﺪ","municipality":"برج حموﺪ","state_district":"قضاء المتن","state":"محافظة جبل لبنان","ISO3166-2-lvl4":"LB-JL","postcode":"1203","country":"لبنان","country_code":"lb"},"osm_type":"node","osm_id":4893695724,"type":"town","location":[35.5390068,33.8888717],"bbox":[35.4990068,33.8488717,35.5790068,33.9288717],"border":{"name":"برج حموﺪ","other_names":{"name:ar":"برج حموﺪ‎‎","name:en":"Burj Hammoud","name:fr":"Burj Hammoud"},"display_name":"برج حموﺪ, قضاء المتن, محافظة جبل لبنان, 1203, لبنان","address":{"municipality":"برج حموﺪ","state_district":"قضاء المتن","state":"محافظة جبل لبنان","ISO3166-2-lvl4":"LB-JL","postcode":"1203","country":"لبنان","country_code":"lb"},"osm_type":"relation","osm_id":9106750,"type":"administrative","location":[35.54295307761714,33.8931556],"bbox":[35.5339705,33.880842,35.5527728,33.9054159]}}
{"name":"برجا","other_names":{"name:ar":"برجا","name:de":"Barja","name:en":"Barja","name:fr":"Barja","name:ml":"ബർജ"},"display_name":"برجا, قضاء الشوف, محافظة جبل لبنان, لبنان","address":{"town":"برجا","state_district":"قضاء الشوف","state":"محافظة جبل لبنان","ISO3166-2-lvl4":"LB-JL","country":"لبنان","country_code":"lb"},"population":35000,"osm_type":"node","osm_id":5037444068,"type":"town","location":[35.4330164,33.6448026],"bbox":[35.3930164,33.6048026,35.4730164,33.6848026],"border":{"name":"برجا","other_names":{"name:ar":"برجا","name:en":"Barja","name:fa":"برجا","name:fr":"Barja","name:de":"Barja","name:ml":"ബർജ"},"display_name":"برجا, قضاء الشوف, محافظة جبل لبنان, لبنان","address":{"town":"برجا","state_district":"قضاء الشوف","state":"محافظة جبل لبنان","ISO3166-2-lvl4":"LB-JL","country":"لبنان","country_code":"lb"},"population":35000,"osm_type":"relation","osm_id":9071318,"type":"administrative","location":[35.4330164,33.6448026],"bbox":[35.4111027,33.6289495,35.4763126,33.6595961]}}
{"name":"برمانا","other_names":{"name:ar":"برمانا","name:en":"Broumana","name:fr":"Broumana","name:ml":"ബ്രുമ്മാന","alt_name:ar":"برومانا"},"display_name":"برمانا, قضاء المتن, محافظة جبل لبنان, 1204, لبنان","address":{"town":"برمانا","municipality":"برمانا","state_district":"قضاء المتن","state":"محافظة جبل لبنان","ISO3166-2-lvl4":"LB-JL","postcode":"1204","country":"لبنان","country_code":"lb"},"osm_type":"node","osm_id":6069189785,"type":"town","location":[35.6323372,33.8829505],"bbox":[35.5923372,33.8429505,35.6723372,33.9229505],"border":{"name":"برمانا","other_names":{"name:ar":"برمانا","name:en":"Broummana","name:fr":"Broummana"},"display_name":"برمانا, قضاء المتن, محافظة جبل لبنان, 1204, لبنان","address":{"municipality":"برمانا","state_district":"قضاء المتن","state":"محافظة جبل لبنان","ISO3166-2-lvl4":"LB-JL","postcode":"1204","country":"لبنان","country_code":"lb"},"osm_type":"relation","osm_id":12691596,"type":"administrative","location":[35.62319898550189,33.87950585],"bbox":[35.6079265,33.8675789,35.6546902,33.891935]}}
{"name":"بشامون","other_names":{"name:ar":"بشامون","name:en":"Beshamoun","name:fr":"Bechamoun","name:ml":"ബെഷാമൂൺ","alt_name":"Bchamoun;Bshamoun"},"display_name":"بشامون, Bchamoun, قضاء عاليه, محافظة جبل لبنان, 1500, لبنان","address":{"town":"بشامون","municipality":"Bchamoun","state_district":"قضاء عاليه","state":"محافظة جبل لبنان","ISO3166-2-lvl4":"LB-JL","postcode":"1500","country":"لبنان","country_code":"lb"},"osm_type":"node","osm_id":5348907834,"type":"town","location":[35.5315831,33.7819483],"bbox":[35.4915831,33.7419483,35.5715831,33.8219483],"border":{"name":"Bchamoun","other_names":{"name:en":"Bchamoun","name:fr":"Bchamoun","alt_name":"Bechamoun"},"display_name":"Bchamoun, قضاء عاليه, محافظة جبل لبنان, لبنان","address":{"municipality":"Bchamoun","state_district":"قضاء عاليه","state":"محافظة جبل لبنان","ISO3166-2-lvl4":"LB-JL","country":"لبنان","country_code":"lb"},"osm_type":"relation","osm_id":17349899,"type":"administrative","location":[35.511955795682056,33.7864595],"bbox":[35.4914081,33.7736985,35.5404174,33.7991919]}}
{"name":"بشري","other_names":{"name:ar":"بشري","name:de":"Bischarri","name:el":"Μπσαρί","name:en":"Bsharri","name:es":"Bisharri","name:fr":"Bcharré","name:he":"בשרי","name:hr":"Bšari","name:ml":"ബുഷർറി","name:pl":"Baszarri","name:ru":"Башарри","name:sl":"Bšari","name:tr":"Bişerri","name:uk":"Бішарі","alt_name":"Becharre;Bcharre"},"display_name":"بشري, قضاء بشرّي, محافظة الشمال, 1377, لبنان","address":{"town":"بشري","municipality":"بشري","state_district":"قضاء بشرّي","state":"محافظة الشمال","ISO3166-2-lvl4":"LB-AS","postcode":"1377","country":"لبنان","country_code":"lb"},"osm_type":"node","osm_id":2337736413,"type":"town","location":[36.0099915,34.2507231],"bbox":[35.9699915,34.2107231,36.0499915,34.2907231],"border":{"name":"بشري","other_names":{"name:ar":"بشري","name:en":"Bcharre","name:fr":"Bcharre","alt_name":"Bsharre"},"display_name":"بشري, قضاء بشرّي, محافظة الشمال, 1377, لبنان","address":{"municipality":"بشري","state_district":"قضاء بشرّي","state":"محافظة الشمال","ISO3166-2-lvl4":"LB-AS","postcode":"1377","country":"لبنان","country_code":"lb"},"osm_type":"relation","osm_id":16048753,"type":"administrative","location":[36.04175367883513,34.251559400000005],"bbox":[35.9872198,34.2063316,36.1027811,34.2961937]}}
{"name":"بصاليم","other_names":{"name:ar":"بصاليم","name:de":"Bsalim","name:en":"Bsalim","name:fr":"Bsalim","name:ml":"ബസാലീം"},"display_name":"بصاليم, بصاليم ومزهر والمجذوب, قضاء المتن, محافظة جبل لبنان, 1201, لبنان","address":{"town":"بصاليم","municipality":"بصاليم ومزهر والمجذوب","state_district":"قضاء المتن","state":"محافظة جبل لبنان","ISO3166-2-lvl4":"LB-JL","postcode":"1201","country":"لبنان","country_code":"lb"},"osm_type":"node","osm_id":6069187783,"type":"town","location":[35.6044683,33.899265],"bbox":[35.5644683,33.859265,35.6444683,33.939265]}
{"name":"بعبدا","other_names":{"name:ar":"بعبدا","name:de":"Baabda","name:en":"Baabda","name:fr":"Baabda","name:he":"בעבדא","name:ml":"ബാബ്ദ"},"display_name":"بعبدا, قضاء بعبدا, محافظة جبل لبنان, 1003, لبنان","address":{"town":"بعبدا","municipality":"بعبدا","state_district":"قضاء بعبدا","state":"محافظة جبل لبنان","ISO3166-2-lvl4":"LB-JL","postcode":"1003","country":"لبنان","country_code":"lb"},"osm_type":"node","osm_id":4752379521,"type":"town","location":[35.5445655,33.8335501],"bbox":[35.5045655,33.7935501,35.5845655,33.8735501],"border":{"name":"بعبدا","other_names":{"name:ar":"بعبدا","name:en":"Baabda","name:fr":"Baabda"},"display_name":"بعبدا, قضاء بعبدا, محافظة جبل لبنان, لبنان","address":{"municipality":"بعبدا","state_district":"قضاء بعبدا","state":"محافظة جبل لبنان","ISO3166-2-lvl4":"LB-JL","country":"لبنان","country_code":"lb"},"osm_type":"relation","osm_id":17644322,"type":"administrative","location":[35.545406682346574,33.8465027],"bbox":[35.5268562,33.8273115,35.5667782,33.8653529]}}
{"name":"بعلول","other_names":{"name:ar":"بعلول","name:de":"Baaloul","name:en":"Baaloul","name:fr":"Baaloul","name:ml":"ബാലൂൽ"},"display_name":"بعلول, قضاء البقاع الغربي, محافظة البقاع, لبنان","address":{"town":"بعلول","municipality":"بعلول","state_district":"قضاء البقاع الغربي","state":"محافظة البقاع","ISO3166-2-lvl4":"LB-BI","country":"لبنان","country_code":"lb"},"osm_type":"node","osm_id":5226877350,"type":"town","location":[35.7478055,33.5880555],"bbox":[35.7078055,33.5480555,35.7878055,33.6280555],"border":{"name":"بعلول","other_names":{"name:ar":"بعلول","name:en":"Baaloul","name:fr":"Baaloul"},"display_name":"بعلول, قضاء البقاع الغربي, محافظة البقاع, لبنان","address":{"municipality":"بعلول","state_district":"قضاء البقاع الغربي","state":"محافظة البقاع","ISO3166-2-lvl4":"LB-BI","country":"لبنان","country_code":"lb"},"osm_type":"relation","osm_id":18021726,"type":"administrative","location":[35.75120314745383,33.58853925],"bbox":[35.7178831,33.5695858,35.7837373,33.6077214]}}
{"name":"بلونة","other_names":{"name:ar":"بلونة","name:en":"Ballouneh","name:fr":"Ballouneh","name:ml":"ബല്ലൂനേ","alt_name":"Balloune"},"display_name":"بلونة, قضاء كسروان, محافظة كسروان جبيل, 1233, لبنان","address":{"town":"بلونة","municipality":"بلونة","state_district":"قضاء كسروان","state":"محافظة كسروان جبيل","postcode":"1233","country":"لبنان","country_code":"lb"},"osm_type":"node","osm_id":4947219586,"type":"town","location":[35.676679,33.9536929],"bbox":[35.636679,33.9136929,35.716679,33.9936929],"border":{"name":"بلونة","other_names":{"name:ar":"بلونة","name:de":"Balluna","name:en":"Balluna","name:fr":"Ballouneh","alt_name:en":"Ballouneh"},"display_name":"بلونة, قضاء كسروان, محافظة كسروان جبيل, لبنان","address":{"municipality":"بلونة","state_district":"قضاء كسروان","state":"محافظة كسروان جبيل","country":"لبنان","country_code":"lb"},"osm_type":"relation","osm_id":8548459,"type":"administrative","location":[35.66985573590258,33.951521400000004],"bbox":[35.6550765,33.9401735,35.6826067,33.9626007]}}
{"name":"بنت جبيل","other_names":{"name:ar":"بنت جبيل","name:cs":"Bint Džubajl","name:de":"Bint Dschubail","name:en":"Bint Jbail","name:es":"Bint Jubail","name:fa":"بنت جبیل","name:fr":"Bent Jbaïl","name:he":"בינת ג'בייל","name:hr":"Bint Džubail","name:hy":"Բինտ Ջաբիլ","name:ks":"بنت جبیل","name:ml":"ബിന്ത് ജുബൈൽ","name:pl":"Bint Dżubajl","name:ru":"Бинт-Джубайль","name:uk":"Бінт-Джбейль","name:ur":"بنت جبیل","name:azb":"بنت جبیل","alt_name:en":"Bint Jubayl;Bint Jbeil;Bent Jubail","alt_name:he":"בינת ג'ובייל"},"display_name":"بنت جبيل, قضاء بنت جبيل, محافظة النبطية, لبنان","address":{"town":"بنت جبيل","municipality":"بنت جبيل","state_district":"قضاء بنت جبيل","state":"محافظة النبطية","ISO3166-2-lvl4":"LB-NA","country":"لبنان","country_code":"lb"},"osm_type":"node","osm_id":5477073477,"type":"town","location":[35.4327933,33.1195382],"bbox":[35.3927933,33.0795382,35.4727933,33.1595382],"border":{"name":"بنت جبيل","other_names":{"name:ar":"بنت جبيل","name:cs":"Bint Džubajl","name:en":"Bint Jbail","name:fr":"Bent Jbail","alt_name:en":"Bint Jubayl","alt_name:fr":"Bent Jbaïl"},"display_name":"بنت جبيل, قضاء بنت جبيل, محافظة النبطية, لبنان","address":{"municipality":"بنت جبيل","state_district":"قضاء بنت جبيل","state":"محافظة النبطية","ISO3166-2-lvl4":"LB-NA","country":"لبنان","country_code":"lb"},"osm_type":"relation","osm_id":12867199,"type":"administrative","location":[35.42888024505341,33.12119],"bbox":[35.4092788,33.101069,35.4594147,33.1411807]}}
{"name":"بياقوت","other_names":{"name:ar":"بياقوت","name:en":"Biaqout","name:fr":"Biakout","name:ml":"ബിയാക്കൂത്ത്"},"display_name":"بياقوت, قضاء المتن, محافظة جبل لبنان, لبنان","address":{"town":"بياقوت","state_district":"قضاء المتن","state":"محافظة جبل لبنان","ISO3166-2-lvl4":"LB-JL","country":"لبنان","country_code":"lb"},"osm_type":"node","osm_id":6069187781,"type":"town","location":[35.583247,33.8956245],"bbox":[35.543247,33.8556245,35.623247,33.9356245],"border":{"name":"بياقوت","other_names":{"name:ar":"بياقوت","name:en":"Biakout","name:fr":"Biakout","name:ml":"ബിയാക്കൂത്ത്","alt:en":"Biaqout"},"display_name":"بياقوت, قضاء المتن, محافظة جبل لبنان, لبنان","address":{"town":"بياقوت","state_district":"قضاء المتن","state":"محافظة جبل لبنان","ISO3166-2-lvl4":"LB-JL","country":"لبنان","country_code":"lb"},"osm_type":"relation","osm_id":9128323,"type":"administrative","location":[35.583247,33.8956245],"bbox":[35.578655,33.8910622,35.5932248,33.8995403]}}
{"name":"بيت ليف","other_names":{"name:ar":"بيت ليف","name:de":"Bait Lif","name:en":"Bayt Lif","name:fr":"Bait Lif","name:he":"בית ליף","name:ml":"ബെയ്ത്ത് ലിഫ്","alt_name":"Beit Lif"},"display_name":"بيت ليف, قضاء بنت جبيل, محافظة النبطية, لبنان","address":{"town":"بيت ليف","municipality":"بيت ليف","state_district":"قضاء بنت جبيل","state":"محافظة النبطية","ISO3166-2-lvl4":"LB-NA","country":"لبنان","country_code":"lb"},"osm_type":"node","osm_id":6344016924,"type":"town","location":[35.332982,33.1342547],"bbox":[35.292982,33.0942547,35.372982,33.1742547],"border":{"name":"بيت ليف","other_names":{"name:ar":"بيت ليف","name:en":"Bayt Lif","name:fr":"Bayt Lif","alt_name":"Beit Lif"},"display_name":"بيت ليف, قضاء بنت جبيل, محافظة النبطية, لبنان","address":{"municipality":"بيت ليف","state_district":"قضاء بنت جبيل","state":"محافظة النبطية","ISO3166-2-lvl4":"LB-NA","country":"لبنان","country_code":"lb"},"osm_type":"relation","osm_id":13062188,"type":"administrative","location":[35.33400701225277,33.132070850000005],"bbox":[35.3133201,33.119294,35.3546047,33.1465346]}}
{"name":"بيت مري","other_names":{"name:ar":"بيت مري","name:de":"Beit Mery","name:en":"Beit Mery","name:fr":"Beit Mery","name:ml":"ബെയ്ത്ത് മെറി","alt_name":"Beit Meri"},"display_name":"بيت مري, قضاء المتن, محافظة جبل لبنان, 2753, لبنان","address":{"town":"بيت مري","municipality":"بيت مري","state_district":"قضاء المتن","state":"محافظة جبل لبنان","ISO3166-2-lvl4":"LB-JL","postcode":"2753","country":"لبنان","country_code":"lb"},"osm_type":"node","osm_id":5012756045,"type":"town","location":[35.603338,33.8662545],"bbox":[35.563338,33.8262545,35.643338,33.9062545],"border":{"name":"بيت مري","other_names":{"name:ar":"بيت مري","name:en":"Beit Mery","name:fr":"Beit Mery"},"display_name":"بيت مري, قضاء المتن, محافظة جبل لبنان, لبنان","address":{"municipality":"بيت مري","state_district":"قضاء المتن","state":"محافظة جبل لبنان","ISO3166-2-lvl4":"LB-JL","country":"لبنان","country_code":"lb"},"osm_type":"relation","osm_id":9107090,"type":"administrative","location":[35.605733592145945,33.85720975],"bbox":[35.5681117,33.83953,35.6246952,33.8749899]}}
{"name":"تبنين","other_names":{"name:ar":"تبنين","name:de":"Tibnin","name:en":"Tibnine","name:fr":"Tebnine","name:he":"תבנין","name:ml":"തിബ്നീൻ"},"display_name":"تبنين, قضاء بنت جبيل, محافظة النبطية, 1702, لبنان","address":{"town":"تبنين","municipality":"تبنين","state_district":"قضاء بنت جبيل","state":"محافظة النبطية","ISO3166-2-lvl4":"LB-NA","postcode":"1702","country":"لبنان","country_code":"lb"},"osm_type":"node","osm_id":5037422633,"type":"town","location":[35.4117998,33.1932575],"bbox":[35.3717998,33.1532575,35.4517998,33.2332575],"border":{"name":"تبنين","other_names":{"name:ar":"تبنين","name:en":"Tibnine","name:fr":"Tibnine"},"display_name":"تبنين, قضاء بنت جبيل, محافظة النبطية, 1702, لبنان","address":{"municipality":"تبنين","state_district":"قضاء بنت جبيل","state":"محافظة النبطية","ISO3166-2-lvl4":"LB-NA","postcode":"1702","country":"لبنان","country_code":"lb"},"osm_type":"relation","osm_id":14095321,"type":"administrative","location":[35.404832820176196,33.19246165],"bbox":[35.3810942,33.1793703,35.4273891,33.2040787]}}
{"name":"جب جنين","other_names":{"name:ar":"جب جنين","name:de":"Joub Jannine","name:en":"Joub Jannine","name:fr":"Joub Jannine","name:he":"ג'וב ג'נין","name:ml":"ജുബ് ജന്നീൻ","alt_name":"Joubb Jannine;Jeb Jennine"},"display_name":"جب جنين, قضاء البقاع الغربي, محافظة البقاع, لبنان","address":{"town":"جب جنين","municipality":"جب جنين","state_district":"قضاء البقاع الغربي","state":"محافظة البقاع","ISO3166-2-lvl4":"LB-BI","country":"لبنان","country_code":"lb"},"population":120000,"osm_type":"node","osm_id":5522106653,"type":"town","location":[35.7839988,33.6262457],"bbox":[35.7439988,33.5862457,35.8239988,33.6662457],"border":{"name":"جب جنين","other_names":{"name:ar":"جب جنين","name:en":"Joub Jannine","name:fr":"Joub Jannine"},"display_name":"جب جنين, قضاء البقاع الغربي, محافظة البقاع, لبنان","address":{"municipality":"جب جنين","state_district":"قضاء البقاع الغربي","state":"محافظة البقاع","ISO3166-2-lvl4":"LB-BI","country":"لبنان","country_code":"lb"},"osm_type":"relation","osm_id":18346277,"type":"administrative","location":[35.79147925268279,33.63673],"bbox":[35.7652549,33.6067921,35.8276876,33.6667334]}}
{"name":"جبيل","other_names":{"name:ar":"جبيل","name:az":"Bibl","name:de":"Byblos","name:el":"Βύβλος","name:en":"Byblos","name:fa":"جبیل","name:fr":"Byblos","name:he":"גבל","name:hr":"Biblos","name:hy":"Բիբլոս","name:ml":"ജുബൈൽ","name:ru":"Библ","name:sl":"Biblos","name:sr":"Библос","name:tr":"Biblos","name:uk":"Бібл","alt_name:az":"Cübeyl","alt_name:en":"Jbeil","alt_name:fr":"Jbeil","alt_name:ml":"ബിബ്ലോസ്","alt_name:tr":"Cübeyl"},"display_name":"جبيل, قضاء جبيل, محافظة كسروان جبيل, لبنان","address":{"town":"جبيل","state_district":"قضاء جبيل","state":"محافظة كسروان جبيل","country":"لبنان","country_code":"lb"},"osm_type":"node","osm_id":4746570478,"type":"town","location":[35.6493557,34.1236954],"bbox":[35.6093557,34.0836954,35.6893557,34.1636954],"border":{"name":"جبيل","other_names":{"name:ar":"جبيل","name:de":"Jbeil","name:en":"Jbeil","name:fr":"Jbeil","name:az":"Bibl","name:el":"Βύβλος","name:fa":"جبیل","name:he":"גבל","name:hr":"Biblos","name:hy":"Բիբլոս","name:ml":"ജുബൈൽ","name:ru":"Библ","name:sl":"Biblos","name:sr":"Библос","name:tr":"Biblos","name:uk":"Бібл","alt_name:az":"Cübeyl","alt_name:en":"Jbeil","alt_name:fr":"Jbeil","alt_name:ml":"ബിബ്ലോസ്","alt_name:tr":"Cübeyl","alt:de":"Byblos","alt:en":"Byblos","alt:fr":"Byblos"},"display_name":"جبيل, قضاء جبيل, محافظة كسروان جبيل, 4504, لبنان","address":{"town":"جبيل","state_district":"قضاء جبيل","state":"محافظة كسروان جبيل","postcode":"4504","country":"لبنان","country_code":"lb"},"osm_type":"relation","osm_id":9204616,"type":"administrative","location":[35.6493557,34.1236954],"bbox":[35.6414375,34.1105776,35.6797416,34.1335915]}}
{"name":"جديدة المتن","other_names":{"name:ar":"جديدة المتن","name:de":"Jdeideh","name:en":"Jdeideh","name:fr":"Jdaidet El Matn","name:ml":"ജുദൈദ","alt_name":"جديدة","alt_name:ar":"جديدة","alt_name:en":"Jdeidet El Matn;Jdaideh"},"display_name":"جديدة المتن, قضاء المتن, محافظة جبل لبنان, لبنان","address":{"town":"جديدة المتن","state_district":"قضاء المتن","state":"محافظة جبل لبنان","ISO3166-2-lvl4":"LB-JL","country":"لبنان","country_code":"lb"},"osm_type":"node","osm_id":260286476,"type":"town","location":[35.5703807,33.8921658],"bbox":[35.5303807,33.8521658,35.6103807,33.9321658],"border":{"name":"جديدة المتن","other_names":{"name:ar":"جديدة المتن","name:en":"Jdaidet El Matn","name:fr":"Jdaidet El Matn","alt_name":"جديدة","alt_name:ar":"جديدة","alt_name:en":"Jdeideh","name:de":"Jdeideh","name:ml":"ജുദൈദ","_place_alt_name:en":"Jdeidet El Matn;Jdaideh","alt:en":"Jdeideh"},"display_name":"جديدة المتن, قضاء المتن, محافظة جبل لبنان, لبنان","address":{"town":"جديدة المتن","state_district":"قضاء المتن","state":"محافظة جبل لبنان","ISO3166-2-lvl4":"LB-JL","country":"لبنان","country_code":"lb"},"osm_type":"relation","osm_id":9128322,"type":"administrative","location":[35.5703807,33.8921658],"bbox":[35.5600566,33.8818885,35.5838155,33.896744]}}
{"name":"جزين","other_names":{"name:ar":"جزين","name:az":"Cizzin","name:de":"Jezzine","name:en":"Jezzine","name:fr":"Jezzine","name:he":"ג'זין","name:hr":"Džezin","name:ml":"ജെസ്സീൻ","name:ru":"Джеззин","name:uk":"Джеззін"},"display_name":"جزين, قضاء جزين, محافظة الجنوب, 1623, لبنان","address":{"town":"جزين","state_district":"قضاء جزين","state":"محافظة الجنوب","ISO3166-2-lvl4":"LB-JA","postcode":"1623","country":"لبنان","country_code":"lb"},"osm_type":"node","osm_id":4840035371,"type":"town","location":[35.5843949,33.5439343],"bbox":[35.5443949,33.5039343,35.6243949,33.5839343]}
{"name":"حازمية","other_names":{"name:ar":"حازمية","name:de":"Hazmieh","name:en":"Hazmieh","name:fr":"Hazmiyeh","name:ml":"ഹാസ്മിയ","alt_name":"Hazmieh;Hazmiyya"},"display_name":"حازمية, بعبدا, قضاء بعبدا, محافظة جبل لبنان, 11072020, لبنان","address":{"town":"حازمية","municipality":"بعبدا","state_district":"قضاء بعبدا","state":"محافظة جبل لبنان","ISO3166-2-lvl4":"LB-JL","postcode":"11072020","country":"لبنان","country_code":"lb"},"osm_type":"node","osm_id":5421895959,"type":"town","location":[35.5373999,33.8540992],"bbox":[35.4973999,33.8140992,35.5773999,33.8940992]}
{"name":"حاصبيا","other_names":{"name:ar":"حاصبيا","name:de":"Hasbaya","name:en":"Hasbaya","name:fr":"Hasbaya","name:he":"חאצביא","name:ml":"ഹാസ്ബയ","alt_name":"Hasbaiya","alt_name:ar":"حاصبيّا"},"display_name":"حاصبيا, حاصبيّا, قضاء حاصبيا, محافظة النبطية, 1704, لبنان","address":{"town":"حاصبيا","municipality":"حاصبيّا","state_district":"قضاء حاصبيا","state":"محافظة النبطية","ISO3166-2-lvl4":"LB-NA","postcode":"1704","country":"لبنان","country_code":"lb"},"osm_type":"node","osm_id":5782432417,"type":"town","location":[35.6811724,33.3964734],"bbox":[35.6411724,33.3564734,35.7211724,33.4364734],"border":{"name":"حاصبيّا","other_names":{"name:ar":"حاصبيّا","name:en":"Hasbaya","name:fr":"Hasbaya"},"display_name":"حاصبيّا, قضاء حاصبيا, محافظة النبطية, 1704, لبنان","address":{"municipality":"حاصبيّا","state_district":"قضاء حاصبيا","state":"محافظة النبطية","ISO3166-2-lvl4":"LB-NA","postcode":"1704","country":"لبنان","country_code":"lb"},"osm_type":"relation","osm_id":15683284,"type":"administrative","location":[35.67075100778292,33.419993250000005],"bbox":[35.6394982,33.3734736,35.7021654,33.4667109]}}
{"name":"حالات","other_names":{"name:ar":"حالات","name:de":"Halat","name:en":"Halat","name:es":"Halat","name:fr":"Halat","name:ml":"ഹാലാത്ത്"},"display_name":"حالات, قضاء جبيل, محافظة كسروان جبيل, لبنان","address":{"town":"حالات","state_district":"قضاء جبيل","state":"محافظة كسروان جبيل","country":"لبنان","country_code":"lb"},"osm_type":"node","osm_id":4747728043,"type":"town","location":[35.6584659,34.0842051],"bbox":[35.6184659,34.0442051,35.6984659,34.1242051],"border":{"name":"حالات","other_names":{"name:ar":"حالات","name:de":"Halat","name:en":"Halat","name:es":"Halat","name:fr":"Halat","name:ml":"ഹാലാത്ത്"},"display_name":"حالات, قضاء جبيل, محافظة كسروان جبيل, لبنان","address":{"town":"حالات","state_district":"قضاء جبيل","state":"محافظة كسروان جبيل","country":"لبنان","country_code":"lb"},"osm_type":"relation","osm_id":9204617,"type":"administrative","location":[35.6584659,34.0842051],"bbox":[35.6455366,34.0717951,35.6895375,34.1020907]}}
{"name":"حبوش","other_names":{"name:ar":"حبوش","name:en":"Habboush","name:fr":"Habbouch","name:he":"חבוש","name:ml":"ഹബ്ബൂഷ്"},"display_name":"حبوش, قضاء النبطية, محافظة النبطية, 1700, لبنان","address":{"town":"حبوش","municipality":"حبوش","state_district":"قضاء النبطية","state":"محافظة النبطية","ISO3166-2-lvl4":"LB-NA","postcode":"1700","country":"لبنان","country_code":"lb"},"osm_type":"node","osm_id":4812430106,"type":"town","location":[35.4812705,33.409165],"bbox":[35.4412705,33.369165,35.5212705,33.449165],"border":{"name":"حبوش","other_names":{"name:ar":"حبوش","name:en":"Habboush","name:fr":"Habbouch"},"display_name":"حبوش, قضاء النبطية, محافظة النبطية, لبنان","address":{"municipality":"حبوش","state_district":"قضاء النبطية","state":"محافظة النبطية","ISO3166-2-lvl4":"LB-NA","country":"لبنان","country_code":"lb"},"osm_type":"relation","osm_id":18117058,"type":"administrative","location":[35.48664375870919,33.40645245],"bbox":[35.4629016,33.3921773,35.5102479,33.4211797]}}
{"name":"حلبا","other_names":{"name:ar":"حلبا","name:de":"Halba","name:en":"Halba","name:es":"Halba","name:fr":"Halba","name:he":"חלבא","name:ml":"ഹൽബ","name:ru":"Хальба"},"display_name":"حلبا, قضاء عكار, محافظة عكار, 1302, لبنان","address":{"town":"حلبا","state_district":"قضاء عكار","state":"محافظة عكار","ISO3166-2-lvl4":"LB-AK","postcode":"1302","country":"لبنان","country_code":"lb"},"population":4730,"osm_type":"node","osm_id":4519119272,"type":"town","location":[36.0783772,34.5444034],"bbox":[36.0383772,34.5044034,36.1183772,34.5844034]}
{"name":"حمانا","other_names":{"name:ar":"حمانا","name:de":"Hammana","name:en":"Hammana","name:es":"Hammana","name:fr":"Hammana","name:ml":"ഹമാന"},"display_name":"حمانا, قضاء بعبدا, محافظة جبل لبنان, لبنان","address":{"town":"حمانا","state_district":"قضاء بعبدا","state":"محافظة جبل لبنان","ISO3166-2-lvl4":"LB-JL","country":"لبنان","country_code":"lb"},"osm_type":"node","osm_id":5037448063,"type":"town","location":[35.7359048,33.8269773],"bbox":[35.6959048,33.7869773,35.7759048,33.8669773]}
{"name":"خلدة","other_names":{"name:ar":"خلدة","name:en":"Khalde","name:fr":"Khaldeh","name:ml":"ഖൽദെ","alt_name:fr":"Khaldé"},"display_name":"خلدة, قبة الشويفات, قضاء عاليه, محافظة جبل لبنان, 1500, لبنان","address":{"town":"خلدة","municipality":"قبة الشويفات","state_district":"قضاء عاليه","state":"محافظة جبل لبنان","ISO3166-2-lvl4":"LB-JL","postcode":"1500","country":"لبنان","country_code":"lb"},"osm_type":"node","osm_id":5416951814,"type":"town","location":[35.4857182,33.7817608],"bbox":[35.4457182,33.7417608,35.5257182,33.8217608]}
{"name":"دكوانة","other_names":{"name:ar":"دكوانة","name:en":"Dekwaneh","name:fa":"دکوانه","name:fr":"Dekouané","name:ml":"ദിക്വാന","name:ur":"دکوانہ","alt_name":"الدكوانة","name:azb":"دکوانه","alt_name:ar":"الدكوانة","alt_name:fr":"Ed Dekouané;Dekouane"},"display_name":"دكوانة, قضاء المتن, محافظة جبل لبنان, لبنان","address":{"town":"دكوانة","state_district":"قضاء المتن","state":"محافظة جبل لبنان","ISO3166-2-lvl4":"LB-JL","country":"لبنان","country_code":"lb"},"osm_type":"node","osm_id":4893558237,"type":"town","location":[35.546644,33.880408],"bbox":[35.506644,33.840408,35.586644,33.920408],"border":{"name":"دكوانة","other_names":{"name:ar":"دكوانة","name:en":"Dekwaneh","name:fa":"دکوانه","name:fr":"Dekouané","name:ur":"دکوانہ","alt_name":"الدكوانة","name:azb":"دکوانه","alt_name:ar":"الدكوانة","alt_name:fr":"Ed Dekouané;Dekouane","name:ml":"ദിക്വാന"},"display_name":"دكوانة, قضاء المتن, محافظة جبل لبنان, 2703, لبنان","address":{"town":"دكوانة","state_district":"قضاء المتن","state":"محافظة جبل لبنان","ISO3166-2-lvl4":"LB-JL","postcode":"2703","country":"لبنان","country_code":"lb"},"osm_type":"relation","osm_id":7371104,"type":"administrative","location":[35.546644,33.880408],"bbox":[35.5398218,33.8656622,35.5528856,33.8866897]}}
{"name":"دير الأحمر","other_names":{"name:ar":"دير الأحمر","name:de":"Deir El Ahmar","name:en":"Deir El Ahmar","name:es":"Deir El Ahmar","name:fr":"Deir El Ahmar","name:ml":"ദെയ്ർ അൽ-അഹ്മർ"},"display_name":"دير الأحمر, دير الاحمر, قضاء بعلبك, محافظة بعلبك الهرمل, لبنان","address":{"town":"دير الأحمر","municipality":"دير الاحمر","state_district":"قضاء بعلبك","state":"محافظة بعلبك الهرمل","ISO3166-2-lvl4":"LB-BH","country":"لبنان","country_code":"lb"},"osm_type":"node","osm_id":5463227721,"type":"town","location":[36.1312578,34.1250724],"bbox":[36.0912578,34.0850724,36.1712578,34.1650724],"border":{"name":"دير الاحمر","other_names":{"name:ar":"دير الاحمر","name:en":"Deir El Ahmar","name:fr":"Deir El Ahmar"},"display_name":"دير الاحمر, قضاء بعلبك, محافظة بعلبك الهرمل, لبنان","address":{"municipality":"دير الاحمر","state_district":"قضاء بعلبك","state":"محافظة بعلبك الهرمل","ISO3166-2-lvl4":"LB-BH","country":"لبنان","country_code":"lb"},"osm_type":"relation","osm_id":18200710,"type":"administrative","location":[36.13192254046539,34.1205982],"bbox":[36.0536527,34.0763722,36.1711978,34.16299]}}
{"name":"ذوق الخراب","other_names":{"name:ar":"ذوق الخراب","name:de":"Zouk El Kharab","name:en":"Zouk el Kharab","name:fr":"Zouk El Kharab","alt_name":"Zouk El Khrab"},"display_name":"ذوق الخراب, قضاء المتن, محافظة جبل لبنان, 2502, لبنان","address":{"town":"ذوق الخراب","municipality":"ذوق الخراب","state_district":"قضاء المتن","state":"محافظة جبل لبنان","ISO3166-2-lvl4":"LB-JL","postcode":"2502","country":"لبنان","country_code":"lb"},"osm_type":"node","osm_id":5200551812,"type":"town","location":[35.6013561,33.9436277],"bbox":[35.5613561,33.9036277,35.6413561,33.9836277],"border":{"name":"ذوق الخراب","other_names":{"name:ar":"ذوق الخراب","name:de":"Zouk el Kharab","name:en":"Zouk el Kharab","name:fr":"Zouk el Kharab"},"display_name":"ذوق الخراب, قضاء المتن, محافظة جبل لبنان, لبنان","address":{"municipality":"ذوق الخراب","state_district":"قضاء المتن","state":"محافظة جبل لبنان","ISO3166-2-lvl4":"LB-JL","country":"لبنان","country_code":"lb"},"osm_type":"relation","osm_id":7696371,"type":"administrative","location":[35.60142683360307,33.94990755],"bbox":[35.5920031,33.9398531,35.6245627,33.9597456]}}
{"name":"ذوق مصبح","other_names":{"name:ar":"ذوق مصبح","name:de":"Zouk Mosbeh","name:en":"Zouk Mosbeh","name:fr":"Zouk Mosbeh","name:ml":"സൂഖ് മുസ്ബെ","alt_name":"زرق مصبح","alt_name:ar":"زرق مصبح"},"display_name":"ذوق مصبح, قضاء كسروان, محافظة كسروان جبيل, لبنان","address":{"town":"ذوق مصبح","state_district":"قضاء كسروان","state":"محافظة كسروان جبيل","country":"لبنان","country_code":"lb"},"osm_type":"node","osm_id":4866980833,"type":"town","location":[35.6151627,33.9558528],"bbox":[35.5751627,33.9158528,35.6551627,33.9958528],"border":{"name":"ذوق مصبح","other_names":{"name:ar":"ذوق مصبح","name:de":"Zouk Mosbeh","name:en":"Zouk Mosbeh","name:fr":"Zouk Mosbeh","alt_name":"زرق مصبح","alt_name:ar":"زرق مصبح","name:ml":"സൂഖ് മുസ്ബെ"},"display_name":"ذوق مصبح, قضاء كسروان, محافظة كسروان جبيل, لبنان","address":{"town":"ذوق مصبح","state_district":"قضاء كسروان","state":"محافظة كسروان جبيل","country":"لبنان","country_code":"lb"},"osm_type":"relation","osm_id":7696383,"type":"administrative","location":[35.6151627,33.9558528],"bbox":[35.5980773,33.9446338,35.6303157,33.9712297]}}
{"name":"ذوق مكايل","other_names":{"name:ar":"ذوق مكايل","name:de":"Zouk Mikael","name:en":"Zouk Mikael","name:fr":"Zouk Mikael","alt_name":"Zouk Mkayel;Zouq Mikael","alt_name:fr":"Zouk Mkayel"},"display_name":"ذوق مكايل, قضاء كسروان, محافظة كسروان جبيل, لبنان","address":{"town":"ذوق مكايل","state_district":"قضاء كسروان","state":"محافظة كسروان جبيل","country":"لبنان","country_code":"lb"},"osm_type":"node","osm_id":4771265938,"type":"town","location":[35.6213958,33.9701266],"bbox":[35.5813958,33.9301266,35.6613958,34.0101266],"border":{"name":"ذوق مكايل","other_names":{"name:ar":"ذوق مكايل","name:en":"Zouk Mikael","name:fr":"Zouk Mikael","alt_name":"Zouk Mkayel","alt_name:fr":"Zouk Mkayel","name:de":"Zouk Mikael","_place_alt_name":"Zouk Mkayel;Zouq Mikael"},"display_name":"ذوق مكايل, قضاء كسروان, محافظة كسروان جبيل, لبنان","address":{"town":"ذوق مكايل","state_district":"قضاء كسروان","state":"محافظة كسروان جبيل","country":"لبنان","country_code":"lb"},"osm_type":"relation","osm_id":8450016,"type":"administrative","location":[35.6213958,33.9701266],"bbox":[35.600252,33.9606508,35.6353354,33.9803999]}}
{"name":"راشيا","other_names":{"name:ar":"راشيا","name:en":"Rashaya","name:fr":"Rashaya","name:he":"ראשיא","name:ml":"റാഷയ","alt_name":"Rachaya;Rachaiya","alt_name:ar":"راشيَا;راشيّا الوادي"},"display_name":"راشيا, قضاء راشيا, محافظة البقاع, لبنان","address":{"town":"راشيا","state_district":"قضاء راشيا","state":"محافظة البقاع","ISO3166-2-lvl4":"LB-BI","country":"لبنان","country_code":"lb"},"osm_type":"node","osm_id":5799788932,"type":"town","location":[35.8448806,33.5014243],"bbox":[35.8048806,33.4614243,35.8848806,33.5414243]}
{"name":"رميش","other_names":{"name:ar":"رميش","name:de":"Rmaich","name:en":"Rmeish","name:fr":"Rmaïch","name:he":"רמיש","name:ml":"റുമൈഷ്","alt_name":"Rmaysh;Rmeich"},"display_name":"رميش, قضاء بنت جبيل, محافظة النبطية, لبنان","address":{"town":"رميش","municipality":"رميش","state_district":"قضاء بنت جبيل","state":"محافظة النبطية","ISO3166-2-lvl4":"LB-NA","country":"لبنان","country_code":"lb"},"osm_type":"node","osm_id":5509898226,"type":"town","location":[35.3678431,33.0777979],"bbox":[35.3278431,33.0377979,35.4078431,33.1177979],"border":{"name":"رميش","other_names":{"name:ar":"رميش","name:en":"Rmaich","name:fr":"Rmaich"},"display_name":"رميش, قضاء بنت جبيل, محافظة النبطية, لبنان","address":{"municipality":"رميش","state_district":"قضاء بنت جبيل","state":"محافظة النبطية","ISO3166-2-lvl4":"LB-NA","country":"لبنان","country_code":"lb"},"osm_type":"relation","osm_id":11585170,"type":"administrative","location":[35.36785542204379,33.075225700000004],"bbox":[35.3361854,33.0550325,35.39853,33.0943999]}}
{"name":"زغرتا","other_names":{"name:ar":"زغرتا","name:de":"Zgharta","name:el":"Ζγάρτα","name:en":"Zgharta","name:es":"Zgharta","name:fr":"Zgharta","name:he":"זע'רתא","name:hr":"Zgarta","name:hy":"Զղարթա","name:ml":"സഗർത്ത","name:ru":"Згарта","name:sl":"Zgarta","name:tr":"Zgarta","name:uk":"Згарта"},"display_name":"زغرتا, قضاء زغرتا, محافظة الشمال, 1304, لبنان","address":{"town":"زغرتا","state_district":"قضاء زغرتا","state":"محافظة الشمال","ISO3166-2-lvl4":"LB-AS","postcode":"1304","country":"لبنان","country_code":"lb"},"osm_type":"node","osm_id":5328083760,"type":"town","location":[35.8967113,34.3929847],"bbox":[35.8567113,34.3529847,35.9367113,34.4329847]}
{"name":"سعد نايل","other_names":{"name:ar":"سعد نايل","name:de":"Saadnayel","name:en":"Saadnayel","name:fr":"Saadnayel","name:ml":"സാദ്‌നായിൽ","alt_name":"سعدنايل","alt_name:ar":"سعدنايل"},"display_name":"سعد نايل, سعدنايل, قضاء زحلة, محافظة البقاع, 1802, لبنان","address":{"town":"سعد نايل","municipality":"سعدنايل","state_district":"قضاء زحلة","state":"محافظة البقاع","ISO3166-2-lvl4":"LB-BI","postcode":"1802","country":"لبنان","country_code":"lb"},"osm_type":"node","osm_id":7033666396,"type":"town","location":[35.8813124,33.8193839],"bbox":[35.8413124,33.7793839,35.9213124,33.8593839],"border":{"name":"سعدنايل","other_names":{"name:ar":"سعدنايل","name:en":"Saadnayel","name:fr":"Saadnayel"},"display_name":"سعدنايل, قضاء زحلة, محافظة البقاع, لبنان","address":{"municipality":"سعدنايل","state_district":"قضاء زحلة","state":"محافظة البقاع","ISO3166-2-lvl4":"LB-BI","country":"لبنان","country_code":"lb"},"osm_type":"relation","osm_id":18156528,"type":"administrative","location":[35.884992098393,33.817199450000004],"bbox":[35.867883,33.8012648,35.91156,33.8325029]}}
{"name":"سن الفيل","other_names":{"name:ar":"سنّ الفيل","name:en":"Sinn El Fil","name:fr":"Sinn El Fil","name:ml":"സിൻ അൽ-ഫീൽ","alt_name":"Sin El Fil"},"display_name":"سن الفيل, قضاء المتن, محافظة جبل لبنان, 2703, لبنان","address":{"town":"سن الفيل","municipality":"سن الفيل","state_district":"قضاء المتن","state":"محافظة جبل لبنان","ISO3166-2-lvl4":"LB-JL","postcode":"2703","country":"لبنان","country_code":"lb"},"osm_type":"node","osm_id":4893562219,"type":"town","location":[35.5376847,33.8778546],"bbox":[35.4976847,33.8378546,35.5776847,33.9178546],"border":{"name":"سن الفيل","other_names":{"name:ar":"سن الفيل","name:en":"Sinn Al Fil","name:fr":"Sinn El Fill","alt_name:ar":"سنّ الفيل"},"display_name":"سن الفيل, قضاء المتن, محافظة جبل لبنان, لبنان","address":{"municipality":"سن الفيل","state_district":"قضاء المتن","state":"محافظة جبل لبنان","ISO3166-2-lvl4":"LB-JL","country":"لبنان","country_code":"lb"},"osm_type":"relation","osm_id":9106777,"type":"administrative","location":[35.53521412943094,33.87771845],"bbox":[35.5293746,33.8647952,35.5445369,33.8902216]}}
{"name":"شتورا","other_names":{"name:ar":"شتورا","name:en":"Chtoura","name:fr":"Chtoura","name:he":"שתורא","name:ml":"ഷ്തോറ","alt_name":"Chtaura","alt_name:ar":"شتورة"},"display_name":"شتورا, قضاء زحلة, محافظة البقاع, 1802, لبنان","address":{"town":"شتورا","municipality":"شتورا","state_district":"قضاء زحلة","state":"محافظة البقاع","ISO3166-2-lvl4":"LB-BI","postcode":"1802","country":"لبنان","country_code":"lb"},"population":1370,"osm_type":"node","osm_id":5018242049,"type":"town","location":[35.8553364,33.8120286],"bbox":[35.8153364,33.7720286,35.8953364,33.8520286],"border":{"name":"شتورا","other_names":{"name:ar":"شتورا","name:en":"Chtoura","name:fr":"Chtoura"},"display_name":"شتورا, قضاء زحلة, محافظة البقاع, 1802, لبنان","address":{"municipality":"شتورا","state_district":"قضاء زحلة","state":"محافظة البقاع","ISO3166-2-lvl4":"LB-BI","postcode":"1802","country":"لبنان","country_code":"lb"},"osm_type":"relation","osm_id":18015807,"type":"administrative","location":[35.85588164033517,33.81541675],"bbox":[35.8492684,33.8063597,35.8622074,33.8244549]}}
{"name":"شحيم","other_names":{"name:ar":"شحيم","name:en":"Shahim","name:fr":"Chehime","name:ml":"ഷഹീം","alt_name":"Chehim;Shhim;Shehim"},"display_name":"شحيم, قضاء الشوف, محافظة جبل لبنان, 1504, لبنان","address":{"town":"شحيم","municipality":"شحيم","state_district":"قضاء الشوف","state":"محافظة جبل لبنان","ISO3166-2-lvl4":"LB-JL","postcode":"1504","country":"لبنان","country_code":"lb"},"osm_type":"node","osm_id":6383368493,"type":"town","location":[35.4845993,33.6241914],"bbox":[35.4445993,33.5841914,35.5245993,33.6641914],"border":{"name":"شحيم","other_names":{"name:ar":"شحيم","name:en":"Shahim","name:fr":"Chahim"},"display_name":"شحيم, قضاء الشوف, محافظة جبل لبنان, لبنان","address":{"municipality":"شحيم","state_district":"قضاء الشوف","state":"محافظة جبل لبنان","ISO3166-2-lvl4":"LB-JL","country":"لبنان","country_code":"lb"},"osm_type":"relation","osm_id":16268373,"type":"administrative","location":[35.48695811595664,33.6275246],"bbox":[35.459876,33.6098235,35.5043283,33.6450636]}}
{"name":"شكا","other_names":{"name:ar":"شكا","name:de":"Chekka","name:en":"Chekka","name:fr":"Chekka","name:he":"שכא","name:ml":"ഷെക്ക","alt_name":"Shekka"},"display_name":"شكا, شكَا, قضاء البترون, محافظة الشمال, لبنان","address":{"town":"شكا","municipality":"شكَا","state_district":"قضاء البترون","state":"محافظة الشمال","ISO3166-2-lvl4":"LB-AS","country":"لبنان","country_code":"lb"},"osm_type":"node","osm_id":5018298801,"type":"town","location":[35.7350815,34.3308738],"bbox":[35.6950815,34.2908738,35.7750815,34.3708738],"border":{"name":"شكَا","other_names":{"name:ar":"شكَا","name:en":"Chekka","name:fr":"Chekka"},"display_name":"شكَا, قضاء البترون, محافظة الشمال, لبنان","address":{"municipality":"شكَا","state_district":"قضاء البترون","state":"محافظة الشمال","ISO3166-2-lvl4":"LB-AS","country":"لبنان","country_code":"lb"},"osm_type":"relation","osm_id":15965352,"type":"administrative","location":[35.741633004067246,34.3246764],"bbox":[35.7207569,34.3062054,35.7615852,34.3433074]}}
{"name":"شياح","other_names":{"name:ar":"شياح","name:de":"Chiyah","name:en":"Chiyah","name:fr":"Chiyah","name:ml":"ഷിയാഹ്","alt_name:en":"Chiayah;Chiah"},"display_name":"شياح, قضاء بعبدا, محافظة جبل لبنان, 1122, لبنان","address":{"town":"شياح","state_district":"قضاء بعبدا","state":"محافظة جبل لبنان","ISO3166-2-lvl4":"LB-JL","postcode":"1122","country":"لبنان","country_code":"lb"},"osm_type":"node","osm_id":5421813516,"type":"town","location":[35.5179838,33.8652121],"bbox":[35.4779838,33.8252121,35.5579838,33.9052121]}
{"name":"صربا","other_names":{"name:ar":"صربا","name:de":"Sarba","name:en":"Sarba","name:fr":"Sarba"},"display_name":"صربا, قضاء كسروان, محافظة كسروان جبيل, لبنان","address":{"town":"صربا","state_district":"قضاء كسروان","state":"محافظة كسروان جبيل","country":"لبنان","country_code":"lb"},"osm_type":"node","osm_id":5012792891,"type":"town","location":[35.6184555,33.9774198],"bbox":[35.5784555,33.9374198,35.6584555,34.0174198],"border":{"name":"صربا","other_names":{"name:ar":"صربا","name:en":"Sarba","name:fr":"Sarba","name:de":"Sarba"},"display_name":"صربا, قضاء كسروان, محافظة كسروان جبيل, لبنان","address":{"town":"صربا","state_district":"قضاء كسروان","state":"محافظة كسروان جبيل","country":"لبنان","country_code":"lb"},"osm_type":"relation","osm_id":8548470,"type":"administrative","location":[35.6184555,33.9774198],"bbox":[35.6077182,33.9731359,35.6310117,33.9885595]}}
{"name":"ضهور الشوير","other_names":{"name:ar":"ضهور الشوير","name:en":"Dhour El Choueir","name:fr":"Dhour El Choueir","name:ml":"ദുഹൂർ അൽ-ഷ്വൈർ","alt_name":"Dhour Shweir;Dhour El Shweir"},"display_name":"ضهور الشوير, قضاء المتن, محافظة جبل لبنان, 4838, لبنان","address":{"town":"ضهور الشوير","municipality":"ضهور الشوير","state_district":"قضاء المتن","state":"محافظة جبل لبنان","ISO3166-2-lvl4":"LB-JL","postcode":"4838","country":"لبنان","country_code":"lb"},"osm_type":"node","osm_id":8121397339,"type":"town","location":[35.7119179,33.9104884],"bbox":[35.6719179,33.8704884,35.7519179,33.9504884],"border":{"name":"ضهور الشوير","other_names":{"name:ar":"ضهور الشوير","name:en":"Dhour El Choueir","name:fr":"Dhour El Choueir"},"display_name":"ضهور الشوير, قضاء المتن, محافظة جبل لبنان, 4838, لبنان","address":{"municipality":"ضهور الشوير","state_district":"قضاء المتن","state":"محافظة جبل لبنان","ISO3166-2-lvl4":"LB-JL","postcode":"4838","country":"لبنان","country_code":"lb"},"osm_type":"relation","osm_id":11895678,"type":"administrative","location":[35.71395763339777,33.9140868],"bbox":[35.7024733,33.8993928,35.7291917,33.9289945]}}
{"name":"عدلون","other_names":{"name:ar":"عدلون","name:de":"Aadloun","name:en":"Aadloun","name:fr":"Aadloun","name:he":"עדלון","name:ml":"അദ്ലൂൺ"},"display_name":"عدلون, قضاء صيدا, محافظة الجنوب, لبنان","address":{"town":"عدلون","municipality":"عدلون","state_district":"قضاء صيدا","state":"محافظة الجنوب","ISO3166-2-lvl4":"LB-JA","country":"لبنان","country_code":"lb"},"population":5770,"osm_type":"node","osm_id":5607977623,"type":"town","location":[35.274391,33.4048204],"bbox":[35.234391,33.3648204,35.314391,33.4448204],"border":{"name":"عدلون","other_names":{"name:ar":"عدلون","name:en":"Aadloun","name:fr":"Aadloun"},"display_name":"عدلون, قضاء صيدا, محافظة الجنوب, لبنان","address":{"municipality":"عدلون","state_district":"قضاء صيدا","state":"محافظة الجنوب","ISO3166-2-lvl4":"LB-JA","country":"لبنان","country_code":"lb"},"osm_type":"relation","osm_id":16236767,"type":"administrative","location":[35.2659013583287,33.3982861],"bbox":[35.2500873,33.3692087,35.2766704,33.4275374]}}
{"name":"عرسال ساحة","other_names":{"name:ar":"عرسال ساحة","name:de":"Arsal","name:en":"Arsal","name:es":"Arsal","name:fr":"Aarsal","name:ml":"ആർസാൽ","alt_name":"Aarsal"},"display_name":"عرسال ساحة, عرسال, قضاء بعلبك, محافظة بعلبك الهرمل, لبنان","address":{"town":"عرسال ساحة","municipality":"عرسال","state_district":"قضاء بعلبك","state":"محافظة بعلبك الهرمل","ISO3166-2-lvl4":"LB-BH","country":"لبنان","country_code":"lb"},"osm_type":"node","osm_id":1889908376,"type":"town","location":[36.4187723,34.1802927],"bbox":[36.3787723,34.1402927,36.4587723,34.2202927],"border":{"name":"عرسال","other_names":{"name:ar":"عرسال","name:en":"Aarsal","name:fr":"Aarsal","alt_name":"Arsal"},"display_name":"عرسال, قضاء بعلبك, محافظة بعلبك الهرمل, لبنان","address":{"municipality":"عرسال","state_district":"قضاء بعلبك","state":"محافظة بعلبك الهرمل","ISO3166-2-lvl4":"LB-BH","country":"لبنان","country_code":"lb"},"osm_type":"relation","osm_id":18193689,"type":"administrative","location":[36.45906972924031,34.1473],"bbox":[36.322174,34.0525,36.625,34.2329514]}}
{"name":"عماطور","other_names":{"name:ar":"عماطور","name:de":"Ammatour","name:en":"Ammatour","name:fr":"Ammatour","name:ml":"അമ്മാത്തൂർ","alt_name":"Ammatur","alt_name:ar":"عمّاطور‎"},"display_name":"عماطور, قضاء الشوف, محافظة جبل لبنان, 1503, لبنان","address":{"town":"عماطور","state_district":"قضاء الشوف","state":"محافظة جبل لبنان","ISO3166-2-lvl4":"LB-JL","postcode":"1503","country":"لبنان","country_code":"lb"},"osm_type":"node","osm_id":6274504727,"type":"town","location":[35.6083217,33.6427692],"bbox":[35.5683217,33.6027692,35.6483217,33.6827692]}
{"name":"عمشيت","other_names":{"name:ar":"عمشيت","name:de":"Aamchit","name:en":"Aamchit","name:fr":"Aamchit","name:ml":"അംഷീത്ത്","alt_name":"Amsheet;Amchit"},"display_name":"عمشيت, قضاء جبيل, محافظة كسروان جبيل, 1401, لبنان","address":{"town":"عمشيت","municipality":"عمشيت","state_district":"قضاء جبيل","state":"محافظة كسروان جبيل","postcode":"1401","country":"لبنان","country_code":"lb"},"osm_type":"node","osm_id":4802509982,"type":"town","location":[35.6465525,34.1421297],"bbox":[35.6065525,34.1021297,35.6865525,34.1821297],"border":{"name":"عمشيت","other_names":{"name:ar":"عمشيت","name:de":"Aamchit","name:en":"Aamchit","name:fr":"Aamchit"},"display_name":"عمشيت, قضاء جبيل, محافظة كسروان جبيل, 1401, لبنان","address":{"municipality":"عمشيت","state_district":"قضاء جبيل","state":"محافظة كسروان جبيل","postcode":"1401","country":"لبنان","country_code":"lb"},"osm_type":"relation","osm_id":9200393,"type":"administrative","location":[35.64273876363749,34.14799975],"bbox":[35.6260803,34.1294006,35.6596631,34.1663812]}}
{"name":"عنجر","other_names":{"name:ar":"عنجر","name:en":"Anjar","name:fr":"Anjar","name:he":"ענג'ר","name:ml":"അഞ്ജർ"},"display_name":"عنجر, قضاء زحلة, محافظة البقاع, لبنان","address":{"town":"عنجر","municipality":"عنجر","state_district":"قضاء زحلة","state":"محافظة البقاع","ISO3166-2-lvl4":"LB-BI","country":"لبنان","country_code":"lb"},"osm_type":"node","osm_id":7352216883,"type":"town","location":[35.9314084,33.7282212],"bbox":[35.8914084,33.6882212,35.9714084,33.7682212],"border":{"name":"عنجر","other_names":{"name:ar":"عنجر","name:en":"Anjar","name:fr":"Anjar"},"display_name":"عنجر, قضاء زحلة, محافظة البقاع, لبنان","address":{"municipality":"عنجر","state_district":"قضاء زحلة","state":"محافظة البقاع","ISO3166-2-lvl4":"LB-BI","country":"لبنان","country_code":"lb"},"osm_type":"relation","osm_id":12043660,"type":"administrative","location":[35.93035332723886,33.739471550000005],"bbox":[35.8976619,33.7184679,35.9660196,33.7602476]}}
{"name":"عين سعادة","other_names":{"name:ar":"عين سعادة","name:en":"Ain Saadeh","name:fr":"Ain Saadeh","name:ml":"ഐൻ സാദെ","alt_name:en":"Ain Saade","alt_name:fr":"Aïn Saadé"},"display_name":"عين سعادة, قضاء المتن, محافظة جبل لبنان, 2753, لبنان","address":{"town":"عين سعادة","municipality":"عين سعادة","state_district":"قضاء المتن","state":"محافظة جبل لبنان","ISO3166-2-lvl4":"LB-JL","postcode":"2753","country":"لبنان","country_code":"lb"},"osm_type":"node","osm_id":6069187780,"type":"town","location":[35.5825831,33.8647483],"bbox":[35.5425831,33.8247483,35.6225831,33.9047483],"border":{"name":"عين سعادة","other_names":{"name:ar":"عين سعادة","name:en":"Ain Saadeh","name:fr":"Ain Saadeh","alt_name:en":"Ain Saade","alt_name:fr":"Aïn Saadé"},"display_name":"عين سعادة, قضاء المتن, محافظة جبل لبنان, 2753, لبنان","address":{"municipality":"عين سعادة","state_district":"قضاء المتن","state":"محافظة جبل لبنان","ISO3166-2-lvl4":"LB-JL","postcode":"2753","country":"لبنان","country_code":"lb"},"osm_type":"relation","osm_id":9101522,"type":"administrative","location":[35.5832801873444,33.8685181],"bbox":[35.5675425,33.8552971,35.6036424,33.8818885]}}
{"name":"غبيري","other_names":{"name:ar":"غبيري","name:de":"Ghobeiry","name:en":"Ghobeiry","name:fr":"Ghobeiry","name:ml":"ഗുബൈറി","alt_name":"Ghbeiry"},"display_name":"غبيري, قضاء بعبدا, محافظة جبل لبنان, 1122, لبنان","address":{"town":"غبيري","state_district":"قضاء بعبدا","state":"محافظة جبل لبنان","ISO3166-2-lvl4":"LB-JL","postcode":"1122","country":"لبنان","country_code":"lb"},"osm_type":"node","osm_id":5421872500,"type":"town","location":[35.5056707,33.8597545],"bbox":[35.4656707,33.8197545,35.5456707,33.8997545]}
{"name":"غزير","other_names":{"name:ar":"غزير","name:en":"Ghazir","name:fr":"Ghazir","name:ml":"ഗസീർ"},"display_name":"غزير, غزير‎, قضاء كسروان, محافظة كسروان جبيل, 1215, لبنان","address":{"town":"غزير","municipality":"غزير‎","state_district":"قضاء كسروان","state":"محافظة كسروان جبيل","postcode":"1215","country":"لبنان","country_code":"lb"},"osm_type":"node","osm_id":4748423550,"type":"town","location":[35.6609117,34.0161562],"bbox":[35.6209117,33.9761562,35.7009117,34.0561562],"border":{"name":"غزير‎","other_names":{"name:ar":"غزير‎","name:en":"Ghazir","name:fr":"Ghazir"},"display_name":"غزير‎, قضاء كسروان, محافظة كسروان جبيل, 1215, لبنان","address":{"municipality":"غزير‎","state_district":"قضاء كسروان","state":"محافظة كسروان جبيل","postcode":"1215","country":"لبنان","country_code":"lb"},"osm_type":"relation","osm_id":8419655,"type":"administrative","location":[35.66374311757842,34.01647145],"bbox":[35.6419026,34.0047769,35.6877083,34.0281821]}}
{"name":"فرن الشباك","other_names":{"name:ar":"فرن الشباك","name:de":"Forn el Chebbak","name:en":"Forn el Chebbak","name:fr":"Forn el Chebbak","name:ml":"ഫുർൺ അൽ-ഷബാക്ക്","alt_name":"Furn Al Shebak;Furn Al-Shebak"},"display_name":"فرن الشباك, قضاء بعبدا, محافظة جبل لبنان, 1122, لبنان","address":{"town":"فرن الشباك","state_district":"قضاء بعبدا","state":"محافظة جبل لبنان","ISO3166-2-lvl4":"LB-JL","postcode":"1122","country":"لبنان","country_code":"lb"},"osm_type":"node","osm_id":5421906316,"type":"town","location":[35.5222897,33.8719938],"bbox":[35.4822897,33.8319938,35.5622897,33.9119938],"border":{"name":"فرن الشباك","other_names":{"name:ar":"فرن الشباك","name:en":"Furn Ech-Chebbak","name:fr":"Furn Ech-Chebbak","alt_name:en":"Forn El Chebbak"},"display_name":"فرن الشباك, قضاء بعبدا, محافظة جبل لبنان, لبنان","address":{"municipality":"فرن الشباك","state_district":"قضاء بعبدا","state":"محافظة جبل لبنان","ISO3166-2-lvl4":"LB-JL","country":"لبنان","country_code":"lb"},"osm_type":"relation","osm_id":11561178,"type":"administrative","location":[35.52757683153935,33.8711866],"bbox":[35.519747,33.8648727,35.5319737,33.8775687]}}
{"name":"فيطرون","other_names":{"name:ar":"فيطرون","name:de":"Faytroun","name:en":"Faytroun","name:fr":"Faytroun","name:ml":"ഫെയ്ത്രൂൺ","alt_name":"Faytroun;Faitroun;Feitroun;Feitrun"},"display_name":"فيطرون, قضاء كسروان, محافظة كسروان جبيل, لبنان","address":{"town":"فيطرون","state_district":"قضاء كسروان","state":"محافظة كسروان جبيل","country":"لبنان","country_code":"lb"},"osm_type":"node","osm_id":4866800802,"type":"town","location":[35.7313178,33.9907186],"bbox":[35.6913178,33.9507186,35.7713178,34.0307186],"border":{"name":"فيطرون","other_names":{"name:ar":"فيطرون","name:de":"Faytroun","name:en":"Faytroun","name:fr":"Faytroun","name:ru":"Faytroun","name:ml":"ഫെയ്ത്രൂൺ","alt_name":"Faytroun;Faitroun;Feitroun;Feitrun"},"display_name":"فيطرون, قضاء كسروان, محافظة كسروان جبيل, لبنان","address":{"town":"فيطرون","state_district":"قضاء كسروان","state":"محافظة كسروان جبيل","country":"لبنان","country_code":"lb"},"osm_type":"relation","osm_id":7370996,"type":"administrative","location":[35.7313178,33.9907186],"bbox":[35.7183847,33.9806805,35.7641029,34.0107859]}}
{"name":"قب إلياس","other_names":{"name:ar":"قب إلياس","name:de":"Qabb Ilyas","name:en":"Qabb Ilyas","name:fr":"Kab Elias","name:ml":"ഖബ് ഏലിയാസ്","alt_name:ar":"قب الياس","alt_name:en":"Kab Elias;Qab Elias;Qob Elias;Qabb Elias"},"display_name":"قب إلياس, قضاء زحلة, محافظة البقاع, 1802, لبنان","address":{"town":"قب إلياس","state_district":"قضاء زحلة","state":"محافظة البقاع","ISO3166-2-lvl4":"LB-BI","postcode":"1802","country":"لبنان","country_code":"lb"},"osm_type":"node","osm_id":5247625030,"type":"town","location":[35.8256221,33.798492],"bbox":[35.7856221,33.758492,35.8656221,33.838492]}
{"name":"قرعون","other_names":{"name:ar":"قرعون","name:de":"Qaraoun","name:en":"Qaraoun","name:fr":"Qaraoun","name:he":"קרעון","name:ml":"ഖറഊൻ","alt_name":"Qaraun;El Qaraaoun"},"display_name":"قرعون, القرعون, قضاء البقاع الغربي, محافظة البقاع, لبنان","address":{"town":"قرعون","municipality":"القرعون","state_district":"قضاء البقاع الغربي","state":"محافظة البقاع","ISO3166-2-lvl4":"LB-BI","country":"لبنان","country_code":"lb"},"population":7000,"osm_type":"node","osm_id":5226873761,"type":"town","location":[35.72039,33.5632423],"bbox":[35.68039,33.5232423,35.76039,33.6032423],"border":{"name":"القرعون","other_names":{"name:ar":"القرعون","name:en":"Qaraoun","name:fr":"Qaraoun"},"display_name":"القرعون, قضاء البقاع الغربي, محافظة البقاع, لبنان","address":{"municipality":"القرعون","state_district":"قضاء البقاع الغربي","state":"محافظة البقاع","ISO3166-2-lvl4":"LB-BI","country":"لبنان","country_code":"lb"},"osm_type":"relation","osm_id":18272718,"type":"administrative","location":[35.72944986354398,33.5640695],"bbox":[35.6893873,33.5415378,35.7701966,33.589795]}}
{"name":"قليعات","other_names":{"name:ar":"قليعات","name:en":"Qleiat","name:fr":"Qleiat","name:ml":"ഖുലയാത്ത്","alt_name":"Qleiaat;Qlaiaat"},"display_name":"قليعات, قضاء كسروان, محافظة كسروان جبيل, 1206, لبنان","address":{"town":"قليعات","municipality":"قليعات","state_district":"قضاء كسروان","state":"محافظة كسروان جبيل","postcode":"1206","country":"لبنان","country_code":"lb"},"osm_type":"node","osm_id":5779148454,"type":"town","location":[35.7142884,33.9727584],"bbox":[35.6742884,33.9327584,35.7542884,34.0127584],"border":{"name":"قليعات","other_names":{"name:ar":"قليعات","name:en":"Qleiat","name:fr":"Qleiat"},"display_name":"قليعات, قضاء كسروان, محافظة كسروان جبيل, لبنان","address":{"municipality":"قليعات","state_district":"قضاء كسروان","state":"محافظة كسروان جبيل","country":"لبنان","country_code":"lb"},"osm_type":"relation","osm_id":8419672,"type":"administrative","location":[35.71657412853838,33.96498335],"bbox":[35.7020903,33.9481839,35.7286871,33.9844216]}}
{"name":"كفر دبش","other_names":{"name:ar":"كفر دبش","name:en":"Kfar Dabash","name:fr":"Kfar Dabach","name:ml":"കഫർദബഷ്","alt_name:ar":"كفردبش","alt_name:en":"Kfar Dabach"},"display_name":"كفر دبش, قضاء بعلبك, محافظة بعلبك الهرمل, لبنان","address":{"town":"كفر دبش","municipality":"كفر دبش","state_district":"قضاء بعلبك","state":"محافظة بعلبك الهرمل","ISO3166-2-lvl4":"LB-BH","country":"لبنان","country_code":"lb"},"osm_type":"node","osm_id":5037241110,"type":"town","location":[36.0322487,33.9480415],"bbox":[35.9922487,33.9080415,36.0722487,33.9880415],"border":{"name":"كفر دبش","other_names":{"name:ar":"كفر دبش","name:en":"Kfar Dabash","name:fr":"Kfar Dabach"},"display_name":"كفر دبش, قضاء بعلبك, محافظة بعلبك الهرمل, لبنان","address":{"municipality":"كفر دبش","state_district":"قضاء بعلبك","state":"محافظة بعلبك الهرمل","ISO3166-2-lvl4":"LB-BH","country":"لبنان","country_code":"lb"},"osm_type":"relation","osm_id":18217018,"type":"administrative","location":[36.03906081843894,33.93890955],"bbox":[36.0238266,33.9253122,36.055022,33.9544315]}}
{"name":"كفر شيما","other_names":{"name:ar":"كفر شيما","name:de":"Kfarshima","name:en":"Kfarshima","name:fr":"Kfarchima","name:ml":"കഫർഷീമ","alt_name:ar":"كفرشيما","alt_name:en":"Kfar Shima;Kfar Chima"},"display_name":"كفر شيما, كفرشيما, قضاء بعبدا, محافظة جبل لبنان, 1003, لبنان","address":{"town":"كفر شيما","municipality":"كفرشيما","state_district":"قضاء بعبدا","state":"محافظة جبل لبنان","ISO3166-2-lvl4":"LB-JL","postcode":"1003","country":"لبنان","country_code":"lb"},"osm_type":"node","osm_id":5943421451,"type":"town","location":[35.5355398,33.8136952],"bbox":[35.4955398,33.7736952,35.5755398,33.8536952],"border":{"name":"كفرشيما","other_names":{"name:ar":"كفرشيما","name:en":"Kfar Shima","name:fr":"Kfar Chima","alt_name":"Kfarshima"},"display_name":"كفرشيما, قضاء بعبدا, محافظة جبل لبنان, لبنان","address":{"municipality":"كفرشيما","state_district":"قضاء بعبدا","state":"محافظة جبل لبنان","ISO3166-2-lvl4":"LB-JL","country":"لبنان","country_code":"lb"},"osm_type":"relation","osm_id":17487327,"type":"administrative","location":[35.53221251394274,33.81472745],"bbox":[35.5203862,33.805183,35.5440545,33.8243435]}}
{"name":"كفرعبيدا","other_names":{"name:ar":"كفرعبيدا","name:de":"Kfaraabida","name:en":"Kfaraabida","name:fr":"Kfaraabida","name:ml":"കഫറബീദ","alt_name":"Kfaraabida"},"display_name":"كفرعبيدا, قضاء البترون, محافظة الشمال, 4107, لبنان","address":{"town":"كفرعبيدا","municipality":"كفرعبيدا","state_district":"قضاء البترون","state":"محافظة الشمال","ISO3166-2-lvl4":"LB-AS","postcode":"4107","country":"لبنان","country_code":"lb"},"osm_type":"node","osm_id":1830001713,"type":"town","location":[35.6628077,34.2280176],"bbox":[35.6228077,34.1880176,35.7028077,34.2680176],"border":{"name":"كفرعبيدا","other_names":{"name:ar":"كفرعبيدا","name:en":"Kfaraabida","name:fr":"Kfaraabida"},"display_name":"كفرعبيدا, قضاء البترون, محافظة الشمال, 4107, لبنان","address":{"municipality":"كفرعبيدا","state_district":"قضاء البترون","state":"محافظة الشمال","ISO3166-2-lvl4":"LB-AS","postcode":"4107","country":"لبنان","country_code":"lb"},"osm_type":"relation","osm_id":12009806,"type":"administrative","location":[35.66496624356534,34.2307869],"bbox":[35.6534224,34.2177908,35.6772423,34.2439229]}}
{"name":"مرجعيون","other_names":{"name:ar":"مرجعيون","name:en":"Marjayoun","name:es":"Marjayún","name:fr":"Marjayoun","name:he":"מרג' עיון","name:ml":"മർജായൂൺ","alt_name:ar":"مرج عيون","alt_name:en":"Marjaayoun"},"display_name":"مرجعيون, قضاء مرجعيون, محافظة النبطية, 1701, لبنان","address":{"town":"مرجعيون","state_district":"قضاء مرجعيون","state":"محافظة النبطية","ISO3166-2-lvl4":"LB-NA","postcode":"1701","country":"لبنان","country_code":"lb"},"population":5000,"osm_type":"node","osm_id":5605013079,"type":"town","location":[35.5902134,33.3592529],"bbox":[35.5502134,33.3192529,35.6302134,33.3992529],"border":{"name":"مرجعيون","other_names":{"name:ar":"مرجعيون","name:de":"Mardsch Uyun","name:en":"Marjayoun","name:es":"Marjayoun","name:fr":"Marjayoun","name:he":"מרג' עיון","name:ml":"മർജായൂൺ","alt_name:ar":"مرج عيون","alt_name:en":"Marjaayoun","alt:es":"Marjayún"},"display_name":"مرجعيون, قضاء مرجعيون, محافظة النبطية, 1701, لبنان","address":{"town":"مرجعيون","state_district":"قضاء مرجعيون","state":"محافظة النبطية","ISO3166-2-lvl4":"LB-NA","postcode":"1701","country":"لبنان","country_code":"lb"},"population":5000,"osm_type":"relation","osm_id":9933772,"type":"administrative","location":[35.5902134,33.3592529],"bbox":[35.5746879,33.3359962,35.6095648,33.370042]}}
{"name":"مغدوشة","other_names":{"name:ar":"مغدوشة","name:de":"Maghdoucheh","name:en":"Maghdoucheh","name:fr":"Maghdoucheh","name:ml":"മഗ്ദൂഷെ","alt_name":"Maghdousheh;Maghdouche"},"display_name":"مغدوشة, قضاء صيدا, محافظة الجنوب, 1600, لبنان","address":{"town":"مغدوشة","municipality":"مغدوشة","state_district":"قضاء صيدا","state":"محافظة الجنوب","ISO3166-2-lvl4":"LB-JA","postcode":"1600","country":"لبنان","country_code":"lb"},"osm_type":"node","osm_id":6088766044,"type":"town","location":[35.386322,33.52016],"bbox":[35.346322,33.48016,35.426322,33.56016],"border":{"name":"مغدوشة","other_names":{"name:ar":"مغدوشة","name:en":"Maghdoucheh","name:fr":"Maghdoucheh"},"display_name":"مغدوشة, قضاء صيدا, محافظة الجنوب, لبنان","address":{"municipality":"مغدوشة","state_district":"قضاء صيدا","state":"محافظة الجنوب","ISO3166-2-lvl4":"LB-JA","country":"لبنان","country_code":"lb"},"osm_type":"relation","osm_id":16335715,"type":"administrative","location":[35.385175760387575,33.5171195],"bbox":[35.3744316,33.5041194,35.4042094,33.5296079]}}
{"name":"مقنة","other_names":{"name:ar":"مقنة","name:en":"Maqnah","name:fr":"Maqna","name:ml":"മഖ്ന","alt_name":"Maqne;Makneh","alt_name:ar":"مكنة;مقنه"},"display_name":"مقنة, قضاء بعلبك, محافظة بعلبك الهرمل, لبنان","address":{"town":"مقنة","municipality":"مقنة","state_district":"قضاء بعلبك","state":"محافظة بعلبك الهرمل","ISO3166-2-lvl4":"LB-BH","country":"لبنان","country_code":"lb"},"osm_type":"node","osm_id":5272284254,"type":"town","location":[36.2064636,34.0774297],"bbox":[36.1664636,34.0374297,36.2464636,34.1174297],"border":{"name":"مقنة","other_names":{"name:ar":"مقنة","name:en":"Maqnah","name:fr":"Maqnah","alt_name":"Maqneh;Maknah"},"display_name":"مقنة, قضاء بعلبك, محافظة بعلبك الهرمل, لبنان","address":{"municipality":"مقنة","state_district":"قضاء بعلبك","state":"محافظة بعلبك الهرمل","ISO3166-2-lvl4":"LB-BH","country":"لبنان","country_code":"lb"},"osm_type":"relation","osm_id":18213750,"type":"administrative","location":[36.20265333949301,34.0742927],"bbox":[36.1612415,34.0473959,36.2367725,34.1069722]}}
{"name":"ميس الجبل","other_names":{"name:ar":"ميس الجبل","name:en":"Meiss Ej Jabal","name:fr":"Meiss El Jabal","name:he":"מיס אל-ג'בל","name:ml":"മെയ്സ് അൽ ജബൽ","name:pl":"Majs al-Dżabal","alt_name":"Mays al Jabal"},"display_name":"ميس الجبل, قضاء مرجعيون, محافظة النبطية, لبنان","address":{"town":"ميس الجبل","municipality":"ميس الجبل","state_district":"قضاء مرجعيون","state":"محافظة النبطية","ISO3166-2-lvl4":"LB-NA","country":"لبنان","country_code":"lb"},"osm_type":"node","osm_id":5519544294,"type":"town","location":[35.5241964,33.1699525],"bbox":[35.4841964,33.1299525,35.5641964,33.2099525],"border":{"name":"ميس الجبل","other_names":{"name:ar":"ميس الجبل","name:en":"Meiss Ej-Jabal","name:fr":"Meiss Ej-Jabal"},"display_name":"ميس الجبل, قضاء مرجعيون, محافظة النبطية, لبنان","address":{"municipality":"ميس الجبل","state_district":"قضاء مرجعيون","state":"محافظة النبطية","ISO3166-2-lvl4":"LB-NA","country":"لبنان","country_code":"lb"},"osm_type":"relation","osm_id":11609073,"type":"administrative","location":[35.50993956159891,33.1755664],"bbox":[35.4821175,33.1538286,35.5422165,33.2015053]}}
{"name":"وادي خالد","other_names":{"name:ar":"وادي خالد","name:de":"Wadi Khalid","name:en":"Wadi Khalid","name:fr":"Ouâdi Khâled","name:ml":"വാദി ഖാലിദ്","alt_name:en":"Wadi Khaled","alt_name:fr":"Ouâdi el Khâled"},"display_name":"وادي خالد, العماير, قضاء عكار, محافظة عكار, لبنان","address":{"town":"وادي خالد","municipality":"العماير","state_district":"قضاء عكار","state":"محافظة عكار","ISO3166-2-lvl4":"LB-AK","country":"لبنان","country_code":"lb"},"osm_type":"node","osm_id":4048569985,"type":"town","location":[36.3875751,34.6233407],"bbox":[36.3475751,34.5833407,36.4275751,34.6633407]}
{"name":"ينار","other_names":{"name:en":"Yanar","name:fr":"Yanar","name:ml":"യനാർ","alt_name":"Yinnar","alt_name:en":"Yinnar"},"display_name":"ينار, Bchamoun, قضاء عاليه, محافظة جبل لبنان, 1500, لبنان","address":{"town":"ينار","municipality":"Bchamoun","state_district":"قضاء عاليه","state":"محافظة جبل لبنان","ISO3166-2-lvl4":"LB-JL","postcode":"1500","country":"لبنان","country_code":"lb"},"osm_type":"node","osm_id":6918516551,"type":"town","location":[35.5036712,33.788555],"bbox":[35.4636712,33.748555,35.5436712,33.828555]}
{"name":"يونين","other_names":{"name:ar":"يونين","name:en":"Younine","name:fr":"Younine"},"display_name":"يونين, قضاء بعلبك, محافظة بعلبك الهرمل, لبنان","address":{"town":"يونين","municipality":"يونين","state_district":"قضاء بعلبك","state":"محافظة بعلبك الهرمل","ISO3166-2-lvl4":"LB-BH","country":"لبنان","country_code":"lb"},"osm_type":"node","osm_id":5829105200,"type":"town","location":[36.2751575,34.0789982],"bbox":[36.2351575,34.0389982,36.3151575,34.1189982],"border":{"name":"يونين","other_names":{"name:ar":"يونين","name:en":"Younine","name:fr":"Younine"},"display_name":"يونين, قضاء بعلبك, محافظة بعلبك الهرمل, لبنان","address":{"municipality":"يونين","state_district":"قضاء بعلبك","state":"محافظة بعلبك الهرمل","ISO3166-2-lvl4":"LB-BH","country":"لبنان","country_code":"lb"},"osm_type":"relation","osm_id":18193698,"type":"administrative","location":[36.27987510760788,34.10779825],"bbox":[36.2187481,34.0583127,36.3473868,34.1594567]}}
