{"name":"Bak","other_names":{"name:en":"Bak","name:fa":"باك","name:ml":"ബാക്ക്","name:ps":"Bak","name:ru":"Бак"},"display_name":"Bak, باک ولسوالۍ, خوست ولايت, افغانستان","address":{"town":"Bak","county":"باک ولسوالۍ","state":"خوست ولايت","ISO3166-2-lvl4":"AF-KHO","country":"افغانستان","country_code":"af"},"osm_type":"node","osm_id":4412947872,"type":"town","location":[70.0241221,33.532325],"bbox":[69.9841221,33.492325,70.0641221,33.572325]}
{"display_name":"Dagana, ولسوالی شولگره, ولایت بلخ, افغانستان","address":{"town":"Dagana","county":"ولسوالی شولگره","state":"ولایت بلخ","ISO3166-2-lvl4":"AF-BAL","country":"افغانستان","country_code":"af"},"osm_type":"node","osm_id":8413493927,"type":"town","location":[67.1171844,36.2230579],"bbox":[67.0771844,36.1830579,67.1571844,36.2630579]}
{"name":"Dalan Pass","other_names":{"name:hu":"Dalan hágó"},"display_name":"Dalan Pass, ولسوالی شولگره, ولایت بلخ, افغانستان","address":{"town":"Dalan Pass","county":"ولسوالی شولگره","state":"ولایت بلخ","ISO3166-2-lvl4":"AF-BAL","country":"افغانستان","country_code":"af"},"osm_type":"node","osm_id":8413484854,"type":"town","location":[67.1767884,36.2151206],"bbox":[67.1367884,36.1751206,67.2167884,36.2551206]}
{"name":"Daraz gerd","display_name":"Daraz gerd, ولسوالی غوربند, ولایت پروان, افغانستان","address":{"town":"Daraz gerd","county":"ولسوالی غوربند","state":"ولایت پروان","ISO3166-2-lvl4":"AF-PAR","country":"افغانستان","country_code":"af"},"osm_type":"way","osm_id":337750198,"type":"town","location":[68.86890566805404,34.99789255],"bbox":[68.8633685,34.9955811,68.8751487,35.0000106]}
{"name":"Joy Haft","display_name":"Joy Haft, جلال اباد, ننگرهار ولايت, 0039, افغانستان","address":{"town":"Joy Haft","city":"جلال اباد","state":"ننگرهار ولايت","ISO3166-2-lvl4":"AF-NAN","postcode":"0039","country":"افغانستان","country_code":"af"},"osm_type":"node","osm_id":1365146525,"type":"town","location":[70.4319549,34.4272135],"bbox":[70.3919549,34.3872135,70.4719549,34.4672135]}
{"name":"Obātu","other_names":{"name:en":"Obātu","alt_name:en":"Ūbahtū"},"display_name":"Obātu, معروف ولسوالۍ, کندهار ولايت, افغانستان","address":{"town":"Obātu","county":"معروف ولسوالۍ","state":"کندهار ولايت","ISO3166-2-lvl4":"AF-KAN","country":"افغانستان","country_code":"af"},"osm_type":"node","osm_id":9263878272,"type":"town","location":[67.0296759,31.48386],"bbox":[66.9896759,31.44386,67.0696759,31.52386]}
{"name":"Shahr-e-naw Bamyan","other_names":{"name:el":"Σαχρ-ε-νάου Μπαμιάν"},"display_name":"Shahr-e-naw Bamyan, ولسوالی بامیان, ولایت بامیان, افغانستان","address":{"town":"Shahr-e-naw Bamyan","county":"ولسوالی بامیان","state":"ولایت بامیان","ISO3166-2-lvl4":"AF-BAM","country":"افغانستان","country_code":"af"},"osm_type":"node","osm_id":1472104370,"type":"town","location":[67.8288986,34.8050491],"bbox":[67.7888986,34.7650491,67.8688986,34.8450491]}
{"display_name":"Наибабад, ولسوالی مارمل, ولایت بلخ, افغانستان","address":{"town":"Наибабад","county":"ولسوالی مارمل","state":"ولایت بلخ","ISO3166-2-lvl4":"AF-BAL","country":"افغانستان","country_code":"af"},"osm_type":"node","osm_id":312761427,"type":"town","location":[67.3910389,36.7894121],"bbox":[67.3510389,36.7494121,67.4310389,36.8294121]}
{"name":"آب بند","other_names":{"name:en":"Ab Band","name:ml":"ആബ് ബന്ദ്","name:ps":"Ow Band;Awband;Ab Band","name:ru":"Аббанд","alt_name":"Ow Band;Awband"},"display_name":"آب بند, آب‌بند ولسوالۍ, ولایت غزنی, افغانستان","address":{"town":"آب بند","county":"آب‌بند ولسوالۍ","state":"ولایت غزنی","ISO3166-2-lvl4":"AF-GHA","country":"افغانستان","country_code":"af"},"osm_type":"node","osm_id":4413371357,"type":"town","location":[67.966667,32.983333],"bbox":[67.926667,32.943333,68.006667,33.023333]}
{"name":"آب کمری","other_names":{"name:ar":"آب كمري","name:en":"Ab-e Kamari","name:ml":"ആബെ കമറി","name:ps":"آب کمری","alt_name":"Ab-i-Kamari"},"display_name":"آب کمری, ولسوالی آبکمری, ولایت بادغیس, افغانستان","address":{"town":"آب کمری","county":"ولسوالی آبکمری","state":"ولایت بادغیس","ISO3166-2-lvl4":"AF-BDG","country":"افغانستان","country_code":"af"},"osm_type":"node","osm_id":4384827563,"type":"town","location":[63.067796,35.087955],"bbox":[63.027796,35.047955,63.107796,35.127955]}
{"name":"آسمار","other_names":{"name:en":"Asmar","name:ml":"ആസ്മാർ","name:ps":"آسمار","name:ru":"Асмар","alt_name":"اسمار;Asma"},"display_name":"آسمار, بر کونړ ولسوالۍ, کونړ ولايت, افغانستان","address":{"town":"آسمار","county":"بر کونړ ولسوالۍ","state":"کونړ ولايت","ISO3166-2-lvl4":"AF-KNR","country":"افغانستان","country_code":"af"},"osm_type":"node","osm_id":4418455317,"type":"town","location":[71.358087,35.033328],"bbox":[71.318087,34.993328,71.398087,35.073328]}
{"name":"آق کپرک","other_names":{"name:ar":"كشندة","name:en":"Keshindeh","name:ps":"آق کپرک","alt_name":"آق کبرک;Keshende;Ak Kuprak;Ak Kupruk;Keshendah;Keshendeh;Aq Kubruk;Aq Kupruk"},"display_name":"آق کپرک, ولسوالی کشنده, ولایت بلخ, افغانستان","address":{"town":"آق کپرک","county":"ولسوالی کشنده","state":"ولایت بلخ","ISO3166-2-lvl4":"AF-BAL","country":"افغانستان","country_code":"af"},"osm_type":"node","osm_id":4393057156,"type":"town","location":[66.840293,36.083517],"bbox":[66.800293,36.043517,66.880293,36.123517]}
{"name":"آقچه","other_names":{"name:en":"Aqcha","name:et":"Āqchah","name:ja":"アクチャ","name:ps":"آقچه","name:ru":"Акча","name:uz":"آقچه","alt_name":"Akcha;Aqcah;Akcheh;Aqca;Aqchah;Akcha;Ag Chah;Aqcheh;Aqcha","name:uz-Arab":"آقچه","name:uz-Latn":"Oqcha"},"display_name":"آقچه, ولسوالی آقچه / آقچه اولسوالیگی, ولایت جوزجان / جوزجان ولایتی, افغانستان","address":{"town":"آقچه","county":"ولسوالی آقچه / آقچه اولسوالیگی","state":"ولایت جوزجان / جوزجان ولایتی","ISO3166-2-lvl4":"AF-JOW","country":"افغانستان","country_code":"af"},"population":8000,"osm_type":"node","osm_id":312969042,"type":"town","location":[66.1821082,36.9026129],"bbox":[66.1421082,36.8626129,66.2221082,36.9426129]}
{"name":"اچین","other_names":{"name:en":"Achin","name:ml":"അച്ചീൻ","name:ps":"اچین","name:ru":"Ачин","name:ur":"اچین","alt_name":"Acin Oluswali;Acin;آچين"},"display_name":"اچین, اچين ولسوالۍ, ننگرهار ولايت, افغانستان","address":{"town":"اچین","county":"اچين ولسوالۍ","state":"ننگرهار ولايت","ISO3166-2-lvl4":"AF-NAN","country":"افغانستان","country_code":"af"},"osm_type":"node","osm_id":4417651916,"type":"town","location":[70.668152,34.082481],"bbox":[70.628152,34.042481,70.708152,34.122481]}
{"name":"ادرسکن","other_names":{"name:en":"Adraskan","name:ml":"അദ്രസ്കാൻ","name:ru":"Адраскан","alt_name":"Gala Adraskan;Qala Adraskan;Kala Adraskan;Adreskan;Qal`eh Adraskand;Adraskand;Gala;Adriskan;Adraskan"},"display_name":"ادرسکن, ولسوالی ادرسکن, ولایت هرات, افغانستان","address":{"town":"ادرسکن","county":"ولسوالی ادرسکن","state":"ولایت هرات","ISO3166-2-lvl4":"AF-HER","country":"افغانستان","country_code":"af"},"osm_type":"node","osm_id":315040898,"type":"town","location":[62.2685579,33.6459652],"bbox":[62.2285579,33.6059652,62.3085579,33.6859652]}
{"name":"ارغستان","other_names":{"name:en":"Arghestan","name:ml":"അർഗെസ്ഥാൻ","name:ps":"ارغستان","name:ru":"Аргастан","alt_name":"ارغستان"},"display_name":"ارغستان, ارغسان ولسوالۍ, کندهار ولايت, افغانستان","address":{"town":"ارغستان","county":"ارغسان ولسوالۍ","state":"کندهار ولايت","ISO3166-2-lvl4":"AF-KAN","country":"افغانستان","country_code":"af"},"osm_type":"node","osm_id":4402908625,"type":"town","location":[66.517354,31.569863],"bbox":[66.477354,31.529863,66.557354,31.609863]}
{"name":"ارغنداب","other_names":{"name:en":"Arghandab","name:ps":"ارغنداب","name:ru":"Аргандаб","alt_name":"ارغنداب"},"display_name":"ارغنداب, کندهار ولايت, 3860, افغانستان","address":{"town":"ارغنداب","state_district":"ارغنداب","state":"کندهار ولايت","ISO3166-2-lvl4":"AF-KAN","postcode":"3860","country":"افغانستان","country_code":"af"},"population":14000,"osm_type":"node","osm_id":4402755305,"type":"town","location":[65.650482,31.6536],"bbox":[65.610482,31.6136,65.690482,31.6936]}
{"name":"ارگون","other_names":{"name:en":"Urgun","name:ps":"ارگون","name:ru":"Ургун","alt_name":"Orgun"},"display_name":"ارگون, ورگون ولسوالۍ, پکتيکا ولايت, افغانستان","address":{"town":"ارگون","county":"ورگون ولسوالۍ","state":"پکتيکا ولايت","ISO3166-2-lvl4":"AF-PKA","country":"افغانستان","country_code":"af"},"osm_type":"node","osm_id":4410026621,"type":"town","location":[69.1800241,32.941138],"bbox":[69.1400241,32.901138,69.2200241,32.981138]}
{"name":"اسلام قلعه","other_names":{"name:en":"Islam Qala","name:ml":"ഇസ്ലാംഖല","name:ru":"Исламкала"},"display_name":"اسلام قلعه, ولسوالی کهسان, ولایت هرات, افغانستان","address":{"town":"اسلام قلعه","county":"ولسوالی کهسان","state":"ولایت هرات","ISO3166-2-lvl4":"AF-HER","country":"افغانستان","country_code":"af"},"osm_type":"node","osm_id":3474080637,"type":"town","location":[61.1101475,34.6603704],"bbox":[61.0701475,34.6203704,61.1501475,34.7003704]}
{"name":"اشکاشم","other_names":{"name:ar":"إشكاشم","name:de":"Ischkaschim","name:en":"Ishkashim","name:ml":"ഇഷ്കാഷിം","name:ps":"اشکاشم","name:ru":"Ишкашим","name:zh":"伊什卡希姆","alt_name":"Ishkamish;Ishkashim Post;Ishkashim;Eskasem;Iskasem;Ashkasham"},"display_name":"اشکاشم, ولسوالی اشکاشم, ولایت بدخشان, افغانستان","address":{"town":"اشکاشم","county":"ولسوالی اشکاشم","state":"ولایت بدخشان","ISO3166-2-lvl4":"AF-BDS","country":"افغانستان","country_code":"af"},"osm_type":"node","osm_id":1137353100,"type":"town","location":[71.5767799,36.7090116],"bbox":[71.5367799,36.6690116,71.6167799,36.7490116]}
{"name":"افغان دوشی","other_names":{"name:ar":"دوشي","name:en":"Afghan-e Doshi","name:ml":"അഫ്ഗാനി ദോഷി","name:ps":"افغان دوشی","name:ru":"Доши","alt_name":"Afghan-e Dowshi;Afghane Dosi"},"display_name":"افغان دوشی, ولسوالی دوشی, ولایت بغلان, افغانستان","address":{"town":"افغان دوشی","county":"ولسوالی دوشی","state":"ولایت بغلان","ISO3166-2-lvl4":"AF-BGL","country":"افغانستان","country_code":"af"},"osm_type":"node","osm_id":4401290911,"type":"town","location":[68.688642,35.625608],"bbox":[68.648642,35.585608,68.728642,35.665608]}
{"name":"اله سای","other_names":{"name:ar":"آلاساي","name:de":"Alah Say","name:en":"Alasay","name:fa":"اله‌سایی","name:ps":"اله سای","name:ur":"الہ سائی","name:pnb":"الہ ساری","alt_name:ps":"شيلۀ اله;آلاسای"},"display_name":"اله سای, اله ساي, آلاسای ولسوالۍ, ولایت کاپیسا, افغانستان","address":{"town":"اله سای","county":"اله ساي","state_district":"آلاسای ولسوالۍ","state":"ولایت کاپیسا","ISO3166-2-lvl4":"AF-KAP","country":"افغانستان","country_code":"af"},"osm_type":"node","osm_id":4419142053,"type":"town","location":[69.7190158,34.8957758],"bbox":[69.6790158,34.8557758,69.7590158,34.9357758]}
{"name":"الیسگان د مهاجرینو ښارګوټی","other_names":{"name:en":"Alice Ghan Refugee Town"},"display_name":"الیسگان د مهاجرینو ښارګوټی, ولسوالی قره‌باغ, ولایت كابل, افغانستان","address":{"town":"الیسگان د مهاجرینو ښارګوټی","county":"ولسوالی قره‌باغ","state":"ولایت كابل","ISO3166-2-lvl4":"AF-KAB","country":"افغانستان","country_code":"af"},"osm_type":"node","osm_id":5408943330,"type":"town","location":[69.2471423,34.819284],"bbox":[69.2071423,34.779284,69.2871423,34.859284]}
{"name":"امام صاحب","other_names":{"name:en":"Imam Sahib","name:ja":"イマーム・サヒーブ","name:ps":"امام صاحب","name:ru":"Имамсахиб","alt_name":"Emam Sahib;Khwaja Iman Saiyid;Khwaja;Imam Saheb;Emam Saheb;Khwaja Imam Saiyid;Hazrat"},"display_name":"امام صاحب, ولسوالی امام‌صاحب, ولایت قندوز, افغانستان","address":{"town":"امام صاحب","county":"ولسوالی امام‌صاحب","state":"ولایت قندوز","ISO3166-2-lvl4":"AF-KDZ","country":"افغانستان","country_code":"af"},"osm_type":"node","osm_id":1129939903,"type":"town","location":[68.9131013,37.1825124],"bbox":[68.8731013,37.1425124,68.9531013,37.2225124]}
{"name":"انار دره","other_names":{"name:en":"Anar Darah","name:fa":"اناردره","name:ps":"انار دره","alt_name":"شیخ آباد;Anardarra;Anar Darrah;Anardara;Anar Darreh;Anar Darah;Saykh Abad"},"display_name":"انار دره, ولسوالی انار دره, ولایت فراه, افغانستان","address":{"town":"انار دره","county":"ولسوالی انار دره","state":"ولایت فراه","ISO3166-2-lvl4":"AF-FRA","country":"افغانستان","country_code":"af"},"osm_type":"node","osm_id":4406702091,"type":"town","location":[61.653969,32.758698],"bbox":[61.613969,32.718698,61.693969,32.798698]}
{"name":"اندخوی","other_names":{"name:en":"Andkhoy","name:et":"Andkhvoy","name:fa":"اندخوی","name:ja":"アンドフボイ","name:lt":"Andhojus","name:ml":"അന്ദ്ഖോയ്","name:ps":"اندخوی","name:ru":"Андхой","name:tk":"Antguýy","alt_name":"Ankhoi;Andkhui;Andkhoi"},"display_name":"اندخوی, ولایت فاریاب / فاریاب ولایتی, افغانستان","address":{"town":"اندخوی","county":"اندخوی","state":"ولایت فاریاب / فاریاب ولایتی","ISO3166-2-lvl4":"AF-FYB","country":"افغانستان","country_code":"af"},"population":26700,"osm_type":"node","osm_id":312969030,"type":"town","location":[65.1263868,36.9517042],"bbox":[65.0863868,36.9117042,65.1663868,36.9917042]}
{"name":"اندراب","other_names":{"name:ar":"أندراب","name:de":"Andarab","name:en":"Andarab","name:fa":"اندراب","name:ks":"اندراب","name:ml":"അന്ദറാബ്","name:ps":"اندراب","name:ru":"Андараб","name:ur":"اندراب","name:pnb":"اندرآب"},"display_name":"اندراب, ولسوالی اندراب, ولایت بغلان, افغانستان","address":{"town":"اندراب","county":"ولسوالی اندراب","state":"ولایت بغلان","ISO3166-2-lvl4":"AF-BGL","country":"افغانستان","country_code":"af"},"osm_type":"node","osm_id":3461506567,"type":"town","location":[69.212448,35.6195354],"bbox":[69.172448,35.5795354,69.252448,35.6595354]}
{"name":"اوبه","other_names":{"name:en":"Obe","name:ml":"ഓബെ","name:ps":"اوبه","name:ru":"Обе","alt_name":"Caharmahale Obe;Chahar Mahall-e Obeh;Qaryeh-ye Owbeh;Owbey;Obeh;Owbi"},"display_name":"اوبه, ولسوالی اوبه, ولایت هرات, افغانستان","address":{"town":"اوبه","county":"ولسوالی اوبه","state":"ولایت هرات","ISO3166-2-lvl4":"AF-HER","country":"افغانستان","country_code":"af"},"osm_type":"node","osm_id":4381922563,"type":"town","location":[63.176389,34.369722],"bbox":[63.136389,34.329722,63.216389,34.409722]}
{"name":"اومنه","other_names":{"name:en":"Omnah","name:ps":"اومنه","name:ru":"Омна","name:ur":"اومنہ","alt_name":"Omna;Owmneh","name:pnb":"اومنہ"},"display_name":"اومنه, اومنه ولسوالۍ, پکتيکا ولايت, افغانستان","address":{"town":"اومنه","county":"اومنه ولسوالۍ","state":"پکتيکا ولايت","ISO3166-2-lvl4":"AF-PKA","country":"افغانستان","country_code":"af"},"osm_type":"node","osm_id":4411001347,"type":"town","location":[68.796265,32.900288],"bbox":[68.756265,32.860288,68.836265,32.940288]}
{"name":"بارگی","other_names":{"name:en":"Shamal","name:ml":"ബാർഗേ","name:ps":"بارگی","name:ru":"Шамаль","alt_name":"Bargay;Bargey;Samal"},"display_name":"بارگی, شمال ولسوالۍ, خوست ولايت, افغانستان","address":{"town":"بارگی","county":"شمال ولسوالۍ","state":"خوست ولايت","ISO3166-2-lvl4":"AF-KHO","country":"افغانستان","country_code":"af"},"osm_type":"node","osm_id":4411883142,"type":"town","location":[69.553834,33.305514],"bbox":[69.513834,33.265514,69.593834,33.345514]}
{"name":"بازار تشکان","other_names":{"name:ar":"بازار تيشكان","name:en":"Teshkan","name:ps":"بازار تشکان","name:ru":"Тешкан","alt_name":"تشکان;Bazar-e Tashgan;Bazar-e Tagan;Taskan;Tashkan;Bazar-e Tashkan;Bazar-i-Teskan"},"display_name":"بازار تشکان, ولسوالی تیشکان, ولایت بدخشان, افغانستان","address":{"town":"بازار تشکان","county":"ولسوالی تیشکان","state":"ولایت بدخشان","ISO3166-2-lvl4":"AF-BDS","country":"افغانستان","country_code":"af"},"osm_type":"node","osm_id":4386769873,"type":"town","location":[70.276738,36.881678],"bbox":[70.236738,36.841678,70.316738,36.921678]}
{"name":"بازار مالستان","other_names":{"name:en":"Malestan","name:ps":"بازار مالستان","name:ru":"Малистан","alt_name":"Bazar-e Malestan;Bazar-e Malistan"},"display_name":"بازار مالستان, ولسوالی مالستان, ولایت غزنی, افغانستان","address":{"town":"بازار مالستان","county":"ولسوالی مالستان","state":"ولایت غزنی","ISO3166-2-lvl4":"AF-GHA","country":"افغانستان","country_code":"af"},"osm_type":"node","osm_id":4413206804,"type":"town","location":[67.170911,33.292645],"bbox":[67.130911,33.252645,67.210911,33.332645]}
{"name":"بازار يکاولنگ","other_names":{"name:en":"Yakavlang","name:ml":"യക്കാവ്ലംഗ്","name:ps":"بازار يکاولنگ","name:ru":"Базар Якваланг","alt_name":"Bazar-e Yakavlang;Yakawlang;Bazar-e Yakawlang;Bazar-e Yekawlang;Bazare Yakawlang"},"display_name":"بازار يکاولنگ, ولسوالی یکاولنگ, ولایت بامیان, افغانستان","address":{"town":"بازار يکاولنگ","county":"ولسوالی یکاولنگ","state":"ولایت بامیان","ISO3166-2-lvl4":"AF-BAM","country":"افغانستان","country_code":"af"},"osm_type":"node","osm_id":4421574134,"type":"town","location":[66.973785,34.735252],"bbox":[66.933785,34.695252,67.013785,34.775252]}
{"name":"بالا مرغاب","other_names":{"name:ar":"بالا مرغاب","name:en":"Bala Murghab","name:ml":"ബാല മുർഗാബ്","name:ps":"بالا مرغاب","name:ru":"Баламургаб","name:uk":"Бала Мурґаб","alt_name":"Balamurghab;Murghab"},"display_name":"بالا مرغاب, ولسوالی مرغاب, ولایت بادغیس, افغانستان","address":{"town":"بالا مرغاب","county":"ولسوالی مرغاب","state":"ولایت بادغیس","ISO3166-2-lvl4":"AF-BDG","country":"افغانستان","country_code":"af"},"osm_type":"node","osm_id":4385133635,"type":"town","location":[63.3289622,35.584095],"bbox":[63.2889622,35.544095,63.3689622,35.624095]}
{"name":"برکی برک","other_names":{"name:en":"Baraki Barak","name:ps":"برکی برک","name:ru":"Баракибарак","alt_name":"بره کی برک;Baraki Burak;Barqi Barq;Barah Ki Barak"},"display_name":"برکی برک, برکي برک ولسوالۍ, لوگر ولايت, افغانستان","address":{"town":"برکی برک","county":"برکي برک ولسوالۍ","state":"لوگر ولايت","ISO3166-2-lvl4":"AF-LOG","country":"افغانستان","country_code":"af"},"osm_type":"node","osm_id":3948146595,"type":"town","location":[68.949199,33.967443],"bbox":[68.909199,33.927443,68.989199,34.007443]}
{"name":"برکی","other_names":{"name:en":"Baraki Rijan","name:ps":"برکی","name:ru":"Барки","alt_name":"Bar Rajan;Barqi Rajan;Baraki Rajan;Baraki"},"display_name":"برکی, برکي برک ولسوالۍ, لوگر ولايت, افغانستان","address":{"town":"برکی","county":"برکي برک ولسوالۍ","state":"لوگر ولايت","ISO3166-2-lvl4":"AF-LOG","country":"افغانستان","country_code":"af"},"osm_type":"node","osm_id":3918678635,"type":"town","location":[68.922118,33.9393553],"bbox":[68.882118,33.8993553,68.962118,33.9793553]}
{"name":"بغران","other_names":{"name:en":"Baghran","name:fa":"حكومتی بغلان","name:ml":"ബഗ്രാൻ","name:ru":"Багран","alt_name":"Baghran Khola;Bagran;حکومتی بغران"},"display_name":"بغران, باغران ولسوالۍ, هلمند ولايت, افغانستان","address":{"town":"بغران","county":"باغران ولسوالۍ","state":"هلمند ولايت","ISO3166-2-lvl4":"AF-HEL","country":"افغانستان","country_code":"af"},"osm_type":"node","osm_id":4375478006,"type":"town","location":[65.0910719,33.0775152],"bbox":[65.0510719,33.0375152,65.1310719,33.1175152]}
{"name":"بگ محمد","other_names":{"name:ar":"بك محمد","name:de":"Big Mohammad","name:en":"Big Mohammad","name:fa":"بگ محمد"},"display_name":"بگ محمد, ولسوالی انابه, ولایت پنجشیر, افغانستان","address":{"town":"بگ محمد","state_district":"ولسوالی انابه","state":"ولایت پنجشیر","ISO3166-2-lvl4":"AF-PAN","country":"افغانستان","country_code":"af"},"osm_type":"node","osm_id":6557893971,"type":"town","location":[69.3627987,35.2169443],"bbox":[69.3227987,35.1769443,69.4027987,35.2569443]}
{"name":"بگرام","other_names":{"name:el":"Μπαγκράμ","name:en":"Bagram","name:ja":"バグラム","name:ml":"ബഗ്രാം","name:ru":"Баграм","name:zh":"巴格拉姆"},"display_name":"بگرام, ولسوالی بگرام, ولایت پروان, افغانستان","address":{"town":"بگرام","county":"ولسوالی بگرام","state":"ولایت پروان","ISO3166-2-lvl4":"AF-PAR","country":"افغانستان","country_code":"af"},"osm_type":"node","osm_id":3558906434,"type":"town","location":[69.2341077,34.9333734],"bbox":[69.1941077,34.8933734,69.2741077,34.9733734]}
{"name":"بگرامی","other_names":{"name:ar":"بكرامي","name:de":"Bagrami","name:en":"Bagrami","name:es":"Bagrami","name:fa":"بگرامی","name:ml":"ബഗ്രാമി","name:ps":"بگرامي","name:ru":"Баграми","name:ur":"بگرامی","name:azb":"بگرامی","name:pnb":"بگرامی"},"display_name":"بگرامی, ولسوالی بگرامی, ولایت كابل, افغانستان","address":{"town":"بگرامی","county":"ولسوالی بگرامی","state":"ولایت كابل","ISO3166-2-lvl4":"AF-KAB","country":"افغانستان","country_code":"af"},"osm_type":"node","osm_id":4422403669,"type":"town","location":[69.2757331,34.4938494],"bbox":[69.2357331,34.4538494,69.3157331,34.5338494]}
{"name":"بل چراغ","other_names":{"name:en":"Bilchiragh","name:ps":"بل چراغ","name:ru":"Бильчираг","alt_name":"بېل چراغ;Belchiragh;Belchirag;Belceragh;Bal Chiragh"},"display_name":"بل چراغ, ولسوالی بلچراغ, ولایت فاریاب / فاریاب ولایتی, افغانستان","address":{"town":"بل چراغ","county":"ولسوالی بلچراغ","state":"ولایت فاریاب / فاریاب ولایتی","ISO3166-2-lvl4":"AF-FYB","country":"افغانستان","country_code":"af"},"osm_type":"node","osm_id":4395760102,"type":"town","location":[65.230896,35.840263],"bbox":[65.190896,35.800263,65.270896,35.880263]}
{"name":"بلخ","other_names":{"name:ar":"بلخ","name:cs":"Balch","name:de":"Balch","name:en":"Balkh","name:es":"Balj","name:fa":"بلخ","name:ja":"バルフ","name:ku":"Balx","name:ml":"ബൽഖ്","name:ru":"Балх","name:tr":"Belh","name:uz":"Balx","alt_name":"Koh e Alburz","int_name":"Balkh","name:ckb":"بالخ"},"display_name":"بلخ, ولسوالی بلخ, ولایت بلخ, افغانستان","address":{"town":"بلخ","county":"ولسوالی بلخ","state":"ولایت بلخ","ISO3166-2-lvl4":"AF-BAL","country":"افغانستان","country_code":"af"},"population":138000,"osm_type":"node","osm_id":312726837,"type":"town","location":[66.8979753,36.7581299],"bbox":[66.8579753,36.7181299,66.9379753,36.7981299]}
{"name":"بنو","other_names":{"name:ar":"بنو","name:en":"Banu","name:ps":"بنو","alt_name":"Banow;Andarab"},"display_name":"بنو, ولسوالی اندراب, ولایت بغلان, افغانستان","address":{"town":"بنو","county":"ولسوالی اندراب","state":"ولایت بغلان","ISO3166-2-lvl4":"AF-BGL","country":"افغانستان","country_code":"af"},"osm_type":"node","osm_id":4401017984,"type":"town","location":[69.260195,35.633484],"bbox":[69.220195,35.593484,69.300195,35.673484]}
{"name":"بنی حصار","other_names":{"name:en":"Beni Hesar","name:ml":"ബനി ഹെസാർ"},"display_name":"بنی حصار, کابل ښاروالۍ, ولایت كابل, افغانستان","address":{"town":"بنی حصار","county":"کابل ښاروالۍ","state":"ولایت كابل","ISO3166-2-lvl4":"AF-KAB","country":"افغانستان","country_code":"af"},"osm_type":"node","osm_id":5862999221,"type":"town","location":[69.2179892,34.4850124],"bbox":[69.1779892,34.4450124,69.2579892,34.5250124]}
{"name":"بهارک وسوالۍ ، تخار","other_names":{"name:en":"Baharak Distrikt , Takhar","name:ps":"بهارک ولسوالۍ","name:ru":"Бахарак","alt_name":"بهارك;Bakharak"},"display_name":"بهارک وسوالۍ ، تخار, ولسوالی بهارک, تخار ولايت, افغانستان","address":{"town":"بهارک وسوالۍ ، تخار","county":"ولسوالی بهارک","state":"تخار ولايت","ISO3166-2-lvl4":"AF-TAK","country":"افغانستان","country_code":"af"},"osm_type":"node","osm_id":4389069368,"type":"town","location":[69.3980404,36.808445],"bbox":[69.3580404,36.768445,69.4380404,36.848445]}
{"name":"بهارک","other_names":{"name:ar":"بهارك","name:en":"Baharak","name:fa":"Baharestan","name:ml":"ബഹാറക്ക്","name:ps":"بهارک","name:ru":"Барак","name:ur":"بہارک","name:zh":"巴哈拉克","alt_name":"Barak;Bekharek;Becharek;Bakharak;Bagorak;Baharistan"},"display_name":"بهارک, Baharak, ولسوالی بهارک, ولایت بدخشان, افغانستان","address":{"town":"بهارک","state_district":"ولسوالی بهارک","state":"ولایت بدخشان","ISO3166-2-lvl4":"AF-BDS","country":"افغانستان","country_code":"af"},"osm_type":"node","osm_id":1137347641,"type":"town","location":[70.8933423,36.9952864],"bbox":[70.8533423,36.9552864,70.9333423,37.0352864],"border":{"name":"Baharak","display_name":"Baharak, ولسوالی بهارک, ولایت بدخشان, افغانستان","address":{"town":"Baharak","state_district":"ولسوالی بهارک","state":"ولایت بدخشان","ISO3166-2-lvl4":"AF-BDS","country":"افغانستان","country_code":"af"},"osm_type":"relation","osm_id":5626136,"type":"town","location":[70.89260179840788,36.99513455],"bbox":[70.888025,36.9890902,70.9046336,37.0010746]}}
{"name":"بهرامچه","other_names":{"name:en":"Bahramcha","name:ml":"ബഹ്റാംച","name:ru":"Бахрам Ча","alt_name":"بهرامچه","loc_name":"براپچه"},"display_name":"بهرامچه, خانېشين ولسوالۍ, هلمند ولايت, افغانستان","address":{"town":"بهرامچه","county":"خانېشين ولسوالۍ","state":"هلمند ولايت","ISO3166-2-lvl4":"AF-HEL","country":"افغانستان","country_code":"af"},"population":3700,"osm_type":"node","osm_id":9395533675,"type":"town","location":[64.0014549,29.4174243],"bbox":[63.9614549,29.3774243,64.0414549,29.4574243],"border":{"name":"بهرامچه","other_names":{"name:en":"Bahramcha","name:ml":"ബഹ്റാംച","name:ru":"Бахрам Ча","alt_name":"بهرامچه","loc_name":"براپچه"},"display_name":"بهرامچه, خانېشين ولسوالۍ, هلمند ولايت, افغانستان","address":{"town":"بهرامچه","county":"خانېشين ولسوالۍ","state":"هلمند ولايت","ISO3166-2-lvl4":"AF-HEL","country":"افغانستان","country_code":"af"},"population":3700,"osm_type":"relation","osm_id":13643654,"type":"administrative","location":[64.0014549,29.4174243],"bbox":[63.9677755,29.3931406,64.0537941,29.4478311]}}
{"name":"بورکه","other_names":{"name:ar":"بوركه","name:en":"Burkah","name:ps":"بورکه","name:ur":"بورکہ","alt_name":"Barkah;Borkeh;Burka"},"display_name":"بورکه, ولسوالی برکه, ولایت بغلان, افغانستان","address":{"town":"بورکه","county":"ولسوالی برکه","state":"ولایت بغلان","ISO3166-2-lvl4":"AF-BGL","country":"افغانستان","country_code":"af"},"osm_type":"node","osm_id":4401197007,"type":"town","location":[69.1526656,36.2237253],"bbox":[69.1126656,36.1837253,69.1926656,36.2637253]}
{"name":"پارون","other_names":{"name:cs":"Párún","name:el":"Παρούν","name:en":"Parun","name:fr":"Parun","name:hi":"पारुन","name:ko":"파룬","name:ml":"പാറൂൺ","name:ps":"پارون","name:ru":"Парун","name:zh":"帕伦/帕倫","alt_name":"Prasûn;Prasungul;Poruns;پرنس","alt_name:cs":"Prasún;Prasúngul","name:zh-Hans":"帕伦","name:zh-Hant":"帕倫"},"display_name":"پارون, پارون ولسوالۍ, نورستان ولایت, افغانستان","address":{"town":"پارون","county":"پارون ولسوالۍ","state":"نورستان ولایت","ISO3166-2-lvl4":"AF-NUR","country":"افغانستان","country_code":"af"},"osm_type":"node","osm_id":4418479121,"type":"town","location":[70.922612,35.420644],"bbox":[70.882612,35.380644,70.962612,35.460644]}
{"name":"پر چمن","other_names":{"name:en":"Pur Chaman","name:ps":"پر چمن","alt_name":"Rurchaman;Purchaman;Parjuman;Parjoman;Purcaman;پرچمن"},"display_name":"پر چمن, ولسوالی پر چمن, ولایت فراه, افغانستان","address":{"town":"پر چمن","county":"ولسوالی پر چمن","state":"ولایت فراه","ISO3166-2-lvl4":"AF-FRA","country":"افغانستان","country_code":"af"},"osm_type":"node","osm_id":4405876640,"type":"town","location":[63.861218,33.14218],"bbox":[63.821218,33.10218,63.901218,33.18218]}
{"name":"پروان د مهاجرینو ښارګوټي","other_names":{"name:en":"Parwan Refugee Town"},"display_name":"پروان د مهاجرینو ښارګوټي, ولسوالی بگرام, ولایت پروان, افغانستان","address":{"town":"پروان د مهاجرینو ښارګوټي","county":"ولسوالی بگرام","state":"ولایت پروان","ISO3166-2-lvl4":"AF-PAR","country":"افغانستان","country_code":"af"},"osm_type":"node","osm_id":5406975922,"type":"town","location":[69.3180057,34.8987521],"bbox":[69.2780057,34.8587521,69.3580057,34.9387521]}
{"name":"پساب","other_names":{"name:en":"Pasab","name:ps":"پساب","name:ru":"Пасаб"},"display_name":"پساب, ژړۍ ولسوالۍ, کندهار ولايت, افغانستان","address":{"town":"پساب","county":"ژړۍ ولسوالۍ","state":"کندهار ولايت","ISO3166-2-lvl4":"AF-KAN","country":"افغانستان","country_code":"af"},"osm_type":"node","osm_id":4402675870,"type":"town","location":[65.4284073,31.5734689],"bbox":[65.3884073,31.5334689,65.4684073,31.6134689]}
{"name":"پسنی","other_names":{"name:en":"Pasnay","name:ps":"پسنی","alt_name":"کوهستانات;Kohistanat"},"display_name":"پسنی, ولسوالی کوهستانات, سرپل, افغانستان","address":{"town":"پسنی","county":"ولسوالی کوهستانات","state":"سرپل","ISO3166-2-lvl4":"AF-SAR","country":"افغانستان","country_code":"af"},"osm_type":"node","osm_id":4397280976,"type":"town","location":[65.764862,35.766644],"bbox":[65.724862,35.726644,65.804862,35.806644]}
{"name":"پشتون زرغون","display_name":"پشتون زرغون, ولسوالی پشتون‌ زرغون, ولایت هرات, افغانستان","address":{"town":"پشتون زرغون","county":"ولسوالی پشتون‌ زرغون","state":"ولایت هرات","ISO3166-2-lvl4":"AF-HER","country":"افغانستان","country_code":"af"},"osm_type":"node","osm_id":12706453241,"type":"town","location":[62.6891357,34.2289998],"bbox":[62.6491357,34.1889998,62.7291357,34.2689998]}
{"name":"پل حصار","other_names":{"name:ar":"بل حصار","name:en":"Pul-e Hisar","name:ml":"പുലെ ഹിസാർ","name:ps":"پل حصار","alt_name":"Pol-e Hesar;Pule Hesar"},"display_name":"پل حصار, ولسوالی پل حصار, ولایت بغلان, افغانستان","address":{"town":"پل حصار","county":"ولسوالی پل حصار","state":"ولایت بغلان","ISO3166-2-lvl4":"AF-BGL","country":"افغانستان","country_code":"af"},"osm_type":"node","osm_id":4401026080,"type":"town","location":[69.4657974,35.6201558],"bbox":[69.4257974,35.5801558,69.5057974,35.6601558]}
{"name":"پل متک","other_names":{"name:ar":"بل متك","name:de":"Puli-Matak","name:en":"Puli-Matak","name:fa":"پل متک","name:ks":"پل متک","name:ml":"പുലി മത്തക്ക്","name:ps":"پلٔ متك","name:ur":"پل متک"},"display_name":"پل متک, ولسوالی چاریکار, ولایت پروان, افغانستان","address":{"town":"پل متک","county":"ولسوالی چاریکار","state":"ولایت پروان","ISO3166-2-lvl4":"AF-PAR","country":"افغانستان","country_code":"af"},"osm_type":"node","osm_id":3448462210,"type":"town","location":[69.1950788,35.0819788],"bbox":[69.1550788,35.0419788,69.2350788,35.1219788]}
{"name":"پنجاب","other_names":{"name:en":"Panjab","name:ml":"പഞ്ചാബ്","name:ps":"پنجاب","name:ur":"پنجاب"},"display_name":"پنجاب, ولسوالی پنجاب, ولایت بامیان, افغانستان","address":{"town":"پنجاب","county":"ولسوالی پنجاب","state":"ولایت بامیان","ISO3166-2-lvl4":"AF-BAM","country":"افغانستان","country_code":"af"},"osm_type":"node","osm_id":4421554137,"type":"town","location":[67.023273,34.387949],"bbox":[66.983273,34.347949,67.063273,34.427949]}
{"name":"پوستین","other_names":{"name:en":"Pastun Zarghun","name:ml":"പൂസ്തീൻ","name:ps":"پوستین","name:ru":"Пустин","alt_name":"Pashtun Zarghun;Pustin"},"display_name":"پوستین, ولسوالی پشتون‌ زرغون, ولایت هرات, افغانستان","address":{"town":"پوستین","county":"ولسوالی پشتون‌ زرغون","state":"ولایت هرات","ISO3166-2-lvl4":"AF-HER","country":"افغانستان","country_code":"af"},"osm_type":"node","osm_id":4382449232,"type":"town","location":[62.6808556,34.2981163],"bbox":[62.6408556,34.2581163,62.7208556,34.3381163]}
{"name":"پیر نخچیر","other_names":{"name:en":"Pir Nakhchir","name:ps":"پیر نخچیر","name:ru":"Пирнахчир","alt_name":"Pirnakhchir;پير نخچير"},"display_name":"پیر نخچیر, فیروز نخچیر, ولسوالی فیروزنخچیر, ولایت سمنگان, افغانستان","address":{"town":"پیر نخچیر","county":"فیروز نخچیر","state_district":"ولسوالی فیروزنخچیر","state":"ولایت سمنگان","ISO3166-2-lvl4":"AF-SAM","country":"افغانستان","country_code":"af"},"osm_type":"node","osm_id":4398410724,"type":"town","location":[67.686476,36.518724],"bbox":[67.646476,36.478724,67.726476,36.558724]}
{"name":"ترخج","other_names":{"name:en":"Tarkhuj","name:ps":"ترخج","alt_name":"بلخاب;Tarkuch;Tarkhoj;Balkhab"},"display_name":"ترخج, ولسوالی بلخاب, سرپل, افغانستان","address":{"town":"ترخج","county":"ولسوالی بلخاب","state":"سرپل","ISO3166-2-lvl4":"AF-SAR","country":"افغانستان","country_code":"af"},"osm_type":"node","osm_id":4397389865,"type":"town","location":[66.50637,35.501727],"bbox":[66.46637,35.461727,66.54637,35.541727]}
{"name":"تروې","other_names":{"name:en":"Tarwe","name:ps":"تروې","name:ru":"Тарва","name:ur":"تروے","alt_name":"Tarwe;Arsala Qila;Tarwa;Tarvi;Tarwah"},"display_name":"تروې, تېروه ولسوالۍ, پکتيکا ولايت, افغانستان","address":{"town":"تروې","county":"تېروه ولسوالۍ","state":"پکتيکا ولايت","ISO3166-2-lvl4":"AF-PKA","country":"افغانستان","country_code":"af"},"osm_type":"node","osm_id":4409685063,"type":"town","location":[68.398388,31.791146],"bbox":[68.358388,31.751146,68.438388,31.831146]}
{"name":"تکزار","other_names":{"name:en":"Tukzar","name:ja":"トクザール","name:ps":"تکزار","alt_name":"توکزار;Tuksar;Sangcharak;Tokzar;Takzar;Sangcarak;Qal`eh Sangcharek;Qala Sangcharak;Kala Sangcharak"},"display_name":"تکزار, ولسوالی سانچارک, سرپل, افغانستان","address":{"town":"تکزار","county":"ولسوالی سانچارک","state":"سرپل","ISO3166-2-lvl4":"AF-SAR","country":"افغانستان","country_code":"af"},"osm_type":"node","osm_id":3470964387,"type":"town","location":[66.428255,35.9567816],"bbox":[66.388255,35.9167816,66.468255,35.9967816]}
{"name":"تگاب جریه خانه","other_names":{"name:ar":"تكاب جرية خانة","name:en":"Tagab-e-Jeria Khana","name:fa":"تگاب جریه خانه","name:ps":"تگاب جریه خانه"},"display_name":"تگاب جریه خانه, ولسوالی مرکز بهسود, ميدان وردگ ولايت, افغانستان","address":{"town":"تگاب جریه خانه","county":"ولسوالی مرکز بهسود","state":"ميدان وردگ ولايت","ISO3166-2-lvl4":"AF-WAR","country":"افغانستان","country_code":"af"},"osm_type":"node","osm_id":7132790716,"type":"town","location":[67.4973499,34.5764171],"bbox":[67.4573499,34.5364171,67.5373499,34.6164171],"border":{"name":"تگاب جریه خانه","other_names":{"name:ar":"تكاب جرية خانة","name:en":"Tagab-e-Jeria Khana","name:fa":"تگاب جریه خانه","name:ps":"تگاب جریه خانه"},"display_name":"تگاب جریه خانه, ولسوالی مرکز بهسود, ميدان وردگ ولايت, افغانستان","address":{"town":"تگاب جریه خانه","county":"ولسوالی مرکز بهسود","state":"ميدان وردگ ولايت","ISO3166-2-lvl4":"AF-WAR","country":"افغانستان","country_code":"af"},"osm_type":"way","osm_id":741624401,"type":"administrative","location":[67.4973499,34.5764171],"bbox":[67.4451971,34.5206133,67.6259029,34.6860517]}}
{"name":"تگاب","other_names":{"name:en":"Tagab","name:ml":"തഗാബ്","name:ps":"تگاب","name:ru":"Тагаб","alt_name":"Tagao;Pagab"},"display_name":"تگاب, تگاب ولسوالۍ, ولایت کاپیسا, افغانستان","address":{"town":"تگاب","county":"تگاب ولسوالۍ","state":"ولایت کاپیسا","ISO3166-2-lvl4":"AF-KAP","country":"افغانستان","country_code":"af"},"osm_type":"node","osm_id":4419137594,"type":"town","location":[69.64917,34.855007],"bbox":[69.60917,34.815007,69.68917,34.895007]}
{"name":"تڼی","other_names":{"name:en":"Tani","name:ps":"تڼی","name:ru":"Тани","name:ur":"تنی","alt_name":"تنی;Derogeh;Dah Rahgi;Qaryeh-ye Dah Ragi;Daragi;Darahgi","name:pnb":"تݨی"},"display_name":"تڼی, تڼي ولسوالۍ, خوست ولايت, افغانستان","address":{"town":"تڼی","county":"تڼي ولسوالۍ","state":"خوست ولايت","ISO3166-2-lvl4":"AF-KHO","country":"افغانستان","country_code":"af"},"osm_type":"node","osm_id":3902716794,"type":"town","location":[69.8297327,33.2412356],"bbox":[69.7897327,33.2012356,69.8697327,33.2812356]}
{"name":"تورغونډۍ","other_names":{"name:en":"Toraghundi","name:ja":"トゥルゴンディ","name:lt":"Turgundis","name:ps":"تورغونډۍ","name:ru":"Торгунди","name:tk":"Turgundy","alt_name":"قره تپه;Towrgondi;Qarah Tapah;Qarah Tappeh;Torghundi;Towraghondt;Turghondi;Tor Ghundai;Torah Ghundi;Qara Tapa;Kara Tapa;Tor Ghunda;Kara Tepe, Turgundi;Turgundy","old_name:ru":"Кара-Тепе"},"display_name":"تورغونډۍ, ولسوالی کوشک, ولایت هرات, افغانستان","address":{"town":"تورغونډۍ","county":"ولسوالی کوشک","state":"ولایت هرات","ISO3166-2-lvl4":"AF-HER","country":"افغانستان","country_code":"af"},"osm_type":"node","osm_id":3456031243,"type":"town","location":[62.284111,35.243365],"bbox":[62.244111,35.203365,62.324111,35.283365]}
{"name":"تولک","other_names":{"name:en":"Tulak","name:ps":"تولک","name:ru":"Тулак"},"display_name":"تولک, ولسوالی تولک, غور, افغانستان","address":{"town":"تولک","county":"ولسوالی تولک","state":"غور","ISO3166-2-lvl4":"AF-GHO","country":"افغانستان","country_code":"af"},"osm_type":"node","osm_id":4380376769,"type":"town","location":[63.72868,33.975086],"bbox":[63.68868,33.935086,63.76868,34.015086]}
{"name":"تيوره","other_names":{"name:en":"Taywara","name:ru":"Тайвара","name:ur":"تیورہ","alt_name":"Taywarah;Taiwāra;Qal‘eh-i-Ghor"},"display_name":"تيوره, ولسوالی تیوره, غور, افغانستان","address":{"town":"تيوره","state_district":"ولسوالی تیوره","state":"غور","ISO3166-2-lvl4":"AF-GHO","country":"افغانستان","country_code":"af"},"osm_type":"node","osm_id":4380080204,"type":"town","location":[64.4160061,33.5221336],"bbox":[64.3760061,33.4821336,64.4560061,33.5621336]}
{"name":"جاجی میدان","other_names":{"name:en":"Jaji Maidan","name:ps":"جاجی میدان","name:ru":"Дзадзимайдан","alt_name":"Jajimaydan;Meydan Dzadzi;Jaji Meydan;Jaji Maydan"},"display_name":"جاجی میدان, ځاځي ميدان ولسوالۍ, خوست ولايت, افغانستان","address":{"town":"جاجی میدان","county":"ځاځي ميدان ولسوالۍ","state":"خوست ولايت","ISO3166-2-lvl4":"AF-KHO","country":"افغانستان","country_code":"af"},"osm_type":"node","osm_id":4412980087,"type":"town","location":[70.1343624,33.6265126],"bbox":[70.0943624,33.5865126,70.1743624,33.6665126]}
{"name":"جبل‌ سراج","other_names":{"name:ar":"جبل السراج","name:en":"Jabal us Saraj","name:fa":"جبل‌ سراج","name:ml":"ജബൽ സിറാജ്","name:ps":"جبل السراج","name:ru":"Джабаль-ус-Сирадж","alt_name":"Jabal us Siraj;Parwan;Jibal-as-Seraj;Jabul Saraj;Jabl-us-Siraj;Jabl-us-Seraj;Jabalussaraj;Jabal os Saraj;Djabal-ul-Seradj;Jabal-us-Sirai"},"display_name":"جبل‌ سراج, =ولسوالی جبل‌سراج, ولایت پروان, افغانستان","address":{"town":"جبل‌ سراج","county":"=ولسوالی جبل‌سراج","state":"ولایت پروان","ISO3166-2-lvl4":"AF-PAR","country":"افغانستان","country_code":"af"},"osm_type":"node","osm_id":3052111343,"type":"town","location":[69.2329339,35.1218254],"bbox":[69.1929339,35.0818254,69.2729339,35.1618254]}
{"name":"جپرهار","other_names":{"name:en":"Chaparhar","name:ja":"チャパハー","name:ml":"ചപർഹാർ","name:ps":"جپرهار","name:ru":"Чапрахар","name:ur":"چپر ہار","alt_name":"چپرهار;چپریار;Chaperhar;Chapriyar;Chaprahar;Chapryar;Capryar;Caprahar"},"display_name":"جپرهار, چپرهار ولسوالۍ, ننگرهار ولايت, افغانستان","address":{"town":"جپرهار","county":"چپرهار ولسوالۍ","state":"ننگرهار ولايت","ISO3166-2-lvl4":"AF-NAN","country":"افغانستان","country_code":"af"},"osm_type":"node","osm_id":1503613043,"type":"town","location":[70.361795,34.277373],"bbox":[70.321795,34.237373,70.401795,34.317373]}
{"name":"جرقنه","other_names":{"name:en":"Jarkana","name:ur":"جرقنہ"},"display_name":"جرقنه, يوسف خېل ولسوالۍ, پکتيکا ولايت, افغانستان","address":{"town":"جرقنه","county":"يوسف خېل ولسوالۍ","state":"پکتيکا ولايت","ISO3166-2-lvl4":"AF-PKA","country":"افغانستان","country_code":"af"},"osm_type":"node","osm_id":9655291671,"type":"town","location":[68.4997959,33.0861456],"bbox":[68.4597959,33.0461456,68.5397959,33.1261456]}
{"name":"جرم","other_names":{"name:ar":"جورم","name:en":"Jurm","name:ml":"ജുർം","name:ps":"جرم","name:ru":"Джурм","alt_name":"Shahr-e Jorm;Jurn;Jorm;Jarm"},"display_name":"جرم, ولسوالی جرم, ولایت بدخشان, افغانستان","address":{"town":"جرم","county":"ولسوالی جرم","state":"ولایت بدخشان","ISO3166-2-lvl4":"AF-BDS","country":"افغانستان","country_code":"af"},"osm_type":"node","osm_id":4387125797,"type":"town","location":[70.834207,36.864768],"bbox":[70.794207,36.824768,70.874207,36.904768]}
{"name":"جوند","other_names":{"name:ar":"جوند","name:en":"Jawand","name:ml":"ജവന്ദ്","name:ps":"جوند","alt_name":"Javand;Jowand"},"display_name":"جوند, ولسوالی قلعه نو, ولایت بادغیس, افغانستان","address":{"town":"جوند","county":"ولسوالی قلعه نو","state":"ولایت بادغیس","ISO3166-2-lvl4":"AF-BDG","country":"افغانستان","country_code":"af"},"osm_type":"node","osm_id":3890748776,"type":"town","location":[64.1510377,35.0635152],"bbox":[64.1110377,35.0235152,64.1910377,35.1035152]}
{"name":"چال","other_names":{"name:en":"Chal'","name:ml":"ചാൽ","name:ps":"چال","name:ru":"Чаль","alt_name":"Cal;Chal"},"display_name":"چال, ولسوالی چال, تخار ولايت, افغانستان","address":{"town":"چال","county":"ولسوالی چال","state":"تخار ولايت","ISO3166-2-lvl4":"AF-TAK","country":"افغانستان","country_code":"af"},"osm_type":"node","osm_id":4389118078,"type":"town","location":[69.539085,36.528336],"bbox":[69.499085,36.488336,69.579085,36.568336]}
{"name":"چاه آب","other_names":{"name:en":"Chayab","name:ml":"ചാഹി ആബ്","name:ps":"چاه آب","name:ru":"Чахи-Аб","alt_name":"Cah-i-Ab;Cah Ab;Chah-i-Ab;Chah Ab;Chah-e Ab"},"display_name":"چاه آب, ولسوالی چاه‌آب, تخار ولايت, افغانستان","address":{"town":"چاه آب","county":"ولسوالی چاه‌آب","state":"تخار ولايت","ISO3166-2-lvl4":"AF-TAK","country":"افغانستان","country_code":"af"},"osm_type":"node","osm_id":1137389093,"type":"town","location":[69.8158533,37.3982442],"bbox":[69.7758533,37.3582442,69.8558533,37.4382442]}
{"name":"چپه دره","other_names":{"name:en":"Chapah Darah","name:ps":"چپه دره","name:ru":"Чападара","alt_name":"Capa Dara;Dar Chapah Darrah;Chapah Darrah"},"display_name":"چپه دره, چپه دره ولسوالۍ, کونړ ولايت, افغانستان","address":{"town":"چپه دره","county":"چپه دره ولسوالۍ","state":"کونړ ولايت","ISO3166-2-lvl4":"AF-KNR","country":"افغانستان","country_code":"af"},"osm_type":"node","osm_id":4417925231,"type":"town","location":[70.783333,34.95],"bbox":[70.743333,34.91,70.823333,34.99]}
{"name":"چخانسور","other_names":{"name:en":"Chakhansur","name:lt":"Čahansuras","name:ml":"ചഖാൻസൂർ","name:ps":"چخانسور","name:ru":"Чахансур","alt_name":"Asle Chakhansur;Cakansur;Cakhansur"},"display_name":"چخانسور, ولسوالی چخانسور, ولایت نیمروز, افغانستان","address":{"town":"چخانسور","county":"ولسوالی چخانسور","state":"ولایت نیمروز","ISO3166-2-lvl4":"AF-NIM","country":"افغانستان","country_code":"af"},"osm_type":"node","osm_id":4405528258,"type":"town","location":[62.064489,31.175171],"bbox":[62.024489,31.135171,62.104489,31.215171]}
{"name":"چرخ","other_names":{"name:en":"Charkh","name:ml":"ചർഖ്","name:ps":"چرخ","name:ru":"Чарх","alt_name":"Carkh"},"display_name":"چرخ, څرخ ولسوالۍ, لوگر ولايت, افغانستان","address":{"town":"چرخ","county":"څرخ ولسوالۍ","state":"لوگر ولايت","ISO3166-2-lvl4":"AF-LOG","country":"افغانستان","country_code":"af"},"osm_type":"node","osm_id":4416236810,"type":"town","location":[68.937494,33.797122],"bbox":[68.897494,33.757122,68.977494,33.837122]}
{"name":"چشت شریف","other_names":{"name:en":"Chishti Sharif","name:ps":"چشت شریف","name:ru":"Чишти-Шариф","alt_name":"Qaryeh-ye Chest-e Sharif;Khwaja Chist;Ceste Sarif;Chest-e Sharif;Chesht-e Sharif;Khvajeh Chesht;Chisht-e Sharif;Chusht-e Sharif"},"display_name":"چشت شریف, ولسوالی چشت شریف, ولایت هرات, افغانستان","address":{"town":"چشت شریف","county":"ولسوالی چشت شریف","state":"ولایت هرات","ISO3166-2-lvl4":"AF-HER","country":"افغانستان","country_code":"af"},"osm_type":"node","osm_id":4381912474,"type":"town","location":[63.739659,34.3374946],"bbox":[63.699659,34.2974946,63.779659,34.3774946]}
{"name":"چک وردګ","other_names":{"name:ar":"تشك وردك","name:en":"Chak-e Wardak","name:ml":"ചക്കെ വർദക്ക്","name:ps":"","name:ur":"چک وردگ","alt_name":"Chak-e Vardak;Cake Wardak"},"display_name":"چک وردګ, چک ولسوالۍ, ميدان وردگ ولايت, افغانستان","address":{"town":"چک وردګ","county":"چک ولسوالۍ","state":"ميدان وردگ ولايت","ISO3166-2-lvl4":"AF-WAR","country":"افغانستان","country_code":"af"},"osm_type":"node","osm_id":4415166979,"type":"town","location":[68.578664,34.107686],"bbox":[68.538664,34.067686,68.618664,34.147686]}
{"name":"چمتال","other_names":{"name:ar":"جمتال","name:en":"Chemtal","name:ps":"چمتال","name:ru":"Чимталь","alt_name":"چمتل;Ahan Qal`eh;Chimtal;Cemtal"},"display_name":"چمتال, ولسوالی چمتال, ولایت بلخ, افغانستان","address":{"town":"چمتال","county":"ولسوالی چمتال","state":"ولایت بلخ","ISO3166-2-lvl4":"AF-BAL","country":"افغانستان","country_code":"af"},"osm_type":"node","osm_id":2484968268,"type":"town","location":[66.8008081,36.6787442],"bbox":[66.7608081,36.6387442,66.8408081,36.7187442]}
{"name":"چهار باغ","other_names":{"name:en":"Khan-e Chahar Bagh","name:ml":"ചഹാർബാഗ്","name:ps":"چهار باغ","name:ur":"چار باغ","alt_name":"Chahar Bagh;Khancarbagh;Khan'-charbag';Khan Chahar Bagh;Char Bagh;Qani Chahar Bagh;Khan-Chekhar-Bar"},"display_name":"چهار باغ, ولسوالی خان چارباغ, ولایت فاریاب / فاریاب ولایتی, افغانستان","address":{"town":"چهار باغ","county":"ولسوالی خان چارباغ","state":"ولایت فاریاب / فاریاب ولایتی","ISO3166-2-lvl4":"AF-FYB","country":"افغانستان","country_code":"af"},"osm_type":"node","osm_id":4394368550,"type":"town","location":[65.223922,37.001082],"bbox":[65.183922,36.961082,65.263922,37.041082]}
{"name":"چهار بولاق","other_names":{"name:ar":"مقاطعة جهاربولاق","name:en":"Char Bulak","name:ml":"ചാർബുലാഗ്","name:ps":"چهار بولاق","name:ru":"Чарбулак","alt_name":"چار بولک;Chahar Bulaq;Charbulak;Char Bulaq;Char Bolagh;Chahar Bulak"},"display_name":"چهار بولاق, ولسوالی چارپولک, ولایت بلخ, افغانستان","address":{"town":"چهار بولاق","county":"ولسوالی چارپولک","state":"ولایت بلخ","ISO3166-2-lvl4":"AF-BAL","country":"افغانستان","country_code":"af"},"osm_type":"node","osm_id":4391839111,"type":"town","location":[66.7208878,36.7558933],"bbox":[66.6808878,36.7158933,66.7608878,36.7958933]}
{"name":"چیچکه","other_names":{"name:en":"Archi","name:ml":"ചീച്കെ","name:ps":"چیچکه","alt_name":"Arci;Cicka;Chichkeh;Chika;Chichka;Chichkah;Dasht-e Archi"},"display_name":"چیچکه, ارچي ولسوالۍ, ولایت قندوز, افغانستان","address":{"town":"چیچکه","county":"ارچي ولسوالۍ","state":"ولایت قندوز","ISO3166-2-lvl4":"AF-KDZ","country":"افغانستان","country_code":"af"},"osm_type":"node","osm_id":4391364160,"type":"town","location":[69.298421,37.070446],"bbox":[69.258421,37.030446,69.338421,37.110446]}
{"name":"حاجی خېل","other_names":{"name:en":"Hajjikheyl","name:ml":"ഹാജിഖേൽ","name:ps":"حاجی خېل","name:ru":"Хаджи Хейл","alt_name":"Haji Khel;Hajikhel;حاجی خيل"},"display_name":"حاجی خېل, ولسوالی کوه‌بند, ولایت کاپیسا, افغانستان","address":{"town":"حاجی خېل","county":"ولسوالی کوه‌بند","state":"ولایت کاپیسا","ISO3166-2-lvl4":"AF-KAP","country":"افغانستان","country_code":"af"},"osm_type":"node","osm_id":4419114724,"type":"town","location":[69.433412,35.109218],"bbox":[69.393412,35.069218,69.473412,35.149218]}
{"name":"حضرت سلطان","other_names":{"name:en":"Hazrat-e Sultan","name:ml":"ഹസ്രത്ത് സുൽത്താൻ","name:ps":"حضرت سلطان","name:uk":"Газрат-Султан","alt_name":"Hazrat Sultan;Hazrat-i-Sultan;Hadzrate Sultan;Hazrat-e Soltah;Hazrat-e Soltan"},"display_name":"حضرت سلطان, ولسوالی حضرت سلطان, ولایت سمنگان, افغانستان","address":{"town":"حضرت سلطان","county":"حضرت سلطان","state_district":"ولسوالی حضرت سلطان","state":"ولایت سمنگان","ISO3166-2-lvl4":"AF-SAM","country":"افغانستان","country_code":"af"},"osm_type":"node","osm_id":4398405224,"type":"town","location":[67.896202,36.450704],"bbox":[67.856202,36.410704,67.936202,36.490704]}
{"name":"حکومتی ازره","other_names":{"name:en":"Azrah","name:ps":"حکومتی ازره","name:ru":"Хукумати Азра","alt_name":"ازره;ازرو;Azrow;Hokumati Azrow;Azra;Azreh;Hazro;Hazrah;Azru;Azraw;Hokumati Azraw;Hukumati Azrah"},"display_name":"حکومتی ازره, ازره ولسوالۍ, لوگر ولايت, افغانستان","address":{"town":"حکومتی ازره","county":"ازره ولسوالۍ","state":"لوگر ولايت","ISO3166-2-lvl4":"AF-LOG","country":"افغانستان","country_code":"af"},"osm_type":"node","osm_id":3895770166,"type":"town","location":[69.6456043,34.1736408],"bbox":[69.6056043,34.1336408,69.6856043,34.2136408]}
{"name":"حکومتی دهنه غوری","other_names":{"name:ar":"دهنه غوري","name:en":"Dahaneh-ye Ghowri","name:ps":"حکومتی دهنه غوری","alt_name":"Dahana;Dananeh-ye Ghowri;Dahna;Dahana-i-Ghori;Dahana Ghori;Dahanae Ghori;Hokumati Dahana-i-Ghori Dahana;Hukumati Dahanah-ye Ghori"},"display_name":"حکومتی دهنه غوری, ولسوالی دهانه غوری, ولایت بغلان, افغانستان","address":{"town":"حکومتی دهنه غوری","county":"ولسوالی دهانه غوری","state":"ولایت بغلان","ISO3166-2-lvl4":"AF-BGL","country":"افغانستان","country_code":"af"},"osm_type":"node","osm_id":4401285910,"type":"town","location":[68.488694,35.906168],"bbox":[68.448694,35.866168,68.528694,35.946168]}
{"name":"خاص کنړ","other_names":{"name:en":"Khas Konar","name:ps":"خاص کنړ","name:ru":"Хаскунар","alt_name":"خاص كنر;Konar-e Khas;Kunar;Khas Kunar"},"display_name":"خاص کنړ, خاص کونړ ولسوالۍ, کونړ ولايت, افغانستان","address":{"town":"خاص کنړ","county":"خاص کونړ ولسوالۍ","state":"کونړ ولايت","ISO3166-2-lvl4":"AF-KNR","country":"افغانستان","country_code":"af"},"osm_type":"node","osm_id":4417804913,"type":"town","location":[70.901598,34.647505],"bbox":[70.861598,34.607505,70.941598,34.687505]}
{"name":"خان آباد","other_names":{"name:hu":"Hanabad","name:ja":"ハーナーバード","name:ps":"خان آباد","name:ru":"Ханабад","name:uk":"Ханабад","alt_name":"Khan Abad"},"display_name":"خان آباد, خان آباد ولسوالۍ, ولایت قندوز, افغانستان","address":{"town":"خان آباد","county":"خان آباد ولسوالۍ","state":"ولایت قندوز","ISO3166-2-lvl4":"AF-KDZ","country":"افغانستان","country_code":"af"},"osm_type":"node","osm_id":1129900561,"type":"town","location":[69.1164682,36.6867569],"bbox":[69.0764682,36.6467569,69.1564682,36.7267569]}
{"name":"خان نشین","other_names":{"name:en":"Khan Nishin","name:ml":"ഖാൻ നിഷീൻ","name:ps":"خان نشین","name:ru":"Хан-Нишин","alt_name":"Khannesin;Khan Nashim;Khan Nashin;Khan Neshin"},"display_name":"خان نشین, خانېشين ولسوالۍ, هلمند ولايت, افغانستان","address":{"town":"خان نشین","county":"خانېشين ولسوالۍ","state":"هلمند ولايت","ISO3166-2-lvl4":"AF-HEL","country":"افغانستان","country_code":"af"},"osm_type":"node","osm_id":4404360378,"type":"town","location":[63.7842626,30.5505374],"bbox":[63.7442626,30.5105374,63.8242626,30.5905374]}
{"name":"خانقاه","other_names":{"name:en":"Khaneqah","name:ml":"ഖാനഖ","name:ps":"خانقاه","name:ru":"Ханака","alt_name":"خانقه;Khananqa;Khanaka;Khanaqah;Khanaqa"},"display_name":"خانقاه, ولسوالی خانقاه, ولایت جوزجان / جوزجان ولایتی, افغانستان","address":{"town":"خانقاه","county":"ولسوالی خانقاه","state":"ولایت جوزجان / جوزجان ولایتی","ISO3166-2-lvl4":"AF-JOW","country":"افغانستان","country_code":"af"},"osm_type":"node","osm_id":4393811295,"type":"town","location":[66.166557,36.862785],"bbox":[66.126557,36.822785,66.206557,36.902785]}
{"name":"خدیر","other_names":{"name:en":"Khadir","name:ml":"ഖദീർ","name:ps":"خدیر","alt_name":"Khedir"},"display_name":"خدیر, ولسوالی خدیر, ولایت دایکندی, افغانستان","address":{"town":"خدیر","state_district":"ولسوالی خدیر","state":"ولایت دایکندی","ISO3166-2-lvl4":"AF-DAY","country":"افغانستان","country_code":"af"},"osm_type":"node","osm_id":4378823159,"type":"town","location":[65.9330859,33.9235034],"bbox":[65.8930859,33.8835034,65.9730859,33.9635034]}
{"name":"خرم و سارباغ","other_names":{"name:en":"khuram-o Sarbagh","alt_name":"قريه لنگر;Qaryah-ye Langar"},"display_name":"خرم و سارباغ, ولسوالی خرم و سارباغ, ولایت سمنگان, افغانستان","address":{"town":"خرم و سارباغ","county":"ولسوالی خرم و سارباغ","state":"ولایت سمنگان","ISO3166-2-lvl4":"AF-SAM","country":"افغانستان","country_code":"af"},"osm_type":"node","osm_id":4398526519,"type":"town","location":[68.050808,35.994741],"bbox":[68.010808,35.954741,68.090808,36.034741]}
{"name":"خلم","other_names":{"name:ar":"خلم","name:de":"Kholm","name:hu":"Kolm","name:ja":"ホルム","name:ko":"훌름","name:ml":"ഖുൽം","name:ps":"خلم","name:ru":"Ташкурган","alt_name":"Tashkurgan;Tashqorghan;Bazar-e Khulm;Khulm;Tashqurghan;Tashkurghan;بازار خلم;تاشقرغان","int_name":"Khulm"},"display_name":"خلم, ولسوالی خولم, ولایت بلخ, افغانستان","address":{"town":"خلم","county":"ولسوالی خولم","state":"ولایت بلخ","ISO3166-2-lvl4":"AF-BAL","country":"افغانستان","country_code":"af"},"osm_type":"node","osm_id":312726868,"type":"town","location":[67.6980831,36.6945727],"bbox":[67.6580831,36.6545727,67.7380831,36.7345727]}
{"name":"خمياب","other_names":{"name:en":"Kham Ab","name:ps":"خمياب","alt_name":"خام آب;Kham-e Ab;Kham-i-Ab;Khamyab"},"display_name":"خمياب, ولسوالی خم‌آب, ولایت جوزجان / جوزجان ولایتی, افغانستان","address":{"town":"خمياب","county":"ولسوالی خم‌آب","state":"ولایت جوزجان / جوزجان ولایتی","ISO3166-2-lvl4":"AF-JOW","country":"افغانستان","country_code":"af"},"osm_type":"node","osm_id":4393787849,"type":"town","location":[65.758333,37.5275],"bbox":[65.718333,37.4875,65.798333,37.5675]}
{"name":"خنجان","other_names":{"name:ar":"خنجان","name:en":"Khenjan","name:ja":"クヘンジャン","name:ml":"ഖെഞ്ജാൻ","name:ps":"خنجان","name:ru":"Хинджан","name:uk":"Хенджан","alt_name":"Khinjan"},"display_name":"خنجان, ولسوالی خنجان, ولایت بغلان, افغانستان","address":{"town":"خنجان","county":"ولسوالی خنجان","state":"ولایت بغلان","ISO3166-2-lvl4":"AF-BGL","country":"افغانستان","country_code":"af"},"osm_type":"node","osm_id":3540107673,"type":"town","location":[68.9034638,35.6029719],"bbox":[68.8634638,35.5629719,68.9434638,35.6429719]}
{"name":"خواجه بهاالدین","other_names":{"name:en":"Khvajeh Baha od Din","name:ps":"خواجه بهاالدین","name:ur":"خواجہ بہاؤالدین","alt_name":"Khwaja Bahauddin;Khvajeh Bahauddin;Khwajah Baha ud Din"},"display_name":"خواجه بهاالدین, ولسوالی خواجه بهاالدین, تخار ولايت, افغانستان","address":{"town":"خواجه بهاالدین","county":"ولسوالی خواجه بهاالدین","state":"تخار ولايت","ISO3166-2-lvl4":"AF-TAK","country":"افغانستان","country_code":"af"},"osm_type":"node","osm_id":4388671332,"type":"town","location":[69.535237,37.34551],"bbox":[69.495237,37.30551,69.575237,37.38551]}
{"name":"خواجه جیران","other_names":{"name:ar":"خواجة جيران","name:en":"Khwaja Jiran","name:ps":"خواجه جیران","name:ur":"خواجہ جیران","alt_name":"Khwajah Jiran;Khvajeh Jeyran;Khvajah Jeran;Khwaja Ejran;Khwaja Bahram"},"display_name":"خواجه جیران, ولسوالی خواجه هجران, ولایت بغلان, افغانستان","address":{"town":"خواجه جیران","county":"ولسوالی خواجه هجران","state":"ولایت بغلان","ISO3166-2-lvl4":"AF-BGL","country":"افغانستان","country_code":"af"},"osm_type":"node","osm_id":4401188058,"type":"town","location":[69.2488819,36.0419725],"bbox":[69.2088819,36.0019725,69.2888819,36.0819725]}
{"name":"خواجه دو کوه","other_names":{"name:en":"Khodzha-Dokukh","name:ps":"خواجه دو کوه","name:ru":"Ходжа-Докох","alt_name":"Khodja-Bunak;Khwajah-ye Do Ku;Khwaja Do Koh;Khwajah Do Koh;Khvajeh Do Kuh;Khwajah Du Koh;Khwaja Du Koh"},"display_name":"خواجه دو کوه, ولسوالی خواجه دوکوه, ولایت جوزجان / جوزجان ولایتی, افغانستان","address":{"town":"خواجه دو کوه","county":"ولسوالی خواجه دوکوه","state":"ولایت جوزجان / جوزجان ولایتی","ISO3166-2-lvl4":"AF-JOW","country":"افغانستان","country_code":"af"},"osm_type":"node","osm_id":4393739934,"type":"town","location":[65.624321,36.828808],"bbox":[65.584321,36.788808,65.664321,36.868808]}
{"name":"خواجه غار","other_names":{"name:en":"Khwajah Ghar","name:ml":"ഖ്വാജ ഗാർ","name:ps":"خواجه غار","name:uk":"Ходжаґар","name:ur":"خواجہ غار","alt_name":"Khvajeh Ghar;Khwaja-i-Ghar;Khwaja-i-Gar;Khwaja Ghar;Khoja-i-Gar;Khwaja Gar;Khodzhagar"},"display_name":"خواجه غار, ولسوالی خواجه غار, تخار ولايت, افغانستان","address":{"town":"خواجه غار","county":"ولسوالی خواجه غار","state":"تخار ولايت","ISO3166-2-lvl4":"AF-TAK","country":"افغانستان","country_code":"af"},"osm_type":"node","osm_id":3459349968,"type":"town","location":[69.421257,37.065883],"bbox":[69.381257,37.025883,69.461257,37.105883]}
{"name":"خوشامند","other_names":{"name:en":"Khushamand","name:ml":"ഖൂഷാമന്ദ്"},"display_name":"خوشامند, =ډيله ولسوالۍ, پکتيکا ولايت, افغانستان","address":{"town":"خوشامند","county":"=ډيله ولسوالۍ","state":"پکتيکا ولايت","ISO3166-2-lvl4":"AF-PKA","country":"افغانستان","country_code":"af"},"osm_type":"node","osm_id":9657094045,"type":"town","location":[68.237824,32.6850293],"bbox":[68.197824,32.6450293,68.277824,32.7250293]}
{"name":"خوشی","other_names":{"name:en":"Khoshi","name:ps":"خوشی","name:ru":"Хоши","alt_name":"Khvoshi;Khosi;Khushi"},"display_name":"خوشی, خوښی ولسوالۍ, لوگر ولايت, 1449, افغانستان","address":{"town":"خوشی","county":"خوښی ولسوالۍ","state":"لوگر ولايت","ISO3166-2-lvl4":"AF-LOG","postcode":"1449","country":"افغانستان","country_code":"af"},"osm_type":"node","osm_id":4416204776,"type":"town","location":[69.2060422,34.0095938],"bbox":[69.1660422,33.9695938,69.2460422,34.0495938]}
{"name":"خیربین","other_names":{"name:en":"Kharibin"},"display_name":"خیربین, ښرنه ولسوالۍ, پکتيکا ولايت, افغانستان","address":{"town":"خیربین","district":"ښرنه ولسوالۍ","state":"پکتيکا ولايت","ISO3166-2-lvl4":"AF-PKA","country":"افغانستان","country_code":"af"},"osm_type":"node","osm_id":9655291672,"type":"town","location":[68.5736951,33.1440214],"bbox":[68.5336951,33.1040214,68.6136951,33.1840214]}
{"name":"څوکۍ","other_names":{"name:en":"Chowkey","name:ps":"څوکۍ","name:ru":"Цаукай","name:ur":"چوکئی","alt_name":"چوكی;Chauki;Chowki;Cawkae;Cawkay;Chowkay;Tsowkey"},"display_name":"څوکۍ, څوکۍ ولسوالۍ, کونړ ولايت, افغانستان","address":{"town":"څوکۍ","county":"څوکۍ ولسوالۍ","state":"کونړ ولايت","ISO3166-2-lvl4":"AF-KNR","country":"افغانستان","country_code":"af"},"osm_type":"node","osm_id":4417832779,"type":"town","location":[70.92688,34.692459],"bbox":[70.88688,34.652459,70.96688,34.732459]}
{"name":"د پنجوايي بازار","other_names":{"name:en":"Bazar-e Panjva'i","name:ps":"د پنجوايي بازار","name:ru":"Панджваи","alt_name":"پنجوايي بازار"},"display_name":"د پنجوايي بازار, پنجوايي ولسوالۍ, کندهار ولايت, افغانستان","address":{"town":"د پنجوايي بازار","county":"پنجوايي ولسوالۍ","state":"کندهار ولايت","ISO3166-2-lvl4":"AF-KAN","country":"افغانستان","country_code":"af"},"osm_type":"node","osm_id":4402675863,"type":"town","location":[65.459995,31.546223],"bbox":[65.419995,31.506223,65.499995,31.586223]}
{"name":"د شمولزیانو سيمه","other_names":{"name:en":"Shomalzay","name:ps":"د شمولزیانو سيمه","name:ru":"Д Шмолзияно Сима","name:ur":"شمولزیانو سیمہ","alt_name":"Shamal Zay;Samalza'i;'Alaqadari Somulzay;Somulzay;Shamulza'i;Shamolza'i;`Alaqahdari Shumulzai;`Alaqahdari Shamulzai;Shumulzai;شمولزی"},"display_name":"د شمولزیانو سيمه, شمولزی ولسوالۍ, زابل ولايت, افغانستان","address":{"town":"د شمولزیانو سيمه","county":"شمولزی ولسوالۍ","state":"زابل ولايت","ISO3166-2-lvl4":"AF-ZAB","country":"افغانستان","country_code":"af"},"osm_type":"node","osm_id":4407997138,"type":"town","location":[67.646137,31.908726],"bbox":[67.606137,31.868726,67.686137,31.948726]}
{"name":"د یوسف خېلو بازار","other_names":{"name:en":"Yousifkhil Bazar","name:ur":"یوسف خیلو بازار"},"display_name":"د یوسف خېلو بازار, يوسف خېل ولسوالۍ, پکتيکا ولايت, افغانستان","address":{"town":"د یوسف خېلو بازار","county":"يوسف خېل ولسوالۍ","state":"پکتيکا ولايت","ISO3166-2-lvl4":"AF-PKA","country":"افغانستان","country_code":"af"},"osm_type":"node","osm_id":9657075196,"type":"town","location":[68.6752698,33.0663163],"bbox":[68.6352698,33.0263163,68.7152698,33.1063163]}
{"name":"دادو","other_names":{"name:en":"Dado","name:ps":"دادو","name:ru":"Даду"},"display_name":"دادو, زنه خان ولسوالۍ, ولایت غزنی, افغانستان","address":{"town":"دادو","county":"زنه خان ولسوالۍ","state":"ولایت غزنی","ISO3166-2-lvl4":"AF-GHA","country":"افغانستان","country_code":"af"},"osm_type":"node","osm_id":4414433270,"type":"town","location":[68.600825,33.668176],"bbox":[68.560825,33.628176,68.640825,33.708176]}
{"name":"دانگام","other_names":{"name:en":"Dangam","name:ps":"دانگام","name:ru":"Дангам","alt_name":"ډانگام"},"display_name":"دانگام, دانگام ولسوالۍ, کونړ ولايت, افغانستان","address":{"town":"دانگام","county":"دانگام ولسوالۍ","state":"کونړ ولايت","ISO3166-2-lvl4":"AF-KNR","country":"افغانستان","country_code":"af"},"osm_type":"node","osm_id":4418459910,"type":"town","location":[71.419355,34.992492],"bbox":[71.379355,34.952492,71.459355,35.032492]}
{"name":"درايم","other_names":{"name:ar":"درايم","name:en":"Darayim","name:ml":"ദറായിം","name:ps":"درايم","alt_name":"Daraim"},"display_name":"درايم, ولسوالی درایم, ولایت بدخشان, افغانستان","address":{"town":"درايم","county":"ولسوالی درایم","state":"ولایت بدخشان","ISO3166-2-lvl4":"AF-BDS","country":"افغانستان","country_code":"af"},"osm_type":"node","osm_id":4386791245,"type":"town","location":[70.3685584,36.9111458],"bbox":[70.3285584,36.8711458,70.4085584,36.9511458]}
{"name":"درز آب","other_names":{"name:en":"Darzab","name:ps":"درز آب","name:ru":"Дарзаб","alt_name":"Durzab"},"display_name":"درز آب, ولسوالی درزاب, ولایت جوزجان / جوزجان ولایتی, افغانستان","address":{"town":"درز آب","county":"ولسوالی درزاب","state":"ولایت جوزجان / جوزجان ولایتی","ISO3166-2-lvl4":"AF-JOW","country":"افغانستان","country_code":"af"},"osm_type":"node","osm_id":4393276696,"type":"town","location":[65.378281,35.97744],"bbox":[65.338281,35.93744,65.418281,36.01744]}
{"name":"درقد","other_names":{"name:en":"Darqad","name:ps":"درقد","alt_name":"Qeshlaq-e Darqad;Darkat"},"display_name":"درقد, ولسوالی درقد, تخار ولايت, افغانستان","address":{"town":"درقد","county":"ولسوالی درقد","state":"تخار ولايت","ISO3166-2-lvl4":"AF-TAK","country":"افغانستان","country_code":"af"},"osm_type":"node","osm_id":4388671328,"type":"town","location":[69.452941,37.384145],"bbox":[69.412941,37.344145,69.492941,37.424145]}
{"name":"درۀ نور","other_names":{"name:en":"Darreh-ye Nur","name:ml":"ദറനൂർ","name:ps":"درۀ نور","name:ru":"Дараи Нур","alt_name":"Darah-ye Nur;Darrahe Nur;Darrah Nur"},"display_name":"درۀ نور, دره نور ولسوالۍ, ننگرهار ولايت, افغانستان","address":{"town":"درۀ نور","county":"دره نور ولسوالۍ","state":"ننگرهار ولايت","ISO3166-2-lvl4":"AF-NAN","country":"افغانستان","country_code":"af"},"osm_type":"node","osm_id":4416628505,"type":"town","location":[70.603477,34.623817],"bbox":[70.563477,34.583817,70.643477,34.663817]}
{"name":"دشت قلعه","other_names":{"name:en":"Dast-i-Qal'a","name:ml":"ദഷ്തി ഖല","name:ps":"دشت قلعه","name:ur":"دشت قلعہ","alt_name":"Shahr-e Dasht-e Qal`eh;Daste Qal`a;Dasht-e Qal`eh;Dashti-Kala;Dasht Qala;Dasht-e Qal`ah"},"display_name":"دشت قلعه, ولسوالی دشت قلعه, تخار ولايت, افغانستان","address":{"town":"دشت قلعه","county":"ولسوالی دشت قلعه","state":"تخار ولايت","ISO3166-2-lvl4":"AF-TAK","country":"افغانستان","country_code":"af"},"osm_type":"node","osm_id":4388685275,"type":"town","location":[69.449124,37.1456901],"bbox":[69.409124,37.1056901,69.489124,37.1856901]}
{"name":"دلارام","other_names":{"name:ar":"دلارام","name:en":"Delaram","name:fa":"دلارام","name:ja":"デラーラーム","name:lt":"Delaramas","name:ml":"ദിലാറാം","name:ps":"دلارام","name:ru":"Диларам"},"display_name":"دلارام, ولسوالی خاش رود, ولایت نیمروز, افغانستان","address":{"town":"دلارام","county":"ولسوالی خاش رود","state":"ولایت نیمروز","ISO3166-2-lvl4":"AF-NIM","country":"افغانستان","country_code":"af"},"osm_type":"node","osm_id":3495971315,"type":"town","location":[63.4236023,32.1634828],"bbox":[63.3836023,32.1234828,63.4636023,32.2034828]}
{"name":"دمحمدآغي ولسوالي","other_names":{"name:en":"Mohammad Agha","name:ml":"മുഹമ്മദ് ആഗ വുലുസ്വാലി","alt_name":"Muhammad Agha Wuluswali"},"display_name":"دمحمدآغي ولسوالي, دمحمدآغی ولسوالی, محمد آغې ولسوالۍ, لوگر ولايت, افغانستان","address":{"town":"دمحمدآغي ولسوالي","municipality":"دمحمدآغی ولسوالی","county":"محمد آغې ولسوالۍ","state":"لوگر ولايت","ISO3166-2-lvl4":"AF-LOG","country":"افغانستان","country_code":"af"},"osm_type":"node","osm_id":4416204778,"type":"town","location":[69.0971959,34.2153819],"bbox":[69.0571959,34.1753819,69.1371959,34.2553819]}
{"name":"ده حیات","other_names":{"name:ar":"ده حیات","name:de":"De Hayat","name:en":"De Hayat","name:fa":"ده حیات","name:ml":"ദെ ഹയാത്ത്","name:ps":"ده حیات","name:ur":"دہ حیات","name:pnb":"دہ حیات"},"display_name":"ده حیات, نرخ ولسوالۍ, ميدان وردگ ولايت, افغانستان","address":{"town":"ده حیات","county":"نرخ ولسوالۍ","state":"ميدان وردگ ولايت","ISO3166-2-lvl4":"AF-WAR","country":"افغانستان","country_code":"af"},"osm_type":"node","osm_id":4457432893,"type":"town","location":[68.7757126,34.3681429],"bbox":[68.7357126,34.3281429,68.8157126,34.4081429]}
{"name":"ده خواهان","other_names":{"name:ar":"ده خواهان","name:en":"Deh Khwahan","name:ml":"ദെ ഖ്വാഹാൻ","name:ps":"ده خواهان","name:ru":"Хахан","name:ur":"دہ خواہان","alt_name":"خواهان;ده خاهان;Deh Khahan;Khwahan;Qala Khwahan","alt_name:ml":"ഖാഹാൻ"},"display_name":"ده خواهان, ولسوالی خواهان, ولایت بدخشان, افغانستان","address":{"town":"ده خواهان","county":"ولسوالی خواهان","state":"ولایت بدخشان","ISO3166-2-lvl4":"AF-BDS","country":"افغانستان","country_code":"af"},"osm_type":"node","osm_id":1137333457,"type":"town","location":[70.218753,37.889653],"bbox":[70.178753,37.849653,70.258753,37.929653]}
{"name":"ده راود","other_names":{"name:en":"Deh Rawud","name:ml":"ദെഹ്റാവുദ്","name:ps":"ده راود","name:ru":"Дехравуд","alt_name":"ده راوت;Dehrawut;Deh Ravod;Deh Rawut;Deh Rawod;Deh-e Rawut"},"display_name":"ده راود, دهراود ولسوالۍ, روزگان ولايت, افغانستان","address":{"town":"ده راود","county":"دهراود ولسوالۍ","state":"روزگان ولايت","ISO3166-2-lvl4":"AF-URU","country":"افغانستان","country_code":"af"},"osm_type":"node","osm_id":310089712,"type":"town","location":[65.459751,32.6195402],"bbox":[65.419751,32.5795402,65.499751,32.6595402]}
{"name":"ده صلاح","other_names":{"name:ar":"ده صلاح","name:en":"Deh Saleh","name:ml":"ദെ സലാഹ്","name:ps":"ده صلاح","name:ur":"دہ صلاح","alt_name":"Deh Salah;Deh-e Salah"},"display_name":"ده صلاح, ولسوالی ده‌صلاح, ولایت بغلان, افغانستان","address":{"town":"ده صلاح","county":"ولسوالی ده‌صلاح","state":"ولایت بغلان","ISO3166-2-lvl4":"AF-BGL","country":"افغانستان","country_code":"af"},"osm_type":"node","osm_id":4401174650,"type":"town","location":[69.3138591,35.6875816],"bbox":[69.2738591,35.6475816,69.3538591,35.7275816]}
{"name":"ده نوی فرزه","other_names":{"name:en":"Deh Now-ye Farzah","name:ps":"ده نو فرزه","name:ru":"Декханави Фарза","name:ur":"دہ نوئے فرزہ","alt_name":"ده نوی فرزه;Dehnawe Farza;Deh Now-e Farzah"},"display_name":"ده نوی فرزه, ولسوالی فرزه, ولایت كابل, افغانستان","address":{"town":"ده نوی فرزه","county":"ولسوالی فرزه","state":"ولایت كابل","ISO3166-2-lvl4":"AF-KAB","country":"افغانستان","country_code":"af"},"osm_type":"node","osm_id":4422299607,"type":"town","location":[69.041353,34.788955],"bbox":[69.001353,34.748955,69.081353,34.828955]}
{"name":"دهدادی","other_names":{"name:ar":"دهدادي","name:en":"Dehdadi","name:ps":"دهدادی","name:ru":"Дехдади","name:ur":"دہدادی","alt_name":"چهار سرکه دهدادی;Chahar Sarakah-ye Dehdadi;Dehdadi"},"display_name":"دهدادی, ولسوالی دهدادی, ولایت بلخ, افغانستان","address":{"town":"دهدادی","county":"ولسوالی دهدادی","state":"ولایت بلخ","ISO3166-2-lvl4":"AF-BAL","country":"افغانستان","country_code":"af"},"osm_type":"node","osm_id":4393204210,"type":"town","location":[66.9942288,36.6624813],"bbox":[66.9542288,36.6224813,67.0342288,36.7024813],"border":{"name":"دهدادی","other_names":{"name:en":"Dehdadi","name:ar":"دهدادي","name:ps":"دهدادی","name:ru":"Дехдади","name:ur":"دہدادی","alt_name":"چهار سرکه دهدادی;Chahar Sarakah-ye Dehdadi;Dehdadi"},"display_name":"دهدادی, ولسوالی دهدادی, ولایت بلخ, افغانستان","address":{"town":"دهدادی","county":"ولسوالی دهدادی","state":"ولایت بلخ","ISO3166-2-lvl4":"AF-BAL","country":"افغانستان","country_code":"af"},"osm_type":"way","osm_id":238407559,"type":"town","location":[66.9942288,36.6624813],"bbox":[66.9708062,36.6523959,67.0226093,36.6749579]}}
{"name":"دهک","other_names":{"name:en":"Dehyak","name:ps":"دهک","name:ru":"Дахак","name:ur":"دہک","alt_name":"Qaryeh-ye Dehak;Dehak","name:pnb":"دہک"},"display_name":"دهک, ولسوالی ده‌یک, ولایت غزنی, افغانستان","address":{"town":"دهک","county":"ولسوالی ده‌یک","state":"ولایت غزنی","ISO3166-2-lvl4":"AF-GHA","country":"افغانستان","country_code":"af"},"osm_type":"node","osm_id":4414357474,"type":"town","location":[68.653328,33.47472],"bbox":[68.613328,33.43472,68.693328,33.51472]}
{"name":"دواب","other_names":{"name:en":"Doab","name:ml":"ദുആബ്","name:ps":"دواب","alt_name":"Doaw;Do Ab;Duab"},"display_name":"دواب, ولسوالی خوست و فرنگ, ولایت بغلان, افغانستان","address":{"town":"دواب","county":"ولسوالی خوست و فرنگ","state":"ولایت بغلان","ISO3166-2-lvl4":"AF-BGL","country":"افغانستان","country_code":"af"},"osm_type":"node","osm_id":4401072830,"type":"town","location":[69.602458,36.016419],"bbox":[69.562458,35.976419,69.642458,36.056419]}
{"name":"دور بابا","other_names":{"name:en":"Dur Baba","name:ps":"دور بابا","name:ru":"Дурбаба","alt_name":"Dor Baba"},"display_name":"دور بابا, دور بابا ولسوالۍ, ننگرهار ولايت, افغانستان","address":{"town":"دور بابا","county":"دور بابا ولسوالۍ","state":"ننگرهار ولايت","ISO3166-2-lvl4":"AF-NAN","country":"افغانستان","country_code":"af"},"osm_type":"node","osm_id":4417580999,"type":"town","location":[70.92999,34.039708],"bbox":[70.88999,33.999708,70.96999,34.079708]}
{"name":"دور رباط","other_names":{"name:en":"Char Darah","name:ps":"دور رباط","name:ru":"Даври-Рабат","alt_name":"Dowr-e Rabat;Ribat;Dawr-i-Rabat;Cardara;Chahar Darreh;Char Darreh;Davri-Rabat;چار دره;دور رباط"},"display_name":"دور رباط, چاردره ولسوالۍ, ولایت قندوز, افغانستان","address":{"town":"دور رباط","county":"چاردره ولسوالۍ","state":"ولایت قندوز","ISO3166-2-lvl4":"AF-KDZ","country":"افغانستان","country_code":"af"},"osm_type":"node","osm_id":4391623508,"type":"town","location":[68.7995317,36.6926564],"bbox":[68.7595317,36.6526564,68.8395317,36.7326564]}
{"name":"دولت آباد","other_names":{"name:ar":"دولت آباد","name:en":"Dowlatabad","name:ml":"ദൗലത്താബാദ്","name:ps":"دولت آباد","name:ru":"Даулатабад","alt_name":"Davletabad;Daulatabad;Dawlatabad"},"display_name":"دولت آباد, ولسوالی دولت‌آباد, ولایت بلخ, افغانستان","address":{"town":"دولت آباد","county":"ولسوالی دولت‌آباد","state":"ولایت بلخ","ISO3166-2-lvl4":"AF-BAL","country":"افغانستان","country_code":"af"},"osm_type":"node","osm_id":3576822107,"type":"town","location":[66.8232914,36.988854],"bbox":[66.7832914,36.948854,66.8632914,37.028854]}
{"name":"دولت آباد","other_names":{"name:en":"Dowlatabad","name:fr":"Daoulatabad","name:ml":"ദൗലത്താബാദ്","name:ps":"دولت آباد","name:ru":"Даулатабад","alt_name":"Shirin Tagao;Danlatabad;Dawlatabad;Daolatabad;Daulatabad"},"display_name":"دولت آباد, ولسوالی دولت‌آباد, ولایت فاریاب / فاریاب ولایتی, افغانستان","address":{"town":"دولت آباد","county":"ولسوالی دولت‌آباد","state":"ولایت فاریاب / فاریاب ولایتی","ISO3166-2-lvl4":"AF-FYB","country":"افغانستان","country_code":"af"},"population":12400,"osm_type":"node","osm_id":4394992667,"type":"town","location":[64.8975266,36.4204275],"bbox":[64.8575266,36.3804275,64.9375266,36.4604275]}
{"name":"دولت شاه","other_names":{"name:en":"Dowlat Shah","name:ml":"ദൗലത്ത് ഷാ","name:ps":"دولت شاه","name:ru":"Долат Шах","name:ur":"دولت شاہ","alt_name":"Dawlat Shah;Daulat Shah;Dawlatsah","name:pnb":"دولت شاہ"},"display_name":"دولت شاه, دولتشاه ولسوالۍ, لغمان ولايت, افغانستان","address":{"town":"دولت شاه","county":"دولتشاه ولسوالۍ","state":"لغمان ولايت","ISO3166-2-lvl4":"AF-LAG","country":"افغانستان","country_code":"af"},"osm_type":"node","osm_id":4418782741,"type":"town","location":[70.071017,34.950397],"bbox":[70.031017,34.910397,70.111017,34.990397]}
{"name":"دولتیار","other_names":{"name:en":"Dawlat Yar","name:ml":"ദൗലത്ത് യാർ","name:ps":"دولتیار","name:ru":"Даулатъяр","alt_name":"Daulat Yar;Dawtatyar;Dowlatyar;Dowlat Yar;Taht-e Dowlatyar;Daolat Yar;Dawlatyar;دولت یار"},"display_name":"دولتیار, ولسوالی دولت‌یار, غور, افغانستان","address":{"town":"دولتیار","county":"ولسوالی دولت‌یار","state":"غور","ISO3166-2-lvl4":"AF-GHO","country":"افغانستان","country_code":"af"},"osm_type":"node","osm_id":4380785759,"type":"town","location":[65.793022,34.551319],"bbox":[65.753022,34.511319,65.833022,34.591319]}
{"name":"دي سي","other_names":{"name:en":"Disi","name:ur":"دی سی"},"display_name":"دي سي, گېرو ولسوالۍ, ولایت غزنی, افغانستان","address":{"town":"دي سي","county":"گېرو ولسوالۍ","state":"ولایت غزنی","ISO3166-2-lvl4":"AF-GHA","country":"افغانستان","country_code":"af"},"osm_type":"node","osm_id":9655291673,"type":"town","location":[68.422696,33.0212817],"bbox":[68.382696,32.9812817,68.462696,33.0612817]}
{"name":"ډاډوال","other_names":{"name:en":"Dadwal","name:ml":"ദാദ്വാൽ","name:ps":"ډاډوال","name:ru":"Дадвал","name:ur":"ڈاڈوال","alt_name":"دادوال","name:pnb":"ڈاڈوال"},"display_name":"ډاډوال, مندوزي ولسوالۍ, خوست ولايت, افغانستان","address":{"town":"ډاډوال","county":"مندوزي ولسوالۍ","state":"خوست ولايت","ISO3166-2-lvl4":"AF-KHO","country":"افغانستان","country_code":"af"},"osm_type":"node","osm_id":3902864049,"type":"town","location":[69.8006985,33.3103704],"bbox":[69.7606985,33.2703704,69.8406985,33.3503704]}
{"name":"رباط سنگی پائین","other_names":{"name:ar":"رباط سنغي بائين","name:en":"Koshk","name:ja":"カッシュク","name:ml":"കൂഷ്ക്","name:ps":"رباط سنگی پائین","name:ru":"Рабат Сангӣ Пайн","alt_name":"Rabat-e Sangi;Rabat-e Sangi-ye Pa'in;Robat-e Sangi-ye Pa'in;Rabat-i-Sangi-Pa'in;رباط سنگی"},"display_name":"رباط سنگی پائین, ولسوالی کوشک, ولایت هرات, افغانستان","address":{"town":"رباط سنگی پائین","county":"ولسوالی کوشک","state":"ولایت هرات","ISO3166-2-lvl4":"AF-HER","country":"افغانستان","country_code":"af"},"osm_type":"node","osm_id":3506974586,"type":"town","location":[62.1382667,34.7991092],"bbox":[62.0982667,34.7591092,62.1782667,34.8391092]}
{"name":"رستاق","other_names":{"name:en":"Rustaq","name:ml":"റുസ്താഖ്","name:ps":"رستاق","name:ru":"Рустак","alt_name":"Rostaq;Rustak"},"display_name":"رستاق, ولسوالی رستاق, تخار ولايت, افغانستان","address":{"town":"رستاق","county":"ولسوالی رستاق","state":"تخار ولايت","ISO3166-2-lvl4":"AF-TAK","country":"افغانستان","country_code":"af"},"osm_type":"node","osm_id":1137396210,"type":"town","location":[69.7990764,37.141538],"bbox":[69.7590764,37.101538,69.8390764,37.181538]}
{"name":"روی دواب ولسوالی","other_names":{"name:en":"Ruy Doab","name:ps":"روی دواب ولسوالی","name:ru":"Руи","alt_name":"Ru'i Do Ab;Ru'i;Doab Ru'i;Ru'i va Do Ab;Ruy Duab Wuluswali;Ruy Doab Woluswali;Duab"},"display_name":"روی دواب ولسوالی, ولسوالی روی دوآب, ولایت سمنگان, افغانستان","address":{"town":"روی دواب ولسوالی","county":"ولسوالی روی دوآب","state":"ولایت سمنگان","ISO3166-2-lvl4":"AF-SAM","country":"افغانستان","country_code":"af"},"osm_type":"node","osm_id":4398427060,"type":"town","location":[67.825449,35.5600423],"bbox":[67.785449,35.5200423,67.865449,35.6000423]}
{"name":"رویی دو آب","other_names":{"name:en":"Ruy-e do Aab","name:ml":"റൂയി ദോ ആബ്","name:ur":"روئے دو آب"},"display_name":"رویی دو آب, ولسوالی دره‌صوف پایین, ولایت سمنگان, افغانستان","address":{"town":"رویی دو آب","county":"ولسوالی دره‌صوف پایین","state":"ولایت سمنگان","ISO3166-2-lvl4":"AF-SAM","country":"افغانستان","country_code":"af"},"osm_type":"node","osm_id":4398526516,"type":"town","location":[67.269423,35.957141],"bbox":[67.229423,35.917141,67.309423,35.997141]}
{"name":"زرغون شار","other_names":{"name:en":"Zarghun Shar","name:ps":"زرغون شهر","name:ru":"Заргуншахр","name:ur":"زرغون شہر","alt_name":"Zargunsahr;Khayr Kut;Khayr Kot;Katawaz;Zarghun Sahr;Zaraghun Sahr;Zargun Shahr","name:pnb":"زرغون شہر"},"display_name":"زرغون شار, رغون ښار ولسوالۍ, پکتيکا ولايت, افغانستان","address":{"town":"زرغون شار","county":"رغون ښار ولسوالۍ","state":"پکتيکا ولايت","ISO3166-2-lvl4":"AF-PKA","country":"افغانستان","country_code":"af"},"osm_type":"node","osm_id":4410973897,"type":"town","location":[68.445732,32.847343],"bbox":[68.405732,32.807343,68.485732,32.887343]}
{"name":"زرمت","other_names":{"name:af":"Zurmat","name:ar":"زرمت","name:de":"Zurmat","name:en":"Zurmat","name:es":"Zurmat","name:fa":"زرمت","name:ks":"زرمت","name:nl":"Zurmat","name:ps":"زرمت","name:sv":"Zurmat","name:ur":"زرمت","name:azb":"زرمت","name:ota":"زرمت","name:pnb":"زرمت","name:az-Arab":"زرمت"},"display_name":"زرمت, زرمت ولسوالۍ, پکتيا ولايت, افغانستان","address":{"town":"زرمت","state_district":"زرمت ولسوالۍ","state":"پکتيا ولايت","ISO3166-2-lvl4":"AF-PIA","country":"افغانستان","country_code":"af"},"osm_type":"node","osm_id":7850132322,"type":"town","location":[69.0323827,33.436035],"bbox":[68.9923827,33.396035,69.0723827,33.476035]}
{"name":"زرنج","other_names":{"name:ar":"زرنج","name:cs":"Zarandž","name:de":"Sarandsch","name:el":"Ζαράντζ","name:en":"Zaranj","name:es":"Zaranj","name:fa":"زرنج","name:fr":"Zarandj","name:hi":"जरांज","name:ja":"ザランジュ","name:ko":"자란지","name:lt":"Zarandžas","name:ml":"സരഞ്ജ്","name:pl":"Zarandż","name:ps":"زرنج","name:ru":"Зарандж","name:tg":"Заранҷ","name:tr":"Zerenc","name:uk":"Зарандж","name:zh":"扎兰季/扎蘭季","name:zh-Hans":"扎兰季","name:zh-Hant":"扎蘭季"},"display_name":"زرنج, ولسوالی زرنج, ولایت نیمروز, افغانستان","address":{"town":"زرنج","county":"ولسوالی زرنج","state":"ولایت نیمروز","ISO3166-2-lvl4":"AF-NIM","country":"افغانستان","country_code":"af"},"population":49851,"osm_type":"node","osm_id":312466967,"type":"town","location":[61.859475,30.954754],"bbox":[61.819475,30.914754,61.899475,30.994754]}
{"name":"زنده جان","other_names":{"name:en":"Zindah Jan","name:ml":"സിന്ദജാൻ","name:ps":"زنده جان","name:ru":"Зиндаджан","alt_name":"Zendajan;Zindajan;Fushanj;Fusanj"},"display_name":"زنده جان, ولسوالی زنده‌جان, ولایت هرات, افغانستان","address":{"town":"زنده جان","county":"ولسوالی زنده‌جان","state":"ولایت هرات","ISO3166-2-lvl4":"AF-HER","country":"افغانستان","country_code":"af"},"osm_type":"node","osm_id":4383592312,"type":"town","location":[61.746747,34.342641],"bbox":[61.706747,34.302641,61.786747,34.382641]}
{"name":"زېباک","other_names":{"name:ar":"زيباك","name:de":"Zebak","name:en":"Zebak","name:es":"Zebak","name:fa":"زیباک","name:fr":"Zebak","name:ps":"زېباک","name:ru":"Зебак","name:ur":"زیباک","name:pnb":"زیباک"},"display_name":"زېباک, زېباک ولسوالۍ, ولایت بدخشان, افغانستان","address":{"town":"زېباک","county":"زېباک ولسوالۍ","state":"ولایت بدخشان","ISO3166-2-lvl4":"AF-BDS","country":"افغانستان","country_code":"af"},"osm_type":"node","osm_id":1137355070,"type":"town","location":[71.3405996,36.5303233],"bbox":[71.3005996,36.4903233,71.3805996,36.5703233]}
{"name":"ساغر","other_names":{"name:en":"Saghar","name:ru":"Сагар"},"display_name":"ساغر, ولسوالی ساغر, غور, افغانستان","address":{"town":"ساغر","county":"ولسوالی ساغر","state":"غور","ISO3166-2-lvl4":"AF-GHO","country":"افغانستان","country_code":"af"},"osm_type":"node","osm_id":4380295637,"type":"town","location":[63.8625893,33.6899838],"bbox":[63.8225893,33.6499838,63.9025893,33.7299838]}
{"name":"سپین بولدک","other_names":{"name:en":"Spin Boldak","name:ja":"スピンボルダック","name:ml":"സ്പിൻ ബോൾഡാക്ക്","name:ps":"سپین بولدک","name:ru":"Спинбулдак","alt_name":"Spin Baldak;Spin Buldak"},"display_name":"سپین بولدک, سپين بولدک ولسوالۍ, کندهار ولايت, افغانستان","address":{"town":"سپین بولدک","county":"سپين بولدک ولسوالۍ","state":"کندهار ولايت","ISO3166-2-lvl4":"AF-KAN","country":"افغانستان","country_code":"af"},"osm_type":"node","osm_id":3506812407,"type":"town","location":[66.3978956,31.0054429],"bbox":[66.3578956,30.9654429,66.4378956,31.0454429]}
{"name":"سپېره","other_names":{"name:en":"Spera","name:ps":"سپېره","name:ru":"Спера","name:ur":"سپیرہ","alt_name":"سپيره;Speyrah;Sperah","name:pnb":"سپیرہ"},"display_name":"سپېره, سپېره ولسوالۍ, خوست ولايت, افغانستان","address":{"town":"سپېره","county":"سپېره ولسوالۍ","state":"خوست ولايت","ISO3166-2-lvl4":"AF-KHO","country":"افغانستان","country_code":"af"},"osm_type":"node","osm_id":3902864051,"type":"town","location":[69.5162718,33.2028137],"bbox":[69.4762718,33.1628137,69.5562718,33.2428137]}
{"name":"سرکاڼی","other_names":{"name:en":"Sarkani","name:ps":"سرکاڼی","name:ru":"Сарканай","name:ur":"سرکانی","alt_name":"سركانی;Serkani;Sirkhani;Sarkanu;Sar Kani","name:pnb":"سرکاݨی"},"display_name":"سرکاڼی, سرکاڼو ولسوالۍ, کونړ ولايت, افغانستان","address":{"town":"سرکاڼی","county":"سرکاڼو ولسوالۍ","state":"کونړ ولايت","ISO3166-2-lvl4":"AF-KNR","country":"افغانستان","country_code":"af"},"osm_type":"node","osm_id":4417813138,"type":"town","location":[71.10962,34.790227],"bbox":[71.06962,34.750227,71.14962,34.830227]}
{"name":"سره","other_names":{"name:ar":"سرة","name:de":"Sra","name:en":"Sra","name:fa":"سره","name:fr":"Sra","name:ps":"سره","name:ur":"سرہ"},"display_name":"سره, حصارک ولسوالۍ, ننگرهار ولايت, افغانستان","address":{"town":"سره","county":"حصارک ولسوالۍ","state":"ننگرهار ولايت","ISO3166-2-lvl4":"AF-NAN","country":"افغانستان","country_code":"af"},"osm_type":"node","osm_id":1732057847,"type":"town","location":[69.6402057,34.2387581],"bbox":[69.6002057,34.1987581,69.6802057,34.2787581]}
{"name":"سروبی","other_names":{"name:ar":"سروبي","name:bn":"সুরবী","name:de":"Sarobi","name:en":"Sarobi","name:fr":"Saroubi","name:hi":"सुरोबी","name:ja":"サラウビ","name:ml":"സുറോബി","name:ps":"سروبی","name:ru":"Суробай","alt_name":"Surawbi;Sarubi;Markaz-e Sorubi;Surobay;Sorubi;Sarowbi;Sorubay;Surobi"},"display_name":"سروبی, سروبي ولسوالۍ, ولایت كابل, افغانستان","address":{"town":"سروبی","county":"سروبي ولسوالۍ","state":"ولایت كابل","ISO3166-2-lvl4":"AF-KAB","country":"افغانستان","country_code":"af"},"osm_type":"node","osm_id":1672654337,"type":"town","location":[69.7564512,34.5917782],"bbox":[69.7164512,34.5517782,69.7964512,34.6317782]}
{"name":"سلطانپور","other_names":{"name:en":"Sultanpur","name:ml":"സുൽത്താൻപൂർ","name:ps":"سلطانپور سفلى","name:ur":"سلطان پور","alt_name":"سلطانپور سفلى;Surkhrod;Surkh Rod","alt_name:ml":"സൊർഖ്റൂദ്"},"display_name":"سلطانپور, سره رود ولسوالۍ, ننگرهار ولايت, افغانستان","address":{"town":"سلطانپور","county":"سره رود ولسوالۍ","state":"ننگرهار ولايت","ISO3166-2-lvl4":"AF-NAN","country":"افغانستان","country_code":"af"},"osm_type":"node","osm_id":1430001000,"type":"town","location":[70.3235946,34.4183098],"bbox":[70.2835946,34.3783098,70.3635946,34.4583098]}
{"name":"سنگر","other_names":{"name:en":"Sangar","name:ps":"سنگر"},"display_name":"سنگر, ولسوالی اجرستان, ولایت غزنی, افغانستان","address":{"town":"سنگر","county":"ولسوالی اجرستان","state":"ولایت غزنی","ISO3166-2-lvl4":"AF-GHA","country":"افغانستان","country_code":"af"},"osm_type":"node","osm_id":4413213555,"type":"town","location":[67.2058252,33.5239159],"bbox":[67.1658252,33.4839159,67.2458252,33.5639159]}
{"name":"سنگین","other_names":{"name:en":"Sangin","name:ml":"സംഗീൻ","name:ps":"سنگین","name:ru":"Сангин","alt_name":"Sarban Qal`eh"},"display_name":"سنگین, سنگين ولسوالۍ, هلمند ولايت, افغانستان","address":{"town":"سنگین","county":"سنگين ولسوالۍ","state":"هلمند ولايت","ISO3166-2-lvl4":"AF-HEL","country":"افغانستان","country_code":"af"},"osm_type":"node","osm_id":1610119594,"type":"town","location":[64.8471206,32.0702505],"bbox":[64.8071206,32.0302505,64.8871206,32.1102505]}
{"name":"سوزمه قلعه","other_names":{"name:en":"Sozma Qala","name:ps":"سوزمه قلعه","name:ur":"سوزمہ قلعہ","alt_name":"Sozmah Qal`ah;Saozma Kala;Sowzmeh Qal`eh;Saozma Qala"},"display_name":"سوزمه قلعه, ولسوالی سوزمه قلعه, سرپل, افغانستان","address":{"town":"سوزمه قلعه","county":"ولسوالی سوزمه قلعه","state":"سرپل","ISO3166-2-lvl4":"AF-SAR","country":"افغانستان","country_code":"af"},"osm_type":"node","osm_id":4397440649,"type":"town","location":[66.208226,36.099165],"bbox":[66.168226,36.059165,66.248226,36.139165]}
{"name":"سیاه گرد","other_names":{"name:en":"Siyahgird","name:ml":"സിയാഹ്ഗിർദ്","name:ps":"سیاه گرد","name:ru":"Сиахгирд","alt_name":"Siah Gird;Syahgerd;Siah Gerd"},"display_name":"سیاه گرد, ولسوالی غوربند, ولایت پروان, افغانستان","address":{"town":"سیاه گرد","county":"ولسوالی غوربند","state":"ولایت پروان","ISO3166-2-lvl4":"AF-PAR","country":"افغانستان","country_code":"af"},"osm_type":"node","osm_id":4422026221,"type":"town","location":[68.8561757,34.9957558],"bbox":[68.8161757,34.9557558,68.8961757,35.0357558]}
{"name":"سیغان علاقه داری","other_names":{"name:en":"Sayghan","name:ps":"سیغان علاقه داری","name:ru":"Сайган","name:ur":"سیغان علاقہ داری","alt_name":"Sayghan `Alaqadari;Sayghan `Alaqahdari"},"display_name":"سیغان علاقه داری, ولسوالی سیغان, ولایت بامیان, افغانستان","address":{"town":"سیغان علاقه داری","county":"ولسوالی سیغان","state":"ولایت بامیان","ISO3166-2-lvl4":"AF-BAM","country":"افغانستان","country_code":"af"},"osm_type":"node","osm_id":4421656275,"type":"town","location":[67.679558,35.1831326],"bbox":[67.639558,35.1431326,67.719558,35.2231326]}
{"name":"سیګانه","other_names":{"name:en":"Sehgana","name:ur":"سیگانہ","name:pnb":"سیگانہ"},"display_name":"سیګانه, رغون ښار ولسوالۍ, پکتيکا ولايت, افغانستان","address":{"town":"سیګانه","county":"رغون ښار ولسوالۍ","state":"پکتيکا ولايت","ISO3166-2-lvl4":"AF-PKA","country":"افغانستان","country_code":"af"},"osm_type":"node","osm_id":9657075198,"type":"town","location":[68.5187018,32.921372],"bbox":[68.4787018,32.881372,68.5587018,32.961372]}
{"display_name":"شاه جوی ولسوالۍ, زابل ولايت, افغانستان","address":{"county":"شاه جوی ولسوالۍ","state":"زابل ولايت","ISO3166-2-lvl4":"AF-ZAB","country":"افغانستان","country_code":"af"},"osm_type":"way","osm_id":619457981,"type":"town","location":[67.32931411260856,32.45266685],"bbox":[67.3264028,32.4496973,67.3319514,32.4541492]}
{"name":"شهر بزرگ","other_names":{"name:ar":"شهري بوزرغ","name:en":"Shahr-i-Buzurg","name:ps":"شهر بزرگ","name:ur":"شہر بزرگ","alt_name":"شهر بزرگ;Sahr-i-Buzurg;Sahre Bozurg;Shahr-e Buzurg"},"display_name":"شهر بزرگ, ولسوالی شهر بزرگ, ولایت بدخشان, افغانستان","address":{"town":"شهر بزرگ","county":"ولسوالی شهر بزرگ","state":"ولایت بدخشان","ISO3166-2-lvl4":"AF-BDS","country":"افغانستان","country_code":"af"},"osm_type":"node","osm_id":1137389119,"type":"town","location":[70.1689436,37.3108054],"bbox":[70.1289436,37.2708054,70.2089436,37.3508054]}
{"name":"شهرستان","other_names":{"name:en":"Sahrestan","name:fa":"Daykondi","name:ml":"ഷഹ്റെസ്ഥാൻ","name:ps":"شاهراه","name:ru":"Шахристан","name:ur":"شہرستان","alt_name":"Sarah;Shahrah"},"display_name":"شهرستان, ولسوالی شهرستان, ولایت دایکندی, افغانستان","address":{"town":"شهرستان","state_district":"ولسوالی شهرستان","state":"ولایت دایکندی","ISO3166-2-lvl4":"AF-DAY","country":"افغانستان","country_code":"af"},"osm_type":"node","osm_id":4378975754,"type":"town","location":[66.551157,33.689711],"bbox":[66.511157,33.649711,66.591157,33.729711]}
{"name":"شهرک اتفاق","other_names":{"name:ar":"مدينة اتفاق","name:en":"Ettefaq","name:fa":"شهرک اتفاق","name:ja":"エットファク・タウン","name:ml":"എത്തെഫാഖ്","name:ur":"شہرک اتفاق","name:en1":"Ettefaq Town","short_name:ar":"اتفاق"},"display_name":"شهرک اتفاق, ولسوالی پغمان, ولایت كابل, افغانستان","address":{"town":"شهرک اتفاق","county":"ولسوالی پغمان","state":"ولایت كابل","ISO3166-2-lvl4":"AF-KAB","country":"افغانستان","country_code":"af"},"osm_type":"node","osm_id":3742726259,"type":"town","location":[69.0113442,34.5074817],"bbox":[68.9713442,34.4674817,69.0513442,34.5474817]}
{"name":"شهرک","other_names":{"name:en":"Shahrak","name:ps":"شهرک","name:ru":"Шахрак","name:uk":"Шаграк","name:ur":"شہرک","alt_name":"Qal`eh-ye Bati Darrah;Bati Dara;Shahrag;Sahrak;Wala Shahrak;Sharak;Qala Bati Dara;Markaz-e Shahrak;Kala Shahrak;Kala Shaharak;Qal`eh Shaharak;Qala Sharak;Qala Shaharak"},"display_name":"شهرک, ولسوالی شهرک, غور, افغانستان","address":{"town":"شهرک","county":"ولسوالی شهرک","state":"غور","ISO3166-2-lvl4":"AF-GHO","country":"افغانستان","country_code":"af"},"osm_type":"node","osm_id":4380395173,"type":"town","location":[64.305199,34.107375],"bbox":[64.265199,34.067375,64.345199,34.147375]}
{"name":"شور تپه","other_names":{"name:ar":"شور تبة","name:en":"Shur Teypah","name:ps":"Shur Teypah;Shur'-tepe;Sortapa;Shor Tappeh;Shor Tapa;Shor Tepa;Shor Tepe;شور تپه;Shor Tepah;Shur Tappeh","name:ru":"Шортапа","name:uz":"Sho`rtepa","alt_name":"Shur'-tepe;Sortapa;Shor Tappeh;Shor Tapa;Shor Tepa;Shor Tepe;شور تپه;Shor Tepah;Shur Tappeh"},"display_name":"شور تپه, ولسوالی شورتپه, ولایت بلخ, افغانستان","address":{"town":"شور تپه","county":"ولسوالی شورتپه","state":"ولایت بلخ","ISO3166-2-lvl4":"AF-BAL","country":"افغانستان","country_code":"af"},"osm_type":"node","osm_id":4392215668,"type":"town","location":[66.8087378,37.3295242],"bbox":[66.7687378,37.2895242,66.8487378,37.3695242]}
{"name":"شين کوټ","other_names":{"name:en":"Shinkot","name:ml":"ഷീൻകോട്ട്","name:ps":"شين کوټ","name:ur":"شین کوٹ","alt_name":"Pasaband"},"display_name":"شين کوټ, ولسوالی پسابند, غور, افغانستان","address":{"town":"شين کوټ","state_district":"ولسوالی پسابند","state":"غور","ISO3166-2-lvl4":"AF-GHO","country":"افغانستان","country_code":"af"},"osm_type":"node","osm_id":4377546729,"type":"town","location":[64.8560422,33.689952],"bbox":[64.8160422,33.649952,64.8960422,33.729952]}
{"name":"شیخ امیر کلی","other_names":{"name:en":"Sekhamir Kalay","name:ml":"ഷെയ്ഖ് അമീർ","name:ps":"شیخ امیر کلی","name:ru":"Шейх Амир Кали","alt_name":"Shaykh Amir;Shekh Amir Kelay;Shaykh Amir Kelay;Sheykh Amir Kalay;شیخ امیر;قريۀ شيخ امير"},"display_name":"شیخ امیر کلی, گوربز ولسوالۍ, خوست ولايت, 2501, افغانستان","address":{"town":"شیخ امیر کلی","county":"گوربز ولسوالۍ","state":"خوست ولايت","ISO3166-2-lvl4":"AF-KHO","postcode":"2501","country":"افغانستان","country_code":"af"},"osm_type":"node","osm_id":4411913451,"type":"town","location":[69.912834,33.287443],"bbox":[69.872834,33.247443,69.952834,33.327443]}
{"name":"شیر خان خېل","other_names":{"name:en":"Shirkhankheyl","name:ml":"ഷേർഖാൻഖയിൽ","name:ps":"شیر خان خېل","name:ru":"Шэрханхэль","name:ur":"شیر خان خیل","alt_name":"شيرخان خيل;Serkhankhel;Sher Khan Khel;Shayr Khan Khel","name:pnb":"شیر خان خیل"},"display_name":"شیر خان خېل, ولسوالی حصه اول کوهستان, ولایت کاپیسا, افغانستان","address":{"town":"شیر خان خېل","county":"ولسوالی حصه اول کوهستان","state":"ولایت کاپیسا","ISO3166-2-lvl4":"AF-KAP","country":"افغانستان","country_code":"af"},"osm_type":"node","osm_id":3462850725,"type":"town","location":[69.2943554,35.1447194],"bbox":[69.2543554,35.1047194,69.3343554,35.1847194]}
{"name":"شیرزاد","other_names":{"name:en":"Sherzad","name:ml":"ഷീർസാദ്","alt_name":"Shirzad"},"display_name":"شیرزاد, شېرزاد ولسوالۍ, ننگرهار ولايت, افغانستان","address":{"town":"شیرزاد","county":"شېرزاد ولسوالۍ","state":"ننگرهار ولايت","ISO3166-2-lvl4":"AF-NAN","country":"افغانستان","country_code":"af"},"osm_type":"node","osm_id":1541896235,"type":"town","location":[70.0080665,34.2503581],"bbox":[69.9680665,34.2103581,70.0480665,34.2903581]}
{"name":"شینډنډ","other_names":{"name:el":"Σιντάντ","name:en":"Shindand","name:fa":"شیندند","name:ja":"シンダンド","name:ml":"ഷീന്ദന്ദ്","name:ru":"Шинданд","name:uk":"Шінданд","name:ur":"شین ڈنڈ","alt_name":"Sabzevar;Sabzawar;Sabzwar;Asfazar;Shindand;Sindand;Sabzevar;Sabzawar;Sabzavar;شيندند;شیندند"},"display_name":"شینډنډ, ولسوالی شیندند, ولایت هرات, افغانستان","address":{"town":"شینډنډ","county":"ولسوالی شیندند","state":"ولایت هرات","ISO3166-2-lvl4":"AF-HER","country":"افغانستان","country_code":"af"},"osm_type":"node","osm_id":315043220,"type":"town","location":[62.1566193,33.3055862],"bbox":[62.1166193,33.2655862,62.1966193,33.3455862]}
{"name":"شېرخان بندر","other_names":{"name:ar":"شير جان بندر","name:en":"Shir Khan Bandar","name:ru":"Шир Хан Бандар","name:ur":"شیر خان بندر","old_name:fa":"قزل قلعه"},"display_name":"شېرخان بندر, ولسوالی امام‌صاحب, ولایت قندوز, افغانستان","address":{"town":"شېرخان بندر","county":"ولسوالی امام‌صاحب","state":"ولایت قندوز","ISO3166-2-lvl4":"AF-KDZ","country":"افغانستان","country_code":"af"},"osm_type":"node","osm_id":3450005217,"type":"town","location":[68.6177046,37.1908452],"bbox":[68.5777046,37.1508452,68.6577046,37.2308452],"border":{"name":"شېرخان بندر","other_names":{"name:ar":"شير جان بندر","name:en":"Shir Khan Bandar","name:ru":"Шир Хан Бандар","name:ur":"شیر خان بندر","old_name:fa":"قزل قلعه"},"display_name":"شېرخان بندر, ولسوالی امام‌صاحب, ولایت قندوز, افغانستان","address":{"town":"شېرخان بندر","county":"ولسوالی امام‌صاحب","state":"ولایت قندوز","ISO3166-2-lvl4":"AF-KDZ","country":"افغانستان","country_code":"af"},"osm_type":"relation","osm_id":18244243,"type":"town","location":[68.6177046,37.1908452],"bbox":[68.6107939,37.1873746,68.6227164,37.1929333]}}
{"name":"ښواک","other_names":{"name:en":"Shavak","name:ml":"ഷ്വാക്ക്","name:ps":"ښواک","name:ru":"Шуак","name:ur":"شواک","alt_name":"شواك;Swak;Shwak","name:pnb":"شواک"},"display_name":"ښواک, شواک ولسوالۍ, پکتيا ولايت, افغانستان","address":{"town":"ښواک","county":"شواک ولسوالۍ","state":"پکتيا ولايت","ISO3166-2-lvl4":"AF-PIA","country":"افغانستان","country_code":"af"},"osm_type":"node","osm_id":4411278113,"type":"town","location":[69.3773009,33.4336268],"bbox":[69.3373009,33.3936268,69.4173009,33.4736268]}
{"name":"صیاد","other_names":{"name:en":"Sayad","name:ps":"صیاد","alt_name":"Sayad;Seyyed;Saiyid;Saiad"},"display_name":"صیاد, ولسوالی صیاد, سرپل, افغانستان","address":{"town":"صیاد","county":"ولسوالی صیاد","state":"سرپل","ISO3166-2-lvl4":"AF-SAR","country":"افغانستان","country_code":"af"},"osm_type":"node","osm_id":3558608352,"type":"town","location":[65.829697,36.135292],"bbox":[65.789697,36.095292,65.869697,36.175292]}
{"name":"عزت مینه","other_names":{"name:en":"Ezat Mina","name:fa":"عزت مینه"},"display_name":"عزت مینه, ولسوالی بگرامی, ولایت كابل, افغانستان","address":{"town":"عزت مینه","county":"ولسوالی بگرامی","state":"ولایت كابل","ISO3166-2-lvl4":"AF-KAB","country":"افغانستان","country_code":"af"},"population":11000,"osm_type":"relation","osm_id":10876304,"type":"town","location":[69.28711411143945,34.51404205],"bbox":[69.2806466,34.5066289,69.294586,34.5214357]}
{"name":"علاقه داری المار","other_names":{"name:en":"Almar","name:ps":"علاقه داری المار","name:ru":"Альмар","name:ur":"المار","alt_name":"المار;Almar Bazar;Alaqadari-i-Almar;`Alaqahdari-ye Almar"},"display_name":"علاقه داری المار, ولسوالی المار, ولایت فاریاب / فاریاب ولایتی, افغانستان","address":{"town":"علاقه داری المار","county":"ولسوالی المار","state":"ولایت فاریاب / فاریاب ولایتی","ISO3166-2-lvl4":"AF-FYB","country":"افغانستان","country_code":"af"},"population":75900,"osm_type":"node","osm_id":4396016348,"type":"town","location":[64.530735,35.846163],"bbox":[64.490735,35.806163,64.570735,35.886163]}
{"name":"علاقه داری خاک جبار","other_names":{"name:en":"Khake Jabar","name:ps":"علاقه داری خاک جبار","name:uk":"Хакі-Джаббар","alt_name":"`Alaqahdari Khak-e Jabar;Khak Jabar"},"display_name":"علاقه داری خاک جبار, خاکجبار ولسوالۍ, ولایت كابل, افغانستان","address":{"town":"علاقه داری خاک جبار","county":"خاکجبار ولسوالۍ","state":"ولایت كابل","ISO3166-2-lvl4":"AF-KAB","country":"افغانستان","country_code":"af"},"osm_type":"node","osm_id":4422385169,"type":"town","location":[69.39493,34.364075],"bbox":[69.35493,34.324075,69.43493,34.404075]}
{"name":"علاقه داری شاه جوی","other_names":{"name:en":"Shah Joy","name:ps":"علاقه داری شاه جوی","name:ru":"Шахджой","name:uk":"Шах-Джуй","name:ur":"علاقہ داری شاہ جوئی","alt_name":"شاه جوی;`Alaqahdari Shah Joy;Shah Juy;Shajuy;Sha Joi;Sahjoy;Alaqadari Sahjoy;Shahjui"},"display_name":"علاقه داری شاه جوی, شاه جوی ولسوالۍ, زابل ولايت, افغانستان","address":{"town":"علاقه داری شاه جوی","county":"شاه جوی ولسوالۍ","state":"زابل ولايت","ISO3166-2-lvl4":"AF-ZAB","country":"افغانستان","country_code":"af"},"osm_type":"node","osm_id":4408484813,"type":"town","location":[67.413151,32.521541],"bbox":[67.373151,32.481541,67.453151,32.561541]}
{"name":"علاقه داری قلعه کاه","other_names":{"name:en":"Qal'a-i-Kah","name:fa":"Qal`ah-ye Kah","name:ps":"علاقه داری قلعه کاه","name:ur":"قلعہ کاہ","alt_name":"قلعه کاه;`Alaqahdari Qal`ah-ye Kah;Qal`eh-ye Ka;Qala Kah;Qal`eh-ye Kah;`Alaqadari Qal`a-i-Kah"},"display_name":"علاقه داری قلعه کاه, ولسوالی قلعه کاه, ولایت فراه, افغانستان","address":{"town":"علاقه داری قلعه کاه","county":"ولسوالی قلعه کاه","state":"ولایت فراه","ISO3166-2-lvl4":"AF-FRA","country":"افغانستان","country_code":"af"},"osm_type":"node","osm_id":4406696928,"type":"town","location":[61.527138,32.293083],"bbox":[61.487138,32.253083,61.567138,32.333083]}
{"name":"علاقه داری کران و منجان","other_names":{"name:ar":"كران ومنجان","name:en":"Koran va Monjan","name:ps":"علاقه داری کران و منجان","name:ru":"Коран-о-Мунджан","name:ur":"علاقہ داری کران و منجان","alt_name":"Koranomunjan;Keran va Menjan;Kerana va Manjah;`Alaqehdari-ye Koran va Monjan;`Alaqahdari Kiran wa Munjan;Kiran wa Munjan"},"display_name":"علاقه داری کران و منجان, ولسوالی کران و منجان, ولایت بدخشان, افغانستان","address":{"town":"علاقه داری کران و منجان","county":"ولسوالی کران و منجان","state":"ولایت بدخشان","ISO3166-2-lvl4":"AF-BDS","country":"افغانستان","country_code":"af"},"osm_type":"node","osm_id":4386833005,"type":"town","location":[70.772575,36.028663],"bbox":[70.732575,35.988663,70.812575,36.068663]}
{"name":"علاقه داری نیش","other_names":{"name:en":"`Alaqahdari Naysh","name:ps":"علاقه داری نیش","alt_name":"Naish;Naysh;`Alaqadari Nes;Nes;نيش"},"display_name":"علاقه داری نیش, نېش ولسوالۍ, کندهار ولايت, افغانستان","address":{"town":"علاقه داری نیش","county":"نېش ولسوالۍ","state":"کندهار ولايت","ISO3166-2-lvl4":"AF-KAN","country":"افغانستان","country_code":"af"},"osm_type":"node","osm_id":4403040848,"type":"town","location":[65.637068,32.426877],"bbox":[65.597068,32.386877,65.677068,32.466877]}
{"name":"علی آباد","other_names":{"name:en":"Aliabad","name:ps":"علی آباد","name:ru":"Алиабад","alt_name":"Ali Abad"},"display_name":"علی آباد, ولسوالی علی‌آباد, ولایت قندوز, افغانستان","address":{"town":"علی آباد","county":"ولسوالی علی‌آباد","state":"ولایت قندوز","ISO3166-2-lvl4":"AF-KDZ","country":"افغانستان","country_code":"af"},"osm_type":"node","osm_id":1131478253,"type":"town","location":[68.8992,36.5222],"bbox":[68.8592,36.4822,68.9392,36.5622]}
{"name":"علی خېل","other_names":{"name:en":"`Ali Khel","name:ml":"അലിഖേൽ","name:ps":"علی خېل","name:ru":"Алихейль","name:ur":"علی خیل","alt_name":"`Ali Kheyl;Alikhel"},"display_name":"علی خېل, ځاځي ولسوالۍ, پکتيا ولايت, افغانستان","address":{"town":"علی خېل","county":"ځاځي ولسوالۍ","state":"پکتيا ولايت","ISO3166-2-lvl4":"AF-PIA","country":"افغانستان","country_code":"af"},"osm_type":"node","osm_id":3889747554,"type":"town","location":[69.7141706,33.9441218],"bbox":[69.6741706,33.9041218,69.7541706,33.9841218]}
{"name":"علی شېر","other_names":{"name:en":"Alishahr","name:ps":"علی شېر علاقه داری","name:ru":"Али Шеру","name:ur":"علی شیر","alt_name":"علی شير علاقهداری;علی شېر;Aliser 'Alaqadari;`Ali Shir `Alaqehdari;`Ali Sher;`Ali Sher `Alaqahdari"},"display_name":"علی شېر, تېره زي ولسوالۍ, خوست ولايت, افغانستان","address":{"town":"علی شېر","county":"تېره زي ولسوالۍ","state":"خوست ولايت","ISO3166-2-lvl4":"AF-KHO","country":"افغانستان","country_code":"af"},"osm_type":"node","osm_id":4412940432,"type":"town","location":[70.067109,33.436204],"bbox":[70.027109,33.396204,70.107109,33.476204]}
{"name":"غازی آباد","other_names":{"name:en":"Ghaziabad","name:ml":"ഗാസിയാബാദ്","name:ps":"غازی آباد","name:ru":"Гази Абад"},"display_name":"غازی آباد, غازي آباد ولسوالۍ, کونړ ولايت, افغانستان","address":{"town":"غازی آباد","county":"غازي آباد ولسوالۍ","state":"کونړ ولايت","ISO3166-2-lvl4":"AF-KNR","country":"افغانستان","country_code":"af"},"osm_type":"node","osm_id":4418461913,"type":"town","location":[71.3910335,35.1463584],"bbox":[71.3510335,35.1063584,71.4310335,35.1863584]}
{"name":"غورغوری","other_names":{"name:en":"Ghorghori","name:ml":"ഗോർഗോറി","name:ps":"غورغوري ښار","name:bgn":"غورغوری"},"display_name":"غورغوری, ولسوالی خاش رود, ولایت نیمروز, افغانستان","address":{"town":"غورغوری","county":"ولسوالی خاش رود","state":"ولایت نیمروز","ISO3166-2-lvl4":"AF-NIM","country":"افغانستان","country_code":"af"},"population":4000,"osm_type":"node","osm_id":3521483429,"type":"town","location":[62.6372513,31.4452858],"bbox":[62.5972513,31.4052858,62.6772513,31.4852858]}
{"name":"غورک","other_names":{"name:en":"Ghorak","name:ml":"ഗോറക്ക്","name:ps":"غورک","name:ru":"Гурк","alt_name":"Ghowrak;Popalzai"},"display_name":"غورک, غورک ولسوالۍ, کندهار ولايت, افغانستان","address":{"town":"غورک","county":"غورک ولسوالۍ","state":"کندهار ولايت","ISO3166-2-lvl4":"AF-KAN","country":"افغانستان","country_code":"af"},"osm_type":"node","osm_id":4402564723,"type":"town","location":[65.135841,32.032494],"bbox":[65.095841,31.992494,65.175841,32.072494]}
{"name":"غورماچ","other_names":{"name:ar":"غورماج","name:en":"Ghormach","name:ml":"ഗോർമാച്ച്","name:ps":"غورماچ","name:ru":"Гормач","alt_name":"Garmak;Ghormac"},"display_name":"غورماچ, ولسوالۍ غورماچ, ولایت بادغیس, افغانستان","address":{"town":"غورماچ","county":"ولسوالۍ غورماچ","state":"ولایت بادغیس","ISO3166-2-lvl4":"AF-BDG","country":"افغانستان","country_code":"af"},"osm_type":"node","osm_id":313001718,"type":"town","location":[63.7809312,35.7300994],"bbox":[63.7409312,35.6900994,63.8209312,35.7700994]}
{"name":"غوریان","other_names":{"name:en":"Ghurian","name:ml":"ഗുറിയാൻ","name:ps":"غوریان","name:ru":"Гуриан","alt_name":"Ghuryan;Ghoryan;Ghorian;Gorian;Ghuriyan;Ghoriyan"},"display_name":"غوریان, ولسوالی غوریان, ولایت هرات, افغانستان","address":{"town":"غوریان","county":"ولسوالی غوریان","state":"ولایت هرات","ISO3166-2-lvl4":"AF-HER","country":"افغانستان","country_code":"af"},"osm_type":"node","osm_id":3898201674,"type":"town","location":[61.493432,34.3450535],"bbox":[61.453432,34.3050535,61.533432,34.3850535]}
{"name":"فراه رود","other_names":{"name:ar":"فراه رود","name:de":"Farah Rud","name:en":"Farah Rud","name:es":"Farah Rud","name:fa":"فراه رود","name:ml":"ഫറാറൂദ്","name:ps":"فراه رود","name:ru":"Фарахруд"},"display_name":"فراه رود, ولسوالی بالا بلوک, ولایت فراه, افغانستان","address":{"town":"فراه رود","county":"ولسوالی بالا بلوک","state":"ولایت فراه","ISO3166-2-lvl4":"AF-FRA","country":"افغانستان","country_code":"af"},"osm_type":"node","osm_id":3455102086,"type":"town","location":[62.590947,32.7555633],"bbox":[62.550947,32.7155633,62.630947,32.7955633]}
{"name":"فرخار","other_names":{"name:en":"Farkhar","name:ps":"فرخار"},"display_name":"فرخار, ولسوالی فرخار, تخار ولايت, افغانستان","address":{"town":"فرخار","county":"ولسوالی فرخار","state":"تخار ولايت","ISO3166-2-lvl4":"AF-TAK","country":"افغانستان","country_code":"af"},"osm_type":"node","osm_id":4389129855,"type":"town","location":[69.857834,36.572884],"bbox":[69.817834,36.532884,69.897834,36.612884]}
{"name":"فیروزی د معلمینو ښارګوټي","other_names":{"name:en":"Ferozi Teachers Town"},"display_name":"فیروزی د معلمینو ښارګوټي, ولسوالی ده‌سبز, ولایت كابل, افغانستان","address":{"town":"فیروزی د معلمینو ښارګوټي","county":"ولسوالی ده‌سبز","state":"ولایت كابل","ISO3166-2-lvl4":"AF-KAB","country":"افغانستان","country_code":"af"},"osm_type":"node","osm_id":5409092024,"type":"town","location":[69.2794768,34.7434618],"bbox":[69.2394768,34.7034618,69.3194768,34.7834618]}
{"name":"فیض آباد","other_names":{"name:en":"Feyzabad","name:ml":"ഫൈസാബാദ്","name:ps":"فیض آباد","alt_name":"Faizabad;Faydzabad;Fazilabad"},"display_name":"فیض آباد, ولسوالی فیض‌آباد, ولایت جوزجان / جوزجان ولایتی, افغانستان","address":{"town":"فیض آباد","county":"ولسوالی فیض‌آباد","state":"ولایت جوزجان / جوزجان ولایتی","ISO3166-2-lvl4":"AF-JOW","country":"افغانستان","country_code":"af"},"osm_type":"node","osm_id":4393817980,"type":"town","location":[66.459213,36.82091],"bbox":[66.419213,36.78091,66.499213,36.86091]}
{"name":"قادس","other_names":{"name:ar":"قادس","name:en":"Qadis","name:ml":"ഖാദിസ്","name:ps":"قادس","name:ru":"Кадис","alt_name":"Qaddis;Qades"},"display_name":"قادس, ولسوالی قادس, ولایت بادغیس, افغانستان","address":{"town":"قادس","county":"ولسوالی قادس","state":"ولایت بادغیس","ISO3166-2-lvl4":"AF-BDG","country":"افغانستان","country_code":"af"},"osm_type":"node","osm_id":4385592169,"type":"town","location":[63.4384502,34.8044809],"bbox":[63.3984502,34.7644809,63.4784502,34.8444809]}
{"name":"قال زبید","other_names":{"name:en":"Qal-e Zubayd","name:ps":"قال زبید","alt_name":"Qal-e Zobayd"},"display_name":"قال زبید, ولسوالی فیروزکوه, غور, افغانستان","address":{"town":"قال زبید","county":"ولسوالی فیروزکوه","state":"غور","ISO3166-2-lvl4":"AF-GHO","country":"افغانستان","country_code":"af"},"osm_type":"node","osm_id":4380567793,"type":"town","location":[65.2884,34.914505],"bbox":[65.2484,34.874505,65.3284,34.954505]}
{"name":"قرغان","other_names":{"name:en":"Qurghan","name:ps":"قرغان","name:ru":"Курган","alt_name":"بازار قرغان;Bazar-e Qurghan;Qorghan;Kurghan"},"display_name":"قرغان, ولسوالی قرغان, ولایت فاریاب / فاریاب ولایتی, افغانستان","address":{"town":"قرغان","county":"ولسوالی قرغان","state":"ولایت فاریاب / فاریاب ولایتی","ISO3166-2-lvl4":"AF-FYB","country":"افغانستان","country_code":"af"},"osm_type":"node","osm_id":4394431429,"type":"town","location":[65.064904,36.919393],"bbox":[65.024904,36.879393,65.104904,36.959393]}
{"name":"قرقین","other_names":{"name:en":"Qarqin","name:ml":"ഖർഖീൻ","name:ps":"قرقین","name:ru":"Каркин","alt_name":"Karkin Bazar;Qarkin;Quarkin;Karkin"},"display_name":"قرقین, ولسوالی قرقین, ولایت جوزجان / جوزجان ولایتی, افغانستان","address":{"town":"قرقین","county":"ولسوالی قرقین","state":"ولایت جوزجان / جوزجان ولایتی","ISO3166-2-lvl4":"AF-JOW","country":"افغانستان","country_code":"af"},"osm_type":"node","osm_id":4393858410,"type":"town","location":[66.0333403,37.4139229],"bbox":[65.9933403,37.3739229,66.0733403,37.4539229]}
{"name":"قرمقل","other_names":{"name:en":"Qaramqol","name:ml":"ഖറംഖൊൽ","name:ps":"قرمقل","name:ru":"Карамколь","alt_name":"Qaramqul","alt_name:ml":"ഖറംഖുൽ"},"display_name":"قرمقل, ولسوالی قرم‌قل, ولایت فاریاب / فاریاب ولایتی, افغانستان","address":{"town":"قرمقل","county":"ولسوالی قرم‌قل","state":"ولایت فاریاب / فاریاب ولایتی","ISO3166-2-lvl4":"AF-FYB","country":"افغانستان","country_code":"af"},"osm_type":"node","osm_id":4394941837,"type":"town","location":[65.0634514,36.8636557],"bbox":[65.0234514,36.8236557,65.1034514,36.9036557]}
{"display_name":"قره باغ ولسوالۍ, ولایت غزنی, افغانستان","address":{"county":"قره باغ ولسوالۍ","state":"ولایت غزنی","ISO3166-2-lvl4":"AF-GHA","country":"افغانستان","country_code":"af"},"osm_type":"node","osm_id":7644594835,"type":"town","location":[67.9080858,33.2649141],"bbox":[67.8680858,33.2249141,67.9480858,33.3049141]}
{"name":"قره باغ","other_names":{"name:en":"Qarabagh","name:ml":"ഖറബാഗ്","name:ps":"قره باغ","name:ru":"Карабаг","name:ur":"قرہ باغ","alt_name":"Qarah Bagh;Qarehbagh"},"display_name":"قره باغ, قره باغ ولسوالۍ, ولایت غزنی, افغانستان","address":{"town":"قره باغ","county":"قره باغ ولسوالۍ","state":"ولایت غزنی","ISO3166-2-lvl4":"AF-GHA","country":"افغانستان","country_code":"af"},"osm_type":"node","osm_id":4414474632,"type":"town","location":[68.107977,33.198014],"bbox":[68.067977,33.158014,68.147977,33.238014]}
{"name":"قره باغ","other_names":{"name:en":"Qarabagh","name:ml":"ഖറാബാഗ്","name:ps":"قره باغ","name:ru":"Карабаг","name:ur":"قرہ باغ","alt_name":"Qarabagh Karez;Karabagh;Qarah Bagh;Qareh Bagh"},"display_name":"قره باغ, ولسوالی قره‌باغ, ولایت كابل, افغانستان","address":{"town":"قره باغ","county":"ولسوالی قره‌باغ","state":"ولایت كابل","ISO3166-2-lvl4":"AF-KAB","country":"افغانستان","country_code":"af"},"osm_type":"node","osm_id":4422283516,"type":"town","location":[69.151879,34.842947],"bbox":[69.111879,34.802947,69.191879,34.882947]}
{"display_name":"قلات ولسوالۍ, زابل ولايت, افغانستان","address":{"county":"قلات ولسوالۍ","state":"زابل ولايت","ISO3166-2-lvl4":"AF-ZAB","country":"افغانستان","country_code":"af"},"osm_type":"way","osm_id":619233381,"type":"town","location":[67.2037052091078,32.3112406],"bbox":[67.2011541,32.3072881,67.2068473,32.3144226]}
{"name":"قلعه حشمت خان","other_names":{"name:en":"Qala-e-Hashmat Khan","name:fa":"قلعه حشمت خان","name:ps":"قلعه حشمت خان"},"display_name":"قلعه حشمت خان, کابل ښاروالۍ, ولایت كابل, 1001, افغانستان","address":{"town":"قلعه حشمت خان","county":"کابل ښاروالۍ","state":"ولایت كابل","ISO3166-2-lvl4":"AF-KAB","postcode":"1001","country":"افغانستان","country_code":"af"},"osm_type":"node","osm_id":5862995074,"type":"town","location":[69.1946121,34.4911043],"bbox":[69.1546121,34.4511043,69.2346121,34.5311043]}
{"name":"قلعه نعيم","other_names":{"name:ar":"قلعة نعيم","name:de":"Qaleh-ye Na'im","name:en":"Qaleh-ye Na'im","name:fa":"قلعه نعيم","name:ml":"ഖലെയെ നയീം","name:ps":"قلعه نعيم","name:ur":"قلعہ نعیم"},"display_name":"قلعه نعيم, ولسوالی چهارآسیاب, ولایت كابل, افغانستان","address":{"town":"قلعه نعيم","county":"ولسوالی چهارآسیاب","state":"ولایت كابل","ISO3166-2-lvl4":"AF-KAB","country":"افغانستان","country_code":"af"},"osm_type":"node","osm_id":3978243595,"type":"town","location":[69.164078,34.3979831],"bbox":[69.124078,34.3579831,69.204078,34.4379831]}
{"name":"قلعه","other_names":{"name:en":"Qal`a","name:ps":"قلعه","name:ur":"","alt_name":"Qal`eh;Qal`ah"},"display_name":"قلعه, ولسوالی کوهستان, ولایت فاریاب / فاریاب ولایتی, افغانستان","address":{"town":"قلعه","county":"ولسوالی کوهستان","state":"ولایت فاریاب / فاریاب ولایتی","ISO3166-2-lvl4":"AF-FYB","country":"افغانستان","country_code":"af"},"osm_type":"node","osm_id":4395974273,"type":"town","location":[64.756569,35.382076],"bbox":[64.716569,35.342076,64.796569,35.422076]}
{"name":"قلعۀ زال","other_names":{"name:en":"Qal'a-i-Zal","name:ps":"قلعۀ زال","name:ru":"Калайи-Заль","name:ur":"قلعہ زال","alt_name":"قلعۀ ذال;Kala Zal;Qalla-i-Zal;Qala Zal;Qal`ah-ye Zal;Qal`a-i-Zai;Qal`eh-ye Zai;Qal`eh-ye Zal;Kila-i-Zai"},"display_name":"قلعۀ زال, ولسوالی قلعه ذال, ولایت قندوز, افغانستان","address":{"town":"قلعۀ زال","county":"ولسوالی قلعه ذال","state":"ولایت قندوز","ISO3166-2-lvl4":"AF-KDZ","country":"افغانستان","country_code":"af"},"osm_type":"node","osm_id":1131478263,"type":"town","location":[68.444736,37.008507],"bbox":[68.404736,36.968507,68.484736,37.048507]}
{"name":"قلعۀ سنگ تخت","other_names":{"name:en":"Qal`ah-ye Sang-e Takht","name:ps":"قلعۀ سنگ تخت","name:ru":"Санги-Тахт","name:ur":"قلعہ سنگ تخت","alt_name":"Qal`eh-ye Sang-e Takht;Kala Shinia Takht;Shinia Takht;Sangetalkh;Qal`eh Shinia Takht;Qal`a Sange Takht;Qal`eh Sang-e Takht;Qala Shinia Takht;Qal`ah Sang-e Takht"},"display_name":"قلعۀ سنگ تخت, ولسوالی سنگ تخت, ولایت دایکندی, افغانستان","address":{"town":"قلعۀ سنگ تخت","state_district":"ولسوالی سنگ تخت","state":"ولایت دایکندی","ISO3166-2-lvl4":"AF-DAY","country":"افغانستان","country_code":"af"},"osm_type":"node","osm_id":4378943561,"type":"town","location":[66.1354941,34.2632849],"bbox":[66.0954941,34.2232849,66.1754941,34.3032849]}
{"name":"قلعۀ فارسی","other_names":{"name:en":"Farsi","name:ml":"ഖല ഫാർസി","name:ps":"قلعۀ فارسی","name:ru":"Фарси","alt_name":"Qal`a-i-Farsi;Qal`ah-ye Farsi;Qal`eh-ye Farsi;Qal`a Farsi;Kalafarsi;Qal`eh Farsi;قلعۀ فرسی"},"display_name":"قلعۀ فارسی, ولسوالی فارسی, ولایت هرات, افغانستان","address":{"town":"قلعۀ فارسی","county":"ولسوالی فارسی","state":"ولایت هرات","ISO3166-2-lvl4":"AF-HER","country":"افغانستان","country_code":"af"},"osm_type":"node","osm_id":4381829507,"type":"town","location":[63.247354,33.785293],"bbox":[63.207354,33.745293,63.287354,33.825293]}
{"name":"قوش‌تپ","other_names":{"name:en":"Qush Tepah","name:ur":"قوش تپ"},"display_name":"قوش‌تپ, ولسوالی قوش‌تپ, ولایت جوزجان / جوزجان ولایتی, افغانستان","address":{"town":"قوش‌تپ","county":"ولسوالی قوش‌تپ","state":"ولایت جوزجان / جوزجان ولایتی","ISO3166-2-lvl4":"AF-JOW","country":"افغانستان","country_code":"af"},"osm_type":"node","osm_id":4393648181,"type":"town","location":[65.3878976,36.0841468],"bbox":[65.3478976,36.0441468,65.4278976,36.1241468]}
{"name":"قیصار","other_names":{"name:en":"Qeysar","name:fa":"Qeysar","name:ml":"കൈസാർ","name:ps":"قیصار","name:ru":"Кайсар","alt_name":"Qaisar;Qaisar bazaar;Sangalak-i-Kaisar;Qaysar;Qaisar"},"display_name":"قیصار, ولسوالی قیصار, ولایت فاریاب / فاریاب ولایتی, افغانستان","address":{"town":"قیصار","county":"ولسوالی قیصار","state":"ولایت فاریاب / فاریاب ولایتی","ISO3166-2-lvl4":"AF-FYB","country":"افغانستان","country_code":"af"},"osm_type":"node","osm_id":312996310,"type":"town","location":[64.2928015,35.6873139],"bbox":[64.2528015,35.6473139,64.3328015,35.7273139]}
{"name":"كربوړی","other_names":{"name:en":"Karburi","name:ps":"كربوړی","name:ru":"Карбури","name:ur":"کربوڑی","alt_name":"Karbori"},"display_name":"كربوړی, شيگل او ېلتن ولسوالۍ, کونړ ولايت, افغانستان","address":{"town":"كربوړی","county":"شيگل او ېلتن ولسوالۍ","state":"کونړ ولايت","ISO3166-2-lvl4":"AF-KNR","country":"افغانستان","country_code":"af"},"osm_type":"node","osm_id":4418439930,"type":"town","location":[71.274601,34.965974],"bbox":[71.234601,34.925974,71.314601,35.005974]}
{"name":"كوز نرنگ","other_names":{"name:en":"Kuz Narang","name:ps":"كوز نرنگ","name:ru":"Наранг","alt_name":"نرنق پائین;Kuz Naranq"},"display_name":"كوز نرنگ, نړنگ او باډل ولسوالۍ, کونړ ولايت, افغانستان","address":{"town":"كوز نرنگ","county":"نړنگ او باډل ولسوالۍ","state":"کونړ ولايت","ISO3166-2-lvl4":"AF-KNR","country":"افغانستان","country_code":"af"},"osm_type":"node","osm_id":4417845535,"type":"town","location":[71.023512,34.748202],"bbox":[70.983512,34.708202,71.063512,34.788202]}
{"name":"کارېزک","other_names":{"name:en":"Karizak","name:ml":"കാറീസക്ക്","name:ps":"کارېزک","name:ru":"Каризак","alt_name":"كاريزك;Karezak"},"display_name":"کارېزک, خاکرېز ولسوالۍ, کندهار ولايت, افغانستان","address":{"town":"کارېزک","county":"خاکرېز ولسوالۍ","state":"کندهار ولايت","ISO3166-2-lvl4":"AF-KAN","country":"افغانستان","country_code":"af"},"osm_type":"node","osm_id":4402494392,"type":"town","location":[65.4749144,31.9825752],"bbox":[65.4349144,31.9425752,65.5149144,32.0225752]}
{"name":"کامدېش‎","other_names":{"name:en":"Kamdesh","name:ml":"കാമദേഷ്","name:ur":"کامدیش"},"display_name":"کامدېش‎, کامدېش ولسوالۍ, نورستان ولایت, افغانستان","address":{"town":"کامدېش‎","county":"کامدېش ولسوالۍ","state":"نورستان ولایت","ISO3166-2-lvl4":"AF-NUR","country":"افغانستان","country_code":"af"},"osm_type":"node","osm_id":5908516841,"type":"town","location":[71.339853,35.4093879],"bbox":[71.299853,35.3693879,71.379853,35.4493879]}
{"name":"کان عزت","other_names":{"name:en":"Kan-e `Ezzat","name:ps":"کان عزت","name:ru":"Кан Изат","alt_name":"Kan-e `Ezat;Kan-e `Izat"},"display_name":"کان عزت, نرخ ولسوالۍ, ميدان وردگ ولايت, افغانستان","address":{"town":"کان عزت","county":"نرخ ولسوالۍ","state":"ميدان وردگ ولايت","ISO3166-2-lvl4":"AF-WAR","country":"افغانستان","country_code":"af"},"osm_type":"node","osm_id":4415000811,"type":"town","location":[68.803612,34.356035],"bbox":[68.763612,34.316035,68.843612,34.396035]}
{"name":"کجکی علیا","other_names":{"name:en":"Kajaki","name:ml":"കജക്കി","name:ps":"کجکی علیا","name:ru":"Каджакай","alt_name":"Kajaki `Ulya;Kajakay;Kajaki `Olya;Kajkai;کجکی"},"display_name":"کجکی علیا, کجکي ولسوالۍ, هلمند ولايت, افغانستان","address":{"town":"کجکی علیا","county":"کجکي ولسوالۍ","state":"هلمند ولايت","ISO3166-2-lvl4":"AF-HEL","country":"افغانستان","country_code":"af"},"osm_type":"node","osm_id":4405281707,"type":"town","location":[65.0963526,32.3007619],"bbox":[65.0563526,32.2607619,65.1363526,32.3407619]}
{"name":"کرخ","other_names":{"name:en":"Karukh","name:ml":"കറുഖ്"},"display_name":"کرخ, ولسوالی کرخ, ولایت هرات, افغانستان","address":{"town":"کرخ","county":"ولسوالی کرخ","state":"ولایت هرات","ISO3166-2-lvl4":"AF-HER","country":"افغانستان","country_code":"af"},"population":18800,"osm_type":"node","osm_id":313315461,"type":"town","location":[62.5918615,34.491346],"bbox":[62.5518615,34.451346,62.6318615,34.531346]}
{"name":"کږه","other_names":{"name:en":"Kaza","name:ml":"കസ","name:ps":"کږه","name:ru":"Каза","name:ur":"کژہ","alt_name":"كژه;Kazhah;Khazha;Nawe Kaza;Kaga;Khowgiani;Kagd"},"display_name":"کږه, خوگياڼي ولسوالۍ, ننگرهار ولايت, افغانستان","address":{"town":"کږه","county":"خوگياڼي ولسوالۍ","state":"ننگرهار ولايت","ISO3166-2-lvl4":"AF-NAN","country":"افغانستان","country_code":"af"},"osm_type":"node","osm_id":4416512618,"type":"town","location":[70.182738,34.240875],"bbox":[70.142738,34.200875,70.222738,34.280875]}
{"name":"کشک کهنه","other_names":{"name:en":"Kusk-i-Kohna","name:ja":"カッシュク・イー・カナ","name:ml":"കൂഷ്കി കൊഹ്ന","name:ps":"کشک کهنه","name:ru":"Кушки-Кухна","name:ur":"کشک کہنہ","alt_name":"Koshk-e Kohneh;Kuske Kuhna;Kusk;Koshk;Kushk;Kushk-e Kuhnah"},"display_name":"کشک کهنه, ولسوالی کشک کهنه, ولایت هرات, افغانستان","address":{"town":"کشک کهنه","state":"ولایت هرات","ISO3166-2-lvl4":"AF-HER","country":"افغانستان","country_code":"af"},"osm_type":"node","osm_id":3506947853,"type":"town","location":[62.547461,34.8706638],"bbox":[62.507461,34.8306638,62.587461,34.9106638],"border":{"name":"ولسوالی کشک کهنه","other_names":{"name:en":"Kushki Kuhna","name:fa":"ولسوالی کشک کهنه","name:ps":"کشک کهنه ولسوالۍ","name:tr":"Köşk-e Kuhna","alt_name":"Kushki Kuhna District;Koshki Kuhna;Kushk-e Kuhnah;Kushk-e Kohnah","int_name":"Kushk","name:ja":"カッシュク・イー・カナ","name:ml":"കൂഷ്കി കൊഹ്ന","name:ru":"Кушки-Кухна","name:ur":"کشک کہنہ","_place_alt_name":"Koshk-e Kohneh;Kuske Kuhna;Kusk;Koshk;Kushk;Kushk-e Kuhnah","alt":"کشک کهنه","alt:en":"Kusk-i-Kohna","alt:ps":"کشک کهنه"},"display_name":"ولسوالی کشک کهنه, ولایت هرات, افغانستان","address":{"town":"ولسوالی کشک کهنه","state":"ولایت هرات","ISO3166-2-lvl4":"AF-HER","country":"افغانستان","country_code":"af"},"osm_type":"relation","osm_id":6554627,"type":"administrative","location":[62.547461,34.8706638],"bbox":[62.4182436,34.59883,62.8709887,35.278924]}}
{"name":"کشم","other_names":{"name:ar":"كشم","name:en":"Kishim","name:ml":"കിഷിം","name:ps":"کشم","name:ru":"Кишим","alt_name":"کشم;Kesem;Kishm;Kishma","int_name":"Keshem"},"display_name":"کشم, ولسوالی کشم, ولایت بدخشان, افغانستان","address":{"town":"کشم","county":"ولسوالی کشم","state":"ولایت بدخشان","ISO3166-2-lvl4":"AF-BDS","country":"افغانستان","country_code":"af"},"osm_type":"node","osm_id":318090711,"type":"town","location":[70.1013801,36.8178142],"bbox":[70.0613801,36.7778142,70.1413801,36.8578142]}
{"name":"کلدار","other_names":{"name:ar":"كلدار","name:en":"Kaldar","name:ps":"کلدار","name:ru":"Кальдар","alt_name":"Khwaja Kaldar"},"display_name":"کلدار, ولسوالی کلدار, ولایت بلخ, افغانستان","address":{"town":"کلدار","county":"ولسوالی کلدار","state":"ولایت بلخ","ISO3166-2-lvl4":"AF-BAL","country":"افغانستان","country_code":"af"},"osm_type":"node","osm_id":4392222641,"type":"town","location":[67.659444,37.204444],"bbox":[67.619444,37.164444,67.699444,37.244444]}
{"name":"کلفگان","other_names":{"name:en":"Kalafgan","name:ps":"کلفگان","name:ru":"Калафган"},"display_name":"کلفگان, ولسوالی کلفگان, تخار ولايت, افغانستان","address":{"town":"کلفگان","county":"ولسوالی کلفگان","state":"تخار ولايت","ISO3166-2-lvl4":"AF-TAK","country":"افغانستان","country_code":"af"},"osm_type":"node","osm_id":1137415409,"type":"town","location":[69.9406683,36.775195],"bbox":[69.9006683,36.735195,69.9806683,36.815195]}
{"name":"کلکان","other_names":{"name:en":"Kalakan","name:ml":"കലക്കാൻ","name:ps":"کلکان","name:ru":"Калкан","alt_name":"بازار کلکان;Kala Chan;Qal`eh-ye Khan;Qala Khan;Kala Khan;Bazar-e Kalakan"},"display_name":"کلکان, ولسوالی کلکان, ولایت كابل, افغانستان","address":{"town":"کلکان","county":"ولسوالی کلکان","state":"ولایت كابل","ISO3166-2-lvl4":"AF-KAB","country":"افغانستان","country_code":"af"},"osm_type":"node","osm_id":4422323453,"type":"town","location":[69.150012,34.783706],"bbox":[69.110012,34.743706,69.190012,34.823706]}
{"name":"کهسان","other_names":{"name:en":"Kohsan","name:ml":"കൊഹ്സാൻ","name:ps":"کهسان","name:ru":"Кохсан","name:uk":"Когсан","name:ur":"کہسان","alt_name":"کوهستان;Kuhsan;Kohistan;Kuhestan"},"display_name":"کهسان, ولسوالی کهسان, ولایت هرات, افغانستان","address":{"town":"کهسان","county":"ولسوالی کهسان","state":"ولایت هرات","ISO3166-2-lvl4":"AF-HER","country":"افغانستان","country_code":"af"},"osm_type":"node","osm_id":3917393166,"type":"town","location":[61.2000821,34.6545962],"bbox":[61.1600821,34.6145962,61.2400821,34.6945962]}
{"name":"کهمرد ولسوالی","other_names":{"name:en":"Kahmard","name:ps":"کهمرد ولسوالی","name:ru":"Кахмард","name:ur":"کہمرد","alt_name":"کهمرد;Kahmard Woluswali;Kahmard Wuluswali"},"display_name":"کهمرد ولسوالی, ولسوالی کهمرد, ولایت بامیان, افغانستان","address":{"town":"کهمرد ولسوالی","county":"ولسوالی کهمرد","state":"ولایت بامیان","ISO3166-2-lvl4":"AF-BAM","country":"افغانستان","country_code":"af"},"osm_type":"node","osm_id":4421650210,"type":"town","location":[67.6364792,35.3233835],"bbox":[67.5964792,35.2833835,67.6764792,35.3633835]}
{"name":"کوکران","display_name":"کوکران, کندهار ولسوالۍ, کندهار ولايت, افغانستان","address":{"town":"کوکران","county":"کندهار ولسوالۍ","state":"کندهار ولايت","ISO3166-2-lvl4":"AF-KAN","country":"افغانستان","country_code":"af"},"population":1000,"osm_type":"way","osm_id":1009205618,"type":"town","location":[65.59683797664232,31.615393400000002],"bbox":[65.5877334,31.6058188,65.6071833,31.6256038]}
{"name":"کوه صياد","other_names":{"name:en":"Koh-i-Sayad","name:ml":"കോഹി സയാദ്","name:ps":"کوه صياد","alt_name":"Shirin Tagab;Sirintagab;Koh-i-Saiyad;Koh-e Sayyad"},"display_name":"کوه صياد, ولسوالی شیرین‌تگاب, ولایت فاریاب / فاریاب ولایتی, افغانستان","address":{"town":"کوه صياد","county":"ولسوالی شیرین‌تگاب","state":"ولایت فاریاب / فاریاب ولایتی","ISO3166-2-lvl4":"AF-FYB","country":"افغانستان","country_code":"af"},"osm_type":"node","osm_id":4395011679,"type":"town","location":[64.851728,36.268353],"bbox":[64.811728,36.228353,64.891728,36.308353]}
{"name":"ګرمسير","other_names":{"name:en":"Garmsir","name:lt":"Gamsiras","name:ml":"ഗർംസീർ","name:ps":"ګرمسير","name:ru":"Гармсир"},"display_name":"ګرمسير, گرمسېر ولسوالۍ, هلمند ولايت, افغانستان","address":{"town":"ګرمسير","county":"گرمسېر ولسوالۍ","state":"هلمند ولايت","ISO3166-2-lvl4":"AF-HEL","country":"افغانستان","country_code":"af"},"osm_type":"node","osm_id":312347733,"type":"town","location":[64.2071764,31.117881],"bbox":[64.1671764,31.077881,64.2471764,31.157881]}
{"name":"گذره","other_names":{"name:el":"Γκουζάρα","name:en":"Guzarah","name:ml":"ഗുസറ","name:ps":"گذره","name:ru":"Гозара","name:ur":"گذرہ","alt_name":"Gozareh;Gozara"},"display_name":"گذره, ولسوالی گذره, ولایت هرات, افغانستان","address":{"town":"گذره","county":"ولسوالی گذره","state":"ولایت هرات","ISO3166-2-lvl4":"AF-HER","country":"افغانستان","country_code":"af"},"osm_type":"node","osm_id":4382480149,"type":"town","location":[62.212353,34.212228],"bbox":[62.172353,34.172228,62.252353,34.252228]}
{"name":"گرزیوان","other_names":{"name:en":"Gurziwan"},"display_name":"گرزیوان, ولسوالی گرزیوان, ولایت فاریاب / فاریاب ولایتی, افغانستان","address":{"town":"گرزیوان","county":"ولسوالی گرزیوان","state":"ولایت فاریاب / فاریاب ولایتی","ISO3166-2-lvl4":"AF-FYB","country":"افغانستان","country_code":"af"},"osm_type":"node","osm_id":4395960296,"type":"town","location":[65.2257633,35.7120645],"bbox":[65.1857633,35.6720645,65.2657633,35.7520645]}
{"name":"گرشک","other_names":{"name:en":"Girishk","name:fa":"Gereshk","name:ml":"ഗിറിഷ്ക്","name:ps":"گرشک","name:ru":"Гиришк","alt_name":"Geresk;Nahr-e Saraj"},"display_name":"گرشک, نهر سراج ولسوالۍ, هلمند ولايت, افغانستان","address":{"town":"گرشک","county":"نهر سراج ولسوالۍ","state":"هلمند ولايت","ISO3166-2-lvl4":"AF-HEL","country":"افغانستان","country_code":"af"},"osm_type":"node","osm_id":4404533201,"type":"town","location":[64.570048,31.820894],"bbox":[64.530048,31.780894,64.610048,31.860894]}
{"name":"گلران","other_names":{"name:en":"Gulran","name:ml":"ഗുൽറാൻ","name:ps":"گلران","name:ru":"Гульран","alt_name":"Guiran"},"display_name":"گلران, ولسوالی گلران, ولایت هرات, افغانستان","address":{"town":"گلران","county":"ولسوالی گلران","state":"ولایت هرات","ISO3166-2-lvl4":"AF-HER","country":"افغانستان","country_code":"af"},"osm_type":"node","osm_id":4382916344,"type":"town","location":[61.6901225,35.1055339],"bbox":[61.6501225,35.0655339,61.7301225,35.1455339]}
{"name":"گوسفندی","other_names":{"name:en":"Gosfandi"},"display_name":"گوسفندی, ولسوالی گوسفندی, سرپل, افغانستان","address":{"town":"گوسفندی","county":"ولسوالی گوسفندی","state":"سرپل","ISO3166-2-lvl4":"AF-SAR","country":"افغانستان","country_code":"af"},"osm_type":"node","osm_id":4397437978,"type":"town","location":[66.5177936,35.9427695],"bbox":[66.4777936,35.9027695,66.5577936,35.9827695]}
{"name":"گوشته","other_names":{"name:en":"Goshtah","name:ml":"ഗോഷ്ത","name:ps":"گوشته","name:ru":"Гошта","name:ur":"گوشتہ","alt_name":"Gosta;Goshteh;Gowshtah"},"display_name":"گوشته, گوشته ولسوالۍ, ننگرهار ولايت, افغانستان","address":{"town":"گوشته","county":"گوشته ولسوالۍ","state":"ننگرهار ولايت","ISO3166-2-lvl4":"AF-NAN","country":"افغانستان","country_code":"af"},"osm_type":"node","osm_id":3885176763,"type":"town","location":[70.7702413,34.3656028],"bbox":[70.7302413,34.3256028,70.8102413,34.4056028]}
{"name":"گیزاب","other_names":{"name:en":"Gizab","name:fa":"Hokumati Gizab","name:ja":"ギザブ","name:lt":"Gizabas","name:ml":"ഗീസാബ്","name:ps":"حکومتی گیزاب","name:ru":"Гизаб","alt_name":"Gizaw;Geyab'Hukumati Gizab;Hokumati Gizaw;گیزاب;حکومتی گیزاو"},"display_name":"گیزاب, ولسوالی گیزاب, ولایت دایکندی, افغانستان","address":{"town":"گیزاب","state_district":"ولسوالی گیزاب","state":"ولایت دایکندی","ISO3166-2-lvl4":"AF-DAY","country":"افغانستان","country_code":"af"},"osm_type":"node","osm_id":4377187291,"type":"town","location":[66.2654553,33.3812792],"bbox":[66.2254553,33.3412792,66.3054553,33.4212792]}
{"name":"لاش چوين","other_names":{"name:en":"Lash-e Juwayn","name:fa":"لاش جوین","name:ml":"ലാഷെ ജുവൈൻ","name:ps":"لاش چوين","name:ru":"Лаши-Джовайн","alt_name":"لاش جوی;جوين;Lash Jovayn;Lash;Jawain;Lase Jowayn;Joveyn;Laso-joayn;Juwayn;Juwain"},"display_name":"لاش چوين, ولسوالی لاش و جوین, ولایت فراه, افغانستان","address":{"town":"لاش چوين","county":"ولسوالی لاش و جوین","state":"ولایت فراه","ISO3166-2-lvl4":"AF-FRA","country":"افغانستان","country_code":"af"},"osm_type":"node","osm_id":4406687870,"type":"town","location":[61.625772,31.7170618],"bbox":[61.585772,31.6770618,61.665772,31.7570618]}
{"name":"لال خان آباد","other_names":{"name:en":"Lalkhanabad","name:ml":"ലൽഖാനാബാദ്","name:ps":"لال خان آباد","name:ru":"Лал Хан Абад"},"display_name":"لال خان آباد, قرغيو ولسوالۍ, لغمان ولايت, افغانستان","address":{"town":"لال خان آباد","county":"قرغيو ولسوالۍ","state":"لغمان ولايت","ISO3166-2-lvl4":"AF-LAG","country":"افغانستان","country_code":"af"},"osm_type":"node","osm_id":4418884207,"type":"town","location":[70.244423,34.547047],"bbox":[70.204423,34.507047,70.284423,34.587047]}
{"name":"لانجی خېل وسطی","other_names":{"name:en":"Sarobi","name:ps":"لانجی خېل وسطی","name:ru":"Сороби","name:ur":"لانجی خیل وسطی","alt_name":"سروبی;Lanji Kheyl;Lanjikhel;Lanjikhel Wasati;Sarowbi;Sarubi;Sorobi;Sorowbi;Lanji Khel-e Wasati"},"display_name":"لانجی خېل وسطی, سروبي ولسوالۍ, پکتيکا ولايت, افغانستان","address":{"town":"لانجی خېل وسطی","county":"سروبي ولسوالۍ","state":"پکتيکا ولايت","ISO3166-2-lvl4":"AF-PKA","country":"افغانستان","country_code":"af"},"osm_type":"node","osm_id":4409907321,"type":"town","location":[69.097038,32.796936],"bbox":[69.057038,32.756936,69.137038,32.836936]}
{"name":"لعل","other_names":{"name:en":"Lal","name:fr":"Lal","name:ml":"ലാൽ","name:ps":"لعل","name:ru":"Лаль-о-Сарджангаль","alt_name":"La`l wa Sar Jangal;La`l;La`losarjangal;Qaryeh-ye La`l;La`l va Sar Jangal;لعل و سر جنگل"},"display_name":"لعل, ولسوالی لعل و سر جنگل, غور, افغانستان","address":{"town":"لعل","county":"ولسوالی لعل و سر جنگل","state":"غور","ISO3166-2-lvl4":"AF-GHO","country":"افغانستان","country_code":"af"},"osm_type":"node","osm_id":4380559883,"type":"town","location":[66.279965,34.501408],"bbox":[66.239965,34.461408,66.319965,34.541408]}
{"name":"لعلپوره","other_names":{"name:en":"Lalpur","name:hi":"लालपुर","name:ml":"ലാൽപൂർ","name:ps":"لعلپوره","name:ur":"لعل پورہ","alt_name":"لعل پوره;لعلپور;La`lpur;La`l Purah;L`al Pureh;La`lpura;La`lpurah"},"display_name":"لعلپوره, لالپوره ولسوالۍ, ننگرهار ولايت, افغانستان","address":{"town":"لعلپوره","county":"لالپوره ولسوالۍ","state":"ننگرهار ولايت","ISO3166-2-lvl4":"AF-NAN","country":"افغانستان","country_code":"af"},"osm_type":"node","osm_id":4417295790,"type":"town","location":[71.045452,34.239163],"bbox":[71.005452,34.199163,71.085452,34.279163]}
{"name":"ماڼوگی","other_names":{"name:en":"Manogay","name:fa":"","name:ml":"മാനോഗെ","name:ps":"ماڼوگی","name:ru":"Мануги","name:ur":"مانوگی","alt_name":"مانوگی;Manugay;Mano Gai","name:pnb":"ماݨوگی"},"display_name":"ماڼوگی, پېچ دره ولسوالۍ, کونړ ولايت, افغانستان","address":{"town":"ماڼوگی","county":"پېچ دره ولسوالۍ","state":"کونړ ولايت","ISO3166-2-lvl4":"AF-KNR","country":"افغانستان","country_code":"af"},"osm_type":"node","osm_id":4417939985,"type":"town","location":[70.9042379,34.9849119],"bbox":[70.8642379,34.9449119,70.9442379,35.0249119]}
{"name":"متا خان","other_names":{"name:en":"Mata Khan","name:ps":"متا خان","name:ru":"Мутахан","alt_name":"Metakhan;Muta Khan;Motakhan"},"display_name":"متا خان, مټه خان ولسوالۍ, پکتيکا ولايت, افغانستان","address":{"town":"متا خان","county":"مټه خان ولسوالۍ","state":"پکتيکا ولايت","ISO3166-2-lvl4":"AF-PKA","country":"افغانستان","country_code":"af"},"osm_type":"node","osm_id":4410993694,"type":"town","location":[68.866296,33.240008],"bbox":[68.826296,33.200008,68.906296,33.280008]}
{"name":"محمود راقی","other_names":{"name:cs":"Mahmúd-e Ráqí","name:en":"Mahmud-e Raqi","name:fr":"Mahmoud-é-Râqi","name:hi":"महमूद-ए-राक़ी","name:ko":"마무드이라키","name:ml":"മഹമൂദി റാഖി","name:ps":"محمود راقی","name:ru":"Махмуд-Раки","name:zh":"马哈茂德埃拉基/馬哈茂德埃拉基","alt_name":"Mahmud-e `Iraqi;Mahmud-e;Mahmoud Raqi;Mahmmude Raqi;Mahmude `Eraqi;محمود عراقی","name:zh-Hans":"马哈茂德埃拉基","name:zh-Hant":"馬哈茂德埃拉基"},"display_name":"محمود راقی, ولسوالی محمود راقی, ولایت کاپیسا, افغانستان","address":{"town":"محمود راقی","county":"ولسوالی محمود راقی","state":"ولایت کاپیسا","ISO3166-2-lvl4":"AF-KAP","country":"افغانستان","country_code":"af"},"osm_type":"node","osm_id":4419104562,"type":"town","location":[69.3518246,35.02227],"bbox":[69.3118246,34.98227,69.3918246,35.06227]}
{"name":"مردیان","other_names":{"name:en":"Mardyan","name:ml":"മർദിയാൻ","name:ps":"مردیان","name:ru":"Мардьян","alt_name":"Mordian;Murdian;Mardian"},"display_name":"مردیان, ولسوالی مردیان, ولایت جوزجان / جوزجان ولایتی, افغانستان","address":{"town":"مردیان","county":"ولسوالی مردیان","state":"ولایت جوزجان / جوزجان ولایتی","ISO3166-2-lvl4":"AF-JOW","country":"افغانستان","country_code":"af"},"osm_type":"node","osm_id":4393844628,"type":"town","location":[66.296541,36.992524],"bbox":[66.256541,36.952524,66.336541,37.032524]}
{"name":"مرکز حکومت سلطان بکواه","other_names":{"name:en":"Sultan Bakwa","name:ml":"സുൽത്താൻ ബക്വ","name:ps":"مرکز حکومت سلطان بکواه","name:ru":"Султан Баква"},"display_name":"مرکز حکومت سلطان بکواه, ولسوالی بکواه, ولایت فراه, افغانستان","address":{"town":"مرکز حکومت سلطان بکواه","county":"ولسوالی بکواه","state":"ولایت فراه","ISO3166-2-lvl4":"AF-FRA","country":"افغانستان","country_code":"af"},"osm_type":"node","osm_id":4406608989,"type":"town","location":[62.949361,32.241391],"bbox":[62.909361,32.201391,62.989361,32.281391]}
{"name":"مرکز سيد آباد","other_names":{"name:en":"Sayyidabad","name:ps":"مرکز سيد آباد","name:ru":"Сейдабад","alt_name":"سيد آباد;Markaz-e Sayyidabad;Markaz-e Seyydabad;Seyyedabad;Saydabad;Markaze Saydabad;Markaz-e Seyyedabad"},"display_name":"مرکز سيد آباد, سيد آباد ولسوالۍ, ميدان وردگ ولايت, افغانستان","address":{"town":"مرکز سيد آباد","county":"سيد آباد ولسوالۍ","state":"ميدان وردگ ولايت","ISO3166-2-lvl4":"AF-WAR","country":"افغانستان","country_code":"af"},"osm_type":"node","osm_id":4415041167,"type":"town","location":[68.713458,34.000367],"bbox":[68.673458,33.960367,68.753458,34.040367]}
{"name":"مرکز کجیران","other_names":{"name:en":"Kajran","name:ml":"കജീറാൻ","name:ps":"مرکز کجیران","alt_name":"Маркази-Каджиран;کجیران;مرکز کجران;Markazi-Kadzhiran;Markaz-e Kajiran;Markaz-e Kajran;Kajiran"},"display_name":"مرکز کجیران, کجران ولسوالۍ, ولایت دایکندی, افغانستان","address":{"town":"مرکز کجیران","state_district":"کجران ولسوالۍ","state":"ولایت دایکندی","ISO3166-2-lvl4":"AF-DAY","country":"افغانستان","country_code":"af"},"osm_type":"node","osm_id":4375886918,"type":"town","location":[65.469442,33.2072688],"bbox":[65.429442,33.1672688,65.509442,33.2472688]}
{"name":"مرمل","other_names":{"name:ar":"مارمل","name:en":"Marmul","name:hu":"Marmol","name:ml":"മർമുൽ","name:ps":"مرمل","name:ru":"Мармоль","alt_name":"Marmol';Malmul;Marmol"},"display_name":"مرمل, ولسوالی مارمل, ولایت بلخ, افغانستان","address":{"town":"مرمل","county":"ولسوالی مارمل","state":"ولایت بلخ","ISO3166-2-lvl4":"AF-BAL","country":"افغانستان","country_code":"af"},"osm_type":"node","osm_id":4392467216,"type":"town","location":[67.3145296,36.5427013],"bbox":[67.2745296,36.5027013,67.3545296,36.5827013]}
{"name":"مروره","other_names":{"name:en":"Marawara","name:ps":"مروره","name:ru":"Мурура","name:ur":"مرورہ","alt_name":"مره كوچك;Marwura Alaqadari;Marah Warah;Marawarra;Marawarah;Marwura"},"display_name":"مروره, مروره ولسوالۍ, کونړ ولايت, افغانستان","address":{"town":"مروره","county":"مروره ولسوالۍ","state":"کونړ ولايت","ISO3166-2-lvl4":"AF-KNR","country":"افغانستان","country_code":"af"},"osm_type":"node","osm_id":4417816409,"type":"town","location":[71.181298,34.891018],"bbox":[71.141298,34.851018,71.221298,34.931018]}
{"name":"مسجد جامع","other_names":{"name:en":"Ishkamish","alt_name":"Eshkashem;Ashkamesh;Eshkamesh;Ishkamesh;Iskames;Ishkamysh;ایشکمش"},"display_name":"مسجد جامع, ولسوالی اشکمش, تخار ولايت, افغانستان","address":{"town":"مسجد جامع","county":"ولسوالی اشکمش","state":"تخار ولايت","ISO3166-2-lvl4":"AF-TAK","country":"افغانستان","country_code":"af"},"osm_type":"node","osm_id":3540149210,"type":"town","location":[69.3151823,36.3852832],"bbox":[69.2751823,36.3452832,69.3551823,36.4252832]}
{"name":"مشخېل","other_names":{"name:en":"Mushkhil","name:ur":"مشخیل"},"display_name":"مشخېل, يوسف خېل ولسوالۍ, پکتيکا ولايت, افغانستان","address":{"town":"مشخېل","county":"يوسف خېل ولسوالۍ","state":"پکتيکا ولايت","ISO3166-2-lvl4":"AF-PKA","country":"افغانستان","country_code":"af"},"osm_type":"node","osm_id":9657127944,"type":"town","location":[68.6879079,33.0827841],"bbox":[68.6479079,33.0427841,68.7279079,33.1227841]}
{"name":"معروف","other_names":{"name:en":"Ma`ruf","name:ps":"معروف","name:ru":"Маруф"},"display_name":"معروف, معروف ولسوالۍ, کندهار ولايت, افغانستان","address":{"town":"معروف","county":"معروف ولسوالۍ","state":"کندهار ولايت","ISO3166-2-lvl4":"AF-KAN","country":"افغانستان","country_code":"af"},"osm_type":"node","osm_id":4402795803,"type":"town","location":[67.1842071,31.6577486],"bbox":[67.1442071,31.6177486,67.2242071,31.6977486]}
{"name":"مقر","other_names":{"name:en":"Muqer","name:ml":"മുഖുർ","name:ps":"مقر","name:ru":"Мукур","alt_name":"Moqor;Muqur;Mukar;Qala-i-Sarkari;Mukur;Moqur"},"display_name":"مقر, مقر ولسوالۍ, ولایت غزنی, افغانستان","address":{"town":"مقر","county":"مقر ولسوالۍ","state":"ولایت غزنی","ISO3166-2-lvl4":"AF-GHA","country":"افغانستان","country_code":"af"},"osm_type":"node","osm_id":4413348460,"type":"town","location":[67.769341,32.820087],"bbox":[67.729341,32.780087,67.809341,32.860087]}
{"name":"مقر","other_names":{"name:ar":"مقر","name:en":"Muqur","name:ps":"مقر","alt_name":"Maghar;Moghor;Maghor;Moqor"},"display_name":"مقر, ولسوالی مقر, ولایت بادغیس, افغانستان","address":{"town":"مقر","county":"ولسوالی مقر","state":"ولایت بادغیس","ISO3166-2-lvl4":"AF-BDG","country":"افغانستان","country_code":"af"},"osm_type":"node","osm_id":4384827574,"type":"town","location":[63.292641,35.039871],"bbox":[63.252641,34.999871,63.332641,35.079871]}
{"name":"مقر","other_names":{"name:en":"Moghor","name:ps":"چشمۀ دزخ","alt_name":"Chashmah-e Duzak"},"display_name":"مقر, ولسوالی مقر, ولایت بادغیس, افغانستان","address":{"town":"مقر","county":"ولسوالی مقر","state":"ولایت بادغیس","ISO3166-2-lvl4":"AF-BDG","country":"افغانستان","country_code":"af"},"osm_type":"way","osm_id":365863948,"type":"town","location":[63.08526742832651,35.0893948],"bbox":[63.0811475,35.0843512,63.0931316,35.0921645]}
{"name":"منگجک","other_names":{"name:en":"Mingajik","name:ps":"منگجک"},"display_name":"منگجک, ولسوالی منگجک, ولایت جوزجان / جوزجان ولایتی, افغانستان","address":{"town":"منگجک","county":"ولسوالی منگجک","state":"ولایت جوزجان / جوزجان ولایتی","ISO3166-2-lvl4":"AF-JOW","country":"افغانستان","country_code":"af"},"osm_type":"node","osm_id":4393784582,"type":"town","location":[66.12797,37.0275865],"bbox":[66.08797,36.9875865,66.16797,37.0675865]}
{"name":"مهترلام","other_names":{"name:ar":"مهتارلام","name:cs":"Mehtar Lám","name:de":"Mehtar Lam","name:el":"Μιχτερλάμ","name:en":"Mihtarlam","name:es":"Mehtar Lam","name:fa":"مهترلام","name:fr":"Mehtarlâm","name:hi":"मिहतरलाम","name:ja":"メータルラム","name:ko":"메타르람","name:ml":"മിഹ്തർലാം","name:ps":"مهترلام","name:ru":"Мехтарлам","name:tr":"Mihterlam","name:uk":"Мегтар-Лам","name:ur":"مہترلام","name:zh":"米特拉姆","alt_name":"Mehtar Lam","alt_name:uk":"Мегтарлам","name:zh-Hans":"米特拉姆","name:zh-Hant":"米特拉姆"},"display_name":"مهترلام, مهترلام ولسوالۍ, لغمان ولايت, افغانستان","address":{"town":"مهترلام","county":"مهترلام ولسوالۍ","state":"لغمان ولايت","ISO3166-2-lvl4":"AF-LAG","country":"افغانستان","country_code":"af"},"osm_type":"node","osm_id":3494730954,"type":"town","location":[70.2056991,34.6643728],"bbox":[70.1656991,34.6243728,70.2456991,34.7043728]}
{"name":"مهمند دره","other_names":{"name:en":"Mohmand Darah","name:ml":"മൊഹ്മന്ദ് ദറ","name:ps":"مهمند دره","name:ru":"Махманд Дарра","name:ur":"مہمند درہ","alt_name":"ولسوالئ درۀ محمند;مهمند دره ولسوالی;Muhmand Darrah Woluswali;Muhmand Darrah-ye Woluswali;Mohmand Darreh-ye Woluswali;Mohmand Darah Wuleswali"},"display_name":"مهمند دره, مومند دره ولسوالۍ, ننگرهار ولايت, افغانستان","address":{"town":"مهمند دره","county":"مومند دره ولسوالۍ","state":"ننگرهار ولايت","ISO3166-2-lvl4":"AF-NAN","country":"افغانستان","country_code":"af"},"osm_type":"node","osm_id":1541887658,"type":"town","location":[70.86573,34.255341],"bbox":[70.82573,34.215341,70.90573,34.295341]}
{"name":"مورچاق","other_names":{"name:en":"Murichaq","name:ml":"മുർച്ചാഗ്","name:ps":"مورچاق","name:ru":"Маручак","alt_name":"موريچاق;Muricaq;Maruchak;Maricaq;Mar-o-Chak;Murchagh"},"display_name":"مورچاق, ولسوالی مرغاب, ولایت بادغیس, افغانستان","address":{"town":"مورچاق","county":"ولسوالی مرغاب","state":"ولایت بادغیس","ISO3166-2-lvl4":"AF-BDG","country":"افغانستان","country_code":"af"},"osm_type":"node","osm_id":3595101178,"type":"town","location":[63.1415834,35.811572],"bbox":[63.1015834,35.771572,63.1815834,35.851572]}
{"name":"موسى قلعه","other_names":{"name:en":"Musa Qal`eh","name:ml":"മൂസഖലെ","name:ps":"موسى قلعه","name:ru":"Мусакала","name:ur":"موسی قلعہ","alt_name":"Musa Qal'a;Musa Qal`ah"},"display_name":"موسى قلعه, موسی کلا ولسوالۍ, هلمند ولايت, افغانستان","address":{"town":"موسى قلعه","state_district":"موسی کلا ولسوالۍ","state":"هلمند ولايت","ISO3166-2-lvl4":"AF-HEL","country":"افغانستان","country_code":"af"},"osm_type":"node","osm_id":1610119597,"type":"town","location":[64.7704294,32.3510951],"bbox":[64.7304294,32.3110951,64.8104294,32.3910951]}
{"name":"ميران","other_names":{"name:en":"Miran","name:ml":"മീറാൻ","name:ps":"ميران","name:ru":"Миран"},"display_name":"ميران, دايمرداد ولسوالۍ, ميدان وردگ ولايت, افغانستان","address":{"town":"ميران","county":"دايمرداد ولسوالۍ","state":"ميدان وردگ ولايت","ISO3166-2-lvl4":"AF-WAR","country":"افغانستان","country_code":"af"},"osm_type":"node","osm_id":4415172367,"type":"town","location":[68.3089009,34.2215317],"bbox":[68.2689009,34.1815317,68.3489009,34.2615317]}
{"name":"میر بچه کوټ","other_names":{"name:en":"Mir Bachah Kot","name:ps":"میر بچه کوټ","name:ru":"Мир Бача Кот","name:ur":"میر بچہ کوٹ"},"display_name":"میر بچه کوټ, ولسوالی میربچه‌کوت, ولایت كابل, افغانستان","address":{"town":"میر بچه کوټ","county":"ولسوالی میربچه‌کوت","state":"ولایت كابل","ISO3166-2-lvl4":"AF-KAB","country":"افغانستان","country_code":"af"},"osm_type":"node","osm_id":4422319574,"type":"town","location":[69.118987,34.749991],"bbox":[69.078987,34.709991,69.158987,34.789991]}
{"name":"مېست","other_names":{"name:en":"Mist","name:ur":"میست"},"display_name":"مېست, يوسف خېل ولسوالۍ, پکتيکا ولايت, افغانستان","address":{"town":"مېست","county":"يوسف خېل ولسوالۍ","state":"پکتيکا ولايت","ISO3166-2-lvl4":"AF-PKA","country":"افغانستان","country_code":"af"},"osm_type":"node","osm_id":9657075197,"type":"town","location":[68.5595961,32.9660971],"bbox":[68.5195961,32.9260971,68.5995961,33.0060971]}
{"name":"ناخوني","other_names":{"name:ar":"ناخوني","name:en":"Nakhonay","name:ps":"ناخوني"},"display_name":"ناخوني, پنجوايي ولسوالۍ, کندهار ولايت, افغانستان","address":{"town":"ناخوني","county":"پنجوايي ولسوالۍ","state":"کندهار ولايت","ISO3166-2-lvl4":"AF-KAN","country":"افغانستان","country_code":"af"},"osm_type":"node","osm_id":5168271416,"type":"town","location":[65.5627324,31.5032383],"bbox":[65.5227324,31.4632383,65.6027324,31.5432383]}
{"name":"نادر شاه كوټ","other_names":{"name:en":"Nadir Shah Kot","name:ps":"نادر شاه كوټ","name:ru":"Надиршахкот","name:ur":"نادر شاہ کوٹ","alt_name":"Nadersahkot;Almareh;Almara;Nader Shah Kowt;Almarah;Mir Nader Shah Kowt;Nadar Shah Kowt"},"display_name":"نادر شاه كوټ, نادرشاه کوټ ولسوالۍ, خوست ولايت, افغانستان","address":{"town":"نادر شاه كوټ","county":"نادرشاه کوټ ولسوالۍ","state":"خوست ولايت","ISO3166-2-lvl4":"AF-KHO","country":"افغانستان","country_code":"af"},"osm_type":"node","osm_id":4412690913,"type":"town","location":[69.693806,33.306572],"bbox":[69.653806,33.266572,69.733806,33.346572]}
{"name":"نادر شاه کوټ","other_names":{"name:en":"Nadir Shah Kot","name:ps":"نادر شاه کوټ","name:ru":"Надир Шах Кот","name:ur":"نادر شاہ کوٹ","alt_name":"بټی کوټ;بتی كوت;نادر شاه كوت","old_name":"Nader Shah Kot;Nader Kowt;Nader Shah Kowt;Nadersah Kot;Bati Kot;Bati;Bati Kowt"},"display_name":"نادر شاه کوټ, بټي کوټ ولسوالۍ, ننگرهار ولايت, افغانستان","address":{"town":"نادر شاه کوټ","county":"بټي کوټ ولسوالۍ","state":"ننگرهار ولايت","ISO3166-2-lvl4":"AF-NAN","country":"افغانستان","country_code":"af"},"osm_type":"node","osm_id":4417298056,"type":"town","location":[70.728546,34.243477],"bbox":[70.688546,34.203477,70.768546,34.283477]}
{"name":"نادعلي","other_names":{"name:ar":"ناد علي","name:de":"Nad Ali","name:en":"Nad Ali","name:es":"Nad Ali","name:fa":"نادعلی","name:ks":"ناد علی","name:ps":"نادعلي","name:ru":"Нади-Али","name:ur":"ناد علی","name:pnb":"ناد علی"},"display_name":"نادعلي, نادعلي ولسوالۍ, هلمند ولايت, افغانستان","address":{"town":"نادعلي","county":"نادعلي ولسوالۍ","state":"هلمند ولايت","ISO3166-2-lvl4":"AF-HEL","country":"افغانستان","country_code":"af"},"osm_type":"node","osm_id":1381461182,"type":"town","location":[64.237812,31.6434234],"bbox":[64.197812,31.6034234,64.277812,31.6834234]}
{"name":"ناړی","other_names":{"name:en":"Nari","name:ps":"ناړی","name:ru":"Нарай","name:ur":"ناڑی","alt_name":"Naray Kelay;Narai;Naray;نری"},"display_name":"ناړی, ناړۍ ولسوالۍ, کونړ ولايت, افغانستان","address":{"town":"ناړی","county":"ناړۍ ولسوالۍ","state":"کونړ ولايت","ISO3166-2-lvl4":"AF-KNR","country":"افغانستان","country_code":"af"},"osm_type":"node","osm_id":4418462479,"type":"town","location":[71.522838,35.219953],"bbox":[71.482838,35.179953,71.562838,35.259953]}
{"name":"ناوه","other_names":{"name:en":"Nawah","name:ps":"ناوه","name:ru":"Нава","name:ur":"ناوہ","alt_name":"Mahmud Khel;Bareh Kheyl;Barak Khel;Nawa;Bara Khel"},"display_name":"ناوه, ناوه ولسوالۍ, ولایت غزنی, افغانستان","address":{"town":"ناوه","county":"ناوه ولسوالۍ","state":"ولایت غزنی","ISO3166-2-lvl4":"AF-GHA","country":"افغانستان","country_code":"af"},"osm_type":"node","osm_id":4413141898,"type":"town","location":[67.886598,32.321577],"bbox":[67.846598,32.281577,67.926598,32.361577]}
{"name":"نجراب","other_names":{"name:en":"Nijrab","name:hi":"निजराब","name:ml":"നിജറാബ്","name:ps":"نجراب","name:ru":"Ниджраб","alt_name":"Nejrab"},"display_name":"نجراب, ولسوالی نجراب, ولایت کاپیسا, افغانستان","address":{"town":"نجراب","county":"ولسوالی نجراب","state":"ولایت کاپیسا","ISO3166-2-lvl4":"AF-KAP","country":"افغانستان","country_code":"af"},"osm_type":"node","osm_id":3610523976,"type":"town","location":[69.572418,34.978905],"bbox":[69.532418,34.938905,69.612418,35.018905]}
{"name":"نهرین","other_names":{"name:ar":"نهرين","name:en":"Nahrin","name:ps":"نهرین","name:ur":"نہرین","alt_name":"Narain;Narin"},"display_name":"نهرین, ولسوالی نهرین, ولایت بغلان, افغانستان","address":{"town":"نهرین","county":"ولسوالی نهرین","state":"ولایت بغلان","ISO3166-2-lvl4":"AF-BGL","country":"افغانستان","country_code":"af"},"osm_type":"node","osm_id":4401258118,"type":"town","location":[69.13343,36.064904],"bbox":[69.09343,36.024904,69.17343,36.104904]}
{"name":"نو زاد","other_names":{"name:en":"Now Zad","name:ml":"നൗസാദ്","name:ps":"نو زاد","name:ru":"Наузад","alt_name":"Naw Zad;Nauzad;Naozad;Nozad"},"display_name":"نو زاد, نوزاد ولسوالۍ, هلمند ولايت, افغانستان","address":{"town":"نو زاد","county":"نوزاد ولسوالۍ","state":"هلمند ولايت","ISO3166-2-lvl4":"AF-HEL","country":"افغانستان","country_code":"af"},"osm_type":"node","osm_id":4405252418,"type":"town","location":[64.469588,32.403145],"bbox":[64.429588,32.363145,64.509588,32.443145]}
{"name":"نور گل","other_names":{"name:en":"Nurgal","name:ml":"നൂർഗൽ","name:ps":"نور گل","name:ru":"Нур Гул","alt_name":"Nurgul;Nur Gol"},"display_name":"نور گل, نورگل ولسوالۍ, کونړ ولايت, افغانستان","address":{"town":"نور گل","county":"نورگل ولسوالۍ","state":"کونړ ولايت","ISO3166-2-lvl4":"AF-KNR","country":"افغانستان","country_code":"af"},"osm_type":"node","osm_id":4417726200,"type":"town","location":[70.764975,34.613406],"bbox":[70.724975,34.573406,70.804975,34.653406]}
{"name":"نیلی","other_names":{"name:ar":"نيلي","name:cs":"Nílí","name:el":"Νίλι","name:en":"Nili","name:fa":"نیلی","name:fr":"Nili","name:hi":"निलि","name:ko":"닐리","name:ks":"نیلی","name:ml":"നീലി","name:ps":"نیلی","name:ru":"Нили","name:ur":"نیلی","name:zh":"尼利","alt_name":"Qaryah-e Nili","name:zh-Hans":"尼利","name:zh-Hant":"尼利"},"display_name":"نیلی, ولسوالی نیلی, ولایت دایکندی, افغانستان","address":{"town":"نیلی","state_district":"ولسوالی نیلی","state":"ولایت دایکندی","ISO3166-2-lvl4":"AF-DAY","country":"افغانستان","country_code":"af"},"osm_type":"node","osm_id":4377031024,"type":"town","location":[66.1445515,33.7228439],"bbox":[66.1045515,33.6828439,66.1845515,33.7628439]}
{"name":"هوتل","other_names":{"name:en":"Hotal","name:ml":"ഹോത്തൽ","name:ps":"هوتل","name:ru":"Хотел","alt_name":"Hutal"},"display_name":"هوتل, ميوند ولسوالۍ, کندهار ولايت, افغانستان","address":{"town":"هوتل","county":"ميوند ولسوالۍ","state":"کندهار ولايت","ISO3166-2-lvl4":"AF-KAN","country":"افغانستان","country_code":"af"},"osm_type":"node","osm_id":4402585104,"type":"town","location":[65.053692,31.620448],"bbox":[65.013692,31.580448,65.093692,31.660448]}
{"name":"واشیر","other_names":{"name:en":"Washer","name:ml":"വാഷീർ","name:ps":"واشیر","name:ru":"Вашер","alt_name":"Vashir;Waser;Washar;Washayr"},"display_name":"واشیر, واشېر ولسوالۍ, هلمند ولايت, افغانستان","address":{"town":"واشیر","county":"واشېر ولسوالۍ","state":"هلمند ولايت","ISO3166-2-lvl4":"AF-HEL","country":"افغانستان","country_code":"af"},"osm_type":"node","osm_id":4405249956,"type":"town","location":[63.85553,32.251225],"bbox":[63.81553,32.211225,63.89553,32.291225]}
{"name":"وټه پور","other_names":{"name:en":"Watahpur","name:ps":"وټه پور","name:ru":"Вата Пур","name:ur":"وٹہ پور","alt_name":"وتپور;Wotapur;Wutahpur"},"display_name":"وټه پور, وټه پور ولسوالۍ, کونړ ولايت, افغانستان","address":{"town":"وټه پور","county":"وټه پور ولسوالۍ","state":"کونړ ولايت","ISO3166-2-lvl4":"AF-KNR","country":"افغانستان","country_code":"af"},"osm_type":"node","osm_id":4417949394,"type":"town","location":[71.098633,34.919136],"bbox":[71.058633,34.879136,71.138633,34.959136]}
{"name":"وحدت","other_names":{"name:en":"Wahdat","name:fa":"وحدت","name:ml":"വഹ്ദത്ത്","name:ps":"وحدت"},"display_name":"وحدت, ولسوالی ارگو, ولایت بدخشان, افغانستان","address":{"town":"وحدت","state_district":"ولسوالی ارگو","state":"ولایت بدخشان","ISO3166-2-lvl4":"AF-BDS","country":"افغانستان","country_code":"af"},"osm_type":"node","osm_id":12760293802,"type":"town","location":[70.418573,37.0516669],"bbox":[70.378573,37.0116669,70.458573,37.0916669]}
{"name":"ورسج","other_names":{"name:en":"Warsaj","name:ml":"വർസജ്","name:ur":""},"display_name":"ورسج, ولسوالی ورسج, تخار ولايت, افغانستان","address":{"town":"ورسج","county":"ولسوالی ورسج","state":"تخار ولايت","ISO3166-2-lvl4":"AF-TAK","country":"افغانستان","country_code":"af"},"osm_type":"node","osm_id":1137428530,"type":"town","location":[70.007084,36.2017752],"bbox":[69.967084,36.1617752,70.047084,36.2417752]}
{"display_name":"ولسوالی آبکمری, ولایت بادغیس, افغانستان","address":{"county":"ولسوالی آبکمری","state":"ولایت بادغیس","ISO3166-2-lvl4":"AF-BDG","country":"افغانستان","country_code":"af"},"osm_type":"way","osm_id":368883148,"type":"town","location":[63.06662447613739,35.08713435],"bbox":[63.0621099,35.0843936,63.0719528,35.0904603]}
{"display_name":"ولسوالی آبکمری, ولایت بادغیس, افغانستان","address":{"county":"ولسوالی آبکمری","state":"ولایت بادغیس","ISO3166-2-lvl4":"AF-BDG","country":"افغانستان","country_code":"af"},"osm_type":"way","osm_id":682827432,"type":"town","location":[62.92533787873021,35.1261164],"bbox":[62.922545,35.120583,62.9291397,35.1323158]}
{"display_name":"ولسوالی پر چمن, ولایت فراه, افغانستان","address":{"county":"ولسوالی پر چمن","state":"ولایت فراه","ISO3166-2-lvl4":"AF-FRA","country":"افغانستان","country_code":"af"},"osm_type":"node","osm_id":6403436550,"type":"town","location":[63.4692637,33.140478],"bbox":[63.4292637,33.100478,63.5092637,33.180478]}
{"display_name":"ولسوالی جرم, ولایت بدخشان, افغانستان","address":{"county":"ولسوالی جرم","state":"ولایت بدخشان","ISO3166-2-lvl4":"AF-BDS","country":"افغانستان","country_code":"af"},"population":3000,"osm_type":"way","osm_id":377089060,"type":"town","location":[70.83123668115684,36.8668874],"bbox":[70.8198672,36.8603786,70.84189,36.8736877]}
{"display_name":"ولسوالی خواجه سبزپوش ولی, ولایت فاریاب / فاریاب ولایتی, افغانستان","address":{"county":"ولسوالی خواجه سبزپوش ولی","state":"ولایت فاریاب / فاریاب ولایتی","ISO3166-2-lvl4":"AF-FYB","country":"افغانستان","country_code":"af"},"osm_type":"node","osm_id":8878037642,"type":"town","location":[64.8826746,36.1429707],"bbox":[64.8426746,36.1029707,64.9226746,36.1829707]}
{"display_name":"ولسوالی دره‌صوف پایین, ولایت سمنگان, افغانستان","address":{"county":"ولسوالی دره‌صوف پایین","state":"ولایت سمنگان","ISO3166-2-lvl4":"AF-SAM","country":"افغانستان","country_code":"af"},"osm_type":"way","osm_id":406803095,"type":"town","location":[67.52428169322624,36.238318250000006],"bbox":[67.5043773,36.2204884,67.5395292,36.2554833]}
{"display_name":"ولسوالی دره‌صوف پایین, ولایت سمنگان, افغانستان","address":{"county":"ولسوالی دره‌صوف پایین","state":"ولایت سمنگان","ISO3166-2-lvl4":"AF-SAM","country":"افغانستان","country_code":"af"},"osm_type":"way","osm_id":681796547,"type":"town","location":[67.29744530360514,36.11104575],"bbox":[67.2947371,36.108332,67.3004381,36.1144999]}
{"display_name":"ولسوالی ساغر, غور, افغانستان","address":{"county":"ولسوالی ساغر","state":"غور","ISO3166-2-lvl4":"AF-GHO","country":"افغانستان","country_code":"af"},"osm_type":"node","osm_id":7374071962,"type":"town","location":[63.5959321,33.6419375],"bbox":[63.5559321,33.6019375,63.6359321,33.6819375]}
{"display_name":"ولسوالی سرپل, سرپل, افغانستان","address":{"county":"ولسوالی سرپل","state":"سرپل","ISO3166-2-lvl4":"AF-SAR","country":"افغانستان","country_code":"af"},"osm_type":"way","osm_id":435001365,"type":"town","location":[66.09933101506833,35.9815773],"bbox":[66.0947444,35.9781742,66.104218,35.985489]}
{"display_name":"ولسوالی شهرک, غور, افغانستان","address":{"county":"ولسوالی شهرک","state":"غور","ISO3166-2-lvl4":"AF-GHO","country":"افغانستان","country_code":"af"},"osm_type":"node","osm_id":8035695966,"type":"town","location":[64.4194901,34.1334801],"bbox":[64.3794901,34.0934801,64.4594901,34.1734801]}
{"display_name":"ولسوالی شولگره, ولایت بلخ, افغانستان","address":{"county":"ولسوالی شولگره","state":"ولایت بلخ","ISO3166-2-lvl4":"AF-BAL","country":"افغانستان","country_code":"af"},"osm_type":"node","osm_id":8413475870,"type":"town","location":[67.1463615,36.2354901],"bbox":[67.1063615,36.1954901,67.1863615,36.2754901]}
{"display_name":"ولسوالی شیرین‌تگاب, ولایت فاریاب / فاریاب ولایتی, افغانستان","address":{"county":"ولسوالی شیرین‌تگاب","state":"ولایت فاریاب / فاریاب ولایتی","ISO3166-2-lvl4":"AF-FYB","country":"افغانستان","country_code":"af"},"osm_type":"node","osm_id":8878391306,"type":"town","location":[64.8831804,36.279048],"bbox":[64.8431804,36.239048,64.9231804,36.319048]}
{"display_name":"ولسوالی شیرین‌تگاب, ولایت فاریاب / فاریاب ولایتی, افغانستان","address":{"county":"ولسوالی شیرین‌تگاب","state":"ولایت فاریاب / فاریاب ولایتی","ISO3166-2-lvl4":"AF-FYB","country":"افغانستان","country_code":"af"},"osm_type":"node","osm_id":8878391307,"type":"town","location":[64.8707802,36.2882872],"bbox":[64.8307802,36.2482872,64.9107802,36.3282872]}
{"display_name":"ولسوالی قیصار, ولایت فاریاب / فاریاب ولایتی, افغانستان","address":{"county":"ولسوالی قیصار","state":"ولایت فاریاب / فاریاب ولایتی","ISO3166-2-lvl4":"AF-FYB","country":"افغانستان","country_code":"af"},"osm_type":"node","osm_id":7357136168,"type":"town","location":[64.1213846,35.6061957],"bbox":[64.0813846,35.5661957,64.1613846,35.6461957]}
{"display_name":"ولسوالی مقر, ولایت بادغیس, افغانستان","address":{"county":"ولسوالی مقر","state":"ولایت بادغیس","ISO3166-2-lvl4":"AF-BDG","country":"افغانستان","country_code":"af"},"osm_type":"node","osm_id":8270760865,"type":"town","location":[63.0241885,35.1935898],"bbox":[62.9841885,35.1535898,63.0641885,35.2335898]}
{"display_name":"ولسوالی مقر, ولایت بادغیس, افغانستان","address":{"county":"ولسوالی مقر","state":"ولایت بادغیس","ISO3166-2-lvl4":"AF-BDG","country":"افغانستان","country_code":"af"},"osm_type":"node","osm_id":8273467028,"type":"town","location":[63.0040841,35.2487353],"bbox":[62.9640841,35.2087353,63.0440841,35.2887353]}
{"display_name":"ولسوالی مقر, ولایت بادغیس, افغانستان","address":{"county":"ولسوالی مقر","state":"ولایت بادغیس","ISO3166-2-lvl4":"AF-BDG","country":"افغانستان","country_code":"af"},"osm_type":"way","osm_id":626510582,"type":"town","location":[63.05945494110915,35.15078525],"bbox":[63.0553643,35.1474643,63.0629992,35.1578079]}
{"name":"ولسوالی میرامور","other_names":{"name:en":"Miramoor District"},"display_name":"ولسوالی میرامور, ولایت دایکندی, افغانستان","address":{"town":"ولسوالی میرامور","state_district":"ولسوالی میرامور","state":"ولایت دایکندی","ISO3166-2-lvl4":"AF-DAY","country":"افغانستان","country_code":"af"},"osm_type":"node","osm_id":8960745980,"type":"town","location":[66.7846403,33.8148856],"bbox":[66.7446403,33.7748856,66.8246403,33.8548856]}
{"name":"يمگان","other_names":{"name:ar":"يمقان","name:en":"Yamgan","name:ml":"യംഗാൻ","name:ps":"تهده"},"display_name":"يمگان, ولسوالی یمگان, ولایت بدخشان, افغانستان","address":{"town":"يمگان","county":"ولسوالی یمگان","state":"ولایت بدخشان","ISO3166-2-lvl4":"AF-BDS","country":"افغانستان","country_code":"af"},"osm_type":"node","osm_id":4386804175,"type":"town","location":[70.7951743,36.516627],"bbox":[70.7551743,36.476627,70.8351743,36.556627]}
{"name":"یحیى خېل","other_names":{"name:en":"Yahya Khel","name:ps":"یحیى خېل","name:ru":"Яхьяхейль","name:ur":"یحییٰ خیل","alt_name":"Yahya Kheyl;Ya Khel;Yahyakhel;Yehyakhel"},"display_name":"یحیى خېل, يحيی خېل, پکتيکا ولايت, افغانستان","address":{"town":"یحیى خېل","county":"يحيی خېل","state":"پکتيکا ولايت","ISO3166-2-lvl4":"AF-PKA","country":"افغانستان","country_code":"af"},"osm_type":"node","osm_id":4411004689,"type":"town","location":[68.64622,32.937423],"bbox":[68.60622,32.897423,68.68622,32.977423]}
{"name":"یعقوبی","other_names":{"name:en":"Yakubi","name:ps":"یعقوبی","name:ru":"Якуби","name:ur":"یعقوبی","alt_name":"Ya`qub;Ya`qubi;يعقوبی"},"display_name":"یعقوبی, سبري ولسوالۍ, خوست ولايت, افغانستان","address":{"town":"یعقوبی","county":"سبري ولسوالۍ","state":"خوست ولايت","ISO3166-2-lvl4":"AF-KHO","country":"افغانستان","country_code":"af"},"osm_type":"node","osm_id":3902716795,"type":"town","location":[69.995041,33.458221],"bbox":[69.955041,33.418221,70.035041,33.498221]}
{"name":"یفتل سفلی","other_names":{"name:ar":"يفتال سفله","name:en":"Yaftali Sufla","name:ml":"യഫ്തലി സുഫ്ല","name:ps":"یفتل سفلی"},"display_name":"یفتل سفلی, ولسوالی یفتل پایین, ولایت بدخشان, افغانستان","address":{"town":"یفتل سفلی","county":"ولسوالی یفتل پایین","state":"ولایت بدخشان","ISO3166-2-lvl4":"AF-BDS","country":"افغانستان","country_code":"af"},"osm_type":"node","osm_id":4387466693,"type":"town","location":[70.4159697,37.2842695],"bbox":[70.3759697,37.2442695,70.4559697,37.3242695]}
{"name":"ینگی قلعه","other_names":{"name:ar":"ينكي قلعة","name:en":"Yangi Qala","name:fa":"ینگی‌قلعه","name:ml":"യംഗി ഖല","name:ps":"ینگی قلعه","name:ru":"Янгикала","name:uk":"Янґі-Кала","name:ur":"ینگی قلعہ","alt_name:ar":"ينكي قلعه","alt_name:en":"Yangi Qal`eh;Yangi Kala;Yengi Qal`eh;Yangi Qal`ah","alt_name:ps":"ينگي کلا"},"display_name":"ینگی قلعه, ینگی قلعه ولسوالۍ, تخار ولايت, افغانستان","address":{"town":"ینگی قلعه","county":"ینگی قلعه ولسوالۍ","state":"تخار ولايت","ISO3166-2-lvl4":"AF-TAK","country":"افغانستان","country_code":"af"},"osm_type":"node","osm_id":1167118477,"type":"town","location":[69.6208553,37.4695108],"bbox":[69.5808553,37.4295108,69.6608553,37.5095108]}
{"name":"یوسف خېل","other_names":{"name:en":"Yosuf Khel","name:ps":"یوسف خېل","name:ru":"Юсуфхейль","name:ur":"یوسف خیل","alt_name":"Yusof Kheyl;Yusui Khel;Yusuf Khel;Yusufkheyl'"},"display_name":"یوسف خېل, يوسف خېل ولسوالۍ, پکتيکا ولايت, افغانستان","address":{"town":"یوسف خېل","county":"يوسف خېل ولسوالۍ","state":"پکتيکا ولايت","ISO3166-2-lvl4":"AF-PKA","country":"افغانستان","country_code":"af"},"osm_type":"node","osm_id":4410975480,"type":"town","location":[68.653584,33.048527],"bbox":[68.613584,33.008527,68.693584,33.088527]}
