{"name":"Tunian","display_name":"Tunian, ولسوالی پشتون‌ زرغون, ولایت هرات, افغانستان","address":{"city":"Tunian","county":"ولسوالی پشتون‌ زرغون","state":"ولایت هرات","ISO3166-2-lvl4":"AF-HER","country":"افغانستان","country_code":"af"},"osm_type":"way","osm_id":337980717,"type":"city","location":[62.51602285902487,34.307474799999994],"bbox":[62.5054847,34.3006861,62.5267922,34.3177013]}
{"name":"اسدابادښار","other_names":{"name:bn":"আসাদাবাদ","name:cs":"Asadábád","name:en":"Asadabad","name:fr":"Assadâbâd","name:hi":"असदाबाद","name:ko":"아사다바드","name:ml":"അസദാബാദ്","name:ps":"اسدابادښار","name:ru":"Асадабад","name:zh":"阿萨达巴德/阿薩達巴德","int_name":"Asadabad","name:zh-Hans":"阿萨达巴德","name:zh-Hant":"阿薩達巴德"},"display_name":"اسدابادښار, اسد آباد ولسوالۍ, کونړ ولايت, افغانستان","address":{"city":"اسدابادښار","county":"اسد آباد ولسوالۍ","state":"کونړ ولايت","ISO3166-2-lvl4":"AF-KNR","country":"افغانستان","country_code":"af"},"osm_type":"node","osm_id":5144012738,"type":"city","location":[71.1508321,34.8727951],"bbox":[70.9908321,34.7127951,71.3108321,35.0327951]}
{"name":"ایبک","other_names":{"name:en":"Aybak","name:hi":"अयबक","name:ml":"ഐബക്ക്","name:ru":"Айбак"},"display_name":"ایبک, ولسوالی آیبک, ولایت سمنگان, افغانستان","address":{"city":"ایبک","county":"ولسوالی آیبک","state":"ولایت سمنگان","ISO3166-2-lvl4":"AF-SAM","country":"افغانستان","country_code":"af"},"osm_type":"node","osm_id":8226810303,"type":"city","location":[68.0218455,36.2730673],"bbox":[67.8618455,36.1130673,68.1818455,36.4330673]}
{"name":"بازارک","other_names":{"name:ar":"بازاراك","name:bn":"বাজারাক","name:cs":"Bázárak","name:de":"Bazarak","name:en":"Bazarak","name:es":"Bazarak","name:fr":"Bazarak","name:hi":"बाज़ारक","name:ko":"바자라크","name:ml":"ബാസാറക്ക്","name:ru":"Базарак","name:zh":"巴萨拉克/巴薩拉克","name:zh-Hans":"巴萨拉克","name:zh-Hant":"巴薩拉克"},"display_name":"بازارک, ولسوالی بازارک, ولایت پنجشیر, افغانستان","address":{"city":"بازارک","state_district":"ولسوالی بازارک","state":"ولایت پنجشیر","ISO3166-2-lvl4":"AF-PAN","country":"افغانستان","country_code":"af"},"osm_type":"node","osm_id":3495696649,"type":"city","location":[69.5135608,35.3115927],"bbox":[69.3535608,35.1515927,69.6735608,35.4715927]}
{"name":"بامیان","other_names":{"name:ar":"باميان","name:bn":"বামিয়ান","name:cs":"Bamján","name:de":"Bamiyan-Tal","name:el":"Μπαμιάν","name:en":"Bamian","name:es":"Bamiyán","name:fr":"Bâmiyân","name:hi":"बामियान","name:ja":"バーミヤーン","name:ko":"바미안","name:ml":"ബാമിയാൻ","name:ne":"बामयान","name:ru":"Бамиан","name:uk":"Баміан","name:zh":"巴米扬/巴米揚","name:zh-Hans":"巴米扬","name:zh-Hant":"巴米揚"},"display_name":"بامیان, ولسوالی بامیان, ولایت بامیان, افغانستان","address":{"city":"بامیان","county":"ولسوالی بامیان","state":"ولایت بامیان","ISO3166-2-lvl4":"AF-BAM","country":"افغانستان","country_code":"af"},"osm_type":"node","osm_id":830011080,"type":"city","location":[67.8368338,34.8223804],"bbox":[67.6768338,34.6623804,67.9968338,34.9823804]}
{"name":"بغلان","other_names":{"name:ar":"بغلان","name:de":"Baglan","name:en":"Baghlan","name:es":"Baġlān","name:et":"Baghlān","name:fr":"Baghlân","name:hi":"बग़लान","name:ja":"バグラーン","name:lt":"Baglanas","name:ml":"ബഗ്ലാൻ","name:ru":"Баглан","name:uk":"Баґлан"},"display_name":"بغلان, ولسوالی بغلان جدید, ولایت بغلان, افغانستان","address":{"city":"بغلان","county":"ولسوالی بغلان جدید","state":"ولایت بغلان","ISO3166-2-lvl4":"AF-BGL","country":"افغانستان","country_code":"af"},"population":119607,"osm_type":"node","osm_id":3452096288,"type":"city","location":[68.7489741,36.1746897],"bbox":[68.5889741,36.0146897,68.9089741,36.3346897]}
{"name":"بغلان","other_names":{"name:ar":"بغلان","name:de":"Baglan","name:en":"Baghlan","name:es":"Baġlān","name:et":"Baghlān","name:fr":"Baghlân","name:hi":"बग़लान","name:ja":"バグラーン","name:lt":"Baglanas","name:ml":"ബഗ്ലാൻ","name:ru":"Баглан","name:uk":"Баґлан","alt_name":"Baghlani Jadid;Baglan;Sana`ati;Baghlan-e Jadid;Baghlin;Baghlan;Bagolaggo;Sana `Ati;صناعتی;بغلان جديد","int_name":"Baghlan"},"display_name":"بغلان, ولسوالی بغلان جدید, ولایت بغلان, افغانستان","address":{"city":"بغلان","county":"ولسوالی بغلان جدید","state":"ولایت بغلان","ISO3166-2-lvl4":"AF-BGL","country":"افغانستان","country_code":"af"},"population":119607,"osm_type":"node","osm_id":312781020,"type":"city","location":[68.6818617,36.120094],"bbox":[68.5218617,35.960094,68.8418617,36.280094]}
{"name":"پغمان","other_names":{"name:bn":"পাগমান","name:en":"Paghman","name:fa":"پغمان","name:ja":"パグマン","name:ml":"പഗ്മാൻ","name:ps":"پغمان","name:ru":"Пагман","name:ur":"پغمان","name:pnb":"پغمان"},"display_name":"پغمان, ولسوالی پغمان, ولایت كابل, افغانستان","address":{"city":"پغمان","county":"ولسوالی پغمان","state":"ولایت كابل","ISO3166-2-lvl4":"AF-KAB","country":"افغانستان","country_code":"af"},"osm_type":"node","osm_id":3742705160,"type":"city","location":[68.9580345,34.5884181],"bbox":[68.7980345,34.4284181,69.1180345,34.7484181]}
{"name":"پل خمری","other_names":{"name:ar":"بل خمري","name:cs":"Pol-e Chumrí","name:de":"Pol-e Khomri","name:el":"Πούλι Χουμρί","name:en":"Puli Khumri","name:es":"Puli Khumri","name:et":"Pol-e Khomrī","name:fa":"پل خمری","name:fr":"Pol-e Khomri","name:hi":"पुल-ए-ख़ुमरी","name:ja":"プレ・フムリー","name:ko":"풀리훔리","name:ml":"പുലി ഖുംറി","name:ru":"Пули-Хумри","name:uk":"Пулі-Хумрі","name:zh":"普勒胡姆里","int_name":"Puli Khumri","name:zh-Hans":"普勒胡姆里","name:zh-Hant":"普勒胡姆里"},"display_name":"پل خمری, ولسوالی پل خمری, ولایت بغلان, 3601, افغانستان","address":{"city":"پل خمری","county":"ولسوالی پل خمری","state":"ولایت بغلان","ISO3166-2-lvl4":"AF-BGL","postcode":"3601","country":"افغانستان","country_code":"af"},"population":60000,"osm_type":"node","osm_id":312781022,"type":"city","location":[68.7166369,35.9403928],"bbox":[68.5566369,35.7803928,68.8766369,36.1003928]}
{"name":"پل علم ښار","other_names":{"name:ar":"بولي علم","name:bn":"পুল-ই-আলম","name:cs":"Pol-e Alam","name:de":"Pul-i-Alam","name:el":"Πουλ-ι-αλάμ","name:en":"Pul-i-Alam","name:es":"Pul-i-Alam","name:et":"Pul-i ‘Alam","name:fa":"پل علم","name:fr":"Pol-é 'Alam","name:hi":"पुल-ए-आलम","name:ja":"プリアラム","name:ko":"풀이알람","name:ml":"പുലി അലം","name:ps":"پل علم","name:ru":"Пулиалам","name:uk":"Пуліалам","name:ur":"پل علم","name:zh":"佩尔埃阿林/佩爾埃阿林","alt_name:en":"Pul-e Alam","name:zh-Hans":"佩尔埃阿林","name:zh-Hant":"佩爾埃阿林"},"display_name":"پل علم ښار, پل علم ولسوالۍ, لوگر ولايت, افغانستان","address":{"city":"پل علم ښار","county":"پل علم ولسوالۍ","state":"لوگر ولايت","ISO3166-2-lvl4":"AF-LOG","country":"افغانستان","country_code":"af"},"population":108000,"osm_type":"node","osm_id":2388513950,"type":"city","location":[69.0112806,34.0057712],"bbox":[68.8512806,33.8457712,69.1712806,34.1657712]}
{"name":"تالقان","other_names":{"name:ar":"تالقان","name:cs":"Táloqán","name:de":"Taluqan","name:el":"Ταλοκάν","name:en":"Taloqan","name:et":"Tāloqān","name:fa":"تالقان","name:fr":"Tâloqân","name:hi":"तालोक़ान","name:hu":"Talukán","name:ja":"タールカーン","name:ko":"탈로칸","name:ml":"താലൊഖാൻ","name:ps":"طالقان","name:ru":"Талукан","name:uk":"Талукан","name:ur":"طالقان","name:zh":"塔卢坎","name:pnb":"طالقان","name:zh-Hans":"塔卢坎","name:zh-Hant":"塔盧坎"},"display_name":"تالقان, تالقان ولسوالۍ, تخار ولايت, 3751, افغانستان","address":{"city":"تالقان","county":"تالقان ولسوالۍ","state":"تخار ولايت","ISO3166-2-lvl4":"AF-TAK","postcode":"3751","country":"افغانستان","country_code":"af"},"population":196400,"osm_type":"node","osm_id":318091652,"type":"city","location":[69.5369403,36.7320953],"bbox":[69.3769403,36.5720953,69.6969403,36.8920953]}
{"name":"ترين كوت","other_names":{"name:ar":"ترين كوت","name:bn":"তারিন কোট","name:cs":"Tarín Kót","name:de":"Tarin Kut","name:el":"Ταρίν Κοτ","name:en":"Tarinkot","name:es":"Tarin Kowt","name:fa":"ترین‌کوت","name:fr":"Tarin Kôt","name:hi":"तरीनकोट","name:ja":"タリーン・コート","name:ko":"타린코트","name:lt":"Tarinkotas","name:ml":"തറീൻകോട്ട്","name:nl":"Tarin Kowt","name:ps":"ترين کوټ‎","name:ru":"Таринкот","name:tr":"Tarin Kot","name:uk":"Тарінкот","name:ur":"ترین کوٹ","name:zh":"塔林科特/塔林庫特","alt_name":"Tarin Kowt","name:pnb":"ترین کوٹ","alt_name:cs":"Tarínkót","name:zh-Hans":"塔林科特","name:zh-Hant":"塔林庫特"},"display_name":"ترين كوت, ترينکوټ ولسوالۍ, روزگان ولايت, افغانستان","address":{"city":"ترين كوت","county":"ترينکوټ ولسوالۍ","state":"روزگان ولايت","ISO3166-2-lvl4":"AF-URU","country":"افغانستان","country_code":"af"},"population":10000,"osm_type":"node","osm_id":310090137,"type":"city","location":[65.8687939,32.6218133],"bbox":[65.7087939,32.4618133,66.0287939,32.7818133]}
{"name":"جلال آباد","other_names":{"name:ar":"جلال آباد","name:bg":"Джелалабад","name:bn":"জালালাবাদ","name:ca":"Jalalabad","name:cs":"Džalálábád","name:de":"Dschalalabad","name:el":"Τζελαλαμπάντ","name:en":"Jalalabad","name:eo":"Ĝalalabado","name:es":"Jalalabad","name:et":"Jalālābād","name:fa":"جلال‌آباد","name:fr":"Jalalabad","name:hi":"जलालाबाद","name:hu":"Dzsalálábád","name:it":"Jalalabad","name:ja":"ジャラーラーバード","name:ka":"ჯალალაბადი","name:kn":"ಜಲಾಲಾಬಾದ್","name:ko":"잘랄라바드","name:ks":"جلال آباد","name:lt":"Džalalabadas","name:lv":"Džalālābāda","name:ml":"ജലാലാബാദ്","name:ne":"जलालाबाद","name:nl":"Jalalabad","name:pa":"ਜਲਾਲਾਬਾਦ","name:pl":"Dżalalabad","name:ps":"جلال اباد","name:ru":"Джелалабад","name:ta":"ஜலலபாத்","name:th":"จะลาลาบาด","name:tr":"Celalabad","name:uk":"Джелалабад","name:ur":"جلال آباد","name:zh":"賈拉拉巴德","name:azb":"جلال آباد","name:pnb":"جلال آباد","alt_name:ps":"جلالکوټ","alt_name:ur":"جلال کوٹ","name:zh-Hans":"贾拉拉巴德","name:zh-Hant":"贾拉拉巴德"},"display_name":"جلال آباد, جلال اباد, ننگرهار ولايت, افغانستان","address":{"city":"جلال آباد","state":"ننگرهار ولايت","ISO3166-2-lvl4":"AF-NAN","country":"افغانستان","country_code":"af"},"population":168600,"osm_type":"node","osm_id":58918710,"type":"city","location":[70.460128,34.430195],"bbox":[70.300128,34.270195,70.620128,34.590195],"border":{"name":"جلال اباد","other_names":{"name:ar":"جلال آباد","name:cs":"Džalálábád","name:de":"Dschalalabad","name:en":"Jalalabad","name:fa":"جلال‌آباد","name:hi":"जलालाबाद","name:ja":"ジャラーラーバード","name:kn":"ಜಲಾಲಾಬಾದ್","name:ks":"جلال آباد","name:pa":"ਜਲਾਲਾਬਾਦ","name:ps":"جلال اباد","name:ru":"Джелалабад","name:tr":"Celalabad","name:uk":"Джелалабад","name:ur":"جلال آباد","name:zh":"賈拉拉巴德","name:azb":"جلال آباد","name:pnb":"جلال آباد","alt_name:ps":"جلالکوټ","alt_name:ur":"جلال کوٹ","name:zh-Hans":"贾拉拉巴德","name:zh-Hant":"贾拉拉巴德","name:bg":"Джелалабад","name:bn":"জালালাবাদ","name:ca":"Jalalabad","name:el":"Τζελαλαμπάντ","name:eo":"Ĝalalabado","name:es":"Jalalabad","name:et":"Jalālābād","name:fr":"Jalalabad","name:hu":"Dzsalálábád","name:it":"Jalalabad","name:ka":"ჯალალაბადი","name:ko":"잘랄라바드","name:lt":"Džalalabadas","name:lv":"Džalālābāda","name:ml":"ജലാലാബാദ്","name:ne":"जलालाबाद","name:nl":"Jalalabad","name:pl":"Dżalalabad","name:ta":"ஜலலபாத்","name:th":"จะลาลาบาด","alt":"جلال آباد"},"display_name":"جلال اباد, ننگرهار ولايت, افغانستان","address":{"city":"جلال اباد","state":"ننگرهار ولايت","ISO3166-2-lvl4":"AF-NAN","country":"افغانستان","country_code":"af"},"population":168600,"osm_type":"relation","osm_id":6607907,"type":"administrative","location":[70.460128,34.430195],"bbox":[70.4003431,34.3948583,70.4839298,34.4544313]}}
{"name":"جلگه بهادر","other_names":{"name:en":"Julga Bahador"},"display_name":"جلگه بهادر, ولسوالی ناور, ولایت غزنی, افغانستان","address":{"city":"جلگه بهادر","county":"ولسوالی ناور","state":"ولایت غزنی","ISO3166-2-lvl4":"AF-GHA","country":"افغانستان","country_code":"af"},"population":null,"osm_type":"node","osm_id":12963929757,"type":"city","location":[67.466986,33.7051963],"bbox":[67.306986,33.5451963,67.626986,33.8651963]}
{"name":"چاریکار","other_names":{"name:ar":"جاريكار","name:bn":"চারিকার","name:cs":"Čáríkár","name:de":"Charikar","name:el":"Τσαρικάρ","name:en":"Charikar","name:et":"Chārīkār","name:fr":"Charikar","name:ja":"チャーリーカール","name:ko":"차리카르","name:lt":"Čarikaras","name:ml":"ചാറിക്കാർ","name:pl":"Czarikar","name:ru":"Чарикар","name:uk":"Чарікар","name:zh":"恰里卡尔","alt_name":"Chârikâr, Askandria-e-Qafqaz, Askandria Paro paizad","int_name":"Charikar","name:zh-Hans":"恰里卡尔","name:zh-Hant":"恰里卡爾"},"display_name":"چاریکار, ولسوالی چاریکار, ولایت پروان, افغانستان","address":{"city":"چاریکار","county":"ولسوالی چاریکار","state":"ولایت پروان","ISO3166-2-lvl4":"AF-PAR","country":"افغانستان","country_code":"af"},"population":34900,"osm_type":"node","osm_id":313181470,"type":"city","location":[69.1741618,35.0131732],"bbox":[69.0141618,34.8531732,69.3341618,35.1731732]}
{"name":"حیرتان","other_names":{"name:ar":"هيرتان","name:de":"Hairatan","name:en":"Hairatan","name:es":"Hairatan","name:fa":"حیرتان","name:fr":"Hairatan","name:he":"گمرک بندر حیرتان","name:ja":"ハイラタン","name:ml":"ഹൈറത്താൻ","name:ru":"Хайратан","name:uz":"Hayraton"},"display_name":"حیرتان, ولسوالی کلدار, ولایت بلخ, افغانستان","address":{"city":"حیرتان","county":"ولسوالی کلدار","state":"ولایت بلخ","ISO3166-2-lvl4":"AF-BAL","country":"افغانستان","country_code":"af"},"osm_type":"node","osm_id":3446336356,"type":"city","location":[67.4248608,37.2221321],"bbox":[67.2648608,37.0621321,67.5848608,37.3821321]}
{"name":"خوست","other_names":{"name:ar":"خوست","name:bn":"খোস্ত","name:cs":"Chóst","name:de":"Chost","name:el":"Χοστ","name:en":"Khost","name:es":"Jost","name:fa":"خوست","name:fr":"Khost","name:hi":"खोस्त","name:ja":"ホースト","name:ko":"호스트","name:ml":"ഖോസ്ത്","name:ps":"خوست","name:ru":"Хост","name:uk":"Хост","name:ur":"خوست","name:zh":"霍斯特","alt_name":"Khowst","name:pnb":"خوست","name:zh-Hans":"霍斯特","name:zh-Hant":"霍斯特"},"display_name":"خوست, خوست ولسوالۍ, خوست ولايت, 2501, افغانستان","address":{"city":"خوست","county":"خوست ولسوالۍ","state":"خوست ولايت","ISO3166-2-lvl4":"AF-KHO","postcode":"2501","country":"افغانستان","country_code":"af"},"population":11987,"osm_type":"node","osm_id":312593138,"type":"city","location":[69.9206359,33.3391402],"bbox":[69.7606359,33.1791402,70.0806359,33.4991402]}
{"name":"سر پل","other_names":{"name:ar":"سربل","name:cs":"Sar-e Pol","name:de":"Sar-i Pul","name:el":"Σαρ-ε Πολ","name:en":"Sar-e Pol","name:es":"Sar-e Pol","name:et":"Sar-e Pol","name:fa":"سر پل","name:fr":"Sar-é Pol","name:hi":"सर-ए-पोल","name:ja":"サーレポル","name:ko":"사르이폴","name:ml":"സറെ പൊൽ","name:ru":"Сари-Пуль","name:uk":"Сарі-Пуль","name:zh":"萨尔普勒/薩爾普勒","alt_name":"Sari Pul","alt_name:ml":"സറി പുൽ","name:zh-Hans":"萨尔普勒","name:zh-Hant":"薩爾普勒"},"display_name":"سر پل, ولسوالی سرپل, سرپل, افغانستان","address":{"city":"سر پل","county":"ولسوالی سرپل","state":"سرپل","ISO3166-2-lvl4":"AF-SAR","country":"افغانستان","country_code":"af"},"population":141000,"osm_type":"node","osm_id":318097349,"type":"city","location":[65.933303,36.2149655],"bbox":[65.773303,36.0549655,66.093303,36.3749655]}
{"name":"سمنگان‎","other_names":{"name:ar":"سمنكان","name:cs":"Samangán","name:de":"Samangan","name:el":"Σαμανγκάν","name:en":"Samangan","name:es":"Samangan","name:fa":"سمنگان","name:fr":"Aybak","name:ja":"サマンガーン","name:ko":"사망간","name:ml":"സമംഗാൻ","name:ps":"سمنگان","name:ru":"Айбак","name:uk":"Айбак","name:zh":"萨曼甘/薩曼甘","int_name":"Samangan","old_name":"Eukratidia, Aybak, Aibak","alt_name:cs":"Ajbak","alt_name:en":"Aybak;Aibak","name:zh-Hans":"萨曼甘","name:zh-Hant":"薩曼甘"},"display_name":"سمنگان‎, ولسوالی آیبک, ولایت سمنگان, افغانستان","address":{"city":"سمنگان‎","county":"ولسوالی آیبک","state":"ولایت سمنگان","ISO3166-2-lvl4":"AF-SAM","country":"افغانستان","country_code":"af"},"osm_type":"node","osm_id":312781018,"type":"city","location":[68.0215374,36.2674938],"bbox":[67.8615374,36.1074938,68.1815374,36.4274938]}
{"name":"سنګه ماشه","other_names":{"name:en":"Sang-e-Masha","name:fa":"(مرکز ولایت جاغوری)سنگ ماشه","name:ml":"സംഗ്മാഷ","name:ru":"Санг-И-Маша","name:ur":"سنگہ ماشہ"},"display_name":"سنګه ماشه, ولایت جاغوری, ولایت غزنی, افغانستان","address":{"city":"سنګه ماشه","county":"ولایت جاغوری","state":"ولایت غزنی","ISO3166-2-lvl4":"AF-GHA","country":"افغانستان","country_code":"af"},"osm_type":"node","osm_id":11152726111,"type":"city","location":[67.4407306,33.1396675],"bbox":[67.2807306,32.9796675,67.6007306,33.2996675]}
{"name":"شبرغان","other_names":{"name:ar":"شبرغان","name:cs":"Šeberghán","name:de":"Scheberghan","name:el":"Σιμπαργκάν","name:en":"Sheberghan","name:es":"Sibargán","name:et":"Sheberghān","name:fa":"شبرغان","name:hi":"शबरग़ान","name:ja":"シェベルガーン","name:ko":"시바르간","name:ml":"ഷെബെർഗാൻ","name:ps":"شبرغان","name:ru":"Шибирган","name:tr":"Şibirgan","name:uk":"Шібірґан","name:uz":"Shibirgʻon","name:zh":"希比尔甘/希比爾甘","alt_name":"Sheberghān;Shaburghān;Shebirghan;Shibarghan","int_name":"Sheberghan","name:ast":"Sibargán","name:zh-Hans":"希比尔甘","name:zh-Hant":"希比爾甘"},"display_name":"شبرغان, ولسوالی شبرغان, ولایت جوزجان / جوزجان ولایتی, افغانستان","address":{"city":"شبرغان","county":"ولسوالی شبرغان","state":"ولایت جوزجان / جوزجان ولایتی","ISO3166-2-lvl4":"AF-JOW","country":"افغانستان","country_code":"af"},"population":60000,"osm_type":"node","osm_id":312595265,"type":"city","location":[65.7508888,36.667054],"bbox":[65.5908888,36.507054,65.9108888,36.827054]}
{"name":"ښرنه","other_names":{"name:ar":"شرنه","name:bn":"শারান","name:cs":"Šaran","name:el":"Σαράν","name:en":"Sharan","name:et":"Zareh Sharan","name:fa":"شرنه","name:fr":"Charan","name:ja":"シャラナ","name:ko":"샤란","name:ml":"ഷറൻ","name:ps":"ښرنه","name:ru":"Шаран","name:uk":"Шаран","name:ur":"شرنہ","name:zh":"沙兰/沙蘭","alt_name":"Sharana;Kharana","name:zh-Hans":"沙兰","name:zh-Hant":"沙蘭"},"display_name":"ښرنه, ښرنه ولسوالۍ, پکتيکا ولايت, 2401, افغانستان","address":{"city":"ښرنه","district":"ښرنه ولسوالۍ","state":"پکتيکا ولايت","ISO3166-2-lvl4":"AF-PKA","postcode":"2401","country":"افغانستان","country_code":"af"},"population":2200,"osm_type":"node","osm_id":313472635,"type":"city","location":[68.7852127,33.1713813],"bbox":[68.6252127,33.0113813,68.9452127,33.3313813]}
{"name":"غزنی","other_names":{"name:ar":"غزني","name:bn":"গজনী","name:cs":"Ghazní","name:da":"Ghazni","name:el":"Γκαζνί","name:en":"Ghazni","name:et":"Ghaznī","name:fa":"غزنی (Ğaznī)","name:fr":"Ghazni","name:hi":"ग़ज़नी","name:ja":"ガズニー","name:ko":"가즈니","name:ml":"ഗസ്നി","name:ru":"Газни","name:tr":"Gazne","name:uk":"Ґазні","name:ur":"غزنی","name:zh":"加兹尼","alt_name":"غزنین","name:ast":"Gazni","name:pnb":"غزنی","old_name":"Ghazna;Ghaznīn","name:zh-Hans":"加兹尼","name:zh-Hant":"加兹尼"},"display_name":"غزنی, ولسوالی غزنی, ولایت غزنی, افغانستان","address":{"city":"غزنی","state_district":"ولسوالی غزنی","state":"ولایت غزنی","ISO3166-2-lvl4":"AF-GHA","country":"افغانستان","country_code":"af"},"population":141000,"osm_type":"node","osm_id":312452077,"type":"city","location":[68.4132108,33.5448968],"bbox":[68.2532108,33.3848968,68.5732108,33.7048968]}
{"name":"فراه","other_names":{"name:ar":"فراه","name:bn":"ফারাহ","name:cs":"Faráh","name:de":"Farah","name:el":"Φαράχ","name:en":"Farah","name:es":"Farāh","name:et":"Farāh","name:fa":"فراه","name:fr":"Farâh","name:hi":"फराह","name:ja":"ファラー","name:ko":"파라","name:lt":"Farahas","name:ml":"ഫറാ","name:ru":"Фарах","name:uk":"Фарах","name:zh":"法拉","name:zh-Hans":"法拉","name:zh-Hant":"法拉"},"display_name":"فراه, ولایت فراه, افغانستان","address":{"city":"فراه","county":"فراه","state":"ولایت فراه","ISO3166-2-lvl4":"AF-FRA","country":"افغانستان","country_code":"af"},"population":37400,"osm_type":"node","osm_id":312462304,"type":"city","location":[62.1146266,32.3740907],"bbox":[61.9546266,32.2140907,62.2746266,32.5340907]}
{"name":"فیروزکوه","other_names":{"name:bn":"ফিরোজকোহ","name:en":"Firozkoh","name:fa":"فیروزکوه","name:fr":"Chaghcharan","name:hi":"फ़िरोज़कोह","name:ko":"체그체란","name:ml":"ഫിറോസ്കോ","name:ps":"آهنګران","name:ru":"Чагчаран","name:ur":"فیروز کوہ","alt_name":"Chakhcheran","old_name":"Āhangarān;آهنګران;آهنگران"},"display_name":"فیروزکوه, ولسوالی فیروزکوه, غور, افغانستان","address":{"city":"فیروزکوه","county":"ولسوالی فیروزکوه","state":"غور","ISO3166-2-lvl4":"AF-GHO","country":"افغانستان","country_code":"af"},"population":15000,"osm_type":"node","osm_id":312573218,"type":"city","location":[65.2554797,34.5189635],"bbox":[65.0954797,34.3589635,65.4154797,34.6789635]}
{"name":"فیض‌آباد","other_names":{"name:ar":"فيض آباد","name:bn":"ফায়জাবাদ","name:cs":"Fajzábád","name:el":"Φεϊζαμπάντ","name:en":"Fayzabad","name:et":"Feyẕābād","name:fa":"فيض آباد","name:fr":"Fayzabad","name:hi":"फैजाबाद","name:ja":"ファイザーバード","name:ml":"ഫൈസാബാദ്","name:ps":"فيض آباد","name:ru":"Файзабад","name:uk":"Файзабад","name:ur":"فیض آباد","name:zh":"费扎巴德","alt_name":"Feyzabad;Fazelabad;Faizabad;Jauz Gun;Faydz Abad","name:ast":"Feyzabad","name:pnb":"فیض آباد","name:zh-Hans":"费扎巴德","name:zh-Hant":"費札巴德"},"display_name":"فیض‌آباد, ولسوالی فیض‌آباد, ولایت بدخشان, افغانستان","address":{"city":"فیض‌آباد","county":"ولسوالی فیض‌آباد","state":"ولایت بدخشان","ISO3166-2-lvl4":"AF-BDS","country":"افغانستان","country_code":"af"},"population":27200,"osm_type":"node","osm_id":312586412,"type":"city","location":[70.5784966,37.1187512],"bbox":[70.4184966,36.9587512,70.7384966,37.2787512]}
{"name":"قلات‎","other_names":{"name:ar":"قلات","name:bn":"কালাত","name:cs":"Kalát","name:de":"Qalat","name:el":"Καλάτ","name:en":"Qalat","name:es":"Qalat","name:fa":"قلات","name:fr":"Qalât","name:hi":"कलात","name:ja":"カラート","name:ko":"칼라트","name:ml":"ഖലാത്ത്","name:ps":"قلات","name:ru":"Калат","name:uk":"Калат","name:zh":"卡拉特","alt_name":"Qalāt-e Ghiljī;قلات غلجي","name:zh-Hans":"卡拉特","name:zh-Hant":"卡拉特"},"display_name":"قلات‎, قلات ولسوالۍ, زابل ولايت, افغانستان","address":{"city":"قلات‎","county":"قلات ولسوالۍ","state":"زابل ولايت","ISO3166-2-lvl4":"AF-ZAB","country":"افغانستان","country_code":"af"},"osm_type":"node","osm_id":2254096718,"type":"city","location":[66.9065768,32.1033645],"bbox":[66.7465768,31.9433645,67.0665768,32.2633645]}
{"name":"قلعه نو","other_names":{"name:ar":"قلعه نو","name:cs":"Qale-je nou","name:de":"Qala-i-Naw","name:el":"Καλάι Νάου","name:en":"Qala i Naw","name:es":"Qala-e-naw","name:et":"Kalā-i Now","name:fr":"Qala-I-Naw","name:hi":"काला ए नौव","name:ja":"カラエナウ","name:ml":"ഖലായി നൗ","name:ru":"Калайи-Нау","name:uk":"Калаї Нау","name:zh":"瑙堡","alt_name:cs":"Nová Tvrz","name:zh-Hans":"瑙堡","name:zh-Hant":"瑙堡"},"display_name":"قلعه نو, ولسوالی قلعه نو, ولایت بادغیس, افغانستان","address":{"city":"قلعه نو","county":"ولسوالی قلعه نو","state":"ولایت بادغیس","ISO3166-2-lvl4":"AF-BDG","country":"افغانستان","country_code":"af"},"population":58900,"osm_type":"node","osm_id":313319448,"type":"city","location":[63.1337263,34.9883794],"bbox":[62.9737263,34.8283794,63.2937263,35.1483794]}
{"name":"قندوز","other_names":{"name:ar":"قندوز","name:bn":"কুন্দুজ","name:cs":"Kundúz","name:de":"Kundus","name:el":"Κουντούζ","name:en":"Kunduz","name:es":"Kundúz","name:et":"Kunduz","name:eu":"Kunduz","name:fa":"قندوز","name:fr":"Kunduz","name:hi":"कुंदुज़","name:hu":"Kunduz","name:ja":"クンドゥーズ","name:ko":"쿤두즈","name:ks":"قندوز","name:lt":"Kundūzas","name:ml":"കുന്ദുസ്","name:pa":"ਕੁੰਦੂਜ਼","name:ps":"کندز","name:pt":"Kundúz","name:ru":"Кундуз","name:tt":"Кондыз","name:uk":"Кундуз","name:ur":"قندوز","name:zh":"昆都士","alt_name":"Qundūz;Kundûz;Qonduz;Qondûz;Konduz;Kondûz;Kondoz;Qhunduz","name:azb":"قندوز","name:pnb":"قندوز","alt_name:fa":"کُهَندِژ;کهندژ","alt_name:fr":"Kondôz;Koundouz","alt_name:ps":"کُهَندِژ;کهندژ","name:az-Arab":"قندوز","name:zh-Hans":"昆都士","name:zh-Hant":"昆都士"},"display_name":"قندوز, ولسوالی قندوز, ولایت قندوز, افغانستان","address":{"city":"قندوز","county":"ولسوالی قندوز","state":"ولایت قندوز","ISO3166-2-lvl4":"AF-KDZ","country":"افغانستان","country_code":"af"},"population":264100,"osm_type":"node","osm_id":271741224,"type":"city","location":[68.8672916,36.7175566],"bbox":[68.7072916,36.5575566,69.0272916,36.8775566]}
{"name":"کابل","other_names":{"name:af":"Kaboel","name:am":"ካቡል","name:an":"Kabul","name:ar":"كابل","name:az":"Kabil","name:ba":"Кабул","name:be":"Кабул","name:bg":"Кабул","name:bn":"কাবুল","name:bo":"ཁ་པུལ།","name:br":"Kaboul","name:bs":"Kabul","name:ca":"Kabul","name:ce":"Кабул","name:cs":"Kábul","name:cv":"Кабул","name:cy":"Kabul","name:da":"Kabul","name:de":"Kabul","name:el":"Καμπούλ","name:en":"Kabul","name:eo":"Kabulo","name:es":"Kabul","name:et":"Kabul","name:eu":"Kabul","name:fa":"كابل","name:fi":"Kabul","name:fo":"Kabul","name:fr":"Kaboul","name:fy":"Kabûl","name:ga":"Cabúl","name:gd":"Kabul","name:gl":"Cabul - کابل","name:gu":"કાબુલ","name:gv":"Kabul","name:ha":"Kabul","name:he":"קאבול","name:hi":"काबुल","name:hr":"Kabul","name:ht":"Kaboul","name:hu":"Kabul","name:hy":"Քաբուլ","name:ia":"Kabul","name:id":"Kabul","name:ie":"Kabul","name:io":"Kabul","name:is":"Kabúl","name:it":"Kabul","name:ja":"カーブル","name:ka":"ქაბული","name:ki":"Kabul","name:kk":"Кабул","name:km":"ទីក្រុងកាបូល","name:kn":"ಕಾಬುಲ್","name:ko":"카불","name:ks":"کابل","name:ku":"Kabûl","name:ky":"Кабул","name:la":"Cabura","name:lb":"Kabul","name:ln":"Kabul","name:lo":"ຄາບູລ","name:lt":"Kabulas","name:lv":"Kabula","name:mg":"Kabul","name:mi":"Kapūru","name:mk":"Кабул","name:ml":"കാബൂൾ","name:mn":"Кабул","name:mr":"काबुल","name:ms":"Kabul","name:mt":"Kabul","name:my":"ကဘူးလ်မြို့","name:nb":"Kabul","name:ne":"काबुल","name:nl":"Kaboel","name:nn":"Kabul","name:oc":"Kabol","name:or":"କାବୁଲ","name:os":"Кабул","name:pa":"ਕਾਬੁਲ","name:pl":"Kabul","name:ps":"کابل","name:pt":"Cabul","name:qu":"Kawul","name:ro":"Kabul","name:ru":"Кабул","name:rw":"Kabul","name:sc":"Kabul","name:sd":"ڪابل","name:se":"Kabul","name:si":"කාබුල්","name:sk":"Kábul","name:sl":"Kabul","name:sn":"Kabul","name:so":"Kabul","name:sq":"Kabuli","name:sr":"Кабул","name:su":"Kabul","name:sv":"Kabul","name:sw":"Kabul","name:ta":"காபூல்","name:te":"కాబూల్","name:tg":"Кобул","name:th":"คาบูล","name:tl":"Kabul","name:tr":"Kâbil","name:tt":"Кабул","name:ug":"كابۇل","name:uk":"Кабул","name:ur":"کابل","name:uz":"Kobul","name:vi":"Kabul","name:vo":"Kabol","name:yi":"קאבול","name:yo":"Kabul","name:zh":"喀布尔","name:arc":"ܩܐܒܘܠ","name:ast":"Kabul","name:azb":"کابل","name:ckb":"کابول","name:diq":"Kabil","name:frp":"Caboul","name:grc":"Καβούλη","name:kab":"Kabul","name:lrc":"کابول","name:mdf":"Кабул","name:mhr":"Кабул","name:nah":"Cabul","name:ota":"کابل","name:pnb":"کابل","name:syc":"ܩܐܒܘܠ","name:yue":"喀布爾","name:zh-Hans":"喀布尔","name:zh-Hant":"喀布爾","name:be-tarask":"Кабул"},"display_name":"کابل, کابل ښاروالۍ, ولایت كابل, 1001, افغانستان","address":{"city":"کابل","county":"کابل ښاروالۍ","state":"ولایت كابل","ISO3166-2-lvl4":"AF-KAB","postcode":"1001","country":"افغانستان","country_code":"af"},"population":3289000,"osm_type":"node","osm_id":21716195,"type":"city","location":[69.1849082,34.5266431],"bbox":[69.0249082,34.3666431,69.3449082,34.6866431]}
{"name":"کندهار","other_names":{"name:ar":"قندهار","name:bn":"কান্দাহার","name:cs":"Kandahár","name:da":"Kandahar","name:de":"Kandahar","name:el":"Κανταχάρ","name:en":"Kandahar","name:es":"Kandahar","name:et":"Kandahār","name:eu":"Kandahar","name:fa":"قندهار","name:fr":"Kandahar","name:he":"קנדהאר","name:hi":"कांधार","name:hu":"Kandahár","name:hy":"Քանդահար","name:ja":"カンダハール","name:kn":"ಕಾಂದಹಾರ್","name:ko":"칸다하르","name:ks":"قندھار","name:ku":"Qendehar","name:lt":"Kandaharas","name:ml":"കന്ദഹാർ","name:mr":"कंदहार","name:ne":"कान्दाहार","name:pa":"ਕਾਂਦਹਾਰ੍","name:ps":"کندهار","name:ru":"Кандагар","name:sd":"قنڌار","name:tr":"Kandehar","name:tt":"Кәндәһар","name:uk":"Кандагар","name:ur":"قندھار","name:zh":"坎大哈","alt_name":"Qandahār","name:azb":"قندهار","name:ckb":"قەندەهار","name:pnb":"قندھار","name:sdh":"قەندەهار","name:pt-PT":"Candaar","name:az-Arab":"قندهار","name:zh-Hans":"坎大哈","name:zh-Hant":"堪達哈"},"display_name":"کندهار, کندهار ولسوالۍ, کندهار ولايت, 3801, افغانستان","address":{"city":"کندهار","county":"کندهار ولسوالۍ","state":"کندهار ولايت","ISO3166-2-lvl4":"AF-KAN","postcode":"3801","country":"افغانستان","country_code":"af"},"population":450300,"osm_type":"node","osm_id":97993575,"type":"city","location":[65.7157573,31.6205738],"bbox":[65.5557573,31.4605738,65.8757573,31.7805738]}
{"name":"گردیز","other_names":{"name:ar":"غرديز","name:bn":"গারদেজ","name:cs":"Gardéz","name:de":"Gardez","name:el":"Γκαρντέζ","name:en":"Gardez","name:es":"Gardéz","name:fa":"گردیز","name:fr":"Gardêz","name:hi":"गरदेज़","name:ja":"ガルデーズ","name:ko":"가르데즈","name:ks":"گردیز","name:lt":"Gardezas","name:ml":"ഗർദേസ്","name:ps":"گردېز","name:ru":"Гардез","name:uk":"Гардез","name:ur":"گردیز","alt_name":"ګردېزښار","name:azb":"گردیز","name:pnb":"گردیز","name:az-Arab":"گردیز"},"display_name":"گردیز, ګردېزښار, گردېز ولسوالۍ, پکتيا ولايت, افغانستان","address":{"city":"گردیز","county":"گردېز ولسوالۍ","state":"پکتيا ولايت","ISO3166-2-lvl4":"AF-PIA","country":"افغانستان","country_code":"af"},"population":70000,"osm_type":"node","osm_id":994060706,"type":"city","location":[69.2235518,33.6014533],"bbox":[69.0635518,33.4414533,69.3835518,33.7614533],"border":{"name":"ګردېزښار","other_names":{"name:cs":"Gardéz","name:de":"Gardez","name:el":"Γκαρντέζ","name:en":"Gardez","name:es":"Gardez","name:fa":"گردیز","name:fr":"Gardêz","name:ja":"ガルデーズ","name:lt":"GardezasGardezas","name:ps":"ګردېز","name:ru":"Гардез","name:uk":"Гардез","name:ur":"گردیز شہر","name:ar":"غرديز","name:bn":"গারদেজ","name:hi":"गरदेज़","name:ko":"가르데즈","name:ks":"گردیز","name:ml":"ഗർദേസ്","alt_name":"ګردېزښار","name:azb":"گردیز","name:pnb":"گردیز","name:az-Arab":"گردیز","alt":"گردیز","alt:es":"Gardéz","alt:lt":"Gardezas","alt:ps":"گردېز","alt:ur":"گردیز"},"display_name":"ګردېزښار, گردېز ولسوالۍ, پکتيا ولايت, افغانستان","address":{"city":"ګردېزښار","county":"گردېز ولسوالۍ","state":"پکتيا ولايت","ISO3166-2-lvl4":"AF-PIA","country":"افغانستان","country_code":"af"},"population":70000,"osm_type":"way","osm_id":342640046,"type":"city","location":[69.2235518,33.6014533],"bbox":[69.2017209,33.5885964,69.2402202,33.6185496]}}
{"name":"گلبهار","other_names":{"name:ar":"غلبهار","name:en":"Golbahar","name:hi":"गोलबहार","name:ml":"ഗുൽബഹാർ","name:ru":"Гульбахар","name:ur":"گل بہار","name:pnb":"گل بہار"},"display_name":"گلبهار, ولسوالی حصه اول کوهستان, ولایت کاپیسا, افغانستان","address":{"city":"گلبهار","county":"ولسوالی حصه اول کوهستان","state":"ولایت کاپیسا","ISO3166-2-lvl4":"AF-KAP","country":"افغانستان","country_code":"af"},"osm_type":"node","osm_id":3494710763,"type":"city","location":[69.2988247,35.1294088],"bbox":[69.1388247,34.9694088,69.4588247,35.2894088]}
{"name":"لښکرګاه","other_names":{"name:ar":"لشكر كاه","name:bn":"লশকরগাহ","name:cs":"Laškar Gáh","name:de":"Laschkar Gah","name:el":"Λασκάρ Γκαχ","name:en":"Lashkar Gah","name:es":"Lashkar Gah","name:fa":"لشکرگاه","name:fr":"Lashkar Gah","name:hi":"लश्करगाह","name:ja":"ラシュカルガー","name:ko":"라슈카르가","name:ks":"لشکر گاہ","name:lt":"Laškar Gahas","name:ml":"ലഷ്കർഗാ","name:ps":"لښگرگاه","name:ru":"Лашкаргах","name:uk":"Лашкар Гах","name:ur":"لشکر گاہ","name:zh":"拉什卡尔加","name:azb":"لشکرگاه","old_name":"بست","old_name:ar":"بست","old_name:ur":"بست","name:az-Arab":"لشکرگاه","name:zh-Hans":"拉什卡尔加","name:zh-Hant":"拉什卡爾加"},"display_name":"لښکرګاه, لښکرگاه ولسوالۍ, هلمند ولايت, 3901, افغانستان","address":{"city":"لښکرګاه","county":"لښکرگاه ولسوالۍ","state":"هلمند ولايت","ISO3166-2-lvl4":"AF-HEL","postcode":"3901","country":"افغانستان","country_code":"af"},"population":45846,"osm_type":"node","osm_id":312368833,"type":"city","location":[64.3608959,31.5852277],"bbox":[64.2008959,31.4252277,64.5208959,31.7452277]}
{"name":"مزار شريف","other_names":{"name:ar":"مزار شريف","name:ba":"Мазари-Шәриф","name:be":"Мазары-Шарыф","name:bg":"Мазари Шариф","name:bn":"মাজার-ই-শরীফ","name:cs":"Mazár-e Šaríf","name:cv":"Мазари-Шариф","name:de":"Masar-e Scharif","name:el":"Μαζάρι Σαρίφ","name:en":"Mazar-i-Sharif","name:es":"Mazari Sharif","name:et":"Mazār-e Sharīf","name:eu":"Mazar-i-Xarif","name:fa":"‏مزار شريف","name:fr":"Mazâr-e Sharîf","name:hi":"मज़ार-ए-शरीफ़","name:hu":"Mazari Sharif","name:hy":"Մազարի Շարիֆ","name:ja":"マザーリシャリーフ","name:kk":"Мазари-Шариф","name:ko":"마자르이샤리프","name:ks":"مزار شریف","name:lt":"Mazari Šarifas","name:ml":"മസാറി ഷറീഫ്","name:os":"Мазари-Шариф","name:pa":"ਮਜ਼ਾਰ-ਏ-ਸ਼ਰੀਫ਼","name:ps":"مزار شريف","name:ru":"Мазари-Шариф","name:sr":"Мазари Шариф","name:tg":"Мазори Шариф","name:tr":"Mezar-ı Şerif","name:tt":"Мазары-Шәриф","name:uk":"Мазарі-Шаріф","name:ur":"مزار شریف","name:zh":"马扎里沙里夫/馬扎里沙里夫","name:azb":"مزار شریف","name:hyw":"Մազարի Շարիֆ","name:pnb":"مزار شریف","name:az-Arab":"مزار شریف","name:kk-Arab":"مازارىي-شارىيف","name:zh-Hans":"马扎里沙里夫","name:zh-Hant":"馬扎里沙里夫","name:be-tarask":"Мазары-Шарыф"},"display_name":"مزار شريف, ولایت بلخ, افغانستان","address":{"city":"مزار شريف","state":"ولایت بلخ","ISO3166-2-lvl4":"AF-BAL","country":"افغانستان","country_code":"af"},"population":300600,"osm_type":"node","osm_id":2396275966,"type":"city","location":[67.1114085,36.7090366],"bbox":[66.9514085,36.5490366,67.2714085,36.8690366],"border":{"name":"مزار شريف","other_names":{"name:ar":"مزار شريف","name:ba":"Мазари-Шәриф","name:be":"Мазары-Шарыф","name:bg":"Мазари Шариф","name:cs":"Mazár-e Šaríf","name:cv":"Мазари-Шариф","name:de":"Masar-e Scharif","name:el":"Μαζάρι Σαρίφ","name:en":"Mazar-i-Sharif","name:es":"Mazari Sharif","name:fa":"‏مزار شريف","name:hu":"Mazari Sharif","name:hy":"Մազարի Շարիֆ","name:kk":"Мазари-Шариф","name:ks":"مزار شریف","name:lt":"Mazari Šarifas","name:os":"Мазари-Шариф","name:pa":"ਮਜ਼ਾਰ-ਏ-ਸ਼ਰੀਫ਼","name:ps":"مزار شريف","name:ru":"Мазари-Шариф","name:sr":"Мазари Шариф","name:tg":"Мазори Шариф","name:tr":"Mezar-ı Şerif","name:tt":"Мазары-Шәриф","name:uk":"Мазарі-Шаріф","name:ur":"مزار شریف","name:uz":"Mozori-Sharif","name:zh":"马扎里沙里夫/馬扎里沙里夫","name:azb":"مزار شریف","name:hyw":"Մազարի Շարիֆ","name:pnb":"مزار شریف","name:az-Arab":"مزار شریف","name:kk-Arab":"مازارىي-شارىيف","name:zh-Hans":"马扎里沙里夫","name:zh-Hant":"馬扎里沙里夫","name:bn":"মাজার-ই-শরীফ","name:et":"Mazār-e Sharīf","name:eu":"Mazar-i-Xarif","name:fr":"Mazâr-e Sharîf","name:hi":"मज़ार-ए-शरीफ़","name:ja":"マザーリシャリーフ","name:ko":"마자르이샤리프","name:ml":"മസാറി ഷറീഫ്","name:be-tarask":"Мазары-Шарыф"},"display_name":"مزار شريف, ولایت بلخ, 1701, افغانستان","address":{"city":"مزار شريف","state":"ولایت بلخ","ISO3166-2-lvl4":"AF-BAL","postcode":"1701","country":"افغانستان","country_code":"af"},"population":300600,"osm_type":"relation","osm_id":6572774,"type":"administrative","location":[67.1114085,36.7090366],"bbox":[67.0685051,36.6743843,67.1887028,36.7493125]}}
{"name":"میدان ښار","other_names":{"name:ar":"ميدان شهر","name:bn":"ময়দান শহর","name:cs":"Mejdán Šahr","name:el":"Μαϊντάν Σαρ","name:en":"Maidan Shar","name:es":"Maidan Shar","name:fa":"میدان شهر","name:fr":"Maydan Shahr","name:hi":"मैदान शार","name:ja":"マイダーンシャー","name:ko":"마이단하르","name:lt":"Maidanšaras","name:ml":"മൈദാൻഷഹർ","name:ps":"میدان ښار","name:ru":"Майданшахр","name:uk":"Майданшахр","name:ur":"میدان شہر","name:zh":"迈丹城/邁丹城","name:pnb":"میدان شہر","name:zh-Hans":"迈丹城","name:zh-Hant":"邁丹城"},"display_name":"میدان ښار, ميدان ښار ولسوالۍ, ميدان وردگ ولايت, افغانستان","address":{"city":"میدان ښار","county":"ميدان ښار ولسوالۍ","state":"ميدان وردگ ولايت","ISO3166-2-lvl4":"AF-WAR","country":"افغانستان","country_code":"af"},"population":35008,"osm_type":"node","osm_id":2027857333,"type":"city","location":[68.8641053,34.3931258],"bbox":[68.7041053,34.2331258,69.0241053,34.5531258]}
{"name":"میمنه","other_names":{"name:bn":"মাইমানা","name:cs":"Majmana","name:de":"Maimana","name:el":"Μεϊμάνα","name:en":"Maymana","name:es":"Maymanah","name:et":"Meymaneh","name:fr":"Maïmana","name:hi":"मेयमना","name:ja":"マイーマナ","name:ko":"마이마나","name:ml":"മൈമന","name:ru":"Меймене","name:uk":"Меймене","name:ur":"میمنہ","name:zh":"迈马纳/邁馬納","alt_name":"Meymaneh;Maimana","name:zh-Hans":"迈马纳","name:zh-Hant":"邁馬納"},"display_name":"میمنه, ولسوالی ميمنه, ولایت فاریاب / فاریاب ولایتی, افغانستان","address":{"city":"میمنه","county":"ولسوالی ميمنه","state":"ولایت فاریاب / فاریاب ولایتی","ISO3166-2-lvl4":"AF-FYB","country":"افغانستان","country_code":"af"},"population":75900,"osm_type":"node","osm_id":312575332,"type":"city","location":[64.7836993,35.9208899],"bbox":[64.6236993,35.7608899,64.9436993,36.0808899]}
{"name":"هرات","other_names":{"name:ar":"هراة","name:be":"Герат","name:bg":"Херат","name:bn":"হেরাত","name:cs":"Herát","name:da":"Herat","name:de":"Herat","name:el":"Χεράτ","name:en":"Herat","name:es":"Herāt","name:et":"Herāt","name:eu":"Herat","name:fa":"هرات","name:fr":"Hérat","name:he":"הראט","name:hi":"हेरात","name:hy":"Հերաթ","name:ja":"ヘラート","name:ka":"ჰერათი","name:kn":"ಹೆರಾತ್","name:ko":"헤라트","name:lt":"Heratas","name:ml":"ഹെറാത്ത്","name:mn":"Херат","name:ne":"हेरात","name:pa":"ਹੇਰਾਤ","name:ps":"هرات","name:ro":"Herat","name:ru":"Герат","name:sd":"ھرات","name:sr":"Херат","name:th":"เฮรัต","name:tr":"Herat","name:tt":"Һәрат","name:ug":"ھېرات","name:uk":"Герат","name:ur":"ہرات","name:yi":"העראַט","name:zh":"赫拉特","name:zu":"UHerat","alt_name":"Hirat","name:ast":"Herat","name:azb":"هرات","name:grc":"Ἀρτακόανα","name:hyw":"Հերաթ","name:pnb":"ہرات","old_name":"Aria","alt_name:fr":"Hérât","alt_name:grc":"Ἀρεία;Ἀρία","name:zh-Hans":"赫拉特","name:zh-Hant":"赫拉特","name:be-tarask":"Герат"},"display_name":"هرات, ولایت هرات, 3001, افغانستان","address":{"city":"هرات","state_district":"هرات","state":"ولایت هرات","ISO3166-2-lvl4":"AF-HER","postcode":"3001","country":"افغانستان","country_code":"af"},"population":349000,"osm_type":"node","osm_id":312432807,"type":"city","location":[62.2163252,34.3491443],"bbox":[62.0563252,34.1891443,62.3763252,34.5091443]}
{"display_name":"ولسوالی دره, ولایت پنجشیر, افغانستان","address":{"state_district":"ولسوالی دره","state":"ولایت پنجشیر","ISO3166-2-lvl4":"AF-PAN","country":"افغانستان","country_code":"af"},"osm_type":"node","osm_id":12964210716,"type":"city","location":[69.6690243,35.2789804],"bbox":[69.5090243,35.1189804,69.8290243,35.4389804]}
