{"name":"Abja-Paluoja","other_names":{"name:de":"Abja-Paluoja","name:en":"Abja-Paluoja","name:lt":"Abja Paluoja","name:ru":"Абья-Палуоя","old_name:de":"Abia-Palloja"},"display_name":"Abja-Paluoja, Abja-Paluoja linn, Mulgi vald, Viljandi maakond, Eesti","address":{"town":"Abja-Paluoja","municipality":"Mulgi vald","ISO3166-2-lvl7":"EE-480","county":"Viljandi maakond","ISO3166-2-lvl6":"EE-84","country":"Eesti","country_code":"ee"},"population":1041,"osm_type":"node","osm_id":448033902,"type":"town","location":[25.3584152,58.1266278],"bbox":[25.3184152,58.0866278,25.3984152,58.1666278],"border":{"name":"Abja-Paluoja linn","other_names":{"name:et":"Abja-Paluoja linn","name:lt":"Abja Paluojos miestas","name:ru":"город Абья-Палуоя","alt_name":"Abja-Paluoja","name:de":"Abja-Paluoja","name:en":"Abja-Paluoja","old_name:de":"Abia-Palloja","alt":"Abja-Paluoja","alt:lt":"Abja Paluoja","alt:ru":"Абья-Палуоя"},"display_name":"Abja-Paluoja linn, Mulgi vald, Viljandi maakond, Eesti","address":{"town":"Abja-Paluoja linn","municipality":"Mulgi vald","ISO3166-2-lvl7":"EE-480","county":"Viljandi maakond","ISO3166-2-lvl6":"EE-84","country":"Eesti","country_code":"ee"},"population":1041,"osm_type":"relation","osm_id":352817,"type":"administrative","location":[25.3584152,58.1266278],"bbox":[25.3350575,58.1159531,25.3761424,58.1452427]}}
{"name":"Antsla","other_names":{"name:de":"Antsla","name:en":"Antsla","name:lt":"Antsla","name:ru":"Антсла","name:uk":"Антсла","old_name:de":"Anzen"},"display_name":"Antsla, Antsla linn, Antsla vald, Võru maakond, Eesti","address":{"town":"Antsla","municipality":"Antsla vald","ISO3166-2-lvl7":"EE-142","county":"Võru maakond","ISO3166-2-lvl6":"EE-87","country":"Eesti","country_code":"ee"},"population":1276,"osm_type":"node","osm_id":283685722,"type":"town","location":[26.5288641,57.8292138],"bbox":[26.4888641,57.7892138,26.5688641,57.8692138],"border":{"name":"Antsla linn","other_names":{"name:et":"Antsla linn","name:lt":"Antslos miestas","alt_name":"Antsla","name:de":"Antsla","name:en":"Antsla","name:ru":"Антсла","name:uk":"Антсла","old_name:de":"Anzen","alt":"Antsla","alt:lt":"Antsla"},"display_name":"Antsla linn, Antsla vald, Võru maakond, Eesti","address":{"town":"Antsla linn","municipality":"Antsla vald","ISO3166-2-lvl7":"EE-142","county":"Võru maakond","ISO3166-2-lvl6":"EE-87","country":"Eesti","country_code":"ee"},"population":1276,"osm_type":"relation","osm_id":353669,"type":"administrative","location":[26.5288641,57.8292138],"bbox":[26.5110649,57.8167039,26.5532057,57.8392825]}}
{"name":"Elva","other_names":{"name:en":"Elva","name:lt":"Elva","name:ru":"Элва"},"display_name":"Elva, Elva linn, Elva vald, Tartu maakond, Eesti","address":{"town":"Elva","municipality":"Elva vald","ISO3166-2-lvl7":"EE-171","county":"Tartu maakond","ISO3166-2-lvl6":"EE-79","country":"Eesti","country_code":"ee"},"population":6258,"osm_type":"node","osm_id":30674074,"type":"town","location":[26.4131027,58.2233379],"bbox":[26.3731027,58.1833379,26.4531027,58.2633379],"border":{"name":"Elva linn","other_names":{"name:et":"Elva linn","name:lt":"Elvos miestas","name:ru":"город Элва","alt_name":"Elva","name:en":"Elva","alt":"Elva","alt:lt":"Elva","alt:ru":"Элва"},"display_name":"Elva linn, Elva vald, Tartu maakond, Eesti","address":{"town":"Elva linn","municipality":"Elva vald","ISO3166-2-lvl7":"EE-171","county":"Tartu maakond","ISO3166-2-lvl6":"EE-79","country":"Eesti","country_code":"ee"},"population":6258,"osm_type":"relation","osm_id":350811,"type":"administrative","location":[26.4131027,58.2233379],"bbox":[26.3849002,58.2081236,26.459578,58.2440714]}}
{"name":"Haapsalu","other_names":{"name:de":"Haapsalu","name:en":"Haapsalu","name:lt":"Hapsalu","name:lv":"Hāpsalu","name:ru":"Хаапсалу","name:sv":"Hapsal","name:uk":"Хаапсалу","old_name:de":"Hapsal"},"display_name":"Haapsalu, Haapsalu linn, Lääne maakond, Eesti","address":{"town":"Haapsalu","municipality":"Haapsalu linn","ISO3166-2-lvl7":"EE-184","county":"Lääne maakond","ISO3166-2-lvl6":"EE-56","country":"Eesti","country_code":"ee"},"population":11593,"osm_type":"node","osm_id":30127112,"type":"town","location":[23.5414798,58.9399019],"bbox":[23.5014798,58.8999019,23.5814798,58.9799019],"border":{"name":"Haapsalu linn","other_names":{"name:et":"Haapsalu linn","name:lt":"Hapsalu miestas","name:ru":"город Хаапсалу","alt_name":"Haapsalu","name:de":"Haapsalu","name:en":"Haapsalu","name:lv":"Hāpsalu","name:sv":"Hapsal","name:uk":"Хаапсалу","old_name:de":"Hapsal","alt":"Haapsalu","alt:lt":"Hapsalu","alt:ru":"Хаапсалу"},"display_name":"Haapsalu linn, Lääne maakond, Eesti","address":{"town":"Haapsalu linn","municipality":"Haapsalu linn","ISO3166-2-lvl7":"EE-184","county":"Lääne maakond","ISO3166-2-lvl6":"EE-56","country":"Eesti","country_code":"ee"},"population":11593,"osm_type":"relation","osm_id":350594,"type":"administrative","location":[23.5414798,58.9399019],"bbox":[23.4857897,58.9045263,23.5743169,58.9670643]}}
{"name":"Jõgeva","other_names":{"name:de":"Jõgeva","name:et":"Jõgeva","name:lt":"Jegeva","name:ru":"Йыгева","name:uk":"Йигева","old_name:de":"Laisholm"},"display_name":"Jõgeva, Jõgeva vald, Jõgeva maakond, 48306, Eesti","address":{"town":"Jõgeva","municipality":"Jõgeva vald","ISO3166-2-lvl7":"EE-247","county":"Jõgeva maakond","ISO3166-2-lvl6":"EE-50","postcode":"48306","country":"Eesti","country_code":"ee"},"population":5813,"osm_type":"node","osm_id":292379707,"type":"town","location":[26.3872444,58.7441059],"bbox":[26.3472444,58.7041059,26.4272444,58.7841059]}
{"name":"Jõhvi","other_names":{"name:de":"Jõhvi","name:en":"Jõhvi","name:lt":"Jehvis","name:ru":"Йыхви","name:uk":"Йихві","int_name":"Jõhvi","old_name:de":"Jewe"},"display_name":"Jõhvi, Jõhvi linn, Jõhvi vald, Ida-Viru maakond, Eesti","address":{"town":"Jõhvi","municipality":"Jõhvi vald","ISO3166-2-lvl7":"EE-251","county":"Ida-Viru maakond","ISO3166-2-lvl6":"EE-45","country":"Eesti","country_code":"ee"},"population":11600,"osm_type":"node","osm_id":35311924,"type":"town","location":[27.4135654,59.3579433],"bbox":[27.3735654,59.3179433,27.4535654,59.3979433],"border":{"name":"Jõhvi linn","other_names":{"name:et":"Jõhvi linn","name:lt":"Jehvis","name:ru":"Йыхви","alt_name":"Jõhvi","name:de":"Jõhvi","name:en":"Jõhvi","name:uk":"Йихві","int_name":"Jõhvi","old_name:de":"Jewe","alt":"Jõhvi"},"display_name":"Jõhvi linn, Jõhvi vald, Ida-Viru maakond, Eesti","address":{"town":"Jõhvi linn","municipality":"Jõhvi vald","ISO3166-2-lvl7":"EE-251","county":"Ida-Viru maakond","ISO3166-2-lvl6":"EE-45","country":"Eesti","country_code":"ee"},"population":11600,"osm_type":"relation","osm_id":2133227,"type":"administrative","location":[27.4135654,59.3579433],"bbox":[27.3758502,59.3464394,27.4717903,59.3683889]}}
{"name":"Kallaste","other_names":{"name:en":"Kallaste","name:lt":"Kalastė","name:ru":"Калласте","name:uk":"Калласте"},"display_name":"Kallaste, Kallaste linn, Peipsiääre vald, Tartu maakond, Eesti","address":{"town":"Kallaste","municipality":"Peipsiääre vald","ISO3166-2-lvl7":"EE-586","county":"Tartu maakond","ISO3166-2-lvl6":"EE-79","country":"Eesti","country_code":"ee"},"population":1115,"osm_type":"node","osm_id":31500814,"type":"town","location":[27.1631379,58.6631199],"bbox":[27.1231379,58.6231199,27.2031379,58.7031199],"border":{"name":"Kallaste linn","other_names":{"name:et":"Kallaste linn","name:ru":"город Калласте","alt_name":"Kallaste","name:en":"Kallaste","name:lt":"Kalastė","name:uk":"Калласте","alt":"Kallaste","alt:ru":"Калласте"},"display_name":"Kallaste linn, Peipsiääre vald, Tartu maakond, Eesti","address":{"town":"Kallaste linn","municipality":"Peipsiääre vald","ISO3166-2-lvl7":"EE-586","county":"Tartu maakond","ISO3166-2-lvl6":"EE-79","country":"Eesti","country_code":"ee"},"population":1115,"osm_type":"relation","osm_id":353212,"type":"administrative","location":[27.1631379,58.6631199],"bbox":[27.138763,58.6530713,27.1701597,58.6748772]}}
{"name":"Kärdla","other_names":{"name:de":"Kärdla","name:lt":"Kerdla","name:ru":"Кярдла","name:sv":"Kärrdal","name:uk":"Кярдла","old_name:de":"Kertel"},"display_name":"Kärdla, Kärdla linn, Hiiumaa vald, Hiiu maakond, Eesti","address":{"town":"Kärdla","municipality":"Hiiumaa vald","ISO3166-2-lvl7":"EE-205","county":"Hiiu maakond","ISO3166-2-lvl6":"EE-39","country":"Eesti","country_code":"ee"},"population":3634,"osm_type":"node","osm_id":286918893,"type":"town","location":[22.7411446,59.0012422],"bbox":[22.7011446,58.9612422,22.7811446,59.0412422],"border":{"name":"Kärdla linn","other_names":{"name:et":"Kärdla linn","name:lt":"Kerdla","name:ru":"Кярдла","name:de":"Kärdla","name:sv":"Kärrdal","name:uk":"Кярдла","old_name:de":"Kertel","alt":"Kärdla"},"display_name":"Kärdla linn, Hiiumaa vald, Hiiu maakond, Eesti","address":{"town":"Kärdla linn","municipality":"Hiiumaa vald","ISO3166-2-lvl7":"EE-205","county":"Hiiu maakond","ISO3166-2-lvl6":"EE-39","country":"Eesti","country_code":"ee"},"population":3634,"osm_type":"relation","osm_id":2133232,"type":"administrative","location":[22.7411446,59.0012422],"bbox":[22.7192591,58.9796173,22.7643258,59.0103756]}}
{"name":"Karksi-Nuia","other_names":{"name:de":"Karksi-Nuia","name:en":"Karksi-Nuia","name:et":"Karksi-Nuia","name:lt":"Karksi Nuja","name:ru":"Каркси-Нуйа","name:uk":"Каркси-Нуйа","old_name:de":"Karkus-Nuija"},"display_name":"Karksi-Nuia, Mulgi vald, Viljandi maakond, 69103, Eesti","address":{"town":"Karksi-Nuia","municipality":"Mulgi vald","ISO3166-2-lvl7":"EE-480","county":"Viljandi maakond","ISO3166-2-lvl6":"EE-84","postcode":"69103","country":"Eesti","country_code":"ee"},"population":1975,"osm_type":"node","osm_id":295044763,"type":"town","location":[25.5470344,58.1027546],"bbox":[25.5070344,58.0627546,25.5870344,58.1427546],"border":{"name":"Karksi-Nuia linn","other_names":{"name:et":"Karksi-Nuia linn","name:lt":"Karksi Nujos miestas","alt_name":"Karksi-Nuia"},"display_name":"Karksi-Nuia linn, Mulgi vald, Viljandi maakond, Eesti","address":{"city_district":"Karksi-Nuia linn","municipality":"Mulgi vald","ISO3166-2-lvl7":"EE-480","county":"Viljandi maakond","ISO3166-2-lvl6":"EE-84","country":"Eesti","country_code":"ee"},"osm_type":"relation","osm_id":353862,"type":"administrative","location":[25.55132992404987,58.1016667],"bbox":[25.5351638,58.0910283,25.5681549,58.1127152]}}
{"name":"Kehra","other_names":{"name:de":"Kehra","name:en":"Kehra","name:lt":"Kehra","name:ru":"Кехра","name:uk":"Кехра","old_name:de":"Kedder"},"display_name":"Kehra, Kehra linn, Anija vald, Harju maakond, Eesti","address":{"town":"Kehra","municipality":"Anija vald","ISO3166-2-lvl7":"EE-141","county":"Harju maakond","ISO3166-2-lvl6":"EE-37","country":"Eesti","country_code":"ee"},"population":2641,"osm_type":"node","osm_id":742645036,"type":"town","location":[25.3292753,59.3363172],"bbox":[25.2892753,59.2963172,25.3692753,59.3763172],"border":{"name":"Kehra linn","other_names":{"name:et":"Kehra linn","name:lt":"Kehros miestas","alt_name":"Kehra","name:de":"Kehra","name:en":"Kehra","name:ru":"Кехра","name:uk":"Кехра","old_name:de":"Kedder","alt":"Kehra","alt:lt":"Kehra"},"display_name":"Kehra linn, Anija vald, Harju maakond, Eesti","address":{"town":"Kehra linn","municipality":"Anija vald","ISO3166-2-lvl7":"EE-141","county":"Harju maakond","ISO3166-2-lvl6":"EE-37","country":"Eesti","country_code":"ee"},"population":2641,"osm_type":"relation","osm_id":351550,"type":"administrative","location":[25.3292753,59.3363172],"bbox":[25.3093628,59.3251434,25.3570648,59.3468167]}}
{"name":"Keila","other_names":{"name:de":"Keila","name:en":"Keila","name:lt":"Keila","name:ru":"Кейла","name:uk":"Кейла","old_name:de":"Kegel"},"display_name":"Keila, Keila linn, Harju maakond, Eesti","address":{"town":"Keila","municipality":"Keila linn","ISO3166-2-lvl7":"EE-296","county":"Harju maakond","ISO3166-2-lvl6":"EE-37","country":"Eesti","country_code":"ee"},"population":10030,"osm_type":"node","osm_id":29683679,"type":"town","location":[24.420907,59.3110918],"bbox":[24.380907,59.2710918,24.460907,59.3510918],"border":{"name":"Keila linn","other_names":{"name:et":"Keila linn","name:lt":"Keila","name:ru":"Кейла","name:uk":"Кейла","alt_name":"Keila","name:vro":"Keilä liin","alt_name:et":"Keila","alt_name:vro":"Keilä","name:de":"Keila","name:en":"Keila","old_name:de":"Kegel","alt":"Keila"},"display_name":"Keila linn, Harju maakond, Eesti","address":{"town":"Keila linn","municipality":"Keila linn","ISO3166-2-lvl7":"EE-296","county":"Harju maakond","ISO3166-2-lvl6":"EE-37","country":"Eesti","country_code":"ee"},"population":10030,"osm_type":"relation","osm_id":2133229,"type":"administrative","location":[24.420907,59.3110918],"bbox":[24.3307894,59.2961319,24.4422344,59.3265682]}}
{"name":"Kilingi-Nõmme","other_names":{"name:lt":"Kilingi Nemė","name:lv":"Kilingi-Nemme","name:ru":"Килинги-Нымме"},"display_name":"Kilingi-Nõmme, Kilingi-Nõmme linn, Saarde vald, Pärnu maakond, Eesti","address":{"town":"Kilingi-Nõmme","municipality":"Saarde vald","ISO3166-2-lvl7":"EE-712","county":"Pärnu maakond","ISO3166-2-lvl6":"EE-68","country":"Eesti","country_code":"ee"},"population":2295,"osm_type":"node","osm_id":34819568,"type":"town","location":[24.9627322,58.1530218],"bbox":[24.9227322,58.1130218,25.0027322,58.1930218],"border":{"name":"Kilingi-Nõmme linn","other_names":{"name:et":"Kilingi-Nõmme linn","name:lt":"Kilingi Nemės miestas","alt_name":"Kilingi-Nõmme","name:lv":"Kilingi-Nemme","name:ru":"Килинги-Нымме","alt":"Kilingi-Nõmme","alt:lt":"Kilingi Nemė"},"display_name":"Kilingi-Nõmme linn, Saarde vald, Pärnu maakond, Eesti","address":{"town":"Kilingi-Nõmme linn","municipality":"Saarde vald","ISO3166-2-lvl7":"EE-712","county":"Pärnu maakond","ISO3166-2-lvl6":"EE-68","country":"Eesti","country_code":"ee"},"population":2295,"osm_type":"relation","osm_id":352530,"type":"administrative","location":[24.9627322,58.1530218],"bbox":[24.9107656,58.1411245,24.9921179,58.165772]}}
{"name":"Kiviõli","other_names":{"name:et":"Kiviõli","name:lt":"Kivielis","name:ru":"Кивиыли","name:uk":"Ківіилі"},"display_name":"Kiviõli, Lüganuse vald, Ida-Viru maakond, 43124, Eesti","address":{"town":"Kiviõli","municipality":"Lüganuse vald","ISO3166-2-lvl7":"EE-442","county":"Ida-Viru maakond","ISO3166-2-lvl6":"EE-45","postcode":"43124","country":"Eesti","country_code":"ee"},"population":4844,"osm_type":"node","osm_id":579964361,"type":"town","location":[26.9684677,59.355367],"bbox":[26.9284677,59.315367,27.0084677,59.395367],"border":{"name":"Kiviõli linn","other_names":{"name:et":"Kiviõli linn","name:lt":"Kivielio miestas","name:ru":"город Кивиыли","alt_name":"Kiviõli","alt_name:de":"Steinöl"},"display_name":"Kiviõli linn, Lüganuse vald, Ida-Viru maakond, Eesti","address":{"city_district":"Kiviõli linn","municipality":"Lüganuse vald","ISO3166-2-lvl7":"EE-442","county":"Ida-Viru maakond","ISO3166-2-lvl6":"EE-45","country":"Eesti","country_code":"ee"},"osm_type":"relation","osm_id":352104,"type":"administrative","location":[26.96946970763556,59.353026400000005],"bbox":[26.9153547,59.3373021,27.0244608,59.3688035]}}
{"name":"Kohtla-Järve","other_names":{"name:de":"Kohtla-Järve","name:lt":"Kohtla Jervė","name:ru":"Кохтла-Ярве","name:uk":"Кохтла-Ярве","old_name:de":"Kochtel-Türpsal"},"display_name":"Kohtla-Järve, Kohtla-Järve linn, Ida-Viru maakond, Eesti","address":{"town":"Kohtla-Järve","municipality":"Kohtla-Järve linn","ISO3166-2-lvl7":"EE-321","county":"Ida-Viru maakond","ISO3166-2-lvl6":"EE-45","country":"Eesti","country_code":"ee"},"population":44500,"osm_type":"node","osm_id":242166775,"type":"town","location":[27.2880288,59.4025488],"bbox":[27.2480288,59.3625488,27.3280288,59.4425488],"border":{"name":"Kohtla-Järve linn","other_names":{"name:et":"Kohtla-Järve linn","name:ru":"Кохтла-Ярве","alt_name":"Kohtla-Järve","name:de":"Kohtla-Järve","name:lt":"Kohtla Jervė","name:uk":"Кохтла-Ярве","old_name:de":"Kochtel-Türpsal","alt":"Kohtla-Järve"},"display_name":"Kohtla-Järve linn, Ida-Viru maakond, Eesti","address":{"town":"Kohtla-Järve linn","municipality":"Kohtla-Järve linn","ISO3166-2-lvl7":"EE-321","county":"Ida-Viru maakond","ISO3166-2-lvl6":"EE-45","country":"Eesti","country_code":"ee"},"population":44500,"osm_type":"relation","osm_id":8196168,"type":"administrative","location":[27.2880288,59.4025488],"bbox":[27.1974454,59.2964716,27.583527,59.4199122]}}
{"name":"Kunda","other_names":{"name:en":"Kunda","name:et":"Kunda","name:lt":"Kunda","name:ru":"Кунда","name:uk":"Кунда"},"display_name":"Kunda, Viru-Nigula vald, Lääne-Viru maakond, 44108, Eesti","address":{"town":"Kunda","municipality":"Viru-Nigula vald","ISO3166-2-lvl7":"EE-903","county":"Lääne-Viru maakond","ISO3166-2-lvl6":"EE-60","postcode":"44108","country":"Eesti","country_code":"ee"},"population":3669,"osm_type":"node","osm_id":29120272,"type":"town","location":[26.5175577,59.5021795],"bbox":[26.4775577,59.4621795,26.5575577,59.5421795],"border":{"name":"Kunda linn","other_names":{"name:et":"Kunda linn","name:lt":"Kundos miestas","name:ru":"город Кунда","alt_name":"Kunda"},"display_name":"Kunda linn, Viru-Nigula vald, Lääne-Viru maakond, Eesti","address":{"city_district":"Kunda linn","municipality":"Viru-Nigula vald","ISO3166-2-lvl7":"EE-903","county":"Lääne-Viru maakond","ISO3166-2-lvl6":"EE-60","country":"Eesti","country_code":"ee"},"osm_type":"relation","osm_id":353415,"type":"administrative","location":[26.52922221361245,59.50554135],"bbox":[26.4945392,59.4833866,26.5743007,59.5279911]}}
{"name":"Kuressaare","other_names":{"name:de":"Kuressaare","name:en":"Kuressaare","name:lt":"Kuresarė","name:ru":"Курессааре","name:uk":"Курессааре","old_name:de":"Arensburg"},"display_name":"Kuressaare, Kuressaare linn, Saaremaa vald, Saare maakond, Eesti","address":{"town":"Kuressaare","municipality":"Saaremaa vald","ISO3166-2-lvl7":"EE-714","county":"Saare maakond","ISO3166-2-lvl6":"EE-74","country":"Eesti","country_code":"ee"},"population":15170,"osm_type":"node","osm_id":753254956,"type":"town","location":[22.4849207,58.2527693],"bbox":[22.4449207,58.2127693,22.5249207,58.2927693],"border":{"name":"Kuressaare linn","other_names":{"name:de":"Arensburg","name:en":"Kuressaare","name:et":"Kuressaare linn","name:lt":"Kuresarė","name:ru":"Курессааре","name:uk":"Курессааре","alt_name":"Kuressaare","old_name:de":"Arensburg","alt":"Kuressaare","alt:de":"Kuressaare"},"display_name":"Kuressaare linn, Saaremaa vald, Saare maakond, Eesti","address":{"town":"Kuressaare linn","municipality":"Saaremaa vald","ISO3166-2-lvl7":"EE-714","county":"Saare maakond","ISO3166-2-lvl6":"EE-74","country":"Eesti","country_code":"ee"},"population":15170,"osm_type":"relation","osm_id":350695,"type":"administrative","location":[22.4849207,58.2527693],"bbox":[22.440487,58.2128334,22.5273701,58.2732539]}}
{"name":"Lihula","other_names":{"name:de":"Lihula","name:en":"Lihula","name:et":"Lihula","name:lt":"Lihula","name:ru":"Лихула","name:uk":"Лихула","old_name:de":"Leal"},"display_name":"Lihula, Lääneranna vald, Pärnu maakond, 90304, Eesti","address":{"town":"Lihula","municipality":"Lääneranna vald","ISO3166-2-lvl7":"EE-430","county":"Pärnu maakond","ISO3166-2-lvl6":"EE-68","postcode":"90304","country":"Eesti","country_code":"ee"},"population":1614,"osm_type":"node","osm_id":34819436,"type":"town","location":[23.8324163,58.6846426],"bbox":[23.7924163,58.6446426,23.8724163,58.7246426],"border":{"name":"Lihula linn","other_names":{"name:et":"Lihula linn","name:lt":"Lihulos miestas","alt_name":"Lihula"},"display_name":"Lihula linn, Lääneranna vald, Pärnu maakond, Eesti","address":{"city_district":"Lihula linn","municipality":"Lääneranna vald","ISO3166-2-lvl7":"EE-430","county":"Pärnu maakond","ISO3166-2-lvl6":"EE-68","country":"Eesti","country_code":"ee"},"osm_type":"relation","osm_id":354318,"type":"administrative","location":[23.82875662564642,58.68505075],"bbox":[23.8087449,58.6719846,23.854147,58.6981661]}}
{"name":"Loksa","other_names":{"name:en":"Loksa","name:et":"Loksa","name:lt":"Loksa","name:ru":"Локса","name:uk":"Локса"},"display_name":"Loksa, Loksa linn, Harju maakond, 74805, Eesti","address":{"town":"Loksa","municipality":"Loksa linn","ISO3166-2-lvl7":"EE-424","county":"Harju maakond","ISO3166-2-lvl6":"EE-37","postcode":"74805","country":"Eesti","country_code":"ee"},"population":3041,"osm_type":"node","osm_id":30436859,"type":"town","location":[25.7220243,59.5816105],"bbox":[25.6820243,59.5416105,25.7620243,59.6216105]}
{"name":"Maardu","other_names":{"name:de":"Maardu","name:en":"Maardu","name:lt":"Mardu","name:lv":"Mārdu","name:ru":"Маарду","old_name:de":"Maart"},"display_name":"Maardu, Maardu linn, Harju maakond, Eesti","address":{"town":"Maardu","municipality":"Maardu linn","ISO3166-2-lvl7":"EE-446","county":"Harju maakond","ISO3166-2-lvl6":"EE-37","country":"Eesti","country_code":"ee"},"population":16529,"osm_type":"node","osm_id":637658886,"type":"town","location":[24.9896751,59.468192],"bbox":[24.9496751,59.428192,25.0296751,59.508192],"border":[{"name":"Maardu linn","other_names":{"name:en":"Maardu","name:et":"Maardu linn","name:lv":"Mārdu","name:ru":"Маарду","ISO3166-2":"EE-446"},"display_name":"Maardu linn, Harju maakond, Eesti","address":{"municipality":"Maardu linn","ISO3166-2-lvl7":"EE-446","county":"Harju maakond","ISO3166-2-lvl6":"EE-37","country":"Eesti","country_code":"ee"},"osm_type":"relation","osm_id":352021,"type":"administrative","location":[24.967908624030485,59.4654508],"bbox":[24.9146237,59.4349289,25.0323692,59.4955953]},{"name":"Maardu linn","other_names":{"name:en":"Maardu","name:et":"Maardu linn","name:lv":"Mārdu","name:ru":"Маарду","alt_name":"Maardu","name:de":"Maardu","name:lt":"Mardu","old_name:de":"Maart","alt":"Maardu"},"display_name":"Maardu linn, Harju maakond, Eesti","address":{"town":"Maardu linn","municipality":"Maardu linn","ISO3166-2-lvl7":"EE-446","county":"Harju maakond","ISO3166-2-lvl6":"EE-37","country":"Eesti","country_code":"ee"},"population":16529,"osm_type":"relation","osm_id":8196805,"type":"administrative","location":[24.9896751,59.468192],"bbox":[24.9146237,59.4349289,25.0323692,59.4955953]}]}
{"name":"Mõisaküla","other_names":{"name:et":"Mõisaküla","name:lt":"Meisakiula","name:lv":"Meizakila","name:ru":"Мыйзакюла","name:uk":"Мийзакюла","alt_name:lv":"Muižciems","old_name:lv":"Plātere"},"display_name":"Mõisaküla, Mõisaküla linn, Mulgi vald, Viljandi maakond, Eesti","address":{"town":"Mõisaküla","municipality":"Mulgi vald","ISO3166-2-lvl7":"EE-480","county":"Viljandi maakond","ISO3166-2-lvl6":"EE-84","country":"Eesti","country_code":"ee"},"population":775,"osm_type":"node","osm_id":1142692489,"type":"town","location":[25.1836234,58.0920278],"bbox":[25.1436234,58.0520278,25.2236234,58.1320278],"border":{"name":"Mõisaküla linn","other_names":{"name:et":"Mõisaküla linn","name:lt":"Meisakiulos miestas","name:lv":"Meizakilas pilsēta","name:ru":"город Мыйзакюла","alt_name":"Mõisaküla","name:uk":"Мийзакюла","alt_name:lv":"Muižciems","old_name:lv":"Plātere","alt":"Mõisaküla","alt:et":"Mõisaküla","alt:lt":"Meisakiula","alt:lv":"Meizakila","alt:ru":"Мыйзакюла"},"display_name":"Mõisaküla linn, Mulgi vald, Viljandi maakond, Eesti","address":{"town":"Mõisaküla linn","municipality":"Mulgi vald","ISO3166-2-lvl7":"EE-480","county":"Viljandi maakond","ISO3166-2-lvl6":"EE-84","country":"Eesti","country_code":"ee"},"population":775,"osm_type":"relation","osm_id":352672,"type":"administrative","location":[25.1836234,58.0920278],"bbox":[25.1659543,58.0861114,25.1995107,58.1019723]}}
{"name":"Mustvee","other_names":{"name:de":"Mustvee","name:en":"Mustvee","name:et":"Mustvee","name:lt":"Mustvė","name:ru":"Муствеэ","old_name:de":"Tschorna"},"display_name":"Mustvee, Mustvee vald, Jõgeva maakond, 49603, Eesti","address":{"town":"Mustvee","municipality":"Mustvee vald","ISO3166-2-lvl7":"EE-486","county":"Jõgeva maakond","ISO3166-2-lvl6":"EE-50","postcode":"49603","country":"Eesti","country_code":"ee"},"population":1596,"osm_type":"node","osm_id":30564962,"type":"town","location":[26.9347826,58.8484008],"bbox":[26.8947826,58.8084008,26.9747826,58.8884008],"border":{"name":"Mustvee linn","other_names":{"name:et":"Mustvee linn","name:lt":"Mustvės miestas","name:ru":"город Муствеэ","alt_name":"Mustvee"},"display_name":"Mustvee linn, Mustvee vald, Jõgeva maakond, Eesti","address":{"city_district":"Mustvee linn","municipality":"Mustvee vald","ISO3166-2-lvl7":"EE-486","county":"Jõgeva maakond","ISO3166-2-lvl6":"EE-50","country":"Eesti","country_code":"ee"},"osm_type":"relation","osm_id":353384,"type":"administrative","location":[26.93008280945194,58.847907199999995],"bbox":[26.9088384,58.8285308,26.9563441,58.867212]}}
{"name":"Narva-Jõesuu","other_names":{"name:lt":"Narva Jeesū","name:lv":"Narva-Jēsū","name:ru":"Нарва-Йыэсуу","name:uk":"Нарва-Йиесуу","alt_name:ru":"Усть-Нарва","old_name:de":"Hungerburg"},"display_name":"Narva-Jõesuu, Narva-Jõesuu linn, Ida-Viru maakond, Eesti","address":{"town":"Narva-Jõesuu","municipality":"Narva-Jõesuu linn","ISO3166-2-lvl7":"EE-514","county":"Ida-Viru maakond","ISO3166-2-lvl6":"EE-45","country":"Eesti","country_code":"ee"},"population":2602,"osm_type":"node","osm_id":29926226,"type":"town","location":[28.0421001,59.4596435],"bbox":[28.0021001,59.4196435,28.0821001,59.4996435],"border":{"name":"Narva-Jõesuu linn","other_names":{"name:et":"Narva-Jõesuu linn","name:lt":"Narva Jeesū miestas","name:ru":"город Нарва-Йыэсуу","alt_name":"Narva-Jõesuu","name:lv":"Narva-Jēsū","name:uk":"Нарва-Йиесуу","alt_name:ru":"Усть-Нарва","old_name:de":"Hungerburg","alt":"Narva-Jõesuu","alt:lt":"Narva Jeesū","alt:ru":"Нарва-Йыэсуу"},"display_name":"Narva-Jõesuu linn, Ida-Viru maakond, Eesti","address":{"town":"Narva-Jõesuu linn","municipality":"Narva-Jõesuu linn","ISO3166-2-lvl7":"EE-514","county":"Ida-Viru maakond","ISO3166-2-lvl6":"EE-45","country":"Eesti","country_code":"ee"},"population":2602,"osm_type":"relation","osm_id":352653,"type":"administrative","location":[28.0421001,59.4596435],"bbox":[27.9599363,59.4124432,28.0829315,59.470102]}}
{"name":"Narva","other_names":{"name:az":"Narva","name:be":"Нарва","name:de":"Narva","name:en":"Narva","name:et":"Narva","name:he":"נרבה","name:lt":"Narva","name:ml":"നാർവ","name:pl":"Narwa","name:ru":"Нарва","name:uk":"Нарва","name:uz":"Narva","name:zh":"纳尔瓦","old_name:de":"Narwa"},"display_name":"Narva, Narva linn, Ida-Viru maakond, Eesti","address":{"town":"Narva","municipality":"Narva linn","ISO3166-2-lvl7":"EE-511","county":"Ida-Viru maakond","ISO3166-2-lvl6":"EE-45","country":"Eesti","country_code":"ee"},"population":53424,"osm_type":"node","osm_id":21670333,"type":"town","location":[28.1921457,59.3766729],"bbox":[28.1521457,59.3366729,28.2321457,59.4166729],"border":{"name":"Narva linn","other_names":{"name:de":"Narwa","name:en":"Narva","name:et":"Narva","name:pl":"Narwa","name:ru":"Нарва","name:zh":"纳尔瓦","alt_name":"Narva","old_name:de":"Narwa","name:az":"Narva","name:be":"Нарва","name:he":"נרבה","name:lt":"Narva","name:ml":"നാർവ","name:uk":"Нарва","name:uz":"Narva","alt":"Narva","alt:de":"Narva"},"display_name":"Narva linn, Ida-Viru maakond, Eesti","address":{"town":"Narva linn","municipality":"Narva linn","ISO3166-2-lvl7":"EE-511","county":"Ida-Viru maakond","ISO3166-2-lvl6":"EE-45","country":"Eesti","country_code":"ee"},"population":53424,"osm_type":"relation","osm_id":2832959,"type":"administrative","location":[28.1921457,59.3766729],"bbox":[28.0112942,59.2951969,28.2090382,59.44386]}}
{"name":"Otepää","other_names":{"name:de":"Otepää","name:et":"Otepää","name:he":"אוטפה","name:lt":"Otepė","name:ru":"Отепяэ","name:uk":"Отепяе","name:vro":"Otõmpää","old_name:de":"Odenpäh"},"display_name":"Otepää, Otepää linn, Otepää vald, Valga maakond, Eesti","address":{"town":"Otepää","municipality":"Otepää vald","ISO3166-2-lvl7":"EE-557","county":"Valga maakond","ISO3166-2-lvl6":"EE-81","country":"Eesti","country_code":"ee"},"population":4123,"osm_type":"node","osm_id":34823927,"type":"town","location":[26.4960599,58.0584907],"bbox":[26.4560599,58.0184907,26.5360599,58.0984907],"border":{"name":"Otepää linn","other_names":{"name:et":"Otepää linn","name:lt":"Otepės miestas","name:ru":"город Отепя","alt_name":"Otepää","name:vro":"Otõmpää liin","name:de":"Otepää","name:he":"אוטפה","name:uk":"Отепяе","old_name:de":"Odenpäh","alt":"Otepää","alt:et":"Otepää","alt:lt":"Otepė","alt:ru":"Отепяэ","alt:vro":"Otõmpää"},"display_name":"Otepää linn, Otepää vald, Valga maakond, Eesti","address":{"town":"Otepää linn","municipality":"Otepää vald","ISO3166-2-lvl7":"EE-557","county":"Valga maakond","ISO3166-2-lvl6":"EE-81","country":"Eesti","country_code":"ee"},"population":4123,"osm_type":"relation","osm_id":351044,"type":"administrative","location":[26.4960599,58.0584907],"bbox":[26.466052,58.0406726,26.5169075,58.0700783]}}
{"name":"Paide","other_names":{"name:de":"Paide","name:en":"Paide","name:et":"Paide","name:he":"פאידה","name:lt":"Paidė","name:ru":"Пайде","name:uk":"Пайде","old_name:de":"Weißenstein"},"display_name":"Paide, Paide linn, Järva maakond, Eesti","address":{"town":"Paide","municipality":"Paide linn","ISO3166-2-lvl7":"EE-567","county":"Järva maakond","ISO3166-2-lvl6":"EE-52","country":"Eesti","country_code":"ee"},"population":9200,"osm_type":"node","osm_id":831301151,"type":"town","location":[25.5699121,58.8869266],"bbox":[25.5299121,58.8469266,25.6099121,58.9269266],"border":{"name":"Paide linn","other_names":{"name:et":"Paide linn","name:ru":"город Пайде","name:de":"Paide","name:en":"Paide","name:he":"פאידה","name:lt":"Paidė","name:uk":"Пайде","old_name:de":"Weißenstein","alt":"Paide","alt:et":"Paide","alt:ru":"Пайде"},"display_name":"Paide linn, Järva maakond, Eesti","address":{"town":"Paide linn","municipality":"Paide linn","ISO3166-2-lvl7":"EE-567","county":"Järva maakond","ISO3166-2-lvl6":"EE-52","country":"Eesti","country_code":"ee"},"population":9200,"osm_type":"relation","osm_id":351723,"type":"administrative","location":[25.5699121,58.8869266],"bbox":[25.5176502,58.8637072,25.5806471,58.8976961]}}
{"name":"Paldiski","other_names":{"name:ba":"Палдиски","name:en":"Paldiski","name:lt":"Paldiskis","name:ml":"പാൽഡിസ്കി","name:ru":"Палдиски","name:uk":"Палдіскі","old_name:de":"Baltischport","old_name:se":"Rågervik"},"display_name":"Paldiski, Paldiski linn, Lääne-Harju vald, Harju maakond, Eesti","address":{"town":"Paldiski","municipality":"Lääne-Harju vald","ISO3166-2-lvl7":"EE-431","county":"Harju maakond","ISO3166-2-lvl6":"EE-37","country":"Eesti","country_code":"ee"},"population":4154,"osm_type":"node","osm_id":29378756,"type":"town","location":[24.0801736,59.349089],"bbox":[24.0401736,59.309089,24.1201736,59.389089],"border":{"name":"Paldiski linn","other_names":{"name:et":"Paldiski linn","name:lt":"Paldiskio miestas","name:ru":"город Палдиски","alt_name":"Paldiski","name:ba":"Палдиски","name:en":"Paldiski","name:ml":"പാൽഡിസ്കി","name:uk":"Палдіскі","old_name:de":"Baltischport","old_name:se":"Rågervik","alt":"Paldiski","alt:lt":"Paldiskis","alt:ru":"Палдиски"},"display_name":"Paldiski linn, Lääne-Harju vald, Harju maakond, Eesti","address":{"town":"Paldiski linn","municipality":"Lääne-Harju vald","ISO3166-2-lvl7":"EE-431","county":"Harju maakond","ISO3166-2-lvl6":"EE-37","country":"Eesti","country_code":"ee"},"population":4154,"osm_type":"relation","osm_id":350666,"type":"administrative","location":[24.0801736,59.349089],"bbox":[23.8612469,59.300859,24.1852759,59.3902726]}}
{"name":"Pärnu","other_names":{"name:de":"Pärnu","name:he":"פרנו","name:lt":"Pernu","name:lv":"Pērnava","name:ml":"പാർനു","name:pl":"Parnawa","name:ru":"Пярну","name:uk":"Пярну","old_name:de":"Pernau","old_name:hr":"Pernava"},"display_name":"Pärnu, Pärnu linn, Pärnu maakond, Eesti","address":{"town":"Pärnu","municipality":"Pärnu linn","ISO3166-2-lvl7":"EE-624","county":"Pärnu maakond","ISO3166-2-lvl6":"EE-68","country":"Eesti","country_code":"ee"},"population":43528,"osm_type":"node","osm_id":28577941,"type":"town","location":[24.5081751,58.3835136],"bbox":[24.4681751,58.3435136,24.5481751,58.4235136],"border":{"name":"Pärnu linn","other_names":{"name:by":"горад Пярну","name:et":"Pärnu linn","name:lv":"Pērnavas pilsēta","name:pl":"miasto Pärnu","name:ru":"город Пярну","name:de":"Pärnu","name:he":"פרנו","name:lt":"Pernu","name:ml":"പാർനു","name:uk":"Пярну","old_name:de":"Pernau","old_name:hr":"Pernava","alt":"Pärnu","alt:lv":"Pērnava","alt:pl":"Parnawa","alt:ru":"Пярну"},"display_name":"Pärnu linn, Pärnu maakond, Eesti","address":{"town":"Pärnu linn","municipality":"Pärnu linn","ISO3166-2-lvl7":"EE-624","county":"Pärnu maakond","ISO3166-2-lvl6":"EE-68","country":"Eesti","country_code":"ee"},"population":43528,"osm_type":"relation","osm_id":351785,"type":"administrative","location":[24.5081751,58.3835136],"bbox":[24.4512342,58.3416113,24.6044385,58.4163914]}}
{"name":"Põltsamaa","other_names":{"name:de":"Põltsamaa","name:lt":"Peltsama","name:ru":"Пылтсамаа","old_name:de":"Oberpahlen"},"display_name":"Põltsamaa, Põltsamaa linn, Põltsamaa vald, Jõgeva maakond, Eesti","address":{"town":"Põltsamaa","municipality":"Põltsamaa vald","ISO3166-2-lvl7":"EE-618","county":"Jõgeva maakond","ISO3166-2-lvl6":"EE-50","country":"Eesti","country_code":"ee"},"population":4640,"osm_type":"node","osm_id":281044699,"type":"town","location":[25.9791,58.6548999],"bbox":[25.9391,58.6148999,26.0191,58.6948999],"border":{"name":"Põltsamaa linn","other_names":{"name:de":"Põltsamaa","name:et":"Põltsamaa linn","name:ru":"город Пылтсамаа","old_name:de":"Oberpahlen","name:lt":"Peltsama","alt":"Põltsamaa","alt:ru":"Пылтсамаа"},"display_name":"Põltsamaa linn, Põltsamaa vald, Jõgeva maakond, Eesti","address":{"town":"Põltsamaa linn","municipality":"Põltsamaa vald","ISO3166-2-lvl7":"EE-618","county":"Jõgeva maakond","ISO3166-2-lvl6":"EE-50","country":"Eesti","country_code":"ee"},"population":4640,"osm_type":"relation","osm_id":350813,"type":"administrative","location":[25.9791,58.6548999],"bbox":[25.9544209,58.6383092,25.9993752,58.6689923]}}
{"name":"Põlva","other_names":{"name:de":"Põlva","name:lt":"Pelva","name:ru":"Пылва","name:uk":"Пилва","alt_name:de":"Pölwa","old_name:de":"Pölwe"},"display_name":"Põlva, Põlva linn, Põlva vald, Põlva maakond, Eesti","address":{"town":"Põlva","municipality":"Põlva vald","ISO3166-2-lvl7":"EE-622","county":"Põlva maakond","ISO3166-2-lvl6":"EE-64","country":"Eesti","country_code":"ee"},"population":6330,"osm_type":"node","osm_id":1638861584,"type":"town","location":[27.0582568,58.0536163],"bbox":[27.0182568,58.0136163,27.0982568,58.0936163],"border":{"name":"Põlva linn","other_names":{"name:et":"Põlva linn","name:lt":"Pelva","name:ru":"Пылва","alt_name":"Põlva","name:de":"Põlva","name:uk":"Пилва","alt_name:de":"Pölwa","old_name:de":"Pölwe","alt":"Põlva"},"display_name":"Põlva linn, Põlva vald, Põlva maakond, Eesti","address":{"town":"Põlva linn","municipality":"Põlva vald","ISO3166-2-lvl7":"EE-622","county":"Põlva maakond","ISO3166-2-lvl6":"EE-64","country":"Eesti","country_code":"ee"},"population":6330,"osm_type":"relation","osm_id":2136623,"type":"administrative","location":[27.0582568,58.0536163],"bbox":[27.0411151,58.040101,27.1058134,58.0756149]}}
{"name":"Püssi","other_names":{"name:lt":"Piusis","name:ru":"Пюсси"},"display_name":"Püssi, Püssi linn, Lüganuse vald, Ida-Viru maakond, Eesti","address":{"town":"Püssi","municipality":"Lüganuse vald","ISO3166-2-lvl7":"EE-442","county":"Ida-Viru maakond","ISO3166-2-lvl6":"EE-45","country":"Eesti","country_code":"ee"},"population":1083,"osm_type":"node","osm_id":659837156,"type":"town","location":[27.0445204,59.3609844],"bbox":[27.0045204,59.3209844,27.0845204,59.4009844],"border":{"name":"Püssi linn","other_names":{"name:et":"Püssi linn","name:lt":"Piusio miestas","name:ru":"город Пюсси","alt_name":"Püssi","alt":"Püssi","alt:lt":"Piusis","alt:ru":"Пюсси"},"display_name":"Püssi linn, Lüganuse vald, Ida-Viru maakond, Eesti","address":{"town":"Püssi linn","municipality":"Lüganuse vald","ISO3166-2-lvl7":"EE-442","county":"Ida-Viru maakond","ISO3166-2-lvl6":"EE-45","country":"Eesti","country_code":"ee"},"population":1083,"osm_type":"relation","osm_id":352120,"type":"administrative","location":[27.0445204,59.3609844],"bbox":[27.0249416,59.3524019,27.065188,59.3675572]}}
{"name":"Rakvere","other_names":{"name:de":"Rakvere","name:en":"Rakvere","name:lt":"Rakverė","name:ru":"Раквере","name:uk":"Раквере","old_name:de":"Wesenberg"},"display_name":"Rakvere, Rakvere linn, Lääne-Viru maakond, Eesti","address":{"town":"Rakvere","municipality":"Rakvere linn","ISO3166-2-lvl7":"EE-663","county":"Lääne-Viru maakond","ISO3166-2-lvl6":"EE-60","country":"Eesti","country_code":"ee"},"population":16953,"osm_type":"node","osm_id":276210109,"type":"town","location":[26.3617173,59.3482229],"bbox":[26.3217173,59.3082229,26.4017173,59.3882229],"border":{"name":"Rakvere linn","other_names":{"name:et":"Rakvere linn","name:lt":"Rakverė","name:ru":"Раквере","alt_name":"Rakvere","name:de":"Rakvere","name:en":"Rakvere","name:uk":"Раквере","old_name:de":"Wesenberg","alt":"Rakvere"},"display_name":"Rakvere linn, Lääne-Viru maakond, Eesti","address":{"town":"Rakvere linn","municipality":"Rakvere linn","ISO3166-2-lvl7":"EE-663","county":"Lääne-Viru maakond","ISO3166-2-lvl6":"EE-60","country":"Eesti","country_code":"ee"},"population":16953,"osm_type":"relation","osm_id":2133238,"type":"administrative","location":[26.3617173,59.3482229],"bbox":[26.3256339,59.3224876,26.3975051,59.3670073]}}
{"name":"Räpina","other_names":{"name:de":"Räpina","name:lt":"Repina","name:ru":"Ряпина","name:vro":"Räpinä","old_name:de":"Rappin"},"display_name":"Räpina, Räpina linn, Räpina vald, Põlva maakond, Eesti","address":{"town":"Räpina","municipality":"Räpina vald","ISO3166-2-lvl7":"EE-708","county":"Põlva maakond","ISO3166-2-lvl6":"EE-64","country":"Eesti","country_code":"ee"},"population":2867,"osm_type":"node","osm_id":319954317,"type":"town","location":[27.4642713,58.097553],"bbox":[27.4242713,58.057553,27.5042713,58.137553],"border":{"name":"Räpina linn","other_names":{"name:et":"Räpina linn","name:lt":"Repinos miestas","alt_name":"Räpina","name:vro":"Räpinä liin","alt_name:et":"Räpina","alt_name:vro":"Räpinä","name:de":"Räpina","name:ru":"Ряпина","old_name:de":"Rappin","alt":"Räpina","alt:lt":"Repina","alt:vro":"Räpinä"},"display_name":"Räpina linn, Räpina vald, Põlva maakond, Eesti","address":{"town":"Räpina linn","municipality":"Räpina vald","ISO3166-2-lvl7":"EE-708","county":"Põlva maakond","ISO3166-2-lvl6":"EE-64","country":"Eesti","country_code":"ee"},"population":2867,"osm_type":"relation","osm_id":352138,"type":"administrative","location":[27.4642713,58.097553],"bbox":[27.4383852,58.0880183,27.4799193,58.1118464]}}
{"name":"Rapla","other_names":{"name:de":"Rapla","name:en":"Rapla","name:lt":"Rapla","name:uk":"Рапла","old_name:de":"Rappel"},"display_name":"Rapla, Rapla linn, Rapla vald, Rapla maakond, Eesti","address":{"town":"Rapla","municipality":"Rapla vald","ISO3166-2-lvl7":"EE-668","county":"Rapla maakond","ISO3166-2-lvl6":"EE-71","country":"Eesti","country_code":"ee"},"population":4860,"osm_type":"node","osm_id":29950249,"type":"town","location":[24.794397,59.0056905],"bbox":[24.754397,58.9656905,24.834397,59.0456905],"border":{"name":"Rapla linn","other_names":{"name:et":"Rapla linn","name:lt":"Raplos miestas","alt_name":"Rapla","name:de":"Rapla","name:en":"Rapla","name:uk":"Рапла","old_name:de":"Rappel","alt":"Rapla","alt:lt":"Rapla"},"display_name":"Rapla linn, Rapla vald, Rapla maakond, Eesti","address":{"town":"Rapla linn","municipality":"Rapla vald","ISO3166-2-lvl7":"EE-668","county":"Rapla maakond","ISO3166-2-lvl6":"EE-71","country":"Eesti","country_code":"ee"},"population":4860,"osm_type":"relation","osm_id":352496,"type":"administrative","location":[24.794397,59.0056905],"bbox":[24.777686,58.9874355,24.8414225,59.0116658]}}
{"name":"Saue","other_names":{"name:de":"Saue","name:en":"Saue","name:et":"Saue","name:lt":"Sauė","name:ru":"Сауэ","name:uk":"Сауе","old_name:de":"Sauß"},"display_name":"Saue, Saue vald, Harju maakond, 76505, Eesti","address":{"town":"Saue","municipality":"Saue vald","ISO3166-2-lvl7":"EE-726","county":"Harju maakond","ISO3166-2-lvl6":"EE-37","postcode":"76505","country":"Eesti","country_code":"ee"},"population":5241,"osm_type":"node","osm_id":1730541019,"type":"town","location":[24.5567256,59.3200001],"bbox":[24.5167256,59.2800001,24.5967256,59.3600001],"border":{"name":"Saue linn","other_names":{"name:et":"Saue linn","name:lt":"Sauės miestas","name:ru":"Сауэ","alt_name":"Saue"},"display_name":"Saue linn, Saue vald, Harju maakond, Eesti","address":{"city_district":"Saue linn","municipality":"Saue vald","ISO3166-2-lvl7":"EE-726","county":"Harju maakond","ISO3166-2-lvl6":"EE-37","country":"Eesti","country_code":"ee"},"osm_type":"relation","osm_id":352573,"type":"administrative","location":[24.55928508785309,59.3217905],"bbox":[24.5181996,59.3114499,24.5859971,59.3321564]}}
{"name":"Sillamäe","other_names":{"name:de":"Sillamäe","name:lt":"Silamejė","name:ru":"Силламяэ","name:uk":"Сілламяе","old_name:de":"Sillamäggi"},"display_name":"Sillamäe, Sillamäe linn, Ida-Viru maakond, Eesti","address":{"town":"Sillamäe","ISO3166-2-lvl7":"EE-735","county":"Ida-Viru maakond","ISO3166-2-lvl6":"EE-45","country":"Eesti","country_code":"ee"},"population":16567,"osm_type":"node","osm_id":516447315,"type":"town","location":[27.7625564,59.396265],"bbox":[27.7225564,59.356265,27.8025564,59.436265],"border":[{"name":"Sillamäe linn","other_names":{"name:et":"Sillamäe linn","name:ru":"город Силламяэ","ISO3166-2":"EE-735","name:de":"Sillamäe","name:lt":"Silamejė","name:uk":"Сілламяе","old_name:de":"Sillamäggi","alt":"Sillamäe","alt:ru":"Силламяэ"},"display_name":"Sillamäe linn, Ida-Viru maakond, Eesti","address":{"town":"Sillamäe linn","ISO3166-2-lvl7":"EE-735","county":"Ida-Viru maakond","ISO3166-2-lvl6":"EE-45","country":"Eesti","country_code":"ee"},"population":16567,"osm_type":"relation","osm_id":352917,"type":"administrative","location":[27.7625564,59.396265],"bbox":[27.7028027,59.3805335,27.8068033,59.4262675]},{"name":"Sillamäe linn","other_names":{"name:de":"Sillamäe","name:et":"Sillamäe linn","name:lt":"Silamejė","name:ru":"Силламяэ","name:uk":"Сілламяе","alt_name":"Sillamäe","old_name:de":"Sillamäggi"},"display_name":"Sillamäe linn, Ida-Viru maakond, Eesti","address":{"city_district":"Sillamäe linn","town":"Sillamäe linn","ISO3166-2-lvl7":"EE-735","county":"Ida-Viru maakond","ISO3166-2-lvl6":"EE-45","country":"Eesti","country_code":"ee"},"osm_type":"relation","osm_id":7496875,"type":"administrative","location":[27.729193909271594,59.4034594],"bbox":[27.7028027,59.3805335,27.8068033,59.4262675]}]}
{"name":"Sindi","other_names":{"name:de":"Sindi","name:en":"Sindi","name:lt":"Sindis","name:ru":"Синди","name:uk":"Сінді","old_name:de":"Zintenhof"},"display_name":"Sindi, Sindi linn, Tori vald, Pärnu maakond, Eesti","address":{"town":"Sindi","municipality":"Tori vald","ISO3166-2-lvl7":"EE-809","county":"Pärnu maakond","ISO3166-2-lvl6":"EE-68","country":"Eesti","country_code":"ee"},"population":3980,"osm_type":"node","osm_id":281555902,"type":"town","location":[24.6583155,58.4075128],"bbox":[24.6183155,58.3675128,24.6983155,58.4475128],"border":{"name":"Sindi linn","other_names":{"name:et":"Sindi linn","name:ru":"город Синди","alt_name":"Sindi","name:de":"Sindi","name:en":"Sindi","name:lt":"Sindis","name:uk":"Сінді","old_name:de":"Zintenhof","alt":"Sindi","alt:ru":"Синди"},"display_name":"Sindi linn, Tori vald, Pärnu maakond, Eesti","address":{"town":"Sindi linn","municipality":"Tori vald","ISO3166-2-lvl7":"EE-809","county":"Pärnu maakond","ISO3166-2-lvl6":"EE-68","country":"Eesti","country_code":"ee"},"population":3980,"osm_type":"relation","osm_id":351046,"type":"administrative","location":[24.6583155,58.4075128],"bbox":[24.6220024,58.3810898,24.6820719,58.4183846]}}
{"name":"Suure-Jaani","other_names":{"name:de":"Suure-Jaani","name:en":"Suure-Jaani","name:lt":"Sūre Janis","name:ru":"Сууре-Яани","name:uk":"Сууре-Яані","old_name:de":"Groß-St. Johannis"},"display_name":"Suure-Jaani, Suure-Jaani linn, Põhja-Sakala vald, Viljandi maakond, Eesti","address":{"town":"Suure-Jaani","municipality":"Põhja-Sakala vald","ISO3166-2-lvl7":"EE-615","county":"Viljandi maakond","ISO3166-2-lvl6":"EE-84","country":"Eesti","country_code":"ee"},"population":1238,"osm_type":"node","osm_id":254432007,"type":"town","location":[25.4649476,58.5373755],"bbox":[25.4249476,58.4973755,25.5049476,58.5773755],"border":{"name":"Suure-Jaani linn","other_names":{"name:de":"Suure-Jaani","name:et":"Suure-Jaani linn","name:lt":"Sūre Janio miestas","name:ru":"Сууре-Яани","alt_name":"Suure-Jaani","old_name:de":"Groß-St. Johannis","name:en":"Suure-Jaani","name:uk":"Сууре-Яані","alt":"Suure-Jaani","alt:lt":"Sūre Janis"},"display_name":"Suure-Jaani linn, Põhja-Sakala vald, Viljandi maakond, Eesti","address":{"town":"Suure-Jaani linn","municipality":"Põhja-Sakala vald","ISO3166-2-lvl7":"EE-615","county":"Viljandi maakond","ISO3166-2-lvl6":"EE-84","country":"Eesti","country_code":"ee"},"population":1238,"osm_type":"relation","osm_id":351896,"type":"administrative","location":[25.4649476,58.5373755],"bbox":[25.4492218,58.5206907,25.4865345,58.5458491]}}
{"name":"Tamsalu","other_names":{"name:de":"Tamsalu","name:et":"Tamsalu","name:lt":"Tamsalu","name:ru":"Тамсалу","name:uk":"Тамсалу","old_name:de":"Tamsal"},"display_name":"Tamsalu, Tapa vald, Lääne-Viru maakond, 46101, Eesti","address":{"town":"Tamsalu","municipality":"Tapa vald","ISO3166-2-lvl7":"EE-792","county":"Lääne-Viru maakond","ISO3166-2-lvl6":"EE-60","postcode":"46101","country":"Eesti","country_code":"ee"},"population":2629,"osm_type":"node","osm_id":31868445,"type":"town","location":[26.1105674,59.1614172],"bbox":[26.0705674,59.1214172,26.1505674,59.2014172],"border":{"name":"Tamsalu linn","other_names":{"name:et":"Tamsalu linn","name:lt":"Tamsalu miestas","alt_name":"Tamsalu"},"display_name":"Tamsalu linn, Tapa vald, Lääne-Viru maakond, Eesti","address":{"city_district":"Tamsalu linn","municipality":"Tapa vald","ISO3166-2-lvl7":"EE-792","county":"Lääne-Viru maakond","ISO3166-2-lvl6":"EE-60","country":"Eesti","country_code":"ee"},"osm_type":"relation","osm_id":354546,"type":"administrative","location":[26.116269738737287,59.1594204],"bbox":[26.0810902,59.1448325,26.1468975,59.1739814]}}
{"name":"Tapa","other_names":{"name:de":"Tapa","name:en":"Tapa","name:lt":"Tapa","name:ru":"Тапа","old_name:de":"Taps"},"display_name":"Tapa, Tapa linn, Tapa vald, Lääne-Viru maakond, Eesti","address":{"town":"Tapa","municipality":"Tapa vald","ISO3166-2-lvl7":"EE-792","county":"Lääne-Viru maakond","ISO3166-2-lvl6":"EE-60","country":"Eesti","country_code":"ee"},"population":9448,"osm_type":"node","osm_id":29174618,"type":"town","location":[25.9626869,59.2618575],"bbox":[25.9226869,59.2218575,26.0026869,59.3018575],"border":{"name":"Tapa linn","other_names":{"name:et":"Tapa linn","name:lt":"Tapos miestas","alt_name":"Tapa","name:de":"Tapa","name:en":"Tapa","name:ru":"Тапа","old_name:de":"Taps","alt":"Tapa","alt:lt":"Tapa"},"display_name":"Tapa linn, Tapa vald, Lääne-Viru maakond, Eesti","address":{"town":"Tapa linn","municipality":"Tapa vald","ISO3166-2-lvl7":"EE-792","county":"Lääne-Viru maakond","ISO3166-2-lvl6":"EE-60","country":"Eesti","country_code":"ee"},"population":9448,"osm_type":"relation","osm_id":351832,"type":"administrative","location":[25.9626869,59.2618575],"bbox":[25.9025477,59.2227499,25.9913497,59.278244]}}
{"name":"Tõrva","other_names":{"name:de":"Tõrva","name:lt":"Terva","name:ru":"Тырва","name:uk":"Тирва","old_name:de":"Törwa"},"display_name":"Tõrva, Tõrva linn, Tõrva vald, Valga maakond, Eesti","address":{"town":"Tõrva","municipality":"Tõrva vald","ISO3166-2-lvl7":"EE-824","county":"Valga maakond","ISO3166-2-lvl6":"EE-81","country":"Eesti","country_code":"ee"},"population":3130,"osm_type":"node","osm_id":29948213,"type":"town","location":[25.9253612,58.0028204],"bbox":[25.8853612,57.9628204,25.9653612,58.0428204],"border":{"name":"Tõrva linn","other_names":{"name:et":"Tõrva linn","name:lt":"Terva","name:ru":"город Тырва","alt_name":"Tõrva","name:de":"Tõrva","name:uk":"Тирва","old_name:de":"Törwa","alt":"Tõrva","alt:ru":"Тырва"},"display_name":"Tõrva linn, Tõrva vald, Valga maakond, Eesti","address":{"town":"Tõrva linn","municipality":"Tõrva vald","ISO3166-2-lvl7":"EE-824","county":"Valga maakond","ISO3166-2-lvl6":"EE-81","country":"Eesti","country_code":"ee"},"population":3130,"osm_type":"relation","osm_id":351515,"type":"administrative","location":[25.9253612,58.0028204],"bbox":[25.8975053,57.9881914,25.9528503,58.0131193]}}
{"name":"Türi","other_names":{"name:de":"Türi","name:et":"Türi","name:lt":"Tiūris","name:ru":"Тюри","name:uk":"Тюрі","old_name:de":"Turgel"},"display_name":"Türi, Türi linn, Türi vald, Järva maakond, Eesti","address":{"town":"Türi","municipality":"Türi vald","ISO3166-2-lvl7":"EE-834","county":"Järva maakond","ISO3166-2-lvl6":"EE-52","country":"Eesti","country_code":"ee"},"population":6333,"osm_type":"node","osm_id":773610650,"type":"town","location":[25.4252349,58.8101662],"bbox":[25.3852349,58.7701662,25.4652349,58.8501662],"border":{"name":"Türi linn","other_names":{"name:et":"Türi linn","name:lt":"Tiūrio miestas","name:ru":"город Тюри","alt_name":"Türi","name:de":"Türi","name:uk":"Тюрі","old_name:de":"Turgel","alt":"Türi","alt:et":"Türi","alt:lt":"Tiūris","alt:ru":"Тюри"},"display_name":"Türi linn, Türi vald, Järva maakond, Eesti","address":{"town":"Türi linn","municipality":"Türi vald","ISO3166-2-lvl7":"EE-834","county":"Järva maakond","ISO3166-2-lvl6":"EE-52","country":"Eesti","country_code":"ee"},"population":6333,"osm_type":"relation","osm_id":355308,"type":"administrative","location":[25.4252349,58.8101662],"bbox":[25.3920008,58.790962,25.448599,58.824777]}}
{"name":"Valga","other_names":{"name:de":"Valga","name:en":"Valga","name:et":"Valga","name:lt":"Valga","name:pl":"Wałk","name:ru":"Валга","name:uk":"Валга","old_name:de":"Walk"},"display_name":"Valga, Valga linn, Valga vald, Valga maakond, Eesti","address":{"town":"Valga","municipality":"Valga vald","ISO3166-2-lvl7":"EE-855","county":"Valga maakond","ISO3166-2-lvl6":"EE-81","country":"Eesti","country_code":"ee"},"population":12040,"osm_type":"node","osm_id":29525427,"type":"town","location":[26.0315628,57.777034],"bbox":[25.9915628,57.737034,26.0715628,57.817034],"border":{"name":"Valga linn","other_names":{"name:en":"Valga city","name:et":"Valga linn","name:lt":"Valgos miestas","name:pl":"miasto Wałk","name:ru":"город Валга","alt_name":"Valga","name:de":"Valga","name:uk":"Валга","old_name:de":"Walk","alt":"Valga","alt:en":"Valga","alt:et":"Valga","alt:lt":"Valga","alt:pl":"Wałk","alt:ru":"Валга"},"display_name":"Valga linn, Valga vald, Valga maakond, Eesti","address":{"town":"Valga linn","municipality":"Valga vald","ISO3166-2-lvl7":"EE-855","county":"Valga maakond","ISO3166-2-lvl6":"EE-81","country":"Eesti","country_code":"ee"},"population":12040,"osm_type":"relation","osm_id":351435,"type":"administrative","location":[26.0315628,57.777034],"bbox":[26.0204236,57.7559165,26.123527,57.8039174]}}
{"name":"Viljandi","other_names":{"name:de":"Viljandi","name:en":"Viljandi","name:fi":"Viljandi","name:lt":"Viljandis","name:lv":"Vīlande","name:pl":"Felin","name:ru":"Вильянди","name:sv":"Viljandi","name:uk":"Вільянді","old_name":"Wiljandi","old_name:de":"Fellin","old_name:sv":"Fellin"},"display_name":"Viljandi, Viljandi linn, Viljandi maakond, Eesti","address":{"town":"Viljandi","municipality":"Viljandi linn","ISO3166-2-lvl7":"EE-897","county":"Viljandi maakond","ISO3166-2-lvl6":"EE-84","country":"Eesti","country_code":"ee"},"population":19100,"osm_type":"node","osm_id":29949066,"type":"town","location":[25.5878074,58.36454],"bbox":[25.5478074,58.32454,25.6278074,58.40454],"border":{"name":"Viljandi linn","other_names":{"name:et":"Viljandi linn","name:lt":"Viljandis","name:ru":"Вильянди","alt_name":"Viljandi","name:vro":"Viländi liin","alt_name:et":"Viljandi","alt_name:vro":"Viländi","name:de":"Viljandi","name:en":"Viljandi","name:fi":"Viljandi","name:lv":"Vīlande","name:pl":"Felin","name:sv":"Viljandi","name:uk":"Вільянді","old_name":"Wiljandi","old_name:de":"Fellin","old_name:sv":"Fellin","alt":"Viljandi"},"display_name":"Viljandi linn, Viljandi maakond, Eesti","address":{"town":"Viljandi linn","municipality":"Viljandi linn","ISO3166-2-lvl7":"EE-897","county":"Viljandi maakond","ISO3166-2-lvl6":"EE-84","country":"Eesti","country_code":"ee"},"population":19100,"osm_type":"relation","osm_id":2133244,"type":"administrative","location":[25.5878074,58.36454],"bbox":[25.5498219,58.3301602,25.637545,58.3824667]}}
{"name":"Võhma","other_names":{"name:de":"Võhma","name:et":"Võhma","name:lt":"Vehma","name:ru":"Выхма","name:uk":"Вихма","old_name:de":"Wöchma"},"display_name":"Võhma, Põhja-Sakala vald, Viljandi maakond, 70602, Eesti","address":{"town":"Võhma","municipality":"Põhja-Sakala vald","ISO3166-2-lvl7":"EE-615","county":"Viljandi maakond","ISO3166-2-lvl6":"EE-84","postcode":"70602","country":"Eesti","country_code":"ee"},"population":1540,"osm_type":"node","osm_id":262767583,"type":"town","location":[25.554875,58.6318567],"bbox":[25.514875,58.5918567,25.594875,58.6718567],"border":{"name":"Võhma linn","other_names":{"name:et":"Võhma linn","name:ru":"Выхма","alt_name":"Võhma"},"display_name":"Võhma linn, Põhja-Sakala vald, Viljandi maakond, Eesti","address":{"city_district":"Võhma linn","municipality":"Põhja-Sakala vald","ISO3166-2-lvl7":"EE-615","county":"Viljandi maakond","ISO3166-2-lvl6":"EE-84","country":"Eesti","country_code":"ee"},"osm_type":"relation","osm_id":350806,"type":"administrative","location":[25.55336158147776,58.63051695],"bbox":[25.5397995,58.6229026,25.5698168,58.6391259]}}
{"name":"Võru","other_names":{"name:de":"Võru","name:et":"Võru","name:he":"וורו","name:lt":"Veru","name:ru":"Выру","name:uk":"Виру","name:vro":"Võro","old_name:de":"Werro"},"display_name":"Võru, Võru linn, Võru maakond, Eesti","address":{"town":"Võru","municipality":"Võru linn","ISO3166-2-lvl7":"EE-919","county":"Võru maakond","ISO3166-2-lvl6":"EE-87","country":"Eesti","country_code":"ee"},"population":12951,"osm_type":"node","osm_id":30579730,"type":"town","location":[27.0086505,57.8385759],"bbox":[26.9686505,57.7985759,27.0486505,57.8785759],"border":{"name":"Võru linn","other_names":{"name:et":"Võru linn","name:lt":"Veru","name:lv":"Veru","name:ru":"Выру","name:uk":"Виру","alt_name":"Võru","name:vro":"Võro liin","alt_name:et":"Võru","alt_name:vro":"Võro","name:de":"Võru","name:he":"וורו","old_name:de":"Werro","alt":"Võru","alt:et":"Võru","alt:vro":"Võro"},"display_name":"Võru linn, Võru maakond, Eesti","address":{"town":"Võru linn","municipality":"Võru linn","ISO3166-2-lvl7":"EE-919","county":"Võru maakond","ISO3166-2-lvl6":"EE-87","country":"Eesti","country_code":"ee"},"population":12951,"osm_type":"relation","osm_id":2133246,"type":"administrative","location":[27.0086505,57.8385759],"bbox":[26.9620289,57.8066057,27.0522288,57.8645588]}}
