{"name":"Tallinn","other_names":{"name:ab":"Таллин","name:am":"ታሊን","name:ar":"تالين","name:ay":"Tallin","name:az":"Tallin","name:ba":"Таллинн","name:be":"Талін","name:bg":"Талин","name:bm":"Talin","name:bn":"তাল্লিন","name:bo":"ཏཱལ་་ལིན།","name:br":"Tallinn","name:ca":"Tallinn","name:ce":"Таллин","name:cu":"Талинъ","name:cv":"Таллин","name:de":"Tallinn","name:el":"Ταλίν","name:en":"Tallinn","name:eo":"Talino","name:es":"Tallin","name:et":"Tallinn","name:fa":"تالین","name:fi":"Tallinna","name:fr":"Tallinn","name:fy":"Tallin","name:ga":"Taillinn","name:gl":"Talín - Tallinn","name:gn":"Talin","name:he":"טאלין","name:hi":"ताल्लिन","name:hr":"Talin","name:ht":"Talin","name:hu":"Tallin","name:hy":"Տալլին","name:is":"Tallinn","name:it":"Tallinn","name:ja":"タリン","name:ka":"ტალინი","name:kk":"Таллин","name:ko":"탈린","name:kv":"Таллинн","name:ky":"Таллин","name:la":"Castrum Danorum","name:lt":"Talinas","name:lv":"Tallina","name:mk":"Талин","name:ml":"ടാലിൻ","name:mn":"Таллин","name:mr":"तालिन","name:no":"Tallinn","name:oc":"Tallinn","name:os":"Таллин","name:pa":"ਤਾਲਿਨ","name:pl":"Tallinn","name:ps":"تالین","name:ro":"Tallinn","name:ru":"Таллин","name:sd":"تالن","name:sh":"Talin","name:sk":"Tallinn","name:sl":"Talin","name:sq":"Talini","name:sr":"Талин","name:sv":"Tallinn","name:ta":"தாலின்","name:tg":"Таллин","name:th":"ทาลลินน์","name:tk":"Tallin","name:tl":"Tallin","name:to":"Talini","name:tt":"Таллинн","name:ug":"تاللىن","name:uk":"Таллінн","name:ur":"ٹالن","name:uz":"Tallin","name:wo":"Talin","name:yi":"טאלין","name:zh":"塔林","name:arz":"تالين","name:ast":"Tallín","name:ckb":"تاڵین","name:diq":"Talin","name:koi":"Таллинн","name:lad":"Tallin","name:ltg":"Talins","name:mdf":"Таллинн","name:mhr":"Таллинн","name:mrj":"Таллинн","name:myv":"Таллин ош","name:mzn":"تالین","name:nah":"Tallin","name:nds":"Revel","name:pms":"Tallin","name:pnb":"ٹالن","name:sah":"Таллинн","name:scn":"Tallin","name:tpi":"Talin","name:udm":"Таллин","name:vro":"Talliin","name:yue":"塔林","old_name:de":"Reval","old_name:hr":"Revel","old_name:la":"Revalia","old_name:sv":"Reval","name:bat-smg":"Talins","name:zh-Hans":"塔林","name:be-tarask":"Талін"},"display_name":"Tallinn, Harju maakond, Eesti","address":{"city":"Tallinn","municipality":"Tallinn","ISO3166-2-lvl7":"EE-784","county":"Harju maakond","ISO3166-2-lvl6":"EE-37","country":"Eesti","country_code":"ee"},"population":462120,"osm_type":"node","osm_id":29787492,"type":"city","location":[24.7453688,59.4372155],"bbox":[24.5853688,59.2772155,24.9053688,59.5972155],"border":[{"name":"Tallinn","other_names":{"name:de":"Stadtgemeinde Reval","name:et":"Tallinn","name:ru":"Таллин","ISO3166-2":"EE-784"},"display_name":"Tallinn, Harju maakond, Eesti","address":{"municipality":"Tallinn","ISO3166-2-lvl7":"EE-784","county":"Harju maakond","ISO3166-2-lvl6":"EE-37","country":"Eesti","country_code":"ee"},"osm_type":"relation","osm_id":350902,"type":"administrative","location":[24.74386926051089,59.4250354],"bbox":[24.55017,59.3518076,24.9262831,59.5915769]},{"name":"Tallinn","other_names":{"name:af":"Tallinn","name:am":"ታሊን","name:an":"Tallinn","name:ar":"تالين","name:az":"Tallin","name:ba":"Таллин","name:be":"Талін","name:bg":"Талин","name:bn":"তাল্লিন","name:bo":"ཏཱལ་་ལིན།","name:br":"Tallinn","name:bs":"Tallinn","name:ca":"Tallinn","name:ce":"Таллин","name:co":"Tallinn","name:cs":"Tallinn","name:cv":"Таллин","name:cy":"Tallinn","name:da":"Tallinn","name:de":"Tallinn","name:ee":"Tallinn","name:el":"Ταλίν","name:en":"Tallinn","name:eo":"Talino","name:es":"Tallin","name:et":"Tallinn","name:eu":"Tallinn","name:fa":"تالین","name:fi":"Tallinna","name:fo":"Tallinn","name:fr":"Tallinn","name:fy":"Tallin","name:ga":"Taillinn","name:gd":"Tallinn","name:gl":"Talín","name:gn":"Talin","name:gv":"Tallinn","name:he":"טאלין","name:hi":"ताल्लिन","name:hr":"Tallinn","name:ht":"Talin","name:hu":"Tallin","name:hy":"Տալլին","name:ia":"Tallinn","name:id":"Tallinn","name:ie":"Tallinn","name:io":"Tallinn","name:is":"Tallinn","name:it":"Tallinn","name:ja":"タリン","name:ka":"ტალინი","name:kk":"Таллин","name:kl":"Tallinn","name:ko":"탈린","name:ku":"Tallinn","name:kv":"Таллинн","name:kw":"Tallinn","name:ky":"Таллин","name:la":"Castrum Danorum","name:lb":"Tallinn","name:li":"Tallinn","name:ln":"Tallinn","name:lt":"Talinas","name:lv":"Tallina","name:mg":"Tallinn","name:mi":"Tallinn","name:mk":"Талин","name:ml":"ടാലിൻ","name:mn":"Та́ллин","name:mr":"तालिन","name:ms":"Tallinn","name:mt":"Tallinn","name:na":"Tallinn","name:nl":"Tallinn","name:nn":"Tallinn","name:no":"Tallinn","name:ny":"Tallinn","name:oc":"Tallinn","name:os":"Таллин","name:pa":"ਤਾਲਿਨ","name:pl":"Tallinn","name:pt":"Tallinn","name:qu":"Tallinn","name:ro":"Tallinn","name:ru":"Таллинн","name:sc":"Tallinn","name:se":"Tallinn","name:sh":"Talin","name:sk":"Tallinn","name:sl":"Talin","name:sn":"Tallinn","name:sq":"Talini","name:sr":"Талин","name:st":"Tallinn","name:sv":"Tallinn","name:sw":"Tallinn","name:ta":"தாலின்","name:tg":"Таллин","name:th":"ทาลลินน์","name:tk":"Tallin","name:tl":"Tallinn","name:tr":"Tallinn","name:tt":"Tallinn","name:tw":"Tallinn","name:ug":"تاللىن","name:uk":"Таллінн","name:ur":"ٹالن","name:uz":"Tallin","name:vi":"Tallinn","name:vo":"Tallinn","name:wo":"Talin","name:yi":"טאלין","name:yo":"Tallinn","name:zh":"塔林","int_name":"Tallinn","name:ace":"Tallinn","name:ang":"Reval","name:arz":"تالين","name:ast":"Tallín","name:cdo":"Tallinn","name:ceb":"Tallinn","name:ckb":"تاڵین","name:csb":"Tallinn","name:diq":"Talin","name:dsb":"Tallinn","name:frr":"Tallinn","name:gag":"Tallinn","name:hak":"Tallinn","name:hif":"Tallinn","name:hsb":"Tallinn","name:kaa":"Tallin","name:koi":"Таллинн","name:lad":"Tallin","name:lij":"Tallinn","name:lmo":"Tallinn","name:lrc":"تالین","name:ltg":"Talins","name:mdf":"Таллинн","name:mhr":"Таллинн","name:mrj":"Таллинн","name:myv":"Таллин ош","name:mzn":"تالین","name:nah":"Tallin","name:nan":"Tallinn","name:nds":"Revel","name:nov":"Tallinn","name:olo":"Tallinn","name:pap":"Tallinn","name:pdc":"Tallinn","name:pih":"Tallinn","name:pms":"Tallin","name:pnb":"ٹالن","name:rmy":"Tallinn","name:rue":"Таллінн","name:sah":"Таллинн","name:scn":"Tallin","name:sco":"Tallinn","name:stq":"Tallinn","name:szl":"Tallinn","name:tpi":"Talin","name:udm":"Таллин","name:vec":"Tallinn","name:vep":"Tallidn","name:vro":"Talliin","name:war":"Tallinn","name:xmf":"ტალინი","name:yue":"塔林","alt_name:ba":"Та́ллинн","alt_name:gl":"Tallin","alt_name:la":"Tallinna","alt_name:pt":"Talim","alt_name:ru":"Таллин","alt_name:tl":"Tallin","old_name:af":"Reval","old_name:bs":"Reval","old_name:da":"Lyndanisse","old_name:de":"Reval","old_name:fi":"Rääveli","old_name:id":"Reval","old_name:la":"Revalia","old_name:li":"Reval","old_name:ln":"Reval","old_name:pa":"ਰੇਵਾਲ","old_name:pt":"Reval","old_name:ru":"Ревель","old_name:se":"Reval","old_name:sv":"Reval","old_name:tt":"Reval","old_name:uz":"Revel","alt_name:rue":"Таллинн","alt_name:vep":"Tallinn","name:bat-smg":"Talins","old_name:rue":"Ревал","old_name:sco":"Lindanisa","name:ab":"Таллин","name:ay":"Tallin","name:bm":"Talin","name:cu":"Талинъ","name:ps":"تالین","name:sd":"تالن","name:to":"Talini","name:be-tarask":"Талін","old_name:hr":"Revel","name:zh-Hans":"塔林","alt:ba":"Таллинн","alt:gl":"Talín - Tallinn","alt:hr":"Talin","alt:mn":"Таллин","alt:ru":"Таллин","alt:tl":"Tallin","alt:tt":"Таллинн"},"display_name":"Tallinn, Harju maakond, Eesti","address":{"city":"Tallinn","municipality":"Tallinn","ISO3166-2-lvl7":"EE-784","county":"Harju maakond","ISO3166-2-lvl6":"EE-37","country":"Eesti","country_code":"ee"},"population":443623,"osm_type":"relation","osm_id":2164745,"type":"administrative","location":[24.7453688,59.4372155],"bbox":[24.55017,59.3518076,24.9262831,59.5915769]}]}
{"name":"Tartu","other_names":{"name:ar":"تارتو","name:ba":"Тарту","name:be":"Тарту","name:bg":"Тарту","name:ce":"Тарту","name:cv":"Тарту","name:de":"Tartu","name:el":"Ταρτού","name:en":"Tartu","name:fa":"تارتو","name:fi":"Tartto","name:he":"טרטו","name:hy":"Տարտու","name:it":"Tartu","name:ja":"タルトゥ","name:ka":"ტარტუ","name:kk":"Тарту","name:ko":"타르투","name:kv":"Тарту","name:ky":"Тарту","name:la":"Tarbatum","name:lt":"Tartu","name:mk":"Тарту","name:ml":"ടർട്ടു","name:mn":"Тарту","name:mr":"तार्तू","name:ne":"टार्टू","name:os":"Тарту","name:pa":"ਤਾਰਤੁ","name:pl":"Tartu","name:ru":"Тарту","name:sr":"Тарту","name:tg":"Тарту","name:th":"ตาร์ตู","name:tt":"Тарту","name:uk":"Тарту","name:ur":"تارتو","name:zh":"答尔丢夫","name:vro":"Tarto","old_name:de":"Dorpat;Dörpt","old_name:hr":"Dorpat","old_name:sv":"Dorpat"},"display_name":"Tartu, Tartu linn, Tartu maakond, Eesti","address":{"city":"Tartu","municipality":"Tartu linn","ISO3166-2-lvl7":"EE-793","county":"Tartu maakond","ISO3166-2-lvl6":"EE-79","country":"Eesti","country_code":"ee"},"population":102414,"osm_type":"node","osm_id":293620554,"type":"city","location":[26.72245,58.3801207],"bbox":[26.56245,58.2201207,26.88245,58.5401207],"border":[{"name":"Tartu linn","other_names":{"name:el":"Δήμος Ταρτού","name:et":"Tartu linn","name:lt":"Tartu miestas","name:ru":"город Тарту","alt_name":"Tartu","name:vro":"Tarto liin","ISO3166-2":"EE-793"},"display_name":"Tartu linn, Tartu maakond, Eesti","address":{"municipality":"Tartu linn","ISO3166-2-lvl7":"EE-793","county":"Tartu maakond","ISO3166-2-lvl6":"EE-79","country":"Eesti","country_code":"ee"},"osm_type":"relation","osm_id":351439,"type":"administrative","location":[26.630885501668523,58.395645349999995],"bbox":[26.4570162,58.332045,26.7980072,58.4592025]},{"name":"Tartu linn","other_names":{"name:el":"Ταρτού","name:et":"Tartu linn","name:lt":"Tartu","name:ru":"Тарту","alt_name":"Tartu","name:vro":"Tarto","name:ar":"تارتو","name:ba":"Тарту","name:be":"Тарту","name:bg":"Тарту","name:ce":"Тарту","name:cv":"Тарту","name:de":"Tartu","name:en":"Tartu","name:fa":"تارتو","name:fi":"Tartto","name:he":"טרטו","name:hy":"Տարտու","name:it":"Tartu","name:ja":"タルトゥ","name:ka":"ტარტუ","name:kk":"Тарту","name:ko":"타르투","name:kv":"Тарту","name:ky":"Тарту","name:la":"Tarbatum","name:mk":"Тарту","name:ml":"ടർട്ടു","name:mn":"Тарту","name:mr":"तार्तू","name:ne":"टार्टू","name:os":"Тарту","name:pa":"ਤਾਰਤੁ","name:pl":"Tartu","name:sr":"Тарту","name:tg":"Тарту","name:th":"ตาร์ตู","name:tt":"Тарту","name:uk":"Тарту","name:ur":"تارتو","name:zh":"答尔丢夫","old_name:de":"Dorpat;Dörpt","old_name:hr":"Dorpat","old_name:sv":"Dorpat","alt":"Tartu"},"display_name":"Tartu linn, Tartu maakond, Eesti","address":{"city":"Tartu linn","municipality":"Tartu linn","ISO3166-2-lvl7":"EE-793","county":"Tartu maakond","ISO3166-2-lvl6":"EE-79","country":"Eesti","country_code":"ee"},"population":102414,"osm_type":"relation","osm_id":2153396,"type":"administrative","location":[26.72245,58.3801207],"bbox":[26.6670755,58.3390114,26.7980072,58.4108848]}]}
