{"name":"Kingston","other_names":{"name:am":"ኪንግስቶን","name:ar":"كينغستون","name:az":"Kinqston","name:be":"Кінгстан","name:bg":"Кингстън","name:bo":"ཁིང་སི་ཐོན།","name:br":"Kingston","name:ca":"Kingston","name:cv":"Кингстон","name:de":"Kingston","name:el":"Κίνγκστον","name:en":"Kingston","name:eo":"Kingstono","name:es":"Kingston","name:fa":"کینگستون","name:fr":"Kingston","name:gd":"Kingston","name:he":"קינגסטון","name:ht":"Kinstòn","name:hu":"Kingston","name:hy":"Քինգստոն","name:is":"Kingston","name:ja":"キングストン","name:ka":"კინგსტონი","name:ko":"킹스턴","name:la":"Regiopolis","name:lt":"Kingstonas","name:lv":"Kingstona","name:mk":"Кингстон","name:mr":"किंग्स्टन","name:oc":"Kingston","name:os":"Кингстон","name:pl":"Kingstone","name:ru":"Кингстон","name:sr":"Кингстон","name:sv":"Kingston","name:ta":"கிங்ஸ்டன்","name:th":"คิงส์ตัน","name:uk":"Кінгстон","name:ur":"کنگسٹن","name:zh":"金斯敦","name:ang":"Cyninȝestūn","name:sah":"Киҥстон","name:zh-Hans":"京斯敦","name:zh-Hant":"京斯敦","name:be-tarask":"Кінгстан"},"display_name":"Kingston, Surrey County, Jamaica","address":{"city":"Kingston","county":"Kingston","ISO3166-2-lvl6":"JM-01","state_district":"Surrey County","country":"Jamaica","country_code":"jm"},"population":660000,"osm_type":"node","osm_id":53371112,"type":"city","location":[-76.7928128,17.9712148],"bbox":[-76.9528128,17.8112148,-76.6328128,18.1312148],"border":{"name":"Kingston","other_names":{"name:en":"Kingston","ISO3166-2":"JM-01","official_name":"Kingston Parish"},"display_name":"Kingston, Surrey County, Jamaica","address":{"county":"Kingston","ISO3166-2-lvl6":"JM-01","state_district":"Surrey County","country":"Jamaica","country_code":"jm"},"osm_type":"relation","osm_id":6577227,"type":"administrative","location":[-76.76522019694673,17.9692835],"bbox":[-76.8470719,17.9282139,-76.7204775,17.9860985]}}
{"name":"Montego Bay","display_name":"Montego Bay, Saint James, Cornwall County, Jamaica","address":{"city":"Montego Bay","county":"Saint James","ISO3166-2-lvl6":"JM-08","state_district":"Cornwall County","country":"Jamaica","country_code":"jm"},"population":110115,"osm_type":"node","osm_id":3766105257,"type":"city","location":[-77.9217357,18.4724603],"bbox":[-78.0817357,18.3124603,-77.7617357,18.6324603],"border":[{"name":"Montego Bay","display_name":"Montego Bay, Saint James, Cornwall County, Jamaica","address":{"city":"Montego Bay","county":"Saint James","ISO3166-2-lvl6":"JM-08","state_district":"Cornwall County","country":"Jamaica","country_code":"jm"},"population":110115,"osm_type":"way","osm_id":1286677876,"type":"city","location":[-77.9217357,18.4724603],"bbox":[-77.951798,18.428955,-77.8626692,18.5157911]},{"name":"Montego Bay","other_names":{"name:en":"Montego Bay","name:hu":"Montego Bay","name:ru":"Монтего-Бей","loc_name":"Mobay"},"display_name":"Montego Bay, Saint James, Cornwall County, Jamaica","address":{"city":"Montego Bay","county":"Saint James","ISO3166-2-lvl6":"JM-08","state_district":"Cornwall County","country":"Jamaica","country_code":"jm"},"population":110115,"osm_type":"way","osm_id":373067072,"type":"city","location":[-77.9217357,18.4724603],"bbox":[-77.9274209,18.4630457,-77.9119878,18.4790101]}]}
{"name":"Negril","other_names":{"name:en":"Negril","name:ru":"Негрил"},"display_name":"Negril, Westmoreland, Cornwall County, Jamaica","address":{"city":"Negril","county":"Westmoreland","ISO3166-2-lvl6":"JM-10","state_district":"Cornwall County","country":"Jamaica","country_code":"jm"},"osm_type":"node","osm_id":290111762,"type":"city","location":[-78.3494771,18.2779531],"bbox":[-78.5094771,18.1179531,-78.1894771,18.4379531]}
{"name":"Ocho Rios","other_names":{"name:en":"Ocho Rios","alt_name":"Las Correras"},"display_name":"Ocho Rios, Saint Ann, Middlesex County, Jamaica","address":{"city":"Ocho Rios","county":"Saint Ann","ISO3166-2-lvl6":"JM-06","state_district":"Middlesex County","country":"Jamaica","country_code":"jm"},"osm_type":"node","osm_id":290801759,"type":"city","location":[-77.1011092,18.4081045],"bbox":[-77.2611092,18.2481045,-76.9411092,18.5681045],"border":{"name":"Ocho Rios","other_names":{"name:ar":"أوتشو ريوس","name:de":"Ocho Rios","name:el":"Ότσο Ρίος","name:en":"Ocho Rios","name:fr":"Ocho Rios","name:it":"Ocho Rios","name:ja":"オーチョ・リオス","name:nl":"Ocho Rios","name:no":"Ocho Ríos","name:pl":"Ocho Rios","name:pt":"Ocho Rios","name:ru":"Очо-Риос","name:sv":"Ocho Rios","name:uk":"Очо-Ріос","name:zh":"奧喬里奧斯"},"display_name":"Ocho Rios, Saint Ann, Middlesex County, Jamaica","address":{"city_district":"Ocho Rios","county":"Saint Ann","ISO3166-2-lvl6":"JM-06","state_district":"Middlesex County","country":"Jamaica","country_code":"jm"},"osm_type":"relation","osm_id":12692790,"type":"administrative","location":[-77.1174197681076,18.3792074],"bbox":[-77.1660228,18.3353246,-77.0424172,18.4231]}}
{"name":"Portmore","other_names":{"name:en":"Portmore","name:hu":"Portmore"},"display_name":"Portmore, Saint Catherine, Middlesex County, Jamaica","address":{"city":"Portmore","county":"Saint Catherine","ISO3166-2-lvl6":"JM-14","state_district":"Middlesex County","country":"Jamaica","country_code":"jm"},"population":170000,"osm_type":"node","osm_id":290803535,"type":"city","location":[-76.8738048,17.9717917],"bbox":[-77.0338048,17.8117917,-76.7138048,18.1317917],"border":{"name":"Portmore","other_names":{"name:en":"Portmore","name:hu":"Portmore"},"display_name":"Portmore, Saint Catherine, Middlesex County, Jamaica","address":{"city":"Portmore","county":"Saint Catherine","ISO3166-2-lvl6":"JM-14","state_district":"Middlesex County","country":"Jamaica","country_code":"jm"},"population":170000,"osm_type":"way","osm_id":1286648216,"type":"city","location":[-76.8738048,17.9717917],"bbox":[-76.9234613,17.9292955,-76.8587545,18.003842]}}
{"display_name":"Saint Andrew, Surrey County, Jamaica","address":{"county":"Saint Andrew","ISO3166-2-lvl6":"JM-02","state_district":"Surrey County","country":"Jamaica","country_code":"jm"},"osm_type":"way","osm_id":1286639286,"type":"city","location":[-76.79527860237471,18.022435],"bbox":[-76.8726455,17.9633243,-76.7319389,18.0850725]}
{"name":"Spanish Town","other_names":{"name:en":"Spanish Town","name:es":"Ciudad Española","name:hu":"Spanish Towns","name:ru":"Спаниш-Таун","name:jam":"Panish Tong","old_name":"Villa de la Vega","old_name:es":"Nuestra Villa de la Santísima Señora de la Vega"},"display_name":"Spanish Town, Saint Catherine, Middlesex County, Jamaica","address":{"city":"Spanish Town","county":"Saint Catherine","ISO3166-2-lvl6":"JM-14","state_district":"Middlesex County","country":"Jamaica","country_code":"jm"},"population":131056,"osm_type":"node","osm_id":247716893,"type":"city","location":[-76.9540831,17.9956926],"bbox":[-77.1140831,17.8356926,-76.7940831,18.1556926]}
