{"name":"Bous-Waldbredimus","other_names":{"name:de":"Bous-Waldbredimus","name:fr":"Bous-Waldbredimus","name:lb":"Bous-Waldbriedemes"},"display_name":"Bous-Waldbredimus, Canton Remich, Lëtzebuerg","address":{"city":"Bous-Waldbredimus","county":"Canton Remich","ISO3166-2-lvl6":"LU-RM","country":"Lëtzebuerg","country_code":"lu"},"osm_type":"relation","osm_id":407500,"type":"administrative","location":[6.310373097047966,49.55855135],"bbox":[6.253775,49.5304815,6.3553825,49.5865614],"inferred_type":"city"}
{"name":"Feulen","other_names":{"name:de":"Feulen","name:fr":"Feulen","name:lb":"Feelen"},"display_name":"Feulen, Canton Diekirch, Lëtzebuerg","address":{"city":"Feulen","county":"Canton Diekirch","ISO3166-2-lvl6":"LU-DI","country":"Lëtzebuerg","country_code":"lu"},"osm_type":"relation","osm_id":1113660,"type":"administrative","location":[6.028475367231127,49.8620134],"bbox":[5.9854638,49.8326293,6.0690108,49.8913747],"inferred_type":"city"}
{"name":"Groussbus-Wal","other_names":{"name:de":"Grosbus-Wahl","name:fr":"Grosbous-Wahl","name:lb":"Groussbus-Wal"},"display_name":"Groussbus-Wal, Canton Redange, Lëtzebuerg","address":{"city":"Groussbus-Wal","county":"Canton Redange","ISO3166-2-lvl6":"LU-RD","country":"Lëtzebuerg","country_code":"lu"},"osm_type":"relation","osm_id":1354531,"type":"administrative","location":[5.934584451723794,49.84900785000001],"bbox":[5.8678122,49.8096264,5.9873114,49.8883951],"inferred_type":"city"}
{"name":"Helperknapp","other_names":{"name:de":"Helperknapp","name:fr":"Helperknapp","name:lb":"Helperknapp","name:lt":"Helperknapas"},"display_name":"Helperknapp, Canton Mersch, Lëtzebuerg","address":{"city":"Helperknapp","county":"Canton Mersch","ISO3166-2-lvl6":"LU-ME","country":"Lëtzebuerg","country_code":"lu"},"osm_type":"relation","osm_id":1333122,"type":"administrative","location":[6.020404303333334,49.73935905],"bbox":[5.9859216,49.6913129,6.0837924,49.7873915],"inferred_type":"city"}
{"name":"Käerjeng","other_names":{"name:de":"Käerjeng","name:fr":"Käerjeng","name:lb":"Käerjeng","name:lt":"Kaeržengas","name:ru":"Кэрьенг"},"display_name":"Käerjeng, Canton Capellen, Lëtzebuerg","address":{"city":"Käerjeng","county":"Canton Capellen","ISO3166-2-lvl6":"LU-CA","country":"Lëtzebuerg","country_code":"lu"},"osm_type":"relation","osm_id":407885,"type":"administrative","location":[5.901115286026008,49.5877163],"bbox":[5.8477614,49.5462031,5.9579636,49.6292195],"inferred_type":"city"}
{"name":"Kiischpelt","other_names":{"name:de":"Kiischpelt","name:fr":"Kiischpelt","name:lb":"Kiischpelt","alt_name:de":"Kirchspiel"},"display_name":"Kiischpelt, Canton Wiltz, Lëtzebuerg","address":{"city":"Kiischpelt","county":"Canton Wiltz","ISO3166-2-lvl6":"LU-WI","country":"Lëtzebuerg","country_code":"lu"},"osm_type":"relation","osm_id":1357619,"type":"administrative","location":[6.000856844569627,49.978454799999994],"bbox":[5.9638507,49.936946,6.0608408,50.0199735],"inferred_type":"city"}
{"name":"Lac de la Haute-Sûre","other_names":{"name:de":"Stauseegemeinde","name:fr":"Lac de la Haute-Sûre","name:lb":"Stauséigemeng"},"display_name":"Lac de la Haute-Sûre, Canton Wiltz, Lëtzebuerg","address":{"city":"Lac de la Haute-Sûre","county":"Canton Wiltz","ISO3166-2-lvl6":"LU-WI","country":"Lëtzebuerg","country_code":"lu"},"osm_type":"relation","osm_id":1357248,"type":"administrative","location":[5.851117709028163,49.931533349999995],"bbox":[5.7604667,49.8974294,5.9498902,49.965689],"inferred_type":"city"}
{"name":"Luxembourg","other_names":{"name:af":"Luxemburg","name:am":"ሉክሰምበርግ","name:an":"Luxemburgo","name:ar":"لوكسمبورغ","name:av":"Люксембург","name:az":"Lüksemburq","name:ba":"Люксембург","name:be":"Люксембург","name:bg":"Люксембург","name:bi":"Luxembourg","name:bn":"লুক্সেমবুর্গ","name:bo":"ལུ་སེམ་བའུརག","name:br":"Luksembourg","name:bs":"Luxembourg","name:ca":"Luxemburg","name:ce":"Люксембург","name:co":"Lussemburgu","name:cs":"Lucemburk","name:cu":"Люѯємбоургъ","name:cv":"Люксембург","name:cy":"Lwcsembwrg","name:da":"Luxembourg","name:de":"Luxemburg","name:ee":"Luxembourg","name:el":"Λουξεμβούργο","name:en":"Luxembourg","name:eo":"Luksemburgo","name:es":"Luxemburgo","name:et":"Luxembourg","name:eu":"Luxenburgo","name:fa":"لوکزامبورگ","name:fi":"Luxemburg","name:fo":"Luksemburg","name:fr":"Luxembourg","name:fy":"Lúksemboarch","name:ga":"Lucsamburg","name:gd":"Lucsamburg","name:gl":"Luxemburgo","name:gn":"Luxemburgo","name:gu":"લક્ઝેમ્બર્ગ","name:gv":"Lucsemburg","name:ha":"Luxembourg","name:he":"לוקסמבורג","name:hi":"लक्ज़मबर्ग","name:hr":"Luksemburg","name:ht":"Liksanbou","name:hu":"Luxembourg","name:hy":"Լյուքսեմբուրգ","name:ia":"Luxemburg","name:id":"Luksemburg","name:ie":"Luxemburgia","name:io":"Luxemburgia","name:is":"Lúxemborg","name:it":"Lussemburgo","name:ja":"ルクセンブルク","name:jv":"Luksemburg","name:ka":"ლუქსემბურგი","name:kg":"Luxembourg","name:kk":"Люксембург","name:kl":"Luxembourg","name:kn":"ಲುಕ್ಸೆಂಬೂರ್ಗ್","name:ko":"룩셈부르크","name:ku":"Lûksembûrg","name:kv":"Люксембург","name:kw":"Lushaborg","name:ky":"Люксембург","name:la":"Luxemburgum","name:lb":"Lëtzebuerg","name:li":"Luxembörg","name:ln":"Luksamburg","name:lt":"Liuksemburgas","name:lv":"Luksemburga","name:mg":"Loksemborga","name:mi":"Rakapuō","name:mk":"Луксембург","name:ml":"ലക്സംബർഗ്","name:mn":"Люксембург","name:mr":"लक्झेंबर्ग","name:ms":"Luxembourg","name:mt":"Lussemburgu","name:my":"လူဇင်ဘတ်နိုင်ငံ","name:na":"Ruketemburg","name:nb":"Luxembourg","name:ne":"लक्जेम्बर्ग","name:nl":"Luxemburg","name:nn":"Luxembourg","name:no":"Luxembourg","name:nv":"Látsębooʼ","name:oc":"Luxemborg","name:or":"ଲକ୍ସମବର୍ଗ","name:os":"Люксембург","name:pa":"ਲਕਸਮਬਰਗ","name:pl":"Luksemburg","name:ps":"لوګزامبورګ","name:pt":"Luxemburgo","name:qu":"Luksimbur","name:rm":"Luxemburg","name:ro":"Luxemburg","name:ru":"Люксембург","name:rw":"Lugizamburu","name:sa":"लक्सम्बर्ग","name:sc":"Lussemburgu","name:se":"Luxemburg","name:sh":"Luksemburg","name:sk":"Luxemburg","name:sl":"Luksemburg","name:sn":"Luxembourg","name:so":"Luksemburg","name:sq":"Luksemburgu","name:sr":"Луксембург","name:ss":"Lusembogu","name:su":"Luksemburg","name:sv":"Luxemburg","name:sw":"Luxemburg","name:ta":"லக்சம்பர்க்","name:tg":"Люксембург","name:th":"ลักเซมเบิร์ก","name:tk":"Lýuksemburg","name:tl":"Luxembourg","name:tr":"Lüksemburg","name:tt":"Люксембург","name:ug":"ليۇكسېمبۇرگ شەھىرى","name:uk":"Люксембург","name:ur":"لکسمبرگ","name:uz":"Luksemburg","name:vi":"Luxembourg","name:vo":"Luxämburgän","name:wa":"Lussimbork","name:wo":"Luksambuur","name:yi":"לוקסעמבורג","name:yo":"Luxembourg","name:zh":"卢森堡 / 盧森堡","name:ace":"Luksèmburg","name:als":"Luxemburg","name:ang":"Letseburg","name:arc":"ܠܘܟܣܡܒܘܪܓ","name:arz":"لوكسيمبورج","name:ast":"Luxemburgu","name:bar":"Luxmburg","name:bcl":"Luhemburgo","name:bpy":"লুক্সেমবুর্গ","name:bxr":"Люксембург","name:cdo":"Lù-sĕng-bō̤","name:ceb":"Luksemburgo","name:ckb":"لوکسەمبورگ","name:crh":"Lüksemburg","name:csb":"Luksembùrg","name:diq":"Luksemburg","name:dsb":"Luxemburgska","name:eml":"Lussembûrgh","name:ext":"Lussembulgu","name:frp":"Luxembôrg","name:frr":"Luxemborj","name:fur":"Lussemburc","name:gag":"Lüksemburg","name:hak":"Lù-sêm-pó","name:haw":"Lukemapuka","name:hif":"Luxembourg","name:hsb":"Luxemburgska","name:ilo":"Luxembourg","name:jbo":"lEtsyburg","name:kaa":"Lyuksemburg","name:kab":"Luxembourg","name:kbd":"Луксембург","name:koi":"Лецебург","name:krc":"Люксембург","name:ksh":"Luxemburg","name:lad":"Luksemburgo","name:lez":"Люксембург","name:lij":"Luxemburgo","name:lmo":"Lüssemburgh","name:ltg":"Luksemburga","name:lzh":"盧森堡","name:mdf":"Люксембур","name:mhr":"Люксембург","name:mzn":"لوکزامبورگ","name:nah":"Luxemburgo","name:nan":"Luxembourg","name:nds":"Luxemborg","name:new":"लक्जेम्बर्ग","name:nov":"Luxembourg","name:nrm":"Luxembourg","name:pam":"Luxemburgo","name:pap":"Luxembourg","name:pcd":"Lussimbourk","name:pdc":"Luxemburg","name:pfl":"Lugsebursch","name:pih":"Luksemborg","name:pms":"Lussemborgh","name:pnb":"لکسمبرگ","name:pnt":"Λουξεμβούργο","name:rmy":"Luksemburgo","name:rue":"Луксембурьско","name:sah":"Лүксембург","name:scn":"Lussimburgu","name:sco":"Luxembourg","name:srn":"Luksemburgkondre","name:stq":"Luxembuurich","name:szl":"Luksymburg","name:tet":"Luxemburgu","name:udm":"Люксембург","name:vec":"Lusenburgo","name:vep":"Lüksemburg","name:vls":"Luxemburg","name:vro":"Luxembourg","name:war":"Luxemburgo","name:wuu":"卢森堡","name:xal":"Лүксин Балһсна Нутг","name:xmf":"ლუქსემბურგი","name:yue":"盧森堡","name:zea":"Luxemburg","alt_name:la":"Luxemburgum","name:nds-nl":"Luxemburg","name:simple":"Luxembourg","name:bat-smg":"Lioksembōrgs","name:zh-Hans":"卢森堡","name:zh-Hant":"盧森堡","name:roa-tara":"Lussemburghe","name:be-tarask":"Люксэмбург"},"display_name":"Luxembourg, Canton Luxembourg, Lëtzebuerg","address":{"city":"Luxembourg","county":"Canton Luxembourg","ISO3166-2-lvl6":"LU-LU","country":"Lëtzebuerg","country_code":"lu"},"population":122273,"osm_type":"node","osm_id":52943358,"type":"city","location":[6.129799,49.6112768],"bbox":[5.969799,49.4512768,6.289799,49.7712768],"border":{"name":"Luxembourg","other_names":{"name:ca":"Luxemburg","name:de":"Luxemburg","name:en":"Luxembourg","name:es":"Luxemburgo","name:fr":"Luxembourg","name:lb":"Lëtzebuerg","name:lt":"Liuksemburgas","name:nl":"Luxemburg","name:af":"Luxemburg","name:am":"ሉክሰምበርግ","name:an":"Luxemburgo","name:ar":"لوكسمبورغ","name:av":"Люксембург","name:az":"Lüksemburq","name:ba":"Люксембург","name:be":"Люксембург","name:bg":"Люксембург","name:bi":"Luxembourg","name:bn":"লুক্সেমবুর্গ","name:bo":"ལུ་སེམ་བའུརག","name:br":"Luksembourg","name:bs":"Luxembourg","name:ce":"Люксембург","name:co":"Lussemburgu","name:cs":"Lucemburk","name:cu":"Люѯємбоургъ","name:cv":"Люксембург","name:cy":"Lwcsembwrg","name:da":"Luxembourg","name:ee":"Luxembourg","name:el":"Λουξεμβούργο","name:eo":"Luksemburgo","name:et":"Luxembourg","name:eu":"Luxenburgo","name:fa":"لوکزامبورگ","name:fi":"Luxemburg","name:fo":"Luksemburg","name:fy":"Lúksemboarch","name:ga":"Lucsamburg","name:gd":"Lucsamburg","name:gl":"Luxemburgo","name:gn":"Luxemburgo","name:gu":"લક્ઝેમ્બર્ગ","name:gv":"Lucsemburg","name:ha":"Luxembourg","name:he":"לוקסמבורג","name:hi":"लक्ज़मबर्ग","name:hr":"Luksemburg","name:ht":"Liksanbou","name:hu":"Luxembourg","name:hy":"Լյուքսեմբուրգ","name:ia":"Luxemburg","name:id":"Luksemburg","name:ie":"Luxemburgia","name:io":"Luxemburgia","name:is":"Lúxemborg","name:it":"Lussemburgo","name:ja":"ルクセンブルク","name:jv":"Luksemburg","name:ka":"ლუქსემბურგი","name:kg":"Luxembourg","name:kk":"Люксембург","name:kl":"Luxembourg","name:kn":"ಲುಕ್ಸೆಂಬೂರ್ಗ್","name:ko":"룩셈부르크","name:ku":"Lûksembûrg","name:kv":"Люксембург","name:kw":"Lushaborg","name:ky":"Люксембург","name:la":"Luxemburgum","name:li":"Luxembörg","name:ln":"Luksamburg","name:lv":"Luksemburga","name:mg":"Loksemborga","name:mi":"Rakapuō","name:mk":"Луксембург","name:ml":"ലക്സംബർഗ്","name:mn":"Люксембург","name:mr":"लक्झेंबर्ग","name:ms":"Luxembourg","name:mt":"Lussemburgu","name:my":"လူဇင်ဘတ်နိုင်ငံ","name:na":"Ruketemburg","name:nb":"Luxembourg","name:ne":"लक्जेम्बर्ग","name:nn":"Luxembourg","name:no":"Luxembourg","name:nv":"Látsębooʼ","name:oc":"Luxemborg","name:or":"ଲକ୍ସମବର୍ଗ","name:os":"Люксембург","name:pa":"ਲਕਸਮਬਰਗ","name:pl":"Luksemburg","name:ps":"لوګزامبورګ","name:pt":"Luxemburgo","name:qu":"Luksimbur","name:rm":"Luxemburg","name:ro":"Luxemburg","name:ru":"Люксембург","name:rw":"Lugizamburu","name:sa":"लक्सम्बर्ग","name:sc":"Lussemburgu","name:se":"Luxemburg","name:sh":"Luksemburg","name:sk":"Luxemburg","name:sl":"Luksemburg","name:sn":"Luxembourg","name:so":"Luksemburg","name:sq":"Luksemburgu","name:sr":"Луксембург","name:ss":"Lusembogu","name:su":"Luksemburg","name:sv":"Luxemburg","name:sw":"Luxemburg","name:ta":"லக்சம்பர்க்","name:tg":"Люксембург","name:th":"ลักเซมเบิร์ก","name:tk":"Lýuksemburg","name:tl":"Luxembourg","name:tr":"Lüksemburg","name:tt":"Люксембург","name:ug":"ليۇكسېمبۇرگ شەھىرى","name:uk":"Люксембург","name:ur":"لکسمبرگ","name:uz":"Luksemburg","name:vi":"Luxembourg","name:vo":"Luxämburgän","name:wa":"Lussimbork","name:wo":"Luksambuur","name:yi":"לוקסעמבורג","name:yo":"Luxembourg","name:zh":"卢森堡 / 盧森堡","name:ace":"Luksèmburg","name:als":"Luxemburg","name:ang":"Letseburg","name:arc":"ܠܘܟܣܡܒܘܪܓ","name:arz":"لوكسيمبورج","name:ast":"Luxemburgu","name:bar":"Luxmburg","name:bcl":"Luhemburgo","name:bpy":"লুক্সেমবুর্গ","name:bxr":"Люксембург","name:cdo":"Lù-sĕng-bō̤","name:ceb":"Luksemburgo","name:ckb":"لوکسەمبورگ","name:crh":"Lüksemburg","name:csb":"Luksembùrg","name:diq":"Luksemburg","name:dsb":"Luxemburgska","name:eml":"Lussembûrgh","name:ext":"Lussembulgu","name:frp":"Luxembôrg","name:frr":"Luxemborj","name:fur":"Lussemburc","name:gag":"Lüksemburg","name:hak":"Lù-sêm-pó","name:haw":"Lukemapuka","name:hif":"Luxembourg","name:hsb":"Luxemburgska","name:ilo":"Luxembourg","name:jbo":"lEtsyburg","name:kaa":"Lyuksemburg","name:kab":"Luxembourg","name:kbd":"Луксембург","name:koi":"Лецебург","name:krc":"Люксембург","name:ksh":"Luxemburg","name:lad":"Luksemburgo","name:lez":"Люксембург","name:lij":"Luxemburgo","name:lmo":"Lüssemburgh","name:ltg":"Luksemburga","name:lzh":"盧森堡","name:mdf":"Люксембур","name:mhr":"Люксембург","name:mzn":"لوکزامبورگ","name:nah":"Luxemburgo","name:nan":"Luxembourg","name:nds":"Luxemborg","name:new":"लक्जेम्बर्ग","name:nov":"Luxembourg","name:nrm":"Luxembourg","name:pam":"Luxemburgo","name:pap":"Luxembourg","name:pcd":"Lussimbourk","name:pdc":"Luxemburg","name:pfl":"Lugsebursch","name:pih":"Luksemborg","name:pms":"Lussemborgh","name:pnb":"لکسمبرگ","name:pnt":"Λουξεμβούργο","name:rmy":"Luksemburgo","name:rue":"Луксембурьско","name:sah":"Лүксембург","name:scn":"Lussimburgu","name:sco":"Luxembourg","name:srn":"Luksemburgkondre","name:stq":"Luxembuurich","name:szl":"Luksymburg","name:tet":"Luxemburgu","name:udm":"Люксембург","name:vec":"Lusenburgo","name:vep":"Lüksemburg","name:vls":"Luxemburg","name:vro":"Luxembourg","name:war":"Luxemburgo","name:wuu":"卢森堡","name:xal":"Лүксин Балһсна Нутг","name:xmf":"ლუქსემბურგი","name:yue":"盧森堡","name:zea":"Luxemburg","alt_name:la":"Luxemburgum","name:nds-nl":"Luxemburg","name:simple":"Luxembourg","name:bat-smg":"Lioksembōrgs","name:zh-Hans":"卢森堡","name:zh-Hant":"盧森堡","name:roa-tara":"Lussemburghe","name:be-tarask":"Люксэмбург"},"display_name":"Luxembourg, Canton Luxembourg, Lëtzebuerg","address":{"city":"Luxembourg","county":"Canton Luxembourg","ISO3166-2-lvl6":"LU-LU","country":"Lëtzebuerg","country_code":"lu"},"population":122273,"osm_type":"relation","osm_id":407489,"type":"administrative","location":[6.129799,49.6112768],"bbox":[6.06917,49.5609875,6.2036491,49.6548682]}}
{"name":"Parc Hosingen","other_names":{"name:de":"Park Hosingen","name:fr":"Parc Hosingen","name:lb":"Parc Housen"},"display_name":"Parc Hosingen, Canton Clervaux, Lëtzebuerg","address":{"city":"Parc Hosingen","county":"Canton Clervaux","ISO3166-2-lvl6":"LU-CL","country":"Lëtzebuerg","country_code":"lu"},"osm_type":"relation","osm_id":1342841,"type":"administrative","location":[6.099056325473252,49.9963317],"bbox":[6.0233242,49.9323019,6.1726141,50.0603878],"inferred_type":"city"}
{"name":"Préizerdaul","other_names":{"name:de":"Préizerdaul","name:fr":"Préizerdaul","name:lb":"Préizerdaul","alt_name:de":"Pratzertal"},"display_name":"Préizerdaul, Canton Redange, Lëtzebuerg","address":{"city":"Préizerdaul","county":"Canton Redange","ISO3166-2-lvl6":"LU-RD","country":"Lëtzebuerg","country_code":"lu"},"osm_type":"relation","osm_id":1355222,"type":"administrative","location":[5.934829471031984,49.80211695],"bbox":[5.9007918,49.7785733,5.9691462,49.8255139],"inferred_type":"city"}
{"name":"Rosport-Mompach","other_names":{"name:de":"Rosport-Mompach","name:fr":"Rosport-Mompach","name:lb":"Rouspert-Mompech"},"display_name":"Rosport-Mompach, Canton Echternach, Lëtzebuerg","address":{"city":"Rosport-Mompach","county":"Canton Echternach","ISO3166-2-lvl6":"LU-EC","country":"Lëtzebuerg","country_code":"lu"},"osm_type":"relation","osm_id":569739,"type":"administrative","location":[6.4566809829216325,49.77678965],"bbox":[6.3912979,49.7312766,6.5308979,49.8223227],"inferred_type":"city"}
{"name":"Vallée de l'Ernz","other_names":{"name:de":"Ernztalgemeinde","name:fr":"Vallée de l'Ernz","name:lb":"Ärenzdallgemeng"},"display_name":"Vallée de l'Ernz, Canton Diekirch, Lëtzebuerg","address":{"city":"Vallée de l'Ernz","county":"Canton Diekirch","ISO3166-2-lvl6":"LU-DI","country":"Lëtzebuerg","country_code":"lu"},"osm_type":"relation","osm_id":1113599,"type":"administrative","location":[6.226477355308458,49.82142195],"bbox":[6.142671,49.7853785,6.2714556,49.8574664],"inferred_type":"city"}
