{"name":"Bettembourg","other_names":{"name:de":"Bettemburg","name:fr":"Bettembourg","name:lb":"Beetebuerg","name:lt":"Betembūras","alt_name:lb":"Beetebuerg"},"display_name":"Bettembourg, Canton Esch-sur-Alzette, Lëtzebuerg","address":{"town":"Bettembourg","county":"Canton Esch-sur-Alzette","ISO3166-2-lvl6":"LU-ES","country":"Lëtzebuerg","country_code":"lu"},"population":9049,"osm_type":"node","osm_id":203125341,"type":"town","location":[6.0966536,49.5173351],"bbox":[6.0566536,49.4773351,6.1366536,49.5573351],"border":{"name":"Bettembourg","other_names":{"name:de":"Bettemburg","name:fr":"Bettembourg","name:lb":"Beetebuerg","name:lt":"Betembūras","alt_name:lb":"Beetebuerg"},"display_name":"Bettembourg, Canton Esch-sur-Alzette, Lëtzebuerg","address":{"town":"Bettembourg","county":"Canton Esch-sur-Alzette","ISO3166-2-lvl6":"LU-ES","country":"Lëtzebuerg","country_code":"lu"},"population":9049,"osm_type":"relation","osm_id":407896,"type":"administrative","location":[6.0966536,49.5173351],"bbox":[6.0393919,49.4939126,6.1280713,49.5520296]}}
{"name":"Clervaux","other_names":{"name:de":"Clerf","name:fr":"Clervaux","name:lb":"Klierf","name:lt":"Klervas","name:ml":"ക്ലെർവോ","name:ru":"Клерво","alt_name:lb":"Cliärref"},"display_name":"Clervaux, Canton Clervaux, Lëtzebuerg","address":{"town":"Clervaux","county":"Canton Clervaux","ISO3166-2-lvl6":"LU-CL","country":"Lëtzebuerg","country_code":"lu"},"population":1425,"osm_type":"node","osm_id":1583666963,"type":"town","location":[6.0275511,50.0547912],"bbox":[5.9875511,50.0147912,6.0675511,50.0947912],"border":{"name":"Clervaux","other_names":{"name:de":"Clerf","name:fr":"Clervaux","name:lb":"Klierf","name:lt":"Klervas","alt_name:lb":"Cliärref","name:ml":"ക്ലെർവോ","name:ru":"Клерво"},"display_name":"Clervaux, Canton Clervaux, Lëtzebuerg","address":{"town":"Clervaux","county":"Canton Clervaux","ISO3166-2-lvl6":"LU-CL","country":"Lëtzebuerg","country_code":"lu"},"population":1425,"osm_type":"relation","osm_id":1353121,"type":"administrative","location":[6.0275511,50.0547912],"bbox":[5.9569136,49.9988612,6.1378415,50.1365534]}}
{"name":"Diekirch","other_names":{"name:be":"Дзікірх","name:bg":"Дикирх","name:de":"Diekirch","name:fa":"دیکیرش","name:fr":"Diekirch","name:lb":"Dikrech","name:lt":"Dykirchas","name:ml":"ഡീകിർക്ക്","name:ru":"Дикирх","name:sr":"Дикирх","name:uk":"Дікірх","name:als":"Dikrech"},"display_name":"Diekirch, Canton Diekirch, Lëtzebuerg","address":{"town":"Diekirch","county":"Canton Diekirch","ISO3166-2-lvl6":"LU-DI","country":"Lëtzebuerg","country_code":"lu"},"population":7047,"osm_type":"node","osm_id":52938674,"type":"town","location":[6.1600549,49.8690898],"bbox":[6.1200549,49.8290898,6.2000549,49.9090898],"border":{"name":"Diekirch","other_names":{"name:de":"Diekirch","name:fr":"Diekirch","name:lb":"Dikrech","name:lt":"Dykirchas","alt_name:lb":"Dikkrich","name:be":"Дзікірх","name:bg":"Дикирх","name:fa":"دیکیرش","name:ml":"ഡീകിർക്ക്","name:ru":"Дикирх","name:sr":"Дикирх","name:uk":"Дікірх","name:als":"Dikrech"},"display_name":"Diekirch, Canton Diekirch, Lëtzebuerg","address":{"town":"Diekirch","county":"Canton Diekirch","ISO3166-2-lvl6":"LU-DI","country":"Lëtzebuerg","country_code":"lu"},"population":7047,"osm_type":"relation","osm_id":1113658,"type":"administrative","location":[6.1600549,49.8690898],"bbox":[6.1175259,49.834958,6.1806564,49.8986685]}}
{"name":"Differdange","other_names":{"name:de":"Differdingen","name:lb":"Déifferdeng","name:lt":"Diferdanžas","name:ru":"Дифферданж","loc_name":"Déifferdang"},"display_name":"Differdange, Canton Esch-sur-Alzette, Lëtzebuerg","address":{"town":"Differdange","county":"Canton Esch-sur-Alzette","ISO3166-2-lvl6":"LU-ES","country":"Lëtzebuerg","country_code":"lu"},"population":15022,"osm_type":"node","osm_id":265466889,"type":"town","location":[5.889242,49.5208469],"bbox":[5.849242,49.4808469,5.929242,49.5608469],"border":{"name":"Differdange","other_names":{"name:de":"Differdingen","name:fr":"Differdange","name:lb":"Déifferdeng","name:lt":"Diferdanžas","alt_name:lb":"Déifferdang","name:ru":"Дифферданж","loc_name":"Déifferdang"},"display_name":"Differdange, Canton Esch-sur-Alzette, Lëtzebuerg","address":{"town":"Differdange","county":"Canton Esch-sur-Alzette","ISO3166-2-lvl6":"LU-ES","country":"Lëtzebuerg","country_code":"lu"},"population":15022,"osm_type":"relation","osm_id":407474,"type":"administrative","location":[5.889242,49.5208469],"bbox":[5.8341152,49.4965337,5.9163192,49.5474633]}}
{"name":"Dudelange","other_names":{"name:de":"Düdelingen","name:fr":"Dudelange","name:lb":"Diddeleng","name:lt":"Diudelanžas","name:ru":"Дюделанж"},"display_name":"Dudelange, Canton Esch-sur-Alzette, Lëtzebuerg","address":{"town":"Dudelange","county":"Canton Esch-sur-Alzette","ISO3166-2-lvl6":"LU-ES","country":"Lëtzebuerg","country_code":"lu"},"population":21291,"osm_type":"node","osm_id":203133645,"type":"town","location":[6.0847792,49.4786477],"bbox":[6.0447792,49.4386477,6.1247792,49.5186477],"border":{"name":"Dudelange","other_names":{"name:de":"Düdelingen","name:fr":"Dudelange","name:it":"Dudelange","name:lb":"Diddeleng","name:lt":"Diudelanžas","name:ru":"Дюделанж"},"display_name":"Dudelange, Canton Esch-sur-Alzette, Lëtzebuerg","address":{"town":"Dudelange","county":"Canton Esch-sur-Alzette","ISO3166-2-lvl6":"LU-ES","country":"Lëtzebuerg","country_code":"lu"},"population":21291,"osm_type":"relation","osm_id":407453,"type":"administrative","location":[6.0847792,49.4786477],"bbox":[6.0474976,49.4528888,6.1280357,49.5070495]}}
{"name":"Echternach","other_names":{"name:be":"Эхтэрнах","name:bg":"Ехтернах","name:de":"Echternach","name:fr":"Echternach","name:ja":"エヒタナハ","name:ka":"ეხტერნახი","name:lb":"Iechternach","name:lt":"Echternachas","name:ru":"Эхтернах","name:sr":"Ехтернах","name:uk":"Ехтернах","name:wa":"Echternak","name:als":"Iechternach","alt_name:lb":"Eechternoach"},"display_name":"Echternach, Canton Echternach, Lëtzebuerg","address":{"town":"Echternach","county":"Canton Echternach","ISO3166-2-lvl6":"LU-EC","country":"Lëtzebuerg","country_code":"lu"},"population":5617,"osm_type":"node","osm_id":132015841,"type":"town","location":[6.4214859,49.8120961],"bbox":[6.3814859,49.7720961,6.4614859,49.8520961],"border":{"name":"Echternach","other_names":{"name:de":"Echternach","name:fr":"Echternach","name:lb":"Iechternach","name:be":"Эхтэрнах","name:bg":"Ехтернах","name:ja":"エヒタナハ","name:ka":"ეხტერნახი","name:lt":"Echternachas","name:ru":"Эхтернах","name:sr":"Ехтернах","name:uk":"Ехтернах","name:wa":"Echternak","name:als":"Iechternach","alt_name:lb":"Eechternoach"},"display_name":"Echternach, Canton Echternach, Lëtzebuerg","address":{"town":"Echternach","county":"Canton Echternach","ISO3166-2-lvl6":"LU-EC","country":"Lëtzebuerg","country_code":"lu"},"population":5617,"osm_type":"relation","osm_id":569741,"type":"administrative","location":[6.4214859,49.8120961],"bbox":[6.3663956,49.7687119,6.4708545,49.8326427]}}
{"name":"Esch-sur-Alzette","other_names":{"name:de":"Esch an der Alzette","name:fr":"Esch-sur-Alzette","name:lb":"Esch-Uelzecht","name:lt":"Ešas prie Alzeto","name:ru":"Эш-сюр-Альзетт"},"display_name":"Esch-sur-Alzette, Canton Esch-sur-Alzette, Lëtzebuerg","address":{"town":"Esch-sur-Alzette","county":"Canton Esch-sur-Alzette","ISO3166-2-lvl6":"LU-ES","country":"Lëtzebuerg","country_code":"lu"},"population":36218,"osm_type":"node","osm_id":1628731564,"type":"town","location":[5.9850306,49.4959628],"bbox":[5.9450306,49.4559628,6.0250306,49.5359628],"border":{"name":"Esch-sur-Alzette","other_names":{"name:de":"Esch an der Alzette","name:fr":"Esch-sur-Alzette","name:lb":"Esch-Uelzecht","name:lt":"Ešas prie Alzeto","name:ru":"Эш-сюр-Альзетт"},"display_name":"Esch-sur-Alzette, Canton Esch-sur-Alzette, Lëtzebuerg","address":{"town":"Esch-sur-Alzette","county":"Canton Esch-sur-Alzette","ISO3166-2-lvl6":"LU-ES","country":"Lëtzebuerg","country_code":"lu"},"population":36218,"osm_type":"relation","osm_id":407419,"type":"administrative","location":[5.9850306,49.4959628],"bbox":[5.9432146,49.4609063,6.0051419,49.5186183]}}
{"name":"Ettelbruck","other_names":{"name:de":"Ettelbrück","name:lb":"Ettelbréck","name:lt":"Etelbriukas","name:ml":"എട്ടൽബ്രൂക്ക്","name:ru":"Эттельбрюк"},"display_name":"Ettelbruck, Canton Diekirch, Lëtzebuerg","address":{"town":"Ettelbruck","county":"Canton Diekirch","ISO3166-2-lvl6":"LU-DI","country":"Lëtzebuerg","country_code":"lu"},"population":7795,"osm_type":"node","osm_id":52932305,"type":"town","location":[6.0984659,49.8470016],"bbox":[6.0584659,49.8070016,6.1384659,49.8870016],"border":{"name":"Ettelbruck","other_names":{"name:de":"Ettelbrück","name:fr":"Ettelbruck","name:lb":"Ettelbréck","name:lt":"Etelbriukas","name:ml":"എട്ടൽബ്രൂക്ക്","name:ru":"Эттельбрюк"},"display_name":"Ettelbruck, Canton Diekirch, Lëtzebuerg","address":{"town":"Ettelbruck","county":"Canton Diekirch","ISO3166-2-lvl6":"LU-DI","country":"Lëtzebuerg","country_code":"lu"},"population":7795,"osm_type":"relation","osm_id":1113662,"type":"administrative","location":[6.0984659,49.8470016],"bbox":[6.038106,49.8243849,6.11671,49.8771685]}}
{"name":"Grevenmacher","other_names":{"name:de":"Grevenmacher","name:lb":"Gréiwemaacher","name:lt":"Grėvenmacheris","name:ru":"Гревенмахер","alt_name:lb":"Maacher"},"display_name":"Grevenmacher, Canton Grevenmacher, Lëtzebuerg","address":{"town":"Grevenmacher","county":"Canton Grevenmacher","ISO3166-2-lvl6":"LU-GR","country":"Lëtzebuerg","country_code":"lu"},"population":4936,"osm_type":"node","osm_id":268622788,"type":"town","location":[6.4430979,49.679313],"bbox":[6.4030979,49.639313,6.4830979,49.719313],"border":{"name":"Grevenmacher","other_names":{"name:de":"Grevenmacher","name:fr":"Grevenmacher","name:lb":"Gréiwemaacher","name:lt":"Grėvenmacheris","name:ru":"Гревенмахер","alt_name:lb":"Maacher"},"display_name":"Grevenmacher, Canton Grevenmacher, Lëtzebuerg","address":{"town":"Grevenmacher","county":"Canton Grevenmacher","ISO3166-2-lvl6":"LU-GR","country":"Lëtzebuerg","country_code":"lu"},"population":4936,"osm_type":"relation","osm_id":532141,"type":"administrative","location":[6.4430979,49.679313],"bbox":[6.3601901,49.6540584,6.4610566,49.699844]}}
{"name":"Pétange","other_names":{"name:de":"Petingen","name:lb":"Péiténg","name:lt":"Petanžas"},"display_name":"Pétange, Canton Esch-sur-Alzette, Lëtzebuerg","address":{"town":"Pétange","county":"Canton Esch-sur-Alzette","ISO3166-2-lvl6":"LU-ES","country":"Lëtzebuerg","country_code":"lu"},"population":9455,"osm_type":"node","osm_id":265721067,"type":"town","location":[5.8776052,49.5566918],"bbox":[5.8376052,49.5166918,5.9176052,49.5966918],"border":[{"name":"Pétange","other_names":{"name:de":"Petingen","name:fr":"Pétange","name:lb":"Péiteng","name:lt":"Petanžas","name:ru":"Петанж","alt:lb":"Péiténg"},"display_name":"Pétange, Canton Esch-sur-Alzette, Lëtzebuerg","address":{"town":"Pétange","county":"Canton Esch-sur-Alzette","ISO3166-2-lvl6":"LU-ES","country":"Lëtzebuerg","country_code":"lu"},"population":9455,"osm_type":"relation","osm_id":407475,"type":"administrative","location":[5.8776052,49.5566918],"bbox":[5.808126,49.5292284,5.8875261,49.5717114]},{"name":"Pétange","other_names":{"name:de":"Petingen","name:lb":"Péiteng","name:lt":"Petanžas"},"display_name":"Pétange, Canton Esch-sur-Alzette, Lëtzebuerg","address":{"city_district":"Pétange","town":"Pétange","county":"Canton Esch-sur-Alzette","ISO3166-2-lvl6":"LU-ES","country":"Lëtzebuerg","country_code":"lu"},"osm_type":"relation","osm_id":1694379,"type":"administrative","location":[5.870329850775,49.55878225],"bbox":[5.8506934,49.5459733,5.8875261,49.5717114]}]}
{"name":"Remich","other_names":{"name:lb":"Réimech","name:lt":"Rėmichas","name:ru":"Ремих"},"display_name":"Remich, Canton Remich, Lëtzebuerg","address":{"town":"Remich","county":"Canton Remich","ISO3166-2-lvl6":"LU-RM","country":"Lëtzebuerg","country_code":"lu"},"population":3732,"osm_type":"node","osm_id":247989176,"type":"town","location":[6.3676062,49.5442267],"bbox":[6.3276062,49.5042267,6.4076062,49.5842267],"border":{"name":"Remich","other_names":{"name:de":"Remich","name:fr":"Remich","name:lb":"Réimech","name:lt":"Rėmichas","name:ru":"Ремих"},"display_name":"Remich, Canton Remich, Lëtzebuerg","address":{"town":"Remich","county":"Canton Remich","ISO3166-2-lvl6":"LU-RM","country":"Lëtzebuerg","country_code":"lu"},"population":3732,"osm_type":"relation","osm_id":407503,"type":"administrative","location":[6.3676062,49.5442267],"bbox":[6.339171,49.5342397,6.3817627,49.5614564]}}
{"name":"Schifflange","other_names":{"name:de":"Schifflingen","name:fr":"Schifflange","name:lb":"Schëffleng","name:lt":"Šiflanžas","name:uk":"Шиффланж"},"display_name":"Schifflange, Canton Esch-sur-Alzette, Lëtzebuerg","address":{"town":"Schifflange","county":"Canton Esch-sur-Alzette","ISO3166-2-lvl6":"LU-ES","country":"Lëtzebuerg","country_code":"lu"},"population":11293,"osm_type":"node","osm_id":247368754,"type":"town","location":[6.0118175,49.5062732],"bbox":[5.9718175,49.4662732,6.0518175,49.5462732],"border":{"name":"Schifflange","other_names":{"name:de":"Schifflingen","name:fr":"Schifflange","name:lb":"Schëffleng","name:lt":"Šiflanžas","name:uk":"Шиффланж"},"display_name":"Schifflange, Canton Esch-sur-Alzette, Lëtzebuerg","address":{"town":"Schifflange","county":"Canton Esch-sur-Alzette","ISO3166-2-lvl6":"LU-ES","country":"Lëtzebuerg","country_code":"lu"},"population":11293,"osm_type":"relation","osm_id":407434,"type":"administrative","location":[6.0118175,49.5062732],"bbox":[5.9932681,49.483288,6.0411612,49.5237044]}}
{"name":"Troisvierges","other_names":{"name:de":"Ulflingen","name:lb":"Ëlwen","name:ml":"ട്രോവവിയർജ്"},"display_name":"Troisvierges, Canton Clervaux, Lëtzebuerg","address":{"town":"Troisvierges","county":"Canton Clervaux","ISO3166-2-lvl6":"LU-CL","country":"Lëtzebuerg","country_code":"lu"},"population":1799,"osm_type":"node","osm_id":303255349,"type":"town","location":[6.0020737,50.1212652],"bbox":[5.9620737,50.0812652,6.0420737,50.1612652],"border":{"name":"Troisvierges","other_names":{"name:de":"Ulflingen","name:fr":"Troisvierges","name:lb":"Ëlwen","name:ml":"ട്രോവവിയർജ്"},"display_name":"Troisvierges, Canton Clervaux, Lëtzebuerg","address":{"town":"Troisvierges","county":"Canton Clervaux","ISO3166-2-lvl6":"LU-CL","country":"Lëtzebuerg","country_code":"lu"},"population":1799,"osm_type":"relation","osm_id":1353102,"type":"administrative","location":[6.0020737,50.1212652],"bbox":[5.9530652,50.1065382,6.0525159,50.1827989]}}
{"name":"Vianden","other_names":{"name:de":"Vianden","name:lb":"Veianen","name:lt":"Viandenas","name:ru":"Вианден"},"display_name":"Vianden, Canton Vianden, Lëtzebuerg","address":{"town":"Vianden","county":"Canton Vianden","ISO3166-2-lvl6":"LU-VD","country":"Lëtzebuerg","country_code":"lu"},"population":2138,"osm_type":"node","osm_id":1614814315,"type":"town","location":[6.2066715,49.9336976],"bbox":[6.1666715,49.8936976,6.2466715,49.9736976],"border":{"name":"Vianden","other_names":{"name:de":"Vianden","name:fr":"Vianden","name:lb":"Veianen","name:lt":"Viandenas","alt_name:lb":"Veinen","name:ru":"Вианден"},"display_name":"Vianden, Canton Vianden, Lëtzebuerg","address":{"town":"Vianden","county":"Canton Vianden","ISO3166-2-lvl6":"LU-VD","country":"Lëtzebuerg","country_code":"lu"},"population":2138,"osm_type":"relation","osm_id":1337084,"type":"administrative","location":[6.2066715,49.9336976],"bbox":[6.148959,49.9228257,6.2273314,49.9551945]}}
{"name":"Wiltz","other_names":{"name:lb":"Wolz","name:lt":"Vilcas","name:ml":"വിൽറ്റ്സ്","name:ru":"Вильц"},"display_name":"Wiltz, Canton Wiltz, Lëtzebuerg","address":{"town":"Wiltz","county":"Canton Wiltz","ISO3166-2-lvl6":"LU-WI","country":"Lëtzebuerg","country_code":"lu"},"population":5405,"osm_type":"node","osm_id":180650109,"type":"town","location":[5.9321021,49.9666914],"bbox":[5.8921021,49.9266914,5.9721021,50.0066914],"border":{"name":"Wiltz","other_names":{"name:de":"Wiltz","name:fr":"Wiltz","name:lb":"Wolz","alt_name:lb":"Woolz","name:lt":"Vilcas","name:ml":"വിൽറ്റ്സ്","name:ru":"Вильц"},"display_name":"Wiltz, Canton Wiltz, Lëtzebuerg","address":{"town":"Wiltz","county":"Canton Wiltz","ISO3166-2-lvl6":"LU-WI","country":"Lëtzebuerg","country_code":"lu"},"population":5405,"osm_type":"relation","osm_id":1357531,"type":"administrative","location":[5.9321021,49.9666914],"bbox":[5.8778742,49.9345346,5.9801906,50.0322296]}}
