{"name":"Abogeta West","other_names":{"official_name":"Abogeta West Ward"},"display_name":"Abogeta West, Imenti South, Meru, Eastern, Kenya","address":{"city":"Abogeta West","county":"Imenti South","state":"Meru","ISO3166-2-lvl4":"KE-26","country":"Kenya","country_code":"ke"},"osm_type":"relation","osm_id":17443944,"type":"administrative","location":[37.60999423904465,-0.10985130000000001],"bbox":[37.555604,-0.1440075,37.6619622,-0.0759601],"inferred_type":"city"}
{"name":"Chemundu ward","other_names":{"alt_name":"Kapng'etunyi ward"},"display_name":"Chemundu ward, Chesumei, Nandi, Rift Valley, 30306, Kenya","address":{"city":"Chemundu ward","county":"Chesumei","state":"Nandi","ISO3166-2-lvl4":"KE-32","region":"Rift Valley","postcode":"30306","country":"Kenya","country_code":"ke"},"osm_type":"relation","osm_id":16522126,"type":"administrative","location":[35.081636127488515,0.23698755],"bbox":[35.0438302,0.1914876,35.1273439,0.2828205],"inferred_type":"city"}
{"name":"Eldoret","other_names":{"name:en":"Eldoret","name:ko":"엘도레트","name:ru":"Элдорет","name:uk":"Елдорет","alt_name":"Sisibo"},"display_name":"Eldoret, Kimumu ward, Moiben, Uasin Gishu, Rift Valley, 30100, Kenya","address":{"city":"Eldoret","county":"Moiben","state":"Uasin Gishu","ISO3166-2-lvl4":"KE-44","region":"Rift Valley","postcode":"30100","country":"Kenya","country_code":"ke"},"population":193830,"osm_type":"node","osm_id":2689551456,"type":"city","location":[35.2715481,0.5198329],"bbox":[35.1115481,0.3598329,35.4315481,0.6798329]}
{"name":"Embu","other_names":{"name:ru":"Эмбу"},"display_name":"Embu, Manyatta, Embu, Eastern, Kenya","address":{"town":"Embu","county":"Manyatta","state":"Embu","ISO3166-2-lvl4":"KE-06","country":"Kenya","country_code":"ke"},"population":41092,"osm_type":"way","osm_id":178863862,"type":"city","location":[37.4583949,-0.5376699],"bbox":[37.4469439,-0.5564306,37.4743217,-0.5157079]}
{"name":"Garissa","other_names":{"name:ar":"غاريسا","name:fa":"گاریسا","name:ko":"가리사","name:ru":"Гарисса","name:ur":"گاریسا"},"display_name":"Garissa, Garissa Township, Garissa, North Eastern, Kenya","address":{"city":"Garissa","county":"Garissa Township","state":"Garissa","ISO3166-2-lvl4":"KE-07","country":"Kenya","country_code":"ke"},"population":119696,"osm_type":"node","osm_id":45004027,"type":"city","location":[39.6404713,-0.4567099],"bbox":[39.4804713,-0.6167099,39.8004713,-0.2967099]}
{"name":"Jepkoyai ward","other_names":{"name:tec":"Cheebkaay"},"display_name":"Jepkoyai ward, Hamisi, Vihiga, Western, Kenya","address":{"city":"Jepkoyai ward","county":"Hamisi","state":"Vihiga","ISO3166-2-lvl4":"KE-45","region":"Western","country":"Kenya","country_code":"ke"},"osm_type":"relation","osm_id":16382544,"type":"administrative","location":[34.73814053232546,0.01422485],"bbox":[34.7112576,-0.0241829,34.7640883,0.0526506],"inferred_type":"city"}
{"name":"Kabarnet","display_name":"Kabarnet, Baringo Central, Baringo, Rift Valley, 30400, Kenya","address":{"town":"Kabarnet","county":"Baringo Central","state":"Baringo","ISO3166-2-lvl4":"KE-01","region":"Rift Valley","postcode":"30400","country":"Kenya","country_code":"ke"},"population":24661,"osm_type":"way","osm_id":884306312,"type":"city","location":[35.743139,0.496524],"bbox":[35.7272898,0.4821452,35.7544123,0.5018426]}
{"name":"Kakamega","other_names":{"name:ru":"Какамега"},"display_name":"Kakamega, Lurambi, Kakamega, Western, 50100, Kenya","address":{"city":"Kakamega","county":"Lurambi","state":"Kakamega","ISO3166-2-lvl4":"KE-11","region":"Western","postcode":"50100","country":"Kenya","country_code":"ke"},"population":91778,"osm_type":"node","osm_id":44999588,"type":"city","location":[34.75,0.2833],"bbox":[34.59,0.1233,34.91,0.4433]}
{"name":"Kericho","display_name":"Kericho, Ainamoi, Kericho, Rift Valley, Kenya","address":{"town":"Kericho","county":"Ainamoi","state":"Kericho","ISO3166-2-lvl4":"KE-12","region":"Rift Valley","country":"Kenya","country_code":"ke"},"population":150000,"osm_type":"way","osm_id":532493084,"type":"city","location":[35.2833,-0.3666],"bbox":[35.2644832,-0.3830926,35.3022552,-0.3497587]}
{"name":"Kisumu","other_names":{"name:de":"Kisumu","name:ko":"키수무","name:ru":"Кисуму","name:uk":"Кісуму"},"display_name":"Kisumu, City of Kisumu, Kisumu, Nyanza, 40141, Kenya","address":{"city":"Kisumu","municipality":"City of Kisumu","state":"Kisumu","ISO3166-2-lvl4":"KE-17","region":"Nyanza","postcode":"40141","country":"Kenya","country_code":"ke"},"population":409928,"osm_type":"node","osm_id":1868373176,"type":"city","location":[34.7541761,-0.1029109],"bbox":[34.5941761,-0.2629109,34.9141761,0.0570891],"border":{"name":"Kisumu","other_names":{"name:am":"ኪሱሙ","name:ar":"كيسومو","name:be":"Кісуму","name:de":"Kisumu","name:es":"Kisumu","name:fr":"Kisumu","name:gu":"કિસુમુ","name:hi":"किसुमु","name:ja":"キスム","name:ko":"키 수무","name:or":"କିସୁମୁ","name:pa":"ਕਿਸਮੂ","name:ru":"Кисуму","name:sr":"Кисуму","name:uk":"Кісуму","name:ur":"کسیمو","name:zh":"基苏木","name:azb":"کیسومو","name:grc":"Κισούμου","alt:ko":"키수무"},"display_name":"Kisumu, City of Kisumu, Kisumu, Nyanza, Kenya","address":{"city":"Kisumu","municipality":"City of Kisumu","state":"Kisumu","ISO3166-2-lvl4":"KE-17","region":"Nyanza","country":"Kenya","country_code":"ke"},"population":1155574,"osm_type":"relation","osm_id":16193530,"type":"city","location":[34.7541761,-0.1029109],"bbox":[34.5799207,-0.1752245,34.882306,0.0226311]}}
{"name":"Kitui","display_name":"Kitui, Kitui Central, Kitui, Eastern, Kenya","address":{"city":"Kitui","county":"Kitui Central","state":"Kitui","ISO3166-2-lvl4":"KE-18","country":"Kenya","country_code":"ke"},"population":155896,"osm_type":"node","osm_id":44933078,"type":"city","location":[38.0166,-1.3666],"bbox":[37.8566,-1.5266,38.1766,-1.2066]}
{"name":"Machakos","other_names":{"name:ko":"마차코스"},"display_name":"Machakos, Machakos Town, Machakos, Eastern, Kenya","address":{"town":"Machakos","county":"Machakos Town","state":"Machakos","ISO3166-2-lvl4":"KE-22","country":"Kenya","country_code":"ke"},"population":114109,"osm_type":"way","osm_id":677837974,"type":"city","location":[37.2660878,-1.5212477],"bbox":[37.2488167,-1.5456292,37.2820462,-1.4936449]}
{"name":"Malindi","other_names":{"name:ko":"말린디","name:ru":"Малинди","name:uk":"Малінді"},"display_name":"Malindi, Kilifi, Coast, 80200, Kenya","address":{"town":"Malindi","county":"Malindi","state":"Kilifi","ISO3166-2-lvl4":"KE-14","region":"Coast","postcode":"80200","country":"Kenya","country_code":"ke"},"population":117735,"osm_type":"way","osm_id":497879072,"type":"city","location":[40.1165933,-3.2165987],"bbox":[40.090085,-3.2686296,40.1325311,-3.1683651],"border":{"name":"Malindi","display_name":"Malindi, Kilifi, Coast, 80200, Kenya","address":{"county":"Malindi","state":"Kilifi","ISO3166-2-lvl4":"KE-14","region":"Coast","postcode":"80200","country":"Kenya","country_code":"ke"},"osm_type":"relation","osm_id":16154451,"type":"administrative","location":[39.974975160447975,-3.2295935],"bbox":[39.6902433,-3.3524954,40.132665,-3.1064185]}}
{"name":"Meru","other_names":{"name:ar":"مرو","name:de":"Meru","name:en":"Meru","name:ru":"Меру","name:uk":"Меру","name:zh":"梅鲁"},"display_name":"Meru, Imenti North, Meru, Eastern, Kenya","address":{"city":"Meru","county":"Imenti North","state":"Meru","ISO3166-2-lvl4":"KE-26","country":"Kenya","country_code":"ke"},"population":1833000,"osm_type":"node","osm_id":44929227,"type":"city","location":[37.6500063,0.0499786],"bbox":[37.4900063,-0.1100214,37.8100063,0.2099786],"border":{"name":"Meru","other_names":{"name:ar":"مرو","name:de":"Meru","name:en":"Meru","name:ru":"Меру","name:uk":"Меру","name:zh":"梅鲁"},"display_name":"Meru, Imenti North, Meru, Eastern, 60200, Kenya","address":{"city":"Meru","county":"Imenti North","state":"Meru","ISO3166-2-lvl4":"KE-26","postcode":"60200","country":"Kenya","country_code":"ke"},"population":1833000,"osm_type":"way","osm_id":678380903,"type":"city","location":[37.6500063,0.0499786],"bbox":[37.6276591,0.0289908,37.6744409,0.0685516]}}
{"name":"Mombasa","other_names":{"name:af":"Mombasa","name:ar":"ممباسة","name:be":"Мамбаса","name:bg":"Момбаса","name:bn":"মোম্বাসা","name:de":"Mombasa","name:el":"Μομπάσα","name:es":"Mombasa","name:fa":"مومباسا","name:fr":"Mombasa","name:gn":"Mombása","name:he":"מומבסה","name:hi":"मोम्बासा","name:hy":"Մոմբասա","name:ja":"モンバサ","name:ka":"მომბასა","name:kk":"Момбаса","name:kn":"ಮೊಂಬಾಸ","name:ko":"몸바사","name:ln":"Mombása","name:mk":"Момбаса","name:mn":"Момбаса","name:mr":"मोम्बासा","name:nl":"Mombassa","name:os":"Момбасæ","name:ps":"مومباسا","name:pt":"Mombaça","name:ru":"Момбаса","name:so":"Mombaaso","name:sr":"Момбаса","name:sv":"Mombasa","name:sw":"Mombasa","name:ta":"மொம்பாசா","name:th":"โมมบาซา","name:uk":"Момбаса","name:ur":"ممباسہ","name:zh":"蒙巴萨","name:azb":"مومباسا","name:grc":"Μομβάσα","name:mdf":"Момбаса","alt_name:ur":"ممباسا;منباسہ‎;منباسا","name:be-tarask":"Мамбаса"},"display_name":"Mombasa, Tononoka ward, Mvita, Mombasa, Coast, 80100, Kenya","address":{"city":"Mombasa","county":"Mvita","state":"Mombasa","ISO3166-2-lvl4":"KE-28","region":"Coast","postcode":"80100","country":"Kenya","country_code":"ke"},"population":1300000,"osm_type":"node","osm_id":44927060,"type":"city","location":[39.667169,-4.05052],"bbox":[39.507169,-4.21052,39.827169,-3.89052]}
{"name":"Nairobi","other_names":{"name:am":"ናይሮቢ","name:ar":"نيروبي","name:az":"Nayrobi","name:be":"Найробі","name:bg":"Найроби","name:bn":"নাইরোবি","name:bo":"ནའི་རོ་བི།","name:br":"Nairobi","name:ca":"Nairobi","name:cs":"Nairobi","name:de":"Nairobi","name:el":"Ναϊρόμπι","name:en":"Nairobi","name:eo":"Najrobo","name:es":"Nairobi","name:fa":"نایروبی","name:fr":"Nairobi","name:fy":"Nairoby","name:he":"ניירובי","name:hi":"नैरोबी","name:hr":"Nairobi","name:ht":"Nayrobi","name:hu":"Nairobi","name:hy":"Նայրոբի","name:id":"Nairobi","name:is":"Naíróbí","name:it":"Nairobi","name:ja":"ナイロビ","name:ka":"ნაირობი","name:kk":"Найроби","name:kn":"ನೈರೋಬಿ","name:ko":"나이로비","name:ku":"Nairobî","name:ky":"Найроби","name:la":"Nairobia","name:lt":"Nairobis","name:mk":"Најроби","name:ml":"നയ്റോബി","name:mn":"Найроби","name:mr":"नैरोबी","name:my":"နိုင်ရိုဘီမြို့","name:nl":"Nairobi","name:no":"Nairobi","name:oc":"Nairòbi","name:os":"Найроби","name:pa":"ਨਾਇਰੋਬੀ","name:pl":"Nairobi","name:pt":"Nairóbi","name:ru":"Найроби","name:sk":"Nairobi","name:sl":"Nairobi","name:so":"Nayroobi","name:sr":"Најроби","name:sv":"Nairobi","name:sw":"Nairobi","name:ta":"நைரோபி","name:tg":"Найроби","name:th":"ไนโรบี","name:tk":"Naýrobi","name:tr":"Nairobi","name:tt":"Найроби","name:ug":"نايروبى","name:uk":"Найробі","name:ur":"نیروبی","name:yi":"נייראבי","name:zh":"内罗毕/內羅畢/奈洛比","name:arz":"نايروبى","name:azb":"نایروبی","name:ckb":"نایرۆبی","name:grc":"Ναϊρόβιον","name:lez":"Найроби","name:mrj":"Найроби","name:nov":"Nayrobi","name:pms":"Nairòbi","name:pnb":"نیروبی","name:rue":"Найробі","name:sah":"Найроби","name:udm":"Найроби","name:wuu":"内罗毕","name:yue":"奈洛比","name:bat-smg":"Nairobis","name:zh-Hans":"内罗毕","name:zh-Hant":"內羅畢/奈洛比","name:be-tarask":"Найробі"},"display_name":"Nairobi, Kenya","address":{"city":"Nairobi","country":"Kenya","country_code":"ke"},"population":3138295,"osm_type":"node","osm_id":27565105,"type":"city","location":[36.8172449,-1.2832533],"bbox":[36.6572449,-1.4432533,36.9772449,-1.1232533],"border":[{"name":"Nairobi","other_names":{"name:ar":"نيروبي","name:be":"Найробі","name:bn":"নাইরোবি","name:de":"Nairobi","name:el":"Ναϊρόμπι","name:es":"Nairobi","name:fr":"Nairobi","name:gu":"નૈરોબી","name:kk":"Найроби","name:mk":"Најроби","name:pa":"ਨਾਇਰੋਬੀ","name:pt":"Nairóbi","name:ru":"Найроби","name:sr":"Најроби","name:sw":"Nairobi","name:ug":"نايروبى","name:ur":"نیروبی","name:zh":"内罗毕","name:azb":"نایروبی","name:grc":"Ναϊρόβιον","name:wuu":"内罗毕","name:yue":"奈洛比","name:zh-Hans":"内罗毕","name:zh-Hant":"內羅畢","name:be-tarask":"Найробі"},"display_name":"Nairobi, Kenya","address":{"city":"Nairobi","state":"Nairobi","ISO3166-2-lvl4":"KE-30","country":"Kenya","country_code":"ke"},"osm_type":"relation","osm_id":9185096,"type":"city","location":[36.82884201813725,-1.3026148499999999],"bbox":[36.6647016,-1.4448822,37.1048735,-1.1606749]},{"name":"Nairobi","other_names":{"name:be":"Найробі","name:de":"Nairobi","name:es":"Nairobi","name:fr":"Nairobi","name:kk":"Найроби","name:mk":"Најроби","name:pa":"ਨਾਇਰੋਬੀ","name:pt":"Nairóbi","name:sr":"Најроби","name:sw":"Nairobi","name:ug":"نايروبى","name:ur":"نیروبی","name:zh":"内罗毕","name:azb":"نایروبی","name:grc":"Ναϊρόβιον","name:wuu":"内罗毕","name:yue":"奈洛比","name:zh-Hans":"内罗毕","name:zh-Hant":"內羅畢","name:am":"ናይሮቢ","name:ar":"نيروبي","name:az":"Nayrobi","name:bg":"Найроби","name:bn":"নাইরোবি","name:bo":"ནའི་རོ་བི།","name:br":"Nairobi","name:ca":"Nairobi","name:cs":"Nairobi","name:el":"Ναϊρόμπι","name:en":"Nairobi","name:eo":"Najrobo","name:fa":"نایروبی","name:fy":"Nairoby","name:he":"ניירובי","name:hi":"नैरोबी","name:hr":"Nairobi","name:ht":"Nayrobi","name:hu":"Nairobi","name:hy":"Նայրոբի","name:id":"Nairobi","name:is":"Naíróbí","name:it":"Nairobi","name:ja":"ナイロビ","name:ka":"ნაირობი","name:kn":"ನೈರೋಬಿ","name:ko":"나이로비","name:ku":"Nairobî","name:ky":"Найроби","name:la":"Nairobia","name:lt":"Nairobis","name:ml":"നയ്റോബി","name:mn":"Найроби","name:mr":"नैरोबी","name:my":"နိုင်ရိုဘီမြို့","name:nl":"Nairobi","name:no":"Nairobi","name:oc":"Nairòbi","name:os":"Найроби","name:pl":"Nairobi","name:ru":"Найроби","name:sk":"Nairobi","name:sl":"Nairobi","name:so":"Nayroobi","name:sv":"Nairobi","name:ta":"நைரோபி","name:tg":"Найроби","name:th":"ไนโรบี","name:tk":"Naýrobi","name:tr":"Nairobi","name:tt":"Найроби","name:uk":"Найробі","name:yi":"נייראבי","name:be-tarask":"Найробі","name:arz":"نايروبى","name:ckb":"نایرۆبی","name:lez":"Найроби","name:mrj":"Найроби","name:nov":"Nayrobi","name:pms":"Nairòbi","name:pnb":"نیروبی","name:rue":"Найробі","name:sah":"Найроби","name:udm":"Найроби","name:bat-smg":"Nairobis","alt:zh":"内罗毕/內羅畢/奈洛比","alt:zh-Hant":"內羅畢/奈洛比"},"display_name":"Nairobi, Kenya","address":{"city":"Nairobi","country":"Kenya","country_code":"ke"},"population":3138295,"osm_type":"relation","osm_id":9721587,"type":"administrative","location":[36.8172449,-1.2832533],"bbox":[36.6647016,-1.4448822,37.1048735,-1.1606749]}]}
{"name":"Nakuru","other_names":{"name:ko":"나쿠루","name:ru":"Накуру","name:uk":"Накуру"},"display_name":"Nakuru, Nakuru West, Nakuru, Rift Valley, Kenya","address":{"city":"Nakuru","county":"Nakuru West","state":"Nakuru","ISO3166-2-lvl4":"KE-31","region":"Rift Valley","country":"Kenya","country_code":"ke"},"population":307990,"osm_type":"node","osm_id":44925073,"type":"city","location":[36.0712048,-0.2802724],"bbox":[35.9112048,-0.4402724,36.2312048,-0.1202724],"border":{"name":"Nakuru","other_names":{"name:ko":"나쿠루","name:ru":"Накуру","name:uk":"Накуру"},"display_name":"Nakuru, Nakuru West, Nakuru, Rift Valley, 20100, Kenya","address":{"city":"Nakuru","county":"Nakuru West","state":"Nakuru","ISO3166-2-lvl4":"KE-31","region":"Rift Valley","postcode":"20100","country":"Kenya","country_code":"ke"},"population":307990,"osm_type":"way","osm_id":660639213,"type":"city","location":[36.0712048,-0.2802724],"bbox":[36.0161952,-0.3597467,36.163394,-0.2591052]}}
{"name":"Tambua ward","other_names":{"name:tec":"Taambooyoo"},"display_name":"Tambua ward, Hamisi, Vihiga, Western, Kenya","address":{"city":"Tambua ward","county":"Hamisi","state":"Vihiga","ISO3166-2-lvl4":"KE-45","region":"Western","country":"Kenya","country_code":"ke"},"osm_type":"relation","osm_id":16382543,"type":"administrative","location":[34.78818736252539,0.0238965],"bbox":[34.7417045,-0.0015388,34.8253178,0.049336],"inferred_type":"city"}
