{"name":"All Saints","other_names":{"name:el":"Ολ Σαιντς","name:en":"All Saints"},"display_name":"All Saints, Saint John, Antigua, Antigua and Barbuda","address":{"town":"All Saints","region":"Saint John","ISO3166-2-lvl6":"AG-04","state":"Antigua","country":"Antigua and Barbuda","country_code":"ag"},"population":3412,"osm_type":"node","osm_id":425765968,"type":"town","location":[-61.7951413,17.0659685],"bbox":[-61.8351413,17.0259685,-61.7551413,17.1059685]}
{"name":"Bolans","other_names":{"name:el":"Μπόλαντς","name:en":"Bolans","name:es":"Bolans","name:fa":"بولانز","name:he":"בולנדס","name:nl":"Bolans","name:pl":"Bolans","name:sv":"Bolans","name:ur":"بولینڈز","name:zh":"博兰斯","name:zh-Hans":"博兰斯","name:zh-Hant":"博蘭斯"},"display_name":"Bolans, Saint Mary, Antigua, Antigua and Barbuda","address":{"town":"Bolans","region":"Saint Mary","ISO3166-2-lvl6":"AG-05","state":"Antigua","country":"Antigua and Barbuda","country_code":"ag"},"osm_type":"node","osm_id":224336074,"type":"town","location":[-61.8768554,17.0667222],"bbox":[-61.9168554,17.0267222,-61.8368554,17.1067222]}
{"name":"Codrington","other_names":{"name:el":"Κόντρινγκτον","name:en":"Codrington","name:mk":"Кодрингтон","name:ru":"Кодрингтон"},"display_name":"Codrington, Barbuda, Antigua and Barbuda","address":{"town":"Codrington","county":"Barbuda","state":"Barbuda","ISO3166-2-lvl4":"AG-10","country":"Antigua and Barbuda","country_code":"ag"},"population":1500,"osm_type":"node","osm_id":480114381,"type":"town","location":[-61.8255199,17.640463],"bbox":[-61.8655199,17.600463,-61.7855199,17.680463]}
{"name":"English Harbour","other_names":{"name:el":"Ίνγκλις Χάρμπορ","name:en":"English Harbour"},"display_name":"English Harbour, Saint Paul, Antigua, Antigua and Barbuda","address":{"town":"English Harbour","region":"Saint Paul","ISO3166-2-lvl6":"AG-06","state":"Antigua","country":"Antigua and Barbuda","country_code":"ag"},"osm_type":"node","osm_id":232412709,"type":"town","location":[-61.7684385,17.0118205],"bbox":[-61.8084385,16.9718205,-61.7284385,17.0518205]}
{"name":"Freetown","other_names":{"name:el":"Φρίταουν","name:en":"Freetown"},"display_name":"Freetown, Saint Philip, Antigua, Antigua and Barbuda","address":{"town":"Freetown","region":"Saint Philip","ISO3166-2-lvl6":"AG-08","state":"Antigua","country":"Antigua and Barbuda","country_code":"ag"},"osm_type":"node","osm_id":232424336,"type":"town","location":[-61.7031162,17.0466628],"bbox":[-61.7431162,17.0066628,-61.6631162,17.0866628]}
{"name":"Osbourn","display_name":"Osbourn, Saint George, Antigua, Antigua and Barbuda","address":{"town":"Osbourn","region":"Saint George","ISO3166-2-lvl6":"AG-03","state":"Antigua","country":"Antigua and Barbuda","country_code":"ag"},"population":4743,"osm_type":"node","osm_id":9649396005,"type":"town","location":[-61.7973595,17.1414177],"bbox":[-61.8373595,17.1014177,-61.7573595,17.1814177]}
{"name":"Parham","other_names":{"name:en":"Parham"},"display_name":"Parham, Saint Peter, Antigua, Antigua and Barbuda","address":{"town":"Parham","region":"Saint Peter","ISO3166-2-lvl6":"AG-07","state":"Antigua","country":"Antigua and Barbuda","country_code":"ag"},"osm_type":"node","osm_id":232429181,"type":"town","location":[-61.7682624,17.1084322],"bbox":[-61.8082624,17.0684322,-61.7282624,17.1484322]}
{"name":"Piggotts","other_names":{"name:en":"Piggotts","alt_name":"Saint Mark's","alt_name:en":"Saint Mark's"},"display_name":"Piggotts, Saint George, Antigua, Antigua and Barbuda","address":{"town":"Piggotts","region":"Saint George","ISO3166-2-lvl6":"AG-03","state":"Antigua","country":"Antigua and Barbuda","country_code":"ag"},"osm_type":"node","osm_id":232293451,"type":"town","location":[-61.8029467,17.1207326],"bbox":[-61.8429467,17.0807326,-61.7629467,17.1607326]}
{"name":"St. John's","other_names":{"name:af":"St. John's","name:am":"ሴንት ጆንስ፥ አንቲጋ እና ባርቡዳ","name:an":"Saint John's","name:ar":"سانت جونز، أنتيغوا وبربودا","name:ay":"Saint John's","name:be":"Сент-Джонс","name:bg":"Сейнт Джонс","name:bo":"སེནཊི་ཇཱོན་སི།","name:br":"Saint John's","name:ca":"Saint John's","name:cs":"Saint John's","name:da":"Saint John's","name:de":"Saint John’s","name:el":"Σαιντ Τζονς","name:en":"St. John's","name:eo":"Santjonso","name:es":"Saint John","name:et":"Saint John's","name:fa":"سینت جانز","name:fi":"St. John’s","name:fr":"Saint John's","name:fy":"Sint John's","name:gd":"Saint John's","name:gl":"Saint John's","name:he":"סנט ג'ונס","name:hr":"St. John's","name:ht":"Sen Jòns","name:hu":"St. John's","name:hy":"Սենթ Ջոնս","name:id":"St. John's, Antigua dan Barbuda","name:io":"St Johns","name:it":"Saint John's","name:ja":"セントジョンズ","name:ka":"სენტ-ჯონზი","name:ko":"세인트존스","name:ku":"Saint John's","name:kw":"Saint John's, Antiga ha Barbuda","name:la":"Urbs Sancti Iohannis","name:lt":"Sent Džonsas","name:lv":"Sentdžonsa","name:mk":"Сент Џон","name:mr":"सेंट जॉन्स","name:nl":"Saint John's","name:nn":"Saint John's","name:no":"Saint John's","name:oc":"Saint John's","name:pa":"ਸੇਂਟ ਜਾਨ","name:pl":"Saint John's","name:pt":"São João","name:ru":"Сент-Джонс","name:sh":"St. John's","name:sk":"Saint John’s","name:sq":"Saint John's","name:sr":"Сент Џонс","name:sv":"Saint John's","name:ta":"செயிண்ட். ஜோன்ஸ்","name:th":"เซนต์จอนส์","name:tl":"San Juan, Antigua at Barbuda","name:tr":"St. John's","name:uk":"Сент-Джонс","name:ur":"سینٹ جونز","name:zh":"聖約翰","name:ckb":"سانت جۆنس","name:hif":"Saint John's","name:nah":"Saint John","name:sah":"Сент Дьонс","name:vep":"Sent Džons","name:be-tarask":"Сэнт-Джонс"},"display_name":"St. John's, Saint John, Antigua, Antigua and Barbuda","address":{"town":"St. John's","region":"Saint John","ISO3166-2-lvl6":"AG-04","state":"Antigua","country":"Antigua and Barbuda","country_code":"ag"},"population":21926,"osm_type":"node","osm_id":425746989,"type":"town","location":[-61.8448509,17.1184569],"bbox":[-61.8848509,17.0784569,-61.8048509,17.1584569],"border":{"name":"Saint John","other_names":{"name:ar":"سينت جن","name:en":"Saint John","name:fr":"Saint-John","ISO3166-2":"AG-04"},"display_name":"Saint John, Antigua, Antigua and Barbuda","address":{"region":"Saint John","ISO3166-2-lvl6":"AG-04","state":"Antigua","country":"Antigua and Barbuda","country_code":"ag"},"osm_type":"relation","osm_id":9604932,"type":"administrative","location":[-61.8583488,17.1151502],"bbox":[-61.9304726,17.0533889,-61.786734,17.1765039]}}
