{"name":"M'lédjélé","other_names":{"name:fr":"M'lédjélé"},"display_name":"M'lédjélé, موهيلي Mohéli, Comores Komori جزر القمر","address":{"city":"M'lédjélé","state":"موهيلي Mohéli","ISO3166-2-lvl4":"KM-M","country":"Comores Komori جزر القمر","country_code":"km"},"osm_type":"relation","osm_id":12362322,"type":"administrative","location":[43.714587964550574,-12.3477388],"bbox":[43.6381502,-12.4226168,43.7780715,-12.3157668],"inferred_type":"city"}
{"name":"Moroni موروني","other_names":{"name:am":"ሞሮኒ","name:ar":"موروني","name:be":"Мароні","name:bg":"Морони","name:bo":"མོ་རོ་ནི།","name:ca":"Moroni","name:de":"Moroni","name:el":"Μορονί","name:en":"Moroni","name:es":"Moroni","name:fa":"موروني","name:fr":"Moroni","name:fy":"Morony","name:he":"מורוני","name:hu":"Moroni","name:hy":"Մորոնի","name:id":"Moroni","name:is":"Moróní","name:it":"Moroni","name:ja":"モロニ","name:jv":"Moroni","name:ka":"მორონი","name:ko":"모로니","name:ku":"Moronî","name:ky":"Морони","name:lt":"Moronis","name:mk":"Морони","name:mn":"Морони","name:mr":"मोरोनी","name:oc":"Moròni","name:pl":"Moroni","name:ps":"مورونی","name:ru":"Морони","name:sr":"Морони","name:sv":"Moroni","name:ta":"மூறூனீ","name:th":"โมโรนี","name:tl":"Moroni","name:uk":"Мороні","name:ur":"مورونی","name:vi":"Moroni","name:yo":"Moroni","name:zh":"莫羅尼","name:azb":"مورونی","name:ckb":"مۆرۆنی","name:kab":"Moroni","name:ota":"مورونی","name:pnb":"مورونی","name:sco":"Moroni","name:udm":"Морони","name:war":"Moroni","name:simple":"Moroni"},"display_name":"Moroni موروني, Ngazidja القمر الكبرى, Comores Komori جزر القمر","address":{"city":"Moroni موروني","state":"Ngazidja القمر الكبرى","ISO3166-2-lvl4":"KM-G","country":"Comores Komori جزر القمر","country_code":"km"},"population":111329,"osm_type":"node","osm_id":339324562,"type":"city","location":[43.2543044,-11.6931255],"bbox":[43.0943044,-11.8531255,43.4143044,-11.5331255]}
{"name":"Mutsamudu موتسامودو","other_names":{"name:ar":"موتسامودو","name:en":"Mutsamudu","name:fr":"Mutsamudu","name:ko":"무차무두","name:zh":"穆察穆杜"},"display_name":"Mutsamudu موتسامودو, Nzwani أنجوان, Comores Komori جزر القمر","address":{"city":"Mutsamudu موتسامودو","state":"Nzwani أنجوان","ISO3166-2-lvl4":"KM-A","country":"Comores Komori جزر القمر","country_code":"km"},"population":30000,"osm_type":"node","osm_id":1295700465,"type":"city","location":[44.3942831,-12.168846],"bbox":[44.2342831,-12.328846,44.5542831,-12.008846]}
{"name":"Mzaki","display_name":"Mzaki, Ngazidja القمر الكبرى, Comores Komori جزر القمر","address":{"city":"Mzaki","state":"Ngazidja القمر الكبرى","ISO3166-2-lvl4":"KM-G","country":"Comores Komori جزر القمر","country_code":"km"},"osm_type":"node","osm_id":12001116653,"type":"city","location":[43.2659827,-11.7348485],"bbox":[43.1059827,-11.8948485,43.4259827,-11.5748485]}
{"name":"فومبوني Fomboni","other_names":{"name:ar":"فومبوني","name:de":"Fomboni","name:en":"Fomboni","name:es":"Fomboni","name:fa":"فومبونی","name:fr":"Fomboni","name:uk":"Фомбоні","name:azb":"فومبونی"},"display_name":"فومبوني Fomboni, Fomboni, موهيلي Mohéli, Comores Komori جزر القمر","address":{"city":"فومبوني Fomboni","state":"موهيلي Mohéli","ISO3166-2-lvl4":"KM-M","country":"Comores Komori جزر القمر","country_code":"km"},"osm_type":"node","osm_id":2317482083,"type":"city","location":[43.742727,-12.284054],"bbox":[43.582727,-12.444054,43.902727,-12.124054],"border":{"name":"Fomboni","display_name":"Fomboni, موهيلي Mohéli, Comores Komori جزر القمر","address":{"city":"Fomboni","state":"موهيلي Mohéli","ISO3166-2-lvl4":"KM-M","country":"Comores Komori جزر القمر","country_code":"km"},"osm_type":"relation","osm_id":12371757,"type":"administrative","location":[43.720931087563656,-12.296920400000001],"bbox":[43.6879789,-12.3260851,43.7505915,-12.2697149]}}
