{"name":"Didjoni ديجني","other_names":{"name:ar":"ديجني","name:en":"Didjoni","name:fr":"Didjoni"},"display_name":"Didjoni ديجني, Ngazidja القمر الكبرى, Comores Komori جزر القمر","address":{"hamlet":"Didjoni ديجني","state":"Ngazidja القمر الكبرى","ISO3166-2-lvl4":"KM-G","country":"Comores Komori جزر القمر","country_code":"km"},"osm_type":"node","osm_id":5033710274,"type":"hamlet","location":[43.49088,-11.8839889],"bbox":[43.47088,-11.9039889,43.51088,-11.8639889]}
{"name":"Kouambani كوامباني","other_names":{"name:ar":"كوامباني","name:en":"Kouambani","name:fr":"Kouambani"},"display_name":"Kouambani كوامباني, Ngazidja القمر الكبرى, Comores Komori جزر القمر","address":{"hamlet":"Kouambani كوامباني","state":"Ngazidja القمر الكبرى","ISO3166-2-lvl4":"KM-G","country":"Comores Komori جزر القمر","country_code":"km"},"osm_type":"node","osm_id":5033710272,"type":"hamlet","location":[43.4853514,-11.8601053],"bbox":[43.4653514,-11.8801053,43.5053514,-11.8401053]}
{"name":"سامبيا Sambia","other_names":{"name:ar":"سامبيا","name:en":"Sambia","name:fr":"Sambia"},"display_name":"سامبيا Sambia, Djando, موهيلي Mohéli, Comores Komori جزر القمر","address":{"hamlet":"سامبيا Sambia","city":"Djando","state":"موهيلي Mohéli","ISO3166-2-lvl4":"KM-M","country":"Comores Komori جزر القمر","country_code":"km"},"osm_type":"node","osm_id":4269799558,"type":"hamlet","location":[43.797336,-12.3695826],"bbox":[43.777336,-12.3895826,43.817336,-12.3495826]}
