{"name":"Adda-Douéni","other_names":{"name:de":"Adda-Douéni","name:en":"Adda-Douéni","name:fa":"ادا-دوئنی","name:fr":"Adda-Douéni","name:hr":"Adda Daouéni","name:hy":"Ադդա-Դուենի","name:id":"Adda-Daouéni","name:ro":"Adda Daouéni"},"display_name":"Adda-Douéni, Nzwani أنجوان, Comores Komori جزر القمر","address":{"town":"Adda-Douéni","state":"Nzwani أنجوان","ISO3166-2-lvl4":"KM-A","country":"Comores Komori جزر القمر","country_code":"km"},"osm_type":"node","osm_id":8518493559,"type":"town","location":[44.4935533,-12.2974902],"bbox":[44.4535533,-12.3374902,44.5335533,-12.2574902]}
{"name":"Akibani أكيباني","other_names":{"name:ar":"أكيباني","name:de":"Akibani","name:en":"Akibani","name:fa":"اکیبانی","name:fr":"Akibani"},"display_name":"Akibani أكيباني, Nzwani أنجوان, Comores Komori جزر القمر","address":{"town":"Akibani أكيباني","state":"Nzwani أنجوان","ISO3166-2-lvl4":"KM-A","country":"Comores Komori جزر القمر","country_code":"km"},"osm_type":"node","osm_id":2317281173,"type":"town","location":[44.3474195,-12.1961321],"bbox":[44.3074195,-12.2361321,44.3874195,-12.1561321]}
{"name":"Bambao بامبو","other_names":{"name:ar":"بامبو","name:en":"Bambao","name:fr":"Bambao"},"display_name":"Bambao بامبو, Nzwani أنجوان, Comores Komori جزر القمر","address":{"town":"Bambao بامبو","state":"Nzwani أنجوان","ISO3166-2-lvl4":"KM-A","country":"Comores Komori جزر القمر","country_code":"km"},"osm_type":"node","osm_id":1229050356,"type":"town","location":[44.5166595,-12.2022861],"bbox":[44.4766595,-12.2422861,44.5566595,-12.1622861]}
{"name":"Bazimini بازيميني","other_names":{"name:ar":"بازيميني","name:de":"Bazimini","name:en":"Bazimini","name:es":"Bazimini","name:fr":"Bazimini"},"display_name":"Bazimini بازيميني, Nzwani أنجوان, Comores Komori جزر القمر","address":{"town":"Bazimini بازيميني","state":"Nzwani أنجوان","ISO3166-2-lvl4":"KM-A","country":"Comores Komori جزر القمر","country_code":"km"},"osm_type":"node","osm_id":1229049872,"type":"town","location":[44.4493718,-12.1804726],"bbox":[44.4093718,-12.2204726,44.4893718,-12.1404726]}
{"name":"Chandra شاندرا","other_names":{"name:ar":"شاندرا","name:en":"Chandra","name:fr":"Chandra","name:hr":"Chandra","name:pl":"Chandra","name:ro":"Chandra","name:sv":"Chandra","name:sw":"Chandra"},"display_name":"Chandra شاندرا, Nzwani أنجوان, Comores Komori جزر القمر","address":{"town":"Chandra شاندرا","state":"Nzwani أنجوان","ISO3166-2-lvl4":"KM-A","country":"Comores Komori جزر القمر","country_code":"km"},"osm_type":"node","osm_id":2318289090,"type":"town","location":[44.4641536,-12.1998655],"bbox":[44.4241536,-12.2398655,44.5041536,-12.1598655]}
{"name":"Foumbouni فومبوني","other_names":{"name:ar":"فومبوني","name:en":"Foumbouni","name:fr":"Foumbouni","name:hr":"Foumbouni","name:id":"Foumbouni","name:it":"Foumbouni","name:pl":"Foumbouni","name:ro":"Foumbouni","name:sv":"Foumbouni"},"display_name":"Foumbouni فومبوني, Ngazidja القمر الكبرى, Comores Komori جزر القمر","address":{"town":"Foumbouni فومبوني","state":"Ngazidja القمر الكبرى","ISO3166-2-lvl4":"KM-G","country":"Comores Komori جزر القمر","country_code":"km"},"osm_type":"node","osm_id":4052722395,"type":"town","location":[43.4951635,-11.865448],"bbox":[43.4551635,-11.905448,43.5351635,-11.825448],"border":{"name":"Foumbouni فومبوني","other_names":{"name:ar":"فومبوني","name:en":"Foumbouni","name:fr":"Foumbouni","name:hr":"Foumbouni","name:id":"Foumbouni","name:it":"Foumbouni","name:pl":"Foumbouni","name:ro":"Foumbouni","name:sv":"Foumbouni"},"display_name":"Foumbouni فومبوني, Ngazidja القمر الكبرى, Comores Komori جزر القمر","address":{"town":"Foumbouni فومبوني","state":"Ngazidja القمر الكبرى","ISO3166-2-lvl4":"KM-G","country":"Comores Komori جزر القمر","country_code":"km"},"osm_type":"way","osm_id":402868166,"type":"town","location":[43.4951635,-11.865448],"bbox":[43.4890659,-11.870391,43.4968096,-11.8599035]}}
{"name":"Hahaya هاهايا","other_names":{"name:ar":"هاهايا","name:fr":"Hahaya"},"display_name":"Hahaya هاهايا, Ngazidja القمر الكبرى, Comores Komori جزر القمر","address":{"town":"Hahaya هاهايا","state":"Ngazidja القمر الكبرى","ISO3166-2-lvl4":"KM-G","country":"Comores Komori جزر القمر","country_code":"km"},"population":2638,"osm_type":"node","osm_id":2317587042,"type":"town","location":[43.2713158,-11.5644457],"bbox":[43.2313158,-11.6044457,43.3113158,-11.5244457]}
{"name":"Hajoho هاجهو","other_names":{"name:ar":"هاجهو","name:de":"Hajoho","name:en":"Hajoho","name:fa":"هاجوهو","name:fr":"Hajoho","name:sv":"Hajoho"},"display_name":"Hajoho هاجهو, Nzwani أنجوان, Comores Komori جزر القمر","address":{"town":"Hajoho هاجهو","state":"Nzwani أنجوان","ISO3166-2-lvl4":"KM-A","country":"Comores Komori جزر القمر","country_code":"km"},"osm_type":"node","osm_id":1229049545,"type":"town","location":[44.4887603,-12.1243932],"bbox":[44.4487603,-12.1643932,44.5287603,-12.0843932]}
{"name":"Harembo هارمبو","other_names":{"name:ar":"هارمبو","name:de":"Harembo","name:en":"Harembo","name:fr":"Harembo","name:sv":"Harembo"},"display_name":"Harembo هارمبو, Nzwani أنجوان, Comores Komori جزر القمر","address":{"town":"Harembo هارمبو","state":"Nzwani أنجوان","ISO3166-2-lvl4":"KM-A","country":"Comores Komori جزر القمر","country_code":"km"},"osm_type":"node","osm_id":1229050437,"type":"town","location":[44.4977311,-12.1509075],"bbox":[44.4577311,-12.1909075,44.5377311,-12.1109075]}
{"name":"Hoani","other_names":{"name:ar":"هواني","name:de":"Hoani","name:es":"Hoani","name:fr":"Hoani"},"display_name":"Hoani, Moimbassa, موهيلي Mohéli, Comores Komori جزر القمر","address":{"town":"Hoani","city":"Moimbassa","state":"موهيلي Mohéli","ISO3166-2-lvl4":"KM-M","country":"Comores Komori جزر القمر","country_code":"km"},"osm_type":"node","osm_id":2317482086,"type":"town","location":[43.675036,-12.2583648],"bbox":[43.635036,-12.2983648,43.715036,-12.2183648]}
{"name":"Iconi","other_names":{"alt_name":"Ikoni"},"display_name":"Iconi, Ngazidja القمر الكبرى, Comores Komori جزر القمر","address":{"town":"Iconi","state":"Ngazidja القمر الكبرى","ISO3166-2-lvl4":"KM-G","country":"Comores Komori جزر القمر","country_code":"km"},"population":5474,"osm_type":"node","osm_id":4198486478,"type":"town","location":[43.2377559,-11.7451859],"bbox":[43.1977559,-11.7851859,43.2777559,-11.7051859],"border":{"name":"Ikoni","display_name":"Ikoni, Ngazidja القمر الكبرى, Comores Komori جزر القمر","address":{"town":"Ikoni","state":"Ngazidja القمر الكبرى","ISO3166-2-lvl4":"KM-G","country":"Comores Komori جزر القمر","country_code":"km"},"population":10000,"osm_type":"way","osm_id":1274732628,"type":"town","location":[43.238336814443656,-11.73785835],"bbox":[43.2290118,-11.7582326,43.2485294,-11.7188137]}}
{"name":"Jimilimé جيميليم","other_names":{"name:ar":"جيميليم","name:de":"Jimilimé","name:en":"Jimilimé","name:fr":"Jimilimé","name:hy":"Ջիմիլիմե","name:id":"Jimilimé","alt_name:fr":"Jamilimé"},"display_name":"Jimilimé جيميليم, Nzwani أنجوان, Comores Komori جزر القمر","address":{"town":"Jimilimé جيميليم","state":"Nzwani أنجوان","ISO3166-2-lvl4":"KM-A","country":"Comores Komori جزر القمر","country_code":"km"},"osm_type":"node","osm_id":1229049495,"type":"town","location":[44.4630155,-12.0973976],"bbox":[44.4230155,-12.1373976,44.5030155,-12.0573976]}
{"name":"Miringoni ميرينكوني","other_names":{"name:ar":"ميرينكوني","name:de":"Miringoni","name:en":"Miringoni","name:es":"Miringoni","name:fr":"Miringoni"},"display_name":"Miringoni ميرينكوني, Moimbao, موهيلي Mohéli, Comores Komori جزر القمر","address":{"town":"Miringoni ميرينكوني","city":"Moimbao","state":"موهيلي Mohéli","ISO3166-2-lvl4":"KM-M","country":"Comores Komori جزر القمر","country_code":"km"},"osm_type":"node","osm_id":2317482090,"type":"town","location":[43.6366052,-12.3022872],"bbox":[43.5966052,-12.3422872,43.6766052,-12.2622872]}
{"name":"Ouani أواني","other_names":{"name:ar":"أواني","name:en":"Ouani","name:fr":"Ouani"},"display_name":"Ouani أواني, Nzwani أنجوان, Comores Komori جزر القمر","address":{"town":"Ouani أواني","state":"Nzwani أنجوان","ISO3166-2-lvl4":"KM-A","country":"Comores Komori جزر القمر","country_code":"km"},"osm_type":"node","osm_id":1229049286,"type":"town","location":[44.4272275,-12.1339888],"bbox":[44.3872275,-12.1739888,44.4672275,-12.0939888]}
{"name":"Pomoni بوموني","other_names":{"name:ar":"بوموني","name:en":"Pomoni","name:fr":"Pomoni","name:hy":"Պոմոնի","name:id":"Pomni"},"display_name":"Pomoni بوموني, Nzwani أنجوان, Comores Komori جزر القمر","address":{"town":"Pomoni بوموني","state":"Nzwani أنجوان","ISO3166-2-lvl4":"KM-A","country":"Comores Komori جزر القمر","country_code":"km"},"osm_type":"node","osm_id":2995360506,"type":"town","location":[44.4101223,-12.2836247],"bbox":[44.3701223,-12.3236247,44.4501223,-12.2436247]}
{"name":"Tsembéhou","other_names":{"name:fr":"Tsembéhou"},"display_name":"Tsembéhou, Nzwani أنجوان, Comores Komori جزر القمر","address":{"town":"Tsembéhou","state":"Nzwani أنجوان","ISO3166-2-lvl4":"KM-A","country":"Comores Komori جزر القمر","country_code":"km"},"osm_type":"node","osm_id":7228442367,"type":"town","location":[44.467106,-12.2080089],"bbox":[44.427106,-12.2480089,44.507106,-12.1680089]}
{"name":"جويزي Djoiezi","other_names":{"name:ar":"جويزي","name:de":"Djoiezi","name:en":"Djoiezi","name:es":"Djoiezi","name:fr":"Djoiezi"},"display_name":"جويزي Djoiezi, Moili Mdjini, موهيلي Mohéli, Comores Komori جزر القمر","address":{"town":"جويزي Djoiezi","city":"Moili Mdjini","state":"موهيلي Mohéli","ISO3166-2-lvl4":"KM-M","country":"Comores Komori جزر القمر","country_code":"km"},"osm_type":"node","osm_id":2317482076,"type":"town","location":[43.7719476,-12.3025278],"bbox":[43.7319476,-12.3425278,43.8119476,-12.2625278]}
{"name":"دوموني Domoni","other_names":{"name:ar":"دوموني","name:de":"Domoni","name:en":"Domoni","name:es":"Domoni","name:fr":"Domoni"},"display_name":"دوموني Domoni, Moimbassa, موهيلي Mohéli, Comores Komori جزر القمر","address":{"town":"دوموني Domoni","city":"Moimbassa","state":"موهيلي Mohéli","ISO3166-2-lvl4":"KM-M","country":"Comores Komori جزر القمر","country_code":"km"},"osm_type":"node","osm_id":2317482080,"type":"town","location":[43.6431446,-12.2580229],"bbox":[43.6031446,-12.2980229,43.6831446,-12.2180229]}
{"name":"دوموني Domoni","other_names":{"name:ar":"دوموني","name:de":"Domoni","name:en":"Domoni","name:es":"Domoni","name:fr":"Domoni"},"display_name":"دوموني Domoni, Nzwani أنجوان, Comores Komori جزر القمر","address":{"town":"دوموني Domoni","state":"Nzwani أنجوان","ISO3166-2-lvl4":"KM-A","country":"Comores Komori جزر القمر","country_code":"km"},"osm_type":"node","osm_id":1229050458,"type":"town","location":[44.528851,-12.2586544],"bbox":[44.488851,-12.2986544,44.568851,-12.2186544]}
{"name":"سيما Sima","other_names":{"name:ar":"سيما","name:de":"Sima","name:en":"Sima","name:es":"Sima","name:fr":"Sima","name:hy":"Սիմա"},"display_name":"سيما Sima, Nzwani أنجوان, Comores Komori جزر القمر","address":{"town":"سيما Sima","state":"Nzwani أنجوان","ISO3166-2-lvl4":"KM-A","country":"Comores Komori جزر القمر","country_code":"km"},"osm_type":"node","osm_id":2317281174,"type":"town","location":[44.2732653,-12.1981154],"bbox":[44.2332653,-12.2381154,44.3132653,-12.1581154]}
{"name":"ندروندروني Ndrondroni","other_names":{"name:ar":"ندروندروني","name:de":"Ndrondroni","name:en":"Ndrondroni","name:es":"Ndrondroni","name:fr":"Ndrondroni"},"display_name":"ندروندروني Ndrondroni, M'lédjélé, موهيلي Mohéli, Comores Komori جزر القمر","address":{"town":"ندروندروني Ndrondroni","city":"M'lédjélé","state":"موهيلي Mohéli","ISO3166-2-lvl4":"KM-M","country":"Comores Komori جزر القمر","country_code":"km"},"osm_type":"node","osm_id":2317482098,"type":"town","location":[43.678156,-12.3476463],"bbox":[43.638156,-12.3876463,43.718156,-12.3076463]}
{"name":"نيومشوا Nioumachoua","other_names":{"name:ar":"نيومشوا","name:de":"Nioumachoua","name:en":"Nioumachoua","name:es":"Nioumachoua","name:fr":"Nioumachoua"},"display_name":"نيومشوا Nioumachoua, M'lédjélé, موهيلي Mohéli, Comores Komori جزر القمر","address":{"town":"نيومشوا Nioumachoua","city":"M'lédjélé","state":"موهيلي Mohéli","ISO3166-2-lvl4":"KM-M","country":"Comores Komori جزر القمر","country_code":"km"},"osm_type":"node","osm_id":2317482092,"type":"town","location":[43.7178957,-12.364451],"bbox":[43.6778957,-12.404451,43.7578957,-12.324451]}
{"name":"والله Ouallah","other_names":{"name:ar":"والله","name:de":"Ouallah","name:en":"Ouallah","name:es":"Ouallah","name:fr":"Ouallah","alt_name:ar":"أوالا"},"display_name":"والله Ouallah, Moimbao, موهيلي Mohéli, Comores Komori جزر القمر","address":{"town":"والله Ouallah","city":"Moimbao","state":"موهيلي Mohéli","ISO3166-2-lvl4":"KM-M","country":"Comores Komori جزر القمر","country_code":"km"},"osm_type":"node","osm_id":2317482095,"type":"town","location":[43.6625136,-12.327085],"bbox":[43.6225136,-12.367085,43.7025136,-12.287085]}
