{"name":"Dara Sakor Seashore Resort Area","other_names":{"name:km":"Dara Sakor Seashore Resort Area","name:zh":"七星海度假村"},"display_name":"Dara Sakor Seashore Resort Area, ខេត្តកោះកុង, ព្រះរាជាណាចក្រ​កម្ពុជា","address":{"city":"Dara Sakor Seashore Resort Area","state":"ខេត្តកោះកុង","ISO3166-2-lvl4":"KH-9","country":"ព្រះរាជាណាចក្រ​កម្ពុជា","country_code":"kh"},"osm_type":"way","osm_id":675983518,"type":"administrative","location":[103.13922767468193,11.0332772],"bbox":[103.0867338,10.8571043,103.3654654,11.2094551],"inferred_type":"city"}
{"name":"កំពត","other_names":{"name:en":"Kampot","name:fr":"Kampot","name:ja":"カンポット","name:km":"កំពត","name:ko":"캄포트","name:ru":"Кампот","name:th":"กำปอต","name:uk":"Кампот","name:vi":"Kampot","int_name":"Kampot"},"display_name":"កំពត, ខេត្តកំពត, 070216, ព្រះរាជាណាចក្រ​កម្ពុជា","address":{"city":"កំពត","state":"ខេត្តកំពត","ISO3166-2-lvl4":"KH-7","postcode":"070216","country":"ព្រះរាជាណាចក្រ​កម្ពុជា","country_code":"kh"},"population":39186,"osm_type":"node","osm_id":257885151,"type":"city","location":[104.1827542,10.6116906],"bbox":[104.0227542,10.4516906,104.3427542,10.7716906]}
{"name":"កែប","other_names":{"name:en":"Kep","name:fr":"Kep","name:ja":"ケップ","name:km":"ក្រុងកែប","name:ko":"케프","name:ru":"Каеп","name:vi":"Kep","int_name":"Kep","name:zh-Hans":"白马"},"display_name":"កែប, សង្កាត់កែប, ក្រុងកែប, ខេត្តកែប, ព្រះរាជាណាចក្រ​កម្ពុជា","address":{"city":"កែប","state":"ខេត្តកែប","ISO3166-2-lvl4":"KH-23","country":"ព្រះរាជាណាចក្រ​កម្ពុជា","country_code":"kh"},"population":35990,"osm_type":"node","osm_id":257885052,"type":"city","location":[104.3144082,10.4846391],"bbox":[104.1544082,10.3246391,104.4744082,10.6446391],"border":[{"name":"ក្រុងកែប","other_names":{"ref":"1403","name:en":"Kep Municipality","name:km":"ក្រុងកែប","name:fr":"Kep","name:ja":"ケップ","name:ko":"케프","name:ru":"Каеп","name:vi":"Kep","int_name":"Kep","name:zh-Hans":"白马","alt":"កែប","alt:en":"Kep"},"display_name":"ក្រុងកែប, ខេត្តកែប, ព្រះរាជាណាចក្រ​កម្ពុជា","address":{"city":"ក្រុងកែប","state":"ខេត្តកែប","ISO3166-2-lvl4":"KH-23","country":"ព្រះរាជាណាចក្រ​កម្ពុជា","country_code":"kh"},"population":35990,"osm_type":"relation","osm_id":18404655,"type":"administrative","location":[104.3144082,10.4846391],"bbox":[104.2142163,10.3534512,104.3619468,10.5908859]},{"name":"សង្កាត់កែប","other_names":{"ref":"200205","name:en":"Kep Quarter","name:km":"សង្កាត់កែប","name:fr":"Kep","name:ja":"ケップ","name:ko":"케프","name:ru":"Каеп","name:vi":"Kep","int_name":"Kep","name:zh-Hans":"白马","alt":"កែប","alt:en":"Kep","alt:km":"ក្រុងកែប"},"display_name":"សង្កាត់កែប, ក្រុងកែប, ខេត្តកែប, ព្រះរាជាណាចក្រ​កម្ពុជា","address":{"city":"សង្កាត់កែប","state":"ខេត្តកែប","ISO3166-2-lvl4":"KH-23","country":"ព្រះរាជាណាចក្រ​កម្ពុជា","country_code":"kh"},"population":35990,"osm_type":"relation","osm_id":18404650,"type":"administrative","location":[104.3144082,10.4846391],"bbox":[104.2963001,10.3534512,104.3503887,10.5332179]}]}
{"name":"ក្រុងកំពង់ចាម","other_names":{"name:en":"Kampong Cham","name:et":"Kâmpóng Cham","name:fr":"Kompong Cham","name:ja":"コンポンチャム","name:km":"ក្រុងកំពង់ចាម","name:ko":"캄퐁참","name:ru":"Кампонгтям","name:uk":"Кампонгтям","name:vi":"Kampong Cham","name:zh":"磅湛"},"display_name":"ក្រុងកំពង់ចាម, ខេត្តកំពង់ចាម ꨆꩌꨚꨮꩆꩁ ꨌꩌ, ព្រះរាជាណាចក្រ​កម្ពុជា","address":{"city":"ក្រុងកំពង់ចាម","state":"ខេត្តកំពង់ចាម ꨆꩌꨚꨮꩆꩁ ꨌꩌ","ISO3166-2-lvl4":"KH-3","country":"ព្រះរាជាណាចក្រ​កម្ពុជា","country_code":"kh"},"population":118242,"osm_type":"node","osm_id":257710244,"type":"city","location":[105.4628346,11.9921855],"bbox":[105.3028346,11.8321855,105.6228346,12.1521855]}
{"name":"ក្រុងកំពង់ឆ្នាំង","other_names":{"name:en":"Kampong Chhnang","name:fr":"Kompong Chhnang","name:ja":"コンポンチュナン","name:km":"ក្រុងកំពង់ឆ្នាំង","name:ko":"캄퐁치낭","name:ru":"Кампонгчнанг","name:uk":"Кампонгчнанг","name:vi":"Kampong Chhnang","name:zh":"磅清扬","alt_name":"Kampong Chnang"},"display_name":"ក្រុងកំពង់ឆ្នាំង, ខេត្តកំពង់ឆ្នាំង, ព្រះរាជាណាចក្រ​កម្ពុជា","address":{"city":"ក្រុងកំពង់ឆ្នាំង","state":"ខេត្តកំពង់ឆ្នាំង","ISO3166-2-lvl4":"KH-4","country":"ព្រះរាជាណាចក្រ​កម្ពុជា","country_code":"kh"},"population":41700,"osm_type":"node","osm_id":369502341,"type":"city","location":[104.6658389,12.2536026],"bbox":[104.5058389,12.0936026,104.8258389,12.4136026]}
{"name":"ក្រុងក្រចេះ","other_names":{"name:en":"Kratié","name:fr":"Kratié","name:ja":"クラチエ","name:km":"ក្រុងក្រចេះ","name:ru":"Кратьэх"},"display_name":"ក្រុងក្រចេះ, ខេត្តក្រចេះ, ព្រះរាជាណាចក្រ​កម្ពុជា","address":{"city":"ក្រុងក្រចេះ","county":"ក្រុងក្រចេះ","state":"ខេត្តក្រចេះ","ISO3166-2-lvl4":"KH-10","country":"ព្រះរាជាណាចក្រ​កម្ពុជា","country_code":"kh"},"osm_type":"node","osm_id":369494387,"type":"city","location":[106.0200894,12.4889566],"bbox":[105.8600894,12.3289566,106.1800894,12.6489566],"border":{"name":"ក្រុងក្រចេះ","other_names":{"ref":"1002","name:en":"Kracheh Municipality","name:km":"ក្រុងក្រចេះ"},"display_name":"ក្រុងក្រចេះ, ខេត្តក្រចេះ, ព្រះរាជាណាចក្រ​កម្ពុជា","address":{"county":"ក្រុងក្រចេះ","state":"ខេត្តក្រចេះ","ISO3166-2-lvl4":"KH-10","country":"ព្រះរាជាណាចក្រ​កម្ពុជា","country_code":"kh"},"osm_type":"relation","osm_id":18375585,"type":"administrative","location":[106.04135539048067,12.482777250000002],"bbox":[105.9820534,12.4264005,106.0913762,12.5386464]}}
{"name":"ក្រុងខេមរភូមិន្ទ","other_names":{"name:en":"Khemarak Phoumin","name:fr":"Khemarak Phoumin","name:km":"ក្រុងខេមរភូមិន្ទ","name:ru":"Кхемаракпхумин","name:th":"เขมรภูมินทร์","name:uk":"Кахконг","alt_name":"ក្រុងកោះកុង","alt_name:en":"Krong Koh Kong","alt_name:fr":"Kaoh Kong","alt_name:ru":"Кхемаракпхуминвиль","alt_name:th":"เมืองเกาะกง"},"display_name":"ក្រុងខេមរភូមិន្ទ, ខេត្តកោះកុង, ព្រះរាជាណាចក្រ​កម្ពុជា","address":{"city":"ក្រុងខេមរភូមិន្ទ","state":"ខេត្តកោះកុង","ISO3166-2-lvl4":"KH-9","country":"ព្រះរាជាណាចក្រ​កម្ពុជា","country_code":"kh"},"osm_type":"node","osm_id":369497420,"type":"city","location":[102.9818592,11.6110095],"bbox":[102.8218592,11.4510095,103.1418592,11.7710095],"border":{"name":"ក្រុងខេមរភូមិន្ទ","other_names":{"ref":"0904","name:en":"Khemara Phoumin Municipality","name:km":"ក្រុងខេមរភូមិន្ទ","name:uk":"Кахконг","name:fr":"Khemarak Phoumin","name:ru":"Кхемаракпхумин","name:th":"เขมรภูมินทร์","alt_name":"ក្រុងកោះកុង","alt_name:en":"Krong Koh Kong","alt_name:fr":"Kaoh Kong","alt_name:ru":"Кхемаракпхуминвиль","alt_name:th":"เมืองเกาะกง","alt:en":"Khemarak Phoumin"},"display_name":"ក្រុងខេមរភូមិន្ទ, ខេត្តកោះកុង, ព្រះរាជាណាចក្រ​កម្ពុជា","address":{"city":"ក្រុងខេមរភូមិន្ទ","state":"ខេត្តកោះកុង","ISO3166-2-lvl4":"KH-9","country":"ព្រះរាជាណាចក្រ​កម្ពុជា","country_code":"kh"},"osm_type":"relation","osm_id":18393163,"type":"administrative","location":[102.9818592,11.6110095],"bbox":[102.9671928,11.5388606,103.096032,11.650955]}}
{"name":"ក្រុងច្បារមន","other_names":{"name:en":"Chbar Mon","name:fr":"Chbar Mon","name:km":"ក្រុងច្បារមន","name:ru":"Тьбамон"},"display_name":"ក្រុងច្បារមន, ខេត្តកំពង់ស្ពឺ, ព្រះរាជាណាចក្រ​កម្ពុជា","address":{"city":"ក្រុងច្បារមន","state":"ខេត្តកំពង់ស្ពឺ","ISO3166-2-lvl4":"KH-5","country":"ព្រះរាជាណាចក្រ​កម្ពុជា","country_code":"kh"},"osm_type":"node","osm_id":6588896221,"type":"city","location":[104.5194625,11.4647156],"bbox":[104.3594625,11.3047156,104.6794625,11.6247156],"border":{"name":"ក្រុងច្បារមន","other_names":{"name:en":"Chbar Mon City","name:km":"ក្រុងច្បារមន","name:fr":"Chbar Mon","name:ru":"Тьбамон","alt:en":"Chbar Mon"},"display_name":"ក្រុងច្បារមន, ខេត្តកំពង់ស្ពឺ, ព្រះរាជាណាចក្រ​កម្ពុជា","address":{"city":"ក្រុងច្បារមន","state":"ខេត្តកំពង់ស្ពឺ","ISO3166-2-lvl4":"KH-5","country":"ព្រះរាជាណាចក្រ​កម្ពុជា","country_code":"kh"},"osm_type":"relation","osm_id":9600344,"type":"administrative","location":[104.5194625,11.4647156],"bbox":[104.4547878,11.4300087,104.572339,11.5156294]}}
{"name":"ក្រុងដូនកែវ","other_names":{"name:en":"Doun Kaev","name:fr":"Doun Kaev","name:km":"ក្រុងដូនកែវ","name:ko":"타케오","name:ru":"Доункаеу"},"display_name":"ក្រុងដូនកែវ, ខេត្តតាកែវ, ព្រះរាជាណាចក្រ​កម្ពុជា","address":{"city":"ក្រុងដូនកែវ","county":"ក្រុងដូនកែវ","state":"ខេត្តតាកែវ","ISO3166-2-lvl4":"KH-21","country":"ព្រះរាជាណាចក្រ​កម្ពុជា","country_code":"kh"},"population":52000,"osm_type":"node","osm_id":328850126,"type":"city","location":[104.7830181,10.9875805],"bbox":[104.6230181,10.8275805,104.9430181,11.1475805],"border":{"name":"ក្រុងដូនកែវ","other_names":{"ref":"2108","name:en":"Doun Kaev Municipality","name:km":"ក្រុងដូនកែវ"},"display_name":"ក្រុងដូនកែវ, ខេត្តតាកែវ, ព្រះរាជាណាចក្រ​កម្ពុជា","address":{"county":"ក្រុងដូនកែវ","state":"ខេត្តតាកែវ","ISO3166-2-lvl4":"KH-21","country":"ព្រះរាជាណាចក្រ​កម្ពុជា","country_code":"kh"},"osm_type":"relation","osm_id":18547428,"type":"administrative","location":[104.7796426693947,10.9870701],"bbox":[104.7425424,10.9284109,104.8683174,11.0434664]}}
{"name":"ក្រុងតាខ្មៅ","other_names":{"name:en":"Ta Khmao","name:fr":"Ta Khmau","name:ja":"タクマウ","name:ru":"Такмау","name:vi":"Ta Khmao","alt_name:en":"Ta Khmau"},"display_name":"ក្រុងតាខ្មៅ, ខេត្តកណ្ដាល, ព្រះរាជាណាចក្រ​កម្ពុជា","address":{"city":"ក្រុងតាខ្មៅ","state":"ខេត្តកណ្ដាល","ISO3166-2-lvl4":"KH-8","country":"ព្រះរាជាណាចក្រ​កម្ពុជា","country_code":"kh"},"osm_type":"node","osm_id":1769108360,"type":"city","location":[104.9451162,11.4687395],"bbox":[104.7851162,11.3087395,105.1051162,11.6287395],"border":{"name":"ក្រុងតាខ្មៅ","other_names":{"name:en":"Krong Ta Khmau","name:km":"ក្រុងតាខ្មៅ","name:fr":"Ta Khmau","name:ja":"タクマウ","name:ru":"Такмау","name:vi":"Ta Khmao","alt_name:en":"Ta Khmau","alt:en":"Ta Khmao"},"display_name":"ក្រុងតាខ្មៅ, ខេត្តកណ្ដាល, ព្រះរាជាណាចក្រ​កម្ពុជា","address":{"city":"ក្រុងតាខ្មៅ","state":"ខេត្តកណ្ដាល","ISO3166-2-lvl4":"KH-8","country":"ព្រះរាជាណាចក្រ​កម្ពុជា","country_code":"kh"},"osm_type":"relation","osm_id":11171687,"type":"administrative","location":[104.9451162,11.4687395],"bbox":[104.9190394,11.3682577,105.0547885,11.4945094]}}
{"name":"ក្រុងបាត់ដំបង","other_names":{"name:bg":"Батамбанг","name:bn":"ব্যাটামবং","name:el":"Μπατταμπάνγκ","name:en":"Battambang","name:es":"Ciudad de Battambang","name:et":"Bătdâmbâng","name:fi":"Băt Dâmbâng","name:fr":"Battambang","name:ja":"バタンバン","name:km":"ក្រុងបាត់ដំបង","name:ko":"바탐방","name:lt":"Batambangas","name:ru":"Баттамбанг","name:sr":"Батамбанг","name:th":"พระตะบอง","name:uk":"Баттамбанг","name:vi":"Bát-tam-bang","name:zh":"馬德望","int_name":"Battambang","alt_name:vi":"Bát-đom-boong"},"display_name":"ក្រុងបាត់ដំបង, ខេត្តបាត់ដំបង, 021402, ព្រះរាជាណាចក្រ​កម្ពុជា","address":{"city":"ក្រុងបាត់ដំបង","county":"ក្រុងបាត់ដំបង","state":"ខេត្តបាត់ដំបង","ISO3166-2-lvl4":"KH-2","postcode":"021402","country":"ព្រះរាជាណាចក្រ​កម្ពុជា","country_code":"kh"},"population":180318,"osm_type":"node","osm_id":256991275,"type":"city","location":[103.1966659,13.0998526],"bbox":[103.0366659,12.9398526,103.3566659,13.2598526],"border":{"name":"ក្រុងបាត់ដំបង","other_names":{"ref":"0203","name:en":"Battambang Municipality","name:km":"ក្រុងបាត់ដំបង"},"display_name":"ក្រុងបាត់ដំបង, ខេត្តបាត់ដំបង, 021402, ព្រះរាជាណាចក្រ​កម្ពុជា","address":{"county":"ក្រុងបាត់ដំបង","state":"ខេត្តបាត់ដំបង","ISO3166-2-lvl4":"KH-2","postcode":"021402","country":"ព្រះរាជាណាចក្រ​កម្ពុជា","country_code":"kh"},"osm_type":"relation","osm_id":14738943,"type":"administrative","location":[103.18673434190434,13.0937231],"bbox":[103.0812694,13.0292716,103.2305948,13.1586223]}}
{"name":"ក្រុងបានលុង","other_names":{"name:en":"Banlung","name:fr":"Banlung","name:ja":"バンラング","name:km":"ក្រុងបានលុង","name:ru":"Банлунг","name:uk":"Банлунґ"},"display_name":"ក្រុងបានលុង, ខេត្តរតនគិរី, 160903, ព្រះរាជាណាចក្រ​កម្ពុជា","address":{"city":"ក្រុងបានលុង","county":"ក្រុងបានលុង","state":"ខេត្តរតនគិរី","ISO3166-2-lvl4":"KH-16","postcode":"160903","country":"ព្រះរាជាណាចក្រ​កម្ពុជា","country_code":"kh"},"population":17000,"osm_type":"node","osm_id":1769099996,"type":"city","location":[106.9873662,13.7414754],"bbox":[106.8273662,13.5814754,107.1473662,13.9014754],"border":{"name":"ក្រុងបានលុង","other_names":{"ref":"1602","name:en":"Ban Lung Municipality","name:km":"ក្រុងបានលុង"},"display_name":"ក្រុងបានលុង, ខេត្តរតនគិរី, 160903, ព្រះរាជាណាចក្រ​កម្ពុជា","address":{"county":"ក្រុងបានលុង","state":"ខេត្តរតនគិរី","ISO3166-2-lvl4":"KH-16","postcode":"160903","country":"ព្រះរាជាណាចក្រ​កម្ពុជា","country_code":"kh"},"osm_type":"relation","osm_id":18374952,"type":"administrative","location":[107.03217207204068,13.67206485],"bbox":[106.9423084,13.5809894,107.0910315,13.7636611]}}
{"name":"ក្រុងប៉ៃលិន","other_names":{"name:en":"Pailin","name:fr":"Païlin","name:ja":"パイリン","name:ru":"Пайлин","name:th":"ไพลิน"},"display_name":"ក្រុងប៉ៃលិន, ខេត្តប៉ៃលិន, ព្រះរាជាណាចក្រ​កម្ពុជា","address":{"city":"ក្រុងប៉ៃលិន","state":"ខេត្តប៉ៃលិន","ISO3166-2-lvl4":"KH-24","country":"ព្រះរាជាណាចក្រ​កម្ពុជា","country_code":"kh"},"osm_type":"node","osm_id":369494127,"type":"city","location":[102.6051776,12.8551384],"bbox":[102.4451776,12.6951384,102.7651776,13.0151384],"border":{"name":"ក្រុងប៉ៃលិន","other_names":{"ref":"2401","name:en":"Pailin Municipality","name:km":"ក្រុងប៉ៃលិន","name:fr":"Païlin","name:ja":"パイリン","name:ru":"Пайлин","name:th":"ไพลิน","alt:en":"Pailin"},"display_name":"ក្រុងប៉ៃលិន, ខេត្តប៉ៃលិន, ព្រះរាជាណាចក្រ​កម្ពុជា","address":{"city":"ក្រុងប៉ៃលិន","state":"ខេត្តប៉ៃលិន","ISO3166-2-lvl4":"KH-24","country":"ព្រះរាជាណាចក្រ​កម្ពុជា","country_code":"kh"},"osm_type":"relation","osm_id":14741082,"type":"administrative","location":[102.6051776,12.8551384],"bbox":[102.497282,12.663855,102.7533088,12.8923275]}}
{"name":"ក្រុងប៉ោយប៉ែត","other_names":{"name:en":"Poipet","name:ja":"ポイペト","name:km":"ក្រុងប៉ោយប៉ែត","name:ru":"Пойпет","name:th":"ปอยเปต","name:uk":"Пойпет"},"display_name":"ក្រុងប៉ោយប៉ែត, ខេត្តបន្ទាយមានជ័យ, ព្រះរាជាណាចក្រ​កម្ពុជា","address":{"city":"ក្រុងប៉ោយប៉ែត","county":"ក្រុងប៉ោយប៉ែត","state":"ខេត្តបន្ទាយមានជ័យ","ISO3166-2-lvl4":"KH-1","country":"ព្រះរាជាណាចក្រ​កម្ពុជា","country_code":"kh"},"osm_type":"node","osm_id":458885352,"type":"city","location":[102.5708301,13.6593962],"bbox":[102.4108301,13.4993962,102.7308301,13.8193962],"border":{"name":"ក្រុងប៉ោយប៉ែត","other_names":{"ref":"0110","name:en":"Paoy Paet Municipality","name:km":"ក្រុងប៉ោយប៉ែត"},"display_name":"ក្រុងប៉ោយប៉ែត, ខេត្តបន្ទាយមានជ័យ, ព្រះរាជាណាចក្រ​កម្ពុជា","address":{"county":"ក្រុងប៉ោយប៉ែត","state":"ខេត្តបន្ទាយមានជ័យ","ISO3166-2-lvl4":"KH-1","country":"ព្រះរាជាណាចក្រ​កម្ពុជា","country_code":"kh"},"osm_type":"relation","osm_id":18374714,"type":"administrative","location":[102.65200033310917,13.64951065],"bbox":[102.5480123,13.5608403,102.7576853,13.7379896]}}
{"name":"ក្រុងពោធិ៍សាត់","other_names":{"name:en":"Pursat","name:fr":"Pursat","name:ja":"ポーサット","name:km":"ក្រុងពោធិ៍សាត់","name:ru":"Поусат","name:uk":"Поусат","int_name":"Pursat"},"display_name":"ក្រុងពោធិ៍សាត់, ខេត្តពោធិ៍សាត់, ព្រះរាជាណាចក្រ​កម្ពុជា","address":{"city":"ក្រុងពោធិ៍សាត់","county":"ក្រុងពោធិ៍សាត់","state":"ខេត្តពោធិ៍សាត់","ISO3166-2-lvl4":"KH-15","country":"ព្រះរាជាណាចក្រ​កម្ពុជា","country_code":"kh"},"osm_type":"node","osm_id":663390211,"type":"city","location":[103.9178235,12.5377547],"bbox":[103.7578235,12.3777547,104.0778235,12.6977547],"border":{"name":"ក្រុងពោធិ៍សាត់","other_names":{"ref":"1505","name:en":"Pursat Municipality","name:km":"ក្រុងពោធិ៍សាត់"},"display_name":"ក្រុងពោធិ៍សាត់, ខេត្តពោធិ៍សាត់, ព្រះរាជាណាចក្រ​កម្ពុជា","address":{"county":"ក្រុងពោធិ៍សាត់","state":"ខេត្តពោធិ៍សាត់","ISO3166-2-lvl4":"KH-15","country":"ព្រះរាជាណាចក្រ​កម្ពុជា","country_code":"kh"},"osm_type":"relation","osm_id":18379847,"type":"administrative","location":[103.90582820712943,12.46753665],"bbox":[103.7870528,12.3525484,104.0179718,12.5829178]}}
{"name":"ក្រុងព្រះវិហារ","other_names":{"name:en":"Preah Vihear","name:fr":"Thbeng Meanchey","name:ja":"プレアヴィヒア","name:km":"ក្រុងព្រះវិហារ","name:ru":"Прэахвихеа","name:uk":"Преахвіхеа","alt_name":"Tbeang Meanchay"},"display_name":"ក្រុងព្រះវិហារ, ខេត្តព្រះវិហារ, ព្រះរាជាណាចក្រ​កម្ពុជា","address":{"city":"ក្រុងព្រះវិហារ","county":"ក្រុងព្រះវិហារ","state":"ខេត្តព្រះវិហារ","ISO3166-2-lvl4":"KH-13","country":"ព្រះរាជាណាចក្រ​កម្ពុជា","country_code":"kh"},"osm_type":"node","osm_id":256992516,"type":"city","location":[104.9742871,13.8012643],"bbox":[104.8142871,13.6412643,105.1342871,13.9612643],"border":{"name":"ក្រុងព្រះវិហារ","other_names":{"ref":"1308","name:en":"Preah Vihear Municipality","name:km":"ក្រុងព្រះវិហារ"},"display_name":"ក្រុងព្រះវិហារ, ខេត្តព្រះវិហារ, ព្រះរាជាណាចក្រ​កម្ពុជា","address":{"county":"ក្រុងព្រះវិហារ","state":"ខេត្តព្រះវិហារ","ISO3166-2-lvl4":"KH-13","country":"ព្រះរាជាណាចក្រ​កម្ពុជា","country_code":"kh"},"osm_type":"relation","osm_id":18379659,"type":"administrative","location":[104.98864741328674,13.7354381],"bbox":[104.8665527,13.6301736,105.0862191,13.8418496]}}
{"name":"ក្រុងព្រៃវែង","other_names":{"name:en":"Prey Veng","name:fr":"Prey Veng","name:ja":"プレイベン","name:km":"ក្រុងព្រៃវែង","name:ru":"Прейвэнг","name:vi":"Prey Veng","name:zh":"波萝勉市"},"display_name":"ក្រុងព្រៃវែង, ខេត្តព្រៃវែង, ព្រះរាជាណាចក្រ​កម្ពុជា","address":{"city":"ក្រុងព្រៃវែង","county":"ក្រុងព្រៃវែង","state":"ខេត្តព្រៃវែង","ISO3166-2-lvl4":"KH-14","country":"ព្រះរាជាណាចក្រ​កម្ពុជា","country_code":"kh"},"osm_type":"node","osm_id":369501901,"type":"city","location":[105.3251212,11.4826844],"bbox":[105.1651212,11.3226844,105.4851212,11.6426844],"border":{"name":"ក្រុងព្រៃវែង","other_names":{"ref":"1410","name:en":"Prey Veng Municipality","name:km":"ក្រុងព្រៃវែង"},"display_name":"ក្រុងព្រៃវែង, ខេត្តព្រៃវែង, ព្រះរាជាណាចក្រ​កម្ពុជា","address":{"county":"ក្រុងព្រៃវែង","state":"ខេត្តព្រៃវែង","ISO3166-2-lvl4":"KH-14","country":"ព្រះរាជាណាចក្រ​កម្ពុជា","country_code":"kh"},"osm_type":"relation","osm_id":18375914,"type":"administrative","location":[105.33814432781949,11.475124749999999],"bbox":[105.2871162,11.4271763,105.3933433,11.5236643]}}
{"name":"ក្រុងសំរោង","other_names":{"name:en":"Samraong","name:fr":"Samraong","name:km":"ក្រុងសំរោង","name:ru":"Самроунг","name:th":"สำโรง"},"display_name":"ក្រុងសំរោង, ខេត្តឧត្ដរមានជ័យ, ព្រះរាជាណាចក្រ​កម្ពុជា","address":{"city":"ក្រុងសំរោង","county":"ក្រុងសំរោង","state":"ខេត្តឧត្ដរមានជ័យ","ISO3166-2-lvl4":"KH-22","country":"ព្រះរាជាណាចក្រ​កម្ពុជា","country_code":"kh"},"osm_type":"node","osm_id":2145646486,"type":"city","location":[103.5092331,14.1758059],"bbox":[103.3492331,14.0158059,103.6692331,14.3358059],"border":{"name":"ក្រុងសំរោង","other_names":{"ref":"2204","name:en":"Samraong Municipality","name:km":"ក្រុងសំរោង"},"display_name":"ក្រុងសំរោង, ខេត្តឧត្ដរមានជ័យ, ព្រះរាជាណាចក្រ​កម្ពុជា","address":{"county":"ក្រុងសំរោង","state":"ខេត្តឧត្ដរមានជ័យ","ISO3166-2-lvl4":"KH-22","country":"ព្រះរាជាណាចក្រ​កម្ពុជា","country_code":"kh"},"osm_type":"relation","osm_id":18375749,"type":"administrative","location":[103.63589343392258,14.26909025],"bbox":[103.3835728,14.0969811,103.8296624,14.4403696]}}
{"name":"ក្រុងសិរីសោភ័ណ","other_names":{"name:en":"Sisophon","name:et":"Sisŏphŏn","name:fr":"Sisophon","name:ja":"シソポン","name:km":"ក្រុងសិរីសោភ័ណ","name:ru":"Сисопхон","name:th":"ศรีโสภณ","name:uk":"Сисопхон","int_name":"Sisophon"},"display_name":"ក្រុងសិរីសោភ័ណ, ខេត្តបន្ទាយមានជ័យ, ព្រះរាជាណាចក្រ​កម្ពុជា","address":{"city":"ក្រុងសិរីសោភ័ណ","county":"ក្រុងសិរីសោភ័ណ","state":"ខេត្តបន្ទាយមានជ័យ","ISO3166-2-lvl4":"KH-1","country":"ព្រះរាជាណាចក្រ​កម្ពុជា","country_code":"kh"},"population":132264,"osm_type":"node","osm_id":256990829,"type":"city","location":[102.9700274,13.5884004],"bbox":[102.8100274,13.4284004,103.1300274,13.7484004],"border":{"name":"ក្រុងសិរីសោភ័ណ","other_names":{"ref":"0106","name:en":"Serei Saophoan Municipality","name:km":"ក្រុងសិរីសោភ័ណ"},"display_name":"ក្រុងសិរីសោភ័ណ, ខេត្តបន្ទាយមានជ័យ, ព្រះរាជាណាចក្រ​កម្ពុជា","address":{"county":"ក្រុងសិរីសោភ័ណ","state":"ខេត្តបន្ទាយមានជ័យ","ISO3166-2-lvl4":"KH-1","country":"ព្រះរាជាណាចក្រ​កម្ពុជា","country_code":"kh"},"osm_type":"relation","osm_id":18374815,"type":"administrative","location":[102.99797643261718,13.61374645],"bbox":[102.8693623,13.5090102,103.08305,13.7181917]}}
{"name":"ក្រុងសៀមរាប","other_names":{"name:ar":"سيام ريب","name:en":"Siem Reap","name:es":"Ciudad de Siem Riep","name:et":"Siĕm Réab","name:fa":"سیه‌م رئاپ","name:fi":"Siĕm Réab","name:fr":"Siem Reap","name:hi":"सीम रीप","name:ja":"シェムリアップ","name:km":"ក្រុងសៀមរាប","name:ko":"시엠레아프","name:lt":"Siemreabas","name:ml":"സിയം റീപ്","name:nl":"Siem Reap","name:ru":"Сиемреап","name:sr":"Сием Реап","name:th":"เสียมราฐ","name:uk":"Сіємреап","name:vi":"Xiêm Riệp","name:zh":"暹粒市","int_name":"Siem Reap"},"display_name":"ក្រុងសៀមរាប, ខេត្តសៀមរាប, 123456, ព្រះរាជាណាចក្រ​កម្ពុជា","address":{"city":"ក្រុងសៀមរាប","county":"ក្រុងសៀមរាប","state":"ខេត្តសៀមរាប","ISO3166-2-lvl4":"KH-17","postcode":"123456","country":"ព្រះរាជាណាចក្រ​កម្ពុជា","country_code":"kh"},"population":171800,"osm_type":"node","osm_id":257838557,"type":"city","location":[103.8590321,13.3617562],"bbox":[103.6990321,13.2017562,104.0190321,13.5217562],"border":{"name":"ក្រុងសៀមរាប","other_names":{"ref":"1710","name:en":"Siem Reap Municipality","name:km":"ក្រុងសៀមរាប","name:ru":"Сиемреап"},"display_name":"ក្រុងសៀមរាប, ខេត្តសៀមរាប, ព្រះរាជាណាចក្រ​កម្ពុជា","address":{"county":"ក្រុងសៀមរាប","state":"ខេត្តសៀមរាប","ISO3166-2-lvl4":"KH-17","country":"ព្រះរាជាណាចក្រ​កម្ពុជា","country_code":"kh"},"osm_type":"relation","osm_id":13233283,"type":"administrative","location":[103.80257214487784,13.2872716],"bbox":[103.6965249,13.1029189,103.9236902,13.4680196]}}
{"name":"ក្រុងសែនមនោរម្យ","other_names":{"name:en":"Senmonorom","name:fr":"Saen Monourom","name:ja":"センモノロム","name:km":"ក្រុងសែនមនោរម្យ","name:ru":"Сенмонором","name:uk":"Сенмонором"},"display_name":"ក្រុងសែនមនោរម្យ, ខេត្តមណ្ឌលគិរី, 110502, ព្រះរាជាណាចក្រ​កម្ពុជា","address":{"city":"ក្រុងសែនមនោរម្យ","county":"ក្រុងសែនមនោរម្យ","state":"ខេត្តមណ្ឌលគិរី","ISO3166-2-lvl4":"KH-11","postcode":"110502","country":"ព្រះរាជាណាចក្រ​កម្ពុជា","country_code":"kh"},"osm_type":"node","osm_id":256993179,"type":"city","location":[107.1865184,12.4568561],"bbox":[107.0265184,12.2968561,107.3465184,12.6168561],"border":{"name":"ក្រុងសែនមនោរម្យ","other_names":{"ref":"1105","name:en":"Saen Monourom Municipality","name:km":"ក្រុងសែនមនោរម្យ"},"display_name":"ក្រុងសែនមនោរម្យ, ខេត្តមណ្ឌលគិរី, 110502, ព្រះរាជាណាចក្រ​កម្ពុជា","address":{"county":"ក្រុងសែនមនោរម្យ","state":"ខេត្តមណ្ឌលគិរី","ISO3166-2-lvl4":"KH-11","postcode":"110502","country":"ព្រះរាជាណាចក្រ​កម្ពុជា","country_code":"kh"},"osm_type":"relation","osm_id":17609918,"type":"administrative","location":[107.15937159500211,12.5080047],"bbox":[107.033143,12.370091,107.288661,12.6480956]}}
{"name":"ក្រុងស្ទឹងត្រែង","other_names":{"name:en":"Stung Treng","name:fr":"Stoeng Treng","name:ja":"ストゥントレン","name:km":"ក្រុងស្ទឹងត្រែង","name:ru":"Стынгтраенг"},"display_name":"ក្រុងស្ទឹងត្រែង, ខេត្តស្ទឹងត្រែង, ព្រះរាជាណាចក្រ​កម្ពុជា","address":{"city":"ក្រុងស្ទឹងត្រែង","county":"ក្រុងស្ទឹងត្រែង","state":"ខេត្តស្ទឹងត្រែង","ISO3166-2-lvl4":"KH-19","country":"ព្រះរាជាណាចក្រ​កម្ពុជា","country_code":"kh"},"population":29665,"osm_type":"node","osm_id":256842008,"type":"city","location":[105.9686727,13.5271207],"bbox":[105.8086727,13.3671207,106.1286727,13.6871207],"border":{"name":"ក្រុងស្ទឹងត្រែង","other_names":{"ref":"1904","name:en":"Stueng Traeng Municipality","name:km":"ក្រុងស្ទឹងត្រែង"},"display_name":"ក្រុងស្ទឹងត្រែង, ខេត្តស្ទឹងត្រែង, ព្រះរាជាណាចក្រ​កម្ពុជា","address":{"county":"ក្រុងស្ទឹងត្រែង","state":"ខេត្តស្ទឹងត្រែង","ISO3166-2-lvl4":"KH-19","country":"ព្រះរាជាណាចក្រ​កម្ពុជា","country_code":"kh"},"osm_type":"relation","osm_id":18379575,"type":"administrative","location":[106.02050891112702,13.578092349999999],"bbox":[105.9260694,13.3885806,106.1776011,13.769106]}}
{"name":"ក្រុងស្ទឹងសែន","other_names":{"name:en":"Stueng Saen","name:fr":"Stueng Saen","name:km":"ក្រុងស្ទឹងសែន","name:ko":"스텅상","name:ru":"Стынгсаен","name:vi":"Stueng Saen","name:zh":"斯登森"},"display_name":"ក្រុងស្ទឹងសែន, ខេត្តកំពង់ធំ, ព្រះរាជាណាចក្រ​កម្ពុជា","address":{"city":"ក្រុងស្ទឹងសែន","state":"ខេត្តកំពង់ធំ","ISO3166-2-lvl4":"KH-6","country":"ព្រះរាជាណាចក្រ​កម្ពុជា","country_code":"kh"},"population":48000,"osm_type":"node","osm_id":256889019,"type":"city","location":[104.8891082,12.7126242],"bbox":[104.7291082,12.5526242,105.0491082,12.8726242]}
{"name":"បាត់ដំបង","other_names":{"name:en":"Battambang","name:km":"បាត់ដំបង"},"display_name":"បាត់ដំបង, ក្រុងបាត់ដំបង, ខេត្តបាត់ដំបង, 021402, ព្រះរាជាណាចក្រ​កម្ពុជា","address":{"city":"បាត់ដំបង","county":"ក្រុងបាត់ដំបង","state":"ខេត្តបាត់ដំបង","ISO3166-2-lvl4":"KH-2","postcode":"021402","country":"ព្រះរាជាណាចក្រ​កម្ពុជា","country_code":"kh"},"population":196709,"osm_type":"node","osm_id":9133728837,"type":"city","location":[103.1997598,13.1020287],"bbox":[103.0397598,12.9420287,103.3597598,13.2620287]}
{"name":"បាវិត","other_names":{"name:en":"Bavet","name:km":"ក្រុងបាវិត","name:ru":"Бавет","name:vi":"Bavet","name:zh":"巴域"},"display_name":"បាវិត, សង្កាត់បាវិត, ក្រុងបាវិត, ខេត្តស្វាយរៀង, ព្រះរាជាណាចក្រ​កម្ពុជា","address":{"city":"បាវិត","state":"ខេត្តស្វាយរៀង","ISO3166-2-lvl4":"KH-20","country":"ព្រះរាជាណាចក្រ​កម្ពុជា","country_code":"kh"},"osm_type":"node","osm_id":369493828,"type":"city","location":[106.1365611,11.0638396],"bbox":[105.9765611,10.9038396,106.2965611,11.2238396],"border":[{"name":"ក្រុងបាវិត","other_names":{"ref":"2008","name:en":"Bavet Municipality","name:km":"ក្រុងបាវិត","name:ru":"Бавет","name:vi":"Bavet","name:zh":"巴域","alt":"បាវិត","alt:en":"Bavet"},"display_name":"ក្រុងបាវិត, ខេត្តស្វាយរៀង, ព្រះរាជាណាចក្រ​កម្ពុជា","address":{"city":"ក្រុងបាវិត","state":"ខេត្តស្វាយរៀង","ISO3166-2-lvl4":"KH-20","country":"ព្រះរាជាណាចក្រ​កម្ពុជា","country_code":"kh"},"osm_type":"relation","osm_id":18375895,"type":"administrative","location":[106.1365611,11.0638396],"bbox":[105.9484121,10.9726497,106.2058419,11.1021699]},{"name":"សង្កាត់បាវិត","other_names":{"ref":"200802","name:en":"Bavet Quarter","name:km":"សង្កាត់បាវិត","name:ru":"Бавет","name:vi":"Bavet","name:zh":"巴域","alt":"បាវិត","alt:en":"Bavet","alt:km":"ក្រុងបាវិត"},"display_name":"សង្កាត់បាវិត, ក្រុងបាវិត, ខេត្តស្វាយរៀង, ព្រះរាជាណាចក្រ​កម្ពុជា","address":{"city":"សង្កាត់បាវិត","state":"ខេត្តស្វាយរៀង","ISO3166-2-lvl4":"KH-20","country":"ព្រះរាជាណាចក្រ​កម្ពុជា","country_code":"kh"},"osm_type":"relation","osm_id":18381087,"type":"administrative","location":[106.1365611,11.0638396],"bbox":[106.103436,11.0264189,106.1901825,11.1021699]}]}
{"name":"ព្រះសីហនុ","other_names":{"name:de":"Sihanoukville","name:en":"Sihanoukville","name:et":"Sihanoukville","name:fr":"Sihanoukville","name:ja":"シアヌークビル","name:km":"ព្រះសីហនុ","name:ko":"시아누크빌","name:ru":"Сиануквиль","name:vi":"Thành phố Sihanouk","name:zh":"西哈努克市","old_name":"ក្រុង​កំពង់សោម","old_name:en":"Kampong Som","old_name:ru":"Кампонгсаом","official_name":"ក្រុងព្រះសីហនុ","official_name:en":"Krong Preah Sihanouk","official_name:ru":"Прэахсэйханук"},"display_name":"ព្រះសីហនុ, ក្រុងព្រះសីហនុ, ខេត្តព្រះសីហនុ, 180403, ព្រះរាជាណាចក្រ​កម្ពុជា","address":{"city":"ព្រះសីហនុ","county":"ក្រុងព្រះសីហនុ","province":"ខេត្តព្រះសីហនុ","ISO3166-2-lvl4":"KH-18","postcode":"180403","country":"ព្រះរាជាណាចក្រ​កម្ពុជា","country_code":"kh"},"population":73036,"osm_type":"node","osm_id":259119234,"type":"city","location":[103.5223365,10.6220485],"bbox":[103.3623365,10.4620485,103.6823365,10.7820485],"border":{"name":"ក្រុងព្រះសីហនុ","other_names":{"name:en":"Preah Sihanouk Municipality","name:km":"ក្រុងព្រះសីហនុ","name:ru":"Прэахсэйханук","name:zh":"西哈努克市"},"display_name":"ក្រុងព្រះសីហនុ, ខេត្តព្រះសីហនុ, ព្រះរាជាណាចក្រ​កម្ពុជា","address":{"county":"ក្រុងព្រះសីហនុ","province":"ខេត្តព្រះសីហនុ","ISO3166-2-lvl4":"KH-18","country":"ព្រះរាជាណាចក្រ​កម្ពុជា","country_code":"kh"},"osm_type":"relation","osm_id":5846609,"type":"administrative","location":[103.54027531869039,10.6261117],"bbox":[103.4083933,10.5549916,103.5938425,10.6948546]}}
{"name":"រាជធានីភ្នំពេញ","other_names":{"name:am":"ፕኖም ፔን","name:ar":"بنوم بنه","name:be":"Пнампень","name:bg":"Пном Пен","name:bn":"নম পেন","name:bo":"ཕོམ་ཕེན།","name:ca":"Phnom Penh","name:cs":"Phnompenh","name:de":"Phnom Penh","name:el":"Πνομ Πενχ","name:en":"Phnom Penh","name:eo":"Pnom-Peno","name:es":"Nom Pen","name:et":"Phnom Penh","name:eu":"Phnom Penh","name:fa":"پنوم‌پن","name:fr":"Phnom Penh","name:fy":"Pnom Pen","name:he":"פנום פן","name:hi":"नामपेन्ह","name:hu":"Phnompen","name:hy":"Պնոմպեն","name:it":"Phnom Penh","name:ja":"プノンペン","name:ka":"პნომპენი","name:km":"រាជធានីភ្នំពេញ","name:kn":"ಫ್ನೊಮ್ ಪೆನ್","name:ko":"프놈펜","name:lt":"Pnompenis","name:lv":"Pnompeņa","name:mk":"Пном Пен","name:ml":"നോം പെൻ","name:mr":"पनॉम पेन","name:my":"ဖနွမ်းပင်မြို့","name:nl":"Pnom Penh","name:oc":"Phnom Penh","name:os":"Пномпень","name:pl":"Phnom Penh","name:pt":"Phnom Penh","name:ru":"Пномпень","name:sk":"Phnom Pénh","name:sr":"Пном Пен","name:sv":"Phnom Penh","name:ta":"புனோம் பென்","name:th":"พนมเปญ","name:ug":"فنوم پېن","name:uk":"Пномпень","name:vi":"Phnôm Pênh","name:vo":"Phnum Pénh","name:zh":"金边","int_name":"Phnom Penh","name:bjn":"Phnum Pény","name:ckb":"پنۆم پێن","name:kab":"Pnum Pin","name:lzh":"金邊","name:pnb":"فنوم پن","name:sah":"Пном Пэнь","name:wuu":"金边","alt_name:vi":"Nam Vang","name:km:IPA":"riəc.tʰiə.niː pʰnum pɨɲ","name:zh-Hans":"金边","name:zh-Hant":"金邊","name:be-tarask":"Пномпэнь"},"display_name":"រាជធានីភ្នំពេញ, ខណ្ឌដូនពេញ, រាជធានីភ្នំពេញ, 120203, ព្រះរាជាណាចក្រ​កម្ពុជា","address":{"city":"រាជធានីភ្នំពេញ","town":"ខណ្ឌដូនពេញ","state":"រាជធានីភ្នំពេញ","ISO3166-2-lvl4":"KH-12","postcode":"120203","country":"ព្រះរាជាណាចក្រ​កម្ពុជា","country_code":"kh"},"population":2009264,"osm_type":"node","osm_id":560229438,"type":"city","location":[104.9224426,11.568271],"bbox":[104.7624426,11.408271,105.0824426,11.728271]}
{"name":"សង្កាត់បិតត្រាំង","other_names":{"name:en":"Bet Trang Quarter","name:km":"សង្កាត់បិតត្រាំង","name:zh":"本当分区","alt_name":"បិតត្រាំង","old_name":"ឃុំបិតត្រាំង","alt_name:en":"Bet Trang","alt_name:km":"បិតត្រាំង","alt_name:zh":"本当","old_name:en":"Bet Trang Commune","old_name:km":"ឃុំបិតត្រាំង","old_name:zh":"本当乡"},"display_name":"សង្កាត់បិតត្រាំង, ក្រុងកំពង់សោម, ខេត្តព្រះសីហនុ, ព្រះរាជាណាចក្រ​កម្ពុជា","address":{"city":"សង្កាត់បិតត្រាំង","county":"ក្រុងកំពង់សោម","province":"ខេត្តព្រះសីហនុ","ISO3166-2-lvl4":"KH-18","country":"ព្រះរាជាណាចក្រ​កម្ពុជា","country_code":"kh"},"osm_type":"relation","osm_id":18020853,"type":"administrative","location":[103.61591945174965,10.606669400000001],"bbox":[103.5594316,10.5385961,103.6479584,10.674417],"inferred_type":"city"}
{"name":"សង្កាត់បឹងតាព្រហ្ម","other_names":{"name:en":"Boeng Ta Prum Quarter","name:km":"សង្កាត់បឹងតាព្រហ្ម","name:zh":"崩达布隆分区","alt_name":"បឹងតាព្រហ្ម","old_name":"ឃុំបឹងតាព្រហ្ម","alt_name:en":"Boeng Ta Prum","alt_name:km":"បឹងតាព្រហ្ម","alt_name:zh":"崩达布隆","old_name:en":"Boeng Ta Prum Commune"},"display_name":"សង្កាត់បឹងតាព្រហ្ម, ក្រុងកំពង់សោម, ខេត្តព្រះសីហនុ, ព្រះរាជាណាចក្រ​កម្ពុជា","address":{"city":"សង្កាត់បឹងតាព្រហ្ម","county":"ក្រុងកំពង់សោម","province":"ខេត្តព្រះសីហនុ","ISO3166-2-lvl4":"KH-18","country":"ព្រះរាជាណាចក្រ​កម្ពុជា","country_code":"kh"},"osm_type":"relation","osm_id":18020856,"type":"administrative","location":[103.76441779595577,10.5639822],"bbox":[103.73254,10.5309409,103.8398423,10.5971144],"inferred_type":"city"}
{"name":"សង្កាត់រាម","other_names":{"name:en":"Ream Quarter","name:km":"សង្កាត់រាម","name:zh":"云壤街道","alt_name":"រាម","old_name":"ឃុំរាម","alt_name:en":"Ream","alt_name:km":"រាម","alt_name:zh":"云壤","old_name:en":"Ream Commune","old_name:km":"ឃុំរាម","old_name:zh":"云壤乡"},"display_name":"សង្កាត់រាម, ក្រុងកំពង់សោម, ខេត្តព្រះសីហនុ, ព្រះរាជាណាចក្រ​កម្ពុជា","address":{"city":"សង្កាត់រាម","county":"ក្រុងកំពង់សោម","province":"ខេត្តព្រះសីហនុ","ISO3166-2-lvl4":"KH-18","country":"ព្រះរាជាណាចក្រ​កម្ពុជា","country_code":"kh"},"osm_type":"relation","osm_id":18020854,"type":"administrative","location":[103.65352685081875,10.57671485],"bbox":[103.5406146,10.403291,103.8232318,10.6661078],"inferred_type":"city"}
{"name":"សង្កាត់អូរជ្រៅ","other_names":{"name:en":"Ou Chrov Quarter","name:km":"សង្កាត់អូរជ្រៅ","name:zh":"乌祖分区","alt_name":"អូរជ្រៅ","alt_name:en":"Ou Chrov","alt_name:km":"អូរជ្រៅ","alt_name:zh":"乌祖"},"display_name":"សង្កាត់អូរជ្រៅ, ក្រុងកំពង់សោម, ខេត្តព្រះសីហនុ, ព្រះរាជាណាចក្រ​កម្ពុជា","address":{"city":"សង្កាត់អូរជ្រៅ","county":"ក្រុងកំពង់សោម","province":"ខេត្តព្រះសីហនុ","ISO3166-2-lvl4":"KH-18","country":"ព្រះរាជាណាចក្រ​កម្ពុជា","country_code":"kh"},"osm_type":"relation","osm_id":18020857,"type":"administrative","location":[103.78878444033154,10.54410255],"bbox":[103.7571817,10.5192059,103.8152829,10.5687849],"inferred_type":"city"}
{"name":"សង្កាត់អូរឧញ៉ាហេង","other_names":{"name:en":"Ou Oknha Heng Quarter","name:km":"សង្កាត់អូរឧញ៉ាហេង","name:zh":"奥翁亚兴分区","alt_name":"អូរឧញ៉ាហេង","old_name":"ឃុំអូរឧញ៉ាហេង","alt_name:en":"Ou Oknha Heng","alt_name:km":"អូរឧញ៉ាហេង","alt_name:zh":"奥翁亚兴","old_name:en":"Ou Oknha Heng Commune","old_name:km":"ឃុំអូរឧញ៉ាហេង","old_name:zh":"奥翁亚兴乡"},"display_name":"សង្កាត់អូរឧញ៉ាហេង, ក្រុងកំពង់សោម, ខេត្តព្រះសីហនុ, ព្រះរាជាណាចក្រ​កម្ពុជា","address":{"city":"សង្កាត់អូរឧញ៉ាហេង","county":"ក្រុងកំពង់សោម","province":"ខេត្តព្រះសីហនុ","ISO3166-2-lvl4":"KH-18","country":"ព្រះរាជាណាចក្រ​កម្ពុជា","country_code":"kh"},"osm_type":"relation","osm_id":18020855,"type":"administrative","location":[103.73353257784431,10.5812153],"bbox":[103.6898391,10.5407109,103.8350527,10.6218084],"inferred_type":"city"}
{"name":"ស្រុកត្បូងឃ្មុំ","other_names":{"name:de":"Tbong Khmum","name:en":"Tbong Khmum","name:vi":"Tbong Khmum"},"display_name":"ស្រុកត្បូងឃ្មុំ, ខេត្តត្បូងឃ្មុំ, ព្រះរាជាណាចក្រ​កម្ពុជា","address":{"city":"ស្រុកត្បូងឃ្មុំ","state":"ខេត្តត្បូងឃ្មុំ","ISO3166-2-lvl4":"KH-25","country":"ព្រះរាជាណាចក្រ​កម្ពុជា","country_code":"kh"},"osm_type":"node","osm_id":3935429181,"type":"city","location":[105.7756828,11.8914565],"bbox":[105.6156828,11.7314565,105.9356828,12.0514565],"border":{"name":"ស្រុកត្បូងឃ្មុំ","other_names":{"ref":"2507","name:en":"Tboung Khmum District","name:km":"ស្រុកត្បូងឃ្មុំ","name:de":"Tbong Khmum","name:vi":"Tbong Khmum","alt:en":"Tbong Khmum"},"display_name":"ស្រុកត្បូងឃ្មុំ, ខេត្តត្បូងឃ្មុំ, ព្រះរាជាណាចក្រ​កម្ពុជា","address":{"city":"ស្រុកត្បូងឃ្មុំ","state":"ខេត្តត្បូងឃ្មុំ","ISO3166-2-lvl4":"KH-25","country":"ព្រះរាជាណាចក្រ​កម្ពុជា","country_code":"kh"},"osm_type":"relation","osm_id":19247438,"type":"administrative","location":[105.7756828,11.8914565],"bbox":[105.4549319,11.7981414,105.8474158,12.1396592]}}
{"name":"ស្វាយរៀង","other_names":{"name:en":"Svay Rieng","name:fr":"Svay Rieng","name:ja":"スヴァイリエン","name:ru":"Свайриенг","name:uk":"Свайріенґ","name:vi":"Svay Rieng","name:zh":"柴桢市","alt_name":"ស្វាយរៀង"},"display_name":"ស្វាយរៀង, សង្កាត់ស្វាយរៀង, ក្រុងស្វាយរៀង, ខេត្តស្វាយរៀង, ព្រះរាជាណាចក្រ​កម្ពុជា","address":{"city":"ស្វាយរៀង","county":"ក្រុងស្វាយរៀង","state":"ខេត្តស្វាយរៀង","ISO3166-2-lvl4":"KH-20","country":"ព្រះរាជាណាចក្រ​កម្ពុជា","country_code":"kh"},"osm_type":"node","osm_id":369503178,"type":"city","location":[105.8020941,11.0832826],"bbox":[105.6420941,10.9232826,105.9620941,11.2432826],"border":{"name":"សង្កាត់ស្វាយរៀង","other_names":{"ref":"200802","name:en":"Svay Rieng Quarter","name:km":"សង្កាត់ស្វាយរៀង","name:fr":"Svay Rieng","name:ja":"スヴァイリエン","name:ru":"Свайриенг","name:uk":"Свайріенґ","name:vi":"Svay Rieng","name:zh":"柴桢市","alt_name":"ស្វាយរៀង","alt":"ស្វាយរៀង","alt:en":"Svay Rieng"},"display_name":"សង្កាត់ស្វាយរៀង, ក្រុងស្វាយរៀង, ខេត្តស្វាយរៀង, ព្រះរាជាណាចក្រ​កម្ពុជា","address":{"city":"សង្កាត់ស្វាយរៀង","county":"ក្រុងស្វាយរៀង","state":"ខេត្តស្វាយរៀង","ISO3166-2-lvl4":"KH-20","country":"ព្រះរាជាណាចក្រ​កម្ពុជា","country_code":"kh"},"osm_type":"relation","osm_id":18396026,"type":"administrative","location":[105.8020941,11.0832826],"bbox":[105.7790775,11.0666514,105.8104776,11.0936558]}}
