{"name":"Bairiki","other_names":{"name:lt":"Bairikis","name:oc":"Bairiki","name:pl":"Bairiki","name:zh":"拜里基"},"display_name":"Bairiki, Tarawa Te Inainano, Gilbert Islands, Kiribati","address":{"town":"Bairiki","state":"Gilbert Islands","ISO3166-2-lvl4":"KI-G","country":"Kiribati","country_code":"ki"},"population":3500,"osm_type":"node","osm_id":2375865684,"type":"town","location":[172.9777542,1.3296193],"bbox":[172.9377542,1.2896193,173.0177542,1.3696193]}
{"name":"Betio","other_names":{"name:zh":"比休岛"},"display_name":"Betio, Gilbert Islands, Kiribati","address":{"town":"Betio","state":"Gilbert Islands","ISO3166-2-lvl4":"KI-G","country":"Kiribati","country_code":"ki"},"population":18565,"osm_type":"node","osm_id":2375865685,"type":"town","location":[172.9324171,1.356854],"bbox":[172.8924171,1.316854,172.9724171,1.396854],"border":{"name":"Betio","other_names":{"name:en":"Betio","name:zh":"比休岛"},"display_name":"Betio, Gilbert Islands, Kiribati","address":{"town":"Betio","state":"Gilbert Islands","ISO3166-2-lvl4":"KI-G","country":"Kiribati","country_code":"ki"},"population":18565,"osm_type":"relation","osm_id":3830766,"type":"administrative","location":[172.9324171,1.356854],"bbox":[172.6436733,1.1528449,172.9702307,1.5886283]}}
{"name":"Bikenibeu","display_name":"Bikenibeu, Tarawa Te Inainano, Gilbert Islands, Kiribati","address":{"town":"Bikenibeu","state":"Gilbert Islands","ISO3166-2-lvl4":"KI-G","country":"Kiribati","country_code":"ki"},"population":7547,"osm_type":"node","osm_id":2375865686,"type":"town","location":[173.1229067,1.3659189],"bbox":[173.0829067,1.3259189,173.1629067,1.4059189]}
{"name":"Makin","display_name":"Makin, Gilbert Islands, Kiribati","address":{"town":"Makin","state":"Gilbert Islands","ISO3166-2-lvl4":"KI-G","country":"Kiribati","country_code":"ki"},"population":1364,"osm_type":"node","osm_id":4411642865,"type":"town","location":[172.9837562,3.3637007],"bbox":[172.9437562,3.3237007,173.0237562,3.4037007],"border":{"name":"Makin","display_name":"Makin, Gilbert Islands, Kiribati","address":{"town":"Makin","state":"Gilbert Islands","ISO3166-2-lvl4":"KI-G","country":"Kiribati","country_code":"ki"},"population":1364,"osm_type":"relation","osm_id":3830772,"type":"administrative","location":[172.9837562,3.3637007],"bbox":[172.761071,3.264,173.2425577,3.5995]}}
{"name":"South Tarawa","other_names":{"name:af":"Suid-Tarawa","name:am":"ደቡብ ታራዋ","name:ar":"جنوب تاراوا","name:az":"Cənubi Tarava","name:be":"Паўднёвая Тарава","name:bg":"Южна Тарауа","name:bn":"দক্ষিণ তারাওয়া","name:ca":"Tarawa Sud","name:cs":"Jižní Tarawa","name:cy":"De Tarawa","name:en":"South Tarawa","name:eo":"Bairiko","name:es":"Tarawa Sur","name:et":"Tarawa South","name:fa":"تاراوای جنوبی","name:fr":"Tarawa-Sud","name:fy":"Súd-Tarawa","name:gl":"Tarawa Sur","name:he":"דרום טאראווה","name:hu":"South Tarawa","name:id":"Tarawa Selatan","name:it":"Tarawa Sud","name:ja":"サウス・タラワ","name:ka":"სამხრეთი ტარავა","name:ko":"사우스타라와","name:lt":"Pietų Tarava","name:mk":"Јужна Тарава","name:mr":"तरावा","name:nl":"Zuid-Tarawa","name:pl":"South Tarawa","name:pt":"Tarawa do Sul","name:ru":"Южная Тарава","name:sh":"Južna Tarawa","name:sr":"Јужна Тарава","name:sv":"South Tarawa","name:ta":"தெற்கு டராவா","name:tr":"Güney Tarava","name:uk":"Південна Тарава","name:vi":"Nam Tarawa","name:zh":"南塔拉瓦","name:pms":"Tarawa-Sud","name:sah":"Соҕуруу Тарава","name:war":"Salatan Tarawa","name:be-tarask":"Паўднёвая Тарава"},"display_name":"South Tarawa, Tarawa Te Inainano, Gilbert Islands, Kiribati","address":{"town":"South Tarawa","state":"Gilbert Islands","ISO3166-2-lvl4":"KI-G","country":"Kiribati","country_code":"ki"},"population":63439,"osm_type":"node","osm_id":703437318,"type":"town","location":[173.0386512,1.3490778],"bbox":[172.9986512,1.3090778,173.0786512,1.3890778],"border":{"name":"Tarawa Te Inainano","other_names":{"name:en":"South Tarawa","name:gil":"Tarawa Te Inainano","name:af":"Suid-Tarawa","name:am":"ደቡብ ታራዋ","name:ar":"جنوب تاراوا","name:az":"Cənubi Tarava","name:be":"Паўднёвая Тарава","name:bg":"Южна Тарауа","name:bn":"দক্ষিণ তারাওয়া","name:ca":"Tarawa Sud","name:cs":"Jižní Tarawa","name:cy":"De Tarawa","name:eo":"Bairiko","name:es":"Tarawa Sur","name:et":"Tarawa South","name:fa":"تاراوای جنوبی","name:fr":"Tarawa-Sud","name:fy":"Súd-Tarawa","name:gl":"Tarawa Sur","name:he":"דרום טאראווה","name:hu":"South Tarawa","name:id":"Tarawa Selatan","name:it":"Tarawa Sud","name:ja":"サウス・タラワ","name:ka":"სამხრეთი ტარავა","name:ko":"사우스타라와","name:lt":"Pietų Tarava","name:mk":"Јужна Тарава","name:mr":"तरावा","name:nl":"Zuid-Tarawa","name:pl":"South Tarawa","name:pt":"Tarawa do Sul","name:ru":"Южная Тарава","name:sh":"Južna Tarawa","name:sr":"Јужна Тарава","name:sv":"South Tarawa","name:ta":"தெற்கு டராவா","name:tr":"Güney Tarava","name:uk":"Південна Тарава","name:vi":"Nam Tarawa","name:zh":"南塔拉瓦","name:pms":"Tarawa-Sud","name:sah":"Соҕуруу Тарава","name:war":"Salatan Tarawa","name:be-tarask":"Паўднёвая Тарава","alt":"South Tarawa"},"display_name":"Tarawa Te Inainano, Gilbert Islands, Kiribati","address":{"town":"Tarawa Te Inainano","state":"Gilbert Islands","ISO3166-2-lvl4":"KI-G","country":"Kiribati","country_code":"ki"},"population":40311,"osm_type":"relation","osm_id":3830782,"type":"administrative","location":[173.0386512,1.3490778],"bbox":[172.850698,1.1593971,173.5821719,1.5869076]}}
{"name":"Temanokunuea","display_name":"Temanokunuea, Butaritari, Gilbert Islands, Kiribati","address":{"town":"Temanokunuea","city":"Butaritari","state":"Gilbert Islands","ISO3166-2-lvl4":"KI-G","country":"Kiribati","country_code":"ki"},"osm_type":"node","osm_id":4411697634,"type":"town","location":[172.7859579,3.0689933],"bbox":[172.7459579,3.0289933,172.8259579,3.1089933]}
