{"name":"Paity Central Cemetery","other_names":{"name:bn":"পাইটি কেন্দ্রীয় কবরস্থান"},"display_name":"Paity Central Cemetery, কবরস্থান রোড, Paity, ডেমরা, ঢাকা, ঢাকা মহানগর, ঢাকা জেলা, ঢাকা বিভাগ, 1360, বাংলাদেশ","address":{"amenity":"Paity Central Cemetery","road":"কবরস্থান রোড","neighbourhood":"Paity","suburb":"ডেমরা","city":"ঢাকা","municipality":"ঢাকা মহানগর","state_district":"ঢাকা জেলা","ISO3166-2-lvl5":"BD-13","state":"ঢাকা বিভাগ","ISO3166-2-lvl4":"BD-C","postcode":"1360","country":"বাংলাদেশ","country_code":"bd"},"osm_type":"way","osm_id":496167275,"type":"grave_yard","location":[90.48125358553334,23.72533385],"bbox":[90.4810981,23.7249316,90.4814161,23.7255762]}
{"name":"কক্সবাজার","other_names":{"name:bn":"কক্সবাজার","name:de":"Cox’s Bazar","name:en":"Cox's Bazar","name:fr":"Cox's Bazar","name:hi":"कॉक्स बाजार","name:ja":"コックスバザール","name:kn":"ಕಕ್ಸ್ ಬಾಜಾರ್","name:uk":"Кокс-Базар","alt_name:en":"Coxbazar"},"display_name":"কক্সবাজার, কক্সবাজার জেলা, চট্টগ্রাম বিভাগ, 4700, বাংলাদেশ","address":{"city":"কক্সবাজার","state_district":"কক্সবাজার জেলা","state":"চট্টগ্রাম বিভাগ","ISO3166-2-lvl4":"BD-B","postcode":"4700","country":"বাংলাদেশ","country_code":"bd"},"population":223522,"osm_type":"node","osm_id":1412090848,"type":"city","location":[91.9812464,21.4420039],"bbox":[91.8212464,21.2820039,92.1412464,21.6020039]}
{"name":"কিশোরগঞ্জ","other_names":{"name:bn":"কিশোরগঞ্জ","name:en":"Kishoreganj","name:fr":"Kishorganj"},"display_name":"কিশোরগঞ্জ, কিশোরগঞ্জ সদর উপজেলা, কিশোরগঞ্জ জেলা, ঢাকা বিভাগ, 2300, বাংলাদেশ","address":{"city":"কিশোরগঞ্জ","county":"কিশোরগঞ্জ সদর উপজেলা","state_district":"কিশোরগঞ্জ জেলা","state":"ঢাকা বিভাগ","ISO3166-2-lvl4":"BD-C","postcode":"2300","country":"বাংলাদেশ","country_code":"bd"},"population":103798,"osm_type":"node","osm_id":2677260533,"type":"city","location":[90.7857232,24.4339822],"bbox":[90.6257232,24.2739822,90.9457232,24.5939822]}
{"name":"কুড়িগ্রাম","other_names":{"name:bn":"কুড়িগ্রাম","name:en":"Kurigram","name:fa":"کوریگرام","name:fr":"Kurigram","name:hi":"कुरीग्राम","name:uk":"Куріґрам"},"display_name":"কুড়িগ্রাম, কুড়িগ্রাম সদর উপজেলা, কুড়িগ্রাম জেলা, রংপুর বিভাগ, বাংলাদেশ","address":{"city":"কুড়িগ্রাম","county":"কুড়িগ্রাম সদর উপজেলা","state_district":"কুড়িগ্রাম জেলা","ISO3166-2-lvl5":"BD-28","state":"রংপুর বিভাগ","ISO3166-2-lvl4":"BD-F","country":"বাংলাদেশ","country_code":"bd"},"population":77252,"osm_type":"node","osm_id":7415299907,"type":"city","location":[89.6430518,25.8130134],"bbox":[89.4830518,25.6530134,89.8030518,25.9730134]}
{"name":"কুমিল্লা","other_names":{"name:ar":"كوميلا","name:bn":"কুমিল্লা","name:de":"Kumilla","name:en":"Cumilla","name:es":"Comilla","name:et":"Comilla","name:eu":"Cumilla","name:fr":"Comilla","name:hi":"कोमिला","name:ja":"クミッラ","name:kn":"ಕೊಮಿಲ್ಲ","name:ne":"कुमिल्ला","name:ru":"Комилла","name:uk":"Комілла","name:ur":"کومیلا","name:zh":"库米拉","old_name:en":"Comilla"},"display_name":"কুমিল্লা, কুমিল্লা আদর্শ সদর উপজেলা, কুমিল্লা জেলা, চট্টগ্রাম বিভাগ, 3502, বাংলাদেশ","address":{"city":"কুমিল্লা","county":"কুমিল্লা আদর্শ সদর উপজেলা","state_district":"কুমিল্লা জেলা","state":"চট্টগ্রাম বিভাগ","ISO3166-2-lvl4":"BD-B","postcode":"3502","country":"বাংলাদেশ","country_code":"bd"},"population":407901,"osm_type":"node","osm_id":268417180,"type":"city","location":[91.1808748,23.4610615],"bbox":[91.0208748,23.3010615,91.3408748,23.6210615]}
{"name":"কুষ্টিয়া","other_names":{"name:bn":"কুষ্টিয়া","name:en":"Kushtia","name:fr":"Kushtia","name:ja":"クスティア","name:ne":"कुष्टिया","name:uk":"Куштія"},"display_name":"কুষ্টিয়া, মিরপুর, কুষ্টিয়া জেলা, খুলনা বিভাগ, 7001, বাংলাদেশ","address":{"city":"কুষ্টিয়া","town":"মিরপুর","state_district":"কুষ্টিয়া জেলা","state":"খুলনা বিভাগ","ISO3166-2-lvl4":"BD-D","postcode":"7001","country":"বাংলাদেশ","country_code":"bd"},"population":108423,"osm_type":"node","osm_id":1472130097,"type":"city","location":[89.1295536,23.8987955],"bbox":[88.9695536,23.7387955,89.2895536,24.0587955]}
{"name":"খাগড়াছড়ি","other_names":{"name:bn":"খাগড়াছড়ি","name:en":"Khagrachhari","name:fr":"Khagrachari"},"display_name":"খাগড়াছড়ি, খাগড়াছড়ি সদর উপজেলা, খাগড়াছড়ি পার্বত্য জেলা, চট্টগ্রাম বিভাগ, 4400, বাংলাদেশ","address":{"city":"খাগড়াছড়ি","county":"খাগড়াছড়ি সদর উপজেলা","state_district":"খাগড়াছড়ি পার্বত্য জেলা","state":"চট্টগ্রাম বিভাগ","ISO3166-2-lvl4":"BD-B","postcode":"4400","country":"বাংলাদেশ","country_code":"bd"},"osm_type":"node","osm_id":1623159393,"type":"city","location":[91.9889955,23.1077999],"bbox":[91.8289955,22.9477999,92.1489955,23.2677999]}
{"name":"খুলনা","other_names":{"name:ar":"كولنا","name:bn":"খুলনা","name:de":"Khulna","name:en":"Khulna","name:es":"Khulna","name:et":"Khulna","name:eu":"Khulna","name:fa":"خولنا","name:fr":"Khulnâ","name:hi":"खुलना","name:ja":"クルナ","name:kn":"ಖುಲ್ನಾ","name:ne":"खुलना","name:oc":"Khulna","name:pt":"Khulna","name:ru":"Кхулна","name:uk":"Кхулна","name:ur":"کھلنا","int_name":"Khulna","alt_name:ar":"خولنا"},"display_name":"খুলনা, খুলনা জেলা, খুলনা বিভাগ, 9100, বাংলাদেশ","address":{"city":"খুলনা","state_district":"খুলনা জেলা","state":"খুলনা বিভাগ","ISO3166-2-lvl4":"BD-D","postcode":"9100","country":"বাংলাদেশ","country_code":"bd"},"population":664728,"osm_type":"node","osm_id":321521438,"type":"city","location":[89.563759,22.8171664],"bbox":[89.403759,22.6571664,89.723759,22.9771664]}
{"name":"গাইবান্ধা","other_names":{"name:bn":"গাইবান্ধা","name:en":"Gaibandha","name:fr":"Gaibanda","name:uk":"Ґайбандга","name:zh-Hans-CN":"卡伊班达"},"display_name":"গাইবান্ধা, গাইবান্ধা জেলা, রংপুর বিভাগ, 5700, বাংলাদেশ","address":{"city":"গাইবান্ধা","state_district":"গাইবান্ধা জেলা","ISO3166-2-lvl5":"BD-19","state":"রংপুর বিভাগ","ISO3166-2-lvl4":"BD-F","postcode":"5700","country":"বাংলাদেশ","country_code":"bd"},"osm_type":"node","osm_id":2481986728,"type":"city","location":[89.5479718,25.331295],"bbox":[89.3879718,25.171295,89.7079718,25.491295]}
{"name":"গাজীপুর","other_names":{"name:bn":"গাজীপুর","name:de":"Gazipur","name:el":"Γκαζιπούρ","name:en":"Gazipur","name:fr":"Gazipur","name:he":"גזיפור","name:hr":"Gazipur","name:ne":"गाजीपुर","name:ru":"Газипур","name:sl":"Gazipur","name:sr":"Рангпур","name:uk":"Газіпур"},"display_name":"গাজীপুর, গাজীপুর জেলা, ঢাকা বিভাগ, 1701, বাংলাদেশ","address":{"city":"গাজীপুর","state_district":"গাজীপুর জেলা","state":"ঢাকা বিভাগ","ISO3166-2-lvl4":"BD-C","postcode":"1701","country":"বাংলাদেশ","country_code":"bd"},"population":213061,"osm_type":"node","osm_id":2481947624,"type":"city","location":[90.4173629,23.9997558],"bbox":[90.2573629,23.8397558,90.5773629,24.1597558]}
{"name":"গোপালগঞ্জ","other_names":{"name:bn":"গোপালগঞ্জ","name:en":"Gopalganj","name:fr":"Gopalganj","name:uk":"Ґопалґандж"},"display_name":"গোপালগঞ্জ, গোপালগঞ্জ সদর উপজেলা, গোপালগঞ্জ জেলা, ঢাকা বিভাগ, 8100, বাংলাদেশ","address":{"city":"গোপালগঞ্জ","county":"গোপালগঞ্জ সদর উপজেলা","state_district":"গোপালগঞ্জ জেলা","state":"ঢাকা বিভাগ","ISO3166-2-lvl4":"BD-C","postcode":"8100","country":"বাংলাদেশ","country_code":"bd"},"osm_type":"node","osm_id":317729206,"type":"city","location":[89.8303176,23.0049937],"bbox":[89.6703176,22.8449937,89.9903176,23.1649937]}
{"name":"চট্টগ্রাম","other_names":{"name:ar":"شيتاغونغ","name:be":"Чытагонг","name:bg":"Читагонг","name:bn":"চট্টগ্রাম","name:de":"Chittagong","name:el":"Τσιταγκόνγκ","name:en":"Chattogram","name:es":"Chittagong","name:et":"Chittagong","name:eu":"Chattogram","name:fa":"چیتاگونگ","name:fr":"Chittagong","name:he":"צ'יטגונג","name:hi":"चटगाँव","name:hr":"Chittagong","name:it":"Cittagong","name:ja":"チッタゴン","name:kk":"Читтагонг","name:kn":"ಚಟ್ಟಗ್ರಾಮ","name:ko":"치타공","name:ky":"Читтагонг","name:ml":"ചിറ്റഗോങ്","name:ne":"चट्टोग्राम","name:oc":"Chottogam","name:ru":"Читтагонг","name:sr":"Читагонг","name:ta":"சிட்டகொங்","name:uk":"Читтагонг","name:ur":"چٹاگانگ","name:zh":"吉大港市","name:bxr":"Читтагонг","name:pnb":"چٹگاؤں","old_name":"ইসলামাবাদ","alt_name:en":"Chittagong","alt_name:fr":"Chattogram","alt_name:ur":"چٹاگانگ","old_name:ar":"إسلام آباد","old_name:en":"Islamabad","old_name:ur":"اسلام آباد","name:kk-Arab":"تشىيتتاگونگ","name:be-tarask":"Чытагонг"},"display_name":"চট্টগ্রাম, চট্টগ্রাম জেলা, চট্টগ্রাম বিভাগ, 4000, বাংলাদেশ","address":{"city":"চট্টগ্রাম","state_district":"চট্টগ্রাম জেলা","state":"চট্টগ্রাম বিভাগ","ISO3166-2-lvl4":"BD-B","postcode":"4000","country":"বাংলাদেশ","country_code":"bd"},"population":2592439,"osm_type":"node","osm_id":8541366252,"type":"city","location":[91.8344348,22.333778],"bbox":[91.6744348,22.173778,91.9944348,22.493778]}
{"name":"চাঁদপুর","other_names":{"name:bn":"চাঁদপুর","name:en":"Chandpur","name:fr":"Chandpur","name:ja":"チャンドプル"},"display_name":"চাঁদপুর, চাঁদপুর সদর উপজেলা, চাঁদপুর জেলা, চট্টগ্রাম বিভাগ, 3601, বাংলাদেশ","address":{"city":"চাঁদপুর","county":"চাঁদপুর সদর উপজেলা","state_district":"চাঁদপুর জেলা","state":"চট্টগ্রাম বিভাগ","ISO3166-2-lvl4":"BD-B","postcode":"3601","country":"বাংলাদেশ","country_code":"bd"},"population":171065,"osm_type":"node","osm_id":1561555013,"type":"city","location":[90.6531005,23.2241763],"bbox":[90.4931005,23.0641763,90.8131005,23.3841763]}
{"name":"চাঁপাইনবাবগঞ্জ","other_names":{"name:bn":"চাঁপাইনবাবগঞ্জ","name:en":"Chapainawabganj","name:fr":"Nawabganj","name:ko":"차파이나와브간지","alt_name:en":"Chapai"},"display_name":"চাঁপাইনবাবগঞ্জ, নবাবগঞ্জ উপজেলা, চাঁপাইনবাবগঞ্জ জেলা, রাজশাহী বিভাগ, 6300, বাংলাদেশ","address":{"city":"চাঁপাইনবাবগঞ্জ","county":"নবাবগঞ্জ উপজেলা","state_district":"চাঁপাইনবাবগঞ্জ জেলা","state":"রাজশাহী বিভাগ","ISO3166-2-lvl4":"BD-E","postcode":"6300","country":"বাংলাদেশ","country_code":"bd"},"population":180731,"osm_type":"node","osm_id":1429898284,"type":"city","location":[88.2707613,24.5954428],"bbox":[88.1107613,24.4354428,88.4307613,24.7554428]}
{"name":"চুয়াডাঙ্গা","other_names":{"name:bn":"চুয়াডাঙ্গা","name:en":"Chuadanga","name:fr":"Chuadanga"},"display_name":"চুয়াডাঙ্গা, চুয়াডাঙ্গা সদর উপজেলা, চুয়াডাঙ্গা জেলা, খুলনা বিভাগ, 7200, বাংলাদেশ","address":{"city":"চুয়াডাঙ্গা","county":"চুয়াডাঙ্গা সদর উপজেলা","state_district":"চুয়াডাঙ্গা জেলা","state":"খুলনা বিভাগ","ISO3166-2-lvl4":"BD-D","postcode":"7200","country":"বাংলাদেশ","country_code":"bd"},"population":128865,"osm_type":"node","osm_id":3578098748,"type":"city","location":[88.846448,23.6436608],"bbox":[88.686448,23.4836608,89.006448,23.8036608]}
{"name":"জয়পুরহাট","other_names":{"name:bn":"জয়পুরহাট","name:en":"Joypurhat","name:fr":"Jaipurhat"},"display_name":"জয়পুরহাট, জয়পুরহাট সদর উপজেলা, জয়পুরহাট জেলা, রাজশাহী বিভাগ, 5900, বাংলাদেশ","address":{"city":"জয়পুরহাট","county":"জয়পুরহাট সদর উপজেলা","state_district":"জয়পুরহাট জেলা","state":"রাজশাহী বিভাগ","ISO3166-2-lvl4":"BD-E","postcode":"5900","country":"বাংলাদেশ","country_code":"bd"},"osm_type":"node","osm_id":1472108341,"type":"city","location":[89.0229113,25.1037974],"bbox":[88.8629113,24.9437974,89.1829113,25.2637974]}
{"name":"জামালপুর","other_names":{"name:ar":"جمال بور","name:bn":"জামালপুর","name:de":"Dschamalpur","name:en":"Jamalpur","name:fa":"جمال‌پور","name:fr":"Jamalpur","name:ja":"ジャマルプル","name:ru":"Джамалпур","name:ur":"جمال پور","name:pnb":"جمال پور"},"display_name":"জামালপুর, জামালপুর সদর উপজেলা, জামালপুর জেলা, ময়মনসিংহ বিভাগ, 2000, বাংলাদেশ","address":{"city":"জামালপুর","county":"জামালপুর সদর উপজেলা","state_district":"জামালপুর জেলা","state":"ময়মনসিংহ বিভাগ","ISO3166-2-lvl4":"BD-H","postcode":"2000","country":"বাংলাদেশ","country_code":"bd"},"population":150172,"osm_type":"node","osm_id":1472157679,"type":"city","location":[89.9436684,24.9255866],"bbox":[89.7836684,24.7655866,90.1036684,25.0855866]}
{"name":"ঝালকাঠী","other_names":{"name:bn":"ঝালকাঠী","name:en":"Jhalokathi","name:fr":"Jhalokati"},"display_name":"ঝালকাঠী, ঝালকাঠি সদর উপজেলা, ঝালকাঠি জেলা, বরিশাল বিভাগ, 8400, বাংলাদেশ","address":{"city":"ঝালকাঠী","county":"ঝালকাঠি সদর উপজেলা","state_district":"ঝালকাঠি জেলা","ISO3166-2-lvl5":"BD-25","state":"বরিশাল বিভাগ","ISO3166-2-lvl4":"BD-A","postcode":"8400","country":"বাংলাদেশ","country_code":"bd"},"population":54029,"osm_type":"node","osm_id":1623159389,"type":"city","location":[90.1990344,22.6426168],"bbox":[90.0390344,22.4826168,90.3590344,22.8026168]}
{"name":"ঝিনাইদহ","other_names":{"name:bn":"ঝিনাইদহ","name:en":"Jhenaidah","name:fr":"Jhenaidah","name:ja":"ジェナイダ"},"display_name":"ঝিনাইদহ, ঝিনাইদহ সদর উপজেলা, ঝিনাইদহ জেলা, খুলনা বিভাগ, 7301, বাংলাদেশ","address":{"city":"ঝিনাইদহ","county":"ঝিনাইদহ সদর উপজেলা","state_district":"ঝিনাইদহ জেলা","state":"খুলনা বিভাগ","ISO3166-2-lvl4":"BD-D","postcode":"7301","country":"বাংলাদেশ","country_code":"bd"},"population":110541,"osm_type":"node","osm_id":1627757202,"type":"city","location":[89.1731943,23.5446964],"bbox":[89.0131943,23.3846964,89.3331943,23.7046964]}
{"name":"টাঙ্গাইল","other_names":{"name:bn":"টাঙ্গাইল","name:en":"Tangail","name:fr":"Tangail"},"display_name":"টাঙ্গাইল, টাঙ্গাইল সদর উপজেলা, টাঙ্গাইল জেলা, ঢাকা বিভাগ, 1900, বাংলাদেশ","address":{"city":"টাঙ্গাইল","county":"টাঙ্গাইল সদর উপজেলা","state_district":"টাঙ্গাইল জেলা","state":"ঢাকা বিভাগ","ISO3166-2-lvl4":"BD-C","postcode":"1900","country":"বাংলাদেশ","country_code":"bd"},"population":167412,"osm_type":"node","osm_id":5168404597,"type":"city","location":[89.9151479,24.2507461],"bbox":[89.7551479,24.0907461,90.0751479,24.4107461]}
{"name":"ঠাকুরগাঁও","other_names":{"name:bn":"ঠাকুরগাঁও","name:en":"Thakurgaon","name:fr":"Thakurgaon"},"display_name":"ঠাকুরগাঁও, ঠাকুরগাঁও জেলা, রংপুর বিভাগ, 5100, বাংলাদেশ","address":{"city":"ঠাকুরগাঁও","state_district":"ঠাকুরগাঁও জেলা","ISO3166-2-lvl5":"BD-64","state":"রংপুর বিভাগ","ISO3166-2-lvl4":"BD-F","postcode":"5100","country":"বাংলাদেশ","country_code":"bd"},"osm_type":"node","osm_id":1412090881,"type":"city","location":[88.4688764,26.0199568],"bbox":[88.3088764,25.8599568,88.6288764,26.1799568]}
{"name":"ঢাকা","other_names":{"name:am":"ዳካ","name:ar":"دكا","name:az":"Dəkkə","name:ba":"Дакка","name:be":"Дака","name:bg":"Дака","name:bn":"ঢাকা","name:bo":"དྷ་ཁ།","name:ca":"Dacca","name:ce":"Дакка","name:cs":"Dháka","name:de":"Dhaka","name:dv":"ޑާކާ","name:el":"Ντάκα","name:en":"Dhaka","name:eo":"Dako","name:es":"Daca","name:et":"Dhaka","name:eu":"Dhaka","name:fa":"داکا","name:fr":"Dacca","name:fy":"Daka","name:ga":"Dacca","name:gl":"Dacca - ঢাকা","name:gu":"ઢાકા","name:he":"דאקה","name:hi":"ढाका","name:hr":"Dhaka","name:ht":"Daka","name:hu":"Dakka","name:hy":"Դաքքա","name:ia":"Dhaka","name:io":"Dhaka","name:is":"Daka","name:it":"Dacca","name:ja":"ダッカ","name:ka":"დაკა","name:kk":"Дакка","name:kn":"ಢಾಕಾ","name:ko":"다카","name:ku":"Daka","name:la":"Dacca","name:lt":"Daka","name:lv":"Daka","name:mk":"Дака","name:ml":"ഢാക്ക","name:mn":"Дака","name:mr":"ढाका","name:my":"ဒါကာမြို့","name:ne":"ढाका","name:oc":"Dhaka","name:os":"Даккæ","name:pl":"Dhaka","name:pt":"Daca","name:ro":"Dacca","name:ru":"Дакка","name:sk":"Dháka","name:sl":"Daka","name:sr":"Дака","name:sv":"Dhaka","name:ta":"டாக்கா","name:te":"ఢాకా","name:tg":"Дакка","name:th":"ธากา","name:tk":"Dakka","name:tr":"Dakka","name:ug":"داككا","name:uk":"Дакка","name:ur":"ڈھاکہ","name:yi":"דאקא","name:zh":"達卡/达卡","name:arz":"داكا","name:ckb":"داکا","name:crh":"Dakka","name:diq":"Deka","name:ext":"Dacca","name:kab":"Dakka","name:mhr":"Дакка","name:nah":"Daca","name:new":"ढाका","name:nov":"Daka","name:pms":"Dacca","name:pnb":"ڈھاکہ","name:rue":"Дгака","name:sah":"Дака","name:scn":"Dacca","name:udm":"Дакка","name:vep":"Dakk","name:yue":"達卡","old_name:eo":"Dakko","old_name:es":"Dacca","name:bat-smg":"Daka","old_name:bn:1610-1792":"জাহাঙ্গীরনগর","old_name:en:1610-1792":"Jahangirnagar","old_name:en:1793-1982":"Dacca"},"display_name":"ঢাকা, ঢাকা মহানগর, ঢাকা জেলা, ঢাকা বিভাগ, 1215, বাংলাদেশ","address":{"city":"ঢাকা","municipality":"ঢাকা মহানগর","state_district":"ঢাকা জেলা","ISO3166-2-lvl5":"BD-13","state":"ঢাকা বিভাগ","ISO3166-2-lvl4":"BD-C","postcode":"1215","country":"বাংলাদেশ","country_code":"bd"},"population":21741000,"osm_type":"node","osm_id":3442474911,"type":"city","location":[90.3890144,23.7643863],"bbox":[90.2290144,23.6043863,90.5490144,23.9243863]}
{"name":"দিনাজপুর","other_names":{"name:bn":"দিনাজপুর","name:en":"Dinajpur","name:fr":"Dinajpur","name:ja":"ディナジプル","name:ur":"دیناجپور","alt_name:ur":"دیناج پور"},"display_name":"দিনাজপুর, দিনাজপুর সদর উপজেলা, দিনাজপুর জেলা, রংপুর বিভাগ, 5216, বাংলাদেশ","address":{"city":"দিনাজপুর","county":"দিনাজপুর সদর উপজেলা","state_district":"দিনাজপুর জেলা","ISO3166-2-lvl5":"BD-14","state":"রংপুর বিভাগ","ISO3166-2-lvl4":"BD-F","postcode":"5216","country":"বাংলাদেশ","country_code":"bd"},"population":191329,"osm_type":"node","osm_id":2444384916,"type":"city","location":[88.6346228,25.6260712],"bbox":[88.4746228,25.4660712,88.7946228,25.7860712]}
{"name":"নওগাঁ","other_names":{"name:bn":"নওগাঁ","name:en":"Naogaon","name:fr":"Naogaon","name:ja":"ナオガウン"},"display_name":"নওগাঁ, নওগাঁ সদর উপজেলা, নওগাঁ জেলা, রাজশাহী বিভাগ, 6500, বাংলাদেশ","address":{"city":"নওগাঁ","county":"নওগাঁ সদর উপজেলা","state_district":"নওগাঁ জেলা","state":"রাজশাহী বিভাগ","ISO3166-2-lvl4":"BD-E","postcode":"6500","country":"বাংলাদেশ","country_code":"bd"},"population":150549,"osm_type":"node","osm_id":3963878555,"type":"city","location":[88.9445447,24.8073229],"bbox":[88.7845447,24.6473229,89.1045447,24.9673229]}
{"name":"নড়াইল","other_names":{"name:bn":"নড়াইল","name:en":"Narail","name:fr":"Narail"},"display_name":"নড়াইল, নড়াইল সদর উপজেলা, নড়াইল জেলা, খুলনা বিভাগ, বাংলাদেশ","address":{"city":"নড়াইল","county":"নড়াইল সদর উপজেলা","state_district":"নড়াইল জেলা","state":"খুলনা বিভাগ","ISO3166-2-lvl4":"BD-D","country":"বাংলাদেশ","country_code":"bd"},"osm_type":"node","osm_id":1627757206,"type":"city","location":[89.505,23.175],"bbox":[89.345,23.015,89.665,23.335]}
{"name":"নরসিংদী","other_names":{"name:bn":"নরসিংদী","name:en":"Narsingdi","name:fr":"Narsingdi"},"display_name":"নরসিংদী, নরসিংদী সদর উপজেলা, নরসিংদী জেলা, ঢাকা বিভাগ, 1602, বাংলাদেশ","address":{"city":"নরসিংদী","county":"নরসিংদী সদর উপজেলা","state_district":"নরসিংদী জেলা","state":"ঢাকা বিভাগ","ISO3166-2-lvl4":"BD-C","postcode":"1602","country":"বাংলাদেশ","country_code":"bd"},"population":185128,"osm_type":"node","osm_id":2481947627,"type":"city","location":[90.7152981,23.9197152],"bbox":[90.5552981,23.7597152,90.8752981,24.0797152]}
{"name":"নাটোর","other_names":{"name:bn":"নাটোর","name:en":"Natore","name:fr":"Natore","name:ru":"Наттор"},"display_name":"নাটোর, নাটোর সদর উপজেলা, নাটোর জেলা, রাজশাহী বিভাগ, 6400, বাংলাদেশ","address":{"city":"নাটোর","county":"নাটোর সদর উপজেলা","state_district":"নাটোর জেলা","state":"রাজশাহী বিভাগ","ISO3166-2-lvl4":"BD-E","postcode":"6400","country":"বাংলাদেশ","country_code":"bd"},"osm_type":"node","osm_id":1627757207,"type":"city","location":[88.9866684,24.4131849],"bbox":[88.8266684,24.2531849,89.1466684,24.5731849]}
{"name":"নারায়ণগঞ্জ","other_names":{"name:bn":"নারায়ণগঞ্জ","name:en":"Narayanganj","name:fr":"Narayanganj","name:kn":"ನಾರಾಯಣಗಂಜ್","name:ne":"नारायणगन्ज"},"display_name":"নারায়ণগঞ্জ, নারায়ণগঞ্জ সদর উপজেলা, নারায়নগঞ্জ জেলা, ঢাকা বিভাগ, 1400, বাংলাদেশ","address":{"city":"নারায়ণগঞ্জ","county":"নারায়ণগঞ্জ সদর উপজেলা","state_district":"নারায়নগঞ্জ জেলা","state":"ঢাকা বিভাগ","ISO3166-2-lvl4":"BD-C","postcode":"1400","country":"বাংলাদেশ","country_code":"bd"},"population":286330,"osm_type":"node","osm_id":339167585,"type":"city","location":[90.4988075,23.6236732],"bbox":[90.3388075,23.4636732,90.6588075,23.7836732]}
{"name":"নীলফামারী","other_names":{"name:bn":"নীলফামারী","name:en":"Nilphamari","name:fr":"Nilphamari"},"display_name":"নীলফামারী, নীলফামারী সদর উপজেলা, নীলফামারী জেলা, রংপুর বিভাগ, 5300, বাংলাদেশ","address":{"city":"নীলফামারী","county":"নীলফামারী সদর উপজেলা","state_district":"নীলফামারী জেলা","ISO3166-2-lvl5":"BD-46","state":"রংপুর বিভাগ","ISO3166-2-lvl4":"BD-F","postcode":"5300","country":"বাংলাদেশ","country_code":"bd"},"osm_type":"node","osm_id":1478704279,"type":"city","location":[88.8534588,25.9339275],"bbox":[88.6934588,25.7739275,89.0134588,26.0939275]}
{"name":"নেত্রকোনা","other_names":{"name:bn":"নেত্রকোনা","name:en":"Netrokona","name:fr":"Netrokona","name:ur":"نیترو کونہ","alt_name:ur":"نیترو کونا;نیتروکونا;نیتروکونا"},"display_name":"নেত্রকোনা, নেত্রকোনা জেলা, ময়মনসিংহ বিভাগ, বাংলাদেশ","address":{"city":"নেত্রকোনা","state_district":"নেত্রকোনা জেলা","state":"ময়মনসিংহ বিভাগ","ISO3166-2-lvl4":"BD-H","country":"বাংলাদেশ","country_code":"bd"},"osm_type":"node","osm_id":2410129206,"type":"city","location":[90.7332362,24.8855734],"bbox":[90.5732362,24.7255734,90.8932362,25.0455734]}
{"name":"পঞ্চগড়","other_names":{"name:bn":"পঞ্চগড়","name:en":"Panchagarh","name:fr":"Panchagarh","name:ja":"ポンチョゴル","name:uk":"Панчаґарг","name:ur":"پنچ گڑھ","alt_name:ur":"پنچگڑھ;پنچو گڑھ;پنچوگڑھ;پنچا گڑھ;پنچاگڑھ"},"display_name":"পঞ্চগড়, পঞ্চগড় সদর উপজেলা, পঞ্চগড় জেলা, রংপুর বিভাগ, 5000, বাংলাদেশ","address":{"city":"পঞ্চগড়","county":"পঞ্চগড় সদর উপজেলা","state_district":"পঞ্চগড় জেলা","ISO3166-2-lvl5":"BD-52","state":"রংপুর বিভাগ","ISO3166-2-lvl4":"BD-F","postcode":"5000","country":"বাংলাদেশ","country_code":"bd"},"osm_type":"node","osm_id":1412090862,"type":"city","location":[88.555945,26.3318585],"bbox":[88.395945,26.1718585,88.715945,26.4918585]}
{"name":"পটুয়াখালী","other_names":{"name:bn":"পটুয়াখালী","name:en":"Patuakhali","name:fr":"Patuakhali","name:ne":"पटुआखली"},"display_name":"পটুয়াখালী, পটুয়াখালী সদর উপজেলা, পটুয়াখালী জেলা, বরিশাল বিভাগ, 8600, বাংলাদেশ","address":{"city":"পটুয়াখালী","county":"পটুয়াখালী সদর উপজেলা","state_district":"পটুয়াখালী জেলা","ISO3166-2-lvl5":"BD-51","state":"বরিশাল বিভাগ","ISO3166-2-lvl4":"BD-A","postcode":"8600","country":"বাংলাদেশ","country_code":"bd"},"osm_type":"node","osm_id":5963897754,"type":"city","location":[90.3310543,22.3589664],"bbox":[90.1710543,22.1989664,90.4910543,22.5189664]}
{"name":"পাবনা","other_names":{"name:bn":"পাবনা","name:en":"Pabna","name:fr":"Pabna","name:ja":"パブナ","name:ko":"파브나","name:ru":"Пабна"},"display_name":"পাবনা, পাবনা সদর উপজেলা, পাবনা জেলা, রাজশাহী বিভাগ, 6600, বাংলাদেশ","address":{"city":"পাবনা","county":"পাবনা সদর উপজেলা","state_district":"পাবনা জেলা","state":"রাজশাহী বিভাগ","ISO3166-2-lvl4":"BD-E","postcode":"6600","country":"বাংলাদেশ","country_code":"bd"},"population":144442,"osm_type":"node","osm_id":1627757208,"type":"city","location":[89.2448341,24.0068082],"bbox":[89.0848341,23.8468082,89.4048341,24.1668082]}
{"name":"পিরোজপুর পৌরসভা","other_names":{"name:bn":"পিরোজপুর পৌরসভা","name:en":"Pirojpur Municipality"},"display_name":"পিরোজপুর পৌরসভা, পিরোজপুর সদর উপজেলা, পিরোজপুর জেলা, বরিশাল বিভাগ, 8500, বাংলাদেশ","address":{"city":"পিরোজপুর পৌরসভা","county":"পিরোজপুর সদর উপজেলা","state_district":"পিরোজপুর জেলা","ISO3166-2-lvl5":"BD-50","state":"বরিশাল বিভাগ","ISO3166-2-lvl4":"BD-A","postcode":"8500","country":"বাংলাদেশ","country_code":"bd"},"osm_type":"relation","osm_id":4628163,"type":"administrative","location":[89.9784164540232,22.583698300000002],"bbox":[89.9546482,22.5620817,90.0021869,22.60605],"inferred_type":"city"}
{"name":"পিরোজপুর","other_names":{"name:bn":"পিরোজপুর","name:en":"Pirojpur","name:fr":"Pirojpur","name:uk":"Піроджпур"},"display_name":"পিরোজপুর, পিরোজপুর পৌরসভা, পিরোজপুর সদর উপজেলা, পিরোজপুর জেলা, বরিশাল বিভাগ, 8500, বাংলাদেশ","address":{"city":"পিরোজপুর","county":"পিরোজপুর সদর উপজেলা","state_district":"পিরোজপুর জেলা","ISO3166-2-lvl5":"BD-50","state":"বরিশাল বিভাগ","ISO3166-2-lvl4":"BD-A","postcode":"8500","country":"বাংলাদেশ","country_code":"bd"},"osm_type":"node","osm_id":1623159414,"type":"city","location":[89.9692183,22.5785847],"bbox":[89.8092183,22.4185847,90.1292183,22.7385847]}
{"name":"ফরিদপুর","other_names":{"name:bn":"ফরিদপুর","name:en":"Faridpur","name:fr":"Faridpur","name:ja":"ファリドプル"},"display_name":"ফরিদপুর, ফরিদপুর সদর উপজেলা, ফরিদপুর জেলা, ঢাকা বিভাগ, বাংলাদেশ","address":{"city":"ফরিদপুর","county":"ফরিদপুর সদর উপজেলা","state_district":"ফরিদপুর জেলা","state":"ঢাকা বিভাগ","ISO3166-2-lvl4":"BD-C","country":"বাংলাদেশ","country_code":"bd"},"population":122425,"osm_type":"node","osm_id":1472130095,"type":"city","location":[89.8415542,23.6040182],"bbox":[89.6815542,23.4440182,90.0015542,23.7640182]}
{"name":"ফেনী","other_names":{"name:bn":"ফেনী","name:en":"Feni","name:fr":"Feni","name:ja":"フェニ"},"display_name":"ফেনী, ফেনী সদর উপজেলা, ফেনী জেলা, চট্টগ্রাম বিভাগ, 3900, বাংলাদেশ","address":{"city":"ফেনী","county":"ফেনী সদর উপজেলা","state_district":"ফেনী জেলা","state":"চট্টগ্রাম বিভাগ","ISO3166-2-lvl4":"BD-B","postcode":"3900","country":"বাংলাদেশ","country_code":"bd"},"population":156971,"osm_type":"node","osm_id":1599654460,"type":"city","location":[91.3965276,23.0068161],"bbox":[91.2365276,22.8468161,91.5565276,23.1668161]}
{"name":"বগুড়া","other_names":{"name:ar":"بوغرا","name:bn":"বগুড়া","name:de":"Bogra","name:en":"Bogura","name:es":"Bogra","name:et":"Bogra","name:eu":"Bogra","name:fr":"Bogra","name:ja":"ボーグラ","name:kn":"ಬೊಗ್ರ","name:ur":"بوگرا","name:zh":"博格拉","alt_name":"Bogra","old_name:en":"Bogra"},"display_name":"বগুড়া, বগুড়া জেলা, রাজশাহী বিভাগ, বাংলাদেশ","address":{"city":"বগুড়া","state_district":"বগুড়া জেলা","state":"রাজশাহী বিভাগ","ISO3166-2-lvl4":"BD-E","country":"বাংলাদেশ","country_code":"bd"},"population":400983,"osm_type":"node","osm_id":372428067,"type":"city","location":[89.3728431,24.8500662],"bbox":[89.2128431,24.6900662,89.5328431,25.0100662],"border":{"name":"বগুড়া","other_names":{"name:bn":"বগুড়া","name:en":"Bogura","name:ar":"بوغرا","name:de":"Bogra","name:es":"Bogra","name:et":"Bogra","name:eu":"Bogra","name:fr":"Bogra","name:ja":"ボーグラ","name:kn":"ಬೊಗ್ರ","name:ur":"بوگرا","name:zh":"博格拉","alt_name":"Bogra","old_name:en":"Bogra"},"display_name":"বগুড়া, বগুড়া জেলা, রাজশাহী বিভাগ, 5800, বাংলাদেশ","address":{"city":"বগুড়া","state_district":"বগুড়া জেলা","state":"রাজশাহী বিভাগ","ISO3166-2-lvl4":"BD-E","postcode":"5800","country":"বাংলাদেশ","country_code":"bd"},"population":400983,"osm_type":"relation","osm_id":14326796,"type":"administrative","location":[89.3728431,24.8500662],"bbox":[89.2674026,24.6898346,89.4965591,24.9888611]}}
{"name":"বরগুনা","other_names":{"name:bn":"বরগুনা","name:en":"Barguna","name:fr":"Barguna"},"display_name":"বরগুনা, বরগুনা সদর উপজেলা, বরগুনা জেলা, বরিশাল বিভাগ, 8700, বাংলাদেশ","address":{"city":"বরগুনা","county":"বরগুনা সদর উপজেলা","state_district":"বরগুনা জেলা","ISO3166-2-lvl5":"BD-02","state":"বরিশাল বিভাগ","ISO3166-2-lvl4":"BD-A","postcode":"8700","country":"বাংলাদেশ","country_code":"bd"},"osm_type":"node","osm_id":1623159370,"type":"city","location":[90.117813,22.1590839],"bbox":[89.957813,21.9990839,90.277813,22.3190839]}
{"name":"বরিশাল","other_names":{"name:ar":"باريسال","name:bn":"বরিশাল","name:en":"Barisal","name:et":"Barisāl","name:fa":"باریسال","name:fr":"Barisal","name:hi":"बरिशाल","name:kn":"ಬರಿಶಾಲ","name:ne":"बारिसाल","name:ur":"باریسال","name:zh":"博里萨尔"},"display_name":"বরিশাল, বরিশাল সদর উপজেলা, বরিশাল জেলা, বরিশাল বিভাগ, 8200, বাংলাদেশ","address":{"city":"বরিশাল","county":"বরিশাল সদর উপজেলা","state_district":"বরিশাল জেলা","ISO3166-2-lvl5":"BD-06","state":"বরিশাল বিভাগ","ISO3166-2-lvl4":"BD-A","postcode":"8200","country":"বাংলাদেশ","country_code":"bd"},"population":339308,"osm_type":"node","osm_id":5513599593,"type":"city","location":[90.370729,22.7047521],"bbox":[90.210729,22.5447521,90.530729,22.8647521]}
{"name":"বাগেরহাট","other_names":{"name:bn":"বাগেরহাট","name:en":"Bagerhat","name:fr":"Bagerhat","name:uk":"Баґергат"},"display_name":"বাগেরহাট, বাগেরহাট সদর উপজেলা, বাগেরহাট জেলা, খুলনা বিভাগ, 9300, বাংলাদেশ","address":{"city":"বাগেরহাট","county":"বাগেরহাট সদর উপজেলা","state_district":"বাগেরহাট জেলা","state":"খুলনা বিভাগ","ISO3166-2-lvl4":"BD-D","postcode":"9300","country":"বাংলাদেশ","country_code":"bd"},"osm_type":"node","osm_id":1412141766,"type":"city","location":[89.7941813,22.6554781],"bbox":[89.6341813,22.4954781,89.9541813,22.8154781]}
{"name":"বান্দরবান","other_names":{"name:bn":"বান্দরবান","name:en":"Bandarban","name:fr":"Bandarban"},"display_name":"বান্দরবান, বান্দরবান পার্বত্য জেলা, চট্টগ্রাম বিভাগ, বাংলাদেশ","address":{"city":"বান্দরবান","state_district":"বান্দরবান পার্বত্য জেলা","state":"চট্টগ্রাম বিভাগ","ISO3166-2-lvl4":"BD-B","country":"বাংলাদেশ","country_code":"bd"},"osm_type":"node","osm_id":1623159366,"type":"city","location":[92.2217498,22.1972889],"bbox":[92.0617498,22.0372889,92.3817498,22.3572889]}
{"name":"বিজয়নগর","other_names":{"name:bd":"বিজয়নগর","name:bn":"বিজয়নগর","name:en":"Bijoynagar"},"display_name":"বিজয়নগর, ব্রাহ্মণবাড়িয়া সদর উপজেলা, ব্রাহ্মণবাড়িয়া জেলা, চট্টগ্রাম বিভাগ, বাংলাদেশ","address":{"city":"বিজয়নগর","county":"ব্রাহ্মণবাড়িয়া সদর উপজেলা","state_district":"ব্রাহ্মণবাড়িয়া জেলা","ISO3166-2-lvl5":"BD-04","state":"চট্টগ্রাম বিভাগ","ISO3166-2-lvl4":"BD-B","country":"বাংলাদেশ","country_code":"bd"},"population":290431,"osm_type":"node","osm_id":12723444323,"type":"city","location":[91.2263766,24.0141553],"bbox":[91.0663766,23.8541553,91.3863766,24.1741553]}
{"name":"ব্রাহ্মণবাড়িয়া","other_names":{"name:ar":"براهمنباريا","name:bn":"ব্রাহ্মণবাড়িয়া","name:en":"Brahmanbaria","name:et":"Brāhmanbāria","name:fr":"Brahmanbaria","name:hi":"ब्राह्मनबरिआ","name:ja":"ブラーマンバーリア","name:kn":"ಬ್ರಹ್ಮನ್ಬರಿಯ","name:ur":"برہمنباریا","alt_name:ar":"براهمانباريا"},"display_name":"ব্রাহ্মণবাড়িয়া, ব্রাহ্মণবাড়িয়া সদর উপজেলা, ব্রাহ্মণবাড়িয়া জেলা, চট্টগ্রাম বিভাগ, 3400, বাংলাদেশ","address":{"city":"ব্রাহ্মণবাড়িয়া","county":"ব্রাহ্মণবাড়িয়া সদর উপজেলা","state_district":"ব্রাহ্মণবাড়িয়া জেলা","ISO3166-2-lvl5":"BD-04","state":"চট্টগ্রাম বিভাগ","ISO3166-2-lvl4":"BD-B","postcode":"3400","country":"বাংলাদেশ","country_code":"bd"},"population":268279,"osm_type":"node","osm_id":3250983586,"type":"city","location":[91.1104549,23.9691452],"bbox":[90.9504549,23.8091452,91.2704549,24.1291452]}
{"name":"ভোলা","other_names":{"name:bn":"ভোলা","name:en":"Bhola","name:fr":"Bhola"},"display_name":"ভোলা, ভোলা সদর উপজেলা, ভোলা জেলা, বরিশাল বিভাগ, বাংলাদেশ","address":{"city":"ভোলা","county":"ভোলা সদর উপজেলা","state_district":"ভোলা জেলা","ISO3166-2-lvl5":"BD-07","state":"বরিশাল বিভাগ","ISO3166-2-lvl4":"BD-A","country":"বাংলাদেশ","country_code":"bd"},"osm_type":"node","osm_id":1623159376,"type":"city","location":[90.6405813,22.689095],"bbox":[90.4805813,22.529095,90.8005813,22.849095]}
{"name":"ময়মনসিংহ","other_names":{"name:ar":"ميمينسينغ","name:bn":"ময়মনসিংহ","name:de":"Maimansingh","name:en":"Mymensingh","name:es":"Mymensingh","name:eu":"Mymensingh","name:fa":"میمن‌سینگ","name:fr":"Mymensingh","name:hi":"मय़मनसिंह","name:kn":"ಮೈಮೆನ್ಸಿಂಗ್","name:ne":"मयमनसिंह","name:ur":"میمن سنگھ","name:zh":"迈门辛市","alt_name:ur":"میمنسنگھ;مائمن سنگھ"},"display_name":"ময়মনসিংহ, ময়মনসিংহ সদর উপজেলা, ময়মনসিংহ জেলা, ময়মনসিংহ বিভাগ, 2200, বাংলাদেশ","address":{"city":"ময়মনসিংহ","county":"ময়মনসিংহ সদর উপজেলা","state_district":"ময়মনসিংহ জেলা","state":"ময়মনসিংহ বিভাগ","ISO3166-2-lvl4":"BD-H","postcode":"2200","country":"বাংলাদেশ","country_code":"bd"},"population":389918,"osm_type":"node","osm_id":4737748822,"type":"city","location":[90.4099158,24.7482129],"bbox":[90.2499158,24.5882129,90.5699158,24.9082129],"border":{"name":"ময়মনসিংহ সদর উপজেলা","other_names":{"name:bn":"ময়মনসিংহ সদর উপজেলা","name:en":"Mymensingh Sadar Upazila","name:ur":"میمن سنگھ"},"display_name":"ময়মনসিংহ সদর উপজেলা, ময়মনসিংহ জেলা, ময়মনসিংহ বিভাগ, বাংলাদেশ","address":{"county":"ময়মনসিংহ সদর উপজেলা","state_district":"ময়মনসিংহ জেলা","state":"ময়মনসিংহ বিভাগ","ISO3166-2-lvl4":"BD-H","country":"বাংলাদেশ","country_code":"bd"},"osm_type":"relation","osm_id":14326609,"type":"administrative","location":[90.41564812603733,24.7690447],"bbox":[90.1912249,24.6418612,90.5094675,24.8955819]}}
{"name":"মাগুরা","other_names":{"name:bn":"মাগুরা","name:en":"Magura","name:fr":"Magura"},"display_name":"মাগুরা, মাগুরা সদর উপজেলা, মাগুরা জেলা, খুলনা বিভাগ, 7600, বাংলাদেশ","address":{"city":"মাগুরা","county":"মাগুরা সদর উপজেলা","state_district":"মাগুরা জেলা","state":"খুলনা বিভাগ","ISO3166-2-lvl4":"BD-D","postcode":"7600","country":"বাংলাদেশ","country_code":"bd"},"osm_type":"node","osm_id":1627757204,"type":"city","location":[89.4201824,23.4880772],"bbox":[89.2601824,23.3280772,89.5801824,23.6480772]}
{"name":"মাদারীপুর","other_names":{"name:bn":"মাদারীপুর","name:en":"Madaripur","name:fr":"Madaripur"},"display_name":"মাদারীপুর, মাদারীপুর সদর উপজেলা, মাদারীপুর জেলা, ঢাকা বিভাগ, 7900, বাংলাদেশ","address":{"city":"মাদারীপুর","county":"মাদারীপুর সদর উপজেলা","state_district":"মাদারীপুর জেলা","state":"ঢাকা বিভাগ","ISO3166-2-lvl4":"BD-C","postcode":"7900","country":"বাংলাদেশ","country_code":"bd"},"osm_type":"node","osm_id":1623159397,"type":"city","location":[90.2047265,23.1675177],"bbox":[90.0447265,23.0075177,90.3647265,23.3275177]}
{"name":"মানিকগঞ্জ","other_names":{"name:bn":"মানিকগঞ্জ","name:en":"Manikganj","name:fr":"Manikganj"},"display_name":"মানিকগঞ্জ, মানিকগঞ্জ সদর উপজেলা, মানিকগঞ্জ জেলা, ঢাকা বিভাগ, 1800, বাংলাদেশ","address":{"city":"মানিকগঞ্জ","county":"মানিকগঞ্জ সদর উপজেলা","state_district":"মানিকগঞ্জ জেলা","ISO3166-2-lvl5":"BD-33","state":"ঢাকা বিভাগ","ISO3166-2-lvl4":"BD-C","postcode":"1800","country":"বাংলাদেশ","country_code":"bd"},"osm_type":"node","osm_id":1623159405,"type":"city","location":[89.9995086,23.8695971],"bbox":[89.8395086,23.7095971,90.1595086,24.0295971]}
{"name":"মুন্সিগঞ্জ","other_names":{"name:af":"Munshiganj","name:ar":"مونشيجاني","name:bn":"মুন্সিগঞ্জ","name:de":"Munsiganj","name:en":"Munshiganj","name:es":"Munsiganj","name:et":"Munshiganj","name:fr":"Munsiganj","name:hi":"मुंशीगंज","name:kn":"ಮುಂಶಿಗಂಜ್","name:ko":"문시 간지","name:uk":"Муншіґандж","name:gan":"蒙希甘杰"},"display_name":"মুন্সিগঞ্জ, মুন্সীগঞ্জ সদর উপজেলা, মুন্সিগঞ্জ জেলা, ঢাকা বিভাগ, বাংলাদেশ","address":{"city":"মুন্সিগঞ্জ","county":"মুন্সীগঞ্জ সদর উপজেলা","state_district":"মুন্সিগঞ্জ জেলা","state":"ঢাকা বিভাগ","ISO3166-2-lvl4":"BD-C","country":"বাংলাদেশ","country_code":"bd"},"population":53202,"osm_type":"node","osm_id":1749595668,"type":"city","location":[90.5349722,23.5483797],"bbox":[90.3749722,23.3883797,90.6949722,23.7083797]}
{"name":"মৌলভীবাজার","other_names":{"name:bn":"মৌলভীবাজার","name:en":"Moulvibazar","name:fr":"Maulvi Bazar"},"display_name":"মৌলভীবাজার, মৌলভীবাজার সদর উপজেলা, মৌলভীবাজার জেলা, সিলেট বিভাগ, 3200, বাংলাদেশ","address":{"city":"মৌলভীবাজার","county":"মৌলভীবাজার সদর উপজেলা","state_district":"মৌলভীবাজার জেলা","state":"সিলেট বিভাগ","ISO3166-2-lvl4":"BD-G","postcode":"3200","country":"বাংলাদেশ","country_code":"bd"},"osm_type":"node","osm_id":2481974437,"type":"city","location":[91.7630179,24.4880817],"bbox":[91.6030179,24.3280817,91.9230179,24.6480817]}
{"name":"যশোর","other_names":{"name:bn":"যশোর","name:en":"Jashore","name:fr":"Jessore","name:hi":"यशोर","name:ja":"ジェッソール","name:ne":"जेसोर","name:ru":"Джессор","alt_name":"Jessore","old_name:en":"Jessore"},"display_name":"যশোর, যশোর জেলা, খুলনা বিভাগ, বাংলাদেশ","address":{"city":"যশোর","state_district":"যশোর জেলা","state":"খুলনা বিভাগ","ISO3166-2-lvl4":"BD-D","country":"বাংলাদেশ","country_code":"bd"},"population":237478,"osm_type":"node","osm_id":317729066,"type":"city","location":[89.2094419,23.1665256],"bbox":[89.0494419,23.0065256,89.3694419,23.3265256],"border":{"name":"যশোর","other_names":{"name:bn":"যশোর","name:en":"Jashore","name:fr":"Jessore","name:hi":"यशोर","name:ja":"ジェッソール","name:ne":"जेसोर","name:ru":"Джессор","alt_name":"Jessore","old_name:en":"Jessore"},"display_name":"যশোর, যশোর জেলা, খুলনা বিভাগ, বাংলাদেশ","address":{"city":"যশোর","state_district":"যশোর জেলা","state":"খুলনা বিভাগ","ISO3166-2-lvl4":"BD-D","country":"বাংলাদেশ","country_code":"bd"},"population":237478,"osm_type":"relation","osm_id":14326904,"type":"administrative","location":[89.2094419,23.1665256],"bbox":[89.1035065,23.0711491,89.3886218,23.3209625]}}
{"name":"রংপুর","other_names":{"name:ar":"رنكبور","name:bn":"রংপুর","name:de":"Rangpur","name:en":"Rangpur","name:es":"Rangpur","name:et":"Rangpur","name:eu":"Rangpur","name:fa":"رنگ‌پور","name:fr":"Rangpur","name:hi":"रंगपुर","name:ja":"ランプル","name:kn":"ರಂಗಪುರ್","name:ne":"रङ्गपुर","name:ru":"Рангпур","name:uk":"Рангпур","name:ur":"رنگپور"},"display_name":"রংপুর, রংপুর সদর উপজেলা, রংপুর জেলা, রংপুর বিভাগ, 5400, বাংলাদেশ","address":{"city":"রংপুর","county":"রংপুর সদর উপজেলা","state_district":"রংপুর জেলা","ISO3166-2-lvl5":"BD-55","state":"রংপুর বিভাগ","ISO3166-2-lvl4":"BD-F","postcode":"5400","country":"বাংলাদেশ","country_code":"bd"},"population":307053,"osm_type":"node","osm_id":614900904,"type":"city","location":[89.241459,25.7569808],"bbox":[89.081459,25.5969808,89.401459,25.9169808],"border":{"name":"রংপুর সদর উপজেলা","other_names":{"name:bn":"রংপুর সদর উপজেলা","name:en":"Rangpur Sadar Upazila","name:ur":"رنگپور"},"display_name":"রংপুর সদর উপজেলা, রংপুর জেলা, রংপুর বিভাগ, বাংলাদেশ","address":{"county":"রংপুর সদর উপজেলা","state_district":"রংপুর জেলা","ISO3166-2-lvl5":"BD-55","state":"রংপুর বিভাগ","ISO3166-2-lvl4":"BD-F","country":"বাংলাদেশ","country_code":"bd"},"osm_type":"relation","osm_id":14326696,"type":"administrative","location":[89.2002364775512,25.7479982],"bbox":[89.0854721,25.6560822,89.3262863,25.8399734]}}
{"name":"রাঙ্গামাটি","other_names":{"name:bn":"রাঙ্গামাটি","name:en":"Rangamati","name:fr":"Rangamati"},"display_name":"রাঙ্গামাটি, রাঙ্গামাটি সদর উপজেলা, রাঙ্গামাটি পার্বত্য জেলা, চট্টগ্রাম বিভাগ, 0351, বাংলাদেশ","address":{"city":"রাঙ্গামাটি","county":"রাঙ্গামাটি সদর উপজেলা","state_district":"রাঙ্গামাটি পার্বত্য জেলা","state":"চট্টগ্রাম বিভাগ","ISO3166-2-lvl4":"BD-B","postcode":"0351","country":"বাংলাদেশ","country_code":"bd"},"population":66836,"osm_type":"node","osm_id":1623159429,"type":"city","location":[92.1814332,22.6509208],"bbox":[92.0214332,22.4909208,92.3414332,22.8109208]}
{"name":"রাজবাড়ী","other_names":{"name:bn":"রাজবাড়ী","name:en":"Rajbari","name:fr":"Rajbari"},"display_name":"রাজবাড়ী, রাজবাড়ী সদর উপজেলা, রাজবাড়ী জেলা, ঢাকা বিভাগ, 7700, বাংলাদেশ","address":{"city":"রাজবাড়ী","county":"রাজবাড়ী সদর উপজেলা","state_district":"রাজবাড়ী জেলা","ISO3166-2-lvl5":"BD-53","state":"ঢাকা বিভাগ","ISO3166-2-lvl4":"BD-C","postcode":"7700","country":"বাংলাদেশ","country_code":"bd"},"osm_type":"node","osm_id":1623159427,"type":"city","location":[89.6478006,23.7539002],"bbox":[89.4878006,23.5939002,89.8078006,23.9139002]}
{"name":"রাজশাহী","other_names":{"name:ar":"راجشاهي","name:bn":"রাজশাহী","name:de":"Rajshahi","name:en":"Rajshahi","name:es":"Rajshahi","name:et":"Rājshāhi","name:eu":"Rajshahi","name:fa":"راج‌شاهی","name:fr":"Râjshâhî","name:hi":"राजशाही","name:ja":"ラジシャヒ","name:kn":"ರಾಜಶಾಹೀ","name:ne":"राजशाही","name:ru":"Раджшахи","name:uk":"Раджшахі","name:ur":"راجشاہی","name:zh":"拉杰沙希"},"display_name":"রাজশাহী, রাজশাহী জেলা, রাজশাহী বিভাগ, 6000, বাংলাদেশ","address":{"city":"রাজশাহী","state_district":"রাজশাহী জেলা","state":"রাজশাহী বিভাগ","ISO3166-2-lvl4":"BD-E","postcode":"6000","country":"বাংলাদেশ","country_code":"bd"},"population":451425,"osm_type":"node","osm_id":372612223,"type":"city","location":[88.5921038,24.3715513],"bbox":[88.4321038,24.2115513,88.7521038,24.5315513]}
{"name":"রাণীগঞ্জ বাজার","other_names":{"name:bn":"রাণীগঞ্জ বাজার","name:en":"Ranigonj Bazar"},"display_name":"রাণীগঞ্জ বাজার, ঘোড়াঘাট উপজেলা, দিনাজপুর জেলা, রংপুর বিভাগ, বাংলাদেশ","address":{"city":"রাণীগঞ্জ বাজার","county":"ঘোড়াঘাট উপজেলা","state_district":"দিনাজপুর জেলা","ISO3166-2-lvl5":"BD-14","state":"রংপুর বিভাগ","ISO3166-2-lvl4":"BD-F","country":"বাংলাদেশ","country_code":"bd"},"osm_type":"node","osm_id":5222637756,"type":"city","location":[89.2208647,25.2974622],"bbox":[89.0608647,25.1374622,89.3808647,25.4574622]}
{"name":"লক্ষ্মীপুর","other_names":{"name:bn":"লক্ষ্মীপুর","name:en":"Lakshmipur","name:fr":"Lakshmipur","alt_name:en":"Laxmipur"},"display_name":"লক্ষ্মীপুর, লক্ষ্মীপুর সদর উপজেলা, লক্ষ্মীপুর জেলা, চট্টগ্রাম বিভাগ, 3700, বাংলাদেশ","address":{"city":"লক্ষ্মীপুর","county":"লক্ষ্মীপুর সদর উপজেলা","state_district":"লক্ষ্মীপুর জেলা","state":"চট্টগ্রাম বিভাগ","ISO3166-2-lvl4":"BD-B","postcode":"3700","country":"বাংলাদেশ","country_code":"bd"},"osm_type":"node","osm_id":1623159396,"type":"city","location":[90.8276345,22.9445365],"bbox":[90.6676345,22.7845365,90.9876345,23.1045365]}
{"name":"লালমনিরহাট","other_names":{"name:bn":"লালমনিরহাট","name:en":"Lalmonirhat","name:fr":"Lalmonirhat"},"display_name":"লালমনিরহাট, লালমনিরহাট সদর উপজেলা, লালমনিরহাট জেলা, রংপুর বিভাগ, 5500, বাংলাদেশ","address":{"city":"লালমনিরহাট","county":"লালমনিরহাট সদর উপজেলা","state_district":"লালমনিরহাট জেলা","ISO3166-2-lvl5":"BD-32","state":"রংপুর বিভাগ","ISO3166-2-lvl4":"BD-F","postcode":"5500","country":"বাংলাদেশ","country_code":"bd"},"osm_type":"node","osm_id":2427824452,"type":"city","location":[89.4461394,25.9163507],"bbox":[89.2861394,25.7563507,89.6061394,26.0763507]}
{"name":"শরিয়তপুর","other_names":{"name:bn":"শরিয়তপুর","name:en":"Shariatpur","name:fr":"Shariatpur"},"display_name":"শরিয়তপুর, শরীয়তপুর সদর উপজেলা, শরিয়তপুর জেলা, ঢাকা বিভাগ, 8000, বাংলাদেশ","address":{"city":"শরিয়তপুর","county":"শরীয়তপুর সদর উপজেলা","state_district":"শরিয়তপুর জেলা","state":"ঢাকা বিভাগ","ISO3166-2-lvl4":"BD-C","postcode":"8000","country":"বাংলাদেশ","country_code":"bd"},"osm_type":"node","osm_id":1623159433,"type":"city","location":[90.3481247,23.2132841],"bbox":[90.1881247,23.0532841,90.5081247,23.3732841]}
{"name":"শেরপুর","other_names":{"name:bn":"শেরপুর","name:en":"Sherpur","name:fr":"Sherpur"},"display_name":"শেরপুর, শেরপুর সদর উপজেলা, শেরপুর জেলা, ময়মনসিংহ বিভাগ, 2100, বাংলাদেশ","address":{"city":"শেরপুর","county":"শেরপুর সদর উপজেলা","state_district":"শেরপুর জেলা","state":"ময়মনসিংহ বিভাগ","ISO3166-2-lvl4":"BD-H","postcode":"2100","country":"বাংলাদেশ","country_code":"bd"},"osm_type":"node","osm_id":1472157685,"type":"city","location":[90.0149736,25.0228367],"bbox":[89.8549736,24.8628367,90.1749736,25.1828367]}
{"name":"শ্রীমঙ্গল","other_names":{"name:bn":"শ্রীমঙ্গল উপজেলা","name:en":"Sreemangal Upazila"},"display_name":"শ্রীমঙ্গল, শ্রীমঙ্গল উপজেলা, মৌলভীবাজার জেলা, সিলেট বিভাগ, 3210, বাংলাদেশ","address":{"city":"শ্রীমঙ্গল","county":"শ্রীমঙ্গল উপজেলা","state_district":"মৌলভীবাজার জেলা","state":"সিলেট বিভাগ","ISO3166-2-lvl4":"BD-G","postcode":"3210","country":"বাংলাদেশ","country_code":"bd"},"population":361801,"osm_type":"node","osm_id":2481975006,"type":"city","location":[91.7308729,24.3098643],"bbox":[91.5708729,24.1498643,91.8908729,24.4698643],"border":{"name":"শ্রীমঙ্গল উপজেলা","other_names":{"name:bn":"শ্রীমঙ্গল উপজেলা","name:en":"Sreemangal Upazila"},"display_name":"শ্রীমঙ্গল উপজেলা, মৌলভীবাজার জেলা, সিলেট বিভাগ, বাংলাদেশ","address":{"county":"শ্রীমঙ্গল উপজেলা","state_district":"মৌলভীবাজার জেলা","state":"সিলেট বিভাগ","ISO3166-2-lvl4":"BD-G","country":"বাংলাদেশ","country_code":"bd"},"osm_type":"relation","osm_id":14326791,"type":"administrative","location":[91.67948904693063,24.30658725],"bbox":[91.5970917,24.1406004,91.7621689,24.4700108]}}
{"name":"সাতক্ষীরা","other_names":{"name:bn":"সাতক্ষীরা","name:en":"Satkhira","name:fr":"Satkhira","name:ja":"サトキラ","name:uk":"Саткгіра","name:zh":"萨特希拉"},"display_name":"সাতক্ষীরা, সাতক্ষীরা সদর উপজেলা, সাতক্ষীরা জেলা, খুলনা বিভাগ, 9400, বাংলাদেশ","address":{"city":"সাতক্ষীরা","county":"সাতক্ষীরা সদর উপজেলা","state_district":"সাতক্ষীরা জেলা","state":"খুলনা বিভাগ","ISO3166-2-lvl4":"BD-D","postcode":"9400","country":"বাংলাদেশ","country_code":"bd"},"population":110500,"osm_type":"node","osm_id":1627757209,"type":"city","location":[89.0749857,22.7166509],"bbox":[88.9149857,22.5566509,89.2349857,22.8766509]}
{"name":"সিরাজগঞ্জ","other_names":{"name:bn":"সিরাজগঞ্জ","name:en":"Sirajganj","name:fr":"Sirajganj","name:ja":"シラージガンジ"},"display_name":"সিরাজগঞ্জ, সিরাজগঞ্জ জেলা, রাজশাহী বিভাগ, 6700, বাংলাদেশ","address":{"city":"সিরাজগঞ্জ","state_district":"সিরাজগঞ্জ জেলা","state":"রাজশাহী বিভাগ","ISO3166-2-lvl4":"BD-E","postcode":"6700","country":"বাংলাদেশ","country_code":"bd"},"population":167200,"osm_type":"node","osm_id":1210691046,"type":"city","location":[89.7057047,24.4572235],"bbox":[89.5457047,24.2972235,89.8657047,24.6172235]}
{"name":"সিলেট","other_names":{"name:bn":"সিলেট","name:en":"Sylhet","name:et":"Sylhet","name:eu":"Sylhet","name:fa":"سیلهت","name:fr":"Sylhet","name:hi":"सिलहट","name:id":"Sylhet","name:ja":"シレット","name:kn":"ಸಿಲಹಟ್","name:ne":"सिलेट","name:ru":"Силхет","name:ta":"சில்ஹெட்","name:ur":"سلہٹ","name:zh":"锡尔赫特","name:syl":"ꠍꠤꠟꠐ","old_name":"জালালাবাদ","alt_name:ar":"سيلهيت","old_name:en":"Jalalabad"},"display_name":"সিলেট, সিলেট সদর উপজেলা, সিলেট জেলা, সিলেট বিভাগ, 3100, বাংলাদেশ","address":{"city":"সিলেট","county":"সিলেট সদর উপজেলা","state_district":"সিলেট জেলা","state":"সিলেট বিভাগ","ISO3166-2-lvl4":"BD-G","postcode":"3100","country":"বাংলাদেশ","country_code":"bd"},"population":526412,"osm_type":"node","osm_id":264490438,"type":"city","location":[91.8685271,24.89922],"bbox":[91.7085271,24.73922,92.0285271,25.05922]}
{"name":"সুনামগঞ্জ","other_names":{"name:bn":"সুনামগঞ্জ","name:en":"Sunamganj","name:fr":"Sunamganj"},"display_name":"সুনামগঞ্জ, সুনামগঞ্জ সদর উপজেলা, সুনামগঞ্জ জেলা, সিলেট বিভাগ, বাংলাদেশ","address":{"city":"সুনামগঞ্জ","county":"সুনামগঞ্জ সদর উপজেলা","state_district":"সুনামগঞ্জ জেলা","state":"সিলেট বিভাগ","ISO3166-2-lvl4":"BD-G","country":"বাংলাদেশ","country_code":"bd"},"osm_type":"node","osm_id":2481972077,"type":"city","location":[91.3985824,25.0671031],"bbox":[91.2385824,24.9071031,91.5585824,25.2271031]}
{"name":"সৈয়দপুর","other_names":{"name:bn":"সৈয়দপুর","name:en":"Saidpur","name:fr":"Saidpur","name:ja":"サイドプル","name:ru":"Саидпур","name:ur":"سیدپور","alt_name:ur":"سیدپور"},"display_name":"সৈয়দপুর, সৈয়দপুর উপজেলা, নীলফামারী জেলা, রংপুর বিভাগ, 5310, বাংলাদেশ","address":{"city":"সৈয়দপুর","county":"সৈয়দপুর উপজেলা","state_district":"নীলফামারী জেলা","ISO3166-2-lvl5":"BD-46","state":"রংপুর বিভাগ","ISO3166-2-lvl4":"BD-F","postcode":"5310","country":"বাংলাদেশ","country_code":"bd"},"population":127104,"osm_type":"node","osm_id":1753725269,"type":"city","location":[88.8952379,25.7798456],"bbox":[88.7352379,25.6198456,89.0552379,25.9398456],"border":{"name":"সৈয়দপুর উপজেলা","other_names":{"name:bn":"সৈয়দপুর উপজেলা","name:en":"Saidpur","name:ur":"سیدپور تحصیل"},"display_name":"সৈয়দপুর উপজেলা, নীলফামারী জেলা, রংপুর বিভাগ, 5310, বাংলাদেশ","address":{"county":"সৈয়দপুর উপজেলা","state_district":"নীলফামারী জেলা","ISO3166-2-lvl5":"BD-46","state":"রংপুর বিভাগ","ISO3166-2-lvl4":"BD-F","postcode":"5310","country":"বাংলাদেশ","country_code":"bd"},"osm_type":"relation","osm_id":9526074,"type":"administrative","location":[88.9002859802658,25.8038041],"bbox":[88.8409619,25.7393042,89.0122365,25.8669262]}}
{"name":"হবিগঞ্জ","other_names":{"name:bn":"হবিগঞ্জ","name:en":"Habiganj","name:fr":"Habiganj","name:ur":"حبی گنج","alt_name:ur":"ہبی گنج;ھبی گنج;حبیگنج;ہبیگنج","old_name:ur":"حبیب گنج"},"display_name":"হবিগঞ্জ, হবিগঞ্জ সদর উপজেলা, হবিগঞ্জ জেলা, সিলেট বিভাগ, 3300, বাংলাদেশ","address":{"city":"হবিগঞ্জ","county":"হবিগঞ্জ সদর উপজেলা","state_district":"হবিগঞ্জ জেলা","state":"সিলেট বিভাগ","ISO3166-2-lvl4":"BD-G","postcode":"3300","country":"বাংলাদেশ","country_code":"bd"},"osm_type":"node","osm_id":9128488783,"type":"city","location":[91.412045,24.3875279],"bbox":[91.252045,24.2275279,91.572045,24.5475279],"border":{"name":"হবিগঞ্জ সদর উপজেলা","other_names":{"name:bn":"হবিগঞ্জ সদর উপজেলা","name:en":"Habiganj Sadar Upazila","name:ur":"حبی گنج"},"display_name":"হবিগঞ্জ সদর উপজেলা, হবিগঞ্জ জেলা, সিলেট বিভাগ, 3300, বাংলাদেশ","address":{"county":"হবিগঞ্জ সদর উপজেলা","state_district":"হবিগঞ্জ জেলা","state":"সিলেট বিভাগ","ISO3166-2-lvl4":"BD-G","postcode":"3300","country":"বাংলাদেশ","country_code":"bd"},"osm_type":"relation","osm_id":14326742,"type":"administrative","location":[91.4027059296975,24.35452275],"bbox":[91.3144531,24.2513618,91.5000763,24.4580975]}}
