{"name":"Ampara","other_names":{"name:bn":"আম্পারা","name:en":"Ampara","name:et":"Amparai","name:fr":"Ampara","name:ja":"アンパーラ","name:kn":"ಅಂಪರ","name:ml":"അമ്പാറ","name:ru":"Ампара","name:si":"අම්පාර","name:ta":"அம்பாறை","name:zh-Hans":"安帕拉","name:zh-Hant":"安帕來"},"display_name":"Ampara, Ampara District, Eastern Province, 32600, Sri Lanka","address":{"city":"Ampara","state_district":"Ampara District","ISO3166-2-lvl5":"LK-52","state":"Eastern Province","ISO3166-2-lvl4":"LK-5","postcode":"32600","country":"Sri Lanka","country_code":"lk"},"population":110000,"osm_type":"node","osm_id":1877296501,"type":"city","location":[81.6790194,7.2978118],"bbox":[81.5190194,7.1378118,81.8390194,7.4578118]}
{"name":"Anuradhapura","other_names":{"name:ar":"أنورادابورا","name:bn":"অনুরাধাপুরা","name:fr":"Anuradhapura","name:hi":"अनुराधापुर","name:ja":"アヌラーダプラ","name:kn":"ಅನು಼ರಾದಪುರಂ","name:ml":"അനുരാധപുരം","name:ru":"Анурадхапура","name:si":"අනුරාධපුරය","name:ta":"அனுராதபுரம்","name:uk":"Анурадхапура","name:zh-Hans":"阿努拉德普勒","name:zh-Hant":"阿奴拉達普勒"},"display_name":"Anuradhapura, Anuradhapura District, North Central Province, 50000, Sri Lanka","address":{"city":"Anuradhapura","state_district":"Anuradhapura District","ISO3166-2-lvl5":"LK-71","state":"North Central Province","ISO3166-2-lvl4":"LK-7","postcode":"50000","country":"Sri Lanka","country_code":"lk"},"population":63200,"osm_type":"node","osm_id":566574942,"type":"city","location":[80.4106096,8.334985],"bbox":[80.2506096,8.174985,80.5706096,8.494985]}
{"name":"Arayampathy","display_name":"Arayampathy, Batticaloa District, Eastern Province, Sri Lanka","address":{"city":"Arayampathy","state_district":"Batticaloa District","ISO3166-2-lvl5":"LK-51","state":"Eastern Province","ISO3166-2-lvl4":"LK-5","country":"Sri Lanka","country_code":"lk"},"osm_type":"way","osm_id":778185935,"type":"city","location":[81.73927171898762,7.65761635],"bbox":[81.7197019,7.6374022,81.7616946,7.6780634]}
{"name":"Badulla","other_names":{"name:ar":"بادولا","name:en":"Badulla","name:fa":"بادولا","name:fr":"Badulla","name:hi":"बैड्युला","name:ja":"バドゥッラ","name:kn":"ಬದುಲ್ಲ","name:ml":"ബദുള്ള","name:ru":"Бадулла","name:si":"බදුල්ල","name:ta":"பதுளை","name:uk":"Бадулла","name:ur":"بادولا","name:arz":"بادولا","name:azb":"بادولا","name:az-Arab":"بادولا","name:zh-Hans":"巴杜勒","name:zh-Hant":"巴度拉"},"display_name":"Badulla, Badulla District, Uva Province, 90000, Sri Lanka","address":{"city":"Badulla","state_district":"Badulla District","ISO3166-2-lvl5":"LK-81","state":"Uva Province","ISO3166-2-lvl4":"LK-8","postcode":"90000","country":"Sri Lanka","country_code":"lk"},"population":110000,"osm_type":"node","osm_id":1945604886,"type":"city","location":[81.0570315,6.9900353],"bbox":[80.8970315,6.8300353,81.2170315,7.1500353]}
{"name":"Batticaloa","other_names":{"name:fr":"Batticaloa","name:hi":"बट्टिकलोआ","name:ja":"バッティカロア","name:kn":"ಬಟ್ಟಿಕಲೊ","name:ml":"മട്ടക്കളപ്പ്","name:ru":"Баттикалоа","name:si":"මඩකලපුව","name:ta":"மட்டக்களப்பு","name:zh-Hans":"拜蒂克洛","name:zh-Hant":"巴替卡羅亞"},"display_name":"Batticaloa, Manmunai North DS Division, Batticaloa District, Eastern Province, 30100, Sri Lanka","address":{"city":"Batticaloa","county":"Manmunai North DS Division","state_district":"Batticaloa District","ISO3166-2-lvl5":"LK-51","state":"Eastern Province","ISO3166-2-lvl4":"LK-5","postcode":"30100","country":"Sri Lanka","country_code":"lk"},"population":92300,"osm_type":"node","osm_id":3668151968,"type":"city","location":[81.6941956,7.7356027],"bbox":[81.5341956,7.5756027,81.8541956,7.8956027]}
{"name":"Colombo","other_names":{"name:am":"ኮሎምቦ","name:ar":"كولمبو","name:az":"Kolombo","name:be":"Каломба","name:bg":"Коломбо","name:bn":"কলম্বো","name:bo":"ཁོ་ལུམ་པོ།","name:ca":"Colombo","name:cs":"Kolombo","name:de":"Colombo","name:dv":"ކޮޅުނބު","name:el":"Κολόμπο","name:en":"Colombo","name:eo":"Kolombo","name:es":"Colombo","name:et":"Colombo","name:eu":"Kolonbo","name:fa":"کلمبو","name:fr":"Colombo","name:fy":"Kolombo","name:gu":"કોલંબો","name:he":"קולומבו","name:hi":"कोलंबो","name:ht":"Kolonbo","name:hu":"Colombo","name:id":"Kolombo","name:it":"Colombo","name:ja":"コロンボ","name:ka":"კოლომბო","name:kn":"ಕೊಲಂಬೊ","name:ko":"콜롬보","name:lt":"Kolombas","name:lv":"Kolombo","name:ml":"കൊളംബോ","name:mn":"Коломбо","name:mr":"कोलंबो","name:ne":"कोलम्बो","name:nl":"Colombo","name:oc":"Colombo","name:os":"Коломбо","name:pl":"Kolombo","name:ru":"Коломбо","name:si":"කොළඹ","name:sk":"Kolombo","name:so":"Kolonbo","name:sr":"Коломбо","name:sv":"Colombo","name:ta":"கொழும்பு","name:te":"కొలంబో","name:tg":"Коломбо","name:th":"โคลัมโบ","name:tr":"Kolombo","name:ug":"كولومبو","name:uk":"Коломбо","name:ur":"کولمبو","name:zh":"科伦坡/可倫坡/科倫坡/哥伦坡","int_name":"Colombo","name:kab":"Kulumbu","name:nov":"Kolombo","name:yue":"哥林堡","alt_name:zh":"可伦坡;哥倫坡","name:zh-Hans":"科伦坡/哥伦坡","name:zh-Hant":"可倫坡/科倫坡","name:zh-Hans-CN":"科伦坡","name:zh-Hans-SG":"哥伦坡","name:zh-Hant-CN":"科倫坡","name:zh-Hant-HK":"科倫坡","name:zh-Hant-TW":"可倫坡","name:zh-Latn-CN-pinyin":"Kēlúnpō","name:zh-Latn-SG-pinyin":"Gēlúnpō","name:zh-Latn-TW-pinyin":"Kělúnpō"},"display_name":"Colombo, Colombo District, Western Province, Sri Lanka","address":{"city":"Colombo","state_district":"Colombo District","ISO3166-2-lvl5":"LK-11","state":"Western Province","ISO3166-2-lvl4":"LK-1","country":"Sri Lanka","country_code":"lk"},"population":753000,"osm_type":"node","osm_id":50794342,"type":"city","location":[79.8542005,6.9388614],"bbox":[79.6942005,6.7788614,80.0142005,7.0988614],"border":{"name":"Colombo","other_names":{"name:af":"Colombo","name:ar":"كولمبو","name:da":"Colombo","name:de":"Colombo","name:en":"Colombo","name:es":"Colombo","name:fi":"Colombo","name:fr":"Colombo","name:he":"קולומבו","name:hr":"Colombo","name:it":"Colombo","name:ja":"コロンボ","name:ko":"콜롬보","name:nl":"Colombo","name:pa":"ਕੋਲੰਬੋ","name:ru":"Коломбо","name:si":"කොළඹ","name:sk":"Kolombo","name:sr":"Коломбо","name:ta":"கொழும்பு","name:te":"కొలంబో","name:tg":"Коломбо","name:th":"โคลัมโบ","name:tr":"Kolombo","name:vi":"Colombo","name:zh":"科伦坡/可倫坡/科倫坡/哥伦坡","alt_name":"Kolamba","name:yue":"哥林堡","alt_name:si":"කොලඹ","alt_name:ta":"கொலம்பா","alt_name:zh":"可伦坡;哥倫坡","name:zh-Hans":"科伦坡/哥伦坡","name:zh-Hant":"可倫坡/科倫坡","name:am":"ኮሎምቦ","name:az":"Kolombo","name:be":"Каломба","name:bg":"Коломбо","name:bn":"কলম্বো","name:bo":"ཁོ་ལུམ་པོ།","name:ca":"Colombo","name:cs":"Kolombo","name:dv":"ކޮޅުނބު","name:el":"Κολόμπο","name:eo":"Kolombo","name:et":"Colombo","name:eu":"Kolonbo","name:fa":"کلمبو","name:fy":"Kolombo","name:gu":"કોલંબો","name:hi":"कोलंबो","name:ht":"Kolonbo","name:hu":"Colombo","name:id":"Kolombo","name:ka":"კოლომბო","name:kn":"ಕೊಲಂಬೊ","name:lt":"Kolombas","name:lv":"Kolombo","name:ml":"കൊളംബോ","name:mn":"Коломбо","name:mr":"कोलंबो","name:ne":"कोलम्बो","name:oc":"Colombo","name:os":"Коломбо","name:pl":"Kolombo","name:so":"Kolonbo","name:sv":"Colombo","name:ug":"كولومبو","name:uk":"Коломбо","name:ur":"کولمبو","int_name":"Colombo","name:kab":"Kulumbu","name:nov":"Kolombo","name:zh-Hans-CN":"科伦坡","name:zh-Hans-SG":"哥伦坡","name:zh-Hant-CN":"科倫坡","name:zh-Hant-HK":"科倫坡","name:zh-Hant-TW":"可倫坡","name:zh-Latn-pinyin":"Kēlúnpō","name:zh-Latn-CN-pinyin":"Kēlúnpō","name:zh-Latn-SG-pinyin":"Gēlúnpō","name:zh-Latn-TW-pinyin":"Kělúnpō"},"display_name":"Colombo, Colombo District, Western Province, Sri Lanka","address":{"city":"Colombo","state_district":"Colombo District","ISO3166-2-lvl5":"LK-11","state":"Western Province","ISO3166-2-lvl4":"LK-1","country":"Sri Lanka","country_code":"lk"},"population":753000,"osm_type":"relation","osm_id":16132,"type":"administrative","location":[79.8542005,6.9388614],"bbox":[79.8204584,6.8624141,79.8900031,6.9813596]}}
{"name":"Galle","other_names":{"name:ar":"غالي","name:bn":"গল","name:de":"Galle","name:en":"Galle","name:fr":"Galle","name:he":"גאלה","name:hi":"गाल्ल","name:ja":"ゴール","name:kn":"ಗಾಲೆ","name:ml":"ഗാലെ","name:ne":"गाल","name:ru":"Галле","name:si":"ගාල්ල","name:ta":"காலி","name:uk":"Ґалле","name:zh-Hans":"加勒","name:zh-Hant":"加爾"},"display_name":"Galle, Galle District, Southern Province, Sri Lanka","address":{"city":"Galle","state_district":"Galle District","ISO3166-2-lvl5":"LK-31","state":"Southern Province","ISO3166-2-lvl4":"LK-3","country":"Sri Lanka","country_code":"lk"},"population":120000,"osm_type":"node","osm_id":3639546887,"type":"city","location":[80.214955,6.0328139],"bbox":[80.054955,5.8728139,80.374955,6.1928139],"border":{"name":"Galle","other_names":{"name:uk":"Ґалле","name:ur":"گال","name:ar":"غالي","name:bn":"গল","name:de":"Galle","name:en":"Galle","name:fr":"Galle","name:he":"גאלה","name:hi":"गाल्ल","name:ja":"ゴール","name:kn":"ಗಾಲೆ","name:ml":"ഗാലെ","name:ne":"गाल","name:ru":"Галле","name:si":"ගාල්ල","name:ta":"காலி","name:zh-Hans":"加勒","name:zh-Hant":"加爾"},"display_name":"Galle, Galle District, Southern Province, Sri Lanka","address":{"city":"Galle","state_district":"Galle District","ISO3166-2-lvl5":"LK-31","state":"Southern Province","ISO3166-2-lvl4":"LK-3","country":"Sri Lanka","country_code":"lk"},"population":100000,"osm_type":"relation","osm_id":5345077,"type":"administrative","location":[80.214955,6.0328139],"bbox":[80.1719297,6.0236163,80.2475684,6.0939686]}}
{"name":"Gampaha","other_names":{"name:en":"Gampaha","name:fr":"Gampaha","name:ja":"ガンパハ","name:kn":"ಗಂಪಹ","name:ml":"ഗമ്പഹ","name:ru":"Гампаха","name:si":"ගම්පහ","name:ta":"கம்பஹா","name:uk":"Ґампага","name:zh":"加姆珀哈","name:zh-Hans":"加姆珀哈","name:zh-Hant":"加姆珀哈"},"display_name":"Gampaha, Gampaha District, Western Province, 11030, Sri Lanka","address":{"city":"Gampaha","state_district":"Gampaha District","ISO3166-2-lvl5":"LK-12","state":"Western Province","ISO3166-2-lvl4":"LK-1","postcode":"11030","country":"Sri Lanka","country_code":"lk"},"population":20000,"osm_type":"node","osm_id":3289447451,"type":"city","location":[79.9951396,7.0925595],"bbox":[79.8351396,6.9325595,80.1551396,7.2525595]}
{"name":"Hambantota","other_names":{"name:bn":"হাম্বানটোটা","name:en":"Hambantota","name:fr":"Hambantota","name:hi":"हम्बनटोटा","name:ja":"ハンバントタ","name:kn":"ಹಂಬಂತೊಟ","name:ml":"ഹമ്പൻതോട്ട","name:ru":"Хамбантота","name:si":"හම්බන්තොට","name:ta":"அம்பாந்தோட்டை","name:zh-Hans":"汉班托特","name:zh-Hant":"漢班托塔"},"display_name":"Hambantota, Hambantota District, Southern Province, 82000, Sri Lanka","address":{"city":"Hambantota","state_district":"Hambantota District","ISO3166-2-lvl5":"LK-33","state":"Southern Province","ISO3166-2-lvl4":"LK-3","postcode":"82000","country":"Sri Lanka","country_code":"lk"},"population":120000,"osm_type":"node","osm_id":247220841,"type":"city","location":[81.1242563,6.1249126],"bbox":[80.9642563,5.9649126,81.2842563,6.2849126]}
{"name":"Jaffna","other_names":{"name:ar":"جفنا","name:be":"Джафна","name:bn":"জাফনা","name:en":"Jaffna","name:et":"Jaffna","name:fa":"جافنا","name:fr":"Jaffna","name:he":"ג'אפנה","name:hi":"जाफना","name:ja":"ジャフナ","name:kn":"ಯಾೞ್ಪ್ಪಾಣಂ","name:ml":"യാഴ്പ്പാണം","name:ne":"जाफना","name:ru":"Джафна","name:sa":"याऴ्प्पाणम्","name:sh":"Jaffna","name:si":"යාපනය","name:ta":"யாழ்ப்பாணம்","name:uk":"Джафна","name:ur":"جافنا","alt_name":"Yalppanam","name:azb":"جفنا","name:pnb":"جفنا","alt_name:ar":"جفنا","name:az-Arab":"جفنا","name:zh-Hans":"贾夫纳","name:zh-Hant":"加夫納"},"display_name":"Jaffna, Jaffna District, Northern Province, Sri Lanka","address":{"city":"Jaffna","state_district":"Jaffna District","ISO3166-2-lvl5":"LK-41","state":"Northern Province","ISO3166-2-lvl4":"LK-4","country":"Sri Lanka","country_code":"lk"},"population":600000,"osm_type":"node","osm_id":2050947471,"type":"city","location":[80.0093029,9.665093],"bbox":[79.8493029,9.505093,80.1693029,9.825093]}
{"name":"Kaduwela","other_names":{"name:fr":"Kaduwela","name:ml":"കടുവെല","name:ru":"Кадувела","name:si":"කඩුවෙල","name:ta":"கடுவெலை","name:ur":"کڈو ویل"},"display_name":"Kaduwela, Colombo District, Western Province, 10113, Sri Lanka","address":{"city":"Kaduwela","state_district":"Colombo District","ISO3166-2-lvl5":"LK-11","state":"Western Province","ISO3166-2-lvl4":"LK-1","postcode":"10113","country":"Sri Lanka","country_code":"lk"},"population":252000,"osm_type":"node","osm_id":619905117,"type":"city","location":[79.9843311,6.9357027],"bbox":[79.8243311,6.7757027,80.1443311,7.0957027]}
{"name":"Kalutara","other_names":{"name:en":"Kalutara","name:fr":"Kalutara","name:ml":"കളുത്തുറ","name:ru":"Калутара","name:si":"කළුතර","name:ta":"களுத்துறை","name:zh-Hans":"卡卢特勒","name:zh-Hant":"卡盧特勒"},"display_name":"Kalutara, Kalutara DS Division, Kalutara District, Western Province, 12000, Sri Lanka","address":{"city":"Kalutara","county":"Kalutara DS Division","state_district":"Kalutara District","ISO3166-2-lvl5":"LK-13","state":"Western Province","ISO3166-2-lvl4":"LK-1","postcode":"12000","country":"Sri Lanka","country_code":"lk"},"population":39600,"osm_type":"node","osm_id":1822512017,"type":"city","location":[79.9612508,6.5835219],"bbox":[79.8012508,6.4235219,80.1212508,6.7435219]}
{"name":"Kandy","other_names":{"name:bn":"ক্যান্ডি","name:en":"Kandy","name:fr":"Kandy","name:hi":"कैंडी","name:ja":"キャンディ","name:kn":"ಕ್ಯಾಂಡಿ","name:ml":"കണ്ടി","name:ru":"Канди","name:si":"මහනුවර","name:ta":"கண்டி","name:zh-Hans":"康提","name:zh-Hant":"康提"},"display_name":"Kandy, Kandy District, Central Province, 20000, Sri Lanka","address":{"city":"Kandy","state_district":"Kandy District","ISO3166-2-lvl5":"LK-21","state":"Central Province","ISO3166-2-lvl4":"LK-2","postcode":"20000","country":"Sri Lanka","country_code":"lk"},"population":125000,"osm_type":"node","osm_id":2908772560,"type":"city","location":[80.6350358,7.2931208],"bbox":[80.4750358,7.1331208,80.7950358,7.4531208]}
{"name":"Kegalle","other_names":{"name:fr":"Kegalle","name:kn":"ಕೆಗಲ್ಲೆ","name:ml":"കേഗാല","name:si":"කෑගල්ල","name:ta":"கேகாலை","name:zh-Hans":"凯格勒","name:zh-Hant":"凱格勒"},"display_name":"Kegalle, Kegalle District, Sabaragamuwa Province, 71050, Sri Lanka","address":{"city":"Kegalle","state_district":"Kegalle District","ISO3166-2-lvl5":"LK-92","state":"Sabaragamuwa Province","ISO3166-2-lvl4":"LK-9","postcode":"71050","country":"Sri Lanka","country_code":"lk"},"population":17900,"osm_type":"node","osm_id":49374844,"type":"city","location":[80.3454132,7.2532006],"bbox":[80.1854132,7.0932006,80.5054132,7.4132006]}
{"name":"Kesbewa","other_names":{"name:fr":"Kesbewa","name:ml":"കെസ്ബേവ","name:si":"කැස්බැව","name:ta":"கெஸ்பேவா"},"display_name":"Kesbewa, Colombo District, Western Province, 10300, Sri Lanka","address":{"city":"Kesbewa","state_district":"Colombo District","ISO3166-2-lvl5":"LK-11","state":"Western Province","ISO3166-2-lvl4":"LK-1","postcode":"10300","country":"Sri Lanka","country_code":"lk"},"population":185100,"osm_type":"node","osm_id":5968326762,"type":"city","location":[79.940848,6.7957403],"bbox":[79.780848,6.6357403,80.100848,6.9557403]}
{"name":"Kilinochchi","other_names":{"name:bn":"কিলিনোচ্চি","name:en":"Kilinochchi","name:fr":"Kilinochchi","name:hi":"किलिनोच्ची","name:ja":"キリノッチ","name:kn":"ಕಿಲಿನೊಚ್ಚಿ","name:ml":"കിളിനൊച്ചി","name:ru":"Килиноччи","name:si":"කිළිනොච්චි","name:ta":"கிளிநொச்சி","name:zh-Hans":"基利诺奇","name:zh-Hant":"基里諾奇"},"display_name":"Kilinochchi, Kilinochchi District, Northern Province, Sri Lanka","address":{"city":"Kilinochchi","state_district":"Kilinochchi District","ISO3166-2-lvl5":"LK-42","state":"Northern Province","ISO3166-2-lvl4":"LK-4","country":"Sri Lanka","country_code":"lk"},"population":100000,"osm_type":"node","osm_id":634253347,"type":"city","location":[80.4087224,9.3840068],"bbox":[80.2487224,9.2240068,80.5687224,9.5440068]}
{"name":"Kolonnawa","other_names":{"name:fr":"Kolonnawa","name:ja":"コロンナーワ","name:ml":"കൊലന്നാവ","name:si":"කොලොන්නාව","name:ta":"கொலன்னாவ"},"display_name":"Kolonnawa, Colombo District, Western Province, 10600, Sri Lanka","address":{"city":"Kolonnawa","state_district":"Colombo District","ISO3166-2-lvl5":"LK-11","state":"Western Province","ISO3166-2-lvl4":"LK-1","postcode":"10600","country":"Sri Lanka","country_code":"lk"},"population":64800,"osm_type":"node","osm_id":2091951428,"type":"city","location":[79.8903143,6.9326254],"bbox":[79.7303143,6.7726254,80.0503143,7.0926254]}
{"name":"Kurunegala","other_names":{"name:en":"Kurunegala","name:fr":"Kurunegala","name:ja":"クルネーガラ","name:kn":"ಕುರುನೆಗಲ","name:ml":"കുരുണാഗല","name:ru":"Курунегала","name:si":"කුරුණෑගල","name:ta":"குருணாகல்","name:uk":"Курунеґала","name:zh-Hans":"库鲁内格勒","name:zh-Hant":"庫路內加拉"},"display_name":"Kurunegala, Kurunǣgala, North Western Province, 60000, Sri Lanka","address":{"city":"Kurunegala","state_district":"Kurunǣgala","ISO3166-2-lvl5":"LK-61","state":"North Western Province","ISO3166-2-lvl4":"LK-6","postcode":"60000","country":"Sri Lanka","country_code":"lk"},"population":30300,"osm_type":"node","osm_id":2907017040,"type":"city","location":[80.364908,7.4870464],"bbox":[80.204908,7.3270464,80.524908,7.6470464]}
{"name":"Maharagama","other_names":{"name:fr":"Maharagama","name:ml":"മകരഗമ","name:ru":"Махарагама","name:si":"මහරගම","name:ta":"மகரகம"},"display_name":"Maharagama, Colombo District, Western Province, 10280, Sri Lanka","address":{"city":"Maharagama","state_district":"Colombo District","ISO3166-2-lvl5":"LK-11","state":"Western Province","ISO3166-2-lvl4":"LK-1","postcode":"10280","country":"Sri Lanka","country_code":"lk"},"population":196400,"osm_type":"node","osm_id":4448823642,"type":"city","location":[79.9266082,6.8472783],"bbox":[79.7666082,6.6872783,80.0866082,7.0072783]}
{"name":"Mannar","other_names":{"name:bn":"মান্নার","name:en":"Mannar","name:fr":"Mannar","name:hi":"मन्नार","name:kn":"ತೆಂಕಾಸಿ","name:ml":"മന്നാർ","name:mr":"मन्नार","name:ne":"मन्नार","name:si":"මන්නාරම","name:ta":"மன்னார்","name:zh-Hans":"马纳尔","name:zh-Hant":"曼納"},"display_name":"Mannar, Mannar District, Northern Province, Sri Lanka","address":{"city":"Mannar","state_district":"Mannar District","ISO3166-2-lvl5":"LK-43","state":"Northern Province","ISO3166-2-lvl4":"LK-4","country":"Sri Lanka","country_code":"lk"},"population":35800,"osm_type":"node","osm_id":1886592110,"type":"city","location":[79.9043942,8.9812896],"bbox":[79.7443942,8.8212896,80.0643942,9.1412896]}
{"name":"Matale","other_names":{"name:fr":"Matale","name:ja":"マータレー","name:kn":"ಮತಲೆ","name:ml":"മാത്തളൈ","name:ru":"Матале","name:ta":"மாத்தளை","name:zh-Hans":"马特莱","name:zh-Hant":"馬塔爾"},"display_name":"Matale, Matale District, Central Province, 25000, Sri Lanka","address":{"city":"Matale","state_district":"Matale District","ISO3166-2-lvl5":"LK-22","state":"Central Province","ISO3166-2-lvl4":"LK-2","postcode":"25000","country":"Sri Lanka","country_code":"lk"},"population":40800,"osm_type":"node","osm_id":258049423,"type":"city","location":[80.6234307,7.4720453],"bbox":[80.4634307,7.3120453,80.7834307,7.6320453]}
{"name":"Matara","other_names":{"name:ar":"ماتارا","name:bn":"মাতারা","name:de":"Matara","name:en":"Matara","name:es":"Matara","name:fa":"ماتارا","name:fr":"Matara","name:ja":"マータラ","name:kn":"ಮತರ","name:ml":"മാത്തറ","name:ru":"Матара","name:si":"මාතර","name:ta":"மாத்தறை","name:ur":"ماترا","name:arz":"ماتارا","name:zh-Hans":"马特勒","name:zh-Hant":"馬塔拉"},"display_name":"Matara, Matara District, Southern Province, Sri Lanka","address":{"city":"Matara","state_district":"Matara District","ISO3166-2-lvl5":"LK-32","state":"Southern Province","ISO3166-2-lvl4":"LK-3","country":"Sri Lanka","country_code":"lk"},"population":110000,"osm_type":"node","osm_id":3639539242,"type":"city","location":[80.5482919,5.947822],"bbox":[80.3882919,5.787822,80.7082919,6.107822],"border":{"name":"Matara","other_names":{"name:ar":"ماتارا","name:de":"Matara","name:es":"Matara","name:fa":"ماتارا","name:ur":"ماترا","name:arz":"ماتارا","name:bn":"মাতারা","name:en":"Matara","name:fr":"Matara","name:ja":"マータラ","name:kn":"ಮತರ","name:ml":"മാത്തറ","name:ru":"Матара","name:si":"මාතර","name:ta":"மாத்தறை","name:zh-Hans":"马特勒","name:zh-Hant":"馬塔拉"},"display_name":"Matara, Matara District, Southern Province, 81000, Sri Lanka","address":{"city":"Matara","state_district":"Matara District","ISO3166-2-lvl5":"LK-32","state":"Southern Province","ISO3166-2-lvl4":"LK-3","postcode":"81000","country":"Sri Lanka","country_code":"lk"},"population":100000,"osm_type":"relation","osm_id":5345072,"type":"administrative","location":[80.5482919,5.947822],"bbox":[80.5207784,5.9373907,80.55998,5.9581307]}}
{"name":"Monaragala","other_names":{"name:en":"Monaragala","name:fr":"Moneragala","name:ja":"モナラーガラ","name:kn":"ಮೊನರಗಲ","name:ml":"മൊണരാഗല","name:ru":"Монерагала","name:si":"මොනරාගල","name:ta":"மொணராகலை","name:zh-Hans":"莫讷勒格勒","name:zh-Hant":"莫訥勒格勒"},"display_name":"Monaragala, Monaragala District, Uva Province, 91000, Sri Lanka","address":{"city":"Monaragala","state_district":"Monaragala District","ISO3166-2-lvl5":"LK-82","state":"Uva Province","ISO3166-2-lvl4":"LK-8","postcode":"91000","country":"Sri Lanka","country_code":"lk"},"population":110000,"osm_type":"node","osm_id":1135433343,"type":"city","location":[81.3507069,6.8725497],"bbox":[81.1907069,6.7125497,81.5107069,7.0325497]}
{"name":"Moratuwa","other_names":{"name:en":"Moratuwa","name:fr":"Moratuwa","name:ja":"モラトゥワ","name:ml":"മൊറട്ടുവ","name:ru":"Моратува","name:si":"මොරටුව","name:ta":"மொறட்டுவை","name:zh-Hans":"莫勒图沃","name:zh-Hant":"莫拉圖瓦"},"display_name":"Moratuwa, Colombo District, Western Province, 10400, Sri Lanka","address":{"city":"Moratuwa","state_district":"Colombo District","ISO3166-2-lvl5":"LK-11","state":"Western Province","ISO3166-2-lvl4":"LK-1","postcode":"10400","country":"Sri Lanka","country_code":"lk"},"population":207000,"osm_type":"node","osm_id":61557398,"type":"city","location":[79.8826095,6.7746821],"bbox":[79.7226095,6.6146821,80.0426095,6.9346821]}
{"name":"Mullaitivu","other_names":{"name:bn":"মুল্লাইতিভু","name:en":"Mullaitivu","name:fr":"Mullaitivu","name:hi":"मुल्लैतिवु","name:kn":"ಮುಲ್ಲೈತಿವು","name:ml":"മുല്ലത്തീവ്","name:mr":"मुल्लैतिवु","name:ru":"Муллативу","name:si":"මුලතිවු","name:ta":"முல்லைத்தீவு","name:zh-Hans":"穆莱蒂武","name:zh-Hant":"穆萊蒂武"},"display_name":"Mullaitivu, Mullaitivu District, Northern Province, 42600, Sri Lanka","address":{"city":"Mullaitivu","state_district":"Mullaitivu District","ISO3166-2-lvl5":"LK-45","state":"Northern Province","ISO3166-2-lvl4":"LK-4","postcode":"42600","country":"Sri Lanka","country_code":"lk"},"population":100000,"osm_type":"node","osm_id":633759246,"type":"city","location":[80.8145347,9.2698532],"bbox":[80.6545347,9.1098532,80.9745347,9.4298532]}
{"name":"Negombo","other_names":{"name:bn":"নেগোম্বো","name:de":"Negombo","name:en":"Negombo","name:fr":"Negombo","name:ja":"ニゴンボ","name:kn":"ನೆಗೊಂಬೊ","name:ml":"നെഗൊമ്പോ","name:ru":"Негомбо","name:si":"මීගමුව","name:ta":"நீர்கொழும்பு","name:zh-Hans":"尼甘布","name:zh-Hant":"內貢博"},"display_name":"Negombo, Gampaha District, Western Province, 11500, Sri Lanka","address":{"city":"Negombo","state_district":"Gampaha District","ISO3166-2-lvl5":"LK-12","state":"Western Province","ISO3166-2-lvl4":"LK-1","postcode":"11500","country":"Sri Lanka","country_code":"lk"},"population":142449,"osm_type":"node","osm_id":2064194449,"type":"city","location":[79.833117,7.2094282],"bbox":[79.673117,7.0494282,79.993117,7.3694282]}
{"name":"Nuwara Eliya","other_names":{"name:en":"Nuwara Eliya","name:fr":"Nuwara Eliya","name:hi":"नुवारा एलिया","name:ja":"ヌワラ・エリヤ","name:kn":"ನಾವರ ಎಲಿಯ","name:ml":"നുവാര ഏലിയ","name:ru":"Нувара-Элия","name:si":"නුවරඑළිය","name:ta":"நுவரெலியா","name:zh-Hans":"努沃勒埃利耶","name:zh-Hant":"奴瓦拉埃利雅"},"display_name":"Nuwara Eliya, Nuwara Eliya District, Central Province, 22200, Sri Lanka","address":{"city":"Nuwara Eliya","state_district":"Nuwara Eliya District","ISO3166-2-lvl5":"LK-23","state":"Central Province","ISO3166-2-lvl4":"LK-2","postcode":"22200","country":"Sri Lanka","country_code":"lk"},"population":27500,"osm_type":"node","osm_id":44240758,"type":"city","location":[80.767127,6.9738863],"bbox":[80.607127,6.8138863,80.927127,7.1338863]}
{"name":"Polonnaruwa","other_names":{"name:en":"Polonnaruwa","name:fr":"Polonnaruwa","name:ja":"ポロンナルワ","name:kn":"ಪೊಲೊನ್ನರುವ","name:ml":"പൊളന്നറുവ","name:si":"පොළොන්නරුව","name:ta":"பொலன்னறுவை","alt_name":"Polonaruwa","name:zh-Hans":"波隆纳鲁沃","name:zh-Hant":"波倫納路瓦"},"display_name":"Polonnaruwa, Polonnaruwa District, North Central Province, 51000, Sri Lanka","address":{"city":"Polonnaruwa","state_district":"Polonnaruwa District","ISO3166-2-lvl5":"LK-72","state":"North Central Province","ISO3166-2-lvl4":"LK-7","postcode":"51000","country":"Sri Lanka","country_code":"lk"},"population":15000,"osm_type":"node","osm_id":258523517,"type":"city","location":[81.0003387,7.9395357],"bbox":[80.8403387,7.7795357,81.1603387,8.0995357]}
{"name":"Puttalam","other_names":{"name:bn":"পুত্তালাম","name:en":"Puttalam","name:fr":"Puttalam","name:ja":"プッタラム","name:kn":"ಪುತ್ತಲಂ","name:ml":"പുത്തളം","name:ru":"Путталам","name:si":"පුත්තලම","name:ta":"புத்தளம்","name:zh-Hans":"普塔勒姆","name:zh-Hant":"普塔藍"},"display_name":"Puttalam, Puttalam District, North Western Province, Sri Lanka","address":{"city":"Puttalam","state_district":"Puttalam District","ISO3166-2-lvl5":"LK-62","state":"North Western Province","ISO3166-2-lvl4":"LK-6","country":"Sri Lanka","country_code":"lk"},"population":45400,"osm_type":"node","osm_id":330173100,"type":"city","location":[79.8286583,8.0301856],"bbox":[79.6686583,7.8701856,79.9886583,8.1901856]}
{"name":"Ratnapura","other_names":{"name:bn":"রত্নপুরা","name:en":"Ratnapura","name:fr":"Ratnapura","name:hi":"रत्नापुर","name:ja":"ラトゥナプラ","name:kn":"ರತ್ನಪುರ","name:ml":"രത്നപുര","name:ru":"Ратнапура","name:si":"රත්නපුර","name:ta":"இரத்தினபுரி","name:zh-Hans":"拉特纳普勒","name:zh-Hant":"拉特納普勒","alt_name:zh-Hans":"宝石城"},"display_name":"Ratnapura, Ratnapura District, Sabaragamuwa Province, 70000, Sri Lanka","address":{"city":"Ratnapura","state_district":"Ratnapura District","ISO3166-2-lvl5":"LK-91","state":"Sabaragamuwa Province","ISO3166-2-lvl4":"LK-9","postcode":"70000","country":"Sri Lanka","country_code":"lk"},"population":52100,"osm_type":"node","osm_id":637897018,"type":"city","location":[80.4022975,6.6803691],"bbox":[80.2422975,6.5203691,80.5622975,6.8403691]}
{"name":"Sri Jayawardenepura Kotte","other_names":{"name:ar":"سري جاياواردنابورا كوتي","name:ca":"Sri Jayewardenepura Kotte","name:cs":"Šrí Džajavardanapura Kotte","name:de":"Sri Jayewardenepura Kotte","name:en":"Sri Jayawardenepura Kotte","name:fr":"Sri Jayawardenapura Kotte","name:he":"סרי ג'איווארדנפורה קוטה","name:hi":"श्री जयवर्धनेपुरा कोट्टे","name:hu":"Sri Jayawardenapura Kotte","name:ja":"スリジャヤワルダナプラコッテ","name:kn":"ಶ್ರೀ ಜಯವರ್ದೆನಪುರ ಕೊಟ್ಟೆ","name:ko":"스리자야와르데네푸라코테","name:ml":"ശ്രീ ജയവർദനെപുരെ കോട്ടെ","name:pl":"Sri Dźajawardanapura Kotte","name:ru":"Шри-Джаяварденепура-Котте","name:si":"ශ්‍රී ජයවර්ධනපුර කෝට්ටේ","name:sr":"Сри Џајаварденепура Коте","name:ta":"ஶ்ரீ ஜெயவர்த்தனபுர கோட்டை","name:uk":"Шрі-Джаяварденепура-Котте","name:ur":"سری جے وردھنے پورا کوٹے","alt_name":"Kotte","alt_name:ca":"Kotte","name:zh-Hans":"斯里贾耶瓦德内普拉科特","name:zh-Hant":"斯里賈亞瓦德納普拉科特"},"display_name":"Sri Jayawardenepura Kotte, Colombo District, Western Province, 23010, Sri Lanka","address":{"city":"Sri Jayawardenepura Kotte","state_district":"Colombo District","ISO3166-2-lvl5":"LK-11","state":"Western Province","ISO3166-2-lvl4":"LK-1","postcode":"23010","country":"Sri Lanka","country_code":"lk"},"population":115826,"osm_type":"node","osm_id":3275779630,"type":"city","location":[79.9187415,6.8883219],"bbox":[79.7587415,6.7283219,80.0787415,7.0483219]}
{"name":"Trincomalee","other_names":{"name:bn":"ত্রিঙ্কোমালি","name:en":"Trincomalee","name:fr":"Trinquemalay","name:he":"טרינקומלי","name:hi":"तिरुकोणमलै","name:ja":"トリンコマリー","name:kn":"ತಿರುಕೋಣಮಲೈ","name:ml":"തിരുക്കോണമല","name:ne":"तिरुकोणमलै","name:ru":"Тринкомали","name:si":"තිරිකුණාමළය","name:ta":"திருகோணமலை","name:uk":"Тринкомалі","name:alt":"Tirukonamalai","alt_name:uk":"Трінкомалі","name:zh-Hans":"亭可马里","name:zh-Hant":"亭可馬里"},"display_name":"Trincomalee, Trincomalee District, Eastern Province, 32100, Sri Lanka","address":{"city":"Trincomalee","state_district":"Trincomalee District","ISO3166-2-lvl5":"LK-53","state":"Eastern Province","ISO3166-2-lvl4":"LK-5","postcode":"32100","country":"Sri Lanka","country_code":"lk"},"population":99100,"osm_type":"node","osm_id":335253618,"type":"city","location":[81.2344952,8.576425],"bbox":[81.0744952,8.416425,81.3944952,8.736425]}
{"name":"Vavuniya","other_names":{"name:bn":"ভাভুনিয়া","name:en":"Vavuniya","name:fr":"Vavuniya","name:ja":"バブニヤ","name:kn":"ವವುನಿಯ","name:ml":"വവുനിയ","name:ru":"Вавуния","name:si":"වවුනියාව","name:ta":"வவுனியா","alt_name":"Vavuniya NP","name:zh-Hans":"瓦武尼亚","name:zh-Hant":"瓦武尼亞"},"display_name":"Vavuniya, Vavuniya District, Northern Province, 43000, Sri Lanka","address":{"city":"Vavuniya","state_district":"Vavuniya District","ISO3166-2-lvl5":"LK-44","state":"Northern Province","ISO3166-2-lvl4":"LK-4","postcode":"43000","country":"Sri Lanka","country_code":"lk"},"population":99600,"osm_type":"node","osm_id":634182147,"type":"city","location":[80.5000778,8.7593517],"bbox":[80.3400778,8.5993517,80.6600778,8.9193517]}
