{"name":"Banja Luka","other_names":{"name:ar":"بانيا لوكا","name:az":"Banya Luka","name:ba":"Баня-Лука","name:be":"Баня-Лука","name:bg":"Баня Лука","name:bs":"Banja Luka","name:cu":"Банꙗ Лоука","name:de":"Banja Luka","name:el":"Μπάνια Λούκα","name:en":"Banja Luka","name:es":"Bania Luka","name:fa":"بانیا لوکا","name:fr":"Banja Luka","name:he":"באניה לוקה","name:hr":"Banja Luka","name:hy":"Բանյա Լուկա","name:ja":"バニャ・ルカ","name:ka":"ბანია-ლუკა","name:ko":"바냐루카","name:la":"Bania Luca","name:lt":"Bania Luka","name:lv":"Baņa Luka","name:mk":"Бања Лука","name:ml":"ബാന്യ ലൂക്ക","name:mr":"बंजा लुका","name:os":"Баня-Лукæ","name:ru":"Баня-Лука","name:sl":"Banja Luka","name:sq":"Banja Lluka","name:sr":"Бања Лука","name:th":"บาญาลูกา","name:tr":"Banaluka","name:tt":"Баня-Лука","name:uk":"Баня-Лука","name:ur":"بانیا لوکا","name:uz":"Banya-luka","alt_name":"Banjaluka","int_name":"Banja Luka","name:myv":"Баня-Лука","name:pnb":"بانجا لوکا","name:sah":"Баня-Лука","name:wuu":"巴尼亚卢卡","name:yue":"巴尼亞盧卡","alt_name:fr":"Bagnaluc","alt_name:hu":"Orbászvár","alt_name:la":"Banialucum;Castra","alt_name:sr":"Бањалука","name:sr-Latn":"Banja Luka","name:zh-Hans":"巴尼亚卢卡","name:zh-Hant":"巴尼亞盧卡","alt_name:sr-Latn":"Banjaluka"},"display_name":"Banja Luka, Grad Banja Luka, Република Српска / Republika Srpska, Bosna i Hercegovina / Босна и Херцеговина","address":{"city":"Banja Luka","county":"Grad Banja Luka","state":"Република Српска / Republika Srpska","ISO3166-2-lvl4":"BA-SRP","country":"Bosna i Hercegovina / Босна и Херцеговина","country_code":"ba"},"population":138963,"osm_type":"node","osm_id":248407024,"type":"city","location":[17.1917651,44.7720845],"bbox":[17.0317651,44.6120845,17.3517651,44.9320845],"border":{"name":"Banja Luka","other_names":{"name:ar":"بانيا لوكا","name:bs":"Banja Luka","name:de":"Banja Luka","name:en":"Banja Luka","name:es":"Banja Luka","name:fr":"Banja Luka","name:hr":"Banja Luka","name:ko":"바냐루카","name:ml":"ബാന്യ ലൂക്ക","name:ru":"Баня-Лука","name:sl":"Banja Luka","name:sr":"Бањалука","name:zh":"巴尼亚卢卡","alt_name":"Banjaluka","alt_name:sr":"Бања Лука","name:sr-Latn":"Banjaluka","name:az":"Banya Luka","name:ba":"Баня-Лука","name:be":"Баня-Лука","name:bg":"Баня Лука","name:cu":"Банꙗ Лоука","name:el":"Μπάνια Λούκα","name:fa":"بانیا لوکا","name:he":"באניה לוקה","name:hy":"Բանյա Լուկա","name:ja":"バニャ・ルカ","name:ka":"ბანია-ლუკა","name:la":"Bania Luca","name:lt":"Bania Luka","name:lv":"Baņa Luka","name:mk":"Бања Лука","name:mr":"बंजा लुका","name:os":"Баня-Лукæ","name:sq":"Banja Lluka","name:th":"บาญาลูกา","name:tr":"Banaluka","name:tt":"Баня-Лука","name:uk":"Баня-Лука","name:ur":"بانیا لوکا","name:uz":"Banya-luka","int_name":"Banja Luka","name:myv":"Баня-Лука","name:pnb":"بانجا لوکا","name:sah":"Баня-Лука","name:wuu":"巴尼亚卢卡","name:yue":"巴尼亞盧卡","alt_name:sr-Latn":"Banja Luka","alt_name:fr":"Bagnaluc","alt_name:hu":"Orbászvár","alt_name:la":"Banialucum;Castra","_place_alt_name:sr":"Бањалука","name:zh-Hans":"巴尼亚卢卡","name:zh-Hant":"巴尼亞盧卡","_place_alt_name:sr-Latn":"Banjaluka","alt:es":"Bania Luka","alt:sr":"Бања Лука","alt:sr-Latn":"Banja Luka"},"display_name":"Banja Luka, Grad Banja Luka, Република Српска / Republika Srpska, Bosna i Hercegovina / Босна и Херцеговина","address":{"city":"Banja Luka","county":"Grad Banja Luka","state":"Република Српска / Republika Srpska","ISO3166-2-lvl4":"BA-SRP","country":"Bosna i Hercegovina / Босна и Херцеговина","country_code":"ba"},"population":138963,"osm_type":"relation","osm_id":9063920,"type":"administrative","location":[17.1917651,44.7720845],"bbox":[17.1090163,44.7171035,17.3030076,44.8401436]}}
{"name":"Bihać","other_names":{"name:ar":"بيخاتش","name:az":"Bixaç","name:be":"Біхач","name:bg":"Бихач","name:bs":"Bihać","name:el":"Μπίχατς","name:en":"Bihać","name:fa":"بیهاچ","name:he":"ביחאץ'","name:hr":"Bihać","name:hu":"Bihács","name:hy":"Բիհաչ","name:ja":"ビハチ","name:ko":"비하치","name:la":"Bihacium","name:lt":"Bichačas","name:lv":"Bihača","name:mk":"Бихаќ","name:ml":"ബിഹാച്ച്","name:ru":"Бихач","name:sq":"Bihaqi","name:sr":"Бихаћ","name:th":"บิคาช","name:tr":"Bihaç","name:tt":"Бихач","name:uk":"Бихач","name:ur":"بیخاچ","name:zh":"比哈奇","name:pnb":"بیہاج","name:wuu":"比哈奇","alt_name:la":"Raetinium;Bihachium;Bihacsium;Bihaczinum;Wihiza","alt_name:sq":"Bihaçi","alt_name:tr":"Bihke","name:sr-Latn":"Bihać"},"display_name":"Bihać, Grad Bihać, Unsko-sanski kanton, Federacija Bosne i Hercegovine, Bosna i Hercegovina / Босна и Херцеговина","address":{"city":"Bihać","county":"Grad Bihać","state_district":"Unsko-sanski kanton","state":"Federacija Bosne i Hercegovine","ISO3166-2-lvl4":"BA-BIH","country":"Bosna i Hercegovina / Босна и Херцеговина","country_code":"ba"},"population":39690,"osm_type":"node","osm_id":1596886537,"type":"city","location":[15.86896,44.8146563],"bbox":[15.70896,44.6546563,16.02896,44.9746563],"border":{"name":"Bihać","other_names":{"name:bs":"Bihać","name:en":"Bihać","name:hr":"Bihać","name:hu":"Bihács","name:ru":"Бихач","name:sr":"Бихаћ","name:tr":"Bihaç","name:sr-Latn":"Bihać","name:ar":"بيخاتش","name:az":"Bixaç","name:be":"Біхач","name:bg":"Бихач","name:el":"Μπίχατς","name:fa":"بیهاچ","name:he":"ביחאץ'","name:hy":"Բիհաչ","name:ja":"ビハチ","name:ko":"비하치","name:la":"Bihacium","name:lt":"Bichačas","name:lv":"Bihača","name:mk":"Бихаќ","name:ml":"ബിഹാച്ച്","name:sq":"Bihaqi","name:th":"บิคาช","name:tt":"Бихач","name:uk":"Бихач","name:ur":"بیخاچ","name:zh":"比哈奇","name:pnb":"بیہاج","name:wuu":"比哈奇","alt_name:la":"Raetinium;Bihachium;Bihacsium;Bihaczinum;Wihiza","alt_name:sq":"Bihaçi","alt_name:tr":"Bihke"},"display_name":"Bihać, Grad Bihać, Unsko-sanski kanton, Federacija Bosne i Hercegovine, Bosna i Hercegovina / Босна и Херцеговина","address":{"city":"Bihać","county":"Grad Bihać","state_district":"Unsko-sanski kanton","state":"Federacija Bosne i Hercegovine","ISO3166-2-lvl4":"BA-BIH","country":"Bosna i Hercegovina / Босна и Херцеговина","country_code":"ba"},"population":39690,"osm_type":"relation","osm_id":13473176,"type":"administrative","location":[15.86896,44.8146563],"bbox":[15.8067803,44.7494161,15.9602741,44.8701451]}}
{"name":"Bijeljina","other_names":{"name:ar":"بيلينا","name:az":"Biyelina","name:ba":"Биелина","name:be":"Біеліна","name:bg":"Биелина","name:bs":"Bijeljina","name:el":"Μπιέλινα","name:en":"Bijeljina","name:fa":"بیه‌لینا","name:he":"ביילינה","name:hr":"Bijeljina","name:hy":"Բիելինա","name:ja":"ビイェリナ","name:ka":"ბიელინა","name:ko":"비옐리나","name:la":"Belina","name:lt":"Bijelina","name:lv":"Bijeļina","name:mk":"Бијељина","name:ml":"ബിയേലിന","name:ru":"Биелина","name:sq":"Bijelina","name:sr":"Бијељина","name:tr":"Biyelina","name:tt":"Биелина","name:uk":"Бієліна","name:ur":"بیےلینا","name:pnb":"بجلجینا","name:wuu":"比耶利纳","name:yue":"比耶利納","alt_name:el":"Μπιγιέλινα","alt_name:la":"Bilina","alt_name:tr":"Belene","old_name:de":"Bieglin","name:sr-Latn":"Bijeljina","name:zh-Hans":"比耶利纳","name:zh-Hant":"比耶利納"},"display_name":"Bijeljina, Grad Bijeljina, Република Српска / Republika Srpska, Bosna i Hercegovina / Босна и Херцеговина","address":{"city":"Bijeljina","county":"Grad Bijeljina","state":"Република Српска / Republika Srpska","ISO3166-2-lvl4":"BA-SRP","country":"Bosna i Hercegovina / Босна и Херцеговина","country_code":"ba"},"population":42278,"osm_type":"node","osm_id":254035698,"type":"city","location":[19.2156628,44.7568464],"bbox":[19.0556628,44.5968464,19.3756628,44.9168464],"border":{"name":"Bijeljina","other_names":{"name:ar":"بيلينا","name:az":"Biyelina","name:ba":"Биелина","name:be":"Біеліна","name:bg":"Биелина","name:bs":"Bijeljina","name:el":"Μπιέλινα","name:en":"Bijeljina","name:he":"ביילינה","name:hr":"Bijeljina","name:hy":"Բիելինա","name:ja":"ビイェリナ","name:ka":"ბიელინა","name:ko":"비옐리나","name:la":"Belina","name:lt":"Bijelina","name:lv":"Bijeļina","name:mk":"Бијељина","name:ru":"Биелина","name:sq":"Bijelina","name:sr":"Бијељина","name:tr":"Biyelina","name:tt":"Биелина","name:uk":"Бієліна","name:ur":"بیےلینا","alt_name:el":"Μπιγιέλινα","alt_name:la":"Bilina","alt_name:tr":"Belene","old_name:de":"Bieglin","name:sr-Latn":"Bijeljina","name:zh-Hans":"比耶利纳","name:zh-Hant":"比耶利納","name:fa":"بیه‌لینا","name:ml":"ബിയേലിന","name:pnb":"بجلجینا","name:wuu":"比耶利纳","name:yue":"比耶利納"},"display_name":"Bijeljina, Grad Bijeljina, Република Српска / Republika Srpska, 76300, Bosna i Hercegovina / Босна и Херцеговина","address":{"city":"Bijeljina","county":"Grad Bijeljina","state":"Република Српска / Republika Srpska","ISO3166-2-lvl4":"BA-SRP","postcode":"76300","country":"Bosna i Hercegovina / Босна и Херцеговина","country_code":"ba"},"population":42278,"osm_type":"relation","osm_id":14508586,"type":"administrative","location":[19.2156628,44.7568464],"bbox":[19.1594374,44.7259501,19.2502624,44.7952135]}}
{"name":"Brčko","other_names":{"name:ar":"برتشكو","name:bg":"Бръчко","name:bs":"Brčko","name:de":"Brčko","name:el":"Μπρτσκο","name:fa":"برچکو","name:he":"ברצ'קו","name:hr":"Brčko","name:hu":"Brčko","name:hy":"Բրչկո","name:ja":"ブルチコ","name:ko":"브르치코","name:la":"Breucus","name:lt":"Brčkas","name:mk":"Брчко","name:ml":"ബ്രച്ച്കോ","name:pl":"Brczko","name:ru":"Брчко","name:sq":"Bërçka","name:sr":"Брчко","name:th":"เบิร์ชกอ","name:tt":"Брчко","name:uk":"Брчко","name:ur":"برچکو","name:pnb":"برکو","alt_name:de":"Bertschko;Bartschka","alt_name:tr":"Berçka;Breçka","name:sr-Latn":"Brčko","name:zh-Hans":"布尔奇科","name:zh-Hant":"布爾奇科"},"display_name":"Brčko, Brčko distrikt, Bosna i Hercegovina / Босна и Херцеговина","address":{"city":"Brčko","state":"Brčko distrikt","ISO3166-2-lvl4":"BA-BRC","country":"Bosna i Hercegovina / Босна и Херцеговина","country_code":"ba"},"population":39893,"osm_type":"node","osm_id":254397489,"type":"city","location":[18.8095022,44.8771222],"bbox":[18.6495022,44.7171222,18.9695022,45.0371222],"border":{"name":"Brčko","other_names":{"name:bs":"Brčko","name:de":"Brčko","name:he":"ברצ'קו","name:hr":"Brčko","name:hu":"Brčko","name:ml":"ബ്രച്ച്കോ","name:pl":"Brczko","name:ru":"Брчко","name:sr":"Брчко","name:uk":"Брчко","name:ar":"برتشكو","name:bg":"Бръчко","name:el":"Μπρτσκο","name:fa":"برچکو","name:hy":"Բրչկո","name:ja":"ブルチコ","name:ko":"브르치코","name:la":"Breucus","name:lt":"Brčkas","name:mk":"Брчко","name:sq":"Bërçka","name:th":"เบิร์ชกอ","name:tt":"Брчко","name:ur":"برچکو","name:pnb":"برکو","alt_name:de":"Bertschko;Bartschka","alt_name:tr":"Berçka;Breçka","name:sr-Latn":"Brčko","name:zh-Hans":"布尔奇科","name:zh-Hant":"布爾奇科"},"display_name":"Brčko, Brčko distrikt, Bosna i Hercegovina / Босна и Херцеговина","address":{"city":"Brčko","state":"Brčko distrikt","ISO3166-2-lvl4":"BA-BRC","country":"Bosna i Hercegovina / Босна и Херцеговина","country_code":"ba"},"population":39893,"osm_type":"relation","osm_id":14646171,"type":"administrative","location":[18.8095022,44.8771222],"bbox":[18.7559581,44.8410818,18.8609461,44.8984735]}}
{"name":"Doboj","other_names":{"name:ar":"دوبوي","name:az":"Doboy","name:be":"Добай","name:bg":"Добой","name:bs":"Doboj","name:de":"Doboj","name:el":"Ντόμποϊ","name:en":"Doboj","name:es":"Doboj","name:fa":"دوبوی","name:fr":"Doboj","name:he":"דובוי","name:hr":"Doboj","name:hy":"Դոբոյ","name:ja":"ドボイ","name:ko":"도보이","name:la":"Canabea","name:lt":"Dobojus","name:lv":"Doboja","name:mk":"Добој","name:ml":"ഡോബോയ്","name:ru":"Добой","name:sq":"Doboji","name:sr":"Добој","name:tr":"Doboy","name:tt":"Добой","name:uk":"Добой","name:ur":"دوبوی","name:zh":"多博伊","name:myv":"Добой","name:pnb":"دوبوج","alt_name:tr":"Doboya","old_name:de":"Doblitz","name:sr-Latn":"Doboj"},"display_name":"Doboj, Grad Doboj, Република Српска / Republika Srpska, Bosna i Hercegovina / Босна и Херцеговина","address":{"city":"Doboj","county":"Grad Doboj","state":"Република Српска / Republika Srpska","ISO3166-2-lvl4":"BA-SRP","country":"Bosna i Hercegovina / Босна и Херцеговина","country_code":"ba"},"population":25132,"osm_type":"node","osm_id":251913823,"type":"city","location":[18.0847183,44.7313612],"bbox":[17.9247183,44.5713612,18.2447183,44.8913612],"border":{"name":"Doboj","other_names":{"name:ar":"دوبوي","name:bs":"Doboj","name:de":"Doboj","name:en":"Doboj","name:es":"Doboj","name:fr":"Doboj","name:hr":"Doboj","name:lt":"Dobojus","name:ru":"Добой","name:sr":"Добој","name:uk":"Добой","old_name:de":"Doblitz","name:sr-Latn":"Doboj","name:az":"Doboy","name:be":"Добай","name:bg":"Добой","name:el":"Ντόμποϊ","name:fa":"دوبوی","name:he":"דובוי","name:hy":"Դոբոյ","name:ja":"ドボイ","name:ko":"도보이","name:la":"Canabea","name:lv":"Doboja","name:mk":"Добој","name:ml":"ഡോബോയ്","name:sq":"Doboji","name:tr":"Doboy","name:tt":"Добой","name:ur":"دوبوی","name:zh":"多博伊","name:myv":"Добой","name:pnb":"دوبوج","alt_name:tr":"Doboya"},"display_name":"Doboj, Grad Doboj, Република Српска / Republika Srpska, 74000, Bosna i Hercegovina / Босна и Херцеговина","address":{"city":"Doboj","county":"Grad Doboj","state":"Република Српска / Republika Srpska","ISO3166-2-lvl4":"BA-SRP","postcode":"74000","country":"Bosna i Hercegovina / Босна и Херцеговина","country_code":"ba"},"population":25132,"osm_type":"relation","osm_id":14590271,"type":"administrative","location":[18.0847183,44.7313612],"bbox":[18.0587768,44.7086403,18.1136441,44.7603865]}}
{"name":"Mostar","other_names":{"name:ar":"موستار","name:az":"Mostar","name:be":"Мостар","name:bg":"Мостар","name:bs":"Mostar","name:cs":"Mostar","name:de":"Mostar","name:el":"Μόσταρ","name:es":"Mostar","name:eu":"Mostar","name:fa":"موستار","name:fi":"Mostar","name:fr":"Mostar","name:ga":"Mostar","name:he":"מוסטאר","name:hr":"Mostar","name:hu":"Mostar","name:hy":"Մոստար","name:is":"Mostar","name:it":"Mostar","name:ja":"モスタル","name:ka":"მოსტარი","name:kk":"Мостар","name:ko":"모스타르","name:la":"Mostarum","name:lt":"Mostaras","name:lv":"Mostara","name:mk":"Мостар","name:ml":"മോസ്താർ","name:nl":"Mostar","name:no":"Mostar","name:os":"Мостар","name:pl":"Mostar","name:pt":"Mostar","name:ro":"Mostar","name:ru":"Мостар","name:se":"Mostar","name:sh":"Mostar","name:sk":"Mostar","name:sl":"Mostar","name:sq":"Mostari","name:sr":"Мостар","name:sv":"Mostar","name:sw":"Mostar","name:th":"ม็อสตาร์","name:tr":"Mostar","name:tt":"Мостар","name:uk":"Мостар","name:ur":"موستار","int_name":"Mostar","name:pnb":"موستار","name:sah":"Мостар","name:wuu":"莫斯塔尔","name:yue":"莫斯塔爾","alt_name:la":"Martarita","alt_name:tr":"Köprü Hisarı","old_name:tr":"Köprü Hisar","name:sr-Latn":"Mostar","name:zh-Hans":"莫斯塔尔","name:zh-Hant":"莫斯塔爾"},"display_name":"Mostar, MZ Centar II, Grad Mostar, Hercegovačko-neretvanska županija (kanton), Federacija Bosne i Hercegovine, Bosna i Hercegovina / Босна и Херцеговина","address":{"city":"Mostar","county":"Grad Mostar","state_district":"Hercegovačko-neretvanska županija (kanton)","state":"Federacija Bosne i Hercegovine","ISO3166-2-lvl4":"BA-BIH","country":"Bosna i Hercegovina / Босна и Херцеговина","country_code":"ba"},"population":60195,"osm_type":"node","osm_id":5715309398,"type":"city","location":[17.8076584,43.3435855],"bbox":[17.6476584,43.1835855,17.9676584,43.5035855],"border":[{"name":"Grad Mostar","other_names":{"name:bs":"Grad Mostar","name:de":"Stadt Mostar","name:en":"City of Mostar","name:fr":"Ville de Mostar","name:hr":"Grad Mostar","name:ru":"Мостар","name:sr":"Мостар"},"display_name":"Grad Mostar, Hercegovačko-neretvanska županija (kanton), Federacija Bosne i Hercegovine, Bosna i Hercegovina / Босна и Херцеговина","address":{"county":"Grad Mostar","state_district":"Hercegovačko-neretvanska županija (kanton)","state":"Federacija Bosne i Hercegovine","ISO3166-2-lvl4":"BA-BIH","country":"Bosna i Hercegovina / Босна и Херцеговина","country_code":"ba"},"osm_type":"relation","osm_id":2528234,"type":"administrative","location":[17.844577920923665,43.401178849999994],"bbox":[17.4914331,43.1663825,18.0371055,43.6355145]},{"name":"Mostar","other_names":{"name:ar":"موستار","name:az":"Mostar","name:be":"Мостар","name:bg":"Мостар","name:bs":"Mostar","name:cs":"Mostar","name:de":"Mostar","name:el":"Μόσταρ","name:es":"Mostar","name:fi":"Mostar","name:fr":"Mostar","name:ga":"Mostar","name:he":"מוסטר","name:hr":"Mostar","name:hu":"Mostar","name:hy":"Մոստար","name:is":"Mostar","name:it":"Mostar","name:ka":"მოსტარი","name:kk":"Мостар","name:la":"Mandetrium","name:mk":"Мостар","name:ml":"മോസ്താർ","name:nl":"Mostar","name:no":"Mostar","name:pl":"Mostar","name:pt":"Mostar","name:ro":"Mostar","name:ru":"Мостар","name:se":"Mostar","name:sh":"Mostar","name:sk":"Mostar","name:sl":"Mostar","name:sq":"Mostar","name:sr":"Мостар","name:sv":"Mostar","name:sw":"Mostar","name:tr":"Mostar","name:uk":"Мостар","name:zh":"莫斯塔尔","name:sr-Latn":"Mostar","name:eu":"Mostar","name:fa":"موستار","name:ja":"モスタル","name:ko":"모스타르","name:lt":"Mostaras","name:lv":"Mostara","name:os":"Мостар","name:th":"ม็อสตาร์","name:tt":"Мостар","name:ur":"موستار","int_name":"Mostar","name:pnb":"موستار","name:sah":"Мостар","name:wuu":"莫斯塔尔","name:yue":"莫斯塔爾","alt_name:la":"Martarita","alt_name:tr":"Köprü Hisarı","old_name:tr":"Köprü Hisar","name:zh-Hans":"莫斯塔尔","name:zh-Hant":"莫斯塔爾","alt:he":"מוסטאר","alt:la":"Mostarum","alt:sq":"Mostari"},"display_name":"Mostar, MZ Centar II, Grad Mostar, Hercegovačko-neretvanska županija (kanton), Federacija Bosne i Hercegovine, Bosna i Hercegovina / Босна и Херцеговина","address":{"city":"Mostar","county":"Grad Mostar","state_district":"Hercegovačko-neretvanska županija (kanton)","state":"Federacija Bosne i Hercegovine","ISO3166-2-lvl4":"BA-BIH","country":"Bosna i Hercegovina / Босна и Херцеговина","country_code":"ba"},"population":60195,"osm_type":"relation","osm_id":8480923,"type":"administrative","location":[17.8076584,43.3435855],"bbox":[17.7789661,43.3111155,17.8379104,43.3677479]}]}
{"name":"MZ Avenija Kralja Tomislava","other_names":{"name:de":"Ortsgemeinschaft Avenija Kralja Tomislava","name:en":"Local community Avenija Kralja Tomislava","name:hr":"Mjesna zajednica Avenija Kralja Tomislava"},"display_name":"MZ Avenija Kralja Tomislava, Grad Mostar, Hercegovačko-neretvanska županija (kanton), Federacija Bosne i Hercegovine, 88000, Bosna i Hercegovina / Босна и Херцеговина","address":{"city":"MZ Avenija Kralja Tomislava","county":"Grad Mostar","state_district":"Hercegovačko-neretvanska županija (kanton)","state":"Federacija Bosne i Hercegovine","ISO3166-2-lvl4":"BA-BIH","postcode":"88000","country":"Bosna i Hercegovina / Босна и Херцеговина","country_code":"ba"},"osm_type":"relation","osm_id":11170608,"type":"administrative","location":[17.79965095977557,43.346110249999995],"bbox":[17.7939959,43.3398662,17.8088088,43.3523469],"inferred_type":"city"}
{"name":"MZ Bačevići","other_names":{"name:de":"Ortsgemeinschaft Bačevići","name:en":"Local community Bačevići","name:hr":"Mjesna zajednica Bačevići"},"display_name":"MZ Bačevići, Grad Mostar, Hercegovačko-neretvanska županija (kanton), Federacija Bosne i Hercegovine, Bosna i Hercegovina / Босна и Херцеговина","address":{"city":"MZ Bačevići","county":"Grad Mostar","state_district":"Hercegovačko-neretvanska županija (kanton)","state":"Federacija Bosne i Hercegovine","ISO3166-2-lvl4":"BA-BIH","country":"Bosna i Hercegovina / Босна и Херцеговина","country_code":"ba"},"population":492,"osm_type":"relation","osm_id":12988886,"type":"administrative","location":[17.813193645530163,43.2616678],"bbox":[17.7978263,43.2354734,17.8336,43.2879143],"inferred_type":"city"}
{"name":"MZ Bijeli brijeg I","other_names":{"name:de":"Ortsgemeinschaft Bijeli brijeg I","name:en":"Local community Bijeli brijeg I","name:hr":"Mjesna zajednica Bijeli brijeg I"},"display_name":"MZ Bijeli brijeg I, Grad Mostar, Hercegovačko-neretvanska županija (kanton), Federacija Bosne i Hercegovine, Bosna i Hercegovina / Босна и Херцеговина","address":{"city":"MZ Bijeli brijeg I","county":"Grad Mostar","state_district":"Hercegovačko-neretvanska županija (kanton)","state":"Federacija Bosne i Hercegovine","ISO3166-2-lvl4":"BA-BIH","country":"Bosna i Hercegovina / Босна и Херцеговина","country_code":"ba"},"osm_type":"relation","osm_id":11170605,"type":"administrative","location":[17.79619154605907,43.34939425],"bbox":[17.7912774,43.3463933,17.8003391,43.3525084],"inferred_type":"city"}
{"name":"MZ Bijeli brijeg II","other_names":{"name:de":"Ortsgemeinschaft Bijeli brijeg II","name:en":"Local community Bijeli brijeg II","name:hr":"Mjesna zajednica Bijeli brijeg II"},"display_name":"MZ Bijeli brijeg II, Grad Mostar, Hercegovačko-neretvanska županija (kanton), Federacija Bosne i Hercegovine, Bosna i Hercegovina / Босна и Херцеговина","address":{"city":"MZ Bijeli brijeg II","county":"Grad Mostar","state_district":"Hercegovačko-neretvanska županija (kanton)","state":"Federacija Bosne i Hercegovine","ISO3166-2-lvl4":"BA-BIH","country":"Bosna i Hercegovina / Босна и Херцеговина","country_code":"ba"},"osm_type":"relation","osm_id":11170604,"type":"administrative","location":[17.790240824959938,43.345718250000004],"bbox":[17.7850344,43.3405395,17.7954014,43.3509663],"inferred_type":"city"}
{"name":"MZ Bišćani","other_names":{"name:sr":"МЗ Бишћани"},"display_name":"MZ Bišćani, Grad Prijedor, Република Српска / Republika Srpska, Bosna i Hercegovina / Босна и Херцеговина","address":{"city":"MZ Bišćani","county":"Grad Prijedor","state":"Република Српска / Republika Srpska","ISO3166-2-lvl4":"BA-SRP","country":"Bosna i Hercegovina / Босна и Херцеговина","country_code":"ba"},"osm_type":"relation","osm_id":5742112,"type":"administrative","location":[16.65761210385294,44.98991035],"bbox":[16.6329486,44.9793874,16.6802871,45.0002779],"inferred_type":"city"}
{"name":"MZ Bistrica","other_names":{"name:sr":"МЗ Бистрица"},"display_name":"MZ Bistrica, Grad Prijedor, Република Српска / Republika Srpska, Bosna i Hercegovina / Босна и Херцеговина","address":{"city":"MZ Bistrica","county":"Grad Prijedor","state":"Република Српска / Republika Srpska","ISO3166-2-lvl4":"BA-SRP","country":"Bosna i Hercegovina / Босна и Херцеговина","country_code":"ba"},"osm_type":"relation","osm_id":5744418,"type":"administrative","location":[16.988486466995667,44.9572505],"bbox":[16.9319958,44.9041471,17.0234175,45.0103863],"inferred_type":"city"}
{"name":"MZ Bjelimići","other_names":{"name:bs":"MZ Bjelimići","name:hr":"MZ Bjelimići","name:sr":"МЗ Бјелимићи"},"display_name":"MZ Bjelimići, Grad Konjic, Hercegovačko-neretvanska županija (kanton), Federacija Bosne i Hercegovine, 88407, Bosna i Hercegovina / Босна и Херцеговина","address":{"city":"MZ Bjelimići","county":"Grad Konjic","state_district":"Hercegovačko-neretvanska županija (kanton)","state":"Federacija Bosne i Hercegovine","ISO3166-2-lvl4":"BA-BIH","postcode":"88407","country":"Bosna i Hercegovina / Босна и Херцеговина","country_code":"ba"},"osm_type":"relation","osm_id":11384151,"type":"administrative","location":[18.255376379376603,43.5511764],"bbox":[18.1520426,43.4684886,18.3859268,43.6340174],"inferred_type":"city"}
{"name":"MZ Bogodol","other_names":{"name:de":"Ortsgemeinschaft Bogodol","name:en":"Local community Bogodol","name:hr":"Mjesna zajednica Bogodol"},"display_name":"MZ Bogodol, Grad Mostar, Hercegovačko-neretvanska županija (kanton), Federacija Bosne i Hercegovine, Bosna i Hercegovina / Босна и Херцеговина","address":{"city":"MZ Bogodol","county":"Grad Mostar","state_district":"Hercegovačko-neretvanska županija (kanton)","state":"Federacija Bosne i Hercegovine","ISO3166-2-lvl4":"BA-BIH","country":"Bosna i Hercegovina / Босна и Херцеговина","country_code":"ba"},"osm_type":"relation","osm_id":11180994,"type":"administrative","location":[17.650917735401357,43.4704794],"bbox":[17.5594063,43.4265998,17.6945436,43.5150936],"inferred_type":"city"}
{"name":"MZ Božići","other_names":{"name:sr":"МЗ Божићи"},"display_name":"MZ Božići, Grad Prijedor, Република Српска / Republika Srpska, Bosna i Hercegovina / Босна и Херцеговина","address":{"city":"MZ Božići","county":"Grad Prijedor","state":"Република Српска / Republika Srpska","ISO3166-2-lvl4":"BA-SRP","country":"Bosna i Hercegovina / Босна и Херцеговина","country_code":"ba"},"osm_type":"relation","osm_id":5738322,"type":"administrative","location":[16.781886362562688,45.024721299999996],"bbox":[16.7519908,44.9924304,16.830722,45.0570473],"inferred_type":"city"}
{"name":"MZ Brezičani","other_names":{"name:sr":"МЗ Брезичани"},"display_name":"MZ Brezičani, Grad Prijedor, Република Српска / Republika Srpska, Bosna i Hercegovina / Босна и Херцеговина","address":{"city":"MZ Brezičani","county":"Grad Prijedor","state":"Република Српска / Republika Srpska","ISO3166-2-lvl4":"BA-SRP","country":"Bosna i Hercegovina / Босна и Херцеговина","country_code":"ba"},"osm_type":"relation","osm_id":5736523,"type":"administrative","location":[16.66699910316395,45.019532749999996],"bbox":[16.6321464,44.996863,16.7011136,45.0423114],"inferred_type":"city"}
{"name":"MZ Bulozi","other_names":{"name:sr":"МЗ Булози","name:sr-Latn":"MZ Bulozi"},"display_name":"MZ Bulozi, Општина Источни Стари Град / Opština Istočni Stari Grad, Град Источно Сарајево / Grad Istočno Sarajevo, Република Српска / Republika Srpska, Bosna i Hercegovina / Босна и Херцеговина","address":{"city":"MZ Bulozi","municipality":"Општина Источни Стари Град / Opština Istočni Stari Grad","county":"Град Источно Сарајево / Grad Istočno Sarajevo","state":"Република Српска / Republika Srpska","ISO3166-2-lvl4":"BA-SRP","country":"Bosna i Hercegovina / Босна и Херцеговина","country_code":"ba"},"osm_type":"relation","osm_id":5964497,"type":"administrative","location":[18.500657057337055,43.856469149999995],"bbox":[18.4647035,43.8347043,18.5355345,43.8782586],"inferred_type":"city"}
{"name":"MZ Busnovi","other_names":{"name:sr":"МЗ Бусноби"},"display_name":"MZ Busnovi, Grad Prijedor, Република Српска / Republika Srpska, Bosna i Hercegovina / Босна и Херцеговина","address":{"city":"MZ Busnovi","county":"Grad Prijedor","state":"Република Српска / Republika Srpska","ISO3166-2-lvl4":"BA-SRP","country":"Bosna i Hercegovina / Босна и Херцеговина","country_code":"ba"},"osm_type":"relation","osm_id":5744406,"type":"administrative","location":[16.783635809050352,44.85028285],"bbox":[16.731756,44.8081713,16.8371965,44.8923751],"inferred_type":"city"}
{"name":"MZ Čarakovo","other_names":{"name:sr":"МЗ Чараково"},"display_name":"MZ Čarakovo, Grad Prijedor, Република Српска / Republika Srpska, Bosna i Hercegovina / Босна и Херцеговина","address":{"city":"MZ Čarakovo","county":"Grad Prijedor","state":"Република Српска / Republika Srpska","ISO3166-2-lvl4":"BA-SRP","country":"Bosna i Hercegovina / Босна и Херцеговина","country_code":"ba"},"osm_type":"relation","osm_id":5742114,"type":"administrative","location":[16.672932409867315,44.9410787],"bbox":[16.6417863,44.9241754,16.6959462,44.9580809],"inferred_type":"city"}
{"name":"MZ Centar II","other_names":{"name:de":"Ortsgemeinschaft Centar II","name:en":"Local community Centar II","name:hr":"Mjesna zajednica Centar II"},"display_name":"MZ Centar II, Grad Mostar, Hercegovačko-neretvanska županija (kanton), Federacija Bosne i Hercegovine, Bosna i Hercegovina / Босна и Херцеговина","address":{"city":"MZ Centar II","county":"Grad Mostar","state_district":"Hercegovačko-neretvanska županija (kanton)","state":"Federacija Bosne i Hercegovine","ISO3166-2-lvl4":"BA-BIH","country":"Bosna i Hercegovina / Босна и Херцеговина","country_code":"ba"},"osm_type":"relation","osm_id":11170929,"type":"administrative","location":[17.807453664073265,43.349725750000005],"bbox":[17.8014933,43.3433058,17.8109849,43.3559511],"inferred_type":"city"}
{"name":"MZ Cernica-Šantićeva","other_names":{"name:de":"Ortsgemeinschaft Cernica-Šantićeva","name:en":"Local community Cernica-Šantićeva","name:hr":"Mjesna zajednica Cernica-Šantićeva"},"display_name":"MZ Cernica-Šantićeva, Grad Mostar, Hercegovačko-neretvanska županija (kanton), Federacija Bosne i Hercegovine, Bosna i Hercegovina / Босна и Херцеговина","address":{"city":"MZ Cernica-Šantićeva","county":"Grad Mostar","state_district":"Hercegovačko-neretvanska županija (kanton)","state":"Federacija Bosne i Hercegovine","ISO3166-2-lvl4":"BA-BIH","country":"Bosna i Hercegovina / Босна и Херцеговина","country_code":"ba"},"osm_type":"relation","osm_id":11170607,"type":"administrative","location":[17.81032837495056,43.3406997],"bbox":[17.8032051,43.3372396,17.8124427,43.3440572],"inferred_type":"city"}
{"name":"MZ Cikote","other_names":{"name:sr":"МЗ Цикоте"},"display_name":"MZ Cikote, Grad Prijedor, Република Српска / Republika Srpska, Bosna i Hercegovina / Босна и Херцеговина","address":{"city":"MZ Cikote","county":"Grad Prijedor","state":"Република Српска / Republika Srpska","ISO3166-2-lvl4":"BA-SRP","country":"Bosna i Hercegovina / Босна и Херцеговина","country_code":"ba"},"osm_type":"relation","osm_id":5742108,"type":"administrative","location":[16.624238115372904,45.002461749999995],"bbox":[16.5963831,44.9790008,16.6534417,45.0260841],"inferred_type":"city"}
{"name":"MZ Cim","other_names":{"name:de":"Ortsgemeinschaft Cim","name:en":"Local community Cim","name:hr":"Mjesna zajednica Cim"},"display_name":"MZ Cim, Grad Mostar, Hercegovačko-neretvanska županija (kanton), Federacija Bosne i Hercegovine, Bosna i Hercegovina / Босна и Херцеговина","address":{"city":"MZ Cim","county":"Grad Mostar","state_district":"Hercegovačko-neretvanska županija (kanton)","state":"Federacija Bosne i Hercegovine","ISO3166-2-lvl4":"BA-BIH","country":"Bosna i Hercegovina / Босна и Херцеговина","country_code":"ba"},"osm_type":"relation","osm_id":11170934,"type":"administrative","location":[17.776185005102224,43.35492715],"bbox":[17.7604991,43.3440002,17.7875389,43.3661553],"inferred_type":"city"}
{"name":"MZ Čirkin Polje","other_names":{"name:sr":"МЗ Чиркин Поље","name:sr-Latn":"MZ Čirkin Polje"},"display_name":"MZ Čirkin Polje, Grad Prijedor, Република Српска / Republika Srpska, 79000, Bosna i Hercegovina / Босна и Херцеговина","address":{"city":"MZ Čirkin Polje","county":"Grad Prijedor","state":"Република Српска / Republika Srpska","ISO3166-2-lvl4":"BA-SRP","postcode":"79000","country":"Bosna i Hercegovina / Босна и Херцеговина","country_code":"ba"},"osm_type":"relation","osm_id":5736402,"type":"administrative","location":[16.74588772834953,44.988861549999996],"bbox":[16.7264544,44.9735318,16.7544614,45.0042224],"inferred_type":"city"}
{"name":"MZ Donja Ljubija","other_names":{"name:sr":"МЗ Доња Љубија","name:sr-Latn":"MZ Donja Ljubija"},"display_name":"MZ Donja Ljubija, Grad Prijedor, Република Српска / Republika Srpska, Bosna i Hercegovina / Босна и Херцеговина","address":{"city":"MZ Donja Ljubija","county":"Grad Prijedor","state":"Република Српска / Republika Srpska","ISO3166-2-lvl4":"BA-SRP","country":"Bosna i Hercegovina / Босна и Херцеговина","country_code":"ba"},"osm_type":"relation","osm_id":5743940,"type":"administrative","location":[16.6227958832526,44.9389249],"bbox":[16.5897994,44.9251175,16.6499392,44.9527171],"inferred_type":"city"}
{"name":"MZ Donji Orlovci","other_names":{"name:sr":"МЗ Доњи Орловци"},"display_name":"MZ Donji Orlovci, Grad Prijedor, Република Српска / Republika Srpska, Bosna i Hercegovina / Босна и Херцеговина","address":{"city":"MZ Donji Orlovci","county":"Grad Prijedor","state":"Република Српска / Republika Srpska","ISO3166-2-lvl4":"BA-SRP","country":"Bosna i Hercegovina / Босна и Херцеговина","country_code":"ba"},"osm_type":"relation","osm_id":5736398,"type":"administrative","location":[16.764097655269474,44.96261145],"bbox":[16.7346906,44.9414681,16.7918545,44.9836165],"inferred_type":"city"}
{"name":"MZ Donji Volar","other_names":{"name:sr":"МЗ Доњи Волар"},"display_name":"MZ Donji Volar, Grad Prijedor, Република Српска / Republika Srpska, Bosna i Hercegovina / Босна и Херцеговина","address":{"city":"MZ Donji Volar","county":"Grad Prijedor","state":"Република Српска / Republika Srpska","ISO3166-2-lvl4":"BA-SRP","country":"Bosna i Hercegovina / Босна и Херцеговина","country_code":"ba"},"osm_type":"relation","osm_id":5742091,"type":"administrative","location":[16.587570610711047,44.983606550000005],"bbox":[16.5470983,44.9595613,16.6344713,45.007828],"inferred_type":"city"}
{"name":"MZ Gomjenica","other_names":{"name:sr":"МЗ Гомјеница"},"display_name":"MZ Gomjenica, Grad Prijedor, Република Српска / Republika Srpska, Bosna i Hercegovina / Босна и Херцеговина","address":{"city":"MZ Gomjenica","county":"Grad Prijedor","state":"Република Српска / Republika Srpska","ISO3166-2-lvl4":"BA-SRP","country":"Bosna i Hercegovina / Босна и Херцеговина","country_code":"ba"},"osm_type":"relation","osm_id":5736396,"type":"administrative","location":[16.709674978410213,44.95241795],"bbox":[16.6865974,44.9367313,16.7362333,44.9681007],"inferred_type":"city"}
{"name":"MZ Goranci","other_names":{"name:de":"Ortsgemeinschaft Goranci","name:en":"Local community Goranci","name:hr":"Mjesna zajednica Goranci"},"display_name":"MZ Goranci, Grad Mostar, Hercegovačko-neretvanska županija (kanton), Federacija Bosne i Hercegovine, Bosna i Hercegovina / Босна и Херцеговина","address":{"city":"MZ Goranci","county":"Grad Mostar","state_district":"Hercegovačko-neretvanska županija (kanton)","state":"Federacija Bosne i Hercegovine","ISO3166-2-lvl4":"BA-BIH","country":"Bosna i Hercegovina / Босна и Херцеговина","country_code":"ba"},"population":179,"osm_type":"relation","osm_id":12988888,"type":"administrative","location":[17.749838899469843,43.41661755],"bbox":[17.6724771,43.3591508,17.8097391,43.4740687],"inferred_type":"city"}
{"name":"MZ Gornja Dragotinja","other_names":{"name:sr":"МЗ Горња Драготиња"},"display_name":"MZ Gornja Dragotinja, Grad Prijedor, Република Српска / Republika Srpska, Bosna i Hercegovina / Босна и Херцеговина","address":{"city":"MZ Gornja Dragotinja","county":"Grad Prijedor","state":"Република Српска / Republika Srpska","ISO3166-2-lvl4":"BA-SRP","country":"Bosna i Hercegovina / Босна и Херцеговина","country_code":"ba"},"osm_type":"relation","osm_id":5736574,"type":"administrative","location":[16.61825780520451,45.05173995],"bbox":[16.5755298,45.0203065,16.6498613,45.0831233],"inferred_type":"city","border":{"name":"MZ Gornja Dragotinja","other_names":{"name:sr":"МЗ Горња Драготиња"},"display_name":"MZ Gornja Dragotinja, Grad Prijedor, Република Српска / Republika Srpska, Bosna i Hercegovina / Босна и Херцеговина","address":{"city_district":"MZ Gornja Dragotinja","city":"MZ Gornja Dragotinja","county":"Grad Prijedor","state":"Република Српска / Republika Srpska","ISO3166-2-lvl4":"BA-SRP","country":"Bosna i Hercegovina / Босна и Херцеговина","country_code":"ba"},"osm_type":"relation","osm_id":5736576,"type":"administrative","location":[16.614804659934997,45.0411376],"bbox":[16.5755298,45.0203065,16.6480793,45.06196]}}
{"name":"MZ Gornja Ravska","other_names":{"name:sr":"МЗ Горња Равска"},"display_name":"MZ Gornja Ravska, Grad Prijedor, Република Српска / Republika Srpska, Bosna i Hercegovina / Босна и Херцеговина","address":{"city":"MZ Gornja Ravska","county":"Grad Prijedor","state":"Република Српска / Republika Srpska","ISO3166-2-lvl4":"BA-SRP","country":"Bosna i Hercegovina / Босна и Херцеговина","country_code":"ba"},"osm_type":"relation","osm_id":5742090,"type":"administrative","location":[16.538703172361508,44.9012592],"bbox":[16.4917692,44.8818671,16.5709161,44.9206113],"inferred_type":"city"}
{"name":"MZ Gornji Jelovac","other_names":{"name:sr":"МЗ Горњи Јеловац"},"display_name":"MZ Gornji Jelovac, Grad Prijedor, Република Српска / Republika Srpska, Bosna i Hercegovina / Босна и Херцеговина","address":{"city":"MZ Gornji Jelovac","county":"Grad Prijedor","state":"Република Српска / Republika Srpska","ISO3166-2-lvl4":"BA-SRP","country":"Bosna i Hercegovina / Босна и Херцеговина","country_code":"ba"},"osm_type":"relation","osm_id":5738309,"type":"administrative","location":[16.730321316598086,45.06977895],"bbox":[16.6839723,45.0437404,16.7688743,45.0958148],"inferred_type":"city"}
{"name":"MZ Gornji Orlovci","other_names":{"name:sr":"МЗ Горњи Орловци"},"display_name":"MZ Gornji Orlovci, Grad Prijedor, Република Српска / Republika Srpska, Bosna i Hercegovina / Босна и Херцеговина","address":{"city":"MZ Gornji Orlovci","county":"Grad Prijedor","state":"Република Српска / Republika Srpska","ISO3166-2-lvl4":"BA-SRP","country":"Bosna i Hercegovina / Босна и Херцеговина","country_code":"ba"},"osm_type":"relation","osm_id":5736397,"type":"administrative","location":[16.767262168571513,44.9965735],"bbox":[16.7496277,44.9787021,16.7858976,45.0144399],"inferred_type":"city"}
{"name":"MZ Gornji Petrov Gaj","other_names":{"name:sr":"МЗ Горњи Петров Гај"},"display_name":"MZ Gornji Petrov Gaj, Grad Prijedor, Република Српска / Republika Srpska, Bosna i Hercegovina / Босна и Херцеговина","address":{"city":"MZ Gornji Petrov Gaj","county":"Grad Prijedor","state":"Република Српска / Republika Srpska","ISO3166-2-lvl4":"BA-SRP","country":"Bosna i Hercegovina / Босна и Херцеговина","country_code":"ba"},"osm_type":"relation","osm_id":5744486,"type":"administrative","location":[16.868173114435095,44.9320197],"bbox":[16.8495129,44.9233157,16.8851349,44.9407246],"inferred_type":"city"}
{"name":"MZ Gradina","other_names":{"name:sr":"МЗ Градина"},"display_name":"MZ Gradina, Grad Prijedor, Република Српска / Republika Srpska, 79203, Bosna i Hercegovina / Босна и Херцеговина","address":{"city":"MZ Gradina","county":"Grad Prijedor","state":"Република Српска / Republika Srpska","ISO3166-2-lvl4":"BA-SRP","postcode":"79203","country":"Bosna i Hercegovina / Босна и Херцеговина","country_code":"ba"},"osm_type":"relation","osm_id":5744407,"type":"administrative","location":[16.908342202846832,44.838653550000004],"bbox":[16.8784361,44.7973656,16.9477714,44.8799591],"inferred_type":"city"}
{"name":"MZ Hambarine","other_names":{"name:sr":"МЗ Хамбарине"},"display_name":"MZ Hambarine, Grad Prijedor, Република Српска / Republika Srpska, Bosna i Hercegovina / Босна и Херцеговина","address":{"city":"MZ Hambarine","county":"Grad Prijedor","state":"Република Српска / Republika Srpska","ISO3166-2-lvl4":"BA-SRP","country":"Bosna i Hercegovina / Босна и Херцеговина","country_code":"ba"},"osm_type":"relation","osm_id":5742113,"type":"administrative","location":[16.670572468250633,44.95418505000001],"bbox":[16.6473393,44.9362252,16.6924613,44.9720507],"inferred_type":"city"}
{"name":"MZ Hreša","other_names":{"name:sr":"МЗ Хреша","name:sr-Latn":"MZ Hreša"},"display_name":"MZ Hreša, Општина Источни Стари Град / Opština Istočni Stari Grad, Град Источно Сарајево / Grad Istočno Sarajevo, Република Српска / Republika Srpska, 71444, Bosna i Hercegovina / Босна и Херцеговина","address":{"city":"MZ Hreša","municipality":"Општина Источни Стари Град / Opština Istočni Stari Grad","county":"Град Источно Сарајево / Grad Istočno Sarajevo","state":"Република Српска / Republika Srpska","ISO3166-2-lvl4":"BA-SRP","postcode":"71444","country":"Bosna i Hercegovina / Босна и Херцеговина","country_code":"ba"},"osm_type":"relation","osm_id":5963513,"type":"administrative","location":[18.509009103252787,43.89245715],"bbox":[18.4666283,43.8547859,18.5465002,43.9300902],"inferred_type":"city"}
{"name":"MZ Ilići","other_names":{"name:de":"Ortsgemeinschaft Ilići","name:en":"Local community Ilići","name:hr":"Mjesna zajednica Ilići"},"display_name":"MZ Ilići, Grad Mostar, Hercegovačko-neretvanska županija (kanton), Federacija Bosne i Hercegovine, Bosna i Hercegovina / Босна и Херцеговина","address":{"city":"MZ Ilići","county":"Grad Mostar","state_district":"Hercegovačko-neretvanska županija (kanton)","state":"Federacija Bosne i Hercegovine","ISO3166-2-lvl4":"BA-BIH","country":"Bosna i Hercegovina / Босна и Херцеговина","country_code":"ba"},"osm_type":"relation","osm_id":11170935,"type":"administrative","location":[17.75234290552454,43.35424425],"bbox":[17.7364937,43.3326446,17.7851433,43.3763798],"inferred_type":"city"}
{"name":"MZ Jasenica","other_names":{"name:de":"Ortsgemeinschaft Jasenica","name:en":"Local community Jasenica","name:hr":"Mjesna zajednica Jasenica"},"display_name":"MZ Jasenica, Grad Mostar, Hercegovačko-neretvanska županija (kanton), Federacija Bosne i Hercegovine, Bosna i Hercegovina / Босна и Херцеговина","address":{"city":"MZ Jasenica","county":"Grad Mostar","state_district":"Hercegovačko-neretvanska županija (kanton)","state":"Federacija Bosne i Hercegovine","ISO3166-2-lvl4":"BA-BIH","country":"Bosna i Hercegovina / Босна и Херцеговина","country_code":"ba"},"population":1573,"osm_type":"relation","osm_id":12988887,"type":"administrative","location":[17.80497845451621,43.2819414],"bbox":[17.7810609,43.2601767,17.8313813,43.3038099],"inferred_type":"city"}
{"name":"MZ Jutrogošta","other_names":{"name:sr":"МЗ Јутрогошта"},"display_name":"MZ Jutrogošta, Grad Prijedor, Република Српска / Republika Srpska, Bosna i Hercegovina / Босна и Херцеговина","address":{"city":"MZ Jutrogošta","county":"Grad Prijedor","state":"Република Српска / Republika Srpska","ISO3166-2-lvl4":"BA-SRP","country":"Bosna i Hercegovina / Босна и Херцеговина","country_code":"ba"},"osm_type":"relation","osm_id":5738308,"type":"administrative","location":[16.670670188236883,45.05893635],"bbox":[16.6427716,45.0329955,16.6977187,45.084915],"inferred_type":"city"}
{"name":"MZ Kamičani","other_names":{"name:sr":"МЗ Камичани"},"display_name":"MZ Kamičani, Grad Prijedor, Република Српска / Republika Srpska, Bosna i Hercegovina / Босна и Херцеговина","address":{"city":"MZ Kamičani","county":"Grad Prijedor","state":"Република Српска / Republika Srpska","ISO3166-2-lvl4":"BA-SRP","country":"Bosna i Hercegovina / Босна и Херцеговина","country_code":"ba"},"osm_type":"relation","osm_id":5744477,"type":"administrative","location":[16.91275478793435,44.973720900000004],"bbox":[16.8281826,44.9224259,16.9558563,45.0250598],"inferred_type":"city"}
{"name":"MZ Kevljani","other_names":{"name:sr":"МЗ Кевљани"},"display_name":"MZ Kevljani, Grad Prijedor, Република Српска / Republika Srpska, Bosna i Hercegovina / Босна и Херцеговина","address":{"city":"MZ Kevljani","county":"Grad Prijedor","state":"Република Српска / Republika Srpska","ISO3166-2-lvl4":"BA-SRP","country":"Bosna i Hercegovina / Босна и Херцеговина","country_code":"ba"},"osm_type":"relation","osm_id":5744419,"type":"administrative","location":[16.864397072045954,44.9140382],"bbox":[16.8407244,44.8874498,16.903295,44.9406833],"inferred_type":"city"}
{"name":"MZ Kozarac","other_names":{"name:sr":"МЗ Козарац"},"display_name":"MZ Kozarac, Grad Prijedor, Република Српска / Republika Srpska, 79202, Bosna i Hercegovina / Босна и Херцеговина","address":{"city":"MZ Kozarac","county":"Grad Prijedor","state":"Република Српска / Republika Srpska","ISO3166-2-lvl4":"BA-SRP","postcode":"79202","country":"Bosna i Hercegovina / Босна и Херцеговина","country_code":"ba"},"osm_type":"relation","osm_id":5744478,"type":"administrative","location":[16.878059058038108,45.0012751],"bbox":[16.804974,44.9443763,16.9290887,45.0581594],"inferred_type":"city"}
{"name":"MZ Kozaruša","other_names":{"name:sr":"МЗ Козаруша"},"display_name":"MZ Kozaruša, Grad Prijedor, Република Српска / Republika Srpska, Bosna i Hercegovina / Босна и Херцеговина","address":{"city":"MZ Kozaruša","county":"Grad Prijedor","state":"Република Српска / Republika Srpska","ISO3166-2-lvl4":"BA-SRP","country":"Bosna i Hercegovina / Босна и Херцеговина","country_code":"ba"},"osm_type":"relation","osm_id":5744460,"type":"administrative","location":[16.81484766244847,45.00612705],"bbox":[16.7795467,44.9549481,16.8644964,45.0572824],"inferred_type":"city"}
{"name":"MZ Kruševo","other_names":{"name:de":"Ortsgemeinschaft Kruševo","name:en":"Local community Kruševo","name:hr":"Mjesna zajednica Kruševo"},"display_name":"MZ Kruševo, Grad Mostar, Hercegovačko-neretvanska županija (kanton), Federacija Bosne i Hercegovine, Bosna i Hercegovina / Босна и Херцеговина","address":{"city":"MZ Kruševo","county":"Grad Mostar","state_district":"Hercegovačko-neretvanska županija (kanton)","state":"Federacija Bosne i Hercegovine","ISO3166-2-lvl4":"BA-BIH","country":"Bosna i Hercegovina / Босна и Херцеговина","country_code":"ba"},"osm_type":"relation","osm_id":11170927,"type":"administrative","location":[17.753025430884783,43.28924105],"bbox":[17.7015609,43.2582563,17.7926722,43.3205843],"inferred_type":"city"}
{"name":"MZ Lamovita","other_names":{"name:sr":"МЗ Ламовита"},"display_name":"MZ Lamovita, Grad Prijedor, Република Српска / Republika Srpska, 79204, Bosna i Hercegovina / Босна и Херцеговина","address":{"city":"MZ Lamovita","county":"Grad Prijedor","state":"Република Српска / Republika Srpska","ISO3166-2-lvl4":"BA-SRP","postcode":"79204","country":"Bosna i Hercegovina / Босна и Херцеговина","country_code":"ba"},"osm_type":"relation","osm_id":5744420,"type":"administrative","location":[16.942272375,44.96940605],"bbox":[16.8967715,44.9191083,16.9817802,45.0196796],"inferred_type":"city"}
{"name":"MZ Ljeskare i Kalajevo","other_names":{"name:sr":"МЗ Љескаре и Калајево"},"display_name":"MZ Ljeskare i Kalajevo, Grad Prijedor, Република Српска / Republika Srpska, Bosna i Hercegovina / Босна и Херцеговина","address":{"city":"MZ Ljeskare i Kalajevo","county":"Grad Prijedor","state":"Република Српска / Republika Srpska","ISO3166-2-lvl4":"BA-SRP","country":"Bosna i Hercegovina / Босна и Херцеговина","country_code":"ba"},"osm_type":"relation","osm_id":5742105,"type":"administrative","location":[16.61409963418715,44.95990855],"bbox":[16.5896175,44.9427806,16.6530496,44.976926],"inferred_type":"city"}
{"name":"MZ Marićka","other_names":{"name:sr":"МЗ Марићка"},"display_name":"MZ Marićka, Grad Prijedor, Република Српска / Republika Srpska, Bosna i Hercegovina / Босна и Херцеговина","address":{"city":"MZ Marićka","county":"Grad Prijedor","state":"Република Српска / Republika Srpska","ISO3166-2-lvl4":"BA-SRP","country":"Bosna i Hercegovina / Босна и Херцеговина","country_code":"ba"},"osm_type":"relation","osm_id":5744408,"type":"administrative","location":[16.85308770778397,44.8582875],"bbox":[16.7962937,44.808342,16.8968581,44.9084743],"inferred_type":"city"}
{"name":"MZ Miljkovići","other_names":{"name:de":"Ortsgemeinschaft Miljkovići","name:en":"Local community Miljkovići","name:hr":"Mjesna zajednica Miljkovići"},"display_name":"MZ Miljkovići, Grad Mostar, Hercegovačko-neretvanska županija (kanton), Federacija Bosne i Hercegovine, Bosna i Hercegovina / Босна и Херцеговина","address":{"city":"MZ Miljkovići","county":"Grad Mostar","state_district":"Hercegovačko-neretvanska županija (kanton)","state":"Federacija Bosne i Hercegovine","ISO3166-2-lvl4":"BA-BIH","country":"Bosna i Hercegovina / Босна и Херцеговина","country_code":"ba"},"osm_type":"relation","osm_id":11170932,"type":"administrative","location":[17.75856891720918,43.32476455],"bbox":[17.7212892,43.3090456,17.7906471,43.3400208],"inferred_type":"city"}
{"name":"MZ Miska Glava","other_names":{"name:sr":"МЗ Миска Глава"},"display_name":"MZ Miska Glava, Grad Prijedor, Република Српска / Republika Srpska, Bosna i Hercegovina / Босна и Херцеговина","address":{"city":"MZ Miska Glava","county":"Grad Prijedor","state":"Република Српска / Republika Srpska","ISO3166-2-lvl4":"BA-SRP","country":"Bosna i Hercegovina / Босна и Херцеговина","country_code":"ba"},"osm_type":"relation","osm_id":5742092,"type":"administrative","location":[16.52401708096835,44.93294445],"bbox":[16.4816332,44.8976624,16.5785826,44.9682068],"inferred_type":"city"}
{"name":"MZ Omarska","other_names":{"name:sr":"МЗ Омарска"},"display_name":"MZ Omarska, Grad Prijedor, Република Српска / Republika Srpska, Bosna i Hercegovina / Босна и Херцеговина","address":{"city":"MZ Omarska","county":"Grad Prijedor","state":"Република Српска / Republika Srpska","ISO3166-2-lvl4":"BA-SRP","country":"Bosna i Hercegovina / Босна и Херцеговина","country_code":"ba"},"osm_type":"relation","osm_id":5744421,"type":"administrative","location":[16.899545633743017,44.8965912],"bbox":[16.8457101,44.8628119,16.9603442,44.9303795],"inferred_type":"city"}
{"name":"MZ Orlovača","other_names":{"name:sr":"МЗ Орловача"},"display_name":"MZ Orlovača, Grad Prijedor, Република Српска / Republika Srpska, 79101, Bosna i Hercegovina / Босна и Херцеговина","address":{"city":"MZ Orlovača","county":"Grad Prijedor","state":"Република Српска / Republika Srpska","ISO3166-2-lvl4":"BA-SRP","postcode":"79101","country":"Bosna i Hercegovina / Босна и Херцеговина","country_code":"ba"},"osm_type":"relation","osm_id":5736399,"type":"administrative","location":[16.728114254120044,44.967564100000004],"bbox":[16.7118568,44.956383,16.7505817,44.9787021],"inferred_type":"city"}
{"name":"MZ Petrov Gaj","other_names":{"name:sr":"МЗ Петров Гај"},"display_name":"MZ Petrov Gaj, Grad Prijedor, Република Српска / Republika Srpska, Bosna i Hercegovina / Босна и Херцеговина","address":{"city":"MZ Petrov Gaj","county":"Grad Prijedor","state":"Република Српска / Republika Srpska","ISO3166-2-lvl4":"BA-SRP","country":"Bosna i Hercegovina / Босна и Херцеговина","country_code":"ba"},"osm_type":"relation","osm_id":5744487,"type":"administrative","location":[16.832411113640404,44.91216635],"bbox":[16.8128997,44.891985,16.8565511,44.9323778],"inferred_type":"city"}
{"name":"MZ Petrovo","other_names":{"name:sr":"МЗ Петрово"},"display_name":"MZ Petrovo, Grad Prijedor, Република Српска / Republika Srpska, Bosna i Hercegovina / Босна и Херцеговина","address":{"city":"MZ Petrovo","county":"Grad Prijedor","state":"Република Српска / Republika Srpska","ISO3166-2-lvl4":"BA-SRP","country":"Bosna i Hercegovina / Босна и Херцеговина","country_code":"ba"},"osm_type":"relation","osm_id":5738334,"type":"administrative","location":[16.723123501316813,44.930111249999996],"bbox":[16.6869403,44.9065998,16.7687807,44.9537023],"inferred_type":"city"}
{"name":"MZ Podhum","other_names":{"name:de":"Ortsgemeinschaft Podhum","name:en":"Local community Podhum","name:hr":"Mjesna zajednica Podhum"},"display_name":"MZ Podhum, Grad Mostar, Hercegovačko-neretvanska županija (kanton), Federacija Bosne i Hercegovine, Bosna i Hercegovina / Босна и Херцеговина","address":{"city":"MZ Podhum","county":"Grad Mostar","state_district":"Hercegovačko-neretvanska županija (kanton)","state":"Federacija Bosne i Hercegovine","ISO3166-2-lvl4":"BA-BIH","country":"Bosna i Hercegovina / Босна и Херцеговина","country_code":"ba"},"osm_type":"relation","osm_id":11170606,"type":"administrative","location":[17.8061621548727,43.3346425],"bbox":[17.8022584,43.3299307,17.8110728,43.3394307],"inferred_type":"city"}
{"name":"MZ Polog","other_names":{"name:de":"Ortsgemeinschaft Polog","name:en":"Local community Polog","name:hr":"Mjesna zajednica Polog"},"display_name":"MZ Polog, Grad Mostar, Hercegovačko-neretvanska županija (kanton), Federacija Bosne i Hercegovine, Bosna i Hercegovina / Босна и Херцеговина","address":{"city":"MZ Polog","county":"Grad Mostar","state_district":"Hercegovačko-neretvanska županija (kanton)","state":"Federacija Bosne i Hercegovine","ISO3166-2-lvl4":"BA-BIH","country":"Bosna i Hercegovina / Босна и Херцеговина","country_code":"ba"},"osm_type":"relation","osm_id":11170933,"type":"administrative","location":[17.717274001987022,43.35915665],"bbox":[17.6806229,43.3184807,17.74627,43.3995052],"inferred_type":"city"}
{"name":"MZ Prijedor centar","other_names":{"name:sr":"МЗ Приједор центар"},"display_name":"MZ Prijedor centar, Grad Prijedor, Република Српска / Republika Srpska, Bosna i Hercegovina / Босна и Херцеговина","address":{"city":"MZ Prijedor centar","county":"Grad Prijedor","state":"Република Српска / Republika Srpska","ISO3166-2-lvl4":"BA-SRP","country":"Bosna i Hercegovina / Босна и Херцеговина","country_code":"ba"},"osm_type":"relation","osm_id":5736401,"type":"administrative","location":[16.704775034697686,44.98283455],"bbox":[16.6908893,44.973041,16.7165501,44.9923314],"inferred_type":"city"}
{"name":"MZ Prijedor II","other_names":{"name:sr":"МЗ Приједор II","name:sr-Latn":"MZ Prijedor II"},"display_name":"MZ Prijedor II, Grad Prijedor, Република Српска / Republika Srpska, Bosna i Hercegovina / Босна и Херцеговина","address":{"city":"MZ Prijedor II","county":"Grad Prijedor","state":"Република Српска / Republika Srpska","ISO3166-2-lvl4":"BA-SRP","country":"Bosna i Hercegovina / Босна и Херцеговина","country_code":"ba"},"osm_type":"relation","osm_id":5736400,"type":"administrative","location":[16.726879622577847,44.98614775],"bbox":[16.709364,44.9754814,16.7447299,44.9967957],"inferred_type":"city"}
{"name":"MZ Rakelići","other_names":{"name:sr":"МЗ Ракелићи"},"display_name":"MZ Rakelići, Grad Prijedor, Република Српска / Republika Srpska, Bosna i Hercegovina / Босна и Херцеговина","address":{"city":"MZ Rakelići","county":"Grad Prijedor","state":"Република Српска / Republika Srpska","ISO3166-2-lvl4":"BA-SRP","country":"Bosna i Hercegovina / Босна и Херцеговина","country_code":"ba"},"osm_type":"relation","osm_id":5744409,"type":"administrative","location":[16.76587493282439,44.90267685],"bbox":[16.6907362,44.8613283,16.8156527,44.9440549],"inferred_type":"city"}
{"name":"MZ Rakovčani","other_names":{"name:sr":"МЗ Раковчани"},"display_name":"MZ Rakovčani, Grad Prijedor, Република Српска / Republika Srpska, Bosna i Hercegovina / Босна и Херцеговина","address":{"city":"MZ Rakovčani","county":"Grad Prijedor","state":"Република Српска / Republika Srpska","ISO3166-2-lvl4":"BA-SRP","country":"Bosna i Hercegovina / Босна и Херцеговина","country_code":"ba"},"osm_type":"relation","osm_id":5742106,"type":"administrative","location":[16.658563766947722,44.9687154],"bbox":[16.6319111,44.9583614,16.6942545,44.9790691],"inferred_type":"city"}
{"name":"MZ Rasavci","other_names":{"name:sr":"МЗ Расавци"},"display_name":"MZ Rasavci, Grad Prijedor, Република Српска / Republika Srpska, Bosna i Hercegovina / Босна и Херцеговина","address":{"city":"MZ Rasavci","county":"Grad Prijedor","state":"Република Српска / Republika Srpska","ISO3166-2-lvl4":"BA-SRP","country":"Bosna i Hercegovina / Босна и Херцеговина","country_code":"ba"},"osm_type":"relation","osm_id":5739688,"type":"administrative","location":[16.68257180379438,44.88263775],"bbox":[16.6287765,44.8544258,16.727207,44.9109703],"inferred_type":"city"}
{"name":"MZ Raškovac","other_names":{"name:sr":"МЗ Рашковац","name:sr-Latn":"MZ Raškovac"},"display_name":"MZ Raškovac, Grad Prijedor, Република Српска / Republika Srpska, Bosna i Hercegovina / Босна и Херцеговина","address":{"city":"MZ Raškovac","county":"Grad Prijedor","state":"Република Српска / Republika Srpska","ISO3166-2-lvl4":"BA-SRP","country":"Bosna i Hercegovina / Босна и Херцеговина","country_code":"ba"},"osm_type":"relation","osm_id":19138785,"type":"administrative","location":[16.681353522045764,44.9917187],"bbox":[16.6586994,44.9741665,16.7053304,45.0093708],"inferred_type":"city"}
{"name":"MZ Raštani","other_names":{"name:de":"Ortsgemeinschaft Raštani","name:en":"Local community Raštani","name:hr":"Mjesna zajednica Raštani"},"display_name":"MZ Raštani, Grad Mostar, Hercegovačko-neretvanska županija (kanton), Federacija Bosne i Hercegovine, Bosna i Hercegovina / Босна и Херцеговина","address":{"city":"MZ Raštani","county":"Grad Mostar","state_district":"Hercegovačko-neretvanska županija (kanton)","state":"Federacija Bosne i Hercegovine","ISO3166-2-lvl4":"BA-BIH","country":"Bosna i Hercegovina / Босна и Херцеговина","country_code":"ba"},"osm_type":"relation","osm_id":11170928,"type":"administrative","location":[17.82334442784134,43.382477800000004],"bbox":[17.7929914,43.364334,17.8523031,43.4004816],"inferred_type":"city"}
{"name":"MZ Rizvanovići","other_names":{"name:sr":"МЗ Ризвановићи"},"display_name":"MZ Rizvanovići, Grad Prijedor, Република Српска / Republika Srpska, Bosna i Hercegovina / Босна и Херцеговина","address":{"city":"MZ Rizvanovići","county":"Grad Prijedor","state":"Република Српска / Republika Srpska","ISO3166-2-lvl4":"BA-SRP","country":"Bosna i Hercegovina / Босна и Херцеговина","country_code":"ba"},"osm_type":"relation","osm_id":5742107,"type":"administrative","location":[16.653673799488764,44.97585915],"bbox":[16.628747,44.96762,16.6929789,44.9840906],"inferred_type":"city"}
{"name":"MZ Rodoč I","other_names":{"name:de":"Ortsgemeinschaft Rodoč I","name:en":"Local community Rodoč I","name:hr":"Mjesna zajednica Rodoč I"},"display_name":"MZ Rodoč I, Grad Mostar, Hercegovačko-neretvanska županija (kanton), Federacija Bosne i Hercegovine, Bosna i Hercegovina / Босна и Херцеговина","address":{"city":"MZ Rodoč I","county":"Grad Mostar","state_district":"Hercegovačko-neretvanska županija (kanton)","state":"Federacija Bosne i Hercegovine","ISO3166-2-lvl4":"BA-BIH","country":"Bosna i Hercegovina / Босна и Херцеговина","country_code":"ba"},"osm_type":"relation","osm_id":11170926,"type":"administrative","location":[17.8148593574373,43.3020678],"bbox":[17.7780434,43.2832117,17.828021,43.3256811],"inferred_type":"city"}
{"name":"MZ Rodoč II","other_names":{"name:de":"Ortsgemeinschaft Rodoč II","name:en":"Local community Rodoč II","name:hr":"Mjesna zajednica Rodoč II"},"display_name":"MZ Rodoč II, Grad Mostar, Hercegovačko-neretvanska županija (kanton), Federacija Bosne i Hercegovine, Bosna i Hercegovina / Босна и Херцеговина","address":{"city":"MZ Rodoč II","county":"Grad Mostar","state_district":"Hercegovačko-neretvanska županija (kanton)","state":"Federacija Bosne i Hercegovine","ISO3166-2-lvl4":"BA-BIH","country":"Bosna i Hercegovina / Босна и Херцеговина","country_code":"ba"},"osm_type":"relation","osm_id":11170925,"type":"administrative","location":[17.809744228235605,43.31825935],"bbox":[17.7875993,43.3089686,17.8279673,43.3274918],"inferred_type":"city"}
{"name":"MZ Rondo","other_names":{"name:de":"Ortsgemeinschaft Rondo","name:en":"Local community Rondo","name:hr":"Mjesna zajednica Rondo"},"display_name":"MZ Rondo, Grad Mostar, Hercegovačko-neretvanska županija (kanton), Federacija Bosne i Hercegovine, Bosna i Hercegovina / Босна и Херцеговина","address":{"city":"MZ Rondo","county":"Grad Mostar","state_district":"Hercegovačko-neretvanska županija (kanton)","state":"Federacija Bosne i Hercegovine","ISO3166-2-lvl4":"BA-BIH","country":"Bosna i Hercegovina / Босна и Херцеговина","country_code":"ba"},"osm_type":"relation","osm_id":11170603,"type":"administrative","location":[17.79795439374871,43.3408293],"bbox":[17.7919086,43.3373967,17.8039157,43.3440765],"inferred_type":"city"}
{"name":"MZ Rudnik","other_names":{"name:de":"Ortsgemeinschaft Rudnik","name:en":"Local community Rudnik","name:hr":"Mjesna zajednica Rudnik"},"display_name":"MZ Rudnik, Grad Mostar, Hercegovačko-neretvanska županija (kanton), Federacija Bosne i Hercegovine, Bosna i Hercegovina / Босна и Херцеговина","address":{"city":"MZ Rudnik","county":"Grad Mostar","state_district":"Hercegovačko-neretvanska županija (kanton)","state":"Federacija Bosne i Hercegovine","ISO3166-2-lvl4":"BA-BIH","country":"Bosna i Hercegovina / Босна и Херцеговина","country_code":"ba"},"osm_type":"relation","osm_id":11170930,"type":"administrative","location":[17.80208192003716,43.358744200000004],"bbox":[17.7957809,43.3525476,17.8090463,43.3650399],"inferred_type":"city"}
{"name":"MZ Slipčići","other_names":{"name:de":"Ortsgemeinschaft Slipčići","name:en":"Local community Slipčići","name:hr":"Mjesna zajednica Slipčići"},"display_name":"MZ Slipčići, Grad Mostar, Hercegovačko-neretvanska županija (kanton), Federacija Bosne i Hercegovine, Bosna i Hercegovina / Босна и Херцеговина","address":{"city":"MZ Slipčići","county":"Grad Mostar","state_district":"Hercegovačko-neretvanska županija (kanton)","state":"Federacija Bosne i Hercegovine","ISO3166-2-lvl4":"BA-BIH","country":"Bosna i Hercegovina / Босна и Херцеговина","country_code":"ba"},"population":207,"osm_type":"relation","osm_id":12988884,"type":"administrative","location":[17.807135888669592,43.2422778],"bbox":[17.7817099,43.2152398,17.8336214,43.2693976],"inferred_type":"city"}
{"name":"MZ Šurkovac","other_names":{"name:sr":"МЗ Шурковац"},"display_name":"MZ Šurkovac, Grad Prijedor, Република Српска / Republika Srpska, Bosna i Hercegovina / Босна и Херцеговина","address":{"city":"MZ Šurkovac","county":"Grad Prijedor","state":"Република Српска / Republika Srpska","ISO3166-2-lvl4":"BA-SRP","country":"Bosna i Hercegovina / Босна и Херцеговина","country_code":"ba"},"osm_type":"relation","osm_id":5742093,"type":"administrative","location":[16.571064485403177,44.94602],"bbox":[16.5376852,44.9128932,16.5926843,44.9791989],"inferred_type":"city"}
{"name":"MZ Trebević","other_names":{"name:sr":"МЗ Требевић","name:sr-Latn":"MZ Trebević"},"display_name":"MZ Trebević, Општина Источни Стари Град / Opština Istočni Stari Grad, Град Источно Сарајево / Grad Istočno Sarajevo, Република Српска / Republika Srpska, 71144, Bosna i Hercegovina / Босна и Херцеговина","address":{"city":"MZ Trebević","municipality":"Општина Источни Стари Град / Opština Istočni Stari Grad","county":"Град Источно Сарајево / Grad Istočno Sarajevo","state":"Република Српска / Republika Srpska","ISO3166-2-lvl4":"BA-SRP","postcode":"71144","country":"Bosna i Hercegovina / Босна и Херцеговина","country_code":"ba"},"osm_type":"relation","osm_id":5964499,"type":"administrative","location":[18.455704926071867,43.82236485],"bbox":[18.407691,43.7984204,18.5026093,43.8467186],"inferred_type":"city"}
{"name":"MZ Trnopolje","other_names":{"name:sr":"МЗ Трнопоље"},"display_name":"MZ Trnopolje, Grad Prijedor, Република Српска / Republika Srpska, Bosna i Hercegovina / Босна и Херцеговина","address":{"city":"MZ Trnopolje","county":"Grad Prijedor","state":"Република Српска / Republika Srpska","ISO3166-2-lvl4":"BA-SRP","country":"Bosna i Hercegovina / Босна и Херцеговина","country_code":"ba"},"osm_type":"relation","osm_id":5737051,"type":"administrative","location":[16.81248355477312,44.93397125],"bbox":[16.7681701,44.9079297,16.8437264,44.9601856],"inferred_type":"city"}
{"name":"MZ Tukovi","other_names":{"name:sr":"МЗ Тукови","name:sr-Latn":"MZ Tukovi"},"display_name":"MZ Tukovi, Grad Prijedor, Република Српска / Republika Srpska, Bosna i Hercegovina / Босна и Херцеговина","address":{"city":"MZ Tukovi","county":"Grad Prijedor","state":"Република Српска / Republika Srpska","ISO3166-2-lvl4":"BA-SRP","country":"Bosna i Hercegovina / Босна и Херцеговина","country_code":"ba"},"osm_type":"relation","osm_id":19138636,"type":"administrative","location":[16.69913509190139,44.973467299999996],"bbox":[16.6770674,44.9562881,16.7091727,44.9907344],"inferred_type":"city"}
{"name":"MZ Vihovići","other_names":{"name:de":"Ortsgemeinschaft Vihovići","name:en":"Local community Vihovići","name:fr":"MZ Vihovići","name:hr":"Mjesna zajednica Vihovići"},"display_name":"MZ Vihovići, Grad Mostar, Hercegovačko-neretvanska županija (kanton), Federacija Bosne i Hercegovine, Bosna i Hercegovina / Босна и Херцеговина","address":{"city":"MZ Vihovići","county":"Grad Mostar","state_district":"Hercegovačko-neretvanska županija (kanton)","state":"Federacija Bosne i Hercegovine","ISO3166-2-lvl4":"BA-BIH","country":"Bosna i Hercegovina / Босна и Херцеговина","country_code":"ba"},"population":1987,"osm_type":"relation","osm_id":12988889,"type":"administrative","location":[17.78707234678853,43.380254449999995],"bbox":[17.7575326,43.3478501,17.8084919,43.4127871],"inferred_type":"city"}
{"name":"MZ Vrdi","other_names":{"name:de":"Ortsgemeinschaft Vrdi","name:en":"Local community Vrdi","name:hr":"Mjesna zajednica Vrdi"},"display_name":"MZ Vrdi, Grad Mostar, Hercegovačko-neretvanska županija (kanton), Federacija Bosne i Hercegovine, Bosna i Hercegovina / Босна и Херцеговина","address":{"city":"MZ Vrdi","county":"Grad Mostar","state_district":"Hercegovačko-neretvanska županija (kanton)","state":"Federacija Bosne i Hercegovine","ISO3166-2-lvl4":"BA-BIH","country":"Bosna i Hercegovina / Босна и Херцеговина","country_code":"ba"},"osm_type":"relation","osm_id":11181082,"type":"administrative","location":[17.743231672714792,43.49403205],"bbox":[17.675693,43.4697436,17.7781963,43.5185743],"inferred_type":"city"}
{"name":"MZ Vučija Luka","other_names":{"name:sr":"МЗ Вучија Лука","name:sr-Latn":"MZ Vučija Luka"},"display_name":"MZ Vučija Luka, Општина Источни Стари Град / Opština Istočni Stari Grad, Град Источно Сарајево / Grad Istočno Sarajevo, Република Српска / Republika Srpska, Bosna i Hercegovina / Босна и Херцеговина","address":{"city":"MZ Vučija Luka","municipality":"Општина Источни Стари Град / Opština Istočni Stari Grad","county":"Град Источно Сарајево / Grad Istočno Sarajevo","state":"Република Српска / Republika Srpska","ISO3166-2-lvl4":"BA-SRP","country":"Bosna i Hercegovina / Босна и Херцеговина","country_code":"ba"},"osm_type":"relation","osm_id":5964498,"type":"administrative","location":[18.527390332675388,43.9334323],"bbox":[18.491917,43.8991182,18.6234781,44.0406377],"inferred_type":"city"}
{"name":"MZ Zahum","other_names":{"name:de":"Ortsgemeinschaft Zahum","name:en":"Local community Zahum","name:hr":"Mjesna zajednica Zahum"},"display_name":"MZ Zahum, Grad Mostar, Hercegovačko-neretvanska županija (kanton), Federacija Bosne i Hercegovine, Bosna i Hercegovina / Босна и Херцеговина","address":{"city":"MZ Zahum","county":"Grad Mostar","state_district":"Hercegovačko-neretvanska županija (kanton)","state":"Federacija Bosne i Hercegovine","ISO3166-2-lvl4":"BA-BIH","country":"Bosna i Hercegovina / Босна и Херцеговина","country_code":"ba"},"osm_type":"relation","osm_id":11170936,"type":"administrative","location":[17.79174579303943,43.33173965],"bbox":[17.7789661,43.3221747,17.8101441,43.3436613],"inferred_type":"city"}
{"name":"MZ Zecovi","other_names":{"name:sr":"МЗ Зецови"},"display_name":"MZ Zecovi, Grad Prijedor, Република Српска / Republika Srpska, Bosna i Hercegovina / Босна и Херцеговина","address":{"city":"MZ Zecovi","county":"Grad Prijedor","state":"Република Српска / Republika Srpska","ISO3166-2-lvl4":"BA-SRP","country":"Bosna i Hercegovina / Босна и Херцеговина","country_code":"ba"},"osm_type":"relation","osm_id":5740083,"type":"administrative","location":[16.66531918737254,44.911765],"bbox":[16.6316641,44.8929436,16.6957591,44.9306086],"inferred_type":"city"}
{"name":"MZ Zgoni","other_names":{"name:de":"Ortsgemeinschaft Zgoni","name:en":"Local community Zgoni","name:hr":"Mjesna zajednica Zgoni"},"display_name":"MZ Zgoni, Grad Mostar, Hercegovačko-neretvanska županija (kanton), Federacija Bosne i Hercegovine, Bosna i Hercegovina / Босна и Херцеговина","address":{"city":"MZ Zgoni","county":"Grad Mostar","state_district":"Hercegovačko-neretvanska županija (kanton)","state":"Federacija Bosne i Hercegovine","ISO3166-2-lvl4":"BA-BIH","country":"Bosna i Hercegovina / Босна и Херцеговина","country_code":"ba"},"osm_type":"relation","osm_id":11170931,"type":"administrative","location":[17.797634426529473,43.3517954],"bbox":[17.7925409,43.3484521,17.8017884,43.3548028],"inferred_type":"city"}
{"name":"Prijedor","other_names":{"name:ar":"برييدور","name:az":"Priedor","name:ba":"Приедор","name:be":"Прыедар","name:bg":"Приедор","name:bs":"Prijedor","name:de":"Prijedor","name:el":"Πριέντορ","name:en":"Prijedor","name:fa":"پرییدور","name:fr":"Prijedor","name:he":"פריידור","name:hr":"Prijedor","name:hy":"Պրիեդոր","name:ja":"プリイェドル","name:ka":"პრიედორი","name:ko":"프리예도르","name:lt":"Prijedoras","name:lv":"Prijedora","name:mk":"Приедор","name:ml":"പ്രിയെഡോർ","name:ru":"Приедор","name:sq":"Prijedori","name:sr":"Приједор","name:tt":"Приедор","name:uk":"Прієдор","name:ur":"پریےدور","name:pnb":"پریجیڈور","name:sr-Latn":"Prijedor","name:zh-Hans":"普里耶多尔","name:zh-Hant":"普里耶多爾"},"display_name":"Prijedor, MZ Prijedor centar, Grad Prijedor, Република Српска / Republika Srpska, Bosna i Hercegovina / Босна и Херцеговина","address":{"city":"Prijedor","county":"Grad Prijedor","state":"Република Српска / Republika Srpska","ISO3166-2-lvl4":"BA-SRP","country":"Bosna i Hercegovina / Босна и Херцеговина","country_code":"ba"},"population":29555,"osm_type":"node","osm_id":1217207082,"type":"city","location":[16.7123704,44.9801369],"bbox":[16.5523704,44.8201369,16.8723704,45.1401369],"border":{"name":"Prijedor","other_names":{"name:bg":"Приједор","name:bs":"Prijedor","name:de":"Prijedor","name:en":"Prijedor","name:fr":"Prijedor","name:hr":"Prijedor","name:ru":"Приедор","name:sr":"Приједор","name:sr-Latn":"Prijedor","name:ar":"برييدور","name:az":"Priedor","name:ba":"Приедор","name:be":"Прыедар","name:el":"Πριέντορ","name:fa":"پرییدور","name:he":"פריידור","name:hy":"Պրիեդոր","name:ja":"プリイェドル","name:ka":"პრიედორი","name:ko":"프리예도르","name:lt":"Prijedoras","name:lv":"Prijedora","name:mk":"Приедор","name:ml":"പ്രിയെഡോർ","name:sq":"Prijedori","name:tt":"Приедор","name:uk":"Прієдор","name:ur":"پریےدور","name:pnb":"پریجیڈور","name:zh-Hans":"普里耶多尔","name:zh-Hant":"普里耶多爾","alt:bg":"Приедор"},"display_name":"Prijedor, MZ Prijedor centar, Grad Prijedor, Република Српска / Republika Srpska, 79000, Bosna i Hercegovina / Босна и Херцеговина","address":{"city":"Prijedor","county":"Grad Prijedor","state":"Република Српска / Republika Srpska","ISO3166-2-lvl4":"BA-SRP","postcode":"79000","country":"Bosna i Hercegovina / Босна и Херцеговина","country_code":"ba"},"population":29555,"osm_type":"relation","osm_id":5730952,"type":"administrative","location":[16.7123704,44.9801369],"bbox":[16.6586994,44.9562881,16.7447299,45.0093708]}}
{"name":"Sarajevo","other_names":{"name:am":"ሳራዬቮ","name:ar":"سراييفو","name:av":"Сараево","name:az":"Sarayevo","name:ba":"Сараево","name:be":"Сараева","name:bg":"Сараево","name:bn":"সারায়েভো","name:br":"Sarajevo","name:bs":"Sarajevo","name:ca":"Sarajevo","name:ce":"Сараево","name:cu":"Сараѥво","name:cv":"Сараево","name:de":"Sarajevo","name:el":"Σαράγεβο","name:en":"Sarajevo","name:es":"Sarajevo","name:fa":"سارایوو","name:ff":"Sarayevo","name:fr":"Sarajevo","name:ga":"Sairéavó","name:gl":"Saraxevo","name:he":"סרייבו","name:hi":"साराजेवो","name:hr":"Sarajevo","name:ht":"Sarayevo","name:hu":"Szarajevó","name:hy":"Սարաևո","name:is":"Sarajevó","name:it":"Saraievo","name:ja":"サラエヴォ","name:ka":"სარაევო","name:kk":"Сараево","name:kn":"ಸಾರಯೇವೊ","name:ko":"사라예보","name:ku":"Sarayevo","name:ky":"Сараево","name:la":"Seraium","name:lt":"Sarajevas","name:lv":"Sarajeva","name:mk":"Сараево","name:ml":"സരയേവോ","name:mn":"Сараево","name:mr":"सारायेव्हो","name:my":"ဆာရာယေဗိုမြို့","name:nl":"Sarajevo","name:no":"Sarajevo","name:nv":"Naatʼáaniikin","name:oc":"Sarajevo","name:os":"Сараево","name:pa":"ਸਾਰਾਯੇਵੋ","name:pl":"Sarajewo","name:ro":"Sarajevo","name:ru":"Сараево","name:sl":"Sarajevo","name:sq":"Sarajeva","name:sr":"Сарајево","name:sv":"Sarajevo","name:sw":"Sarayevo","name:ta":"சாரயேவோ","name:tg":"Сараево","name:th":"ซาราเยโว","name:tr":"Saraybosna","name:tt":"Сараево","name:ug":"سارايېۋو","name:uk":"Сараєво","name:ur":"سرائیوو","name:uz":"Sarayevo","name:wo":"Saarayego","name:yi":"סאראיעווא","int_name":"Sarajevo","name:ang":"Saragefo","name:ast":"Sarayevu","name:ban":"Sarajévo","name:ckb":"سارایێڤۆ","name:crh":"Sarayevo","name:dsb":"Sarajewo","name:ext":"Sarajevu","name:hsb":"Sarajewo","name:kaa":"Saraevo","name:lij":"Sarajêvo","name:lrc":"سارایاٛ ڤو","name:mdf":"Сараево","name:myv":"Сараево ош","name:pnb":"سرائیڡو","name:sah":"Сараево","name:scn":"Sarajevu","name:sgs":"Sarajevs","name:szl":"Sarajewo","name:udm":"Сараево","name:wuu":"萨拉热窝","name:xmf":"სარაევო","name:yue":"薩拉熱窩","alt_name:gl":"Saraievo","alt_name:la":"Saraglium","old_name:az":"Saraybosna","old_name:de":"Sarajewo","name:sr-Latn":"Sarajevo","name:zh-Hans":"萨拉热窝","name:zh-Hant":"塞拉耶佛"},"display_name":"Sarajevo, Mjesna zajednica Trg oslobođenja-Centar, Općina Centar, Grad Sarajevo, Kanton Sarajevo, Federacija Bosne i Hercegovine, Bosna i Hercegovina / Босна и Херцеговина","address":{"city":"Sarajevo","suburb":"Mjesna zajednica Trg oslobođenja-Centar","city_district":"Općina Centar","state_district":"Kanton Sarajevo","state":"Federacija Bosne i Hercegovine","ISO3166-2-lvl4":"BA-BIH","country":"Bosna i Hercegovina / Босна и Херцеговина","country_code":"ba"},"population":271194,"osm_type":"node","osm_id":2021709163,"type":"city","location":[18.4126147,43.8570713],"bbox":[18.2526147,43.6970713,18.5726147,44.0170713],"border":[{"name":"Grad Sarajevo","other_names":{"name:ar":"مدينة سراييفو","name:bs":"Grad Sarajevo","name:de":"Stadt Sarajevo","name:en":"City of Sarajevo","name:fr":"Ville de Sarajevo","name:gl":"Cidade de Saraxevo","name:hr":"Grad Sarajevo","name:it":"Città di Saraievo","name:mk":"Општина Сараево","name:ru":"Город Сараево","name:sr":"Град Сарајево","alt_name:gl":"Cidade de Saraievo","name:am":"ሳራዬቮ","name:av":"Сараево","name:az":"Sarayevo","name:ba":"Сараево","name:be":"Сараева","name:bg":"Сараево","name:bn":"সারায়েভো","name:br":"Sarajevo","name:ca":"Sarajevo","name:ce":"Сараево","name:cu":"Сараѥво","name:cv":"Сараево","name:el":"Σαράγεβο","name:es":"Sarajevo","name:fa":"سارایوو","name:ff":"Sarayevo","name:ga":"Sairéavó","name:he":"סרייבו","name:hi":"साराजेवो","name:ht":"Sarayevo","name:hu":"Szarajevó","name:hy":"Սարաևո","name:is":"Sarajevó","name:ja":"サラエヴォ","name:ka":"სარაევო","name:kk":"Сараево","name:kn":"ಸಾರಯೇವೊ","name:ko":"사라예보","name:ku":"Sarayevo","name:ky":"Сараево","name:la":"Seraium","name:lt":"Sarajevas","name:lv":"Sarajeva","name:ml":"സരയേവോ","name:mn":"Сараево","name:mr":"सारायेव्हो","name:my":"ဆာရာယေဗိုမြို့","name:nl":"Sarajevo","name:no":"Sarajevo","name:nv":"Naatʼáaniikin","name:oc":"Sarajevo","name:os":"Сараево","name:pa":"ਸਾਰਾਯੇਵੋ","name:pl":"Sarajewo","name:ro":"Sarajevo","name:sl":"Sarajevo","name:sq":"Sarajeva","name:sv":"Sarajevo","name:sw":"Sarayevo","name:ta":"சாரயேவோ","name:tg":"Сараево","name:th":"ซาราเยโว","name:tr":"Saraybosna","name:tt":"Сараево","name:ug":"سارايېۋو","name:uk":"Сараєво","name:ur":"سرائیوو","name:uz":"Sarayevo","name:wo":"Saarayego","name:yi":"סאראיעווא","int_name":"Sarajevo","name:ang":"Saragefo","name:ast":"Sarayevu","name:ban":"Sarajévo","name:ckb":"سارایێڤۆ","name:crh":"Sarayevo","name:dsb":"Sarajewo","name:ext":"Sarajevu","name:hsb":"Sarajewo","name:kaa":"Saraevo","name:lij":"Sarajêvo","name:lrc":"سارایاٛ ڤو","name:mdf":"Сараево","name:myv":"Сараево ош","name:pnb":"سرائیڡو","name:sah":"Сараево","name:scn":"Sarajevu","name:sgs":"Sarajevs","name:szl":"Sarajewo","name:udm":"Сараево","name:wuu":"萨拉热窝","name:xmf":"სარაევო","name:yue":"薩拉熱窩","_place_alt_name:gl":"Saraievo","alt_name:la":"Saraglium","old_name:az":"Saraybosna","old_name:de":"Sarajewo","name:sr-Latn":"Sarajevo","name:zh-Hans":"萨拉热窝","name:zh-Hant":"塞拉耶佛","alt":"Sarajevo","alt:ar":"سراييفو","alt:bs":"Sarajevo","alt:de":"Sarajevo","alt:en":"Sarajevo","alt:fr":"Sarajevo","alt:gl":"Saraxevo","alt:hr":"Sarajevo","alt:it":"Saraievo","alt:mk":"Сараево","alt:ru":"Сараево","alt:sr":"Сарајево"},"display_name":"Grad Sarajevo, Kanton Sarajevo, Federacija Bosne i Hercegovine, Bosna i Hercegovina / Босна и Херцеговина","address":{"city":"Grad Sarajevo","state_district":"Kanton Sarajevo","state":"Federacija Bosne i Hercegovine","ISO3166-2-lvl4":"BA-BIH","country":"Bosna i Hercegovina / Босна и Херцеговина","country_code":"ba"},"population":275524,"osm_type":"relation","osm_id":2567380,"type":"administrative","location":[18.4126147,43.8570713],"bbox":[18.2494674,43.8209096,18.5171652,43.966773]},{"name":"Sarajevo","other_names":{"name:ar":"سراييفو","name:be":"Сараева","name:br":"Sarajevo","name:bs":"Sarajevo","name:de":"Sarajevo","name:en":"Sarajevo","name:es":"Sarajevo","name:fa":"سارایوو","name:fr":"Sarajevo","name:gl":"Saraxevo","name:he":"סרייבו","name:hr":"Sarajevo","name:hu":"Szarajevó","name:it":"Saraievo","name:ja":"サラエヴォ","name:kn":"ಸಾರಯೇವೊ","name:ko":"사라예보","name:lt":"Sarajevas","name:mk":"Сараево","name:ml":"സരയാവോ","name:mr":"साराजेवो","name:no":"Sarajevo","name:oc":"Sarajevo","name:pl":"Sarajewo","name:ru":"Сараево","name:sl":"Sarajevo","name:sr":"Сарајево","name:sv":"Sarajevo","name:ta":"சரஜீவோ","name:tr":"Saraybosna","name:ug":"سارايېۋو","name:uk":"Сараєво","name:ur":"سرائیوو","name:zh":"塞拉耶佛","name:ckb":"سارایێڤۆ","name:lrc":"سارایاٛ ڤو","name:pnb":"سرائیوو","old_name:de":"Sarajewo","name:sr-Latn":"Sarajevo","name:am":"ሳራዬቮ","name:av":"Сараево","name:az":"Sarayevo","name:ba":"Сараево","name:bg":"Сараево","name:bn":"সারায়েভো","name:ca":"Sarajevo","name:ce":"Сараево","name:cu":"Сараѥво","name:cv":"Сараево","name:el":"Σαράγεβο","name:ff":"Sarayevo","name:ga":"Sairéavó","name:hi":"साराजेवो","name:ht":"Sarayevo","name:hy":"Սարաևո","name:is":"Sarajevó","name:ka":"სარაევო","name:kk":"Сараево","name:ku":"Sarayevo","name:ky":"Сараево","name:la":"Seraium","name:lv":"Sarajeva","name:mn":"Сараево","name:my":"ဆာရာယေဗိုမြို့","name:nl":"Sarajevo","name:nv":"Naatʼáaniikin","name:os":"Сараево","name:pa":"ਸਾਰਾਯੇਵੋ","name:ro":"Sarajevo","name:sq":"Sarajeva","name:sw":"Sarayevo","name:tg":"Сараево","name:th":"ซาราเยโว","name:tt":"Сараево","name:uz":"Sarayevo","name:wo":"Saarayego","name:yi":"סאראיעווא","int_name":"Sarajevo","name:ang":"Saragefo","name:ast":"Sarayevu","name:ban":"Sarajévo","name:crh":"Sarayevo","name:dsb":"Sarajewo","name:ext":"Sarajevu","name:hsb":"Sarajewo","name:kaa":"Saraevo","name:lij":"Sarajêvo","name:mdf":"Сараево","name:myv":"Сараево ош","name:sah":"Сараево","name:scn":"Sarajevu","name:sgs":"Sarajevs","name:szl":"Sarajewo","name:udm":"Сараево","name:wuu":"萨拉热窝","name:xmf":"სარაევო","name:yue":"薩拉熱窩","name:zh-Hant-HK":"薩拉熱窩","name:zh-Hant-TW":"塞拉耶佛","alt_name:gl":"Saraievo","alt_name:la":"Saraglium","old_name:az":"Saraybosna","name:zh-Hans":"萨拉热窝","name:zh-Hant":"塞拉耶佛","alt:ml":"സരയേവോ","alt:mr":"सारायेव्हो","alt:ta":"சாரயேவோ","alt:pnb":"سرائیڡو"},"display_name":"Sarajevo, Mjesna zajednica Trg oslobođenja-Centar, Općina Centar, Grad Sarajevo, Kanton Sarajevo, Federacija Bosne i Hercegovine, Bosna i Hercegovina / Босна и Херцеговина","address":{"city":"Sarajevo","suburb":"Mjesna zajednica Trg oslobođenja-Centar","city_district":"Općina Centar","state_district":"Kanton Sarajevo","state":"Federacija Bosne i Hercegovine","ISO3166-2-lvl4":"BA-BIH","country":"Bosna i Hercegovina / Босна и Херцеговина","country_code":"ba"},"population":271194,"osm_type":"relation","osm_id":15445108,"type":"administrative","location":[18.4126147,43.8570713],"bbox":[18.2609843,43.8209096,18.4666283,43.89974]}]}
{"name":"Trebinje","other_names":{"name:ar":"تريبينيي","name:az":"Trebine","name:bg":"Требине","name:bs":"Trebinje","name:de":"Trebinje","name:el":"Τρεμπίνιε","name:en":"Trebinje","name:fa":"تربینیه","name:he":"טרבינייה","name:hr":"Trebinje","name:hy":"Տրեբինե","name:it":"Trebigne","name:ja":"トレビニェ","name:ko":"트레비네","name:la":"Tribulium","name:lt":"Trebinė","name:lv":"Trebiņe","name:mk":"Требиње","name:ml":"ട്രെബിനിയെ","name:ru":"Требине","name:sq":"Trebinja","name:sr":"Требиње","name:tr":"Trebinye","name:uk":"Требинє","name:ur":"تریبینئے","name:zh":"特雷比涅","alt_name:de":"Trebing","alt_name:la":"Tribunium;Trebunium","alt_name:tr":"Trebin","name:sr-Latn":"Trebinje"},"display_name":"Trebinje, Требиње, Град Требиње / Grad Trebinje, Република Српска / Republika Srpska, 89101, Bosna i Hercegovina / Босна и Херцеговина","address":{"city":"Trebinje","county":"Град Требиње / Grad Trebinje","state":"Република Српска / Republika Srpska","ISO3166-2-lvl4":"BA-SRP","postcode":"89101","country":"Bosna i Hercegovina / Босна и Херцеговина","country_code":"ba"},"population":23770,"osm_type":"node","osm_id":253020205,"type":"city","location":[18.3457261,42.7098295],"bbox":[18.1857261,42.5498295,18.5057261,42.8698295],"border":[{"name":"Град Требиње / Grad Trebinje","other_names":{"name:bs":"Grad Trebinje","name:de":"Stadt Trebinje","name:en":"City of Trebinje","name:fr":"Ville de Trebinje","name:hr":"Grad Trebinje","name:lt":"Trebinės miestas","name:ru":"Требине"},"display_name":"Град Требиње / Grad Trebinje, Република Српска / Republika Srpska, Bosna i Hercegovina / Босна и Херцеговина","address":{"county":"Град Требиње / Grad Trebinje","state":"Република Српска / Republika Srpska","ISO3166-2-lvl4":"BA-SRP","country":"Bosna i Hercegovina / Босна и Херцеговина","country_code":"ba"},"population":31433,"osm_type":"relation","osm_id":2528277,"type":"administrative","location":[18.31387805854105,42.7485403],"bbox":[17.9741883,42.5553114,18.5748957,42.9420293]},{"name":"Требиње","other_names":{"name:bs":"Trebinje","name:de":"Trebinje","name:en":"Trebinje","name:hr":"Trebinje","name:it":"Trebigne","name:lt":"Trebinė","name:ru":"Требине","name:sr":"Требиње","name:tr":"Trebinye","name:sr-Latn":"Trebinje"},"display_name":"Требиње, Град Требиње / Grad Trebinje, Република Српска / Republika Srpska, Bosna i Hercegovina / Босна и Херцеговина","address":{"city":"Требиње","county":"Град Требиње / Grad Trebinje","state":"Република Српска / Republika Srpska","ISO3166-2-lvl4":"BA-SRP","country":"Bosna i Hercegovina / Босна и Херцеговина","country_code":"ba"},"population":25589,"osm_type":"relation","osm_id":8821181,"type":"administrative","location":[18.339469115931553,42.71735515],"bbox":[18.2917213,42.6918754,18.3862853,42.7431987]}]}
{"name":"Tuzla","other_names":{"name:ar":"توزلا","name:be":"Тузла","name:bg":"Тузла","name:bs":"Tuzla","name:de":"Tuzla","name:el":"Τούζλα","name:en":"Tuzla","name:es":"Tuzla","name:fa":"توزلا","name:fr":"Tuzla","name:he":"טוזלה","name:hr":"Tuzla","name:hu":"Tuzla","name:hy":"Տուզլա","name:ja":"トゥズラ","name:ka":"ტუზლა","name:kk":"Тузла","name:ko":"투즐라","name:la":"Salines","name:mk":"Тузла","name:ml":"തുസ്ല","name:ru":"Тузла","name:sq":"Tuzlla","name:sr":"Тузла","name:th":"ตุซลา","name:tr":"Tuzla","name:uk":"Тузла","name:ur":"تزلہ","name:pnb":"تزلا","name:vep":"Tuzl","name:wuu":"图兹拉","name:yue":"圖茲拉","old_name":"Soli","alt_name:la":"Soli;Tuzla","old_name:hu":"Só","name:sr-Latn":"Tuzla","name:zh-Hans":"图兹拉","name:zh-Hant":"土茲拉"},"display_name":"Tuzla, Grad Tuzla, Tuzlanski kanton, Federacija Bosne i Hercegovine, 75000, Bosna i Hercegovina / Босна и Херцеговина","address":{"city":"Tuzla","county":"Grad Tuzla","state_district":"Tuzlanski kanton","state":"Federacija Bosne i Hercegovine","ISO3166-2-lvl4":"BA-BIH","postcode":"75000","country":"Bosna i Hercegovina / Босна и Херцеговина","country_code":"ba"},"population":74457,"osm_type":"node","osm_id":275005833,"type":"city","location":[18.675193,44.5391105],"bbox":[18.515193,44.3791105,18.835193,44.6991105],"border":{"name":"Tuzla","display_name":"Tuzla, Grad Tuzla, Tuzlanski kanton, Federacija Bosne i Hercegovine, Bosna i Hercegovina / Босна и Херцеговина","address":{"city_district":"Tuzla","county":"Grad Tuzla","state_district":"Tuzlanski kanton","state":"Federacija Bosne i Hercegovine","ISO3166-2-lvl4":"BA-BIH","country":"Bosna i Hercegovina / Босна и Херцеговина","country_code":"ba"},"osm_type":"relation","osm_id":19215235,"type":"administrative","location":[18.662239394473776,44.5404075],"bbox":[18.5878042,44.4995839,18.7402995,44.5812188]}}
{"name":"Zenica","other_names":{"name:ar":"زينيتسا","name:ba":"Зеница","name:bg":"Зеница","name:bs":"Zenica","name:de":"Zenica","name:el":"Ζένιτσα","name:es":"Zenica","name:fa":"زنیتسا","name:fr":"Zenica","name:he":"זניצה","name:hr":"Zenica","name:hu":"Zenica","name:hy":"Զենիցա","name:ja":"ゼニツァ","name:ka":"ზენიცა","name:kk":"Зеница","name:ko":"제니차","name:la":"Bistua Nova","name:mk":"Зеница","name:ml":"സെനിക","name:ru":"Зеница","name:sr":"Зеница","name:th":"เซนิตซา","name:tt":"Зеница","name:uk":"Зениця","name:ur":"زینیتسا","name:pnb":"زنیکا","name:wuu":"泽尼察","name:yue":"澤尼察","alt_name:de":"Senitza","alt_name:la":"Bistuae","old_name:de":"Senitza","name:sr-Latn":"Zenica","name:zh-Hans":"泽尼察","name:zh-Hant":"澤尼察"},"display_name":"Zenica, Grad Zenica, Zeničko-dobojski kanton, Federacija Bosne i Hercegovine, Bosna i Hercegovina / Босна и Херцеговина","address":{"city":"Zenica","county":"Grad Zenica","state_district":"Zeničko-dobojski kanton","state":"Federacija Bosne i Hercegovine","ISO3166-2-lvl4":"BA-BIH","country":"Bosna i Hercegovina / Босна и Херцеговина","country_code":"ba"},"population":70533,"osm_type":"node","osm_id":1966975750,"type":"city","location":[17.9093012,44.199828],"bbox":[17.7493012,44.039828,18.0693012,44.359828],"border":[{"name":"Grad Zenica","other_names":{"name:bs":"Grad Zenica","name:en":"City of Zenica","name:fr":"Ville de Zenica","name:hr":"Grad Zenica","name:ru":"Зеница"},"display_name":"Grad Zenica, Zeničko-dobojski kanton, Federacija Bosne i Hercegovine, Bosna i Hercegovina / Босна и Херцеговина","address":{"county":"Grad Zenica","state_district":"Zeničko-dobojski kanton","state":"Federacija Bosne i Hercegovine","ISO3166-2-lvl4":"BA-BIH","country":"Bosna i Hercegovina / Босна и Херцеговина","country_code":"ba"},"osm_type":"relation","osm_id":2528293,"type":"administrative","location":[17.95109144242909,44.2650895],"bbox":[17.7370916,44.0908447,18.0978394,44.4419719]},{"name":"Zenica","other_names":{"name:ar":"زينيتسا","name:ba":"Зеница","name:bg":"Зеница","name:bs":"Zenica","name:de":"Zenica","name:el":"Ζένιτσα","name:es":"Zenica","name:fa":"زنیتسا","name:fr":"Zenica","name:he":"זניצה","name:hr":"Zenica","name:hu":"Zenica","name:hy":"Զենիցա","name:ja":"ゼニツァ","name:ka":"ზენიცა","name:kk":"Зеница","name:ko":"제니차","name:la":"Bistua Nova","name:mk":"Зеница","name:ml":"സെനിക","name:ru":"Зеница","name:sr":"Зеница","name:th":"เซนิตซา","name:tt":"Зеница","name:uk":"Зениця","name:ur":"زینیتسا","name:pnb":"زنیکا","name:wuu":"泽尼察","name:yue":"澤尼察","alt_name:de":"Senitza","alt_name:la":"Bistuae","old_name:de":"Senitza","name:sr-Latn":"Zenica","name:zh-Hans":"泽尼察","name:zh-Hant":"澤尼察"},"display_name":"Zenica, Grad Zenica, Zeničko-dobojski kanton, Federacija Bosne i Hercegovine, 72000, Bosna i Hercegovina / Босна и Херцеговина","address":{"city":"Zenica","county":"Grad Zenica","state_district":"Zeničko-dobojski kanton","state":"Federacija Bosne i Hercegovine","ISO3166-2-lvl4":"BA-BIH","postcode":"72000","country":"Bosna i Hercegovina / Босна и Херцеговина","country_code":"ba"},"population":70533,"osm_type":"relation","osm_id":19099080,"type":"administrative","location":[17.9093012,44.199828],"bbox":[17.8689631,44.161763,17.9842402,44.2655889]}]}
{"name":"МЗ Čejreci","other_names":{"name:sr":"МЗ Чејреци"},"display_name":"МЗ Čejreci, Grad Prijedor, Република Српска / Republika Srpska, Bosna i Hercegovina / Босна и Херцеговина","address":{"city":"МЗ Čejreci","county":"Grad Prijedor","state":"Република Српска / Republika Srpska","ISO3166-2-lvl4":"BA-SRP","country":"Bosna i Hercegovina / Босна и Херцеговина","country_code":"ba"},"osm_type":"relation","osm_id":5736524,"type":"administrative","location":[16.70057647315455,45.00546345],"bbox":[16.6817747,44.9919417,16.7143728,45.0188951],"inferred_type":"city"}
