{"name":"Banovići","other_names":{"name:ru":"Бановичи","name:sr":"Бановићи","name:sr-Latn":"Banovići"},"display_name":"Banovići, Općina Banovići, Tuzlanski kanton, Federacija Bosne i Hercegovine, 75290, Bosna i Hercegovina / Босна и Херцеговина","address":{"town":"Banovići","municipality":"Općina Banovići","state_district":"Tuzlanski kanton","state":"Federacija Bosne i Hercegovine","ISO3166-2-lvl4":"BA-BIH","postcode":"75290","country":"Bosna i Hercegovina / Босна и Херцеговина","country_code":"ba"},"population":23431,"osm_type":"node","osm_id":322034490,"type":"town","location":[18.5292365,44.4088812],"bbox":[18.4892365,44.3688812,18.5692365,44.4488812]}
{"name":"Bileća","other_names":{"name:ru":"Билеча","name:sr":"Билећа","name:sr-Latn":"Bileća"},"display_name":"Bileća, Општина Билећа / Opština Bileća, Република Српска / Republika Srpska, 89230, Bosna i Hercegovina / Босна и Херцеговина","address":{"town":"Bileća","municipality":"Општина Билећа / Opština Bileća","state":"Република Српска / Republika Srpska","ISO3166-2-lvl4":"BA-SRP","postcode":"89230","country":"Bosna i Hercegovina / Босна и Херцеговина","country_code":"ba"},"population":8332,"osm_type":"node","osm_id":254037328,"type":"town","location":[18.4279766,42.8748513],"bbox":[18.3879766,42.8348513,18.4679766,42.9148513],"border":{"name":"Билећа","other_names":{"name:bs":"Bileća","name:en":"Bileca","name:hr":"Bileća","name:sr":"Билећа","name:sr-Latn":"Bileća"},"display_name":"Билећа, Општина Билећа / Opština Bileća, Република Српска / Republika Srpska, 89230, Bosna i Hercegovina / Босна и Херцеговина","address":{"city_district":"Билећа","municipality":"Општина Билећа / Opština Bileća","state":"Република Српска / Republika Srpska","ISO3166-2-lvl4":"BA-SRP","postcode":"89230","country":"Bosna i Hercegovina / Босна и Херцеговина","country_code":"ba"},"osm_type":"relation","osm_id":8850390,"type":"administrative","location":[18.43694768151,42.8751661],"bbox":[18.4064019,42.8516174,18.4557009,42.8984543]}}
{"name":"Bosanska Krupa","other_names":{"name:ar":"بوسانسكا كروبا","name:bg":"Босанска Крупа","name:bs":"Bosanska Krupa","name:el":"Μποσάνσκα Κρούπα","name:fa":"بوسانسکا کروپا","name:hr":"Bosanska Krupa","name:hy":"Բոսանսկա Կրուպա","name:ja":"ボサンスカ・クルパ","name:ko":"보산스카크루파","name:mk":"Босанска Крупа","name:ru":"Босанска-Крупа","name:sr":"Босанска Крупа","name:uk":"Босанська Крупа","name:ur":"بوسانسکا کروپا","name:sr-Latn":"Bosanska Krupa","name:zh-Hans":"波斯尼亚克鲁帕","name:zh-Hant":"波士尼亞克魯帕"},"display_name":"Bosanska Krupa, Grad Bosanska Krupa, Unsko-sanski kanton, Federacija Bosne i Hercegovine, 77240, Bosna i Hercegovina / Босна и Херцеговина","address":{"town":"Bosanska Krupa","county":"Grad Bosanska Krupa","state_district":"Unsko-sanski kanton","state":"Federacija Bosne i Hercegovine","ISO3166-2-lvl4":"BA-BIH","postcode":"77240","country":"Bosna i Hercegovina / Босна и Херцеговина","country_code":"ba"},"population":10196,"osm_type":"node","osm_id":841364318,"type":"town","location":[16.1577,44.8824428],"bbox":[16.1177,44.8424428,16.1977,44.9224428]}
{"name":"Bosanski Petrovac","other_names":{"name:hr":"Bosanski Petrovac","name:ru":"Босански-Петровац","name:sr":"Босански Петровац","name:sr-Latn":"Bosanski Petrovac"},"display_name":"Bosanski Petrovac, Općina Bosanski Petrovac, Unsko-sanski kanton, Federacija Bosne i Hercegovine, Bosna i Hercegovina / Босна и Херцеговина","address":{"town":"Bosanski Petrovac","municipality":"Općina Bosanski Petrovac","state_district":"Unsko-sanski kanton","state":"Federacija Bosne i Hercegovine","ISO3166-2-lvl4":"BA-BIH","country":"Bosna i Hercegovina / Босна и Херцеговина","country_code":"ba"},"population":3427,"osm_type":"node","osm_id":631985677,"type":"town","location":[16.3686978,44.5543706],"bbox":[16.3286978,44.5143706,16.4086978,44.5943706],"border":{"name":"Bosanski Petrovac","display_name":"Bosanski Petrovac, Općina Bosanski Petrovac, Unsko-sanski kanton, Federacija Bosne i Hercegovine, Bosna i Hercegovina / Босна и Херцеговина","address":{"city_district":"Bosanski Petrovac","municipality":"Općina Bosanski Petrovac","state_district":"Unsko-sanski kanton","state":"Federacija Bosne i Hercegovine","ISO3166-2-lvl4":"BA-BIH","country":"Bosna i Hercegovina / Босна и Херцеговина","country_code":"ba"},"osm_type":"relation","osm_id":19163310,"type":"administrative","location":[16.349581812665736,44.5581339],"bbox":[16.2907222,44.5324958,16.4039592,44.5836641]}}
{"name":"Bosansko Grahovo","other_names":{"name:ru":"Босанско-Грахово","name:sr":"Босанско Грахово","name:sr-Latn":"Bosansko Grahovo"},"display_name":"Bosansko Grahovo, Općina Bosansko Grahovo, Hercegbosanska županija, Federacija Bosne i Hercegovine, 80270, Bosna i Hercegovina / Босна и Херцеговина","address":{"town":"Bosansko Grahovo","municipality":"Općina Bosansko Grahovo","state_district":"Hercegbosanska županija","state":"Federacija Bosne i Hercegovine","ISO3166-2-lvl4":"BA-BIH","postcode":"80270","country":"Bosna i Hercegovina / Босна и Херцеговина","country_code":"ba"},"population":651,"osm_type":"node","osm_id":593889025,"type":"town","location":[16.3639977,44.1794878],"bbox":[16.3239977,44.1394878,16.4039977,44.2194878]}
{"name":"Bratunac","other_names":{"name:de":"Bratunac","name:en":"Bratunac","name:hr":"Bratunac","name:ru":"Братунац","name:sr":"Братунац","name:sr-Latn":"Bratunac"},"display_name":"Bratunac, Opština Bratunac, Република Српска / Republika Srpska, 75420, Bosna i Hercegovina / Босна и Херцеговина","address":{"town":"Bratunac","municipality":"Opština Bratunac","state":"Република Српска / Republika Srpska","ISO3166-2-lvl4":"BA-SRP","postcode":"75420","country":"Bosna i Hercegovina / Босна и Херцеговина","country_code":"ba"},"population":7858,"osm_type":"node","osm_id":289535529,"type":"town","location":[19.3310341,44.1840152],"bbox":[19.2910341,44.1440152,19.3710341,44.2240152],"border":{"name":"Братунац","other_names":{"name:en":"Bratunac","name:sr":"Братунац"},"display_name":"Братунац, Opština Bratunac, Република Српска / Republika Srpska, 75420, Bosna i Hercegovina / Босна и Херцеговина","address":{"city_district":"Братунац","municipality":"Opština Bratunac","state":"Република Српска / Republika Srpska","ISO3166-2-lvl4":"BA-SRP","postcode":"75420","country":"Bosna i Hercegovina / Босна и Херцеговина","country_code":"ba"},"osm_type":"relation","osm_id":14642796,"type":"administrative","location":[19.340027263509505,44.18787795],"bbox":[19.3131494,44.1717239,19.3581883,44.2041815]}}
{"name":"Breza","other_names":{"name:ru":"Бреза","name:sr":"Бреза","name:sr-Latn":"Breza"},"display_name":"Breza, Općina Breza, Zeničko-dobojski kanton, Federacija Bosne i Hercegovine, 71370, Bosna i Hercegovina / Босна и Херцеговина","address":{"town":"Breza","municipality":"Općina Breza","state_district":"Zeničko-dobojski kanton","state":"Federacija Bosne i Hercegovine","ISO3166-2-lvl4":"BA-BIH","postcode":"71370","country":"Bosna i Hercegovina / Босна и Херцеговина","country_code":"ba"},"population":3014,"osm_type":"node","osm_id":578046731,"type":"town","location":[18.2608652,44.0182913],"bbox":[18.2208652,43.9782913,18.3008652,44.0582913]}
{"name":"Brod","other_names":{"name:bg":"Брод","name:bs":"Brod","name:de":"Brod","name:en":"Brod","name:fa":"برود","name:hr":"Bosanski Brod","name:hu":"Bród","name:hy":"Բրոդ","name:ja":"ブロド","name:ko":"브로드","name:lt":"Brodas","name:ru":"Брод","name:sr":"Брод","name:uk":"Брод","name:ur":"برود","int_name":"Brod","name:rue":"Брод","old_name":"Bosanski Brod;Srpski Brod","old_name:ja":"ボサンスキ・ブロド","old_name:ko":"보산스키브로드","old_name:lt":"Bosnių Brodas;Serbų Brodas","old_name:sr":"Босански Брод;Српски Брод","old_name:tr":"Bosnabuyuncik;Bosnaboyuncuk","name:sr-Latn":"Brod","name:zh-Hans":"布罗德","name:zh-Hant":"布羅德","old_name:zh-Hans":"波斯尼亚布罗德","old_name:zh-Hant":"波士尼亞布羅德"},"display_name":"Brod, Opština Brod, Република Српска / Republika Srpska, Bosna i Hercegovina / Босна и Херцеговина","address":{"town":"Brod","municipality":"Opština Brod","state":"Република Српска / Republika Srpska","ISO3166-2-lvl4":"BA-SRP","country":"Bosna i Hercegovina / Босна и Херцеговина","country_code":"ba"},"population":8563,"osm_type":"node","osm_id":1391468543,"type":"town","location":[17.9991557,45.1464044],"bbox":[17.9591557,45.1064044,18.0391557,45.1864044],"border":{"name":"Brod","other_names":{"name:bs":"Brod","name:hr":"Bosanski Brod","name:sr":"Брод","name:sr-Latn":"Brod","name:bg":"Брод","name:de":"Brod","name:en":"Brod","name:fa":"برود","name:hu":"Bród","name:hy":"Բրոդ","name:ja":"ブロド","name:ko":"브로드","name:lt":"Brodas","name:ru":"Брод","name:uk":"Брод","name:ur":"برود","int_name":"Brod","name:rue":"Брод","old_name":"Bosanski Brod;Srpski Brod","old_name:ja":"ボサンスキ・ブロド","old_name:ko":"보산스키브로드","old_name:lt":"Bosnių Brodas;Serbų Brodas","old_name:sr":"Босански Брод;Српски Брод","old_name:tr":"Bosnabuyuncik;Bosnaboyuncuk","name:zh-Hans":"布罗德","name:zh-Hant":"布羅德","old_name:zh-Hans":"波斯尼亚布罗德","old_name:zh-Hant":"波士尼亞布羅德"},"display_name":"Brod, Opština Brod, Република Српска / Republika Srpska, 74450, Bosna i Hercegovina / Босна и Херцеговина","address":{"town":"Brod","municipality":"Opština Brod","state":"Република Српска / Republika Srpska","ISO3166-2-lvl4":"BA-SRP","postcode":"74450","country":"Bosna i Hercegovina / Босна и Херцеговина","country_code":"ba"},"population":8563,"osm_type":"relation","osm_id":13943664,"type":"administrative","location":[17.9991557,45.1464044],"bbox":[17.9748576,45.1141324,18.0492257,45.1517292]}}
{"name":"Bugojno","other_names":{"name:ar":"بوغوينو","name:bs":"Bugojno","name:fa":"بوگوینو","name:he":"בוגוינו","name:hr":"Bugojno","name:hy":"Բուգոյնո","name:ja":"ブゴイノ","name:lt":"Bugoinas","name:mk":"Бугојно","name:ru":"Бугойно","name:sr":"Бугојно","name:uk":"Бугойно","name:ur":"بوگوئنو","alt_name:tr":"Bugoyna","name:sr-Latn":"Bugojno","name:zh-Hans":"布戈伊诺","name:zh-Hant":"布戈伊諾"},"display_name":"Bugojno, Općina Bugojno, Srednjobosanski kanton / Županija Središnja Bosna, Federacija Bosne i Hercegovine, 70230, Bosna i Hercegovina / Босна и Херцеговина","address":{"town":"Bugojno","municipality":"Općina Bugojno","state_district":"Srednjobosanski kanton / Županija Središnja Bosna","state":"Federacija Bosne i Hercegovine","ISO3166-2-lvl4":"BA-BIH","postcode":"70230","country":"Bosna i Hercegovina / Босна и Херцеговина","country_code":"ba"},"population":15555,"osm_type":"node","osm_id":251285063,"type":"town","location":[17.4509043,44.0558542],"bbox":[17.4109043,44.0158542,17.4909043,44.0958542],"border":{"name":"Bugojno","other_names":{"name:sr":"Бугојно"},"display_name":"Bugojno, Općina Bugojno, Srednjobosanski kanton / Županija Središnja Bosna, Federacija Bosne i Hercegovine, 70230, Bosna i Hercegovina / Босна и Херцеговина","address":{"city_district":"Bugojno","municipality":"Općina Bugojno","state_district":"Srednjobosanski kanton / Županija Središnja Bosna","state":"Federacija Bosne i Hercegovine","ISO3166-2-lvl4":"BA-BIH","postcode":"70230","country":"Bosna i Hercegovina / Босна и Херцеговина","country_code":"ba"},"population":15555,"osm_type":"relation","osm_id":9234976,"type":"administrative","location":[17.450882178362733,44.064219800000004],"bbox":[17.4302695,44.0412406,17.4648716,44.0867126]}}
{"name":"Busovača","other_names":{"name:hr":"Busovača","name:ru":"Бусовача","name:sr":"Бусовача","name:sr-Latn":"Busovača"},"display_name":"Busovača, Općina Busovača, Srednjobosanski kanton / Županija Središnja Bosna, Federacija Bosne i Hercegovine, Bosna i Hercegovina / Босна и Херцеговина","address":{"town":"Busovača","municipality":"Općina Busovača","state_district":"Srednjobosanski kanton / Županija Središnja Bosna","state":"Federacija Bosne i Hercegovine","ISO3166-2-lvl4":"BA-BIH","country":"Bosna i Hercegovina / Босна и Херцеговина","country_code":"ba"},"population":3894,"osm_type":"node","osm_id":251287340,"type":"town","location":[17.8791295,44.0984764],"bbox":[17.8391295,44.0584764,17.9191295,44.1384764]}
{"name":"Bužim","other_names":{"name:ar":"بوزيم","name:bs":"Bužim","name:hr":"Bužim","name:ja":"ブジム","name:ko":"부짐","name:lt":"Bužimas","name:ru":"Бужим","name:sq":"Buzhim","name:sr":"Бужим","name:ur":"بوژیم","name:zh":"布日姆","name:sr-Latn":"Bužim"},"display_name":"Bužim, Općina Bužim, Unsko-sanski kanton, Federacija Bosne i Hercegovine, 77245, Bosna i Hercegovina / Босна и Херцеговина","address":{"town":"Bužim","municipality":"Općina Bužim","state_district":"Unsko-sanski kanton","state":"Federacija Bosne i Hercegovine","ISO3166-2-lvl4":"BA-BIH","postcode":"77245","country":"Bosna i Hercegovina / Босна и Херцеговина","country_code":"ba"},"population":3653,"osm_type":"node","osm_id":765262476,"type":"town","location":[16.0323903,45.0612916],"bbox":[15.9923903,45.0212916,16.0723903,45.1012916]}
{"name":"Čajniče","other_names":{"name:bs":"Čajniče","name:hr":"Čajniče","name:ml":"ചായ്നിച്ചെ","name:sr":"Чајниче","name:sr-Latn":"Čajniče"},"display_name":"Čajniče, Opština Čajniče, Република Српска / Republika Srpska, Bosna i Hercegovina / Босна и Херцеговина","address":{"town":"Čajniče","municipality":"Opština Čajniče","state":"Република Српска / Republika Srpska","ISO3166-2-lvl4":"BA-SRP","country":"Bosna i Hercegovina / Босна и Херцеговина","country_code":"ba"},"population":2401,"osm_type":"node","osm_id":2483863642,"type":"town","location":[19.0715447,43.5568196],"bbox":[19.0315447,43.5168196,19.1115447,43.5968196],"border":{"name":"Чајниче","other_names":{"name:en":"Cajnice","name:sr":"Чајниче"},"display_name":"Чајниче, Opština Čajniče, Република Српска / Republika Srpska, Bosna i Hercegovina / Босна и Херцеговина","address":{"city_district":"Чајниче","municipality":"Opština Čajniče","state":"Република Српска / Republika Srpska","ISO3166-2-lvl4":"BA-SRP","country":"Bosna i Hercegovina / Босна и Херцеговина","country_code":"ba"},"osm_type":"relation","osm_id":14565707,"type":"administrative","location":[19.070603804292283,43.55077205],"bbox":[19.0493703,43.5383443,19.0895283,43.5643161]}}
{"name":"Čapljina","other_names":{"name:ar":"شابلينا","name:bg":"Чаплина","name:bs":"Čapljina","name:fa":"چاپلینا","name:hr":"Čapljina","name:ja":"チャプリナ","name:ko":"차플리나","name:lt":"Čaplina","name:ml":"ചാപ്ലീന","name:ru":"Чаплина","name:sl":"Čapljina","name:sq":"Çaplina","name:sr":"Чапљина","name:uk":"Чапліна","name:ur":"چاپلینا","name:sr-Latn":"Čapljina","name:zh-Hans":"查普利纳","name:zh-Hant":"查普利納"},"display_name":"Čapljina, Grad Čapljina, Hercegovačko-neretvanska županija (kanton), Federacija Bosne i Hercegovine, 88300, Bosna i Hercegovina / Босна и Херцеговина","address":{"town":"Čapljina","county":"Grad Čapljina","state_district":"Hercegovačko-neretvanska županija (kanton)","state":"Federacija Bosne i Hercegovine","ISO3166-2-lvl4":"BA-BIH","postcode":"88300","country":"Bosna i Hercegovina / Босна и Херцеговина","country_code":"ba"},"population":5774,"osm_type":"node","osm_id":416908125,"type":"town","location":[17.705039,43.1133536],"bbox":[17.665039,43.0733536,17.745039,43.1533536],"border":{"name":"Čapljina","display_name":"Čapljina, Grad Čapljina, Hercegovačko-neretvanska županija (kanton), Federacija Bosne i Hercegovine, 88300, Bosna i Hercegovina / Босна и Херцеговина","address":{"city_district":"Čapljina","county":"Grad Čapljina","state_district":"Hercegovačko-neretvanska županija (kanton)","state":"Federacija Bosne i Hercegovine","ISO3166-2-lvl4":"BA-BIH","postcode":"88300","country":"Bosna i Hercegovina / Босна и Херцеговина","country_code":"ba"},"osm_type":"relation","osm_id":13199039,"type":"administrative","location":[17.699164209986513,43.117639749999995],"bbox":[17.6849281,43.0996269,17.7118285,43.1350591]}}
{"name":"Cazin","other_names":{"name:ar":"كازين","name:be":"Цазін","name:bs":"Cazin","name:fa":"تسازین","name:hr":"Cazin","name:ja":"ツァジン","name:ko":"차진","name:lt":"Cazinas","name:mk":"Цазин","name:ru":"Цазин","name:sq":"Cazini","name:sr":"Цазин","name:tr":"Sazin","name:tt":"Цазин","name:uk":"Цазин","name:ur":"کازن","name:zh":"察津","name:sr-Latn":"Cazin"},"display_name":"Cazin, Grad Cazin, Unsko-sanski kanton, Federacija Bosne i Hercegovine, 77220, Bosna i Hercegovina / Босна и Херцеговина","address":{"town":"Cazin","county":"Grad Cazin","state_district":"Unsko-sanski kanton","state":"Federacija Bosne i Hercegovine","ISO3166-2-lvl4":"BA-BIH","postcode":"77220","country":"Bosna i Hercegovina / Босна и Херцеговина","country_code":"ba"},"population":13863,"osm_type":"node","osm_id":538061083,"type":"town","location":[15.9422967,44.9665331],"bbox":[15.9022967,44.9265331,15.9822967,45.0065331],"border":{"name":"Cazin","display_name":"Cazin, Grad Cazin, Unsko-sanski kanton, Federacija Bosne i Hercegovine, 77220, Bosna i Hercegovina / Босна и Херцеговина","address":{"city_district":"Cazin","county":"Grad Cazin","state_district":"Unsko-sanski kanton","state":"Federacija Bosne i Hercegovine","ISO3166-2-lvl4":"BA-BIH","postcode":"77220","country":"Bosna i Hercegovina / Босна и Херцеговина","country_code":"ba"},"osm_type":"relation","osm_id":19066713,"type":"administrative","location":[15.930466867132228,44.97154315],"bbox":[15.8936589,44.9418937,15.9716854,45.0011662]}}
{"name":"Čelić","other_names":{"name:ru":"Челич","name:sr":"Челић","name:sr-Latn":"Čelić"},"display_name":"Čelić, Općina Čelić, Tuzlanski kanton, Federacija Bosne i Hercegovine, 75246, Bosna i Hercegovina / Босна и Херцеговина","address":{"town":"Čelić","municipality":"Općina Čelić","state_district":"Tuzlanski kanton","state":"Federacija Bosne i Hercegovine","ISO3166-2-lvl4":"BA-BIH","postcode":"75246","country":"Bosna i Hercegovina / Босна и Херцеговина","country_code":"ba"},"population":12000,"osm_type":"node","osm_id":364768042,"type":"town","location":[18.8200011,44.722508],"bbox":[18.7800011,44.682508,18.8600011,44.762508],"border":{"name":"Челић","other_names":{"name:en":"Celic","name:sr":"Челић"},"display_name":"Челић, Opština Lopare, Република Српска / Republika Srpska, Bosna i Hercegovina / Босна и Херцеговина","address":{"city_district":"Челић","municipality":"Opština Lopare","state":"Република Српска / Republika Srpska","ISO3166-2-lvl4":"BA-SRP","country":"Bosna i Hercegovina / Босна и Херцеговина","country_code":"ba"},"osm_type":"relation","osm_id":14575483,"type":"administrative","location":[18.809105771252565,44.70243325],"bbox":[18.7922747,44.6949558,18.8578391,44.7552136]}}
{"name":"Čelinac","other_names":{"name:sr":"Челинац","name:sr-Latn":"Čelinac"},"display_name":"Čelinac, Opština Čelinac, Република Српска / Republika Srpska, 78240, Bosna i Hercegovina / Босна и Херцеговина","address":{"town":"Čelinac","municipality":"Opština Čelinac","state":"Република Српска / Republika Srpska","ISO3166-2-lvl4":"BA-SRP","postcode":"78240","country":"Bosna i Hercegovina / Босна и Херцеговина","country_code":"ba"},"population":5802,"osm_type":"node","osm_id":251279658,"type":"town","location":[17.319359,44.7241731],"bbox":[17.279359,44.6841731,17.359359,44.7641731],"border":{"name":"Челинац","other_names":{"name:en":"Celinac","name:sr":"Челинац"},"display_name":"Челинац, Opština Čelinac, Република Српска / Republika Srpska, 78240, Bosna i Hercegovina / Босна и Херцеговина","address":{"city_district":"Челинац","municipality":"Opština Čelinac","state":"Република Српска / Republika Srpska","ISO3166-2-lvl4":"BA-SRP","postcode":"78240","country":"Bosna i Hercegovina / Босна и Херцеговина","country_code":"ba"},"osm_type":"relation","osm_id":14605171,"type":"administrative","location":[17.315053321778358,44.731152249999994],"bbox":[17.2848682,44.7117588,17.3404062,44.7508849]}}
{"name":"Čitluk","other_names":{"name:he":"צ'יטלוק","name:hr":"Čitluk","name:ml":"ചിറ്റ്ലുക്ക്","name:ru":"Читлук","name:sl":"Čitluk","name:sr":"Читлук","name:sr-Latn":"Čitluk"},"display_name":"Čitluk, Općina Čitluk, Hercegovačko-neretvanska županija (kanton), Federacija Bosne i Hercegovine, 88260, Bosna i Hercegovina / Босна и Херцеговина","address":{"town":"Čitluk","municipality":"Općina Čitluk","state_district":"Hercegovačko-neretvanska županija (kanton)","state":"Federacija Bosne i Hercegovine","ISO3166-2-lvl4":"BA-BIH","postcode":"88260","country":"Bosna i Hercegovina / Босна и Херцеговина","country_code":"ba"},"population":3312,"osm_type":"node","osm_id":1616674588,"type":"town","location":[17.6963313,43.2267192],"bbox":[17.6563313,43.1867192,17.7363313,43.2667192]}
{"name":"Derventa","other_names":{"name:ar":"درفنتا","name:bg":"Дервента","name:el":"Ντέρβεντα","name:fa":"درونتا","name:he":"דרוונטה","name:hr":"Derventa","name:hy":"Դերվենտա","name:ja":"デルヴェンタ","name:mk":"Дервента","name:ru":"Дервента","name:sr":"Дервента","name:tr":"Derbent","name:uk":"Дервента","name:ur":"دروینتا","alt_name:tr":"Derbend","name:sr-Latn":"Derventa","name:zh-Hans":"代尔文塔","name:zh-Hant":"代爾文塔"},"display_name":"Derventa, Grad Derventa, Република Српска / Republika Srpska, 74400, Bosna i Hercegovina / Босна и Херцеговина","address":{"town":"Derventa","county":"Grad Derventa","state":"Република Српска / Republika Srpska","ISO3166-2-lvl4":"BA-SRP","postcode":"74400","country":"Bosna i Hercegovina / Босна и Херцеговина","country_code":"ba"},"population":11631,"osm_type":"node","osm_id":5927190157,"type":"town","location":[17.906959,44.9767094],"bbox":[17.866959,44.9367094,17.946959,45.0167094],"border":{"name":"Дервента","other_names":{"name:en":"Derventa","name:sr":"Дервента"},"display_name":"Дервента, Grad Derventa, Република Српска / Republika Srpska, Bosna i Hercegovina / Босна и Херцеговина","address":{"city_district":"Дервента","county":"Grad Derventa","state":"Република Српска / Republika Srpska","ISO3166-2-lvl4":"BA-SRP","country":"Bosna i Hercegovina / Босна и Херцеговина","country_code":"ba"},"osm_type":"relation","osm_id":14587496,"type":"administrative","location":[17.89761579390046,44.97773925],"bbox":[17.8670311,44.951307,17.9364252,45.004167]}}
{"name":"Donji Vakuf","other_names":{"name:ru":"Дони-Вакуф","name:sr":"Доњи Вакуф","name:sr-Latn":"Donji Vakuf"},"display_name":"Donji Vakuf, Općina Donji Vakuf, Srednjobosanski kanton / Županija Središnja Bosna, Federacija Bosne i Hercegovine, 70220, Bosna i Hercegovina / Босна и Херцеговина","address":{"town":"Donji Vakuf","municipality":"Općina Donji Vakuf","state_district":"Srednjobosanski kanton / Županija Središnja Bosna","state":"Federacija Bosne i Hercegovine","ISO3166-2-lvl4":"BA-BIH","postcode":"70220","country":"Bosna i Hercegovina / Босна и Херцеговина","country_code":"ba"},"population":6711,"osm_type":"node","osm_id":251285718,"type":"town","location":[17.3949964,44.144488],"bbox":[17.3549964,44.104488,17.4349964,44.184488]}
{"name":"Drvar","other_names":{"name:bs":"Drvar","name:fr":"Drvar","name:hr":"Drvar","name:no":"Drvar","name:ru":"Дрвар","name:sk":"Drvar","name:sl":"Drvar","name:sr":"Дрвар","name:sr-Latn":"Drvar"},"display_name":"Drvar, Općina Drvar, Hercegbosanska županija, Federacija Bosne i Hercegovine, 80260, Bosna i Hercegovina / Босна и Херцеговина","address":{"town":"Drvar","municipality":"Općina Drvar","state_district":"Hercegbosanska županija","state":"Federacija Bosne i Hercegovine","ISO3166-2-lvl4":"BA-BIH","postcode":"80260","country":"Bosna i Hercegovina / Босна и Херцеговина","country_code":"ba"},"population":3703,"osm_type":"node","osm_id":135291488,"type":"town","location":[16.3845503,44.3740882],"bbox":[16.3445503,44.3340882,16.4245503,44.4140882],"border":{"name":"Drvar","display_name":"Drvar, Općina Drvar, Hercegbosanska županija, Federacija Bosne i Hercegovine, 80260, Bosna i Hercegovina / Босна и Херцеговина","address":{"city_district":"Drvar","municipality":"Općina Drvar","state_district":"Hercegbosanska županija","state":"Federacija Bosne i Hercegovine","ISO3166-2-lvl4":"BA-BIH","postcode":"80260","country":"Bosna i Hercegovina / Босна и Херцеговина","country_code":"ba"},"osm_type":"relation","osm_id":19200497,"type":"administrative","location":[16.381731011866407,44.37195365],"bbox":[16.3634824,44.3544131,16.4049438,44.3893422]}}
{"name":"Foča","other_names":{"name:bs":"Foča","name:en":"Foca","name:hr":"Foča","name:ml":"ഫോച്ച","name:ru":"Фоча","name:sr":"Фоча","name:tr":"Foça","name:sr-Latn":"Foča"},"display_name":"Foča, Opština Foča (RS), Република Српска / Republika Srpska, Bosna i Hercegovina / Босна и Херцеговина","address":{"town":"Foča","municipality":"Opština Foča (RS)","state":"Република Српска / Republika Srpska","ISO3166-2-lvl4":"BA-SRP","country":"Bosna i Hercegovina / Босна и Херцеговина","country_code":"ba"},"population":12334,"osm_type":"node","osm_id":251856799,"type":"town","location":[18.774393,43.5058554],"bbox":[18.734393,43.4658554,18.814393,43.5458554],"border":{"name":"Foča","other_names":{"name:bs":"Foča","name:en":"Foca","name:hr":"Foča","name:ru":"Фоча","name:sr":"Фоча","name:tr":"Foça","name:sr-Latn":"Foča","name:ml":"ഫോച്ച"},"display_name":"Foča, Opština Foča (RS), Република Српска / Republika Srpska, Bosna i Hercegovina / Босна и Херцеговина","address":{"town":"Foča","municipality":"Opština Foča (RS)","state":"Република Српска / Republika Srpska","ISO3166-2-lvl4":"BA-SRP","country":"Bosna i Hercegovina / Босна и Херцеговина","country_code":"ba"},"population":12334,"osm_type":"relation","osm_id":8888357,"type":"administrative","location":[18.774393,43.5058554],"bbox":[18.7661373,43.4893113,18.8062441,43.5416775]}}
{"name":"Fojnica","other_names":{"name:ar":"فوينيتسا","name:hr":"Fojnica","name:ru":"Фойница","name:sr":"Фојница","name:sr-Latn":"Fojnica"},"display_name":"Fojnica, Općina Fojnica, Srednjobosanski kanton / Županija Središnja Bosna, Federacija Bosne i Hercegovine, 71270, Bosna i Hercegovina / Босна и Херцеговина","address":{"town":"Fojnica","municipality":"Općina Fojnica","state_district":"Srednjobosanski kanton / Županija Središnja Bosna","state":"Federacija Bosne i Hercegovine","ISO3166-2-lvl4":"BA-BIH","postcode":"71270","country":"Bosna i Hercegovina / Босна и Херцеговина","country_code":"ba"},"population":3570,"osm_type":"node","osm_id":315878397,"type":"town","location":[17.8990217,43.9634432],"bbox":[17.8590217,43.9234432,17.9390217,44.0034432]}
{"name":"Gacko","other_names":{"name:hr":"Gacko","name:ru":"Гацко","name:sr":"Гацко","name:sr-Latn":"Gacko"},"display_name":"Gacko, Opština Gacko, Република Српска / Republika Srpska, 89240, Bosna i Hercegovina / Босна и Херцеговина","address":{"town":"Gacko","municipality":"Opština Gacko","state":"Република Српска / Republika Srpska","ISO3166-2-lvl4":"BA-SRP","postcode":"89240","country":"Bosna i Hercegovina / Босна и Херцеговина","country_code":"ba"},"population":5363,"osm_type":"node","osm_id":254037311,"type":"town","location":[18.5357977,43.1664068],"bbox":[18.4957977,43.1264068,18.5757977,43.2064068],"border":{"name":"Гацко","other_names":{"name:bs":"Gacko","name:en":"Gacko","name:hr":"Gacko","name:sr":"Гацко","name:sr-Latn":"Gacko"},"display_name":"Гацко, Opština Gacko, Република Српска / Republika Srpska, 89240, Bosna i Hercegovina / Босна и Херцеговина","address":{"city_district":"Гацко","municipality":"Opština Gacko","state":"Република Српска / Republika Srpska","ISO3166-2-lvl4":"BA-SRP","postcode":"89240","country":"Bosna i Hercegovina / Босна и Херцеговина","country_code":"ba"},"osm_type":"relation","osm_id":9043629,"type":"administrative","location":[18.527815597736517,43.16554525],"bbox":[18.4890354,43.1317849,18.5664546,43.1989975]}}
{"name":"Glamoč","other_names":{"name:ru":"Гламоч","name:sr":"Гламоч","name:sr-Latn":"Glamoč"},"display_name":"Glamoč, Općina Glamoč, Hercegbosanska županija, Federacija Bosne i Hercegovine, 80230, Bosna i Hercegovina / Босна и Херцеговина","address":{"town":"Glamoč","municipality":"Općina Glamoč","state_district":"Hercegbosanska županija","state":"Federacija Bosne i Hercegovine","ISO3166-2-lvl4":"BA-BIH","postcode":"80230","country":"Bosna i Hercegovina / Босна и Херцеговина","country_code":"ba"},"population":1885,"osm_type":"node","osm_id":1676862214,"type":"town","location":[16.8499014,44.0449852],"bbox":[16.8099014,44.0049852,16.8899014,44.0849852],"border":{"name":"Glamoč","other_names":{"name:en":"Glamoč","name:fr":"Glamoč","name:hr":"Glamoč"},"display_name":"Glamoč, Općina Glamoč, Hercegbosanska županija, Federacija Bosne i Hercegovine, 80230, Bosna i Hercegovina / Босна и Херцеговина","address":{"city_district":"Glamoč","municipality":"Općina Glamoč","state_district":"Hercegbosanska županija","state":"Federacija Bosne i Hercegovine","ISO3166-2-lvl4":"BA-BIH","postcode":"80230","country":"Bosna i Hercegovina / Босна и Херцеговина","country_code":"ba"},"population":1885,"osm_type":"relation","osm_id":16173426,"type":"administrative","location":[16.843019172787496,44.0258508],"bbox":[16.7925167,43.990881,16.8831083,44.0612391]}}
{"name":"Goražde","other_names":{"name:ar":"غورازده","name:be":"Гораждзе","name:bg":"Горажде","name:el":"Γκόραζντε","name:fa":"گراژده","name:hr":"Goražde","name:hy":"Գորաժդե","name:ja":"ゴラジュデ","name:ko":"고라주데","name:la":"Gorazda","name:lt":"Goraždė","name:ml":"ഗൊറജ്‌ഡെ","name:ru":"Горажде","name:sq":"Gorazhda","name:sr":"Горажде","name:tr":"Gorajde","name:uk":"Горажде","name:ur":"گورشدے","name:zh":"戈拉日代","alt_name:de":"Goraschde;Strupnitsch","name:sr-Latn":"Goražde"},"display_name":"Goražde, Grad Goražde, Bosansko-podrinjski kanton Goražde, Federacija Bosne i Hercegovine, 73000, Bosna i Hercegovina / Босна и Херцеговина","address":{"town":"Goražde","county":"Grad Goražde","state_district":"Bosansko-podrinjski kanton Goražde","state":"Federacija Bosne i Hercegovine","ISO3166-2-lvl4":"BA-BIH","postcode":"73000","country":"Bosna i Hercegovina / Босна и Херцеговина","country_code":"ba"},"population":11086,"osm_type":"node","osm_id":251856694,"type":"town","location":[18.9759265,43.6684375],"bbox":[18.9359265,43.6284375,19.0159265,43.7084375],"border":{"name":"Goražde","display_name":"Goražde, Grad Goražde, Bosansko-podrinjski kanton Goražde, Federacija Bosne i Hercegovine, 73000, Bosna i Hercegovina / Босна и Херцеговина","address":{"city_district":"Goražde","county":"Grad Goražde","state_district":"Bosansko-podrinjski kanton Goražde","state":"Federacija Bosne i Hercegovine","ISO3166-2-lvl4":"BA-BIH","postcode":"73000","country":"Bosna i Hercegovina / Босна и Херцеговина","country_code":"ba"},"osm_type":"relation","osm_id":9348919,"type":"administrative","location":[18.980829116325108,43.66757215],"bbox":[18.9597969,43.6493187,18.9947278,43.6859684]}}
{"name":"Gornji Vakuf-Uskoplje","other_names":{"name:bs":"Gornji Vakuf-Uskoplje","name:hr":"Uskoplje","name:sr":"Горњи Вакуф-Ускопље","alt_name":"Uskoplje","name:sr-Latn":"Gornji Vakuf-Uskoplje"},"display_name":"Gornji Vakuf-Uskoplje, Općina Gornji Vakuf-Uskoplje, Srednjobosanski kanton / Županija Središnja Bosna, Federacija Bosne i Hercegovine, 70280, Bosna i Hercegovina / Босна и Херцеговина","address":{"town":"Gornji Vakuf-Uskoplje","municipality":"Općina Gornji Vakuf-Uskoplje","state_district":"Srednjobosanski kanton / Županija Središnja Bosna","state":"Federacija Bosne i Hercegovine","ISO3166-2-lvl4":"BA-BIH","postcode":"70280","country":"Bosna i Hercegovina / Босна и Херцеговина","country_code":"ba"},"population":4831,"osm_type":"node","osm_id":306475380,"type":"town","location":[17.5853035,43.9385698],"bbox":[17.5453035,43.8985698,17.6253035,43.9785698]}
{"name":"Gračanica","other_names":{"name:ar":"غراتسانيتسا","name:bs":"Gračanica","name:de":"Gracanica","name:fa":"گراچانیتسا","name:hr":"Gračanica","name:hy":"Գրաչանիցա","name:mk":"Грачаница","name:ru":"Грачаница","name:sq":"Graçanica","name:sr":"Грачаница","name:uk":"Грачаниця","name:ur":"گراچانیسا","name:zh":"格拉查尼察","alt_name:de":"Gratschanitz","alt_name:tr":"Graçanitsa","name:sr-Latn":"Gračanica"},"display_name":"Gračanica, Grad Gračanica, Tuzlanski kanton, Federacija Bosne i Hercegovine, 75320, Bosna i Hercegovina / Босна и Херцеговина","address":{"town":"Gračanica","county":"Grad Gračanica","state_district":"Tuzlanski kanton","state":"Federacija Bosne i Hercegovine","ISO3166-2-lvl4":"BA-BIH","postcode":"75320","country":"Bosna i Hercegovina / Босна и Херцеговина","country_code":"ba"},"population":12882,"osm_type":"node","osm_id":251271502,"type":"town","location":[18.310107,44.7043396],"bbox":[18.270107,44.6643396,18.350107,44.7443396],"border":{"name":"Gračanica","display_name":"Gračanica, Grad Gračanica, Tuzlanski kanton, Federacija Bosne i Hercegovine, 75320, Bosna i Hercegovina / Босна и Херцеговина","address":{"city_district":"Gračanica","county":"Grad Gračanica","state_district":"Tuzlanski kanton","state":"Federacija Bosne i Hercegovine","ISO3166-2-lvl4":"BA-BIH","postcode":"75320","country":"Bosna i Hercegovina / Босна и Херцеговина","country_code":"ba"},"osm_type":"relation","osm_id":19274689,"type":"administrative","location":[18.31402947924269,44.6996313],"bbox":[18.2734829,44.6741244,18.3503007,44.725125]}}
{"name":"Gradačac","other_names":{"name:ar":"جراداتشاتس","name:bs":"Gradačac","name:fa":"گراداچاتس","name:hr":"Gradačac","name:hy":"Գրադաչաց","name:ja":"グラダチャツ","name:ko":"그라다차츠","name:lt":"Gradačacas","name:mk":"Градачац","name:ru":"Градачац","name:sq":"Gradaçaci","name:sr":"Градачац","name:uk":"Градачаць","name:ur":"گراداچس","alt_name:tr":"Gradaçaç","alt_name:uk":"Ґрадачац","name:sr-Latn":"Gradačac","name:zh-Hans":"格拉达查茨","name:zh-Hant":"格拉達查茨"},"display_name":"Gradačac, Grad Gradačac, Tuzlanski kanton, Federacija Bosne i Hercegovine, 76250, Bosna i Hercegovina / Босна и Херцеговина","address":{"town":"Gradačac","county":"Grad Gradačac","state_district":"Tuzlanski kanton","state":"Federacija Bosne i Hercegovine","ISO3166-2-lvl4":"BA-BIH","postcode":"76250","country":"Bosna i Hercegovina / Босна и Херцеговина","country_code":"ba"},"population":12764,"osm_type":"node","osm_id":571423255,"type":"town","location":[18.4254813,44.8781486],"bbox":[18.3854813,44.8381486,18.4654813,44.9181486],"border":{"name":"Gradačac","display_name":"Gradačac, Grad Gradačac, Tuzlanski kanton, Federacija Bosne i Hercegovine, 76250, Bosna i Hercegovina / Босна и Херцеговина","address":{"city_district":"Gradačac","county":"Grad Gradačac","state_district":"Tuzlanski kanton","state":"Federacija Bosne i Hercegovine","ISO3166-2-lvl4":"BA-BIH","postcode":"76250","country":"Bosna i Hercegovina / Босна и Херцеговина","country_code":"ba"},"osm_type":"relation","osm_id":19292015,"type":"administrative","location":[18.43628661785538,44.88137485],"bbox":[18.3985796,44.8547151,18.469912,44.9081132]}}
{"name":"Gradiška","other_names":{"name:ar":"غراديسكا","name:az":"Qradişka","name:bg":"Градишка","name:bs":"Gradiška","name:el":"Γκράντισκα","name:en":"Gradiška","name:fa":"گرادیشکا","name:hr":"Bosanska Gradiška","name:hu":"Orbászkővár","name:hy":"Գրադիշկա","name:ja":"ボサンスカ・グラディシュカ","name:ko":"그라디슈카","name:la":"Gradisca","name:mk":"Градишка","name:ru":"Градишка","name:sq":"Bosanska Gradishka","name:sr":"Градишка","name:tt":"Градишка","name:uk":"Градишка","name:ur":"گرادشکا","name:zh":"格拉迪什卡","int_name":"Gradiška","old_name":"Bosanska Gradiška;Gradiški Brod;Berbir","alt_name:ja":"グラディシュカ","alt_name:ko":"보산스카그라디슈카","alt_name:la":"Gradisca Bosnica;Gradischia;Gratiana;Gradisca Turcica;Servitium;Serbetium","alt_name:tr":"Gradişka;Gradcaş;Gradiçka;Kradişka","old_name:el":"Μποσάνσκα Γκράντισκα","old_name:ko":"그라디슈키브로드","old_name:mk":"Босанска Градишка","old_name:sr":"Босанска Градишка","old_name:tr":"Berbir","old_name:uk":"Босанська-Градишка","name:sr-Latn":"Gradiška"},"display_name":"Gradiška, Grad Gradiška, Република Српска / Republika Srpska, Bosna i Hercegovina / Босна и Херцеговина","address":{"town":"Gradiška","county":"Grad Gradiška","state":"Република Српска / Republika Srpska","ISO3166-2-lvl4":"BA-SRP","country":"Bosna i Hercegovina / Босна и Херцеговина","country_code":"ba"},"population":14368,"osm_type":"node","osm_id":251231647,"type":"town","location":[17.2551445,45.1465631],"bbox":[17.2151445,45.1065631,17.2951445,45.1865631],"border":{"name":"Gradiška","other_names":{"name:bs":"Gradiška","name:el":"Γκράντισκα","name:en":"Gradiška","name:hr":"Bosanska Gradiška","name:hu":"Orbászkővár","name:ru":"Градишка","name:sr":"Градишка","old_name":"Bosanska Gradiška","name:sr-Latn":"Gradiška","name:ar":"غراديسكا","name:az":"Qradişka","name:bg":"Градишка","name:fa":"گرادیشکا","name:hy":"Գրադիշկա","name:ja":"ボサンスカ・グラディシュカ","name:ko":"그라디슈카","name:la":"Gradisca","name:mk":"Градишка","name:sq":"Bosanska Gradishka","name:tt":"Градишка","name:uk":"Градишка","name:ur":"گرادشکا","name:zh":"格拉迪什卡","int_name":"Gradiška","_place_old_name":"Bosanska Gradiška;Gradiški Brod;Berbir","alt_name:ja":"グラディシュカ","alt_name:ko":"보산스카그라디슈카","alt_name:la":"Gradisca Bosnica;Gradischia;Gratiana;Gradisca Turcica;Servitium;Serbetium","alt_name:tr":"Gradişka;Gradcaş;Gradiçka;Kradişka","old_name:el":"Μποσάνσκα Γκράντισκα","old_name:ko":"그라디슈키브로드","old_name:mk":"Босанска Градишка","old_name:sr":"Босанска Градишка","old_name:tr":"Berbir","old_name:uk":"Босанська-Градишка"},"display_name":"Gradiška, Grad Gradiška, Република Српска / Republika Srpska, 78400, Bosna i Hercegovina / Босна и Херцеговина","address":{"town":"Gradiška","county":"Grad Gradiška","state":"Република Српска / Republika Srpska","ISO3166-2-lvl4":"BA-SRP","postcode":"78400","country":"Bosna i Hercegovina / Босна и Херцеговина","country_code":"ba"},"population":14368,"osm_type":"relation","osm_id":9131300,"type":"administrative","location":[17.2551445,45.1465631],"bbox":[17.2316801,45.1247918,17.2846484,45.1576035]}}
{"name":"Grude","other_names":{"name:hr":"Grude","name:sr":"Груде","name:sr-Latn":"Grude"},"display_name":"Grude, Općina Grude, Županija zapadnohercegovačka, Federacija Bosne i Hercegovine, 88340, Bosna i Hercegovina / Босна и Херцеговина","address":{"town":"Grude","municipality":"Općina Grude","state_district":"Županija zapadnohercegovačka","state":"Federacija Bosne i Hercegovine","ISO3166-2-lvl4":"BA-BIH","postcode":"88340","country":"Bosna i Hercegovina / Босна и Херцеговина","country_code":"ba"},"population":4347,"osm_type":"node","osm_id":2371640762,"type":"town","location":[17.4141836,43.3723256],"bbox":[17.3741836,43.3323256,17.4541836,43.4123256]}
{"name":"Hadžići","other_names":{"name:ml":"ഹാജിച്ചി","name:sr":"Хаџићи","name:sr-Latn":"Hadžići"},"display_name":"Hadžići, Općina Hadžići, Kanton Sarajevo, Federacija Bosne i Hercegovine, 71240, Bosna i Hercegovina / Босна и Херцеговина","address":{"town":"Hadžići","municipality":"Općina Hadžići","state_district":"Kanton Sarajevo","state":"Federacija Bosne i Hercegovine","ISO3166-2-lvl4":"BA-BIH","postcode":"71240","country":"Bosna i Hercegovina / Босна и Херцеговина","country_code":"ba"},"population":5323,"osm_type":"node","osm_id":258981519,"type":"town","location":[18.2031453,43.8223256],"bbox":[18.1631453,43.7823256,18.2431453,43.8623256]}
{"name":"Han Pijesak","other_names":{"name:bs":"Han-Pijesak","name:fa":"هان پییساک","name:hr":"Han Pijesak","name:hu":"Han Pijesak","name:hy":"Հան Պեսակ","name:ja":"ハン・ピイェサク","name:ru":"Хан-Песак","name:sr":"Хан Пијесак","name:tr":"Pisakhan","name:ur":"حان پیئساک","name:sr-Latn":"Han Pijesak","name:zh-Hans":"汉皮耶萨克","name:zh-Hant":"漢皮耶薩克"},"display_name":"Han Pijesak, Opština Han Pijesak, Република Српска / Republika Srpska, 71360, Bosna i Hercegovina / Босна и Херцеговина","address":{"town":"Han Pijesak","municipality":"Opština Han Pijesak","state":"Република Српска / Republika Srpska","ISO3166-2-lvl4":"BA-SRP","postcode":"71360","country":"Bosna i Hercegovina / Босна и Херцеговина","country_code":"ba"},"population":1820,"osm_type":"node","osm_id":2643428165,"type":"town","location":[18.9530643,44.0812895],"bbox":[18.9130643,44.0412895,18.9930643,44.1212895],"border":{"name":"Хан Пијесак","other_names":{"name:bs":"Han-Pijesak","name:en":"Han Pijesak","name:fa":"هان پییساک","name:hr":"Han Pijesak","name:hy":"Հան Պեսակ","name:ja":"ハン・ピイェサク","name:ru":"Хан-Песак","name:sr":"Хан Пијесак","name:tr":"Pisakhan","name:ur":"حان پیئساک","name:sr-Latn":"Han Pijesak","name:zh-Hans":"汉皮耶萨克","name:zh-Hant":"漢皮耶薩克"},"display_name":"Хан Пијесак, Opština Han Pijesak, Република Српска / Republika Srpska, 71360, Bosna i Hercegovina / Босна и Херцеговина","address":{"city_district":"Хан Пијесак","municipality":"Opština Han Pijesak","state":"Република Српска / Republika Srpska","ISO3166-2-lvl4":"BA-SRP","postcode":"71360","country":"Bosna i Hercegovina / Босна и Херцеговина","country_code":"ba"},"osm_type":"relation","osm_id":14619485,"type":"administrative","location":[18.931649773030678,44.0698965],"bbox":[18.9086294,44.0505294,18.9599991,44.0883094]}}
{"name":"Ilidža","other_names":{"name:bs":"Ilidža","name:sr":"Илиџа","name:sr-Latn":"Ilidža"},"display_name":"Ilidža, Općina Ilidža, Kanton Sarajevo, Federacija Bosne i Hercegovine, 71210, Bosna i Hercegovina / Босна и Херцеговина","address":{"town":"Ilidža","municipality":"Općina Ilidža","state_district":"Kanton Sarajevo","state":"Federacija Bosne i Hercegovine","ISO3166-2-lvl4":"BA-BIH","postcode":"71210","country":"Bosna i Hercegovina / Босна и Херцеговина","country_code":"ba"},"population":63528,"osm_type":"node","osm_id":1299306684,"type":"town","location":[18.3077357,43.8306182],"bbox":[18.2677357,43.7906182,18.3477357,43.8706182],"border":{"name":"Ilidža","other_names":{"name:sr":"Илиџа","name:sr-Latn":"Ilidža","official_name":"Sarajevo Dio - Ilidža","official_name:sr":"Сарајево Дио - Илиџа","official_name:sr-Latn":"Sarajevo Dio - Ilidža"},"display_name":"Ilidža, Općina Ilidža, Kanton Sarajevo, Federacija Bosne i Hercegovine, Bosna i Hercegovina / Босна и Херцеговина","address":{"city_district":"Ilidža","municipality":"Općina Ilidža","state_district":"Kanton Sarajevo","state":"Federacija Bosne i Hercegovine","ISO3166-2-lvl4":"BA-BIH","country":"Bosna i Hercegovina / Босна и Херцеговина","country_code":"ba"},"osm_type":"relation","osm_id":11548475,"type":"administrative","location":[18.29868815605407,43.81206065000001],"bbox":[18.2109975,43.740809,18.3517763,43.8864358]}}
{"name":"Ilijaš","other_names":{"name:ru":"Илияш","name:sr":"Илијаш","name:sr-Latn":"Ilijaš"},"display_name":"Ilijaš, Općina Ilijaš, Kanton Sarajevo, Federacija Bosne i Hercegovine, 71380, Bosna i Hercegovina / Босна и Херцеговина","address":{"town":"Ilijaš","municipality":"Općina Ilijaš","state_district":"Kanton Sarajevo","state":"Federacija Bosne i Hercegovine","ISO3166-2-lvl4":"BA-BIH","postcode":"71380","country":"Bosna i Hercegovina / Босна и Херцеговина","country_code":"ba"},"osm_type":"node","osm_id":89085686,"type":"town","location":[18.2661553,43.95645],"bbox":[18.2261553,43.91645,18.3061553,43.99645]}
{"name":"Jablanica","other_names":{"name:de":"Jablanica","name:en":"Jablanica","name:hr":"Jablanica","name:it":"Jablanica","name:ml":"യബ്ലാനിക്ക","name:ru":"Ябланица","name:sl":"Jablanica","name:sr":"Јабланица","name:sr-Latn":"Jablanica"},"display_name":"Jablanica, Općina Jablanica, Hercegovačko-neretvanska županija (kanton), Federacija Bosne i Hercegovine, 88420, Bosna i Hercegovina / Босна и Херцеговина","address":{"town":"Jablanica","municipality":"Općina Jablanica","state_district":"Hercegovačko-neretvanska županija (kanton)","state":"Federacija Bosne i Hercegovine","ISO3166-2-lvl4":"BA-BIH","postcode":"88420","country":"Bosna i Hercegovina / Босна и Херцеговина","country_code":"ba"},"population":4057,"osm_type":"node","osm_id":89090688,"type":"town","location":[17.7618471,43.6617485],"bbox":[17.7218471,43.6217485,17.8018471,43.7017485]}
{"name":"Jajce","other_names":{"name:ar":"يايتسي","name:az":"Yaytse","name:be":"Яйцы","name:bg":"Яйце","name:bs":"Jajce","name:fa":"یایسه","name:he":"יאיצה","name:hr":"Jajce","name:hu":"Jajca","name:hy":"Յայցե","name:ja":"ヤイツェ","name:ko":"야이체","name:la":"Iaicia","name:lt":"Jaicė","name:mk":"Јајце","name:ml":"യായിത്സെ","name:ru":"Яйце","name:sh":"Jajce","name:sr":"Јајце","name:uk":"Яйце","name:ur":"یایتسے","alt_name:ar":"يايسي,يايتشي","alt_name:la":"Iaicza","alt_name:tr":"Yayça;Yayçe","old_name:de":"Jaitze","name:sr-Latn":"Jajce","name:zh-Hans":"亚伊采","name:zh-Hant":"亞伊采"},"display_name":"Jajce, Općina Jajce, Srednjobosanski kanton / Županija Središnja Bosna, Federacija Bosne i Hercegovine, 70101, Bosna i Hercegovina / Босна и Херцеговина","address":{"town":"Jajce","municipality":"Općina Jajce","state_district":"Srednjobosanski kanton / Županija Središnja Bosna","state":"Federacija Bosne i Hercegovine","ISO3166-2-lvl4":"BA-BIH","postcode":"70101","country":"Bosna i Hercegovina / Босна и Херцеговина","country_code":"ba"},"population":7172,"osm_type":"node","osm_id":2419009186,"type":"town","location":[17.2711786,44.3396706],"bbox":[17.2311786,44.2996706,17.3111786,44.3796706],"border":{"name":"Jajce","display_name":"Jajce, Općina Jajce, Srednjobosanski kanton / Županija Središnja Bosna, Federacija Bosne i Hercegovine, 70101, Bosna i Hercegovina / Босна и Херцеговина","address":{"city_district":"Jajce","municipality":"Općina Jajce","state_district":"Srednjobosanski kanton / Županija Središnja Bosna","state":"Federacija Bosne i Hercegovine","ISO3166-2-lvl4":"BA-BIH","postcode":"70101","country":"Bosna i Hercegovina / Босна и Херцеговина","country_code":"ba"},"osm_type":"relation","osm_id":19208267,"type":"administrative","location":[17.271404848267537,44.3386328],"bbox":[17.2417272,44.3255081,17.2831427,44.3518029]}}
{"name":"Kakanj","other_names":{"name:ar":"كاكاني","name:bs":"Kakanj","name:hr":"Kakanj","name:hy":"Կական","name:lt":"Kakanis","name:mk":"Какањ","name:ru":"Какань","name:sq":"Kakanji","name:sr":"Какањ","name:tr":"Kakan","name:uk":"Какань","name:ur":"کاکان","name:zh":"卡卡尼","alt_name:de":"Kachanitz","alt_name:tr":"Kakanya","name:sr-Latn":"Kakanj"},"display_name":"Kakanj, Općina Kakanj, Zeničko-dobojski kanton, Federacija Bosne i Hercegovine, 72240, Bosna i Hercegovina / Босна и Херцеговина","address":{"town":"Kakanj","municipality":"Općina Kakanj","state_district":"Zeničko-dobojski kanton","state":"Federacija Bosne i Hercegovine","ISO3166-2-lvl4":"BA-BIH","postcode":"72240","country":"Bosna i Hercegovina / Босна и Херцеговина","country_code":"ba"},"population":11796,"osm_type":"node","osm_id":78546824,"type":"town","location":[18.1184071,44.128571],"bbox":[18.0784071,44.088571,18.1584071,44.168571]}
{"name":"Kalesija","other_names":{"name:ru":"Калесия","name:sr":"Калесија","name:sr-Latn":"Kalesija"},"display_name":"Kalesija, Općina Kalesija, Tuzlanski kanton, Federacija Bosne i Hercegovine, 75260, Bosna i Hercegovina / Босна и Херцеговина","address":{"town":"Kalesija","municipality":"Općina Kalesija","state_district":"Tuzlanski kanton","state":"Federacija Bosne i Hercegovine","ISO3166-2-lvl4":"BA-BIH","postcode":"75260","country":"Bosna i Hercegovina / Босна и Херцеговина","country_code":"ba"},"population":2039,"osm_type":"node","osm_id":1037420550,"type":"town","location":[18.8756758,44.4429857],"bbox":[18.8356758,44.4029857,18.9156758,44.4829857]}
{"name":"Kalinovik","other_names":{"name:ru":"Калиновик","name:sr":"Калиновик","name:sr-Latn":"Kalinovik"},"display_name":"Kalinovik, Opština Kalinovik, Република Српска / Republika Srpska, 71230, Bosna i Hercegovina / Босна и Херцеговина","address":{"town":"Kalinovik","municipality":"Opština Kalinovik","state":"Република Српска / Republika Srpska","ISO3166-2-lvl4":"BA-SRP","postcode":"71230","country":"Bosna i Hercegovina / Босна и Херцеговина","country_code":"ba"},"osm_type":"node","osm_id":255540961,"type":"town","location":[18.4467193,43.5043116],"bbox":[18.4067193,43.4643116,18.4867193,43.5443116],"border":{"name":"Калиновик","other_names":{"name:bs":"Kalinovik","name:en":"Kalinovik","name:hr":"Kalinovik","name:sr":"Калиновик","name:sr-Latn":"Kalinovik"},"display_name":"Калиновик, Opština Kalinovik, Република Српска / Republika Srpska, 71230, Bosna i Hercegovina / Босна и Херцеговина","address":{"city_district":"Калиновик","municipality":"Opština Kalinovik","state":"Република Српска / Republika Srpska","ISO3166-2-lvl4":"BA-SRP","postcode":"71230","country":"Bosna i Hercegovina / Босна и Херцеговина","country_code":"ba"},"osm_type":"relation","osm_id":8870618,"type":"administrative","location":[18.453364819713265,43.501616299999995],"bbox":[18.4311747,43.4921057,18.4662044,43.5108686]}}
{"name":"Kiseljak","other_names":{"name:hr":"Kiseljak","name:ru":"Киселяк","name:sr":"Кисељак","name:sr-Latn":"Kiseljak"},"display_name":"Kiseljak, Općina Kiseljak, Srednjobosanski kanton / Županija Središnja Bosna, Federacija Bosne i Hercegovine, 71250, Bosna i Hercegovina / Босна и Херцеговина","address":{"town":"Kiseljak","municipality":"Općina Kiseljak","state_district":"Srednjobosanski kanton / Županija Središnja Bosna","state":"Federacija Bosne i Hercegovine","ISO3166-2-lvl4":"BA-BIH","postcode":"71250","country":"Bosna i Hercegovina / Босна и Херцеговина","country_code":"ba"},"population":3554,"osm_type":"node","osm_id":83113114,"type":"town","location":[18.0774711,43.9431668],"bbox":[18.0374711,43.9031668,18.1174711,43.9831668]}
{"name":"Kladanj","other_names":{"name:hr":"Kladanj","name:ru":"Кладань","name:sr":"Кладањ","name:sr-Latn":"Kladanj"},"display_name":"Kladanj, Općina Kladanj, Tuzlanski kanton, Federacija Bosne i Hercegovine, Bosna i Hercegovina / Босна и Херцеговина","address":{"town":"Kladanj","municipality":"Općina Kladanj","state_district":"Tuzlanski kanton","state":"Federacija Bosne i Hercegovine","ISO3166-2-lvl4":"BA-BIH","country":"Bosna i Hercegovina / Босна и Херцеговина","country_code":"ba"},"osm_type":"node","osm_id":2639334996,"type":"town","location":[18.6940672,44.2252216],"bbox":[18.6540672,44.1852216,18.7340672,44.2652216]}
{"name":"Ključ","other_names":{"name:hr":"Ključ","name:sr":"Кључ","name:sr-Latn":"Ključ"},"display_name":"Ključ, Općina Ključ, Unsko-sanski kanton, Federacija Bosne i Hercegovine, 79280, Bosna i Hercegovina / Босна и Херцеговина","address":{"town":"Ključ","municipality":"Općina Ključ","state_district":"Unsko-sanski kanton","state":"Federacija Bosne i Hercegovine","ISO3166-2-lvl4":"BA-BIH","postcode":"79280","country":"Bosna i Hercegovina / Босна и Херцеговина","country_code":"ba"},"population":4898,"osm_type":"node","osm_id":492129871,"type":"town","location":[16.7761951,44.533341],"bbox":[16.7361951,44.493341,16.8161951,44.573341],"border":{"name":"Ključ","display_name":"Ključ, Općina Ključ, Unsko-sanski kanton, Federacija Bosne i Hercegovine, 79280, Bosna i Hercegovina / Босна и Херцеговина","address":{"city_district":"Ključ","municipality":"Općina Ključ","state_district":"Unsko-sanski kanton","state":"Federacija Bosne i Hercegovine","ISO3166-2-lvl4":"BA-BIH","postcode":"79280","country":"Bosna i Hercegovina / Босна и Херцеговина","country_code":"ba"},"osm_type":"relation","osm_id":19153771,"type":"administrative","location":[16.765898064535598,44.541415900000004],"bbox":[16.7462648,44.5159535,16.7997211,44.5668102]}}
{"name":"Kneževo","other_names":{"name:bs":"Kneževo","name:de":"Kneževo","name:en":"Kneževo","name:hr":"Skender Vakuf","name:sr":"Кнежево","name:sr-Latn":"Kneževo"},"display_name":"Kneževo, Opština Kneževo, Република Српска / Republika Srpska, 78230, Bosna i Hercegovina / Босна и Херцеговина","address":{"town":"Kneževo","municipality":"Opština Kneževo","state":"Република Српска / Republika Srpska","ISO3166-2-lvl4":"BA-SRP","postcode":"78230","country":"Bosna i Hercegovina / Босна и Херцеговина","country_code":"ba"},"population":3749,"osm_type":"node","osm_id":306466679,"type":"town","location":[17.3800905,44.4899319],"bbox":[17.3400905,44.4499319,17.4200905,44.5299319],"border":{"name":"Кнежево","other_names":{"name:en":"Knezevo","name:sr":"Кнежево"},"display_name":"Кнежево, Opština Kneževo, Република Српска / Republika Srpska, 78230, Bosna i Hercegovina / Босна и Херцеговина","address":{"city_district":"Кнежево","municipality":"Opština Kneževo","state":"Република Српска / Republika Srpska","ISO3166-2-lvl4":"BA-SRP","postcode":"78230","country":"Bosna i Hercegovina / Босна и Херцеговина","country_code":"ba"},"osm_type":"relation","osm_id":14601151,"type":"administrative","location":[17.38939280633351,44.488477],"bbox":[17.3451054,44.4685659,17.4198961,44.5077233]}}
{"name":"Konjic","other_names":{"name:ar":"كونييتش","name:bg":"Кониц","name:bs":"Konjic","name:fa":"کونییتس","name:hr":"Konjic","name:hy":"Կոնից","name:ja":"コニツ","name:ko":"코니츠","name:lt":"Konicas","name:ml":"കൊണീറ്റ്സ്","name:ru":"Кониц","name:sq":"Konjiqi","name:sr":"Коњиц","name:uk":"Коніц","name:ur":"کونیس","name:zh":"科尼茨","alt_name:tr":"Koniça;Koniçe","name:sr-Latn":"Konjic"},"display_name":"Konjic, Grad Konjic, Hercegovačko-neretvanska županija (kanton), Federacija Bosne i Hercegovine, 88400, Bosna i Hercegovina / Босна и Херцеговина","address":{"town":"Konjic","county":"Grad Konjic","state_district":"Hercegovačko-neretvanska županija (kanton)","state":"Federacija Bosne i Hercegovine","ISO3166-2-lvl4":"BA-BIH","postcode":"88400","country":"Bosna i Hercegovina / Босна и Херцеговина","country_code":"ba"},"population":10732,"osm_type":"node","osm_id":89089929,"type":"town","location":[17.9606621,43.6544405],"bbox":[17.9206621,43.6144405,18.0006621,43.6944405]}
{"name":"Kostajnica","other_names":{"name:bs":"Kostajnica","name:hr":"Bosanska Kostajnica","name:it":"Kostajnica","name:ru":"Костайница","name:sr":"Костајница","name:tr":"Kostaniçe","int_name":"Kostajnica","old_name":"Bosanska Kostajnica","name:sr-Latn":"Kostajnica"},"display_name":"Kostajnica, Opština Kostajnica, Република Српска / Republika Srpska, 79224, Bosna i Hercegovina / Босна и Херцеговина","address":{"town":"Kostajnica","municipality":"Opština Kostajnica","state":"Република Српска / Republika Srpska","ISO3166-2-lvl4":"BA-SRP","postcode":"79224","country":"Bosna i Hercegovina / Босна и Херцеговина","country_code":"ba"},"population":3834,"osm_type":"node","osm_id":621515666,"type":"town","location":[16.5463194,45.2187079],"bbox":[16.5063194,45.1787079,16.5863194,45.2587079],"border":{"name":"Kostajnica","other_names":{"name:bs":"Kostajnica","name:en":"Kostajnica","name:hr":"Bosanska Kostajnica","name:sr":"Костајница"},"display_name":"Kostajnica, Opština Kostajnica, Република Српска / Republika Srpska, Bosna i Hercegovina / Босна и Херцеговина","address":{"city_district":"Kostajnica","municipality":"Opština Kostajnica","state":"Република Српска / Republika Srpska","ISO3166-2-lvl4":"BA-SRP","country":"Bosna i Hercegovina / Босна и Херцеговина","country_code":"ba"},"osm_type":"relation","osm_id":9063738,"type":"administrative","location":[16.541243497321314,45.2172645],"bbox":[16.5196519,45.2073832,16.5665674,45.2270086]}}
{"name":"Kotor Varoš","other_names":{"name:bs":"Kotor Varoš","name:de":"Kotor Varoš","name:hr":"Kotor Varoš","name:ru":"Котор-Варош","name:sr":"Котор Варош","name:sr-Latn":"Kotor Varoš"},"display_name":"Kotor Varoš, Opština Kotor Varoš, Република Српска / Republika Srpska, 78220, Bosna i Hercegovina / Босна и Херцеговина","address":{"town":"Kotor Varoš","municipality":"Opština Kotor Varoš","state":"Република Српска / Republika Srpska","ISO3166-2-lvl4":"BA-SRP","postcode":"78220","country":"Bosna i Hercegovina / Босна и Херцеговина","country_code":"ba"},"population":7603,"osm_type":"node","osm_id":251276672,"type":"town","location":[17.3701203,44.6202944],"bbox":[17.3301203,44.5802944,17.4101203,44.6602944],"border":{"name":"Котор Варош","other_names":{"name:en":"Kotor Varos","name:sr":"Котор Варош"},"display_name":"Котор Варош, Opština Kotor Varoš, Република Српска / Republika Srpska, 78220, Bosna i Hercegovina / Босна и Херцеговина","address":{"city_district":"Котор Варош","municipality":"Opština Kotor Varoš","state":"Република Српска / Republika Srpska","ISO3166-2-lvl4":"BA-SRP","postcode":"78220","country":"Bosna i Hercegovina / Босна и Херцеговина","country_code":"ba"},"osm_type":"relation","osm_id":14601487,"type":"administrative","location":[17.38814195139667,44.6183482],"bbox":[17.3503303,44.5910937,17.4136519,44.6451319]}}
{"name":"Kozarska Dubica","other_names":{"name:ar":"كوساريسكا دوبيكسا","name:bg":"Козарска Дубица","name:bs":"Kozarska Dubica","name:en":"Kozarska Dubica","name:fa":"دوبیتسا","name:hr":"Bosanska Dubica","name:hy":"Կոզարսկա Դուբիցա","name:ja":"ボサンスカ・ドゥビツァ","name:ko":"코자르스카두비차","name:la":"Dubicza Bosnica","name:ru":"Козарска-Дубица","name:sr":"Козарска Дубица","name:uk":"Козарська Дубиця","name:ur":"دوبیسا","int_name":"Kozarska Dubica","old_name":"Bosanska Dubica","short_name":"Dubica","alt_name:hy":"Բոսանսկա Դուբիցա","alt_name:ja":"コザルスカ・ドゥビツァ","alt_name:ko":"보산스카두비차","alt_name:ru":"Босанска-Дубица;Боснийская Дубица","alt_name:tr":"Dubniçse;Dubiça","alt_name:uk":"Босанська Дубиця","old_name:sr":"Босанска Дубица","name:sr-Latn":"Kozarska Dubica","name:zh-Hans":"波斯尼亚杜比察","name:zh-Hant":"波士尼亞杜比察","short_name:ja":"ドゥビツァ","short_name:la":"Dubicza","short_name:ru":"Дубица","old_name:sr-Latn":"Bosanska Dubica"},"display_name":"Kozarska Dubica, Opština Kozarska Dubica, Република Српска / Republika Srpska, 79240, Bosna i Hercegovina / Босна и Херцеговина","address":{"town":"Kozarska Dubica","municipality":"Opština Kozarska Dubica","state":"Република Српска / Republika Srpska","ISO3166-2-lvl4":"BA-SRP","postcode":"79240","country":"Bosna i Hercegovina / Босна и Херцеговина","country_code":"ba"},"population":11566,"osm_type":"node","osm_id":843251087,"type":"town","location":[16.810337,45.1802313],"bbox":[16.770337,45.1402313,16.850337,45.2202313],"border":{"name":"Kozarska Dubica","other_names":{"name:bs":"Kozarska Dubica","name:en":"Kozarska Dubica","name:hr":"Bosanska Dubica","name:sr":"Козарска Дубица"},"display_name":"Kozarska Dubica, Opština Kozarska Dubica, Република Српска / Republika Srpska, 79240, Bosna i Hercegovina / Босна и Херцеговина","address":{"city_district":"Kozarska Dubica","municipality":"Opština Kozarska Dubica","state":"Република Српска / Republika Srpska","ISO3166-2-lvl4":"BA-SRP","postcode":"79240","country":"Bosna i Hercegovina / Босна и Херцеговина","country_code":"ba"},"osm_type":"relation","osm_id":9110095,"type":"administrative","location":[16.81341747596355,45.1768413],"bbox":[16.7766273,45.1613578,16.8486124,45.1918145]}}
{"name":"Kreševo","other_names":{"name:hr":"Kreševo","name:ru":"Крешево","name:sr":"Крешево","name:sr-Latn":"Kreševo"},"display_name":"Kreševo, Općina Kreševo, Srednjobosanski kanton / Županija Središnja Bosna, Federacija Bosne i Hercegovine, 71260, Bosna i Hercegovina / Босна и Херцеговина","address":{"town":"Kreševo","municipality":"Općina Kreševo","state_district":"Srednjobosanski kanton / Županija Središnja Bosna","state":"Federacija Bosne i Hercegovine","ISO3166-2-lvl4":"BA-BIH","postcode":"71260","country":"Bosna i Hercegovina / Босна и Херцеговина","country_code":"ba"},"population":1025,"osm_type":"node","osm_id":601518341,"type":"town","location":[18.0421665,43.8657424],"bbox":[18.0021665,43.8257424,18.0821665,43.9057424]}
{"name":"Kupres","other_names":{"name:hr":"Kupres","name:ru":"Купрес","name:sr":"Купрес","name:sr-Latn":"Kupres"},"display_name":"Kupres, Općina Kupres, Hercegbosanska županija, Federacija Bosne i Hercegovine, 80320, Bosna i Hercegovina / Босна и Херцеговина","address":{"town":"Kupres","municipality":"Općina Kupres","state_district":"Hercegbosanska županija","state":"Federacija Bosne i Hercegovine","ISO3166-2-lvl4":"BA-BIH","postcode":"80320","country":"Bosna i Hercegovina / Босна и Херцеговина","country_code":"ba"},"population":2883,"osm_type":"node","osm_id":1064720325,"type":"town","location":[17.2774677,43.9927632],"bbox":[17.2374677,43.9527632,17.3174677,44.0327632],"border":{"name":"Kupres","other_names":{"name:de":"Kupres","name:en":"Kupres","name:fr":"Kupres","name:hr":"Kupres"},"display_name":"Kupres, Općina Kupres, Hercegbosanska županija, Federacija Bosne i Hercegovine, 80320, Bosna i Hercegovina / Босна и Херцеговина","address":{"city_district":"Kupres","municipality":"Općina Kupres","state_district":"Hercegbosanska županija","state":"Federacija Bosne i Hercegovine","ISO3166-2-lvl4":"BA-BIH","postcode":"80320","country":"Bosna i Hercegovina / Босна и Херцеговина","country_code":"ba"},"population":2883,"osm_type":"relation","osm_id":10020662,"type":"administrative","location":[17.264766466289572,43.976795249999995],"bbox":[17.0802664,43.9235604,17.3040569,44.0299439]}}
{"name":"Laktaši","other_names":{"name:ar":"لاكتاشي","name:bs":"Laktaši","name:hr":"Laktaši","name:hy":"Լակտաշի","name:lt":"Laktašai","name:mk":"Лакташи","name:ru":"Лакташи","name:sq":"Laktashi","name:sr":"Лакташи","name:ur":"لاکتاشی","name:zh":"拉克塔希","name:sr-Latn":"Laktaši"},"display_name":"Laktaši, Grad Laktaši, Република Српска / Republika Srpska, 78250, Bosna i Hercegovina / Босна и Херцеговина","address":{"town":"Laktaši","county":"Grad Laktaši","state":"Република Српска / Republika Srpska","ISO3166-2-lvl4":"BA-SRP","postcode":"78250","country":"Bosna i Hercegovina / Босна и Херцеговина","country_code":"ba"},"population":5419,"osm_type":"node","osm_id":5371126343,"type":"town","location":[17.3022887,44.9074664],"bbox":[17.2622887,44.8674664,17.3422887,44.9474664],"border":{"name":"Лакташи","other_names":{"name:en":"Laktasi","name:sr":"Лакташи"},"display_name":"Лакташи, Grad Laktaši, Република Српска / Republika Srpska, Bosna i Hercegovina / Босна и Херцеговина","address":{"city_district":"Лакташи","county":"Grad Laktaši","state":"Република Српска / Republika Srpska","ISO3166-2-lvl4":"BA-SRP","country":"Bosna i Hercegovina / Босна и Херцеговина","country_code":"ba"},"osm_type":"relation","osm_id":14607498,"type":"administrative","location":[17.313657136306826,44.91130895],"bbox":[17.272675,44.8934885,17.3542142,44.9295683]}}
{"name":"Livno","other_names":{"name:ar":"ليفنو","name:be":"Ліўна","name:bg":"Ливно","name:bs":"Livno","name:fa":"لیونو","name:he":"בֵּית יְצִיקָה","name:hr":"Livno","name:hy":"Լիվնո","name:ja":"リヴノ","name:ko":"리브노","name:la":"Cleuna","name:lt":"Livnas","name:mk":"Ливно","name:ru":"Ливно","name:sr":"Ливно","name:uk":"Ливно","name:ur":"لیونو","old_name":"Hlivno","alt_name:la":"Pelva","old_name:tr":"İhlivne;İhlevne;Hlivne","name:sr-Latn":"Livno","name:zh-Hans":"利夫诺","name:zh-Hant":"利夫諾"},"display_name":"Livno, Grad Livno, Hercegbosanska županija, Federacija Bosne i Hercegovine, 80101, Bosna i Hercegovina / Босна и Херцеговина","address":{"town":"Livno","county":"Grad Livno","state_district":"Hercegbosanska županija","state":"Federacija Bosne i Hercegovine","ISO3166-2-lvl4":"BA-BIH","postcode":"80101","country":"Bosna i Hercegovina / Босна и Херцеговина","country_code":"ba"},"population":7927,"osm_type":"node","osm_id":1049890686,"type":"town","location":[17.0042416,43.8259136],"bbox":[16.9642416,43.7859136,17.0442416,43.8659136],"border":{"name":"Livno","display_name":"Livno, Grad Livno, Hercegbosanska županija, Federacija Bosne i Hercegovine, 80101, Bosna i Hercegovina / Босна и Херцеговина","address":{"city_district":"Livno","county":"Grad Livno","state_district":"Hercegbosanska županija","state":"Federacija Bosne i Hercegovine","ISO3166-2-lvl4":"BA-BIH","postcode":"80101","country":"Bosna i Hercegovina / Босна и Херцеговина","country_code":"ba"},"population":7927,"osm_type":"relation","osm_id":9978682,"type":"administrative","location":[17.05668651182618,43.85003035],"bbox":[16.9794188,43.8103588,17.1384008,43.888688]}}
{"name":"Ljubinje","other_names":{"name:hr":"Ljubinje","name:ru":"Любине","name:sr":"Љубиње","int_name":"Ljubinje","name:sr-Latn":"Ljubinje"},"display_name":"Ljubinje, Општина Љубиње / Opština Ljubinje, Република Српска / Republika Srpska, 88380, Bosna i Hercegovina / Босна и Херцеговина","address":{"town":"Ljubinje","municipality":"Општина Љубиње / Opština Ljubinje","state":"Република Српска / Republika Srpska","ISO3166-2-lvl4":"BA-SRP","postcode":"88380","country":"Bosna i Hercegovina / Босна и Херцеговина","country_code":"ba"},"population":2595,"osm_type":"node","osm_id":842336618,"type":"town","location":[18.08992,42.9515429],"bbox":[18.04992,42.9115429,18.12992,42.9915429],"border":{"name":"Љубиње","other_names":{"name:bs":"Ljubinje","name:en":"Ljubinje","name:hr":"Ljubinje","name:sr":"Љубиње","name:sr-Latn":"Ljubinje"},"display_name":"Љубиње, Општина Љубиње / Opština Ljubinje, Република Српска / Republika Srpska, 88380, Bosna i Hercegovina / Босна и Херцеговина","address":{"city_district":"Љубиње","municipality":"Општина Љубиње / Opština Ljubinje","state":"Република Српска / Republika Srpska","ISO3166-2-lvl4":"BA-SRP","postcode":"88380","country":"Bosna i Hercegovina / Босна и Херцеговина","country_code":"ba"},"osm_type":"relation","osm_id":8839565,"type":"administrative","location":[18.08416512594541,42.95872315],"bbox":[18.0334353,42.9384385,18.1167769,42.9790561]}}
{"name":"Ljubuški","other_names":{"name:bs":"Ljubuški","name:fa":"لیوبوشکی","name:he":"לובושקי","name:hr":"Ljubuški","name:hy":"Լյուբուշկի","name:lt":"Liubuškai","name:mk":"Љубушки","name:ru":"Любушки","name:sl":"Ljubuški","name:sq":"Lubushki","name:sr":"Љубушки","name:uk":"Любушки","name:ur":"لیوبوشکی","alt_name:tr":"Lubuşka","name:sr-Latn":"Ljubuški","name:zh-Hans":"柳布什基","name:zh-Hant":"柳布希基"},"display_name":"Ljubuški, Grad Ljubuški, Županija zapadnohercegovačka, Federacija Bosne i Hercegovine, 88320, Bosna i Hercegovina / Босна и Херцеговина","address":{"town":"Ljubuški","county":"Grad Ljubuški","state_district":"Županija zapadnohercegovačka","state":"Federacija Bosne i Hercegovine","ISO3166-2-lvl4":"BA-BIH","postcode":"88320","country":"Bosna i Hercegovina / Босна и Херцеговина","country_code":"ba"},"population":4023,"osm_type":"node","osm_id":5970431386,"type":"town","location":[17.5447857,43.1963022],"bbox":[17.5047857,43.1563022,17.5847857,43.2363022],"border":{"name":"Ljubuški","other_names":{"name:de":"Ljubuški","name:en":"Ljubuški","name:fr":"Ljubuški","name:he":"לובושקי","name:hr":"Ljubuški"},"display_name":"Ljubuški, Grad Ljubuški, Županija zapadnohercegovačka, Federacija Bosne i Hercegovine, 88320, Bosna i Hercegovina / Босна и Херцеговина","address":{"city_district":"Ljubuški","county":"Grad Ljubuški","state_district":"Županija zapadnohercegovačka","state":"Federacija Bosne i Hercegovine","ISO3166-2-lvl4":"BA-BIH","postcode":"88320","country":"Bosna i Hercegovina / Босна и Херцеговина","country_code":"ba"},"population":4023,"osm_type":"relation","osm_id":12988675,"type":"administrative","location":[17.547734860911227,43.1965934],"bbox":[17.5295544,43.1843132,17.5643219,43.2085613]}}
{"name":"Lopare","other_names":{"name:ru":"Лопаре","name:sr":"Лопаре","name:sr-Latn":"Lopare"},"display_name":"Lopare, Opština Lopare, Република Српска / Republika Srpska, 75240, Bosna i Hercegovina / Босна и Херцеговина","address":{"town":"Lopare","municipality":"Opština Lopare","state":"Република Српска / Republika Srpska","ISO3166-2-lvl4":"BA-SRP","postcode":"75240","country":"Bosna i Hercegovina / Босна и Херцеговина","country_code":"ba"},"osm_type":"node","osm_id":366976889,"type":"town","location":[18.8441138,44.6356497],"bbox":[18.8041138,44.5956497,18.8841138,44.6756497],"border":{"name":"Лопаре","other_names":{"name:en":"Lopare","name:sr":"Лопаре"},"display_name":"Лопаре, Opština Lopare, Република Српска / Republika Srpska, Bosna i Hercegovina / Босна и Херцеговина","address":{"city_district":"Лопаре","municipality":"Opština Lopare","state":"Република Српска / Republika Srpska","ISO3166-2-lvl4":"BA-SRP","country":"Bosna i Hercegovina / Босна и Херцеговина","country_code":"ba"},"osm_type":"relation","osm_id":14575184,"type":"administrative","location":[18.838504874527096,44.639815049999996],"bbox":[18.8274443,44.6237166,18.8544381,44.6556114]}}
{"name":"Lukavac","other_names":{"name:ar":"لوكافاكس","name:bg":"Лукавац","name:bs":"Lukavac","name:fa":"لوکاواتس","name:hr":"Lukavac","name:hy":"Լուկավաց","name:ko":"루카바츠","name:lt":"Lukavacas","name:mk":"Лукавац","name:ru":"Лукавац","name:sq":"Llukavaci","name:sr":"Лукавац","name:uk":"Лукавац","name:ur":"لوکاواس","alt_name:sq":"Llukavac","name:sr-Latn":"Lukavac","name:zh-Hans":"卢卡瓦茨","name:zh-Hant":"盧卡瓦茨"},"display_name":"Lukavac, Grad Lukavac, Tuzlanski kanton, Federacija Bosne i Hercegovine, 75300, Bosna i Hercegovina / Босна и Херцеговина","address":{"town":"Lukavac","county":"Grad Lukavac","state_district":"Tuzlanski kanton","state":"Federacija Bosne i Hercegovine","ISO3166-2-lvl4":"BA-BIH","postcode":"75300","country":"Bosna i Hercegovina / Босна и Херцеговина","country_code":"ba"},"population":12061,"osm_type":"node","osm_id":367404258,"type":"town","location":[18.5325309,44.5344136],"bbox":[18.4925309,44.4944136,18.5725309,44.5744136]}
{"name":"Lukavica","other_names":{"name:sr":"Лукавица","name:sr-Latn":"Lukavica"},"display_name":"Lukavica, Општина Источно Ново Сарајево / Opština Istočno Novo Sarajevo, Град Источно Сарајево / Grad Istočno Sarajevo, Република Српска / Republika Srpska, 41126, Bosna i Hercegovina / Босна и Херцеговина","address":{"town":"Lukavica","municipality":"Општина Источно Ново Сарајево / Opština Istočno Novo Sarajevo","county":"Град Источно Сарајево / Grad Istočno Sarajevo","state":"Република Српска / Republika Srpska","ISO3166-2-lvl4":"BA-SRP","postcode":"41126","country":"Bosna i Hercegovina / Босна и Херцеговина","country_code":"ba"},"population":7597,"osm_type":"node","osm_id":1697644094,"type":"town","location":[18.3682429,43.8219028],"bbox":[18.3282429,43.7819028,18.4082429,43.8619028]}
{"name":"Maglaj","other_names":{"name:ru":"Маглай","name:sr":"Маглај","name:tr":"Maglay","name:sr-Latn":"Maglaj"},"display_name":"Maglaj, Općina Maglaj, Zeničko-dobojski kanton, Federacija Bosne i Hercegovine, 74250, Bosna i Hercegovina / Босна и Херцеговина","address":{"town":"Maglaj","municipality":"Općina Maglaj","state_district":"Zeničko-dobojski kanton","state":"Federacija Bosne i Hercegovine","ISO3166-2-lvl4":"BA-BIH","postcode":"74250","country":"Bosna i Hercegovina / Босна и Херцеговина","country_code":"ba"},"population":6099,"osm_type":"node","osm_id":251913617,"type":"town","location":[18.1010166,44.5468713],"bbox":[18.0610166,44.5068713,18.1410166,44.5868713],"border":{"name":"Maglaj","display_name":"Maglaj, Općina Maglaj, Zeničko-dobojski kanton, Federacija Bosne i Hercegovine, 74250, Bosna i Hercegovina / Босна и Херцеговина","address":{"city_district":"Maglaj","municipality":"Općina Maglaj","state_district":"Zeničko-dobojski kanton","state":"Federacija Bosne i Hercegovine","ISO3166-2-lvl4":"BA-BIH","postcode":"74250","country":"Bosna i Hercegovina / Босна и Херцеговина","country_code":"ba"},"osm_type":"relation","osm_id":19268705,"type":"administrative","location":[18.10469420257758,44.5406825],"bbox":[18.0872312,44.5239974,18.1250689,44.5573046]}}
{"name":"Milići","other_names":{"name:bs":"Milići","name:hr":"Milići","name:sr":"Милићи","name:sr-Latn":"Milići"},"display_name":"Milići, Opština Milići, Република Српска / Republika Srpska, 75446, Bosna i Hercegovina / Босна и Херцеговина","address":{"town":"Milići","municipality":"Opština Milići","state":"Република Српска / Republika Srpska","ISO3166-2-lvl4":"BA-SRP","postcode":"75446","country":"Bosna i Hercegovina / Босна и Херцеговина","country_code":"ba"},"osm_type":"node","osm_id":292036917,"type":"town","location":[19.0800629,44.1679392],"bbox":[19.0400629,44.1279392,19.1200629,44.2079392],"border":{"name":"Милићи","other_names":{"name:en":"Milici","name:sr":"Милићи"},"display_name":"Милићи, Opština Milići, Република Српска / Republika Srpska, Bosna i Hercegovina / Босна и Херцеговина","address":{"city_district":"Милићи","municipality":"Opština Milići","state":"Република Српска / Republika Srpska","ISO3166-2-lvl4":"BA-SRP","country":"Bosna i Hercegovina / Босна и Херцеговина","country_code":"ba"},"osm_type":"relation","osm_id":14620574,"type":"administrative","location":[19.094465809660804,44.17106595],"bbox":[19.0757096,44.1611188,19.1069305,44.1809652]}}
{"name":"Modriča","other_names":{"name:bs":"Modriča","name:en":"Modrica","name:ru":"Модрича","name:sr":"Модрича","name:sr-Latn":"Modriča"},"display_name":"Modriča, Opština Modriča, Република Српска / Republika Srpska, Bosna i Hercegovina / Босна и Херцеговина","address":{"town":"Modriča","municipality":"Opština Modriča","state":"Република Српска / Republika Srpska","ISO3166-2-lvl4":"BA-SRP","country":"Bosna i Hercegovina / Босна и Херцеговина","country_code":"ba"},"population":35000,"osm_type":"node","osm_id":251914226,"type":"town","location":[18.3011351,44.9565236],"bbox":[18.2611351,44.9165236,18.3411351,44.9965236],"border":{"name":"Modriča","other_names":{"name:bs":"Modriča","name:en":"Modrica","name:ru":"Модрича","name:sr":"Модрича","name:sr-Latn":"Modriča"},"display_name":"Modriča, Opština Modriča, Република Српска / Republika Srpska, 74480, Bosna i Hercegovina / Босна и Херцеговина","address":{"town":"Modriča","municipality":"Opština Modriča","state":"Република Српска / Republika Srpska","ISO3166-2-lvl4":"BA-SRP","postcode":"74480","country":"Bosna i Hercegovina / Босна и Херцеговина","country_code":"ba"},"population":35000,"osm_type":"relation","osm_id":14590926,"type":"administrative","location":[18.3011351,44.9565236],"bbox":[18.2578049,44.9399697,18.3382416,44.9820872]}}
{"name":"Mrkonjić Grad","other_names":{"name:bs":"Mrkonjić Grad","name:hr":"Mrkonjić Grad","name:ru":"Мрконич-Град","name:sr":"Мркоњић Град","old_name":"Varcar Vakuf","old_name:de":"Märkoner","name:sr-Latn":"Mrkonjić Grad"},"display_name":"Mrkonjić Grad, Општина Мркоњић Град / Opština Mrkonjić Grad, Република Српска / Republika Srpska, 70620, Bosna i Hercegovina / Босна и Херцеговина","address":{"town":"Mrkonjić Grad","municipality":"Општина Мркоњић Град / Opština Mrkonjić Grad","state":"Република Српска / Republika Srpska","ISO3166-2-lvl4":"BA-SRP","postcode":"70620","country":"Bosna i Hercegovina / Босна и Херцеговина","country_code":"ba"},"population":7915,"osm_type":"node","osm_id":90250673,"type":"town","location":[17.0842585,44.4166023],"bbox":[17.0442585,44.3766023,17.1242585,44.4566023],"border":{"name":"Мркоњић Град","other_names":{"name:en":"Mrkonjic Grad","name:sr":"Мркоњић Град"},"display_name":"Мркоњић Град, Општина Мркоњић Град / Opština Mrkonjić Grad, Република Српска / Republika Srpska, Bosna i Hercegovina / Босна и Херцеговина","address":{"city_district":"Мркоњић Град","municipality":"Општина Мркоњић Град / Opština Mrkonjić Grad","state":"Република Српска / Republika Srpska","ISO3166-2-lvl4":"BA-SRP","country":"Bosna i Hercegovina / Босна и Херцеговина","country_code":"ba"},"osm_type":"relation","osm_id":14505530,"type":"administrative","location":[17.08278346956852,44.4204673],"bbox":[17.0682532,44.4005867,17.1007669,44.4404446]}}
{"name":"Neum","other_names":{"name:bg":"Неум","name:bs":"Neum","name:el":"Νέουμ","name:he":"נאום","name:hr":"Neum","name:hy":"Նեում","name:ja":"ネウム","name:ko":"네움","name:la":"Portus Noumensis","name:lt":"Neumas","name:mk":"Неум","name:ru":"Неум","name:sq":"Neumi","name:sr":"Неум","name:uk":"Неум","name:ur":"نیوم","name:zh":"涅姆","old_name:it":"Porto Noumense","name:sr-Latn":"Neum"},"display_name":"Neum, Općina Neum, Hercegovačko-neretvanska županija (kanton), Federacija Bosne i Hercegovine, 88930, Bosna i Hercegovina / Босна и Херцеговина","address":{"town":"Neum","municipality":"Općina Neum","state_district":"Hercegovačko-neretvanska županija (kanton)","state":"Federacija Bosne i Hercegovine","ISO3166-2-lvl4":"BA-BIH","postcode":"88930","country":"Bosna i Hercegovina / Босна и Херцеговина","country_code":"ba"},"population":3013,"osm_type":"node","osm_id":255533266,"type":"town","location":[17.6157205,42.9258614],"bbox":[17.5757205,42.8858614,17.6557205,42.9658614]}
{"name":"Nevesinje","other_names":{"name:bs":"Nevesinje","name:en":"Nevesinje","name:hr":"Nevesinje","name:ru":"Невесине","name:sr":"Невесиње","int_name":"Nevesinje","name:alt":"Невесиње","name:sr-Latn":"Nevesinje"},"display_name":"Nevesinje, Општина Невесиње / Opština Nevesinje, Република Српска / Republika Srpska, 88280, Bosna i Hercegovina / Босна и Херцеговина","address":{"town":"Nevesinje","municipality":"Општина Невесиње / Opština Nevesinje","state":"Република Српска / Republika Srpska","ISO3166-2-lvl4":"BA-SRP","postcode":"88280","country":"Bosna i Hercegovina / Босна и Херцеговина","country_code":"ba"},"population":5162,"osm_type":"node","osm_id":791530777,"type":"town","location":[18.1136084,43.2580773],"bbox":[18.0736084,43.2180773,18.1536084,43.2980773],"border":{"name":"Невесиње","other_names":{"name:bs":"Nevesinje","name:en":"Nevesinje","name:hr":"Nevesinje","name:sr":"Невесиње","name:sr-Latn":"Nevesinje"},"display_name":"Невесиње, Општина Невесиње / Opština Nevesinje, Република Српска / Republika Srpska, 88280, Bosna i Hercegovina / Босна и Херцеговина","address":{"city_district":"Невесиње","municipality":"Општина Невесиње / Opština Nevesinje","state":"Република Српска / Republika Srpska","ISO3166-2-lvl4":"BA-SRP","postcode":"88280","country":"Bosna i Hercegovina / Босна и Херцеговина","country_code":"ba"},"osm_type":"relation","osm_id":8853679,"type":"administrative","location":[18.106112957139835,43.258198],"bbox":[18.08429,43.2475785,18.1303489,43.2686399]}}
{"name":"Novi Grad","other_names":{"name:bs":"Novi Grad","name:hr":"Bosanski Novi","name:sr":"Нови Град","int_name":"Novi Grad","old_name":"Bosanski Novi","name:sr-Latn":"Novi Grad"},"display_name":"Novi Grad, Општина Нови Град / Opština Novi Grad, Република Српска / Republika Srpska, 79220, Bosna i Hercegovina / Босна и Херцеговина","address":{"town":"Novi Grad","municipality":"Општина Нови Град / Opština Novi Grad","state":"Република Српска / Republika Srpska","ISO3166-2-lvl4":"BA-SRP","postcode":"79220","country":"Bosna i Hercegovina / Босна и Херцеговина","country_code":"ba"},"population":10120,"osm_type":"node","osm_id":2178914245,"type":"town","location":[16.3776502,45.0489865],"bbox":[16.3376502,45.0089865,16.4176502,45.0889865],"border":{"name":"Нови Град","other_names":{"name:en":"Novi Grad","name:sr":"Нови Град"},"display_name":"Нови Град, Општина Нови Град / Opština Novi Grad, Република Српска / Republika Srpska, 79220, Bosna i Hercegovina / Босна и Херцеговина","address":{"city_district":"Нови Град","municipality":"Општина Нови Град / Opština Novi Grad","state":"Република Српска / Republika Srpska","ISO3166-2-lvl4":"BA-SRP","postcode":"79220","country":"Bosna i Hercegovina / Босна и Херцеговина","country_code":"ba"},"osm_type":"relation","osm_id":14570718,"type":"administrative","location":[16.38823222796096,45.033977050000004],"bbox":[16.3554871,45.0032112,16.4476275,45.0649053]}}
{"name":"Novi Travnik","other_names":{"name:sr":"Нови Травник","old_name":"Pucarevo","old_name:sr":"Пуцарево","name:sr-Latn":"Novi Travnik","official_name":"Novi Travnik"},"display_name":"Novi Travnik, Grad Novi Travnik, Srednjobosanski kanton / Županija Središnja Bosna, Federacija Bosne i Hercegovine, 72290, Bosna i Hercegovina / Босна и Херцеговина","address":{"town":"Novi Travnik","county":"Grad Novi Travnik","state_district":"Srednjobosanski kanton / Županija Središnja Bosna","state":"Federacija Bosne i Hercegovine","ISO3166-2-lvl4":"BA-BIH","postcode":"72290","country":"Bosna i Hercegovina / Босна и Херцеговина","country_code":"ba"},"population":9008,"osm_type":"node","osm_id":251905442,"type":"town","location":[17.6576521,44.1707502],"bbox":[17.6176521,44.1307502,17.6976521,44.2107502]}
{"name":"Odžak","other_names":{"name:bg":"Оджак","name:bs":"Odžak","name:fa":"اوژاک","name:hr":"Odžak","name:hy":"Օջակ","name:ja":"オジャク","name:lt":"Odžakas","name:mk":"Оџак","name:ru":"Оджак","name:sq":"Oxhaku","name:sr":"Оџак","name:tr":"Ocak","name:uk":"Оджак","name:ur":"اوجاک","name:sr-Latn":"Odžak"},"display_name":"Odžak, Općina Odžak, Županija Posavska, Federacija Bosne i Hercegovine, Bosna i Hercegovina / Босна и Херцеговина","address":{"town":"Odžak","municipality":"Općina Odžak","state_district":"Županija Posavska","state":"Federacija Bosne i Hercegovine","ISO3166-2-lvl4":"BA-BIH","country":"Bosna i Hercegovina / Босна и Херцеговина","country_code":"ba"},"population":8259,"osm_type":"node","osm_id":1462983577,"type":"town","location":[18.3261246,45.0120765],"bbox":[18.2861246,44.9720765,18.3661246,45.0520765],"border":{"name":"Odžak","other_names":{"name:bg":"Оджак","name:bs":"Odžak","name:fa":"اوژاک","name:hr":"Odžak","name:hy":"Օջակ","name:ja":"オジャク","name:lt":"Odžakas","name:mk":"Оџак","name:ru":"Оджак","name:sq":"Oxhaku","name:sr":"Оџак","name:tr":"Ocak","name:uk":"Оджак","name:ur":"اوجاک","name:sr-Latn":"Odžak"},"display_name":"Odžak, Općina Odžak, Županija Posavska, Federacija Bosne i Hercegovine, 76290, Bosna i Hercegovina / Босна и Херцеговина","address":{"town":"Odžak","municipality":"Općina Odžak","state_district":"Županija Posavska","state":"Federacija Bosne i Hercegovine","ISO3166-2-lvl4":"BA-BIH","postcode":"76290","country":"Bosna i Hercegovina / Босна и Херцеговина","country_code":"ba"},"population":8259,"osm_type":"relation","osm_id":11638189,"type":"administrative","location":[18.3261246,45.0120765],"bbox":[18.2992062,44.993116,18.3453628,45.0387331]}}
{"name":"Olovo","other_names":{"name:ru":"Олово","name:sr":"Олово","name:sr-Latn":"Olovo"},"display_name":"Olovo, Općina Olovo, Zeničko-dobojski kanton, Federacija Bosne i Hercegovine, Bosna i Hercegovina / Босна и Херцеговина","address":{"town":"Olovo","municipality":"Općina Olovo","state_district":"Zeničko-dobojski kanton","state":"Federacija Bosne i Hercegovine","ISO3166-2-lvl4":"BA-BIH","country":"Bosna i Hercegovina / Босна и Херцеговина","country_code":"ba"},"osm_type":"node","osm_id":258976859,"type":"town","location":[18.580233,44.1269033],"bbox":[18.540233,44.0869033,18.620233,44.1669033]}
{"name":"Orašje","other_names":{"name:ar":"أوراسيي","name:bs":"Orašje","name:fa":"اوراشی","name:hr":"Orašje","name:hy":"Օրաշյե","name:ja":"オラシエ","name:ko":"오라셰","name:la":"Margum","name:lt":"Orašjė","name:mk":"Орашје","name:ru":"Орашье","name:sq":"Orashje","name:sr":"Орашје","name:uk":"Ораш'є","name:ur":"اوراشئے","alt_name:la":"Orasia","name:sr-Latn":"Orašje"},"display_name":"Orašje, Grad Orašje, Županija Posavska, Federacija Bosne i Hercegovine, Bosna i Hercegovina / Босна и Херцеговина","address":{"town":"Orašje","county":"Grad Orašje","state_district":"Županija Posavska","state":"Federacija Bosne i Hercegovine","ISO3166-2-lvl4":"BA-BIH","country":"Bosna i Hercegovina / Босна и Херцеговина","country_code":"ba"},"population":3796,"osm_type":"node","osm_id":506679896,"type":"town","location":[18.6943254,45.0342753],"bbox":[18.6543254,44.9942753,18.7343254,45.0742753],"border":{"name":"Orašje","other_names":{"name:ar":"أوراسيي","name:bs":"Orašje","name:fa":"اوراشی","name:hr":"Orašje","name:hy":"Օրաշյե","name:ja":"オラシエ","name:ko":"오라셰","name:la":"Margum","name:lt":"Orašjė","name:mk":"Орашје","name:ru":"Орашье","name:sq":"Orashje","name:sr":"Орашје","name:uk":"Ораш'є","name:ur":"اوراشئے","alt_name:la":"Orasia","name:sr-Latn":"Orašje"},"display_name":"Orašje, Grad Orašje, Županija Posavska, Federacija Bosne i Hercegovine, 76270, Bosna i Hercegovina / Босна и Херцеговина","address":{"town":"Orašje","county":"Grad Orašje","state_district":"Županija Posavska","state":"Federacija Bosne i Hercegovine","ISO3166-2-lvl4":"BA-BIH","postcode":"76270","country":"Bosna i Hercegovina / Босна и Херцеговина","country_code":"ba"},"population":3796,"osm_type":"relation","osm_id":11645229,"type":"administrative","location":[18.6943254,45.0342753],"bbox":[18.6823976,44.9877005,18.7384344,45.0419456]}}
{"name":"Pale","other_names":{"name:ar":"بالي","name:bg":"Пале","name:bs":"Pale","name:el":"Πάλε","name:hr":"Pale","name:hy":"Պալե","name:ja":"パレ","name:ko":"팔레","name:lt":"Palė","name:mk":"Пале","name:ru":"Пале","name:sh":"Pale","name:sr":"Пале","name:uk":"Пале","name:ur":"پالے","old_name:tr":"Boğazıyumru","name:sr-Latn":"Pale","name:zh-Hans":"帕莱","name:zh-Hant":"帕萊"},"display_name":"Pale, Општина Пале (РС) / Opština Pale (RS), Град Источно Сарајево / Grad Istočno Sarajevo, Република Српска / Republika Srpska, 71420, Bosna i Hercegovina / Босна и Херцеговина","address":{"town":"Pale","municipality":"Општина Пале (РС) / Opština Pale (RS)","county":"Град Источно Сарајево / Grad Istočno Sarajevo","state":"Република Српска / Republika Srpska","ISO3166-2-lvl4":"BA-SRP","postcode":"71420","country":"Bosna i Hercegovina / Босна и Херцеговина","country_code":"ba"},"population":12569,"osm_type":"node","osm_id":82545115,"type":"town","location":[18.5696052,43.8141813],"bbox":[18.5296052,43.7741813,18.6096052,43.8541813],"border":{"name":"Пале","other_names":{"name:en":"Pale","name:sr":"Пале"},"display_name":"Пале, Општина Пале (РС) / Opština Pale (RS), Град Источно Сарајево / Grad Istočno Sarajevo, Република Српска / Republika Srpska, 71420, Bosna i Hercegovina / Босна и Херцеговина","address":{"city_district":"Пале","municipality":"Општина Пале (РС) / Opština Pale (RS)","county":"Град Источно Сарајево / Grad Istočno Sarajevo","state":"Република Српска / Republika Srpska","ISO3166-2-lvl4":"BA-SRP","postcode":"71420","country":"Bosna i Hercegovina / Босна и Херцеговина","country_code":"ba"},"osm_type":"relation","osm_id":14540747,"type":"administrative","location":[18.564667900706578,43.8108344],"bbox":[18.5402441,43.7887398,18.5924506,43.8328938]}}
{"name":"Posušje","other_names":{"name:hr":"Posušje","name:sr":"Посушје","name:sr-Latn":"Posušje"},"display_name":"Posušje, Općina Posušje, Županija zapadnohercegovačka, Federacija Bosne i Hercegovine, 88240, Bosna i Hercegovina / Босна и Херцеговина","address":{"town":"Posušje","municipality":"Općina Posušje","state_district":"Županija zapadnohercegovačka","state":"Federacija Bosne i Hercegovine","ISO3166-2-lvl4":"BA-BIH","postcode":"88240","country":"Bosna i Hercegovina / Босна и Херцеговина","country_code":"ba"},"population":6386,"osm_type":"node","osm_id":1667495623,"type":"town","location":[17.3271281,43.4712288],"bbox":[17.2871281,43.4312288,17.3671281,43.5112288],"border":{"name":"Posušje","other_names":{"name:en":"Posušje","name:fr":"Posušje","name:hr":"Posušje"},"display_name":"Posušje, Općina Posušje, Županija zapadnohercegovačka, Federacija Bosne i Hercegovine, 88240, Bosna i Hercegovina / Босна и Херцеговина","address":{"city_district":"Posušje","municipality":"Općina Posušje","state_district":"Županija zapadnohercegovačka","state":"Federacija Bosne i Hercegovine","ISO3166-2-lvl4":"BA-BIH","postcode":"88240","country":"Bosna i Hercegovina / Босна и Херцеговина","country_code":"ba"},"population":6386,"osm_type":"relation","osm_id":9691767,"type":"administrative","location":[17.32383437819196,43.48583965],"bbox":[17.292514,43.4599632,17.3492119,43.5117829]}}
{"name":"Prnjavor","other_names":{"name:ru":"Прнявор","name:sr":"Прњавор","name:sr-Latn":"Prnjavor"},"display_name":"Prnjavor, Grad Prnjavor, Република Српска / Republika Srpska, Bosna i Hercegovina / Босна и Херцеговина","address":{"town":"Prnjavor","county":"Grad Prnjavor","state":"Република Српска / Republika Srpska","ISO3166-2-lvl4":"BA-SRP","country":"Bosna i Hercegovina / Босна и Херцеговина","country_code":"ba"},"population":8484,"osm_type":"node","osm_id":1037420544,"type":"town","location":[17.6631777,44.8686369],"bbox":[17.6231777,44.8286369,17.7031777,44.9086369],"border":{"name":"Прњавор","other_names":{"name:en":"Prnjavor","name:sr":"Прњавор"},"display_name":"Прњавор, Grad Prnjavor, Република Српска / Republika Srpska, Bosna i Hercegovina / Босна и Херцеговина","address":{"city_district":"Прњавор","county":"Grad Prnjavor","state":"Република Српска / Republika Srpska","ISO3166-2-lvl4":"BA-SRP","country":"Bosna i Hercegovina / Босна и Херцеговина","country_code":"ba"},"osm_type":"relation","osm_id":14607971,"type":"administrative","location":[17.662377023406393,44.86870925],"bbox":[17.6470256,44.8494418,17.6875752,44.8884263]}}
{"name":"Prozor","other_names":{"name:ru":"Прозор","name:sr":"Прозор","old_name:de":"Prosser","name:sr-Latn":"Prozor"},"display_name":"Prozor, Općina Prozor-Rama, Hercegovačko-neretvanska županija (kanton), Federacija Bosne i Hercegovine, 88440, Bosna i Hercegovina / Босна и Херцеговина","address":{"town":"Prozor","municipality":"Općina Prozor-Rama","state_district":"Hercegovačko-neretvanska županija (kanton)","state":"Federacija Bosne i Hercegovine","ISO3166-2-lvl4":"BA-BIH","postcode":"88440","country":"Bosna i Hercegovina / Босна и Херцеговина","country_code":"ba"},"population":3367,"osm_type":"node","osm_id":376041069,"type":"town","location":[17.6088638,43.82173],"bbox":[17.5688638,43.78173,17.6488638,43.86173]}
{"name":"Rogatica","other_names":{"name:hr":"Rogatica","name:ml":"റോഗാറ്റിറ്റ്സ","name:sr":"Рогатица","int_name":"Rogatica","name:sr-Latn":"Rogatica"},"display_name":"Rogatica, Рогатица, Opština Rogatica, Република Српска / Republika Srpska, Bosna i Hercegovina / Босна и Херцеговина","address":{"town":"Rogatica","municipality":"Opština Rogatica","state":"Република Српска / Republika Srpska","ISO3166-2-lvl4":"BA-SRP","country":"Bosna i Hercegovina / Босна и Херцеговина","country_code":"ba"},"population":6522,"osm_type":"node","osm_id":5258501411,"type":"town","location":[19.002206,43.7997371],"bbox":[18.962206,43.7597371,19.042206,43.8397371],"border":{"name":"Рогатица","other_names":{"name:en":"Rogatica","name:sr":"Рогатица","name:hr":"Rogatica","name:ml":"റോഗാറ്റിറ്റ്സ","int_name":"Rogatica","name:sr-Latn":"Rogatica","alt":"Rogatica"},"display_name":"Рогатица, Opština Rogatica, Република Српска / Republika Srpska, Bosna i Hercegovina / Босна и Херцеговина","address":{"town":"Рогатица","municipality":"Opština Rogatica","state":"Република Српска / Republika Srpska","ISO3166-2-lvl4":"BA-SRP","country":"Bosna i Hercegovina / Босна и Херцеговина","country_code":"ba"},"population":6522,"osm_type":"relation","osm_id":14544640,"type":"administrative","location":[19.002206,43.7997371],"bbox":[18.98121,43.7698078,19.0360021,43.8290317]}}
{"name":"Rudo","other_names":{"name:bs":"Rudo","name:de":"Rudo","name:en":"Rudo","name:hr":"Rudo","name:ru":"Рудо","name:sr":"Рудо","name:sr-Latn":"Rudo"},"display_name":"Rudo, Opština Rudo, Република Српска / Republika Srpska, 73260, Bosna i Hercegovina / Босна и Херцеговина","address":{"town":"Rudo","municipality":"Opština Rudo","state":"Република Српска / Republika Srpska","ISO3166-2-lvl4":"BA-SRP","postcode":"73260","country":"Bosna i Hercegovina / Босна и Херцеговина","country_code":"ba"},"population":1949,"osm_type":"node","osm_id":255532133,"type":"town","location":[19.3656216,43.6174355],"bbox":[19.3256216,43.5774355,19.4056216,43.6574355],"border":{"name":"Рудо","other_names":{"name:en":"Rudo","name:sr":"Рудо"},"display_name":"Рудо, Opština Rudo, Република Српска / Republika Srpska, 73260, Bosna i Hercegovina / Босна и Херцеговина","address":{"city_district":"Рудо","municipality":"Opština Rudo","state":"Република Српска / Republika Srpska","ISO3166-2-lvl4":"BA-SRP","postcode":"73260","country":"Bosna i Hercegovina / Босна и Херцеговина","country_code":"ba"},"osm_type":"relation","osm_id":14561384,"type":"administrative","location":[19.371564901318315,43.6202844],"bbox":[19.3617269,43.6121702,19.3795288,43.6285195]}}
{"name":"Šamac","other_names":{"name:bs":"Šamac","name:hr":"Bosanski Šamac","name:ru":"Шамац","name:sr":"Шамац","int_name":"Šamac","old_name":"Bosanski Šamac","name:sr-Latn":"Šamac"},"display_name":"Šamac, Opština Šamac, Република Српска / Republika Srpska, Bosna i Hercegovina / Босна и Херцеговина","address":{"town":"Šamac","municipality":"Opština Šamac","state":"Република Српска / Republika Srpska","ISO3166-2-lvl4":"BA-SRP","country":"Bosna i Hercegovina / Босна и Херцеговина","country_code":"ba"},"population":5133,"osm_type":"node","osm_id":251915424,"type":"town","location":[18.4693465,45.0606892],"bbox":[18.4293465,45.0206892,18.5093465,45.1006892],"border":{"name":"Šamac","other_names":{"name:bs":"Šamac","name:hr":"Bosanski Šamac","name:sr":"Шамац","name:sr-Latn":"Šamac","name:ru":"Шамац","int_name":"Šamac","old_name":"Bosanski Šamac"},"display_name":"Šamac, Opština Šamac, Република Српска / Republika Srpska, 76230, Bosna i Hercegovina / Босна и Херцеговина","address":{"town":"Šamac","municipality":"Opština Šamac","state":"Република Српска / Republika Srpska","ISO3166-2-lvl4":"BA-SRP","postcode":"76230","country":"Bosna i Hercegovina / Босна и Херцеговина","country_code":"ba"},"population":5133,"osm_type":"relation","osm_id":13426749,"type":"administrative","location":[18.4693465,45.0606892],"bbox":[18.4415676,45.0409308,18.4920807,45.0686296]}}
{"name":"Sanski Most","other_names":{"name:ru":"Сански-Мост","name:sr":"Сански Мост","name:sr-Latn":"Sanski Most"},"display_name":"Sanski Most, Općina Sanski Most, Unsko-sanski kanton, Federacija Bosne i Hercegovine, 79260, Bosna i Hercegovina / Босна и Херцеговина","address":{"town":"Sanski Most","municipality":"Općina Sanski Most","state_district":"Unsko-sanski kanton","state":"Federacija Bosne i Hercegovine","ISO3166-2-lvl4":"BA-BIH","postcode":"79260","country":"Bosna i Hercegovina / Босна и Херцеговина","country_code":"ba"},"population":16913,"osm_type":"node","osm_id":248400862,"type":"town","location":[16.6656827,44.7651882],"bbox":[16.6256827,44.7251882,16.7056827,44.8051882],"border":{"name":"Sanski Most","display_name":"Sanski Most, Općina Sanski Most, Unsko-sanski kanton, Federacija Bosne i Hercegovine, 79260, Bosna i Hercegovina / Босна и Херцеговина","address":{"city_district":"Sanski Most","municipality":"Općina Sanski Most","state_district":"Unsko-sanski kanton","state":"Federacija Bosne i Hercegovine","ISO3166-2-lvl4":"BA-BIH","postcode":"79260","country":"Bosna i Hercegovina / Босна и Херцеговина","country_code":"ba"},"osm_type":"relation","osm_id":19147271,"type":"administrative","location":[16.660627410683418,44.7575122],"bbox":[16.6130396,44.7300942,16.6974748,44.7847596]}}
{"name":"Šekovići","other_names":{"name:bs":"Šekovići","name:hr":"Šekovići","name:ru":"Шековичи","name:sr":"Шековићи","int_name":"Sekovici","name:sr-Latn":"Šekovići"},"display_name":"Šekovići, Opština Šekovići, Република Српска / Republika Srpska, 75450, Bosna i Hercegovina / Босна и Херцеговина","address":{"town":"Šekovići","municipality":"Opština Šekovići","state":"Република Српска / Republika Srpska","ISO3166-2-lvl4":"BA-SRP","postcode":"75450","country":"Bosna i Hercegovina / Босна и Херцеговина","country_code":"ba"},"osm_type":"node","osm_id":1817519911,"type":"town","location":[18.8523779,44.2978089],"bbox":[18.8123779,44.2578089,18.8923779,44.3378089],"border":{"name":"Шековићи","other_names":{"name:en":"Sekovici","name:sr":"Шековићи"},"display_name":"Шековићи, Opština Šekovići, Република Српска / Republika Srpska, 75450, Bosna i Hercegovina / Босна и Херцеговина","address":{"city_district":"Шековићи","municipality":"Opština Šekovići","state":"Република Српска / Republika Srpska","ISO3166-2-lvl4":"BA-SRP","postcode":"75450","country":"Bosna i Hercegovina / Босна и Херцеговина","country_code":"ba"},"osm_type":"relation","osm_id":14535342,"type":"administrative","location":[18.851391113992683,44.300817249999994],"bbox":[18.8440901,44.2940099,18.8574421,44.3078196]}}
{"name":"Šipovo","other_names":{"name:ru":"Шипово","name:sr":"Шипово","name:sr-Latn":"Šipovo"},"display_name":"Šipovo, Општина Шипово / Opština Šipovo, Република Српска / Republika Srpska, 70270, Bosna i Hercegovina / Босна и Херцеговина","address":{"town":"Šipovo","municipality":"Општина Шипово / Opština Šipovo","state":"Република Српска / Republika Srpska","ISO3166-2-lvl4":"BA-SRP","postcode":"70270","country":"Bosna i Hercegovina / Босна и Херцеговина","country_code":"ba"},"osm_type":"node","osm_id":2042665680,"type":"town","location":[17.0853048,44.2809431],"bbox":[17.0453048,44.2409431,17.1253048,44.3209431],"border":{"name":"Шипово","other_names":{"name:en":"Sipovo","name:sr":"Шипово"},"display_name":"Шипово, Општина Шипово / Opština Šipovo, Република Српска / Republika Srpska, 70270, Bosna i Hercegovina / Босна и Херцеговина","address":{"city_district":"Шипово","municipality":"Општина Шипово / Opština Šipovo","state":"Република Српска / Republika Srpska","ISO3166-2-lvl4":"BA-SRP","postcode":"70270","country":"Bosna i Hercegovina / Босна и Херцеговина","country_code":"ba"},"osm_type":"relation","osm_id":14574683,"type":"administrative","location":[17.094400642950795,44.29060025],"bbox":[17.0749104,44.2737944,17.1097791,44.307405]}}
{"name":"Široki Brijeg","other_names":{"name:ar":"شيروكي برييغ","name:bs":"Široki Brijeg","name:fa":"شیروکی بریگ","name:hr":"Široki Brijeg","name:ja":"シロキ・ブリイェグ","name:ko":"시로키브리예그","name:la":"Collis Amplus","name:lt":"Široki Brijegas","name:mk":"Широки Бриег","name:ru":"Широки-Бриег","name:sq":"Shiroki Breg","name:sr":"Широки Бријег","name:uk":"Широкі Брієг","name:ur":"شیروکی بریئگ","alt_name":"Široki Brig","old_name":"Lištica","short_name":"Široki","alt_name:mk":"Широк Брег","old_name:ja":"リシュティツァ","old_name:ko":"리슈티차","old_name:mk":"Лиштица","old_name:sr":"Лиштица","name:sr-Latn":"Široki Brijeg"},"display_name":"Široki Brijeg, Grad Široki Brijeg, Županija zapadnohercegovačka, Federacija Bosne i Hercegovine, 88220, Bosna i Hercegovina / Босна и Херцеговина","address":{"town":"Široki Brijeg","county":"Grad Široki Brijeg","state_district":"Županija zapadnohercegovačka","state":"Federacija Bosne i Hercegovine","ISO3166-2-lvl4":"BA-BIH","postcode":"88220","country":"Bosna i Hercegovina / Босна и Херцеговина","country_code":"ba"},"population":6149,"osm_type":"node","osm_id":1222091911,"type":"town","location":[17.5929153,43.3831944],"bbox":[17.5529153,43.3431944,17.6329153,43.4231944]}
{"name":"Sokolac","other_names":{"name:ml":"സോക്കോലാറ്റ്സ്","name:sr":"Соколац","name:sr-Latn":"Sokolac"},"display_name":"Sokolac, Opština Sokolac, Град Источно Сарајево / Grad Istočno Sarajevo, Република Српска / Republika Srpska, 71350, Bosna i Hercegovina / Босна и Херцеговина","address":{"town":"Sokolac","municipality":"Opština Sokolac","county":"Град Источно Сарајево / Grad Istočno Sarajevo","state":"Република Српска / Republika Srpska","ISO3166-2-lvl4":"BA-SRP","postcode":"71350","country":"Bosna i Hercegovina / Босна и Херцеговина","country_code":"ba"},"population":12000,"osm_type":"node","osm_id":251755049,"type":"town","location":[18.7963138,43.9358936],"bbox":[18.7563138,43.8958936,18.8363138,43.9758936],"border":{"name":"Соколац","other_names":{"name:en":"Sokolac","name:sr":"Соколац"},"display_name":"Соколац, Opština Sokolac, Град Источно Сарајево / Grad Istočno Sarajevo, Република Српска / Republika Srpska, Bosna i Hercegovina / Босна и Херцеговина","address":{"city_district":"Соколац","municipality":"Opština Sokolac","county":"Град Источно Сарајево / Grad Istočno Sarajevo","state":"Република Српска / Republika Srpska","ISO3166-2-lvl4":"BA-SRP","country":"Bosna i Hercegovina / Босна и Херцеговина","country_code":"ba"},"osm_type":"relation","osm_id":14612933,"type":"administrative","location":[18.799367454210184,43.93721445],"bbox":[18.7859559,43.9237545,18.8152027,43.9507177]}}
{"name":"Srbac","other_names":{"name:bs":"Srbac","name:hr":"Srbac","name:ru":"Србац","name:sr":"Србац","old_name":"Bosanski Svinjar","name:sr-Latn":"Srbac"},"display_name":"Srbac, Opština Srbac, Република Српска / Republika Srpska, 78420, Bosna i Hercegovina / Босна и Херцеговина","address":{"town":"Srbac","municipality":"Opština Srbac","state":"Република Српска / Republika Srpska","ISO3166-2-lvl4":"BA-SRP","postcode":"78420","country":"Bosna i Hercegovina / Босна и Херцеговина","country_code":"ba"},"population":2801,"osm_type":"node","osm_id":2628397185,"type":"town","location":[17.5198587,45.0954444],"bbox":[17.4798587,45.0554444,17.5598587,45.1354444],"border":{"name":"Srbac","other_names":{"name:sr":"Србац","name:sr-Latn":"Srbac"},"display_name":"Srbac, Opština Srbac, Република Српска / Republika Srpska, 78420, Bosna i Hercegovina / Босна и Херцеговина","address":{"city_district":"Srbac","municipality":"Opština Srbac","state":"Република Српска / Republika Srpska","ISO3166-2-lvl4":"BA-SRP","postcode":"78420","country":"Bosna i Hercegovina / Босна и Херцеговина","country_code":"ba"},"osm_type":"relation","osm_id":13335490,"type":"administrative","location":[17.51992397377908,45.0962995],"bbox":[17.5099597,45.083442,17.5415802,45.109008]}}
{"name":"Srebrenica","other_names":{"name:ar":"سربرنيتسا","name:bg":"Сребреница","name:bs":"Srebrenica","name:da":"Srebrenica","name:de":"Srebrenica","name:el":"Σρεμπρένιτσα","name:en":"Srebrenica","name:fa":"سربرنیتسا","name:hr":"Srebrenica","name:hy":"Սրեբրենիցա","name:ja":"スレブレニツァ","name:ka":"სრებრენიცა","name:ko":"스레브레니차","name:la":"Argentaria","name:mk":"Сребреница","name:ml":"സ്രെബ്രെനിറ്റ്സ","name:nl":"Srebrenica","name:ro":"Srebrenița","name:ru":"Сребреница","name:sk":"Srebrenica","name:sl":"Srebrenica","name:sr":"Сребреница","name:tr":"Srebrenitsa","name:uk":"Сребрениця","name:ur":"سریبرینیتسا","name:zh":"斯雷布雷尼察","name:pnb":"سربنیتسا","alt_name:ja":"スレブレニッツァ","alt_name:tr":"Srebrenice","old_name:de":"Silberin","name:sr-Latn":"Srebrenica"},"display_name":"Srebrenica, Opština Srebrenica, Република Српска / Republika Srpska, 75430, Bosna i Hercegovina / Босна и Херцеговина","address":{"town":"Srebrenica","municipality":"Opština Srebrenica","state":"Република Српска / Republika Srpska","ISO3166-2-lvl4":"BA-SRP","postcode":"75430","country":"Bosna i Hercegovina / Босна и Херцеговина","country_code":"ba"},"osm_type":"node","osm_id":748764863,"type":"town","location":[19.2952783,44.1063188],"bbox":[19.2552783,44.0663188,19.3352783,44.1463188],"border":{"name":"Сребреница","other_names":{"name:en":"Srebrenica","name:sr":"Сребреница"},"display_name":"Сребреница, Opština Srebrenica, Република Српска / Republika Srpska, 75430, Bosna i Hercegovina / Босна и Херцеговина","address":{"city_district":"Сребреница","municipality":"Opština Srebrenica","state":"Република Српска / Republika Srpska","ISO3166-2-lvl4":"BA-SRP","postcode":"75430","country":"Bosna i Hercegovina / Босна и Херцеговина","country_code":"ba"},"osm_type":"relation","osm_id":14636318,"type":"administrative","location":[19.294759724876194,44.10610805],"bbox":[19.284364,44.0900818,19.3072486,44.1218295]}}
{"name":"Srebrenik","other_names":{"name:ar":"سريبرنيك","name:bg":"Сребреник","name:bs":"Srebrenik","name:hr":"Srebrenik","name:hy":"Սրեբրենիկ","name:lt":"Srebrenikas","name:mk":"Сребреник","name:ru":"Сребреник","name:sq":"Srebreniku","name:sr":"Сребреник","name:uk":"Сребреник","name:ur":"سریبرینک","alt_name":"Srebrenik","int_name":"Srebrenik","old_name":"Srebrnik","name:sr-Latn":"Srebrenik"},"display_name":"Srebrenik, Grad Srebrenik, Tuzlanski kanton, Federacija Bosne i Hercegovine, 75350, Bosna i Hercegovina / Босна и Херцеговина","address":{"town":"Srebrenik","county":"Grad Srebrenik","state_district":"Tuzlanski kanton","state":"Federacija Bosne i Hercegovine","ISO3166-2-lvl4":"BA-BIH","postcode":"75350","country":"Bosna i Hercegovina / Босна и Херцеговина","country_code":"ba"},"population":6694,"osm_type":"node","osm_id":1035247965,"type":"town","location":[18.4912709,44.7048957],"bbox":[18.4512709,44.6648957,18.5312709,44.7448957]}
{"name":"Stanari","other_names":{"name:sr":"Станари","name:sr-Latn":"Stanari"},"display_name":"Stanari, Opština Stanari, Република Српска / Republika Srpska, 74208, Bosna i Hercegovina / Босна и Херцеговина","address":{"town":"Stanari","municipality":"Opština Stanari","state":"Република Српска / Republika Srpska","ISO3166-2-lvl4":"BA-SRP","postcode":"74208","country":"Bosna i Hercegovina / Босна и Херцеговина","country_code":"ba"},"population":1075,"osm_type":"node","osm_id":2518315607,"type":"town","location":[17.8379451,44.7517257],"bbox":[17.7979451,44.7117257,17.8779451,44.7917257],"border":{"name":"Станари","other_names":{"name:en":"Stanari","name:sr":"Станари"},"display_name":"Станари, Opština Stanari, Република Српска / Republika Srpska, Bosna i Hercegovina / Босна и Херцеговина","address":{"city_district":"Станари","municipality":"Opština Stanari","state":"Република Српска / Republika Srpska","ISO3166-2-lvl4":"BA-SRP","country":"Bosna i Hercegovina / Босна и Херцеговина","country_code":"ba"},"osm_type":"relation","osm_id":14591181,"type":"administrative","location":[17.821606893257787,44.734799249999995],"bbox":[17.7841616,44.7170648,17.8456592,44.7529698]}}
{"name":"Stolac","other_names":{"name:ar":"استولاك","name:bg":"Столац","name:bs":"Stolac","name:fa":"استولاس","name:he":"סטולאץ","name:hr":"Stolac","name:ko":"스톨라츠","name:la":"Sarsenterum","name:lt":"Stolacas","name:mk":"Столац","name:ru":"Столац","name:sl":"Stolac","name:sq":"Stollaci","name:sr":"Столац","name:uk":"Столаць","name:ur":"ستولاک","name:zh":"斯托拉茨","alt_name:la":"Diluntum","old_name:tr":"İstolça;Ustulçe","name:sr-Latn":"Stolac"},"display_name":"Stolac, Grad Stolac, Hercegovačko-neretvanska županija (kanton), Federacija Bosne i Hercegovine, 88360, Bosna i Hercegovina / Босна и Херцеговина","address":{"town":"Stolac","county":"Grad Stolac","state_district":"Hercegovačko-neretvanska županija (kanton)","state":"Federacija Bosne i Hercegovine","ISO3166-2-lvl4":"BA-BIH","postcode":"88360","country":"Bosna i Hercegovina / Босна и Херцеговина","country_code":"ba"},"population":3816,"osm_type":"node","osm_id":448756226,"type":"town","location":[17.9580026,43.0830587],"bbox":[17.9180026,43.0430587,17.9980026,43.1230587]}
{"name":"Tešanj","other_names":{"name:ru":"Тешань","name:sr":"Тешањ","name:sr-Latn":"Tešanj"},"display_name":"Tešanj, Općina Tešanj, Zeničko-dobojski kanton, Federacija Bosne i Hercegovine, 74260, Bosna i Hercegovina / Босна и Херцеговина","address":{"town":"Tešanj","municipality":"Općina Tešanj","state_district":"Zeničko-dobojski kanton","state":"Federacija Bosne i Hercegovine","ISO3166-2-lvl4":"BA-BIH","postcode":"74260","country":"Bosna i Hercegovina / Босна и Херцеговина","country_code":"ba"},"population":5257,"osm_type":"node","osm_id":251913618,"type":"town","location":[17.9858051,44.6129188],"bbox":[17.9458051,44.5729188,18.0258051,44.6529188],"border":{"name":"Tešanj","display_name":"Tešanj, Općina Tešanj, Zeničko-dobojski kanton, Federacija Bosne i Hercegovine, 74260, Bosna i Hercegovina / Босна и Херцеговина","address":{"city_district":"Tešanj","municipality":"Općina Tešanj","state_district":"Zeničko-dobojski kanton","state":"Federacija Bosne i Hercegovine","ISO3166-2-lvl4":"BA-BIH","postcode":"74260","country":"Bosna i Hercegovina / Босна и Херцеговина","country_code":"ba"},"osm_type":"relation","osm_id":19238391,"type":"administrative","location":[17.988409463790493,44.6139513],"bbox":[17.9580156,44.6032527,18.0083438,44.6246293]}}
{"name":"Teslić","other_names":{"name:ru":"Теслич","name:sr":"Теслић","name:sr-Latn":"Teslić"},"display_name":"Teslić, Grad Teslić, Република Српска / Republika Srpska, 74270, Bosna i Hercegovina / Босна и Херцеговина","address":{"town":"Teslić","municipality":"Grad Teslić","state":"Република Српска / Republika Srpska","ISO3166-2-lvl4":"BA-SRP","postcode":"74270","country":"Bosna i Hercegovina / Босна и Херцеговина","country_code":"ba"},"population":7057,"osm_type":"node","osm_id":251273093,"type":"town","location":[17.8595061,44.6065761],"bbox":[17.8195061,44.5665761,17.8995061,44.6465761],"border":{"name":"Теслић","other_names":{"name:en":"Teslic","name:sr":"Теслић"},"display_name":"Теслић, Grad Teslić, Република Српска / Republika Srpska, Bosna i Hercegovina / Босна и Херцеговина","address":{"city_district":"Теслић","municipality":"Grad Teslić","state":"Република Српска / Republika Srpska","ISO3166-2-lvl4":"BA-SRP","country":"Bosna i Hercegovina / Босна и Херцеговина","country_code":"ba"},"osm_type":"relation","osm_id":14593319,"type":"administrative","location":[17.85512946620725,44.60340295],"bbox":[17.8321302,44.591384,17.8705931,44.6154423]}}
{"name":"Tomislavgrad","other_names":{"name:ar":"توميسلافغراد","name:bg":"Томиславград","name:bs":"Tomislavgrad","name:fa":"تومسیلاوگراد","name:he":"טומיסלבגרד","name:hr":"Tomislavgrad","name:hy":"Տոմիսլավգրադ","name:la":"Delminium","name:lt":"Tomislavgradas","name:mk":"Томиславград","name:ru":"Томиславград","name:sq":"Tomisllavgradi","name:sr":"Томиславград","name:uk":"Томиславград","name:ur":"تومیسلاوگراد","old_name":"Duvno;Županjac;Sedidžedid;Županj-potok","alt_name:la":"Dumnum;Dalmium","old_name:bg":"Дувно;Жупаняц;Седиджедид","old_name:de":"Dalen","old_name:it":"Delminio","old_name:mk":"Дувно","old_name:sq":"Zhupanjac","old_name:sr":"Дувно;Жупањац;Седиџедид;Жупањ-поток","old_name:tr":"Seddicedid;Seddi Cedid","old_name:uk":"Дувно","name:sr-Latn":"Tomislavgrad"},"display_name":"Tomislavgrad, Općina Tomislavgrad, Hercegbosanska županija, Federacija Bosne i Hercegovine, 80240, Bosna i Hercegovina / Босна и Херцеговина","address":{"town":"Tomislavgrad","municipality":"Općina Tomislavgrad","state_district":"Hercegbosanska županija","state":"Federacija Bosne i Hercegovine","ISO3166-2-lvl4":"BA-BIH","postcode":"80240","country":"Bosna i Hercegovina / Босна и Херцеговина","country_code":"ba"},"population":5760,"osm_type":"node","osm_id":305480587,"type":"town","location":[17.2278277,43.7169169],"bbox":[17.1878277,43.6769169,17.2678277,43.7569169],"border":[{"name":"Općina Tomislavgrad","other_names":{"name:bs":"Općina Tomislavgrad","name:de":"Gemeinde Tomislavgrad","name:en":"Tomislavgrad municipality","name:fr":"Municipalité Tomislavgrad","name:hr":"Općina Tomislavgrad","old_name":"Duvno"},"display_name":"Općina Tomislavgrad, Hercegbosanska županija, Federacija Bosne i Hercegovine, Bosna i Hercegovina / Босна и Херцеговина","address":{"municipality":"Općina Tomislavgrad","state_district":"Hercegbosanska županija","state":"Federacija Bosne i Hercegovine","ISO3166-2-lvl4":"BA-BIH","country":"Bosna i Hercegovina / Босна и Херцеговина","country_code":"ba"},"population":31592,"osm_type":"relation","osm_id":2528275,"type":"administrative","location":[17.27026229714211,43.71150605],"bbox":[16.9058731,43.5382603,17.5350648,43.8862639]},{"name":"Tomislavgrad","other_names":{"name:de":"Tomislavgrad","name:en":"Tomislavgrad","name:fr":"Tomislavgrad"},"display_name":"Tomislavgrad, Općina Tomislavgrad, Hercegbosanska županija, Federacija Bosne i Hercegovine, Bosna i Hercegovina / Босна и Херцеговина","address":{"city_district":"Tomislavgrad","municipality":"Općina Tomislavgrad","state_district":"Hercegbosanska županija","state":"Federacija Bosne i Hercegovine","ISO3166-2-lvl4":"BA-BIH","country":"Bosna i Hercegovina / Босна и Херцеговина","country_code":"ba"},"population":5760,"osm_type":"relation","osm_id":9259874,"type":"administrative","location":[17.227392660101977,43.71650215],"bbox":[17.195927,43.7017305,17.2612971,43.7311815]}]}
{"name":"Travnik","other_names":{"name:ar":"تراونيك","name:bs":"Travnik","name:fa":"تراونیک","name:he":"טראווניק","name:hr":"Travnik","name:hy":"Տրավնիկ","name:ja":"トラヴニク","name:ko":"트라브니크","name:la":"Traunicum","name:lt":"Travnikas","name:mk":"Травник","name:ru":"Травник","name:sq":"Travniku","name:sr":"Травник","name:tt":"Травник","name:uk":"Травник","name:ur":"تراونیک","name:zh":"特拉夫尼克","alt_name:de":"Travnik","alt_name:la":"Herbosa","alt_name:tr":"Trafnik","old_name:de":"Traunik","name:sr-Latn":"Travnik"},"display_name":"Travnik, Općina Travnik, Srednjobosanski kanton / Županija Središnja Bosna, Federacija Bosne i Hercegovine, 72270, Bosna i Hercegovina / Босна и Херцеговина","address":{"town":"Travnik","municipality":"Općina Travnik","state_district":"Srednjobosanski kanton / Županija Središnja Bosna","state":"Federacija Bosne i Hercegovine","ISO3166-2-lvl4":"BA-BIH","postcode":"72270","country":"Bosna i Hercegovina / Босна и Херцеговина","country_code":"ba"},"population":15344,"osm_type":"node","osm_id":90249576,"type":"town","location":[17.6661738,44.2259454],"bbox":[17.6261738,44.1859454,17.7061738,44.2659454],"border":{"name":"Travnik","display_name":"Travnik, Općina Travnik, Srednjobosanski kanton / Županija Središnja Bosna, Federacija Bosne i Hercegovine, 72270, Bosna i Hercegovina / Босна и Херцеговина","address":{"city_district":"Travnik","municipality":"Općina Travnik","state_district":"Srednjobosanski kanton / Županija Središnja Bosna","state":"Federacija Bosne i Hercegovine","ISO3166-2-lvl4":"BA-BIH","postcode":"72270","country":"Bosna i Hercegovina / Босна и Херцеговина","country_code":"ba"},"osm_type":"relation","osm_id":19197774,"type":"administrative","location":[17.65877826260496,44.2269309],"bbox":[17.6283005,44.2002179,17.6913061,44.2535327]}}
{"name":"Trnovo","other_names":{"name:bs":"Trnovo","name:hr":"Trnovo","name:ru":"Трново","name:sr":"Трново","name:sr-Latn":"Trnovo"},"display_name":"Trnovo, Општина Трново (РС) / Opština Trnovo (RS), Град Источно Сарајево / Grad Istočno Sarajevo, Република Српска / Republika Srpska, 71220, Bosna i Hercegovina / Босна и Херцеговина","address":{"town":"Trnovo","municipality":"Општина Трново (РС) / Opština Trnovo (RS)","county":"Град Источно Сарајево / Grad Istočno Sarajevo","state":"Република Српска / Republika Srpska","ISO3166-2-lvl4":"BA-SRP","postcode":"71220","country":"Bosna i Hercegovina / Босна и Херцеговина","country_code":"ba"},"population":956,"osm_type":"node","osm_id":255540946,"type":"town","location":[18.4465122,43.6654827],"bbox":[18.4065122,43.6254827,18.4865122,43.7054827],"border":{"name":"Općina Trnovo (FBiH)","other_names":{"name:bs":"Općina Trnovo (FBiH)","name:en":"Trnovo Municipality (FBiH)","name:sr":"Општина Трново (ФБиХ)","name:sr-Latn":"Opština Trnovo (FBiH)","alt":"Trnovo","alt:sr":"Трново","alt:sr-Latn":"Trnovo"},"display_name":"Općina Trnovo (FBiH), Kanton Sarajevo, Federacija Bosne i Hercegovine, Bosna i Hercegovina / Босна и Херцеговина","address":{"suburb":"Općina Trnovo (FBiH)","state_district":"Kanton Sarajevo","state":"Federacija Bosne i Hercegovine","ISO3166-2-lvl4":"BA-BIH","country":"Bosna i Hercegovina / Босна и Херцеговина","country_code":"ba"},"population":1502,"osm_type":"relation","osm_id":2528280,"type":"administrative","location":[18.4488153,43.672248],"bbox":[18.1659951,43.5869307,18.6296225,43.7477057]}}
{"name":"Ugljevik","other_names":{"name:de":"Ugljevik","name:en":"Ugljevik","name:hr":"Ugljevik","name:ru":"Углевик","name:sr":"Угљевик","alt_name":"Novi Ugljevik","name:sr-Latn":"Ugljevik"},"display_name":"Ugljevik, Opština Ugljevik, Република Српска / Republika Srpska, 76330, Bosna i Hercegovina / Босна и Херцеговина","address":{"town":"Ugljevik","municipality":"Opština Ugljevik","state":"Република Српска / Republika Srpska","ISO3166-2-lvl4":"BA-SRP","postcode":"76330","country":"Bosna i Hercegovina / Босна и Херцеговина","country_code":"ba"},"population":4155,"osm_type":"node","osm_id":289533523,"type":"town","location":[18.9945989,44.6930533],"bbox":[18.9545989,44.6530533,19.0345989,44.7330533],"border":{"name":"Угљевик","other_names":{"name:en":"Ugljevik","name:sr":"Угљевик"},"display_name":"Угљевик, Opština Ugljevik, Република Српска / Republika Srpska, Bosna i Hercegovina / Босна и Херцеговина","address":{"city_district":"Угљевик","municipality":"Opština Ugljevik","state":"Република Српска / Republika Srpska","ISO3166-2-lvl4":"BA-SRP","country":"Bosna i Hercegovina / Босна и Херцеговина","country_code":"ba"},"osm_type":"relation","osm_id":14524850,"type":"administrative","location":[18.973750896996712,44.68790415],"bbox":[18.9570058,44.6760995,19.0341031,44.6996994]}}
{"name":"Vareš","other_names":{"name:ru":"Вареш","name:sr":"Вареш","name:sr-Latn":"Vareš"},"display_name":"Vareš, Općina Vareš, Zeničko-dobojski kanton, Federacija Bosne i Hercegovine, 71330, Bosna i Hercegovina / Босна и Херцеговина","address":{"town":"Vareš","municipality":"Općina Vareš","state_district":"Zeničko-dobojski kanton","state":"Federacija Bosne i Hercegovine","ISO3166-2-lvl4":"BA-BIH","postcode":"71330","country":"Bosna i Hercegovina / Босна и Херцеговина","country_code":"ba"},"osm_type":"node","osm_id":578046752,"type":"town","location":[18.3285369,44.1633731],"bbox":[18.2885369,44.1233731,18.3685369,44.2033731]}
{"name":"Velika Kladuša","other_names":{"name:hu":"Nagykladusa","name:pl":"Wielka Kladusza","name:sr":"Велика Кладуша","alt_name:hu":"Alsókladusa","old_name:de":"Groß-Kladuß","name:sr-Latn":"Velika Kladuša"},"display_name":"Velika Kladuša, Općina Velika Kladuša, Unsko-sanski kanton, Federacija Bosne i Hercegovine, 77230, Bosna i Hercegovina / Босна и Херцеговина","address":{"town":"Velika Kladuša","municipality":"Općina Velika Kladuša","state_district":"Unsko-sanski kanton","state":"Federacija Bosne i Hercegovine","ISO3166-2-lvl4":"BA-BIH","postcode":"77230","country":"Bosna i Hercegovina / Босна и Херцеговина","country_code":"ba"},"population":4520,"osm_type":"node","osm_id":765199709,"type":"town","location":[15.8069257,45.1843299],"bbox":[15.7669257,45.1443299,15.8469257,45.2243299]}
{"name":"Višegrad","other_names":{"name:ar":"فيزيغراد","name:be":"Вішаград","name:bg":"Вишеград","name:bs":"Višegrad","name:el":"Βίσεγκραντ","name:eu":"Vixegrad","name:fa":"ویشه‌گراد","name:he":"וישגרד","name:hr":"Višegrad","name:hy":"Վիշեգրադ","name:ja":"ヴィシェグラード","name:ka":"ვიშეგრადი","name:ko":"비셰그라드","name:la":"Visegradum","name:lt":"Višegradas","name:lv":"Višegrada","name:mk":"Вишеград","name:ml":"വിഷെഗ്രാഡ്","name:os":"Вишеград","name:ru":"Вишеград","name:sq":"Vishegradi","name:sr":"Вишеград","name:th":"วิเชกราด","name:uk":"Вишеград","name:ur":"ویشیگراد","int_name":"Visegrad","alt_name:de":"Hohe Burg;Wischegrad","alt_name:ru":"Вышеград","alt_name:tr":"Vişegrad;Viçgrad;Vizegrad","name:sr-Latn":"Višegrad","name:zh-Hans":"维舍格勒","name:zh-Hant":"維舍格勒"},"display_name":"Višegrad, Opština Višegrad, Република Српска / Republika Srpska, 73240, Bosna i Hercegovina / Босна и Херцеговина","address":{"town":"Višegrad","municipality":"Opština Višegrad","state":"Република Српска / Republika Srpska","ISO3166-2-lvl4":"BA-SRP","postcode":"73240","country":"Bosna i Hercegovina / Босна и Херцеговина","country_code":"ba"},"population":5869,"osm_type":"node","osm_id":170724373,"type":"town","location":[19.294097,43.7864291],"bbox":[19.254097,43.7464291,19.334097,43.8264291],"border":{"name":"Вишеград","other_names":{"name:en":"Visegrad","name:sr":"Вишеград"},"display_name":"Вишеград, Opština Višegrad, Република Српска / Republika Srpska, 73240, Bosna i Hercegovina / Босна и Херцеговина","address":{"city_district":"Вишеград","municipality":"Opština Višegrad","state":"Република Српска / Republika Srpska","ISO3166-2-lvl4":"BA-SRP","postcode":"73240","country":"Bosna i Hercegovina / Босна и Херцеговина","country_code":"ba"},"osm_type":"relation","osm_id":14552671,"type":"administrative","location":[19.293666620222858,43.78334505],"bbox":[19.2823899,43.7748279,19.3060738,43.7919771]}}
{"name":"Visoko","other_names":{"name:ar":"فيسوكو","name:bg":"Високо","name:bs":"Visoko","name:de":"Visoko","name:fa":"ویسوکو","name:he":"ויסוקו","name:hr":"Visoko","name:hy":"Վիսոկո","name:ja":"ヴィソコ","name:ko":"비소코","name:lt":"Visokas","name:mk":"Високо","name:ru":"Високо","name:sr":"Високо","name:uk":"Високо","name:ur":"ویسوکو","alt_name:tr":"Visoka;Vizoko;Vizoka","old_name:de":"Wissoko","name:sr-Latn":"Visoko","name:zh-Hans":"维索科","name:zh-Hant":"維索科"},"display_name":"Visoko, Grad Visoko, Zeničko-dobojski kanton, Federacija Bosne i Hercegovine, 71300, Bosna i Hercegovina / Босна и Херцеговина","address":{"town":"Visoko","county":"Grad Visoko","state_district":"Zeničko-dobojski kanton","state":"Federacija Bosne i Hercegovine","ISO3166-2-lvl4":"BA-BIH","postcode":"71300","country":"Bosna i Hercegovina / Босна и Херцеговина","country_code":"ba"},"population":11552,"osm_type":"node","osm_id":78546823,"type":"town","location":[18.1816434,43.9894986],"bbox":[18.1416434,43.9494986,18.2216434,44.0294986]}
{"name":"Vitez","other_names":{"name:hr":"Vitez","name:ru":"Витез","name:sr":"Витез","name:sr-Latn":"Vitez"},"display_name":"Vitez, Općina Vitez, Srednjobosanski kanton / Županija Središnja Bosna, Federacija Bosne i Hercegovine, 72250, Bosna i Hercegovina / Босна и Херцеговина","address":{"town":"Vitez","municipality":"Općina Vitez","state_district":"Srednjobosanski kanton / Županija Središnja Bosna","state":"Federacija Bosne i Hercegovine","ISO3166-2-lvl4":"BA-BIH","postcode":"72250","country":"Bosna i Hercegovina / Босна и Херцеговина","country_code":"ba"},"population":6633,"osm_type":"node","osm_id":251286005,"type":"town","location":[17.791462,44.150409],"bbox":[17.751462,44.110409,17.831462,44.190409]}
{"name":"Vlasenica","other_names":{"name:sr":"Власеница","name:sr-Latn":"Vlasenica"},"display_name":"Vlasenica, Opština Vlasenica, Република Српска / Republika Srpska, 75440, Bosna i Hercegovina / Босна и Херцеговина","address":{"town":"Vlasenica","municipality":"Opština Vlasenica","state":"Република Српска / Republika Srpska","ISO3166-2-lvl4":"BA-SRP","postcode":"75440","country":"Bosna i Hercegovina / Босна и Херцеговина","country_code":"ba"},"population":7228,"osm_type":"node","osm_id":254035596,"type":"town","location":[18.9411618,44.1821345],"bbox":[18.9011618,44.1421345,18.9811618,44.2221345],"border":{"name":"Власеница","other_names":{"name:en":"Vlasenica","name:sr":"Власеница"},"display_name":"Власеница, Opština Vlasenica, Република Српска / Republika Srpska, 75440, Bosna i Hercegovina / Босна и Херцеговина","address":{"city_district":"Власеница","municipality":"Opština Vlasenica","state":"Република Српска / Republika Srpska","ISO3166-2-lvl4":"BA-SRP","postcode":"75440","country":"Bosna i Hercegovina / Босна и Херцеговина","country_code":"ba"},"osm_type":"relation","osm_id":14620000,"type":"administrative","location":[18.928396768598613,44.1671373],"bbox":[18.8830728,44.137022,18.9794397,44.1972206]}}
{"name":"Vogošća","other_names":{"name:hr":"Vogošća","name:sr":"Вогошћа","name:sr-Latn":"Vogošća"},"display_name":"Vogošća, Općina Vogošća, Kanton Sarajevo, Federacija Bosne i Hercegovine, 71320, Bosna i Hercegovina / Босна и Херцеговина","address":{"town":"Vogošća","municipality":"Općina Vogošća","state_district":"Kanton Sarajevo","state":"Federacija Bosne i Hercegovine","ISO3166-2-lvl4":"BA-BIH","postcode":"71320","country":"Bosna i Hercegovina / Босна и Херцеговина","country_code":"ba"},"population":10568,"osm_type":"node","osm_id":83773025,"type":"town","location":[18.3432927,43.9018326],"bbox":[18.3032927,43.8618326,18.3832927,43.9418326],"border":{"name":"Vogošća","display_name":"Vogošća, Općina Vogošća, Kanton Sarajevo, Federacija Bosne i Hercegovine, 71320, Bosna i Hercegovina / Босна и Херцеговина","address":{"city_district":"Vogošća","municipality":"Općina Vogošća","state_district":"Kanton Sarajevo","state":"Federacija Bosne i Hercegovine","ISO3166-2-lvl4":"BA-BIH","postcode":"71320","country":"Bosna i Hercegovina / Босна и Херцеговина","country_code":"ba"},"osm_type":"relation","osm_id":19036519,"type":"administrative","location":[18.382188762996446,43.910405749999995],"bbox":[18.3202971,43.8820486,18.4159836,43.9387823]}}
{"name":"Zavidovići","other_names":{"name:ar":"زافيدوفيتشي","name:bg":"Завидовичи","name:bs":"Zavidovići","name:fa":"زاویدویچی","name:he":"זאבידוביצ'י","name:hr":"Zavidovići","name:ko":"자비도비치","name:lt":"Zavidovičiai","name:mk":"Завидовиќи","name:ru":"Завидовичи","name:sq":"Zavidoviqi","name:sr":"Завидовићи","name:uk":"Завидовичі","name:ur":"زاویدویچی","old_name:tr":"Yenişehir","name:sr-Latn":"Zavidovići","name:zh-Hans":"扎维多维齐","name:zh-Hant":"扎維多維齊"},"display_name":"Zavidovići, Grad Zavidovići, Zeničko-dobojski kanton, Federacija Bosne i Hercegovine, 72220, Bosna i Hercegovina / Босна и Херцеговина","address":{"town":"Zavidovići","county":"Grad Zavidovići","state_district":"Zeničko-dobojski kanton","state":"Federacija Bosne i Hercegovine","ISO3166-2-lvl4":"BA-BIH","postcode":"72220","country":"Bosna i Hercegovina / Босна и Херцеговина","country_code":"ba"},"population":8174,"osm_type":"node","osm_id":251913153,"type":"town","location":[18.1458239,44.4388706],"bbox":[18.1058239,44.3988706,18.1858239,44.4788706]}
{"name":"Žepče","other_names":{"name:hr":"Žepče","name:ru":"Жепче","name:sr":"Жепче","name:sr-Latn":"Žepče"},"display_name":"Žepče, Općina Žepče, Zeničko-dobojski kanton, Federacija Bosne i Hercegovine, 72230, Bosna i Hercegovina / Босна и Херцеговина","address":{"town":"Žepče","municipality":"Općina Žepče","state_district":"Zeničko-dobojski kanton","state":"Federacija Bosne i Hercegovine","ISO3166-2-lvl4":"BA-BIH","postcode":"72230","country":"Bosna i Hercegovina / Босна и Херцеговина","country_code":"ba"},"population":5460,"osm_type":"node","osm_id":251913152,"type":"town","location":[18.0375597,44.4242172],"bbox":[17.9975597,44.3842172,18.0775597,44.4642172],"border":{"name":"Žepče","display_name":"Žepče, Općina Žepče, Zeničko-dobojski kanton, Federacija Bosne i Hercegovine, 72230, Bosna i Hercegovina / Босна и Херцеговина","address":{"city_district":"Žepče","municipality":"Općina Žepče","state_district":"Zeničko-dobojski kanton","state":"Federacija Bosne i Hercegovine","ISO3166-2-lvl4":"BA-BIH","postcode":"72230","country":"Bosna i Hercegovina / Босна и Херцеговина","country_code":"ba"},"osm_type":"relation","osm_id":19235430,"type":"administrative","location":[18.027612202179604,44.423731599999996],"bbox":[18.0042259,44.4048399,18.0628654,44.4425145]}}
{"name":"Živinice","other_names":{"name:ar":"زيفينتش","name:bs":"Živinice","name:fa":"ژیوینیتسه","name:hr":"Živinice","name:hy":"Ժիվինիցե","name:lt":"Živinicė","name:mk":"Живинице","name:ru":"Живинице","name:sq":"Zhivinice","name:sr":"Живинице","name:tt":"Живинице","name:uk":"Живиниці","name:ur":"شوینسے","old_name:tr":"Memlahatun","name:sr-Latn":"Živinice","name:zh-Hans":"日维尼采","name:zh-Hant":"日維尼采"},"display_name":"Živinice, Grad Živinice, Tuzlanski kanton, Federacija Bosne i Hercegovine, 75270, Bosna i Hercegovina / Босна и Херцеговина","address":{"town":"Živinice","county":"Grad Živinice","state_district":"Tuzlanski kanton","state":"Federacija Bosne i Hercegovine","ISO3166-2-lvl4":"BA-BIH","postcode":"75270","country":"Bosna i Hercegovina / Босна и Херцеговина","country_code":"ba"},"population":16157,"osm_type":"node","osm_id":2547579160,"type":"town","location":[18.6501306,44.451574],"bbox":[18.6101306,44.411574,18.6901306,44.491574]}
{"name":"Zvornik","other_names":{"name:ar":"زفورنيك","name:bg":"Зворник","name:bs":"Zvornik","name:el":"Ζβόρνικ","name:en":"Zvornik","name:fa":"زوورنیک","name:he":"זבורניק","name:hr":"Zvornik","name:hy":"Զվորնիկ","name:ja":"ズヴォルニク","name:ko":"즈보르니크","name:lt":"Zvornikas","name:mk":"Зворник","name:ru":"Зворник","name:sq":"Zvorniku","name:sr":"Зворник","name:uk":"Зворник","name:ur":"زوورنک","alt_name:tr":"İzvornik","name:sr-Latn":"Zvornik","name:zh-Hans":"兹沃尔尼克","name:zh-Hant":"茲沃爾尼克"},"display_name":"Zvornik, Grad Zvornik, Република Српска / Republika Srpska, 75400, Bosna i Hercegovina / Босна и Херцеговина","address":{"town":"Zvornik","county":"Grad Zvornik","state":"Република Српска / Republika Srpska","ISO3166-2-lvl4":"BA-SRP","postcode":"75400","country":"Bosna i Hercegovina / Босна и Херцеговина","country_code":"ba"},"population":12674,"osm_type":"node","osm_id":4002104085,"type":"town","location":[19.1027717,44.3854067],"bbox":[19.0627717,44.3454067,19.1427717,44.4254067],"border":{"name":"Зворник","other_names":{"name:en":"Zvornik","name:sr":"Зворник"},"display_name":"Зворник, Grad Zvornik, Република Српска / Republika Srpska, 75400, Bosna i Hercegovina / Босна и Херцеговина","address":{"city_district":"Зворник","county":"Grad Zvornik","state":"Република Српска / Republika Srpska","ISO3166-2-lvl4":"BA-SRP","postcode":"75400","country":"Bosna i Hercegovina / Босна и Херцеговина","country_code":"ba"},"osm_type":"relation","osm_id":14529508,"type":"administrative","location":[19.097971483860757,44.385601550000004],"bbox":[19.0828335,44.3672519,19.1145261,44.4038865]}}
