{"name":"Grytviken","other_names":{"name:de":"Grytviken","name:en":"Grytviken","name:mk":"Гритвикен","name:zh":"利德維肯"},"display_name":"Grytviken, South Georgia, SIQQ 1ZZ, South Georgia and the South Sandwich Islands","address":{"village":"Grytviken","state":"South Georgia","postcode":"SIQQ 1ZZ","country":"South Georgia and the South Sandwich Islands","country_code":"gs"},"population":20,"osm_type":"node","osm_id":5722989121,"type":"village","location":[-36.5098,-54.2806481],"bbox":[-36.5298,-54.3006481,-36.4898,-54.2606481]}
{"name":"Husvik","other_names":{"name:en":"Husvik","name:mk":"Хусвик"},"display_name":"Husvik, South Georgia, South Georgia and the South Sandwich Islands","address":{"village":"Husvik","state":"South Georgia","country":"South Georgia and the South Sandwich Islands","country_code":"gs"},"osm_type":"node","osm_id":5723089323,"type":"village","location":[-36.710338,-54.1801789],"bbox":[-36.730338,-54.2001789,-36.690338,-54.1601789]}
{"name":"King Edward Point","other_names":{"name:ca":"King Edward Point","name:en":"King Edward Point","name:es":"Punta Coronel Zelaya","name:mk":"Кинг Едвард Поинт","name:ru":"Кинг-Эдуард-Пойнт","name:zh":"爱德华七世角"},"display_name":"King Edward Point, South Georgia, SIQQ 1ZZ, South Georgia and the South Sandwich Islands","address":{"village":"King Edward Point","state":"South Georgia","postcode":"SIQQ 1ZZ","country":"South Georgia and the South Sandwich Islands","country_code":"gs"},"population":22,"osm_type":"node","osm_id":6764600494,"type":"village","location":[-36.4946355,-54.283545],"bbox":[-36.5146355,-54.303545,-36.4746355,-54.263545]}
{"name":"Leith Harbour","other_names":{"name:en":"Leith Harbour","name:mk":"Лит Харбор"},"display_name":"Leith Harbour, South Georgia, South Georgia and the South Sandwich Islands","address":{"village":"Leith Harbour","state":"South Georgia","country":"South Georgia and the South Sandwich Islands","country_code":"gs"},"osm_type":"node","osm_id":5723089322,"type":"village","location":[-36.6876412,-54.1418628],"bbox":[-36.7076412,-54.1618628,-36.6676412,-54.1218628]}
{"name":"Prince Olav Harbour","other_names":{"name:en":"Prince Olav Harbour","name:mk":"Принс Олав Харбор"},"display_name":"Prince Olav Harbour, South Georgia, South Georgia and the South Sandwich Islands","address":{"village":"Prince Olav Harbour","state":"South Georgia","country":"South Georgia and the South Sandwich Islands","country_code":"gs"},"population":0,"osm_type":"node","osm_id":5723128927,"type":"village","location":[-37.1555364,-54.0618437],"bbox":[-37.1755364,-54.0818437,-37.1355364,-54.0418437]}
{"name":"Stromness","other_names":{"name:en":"Stromness","name:mk":"Стромнес","name:no":"Strømnes"},"display_name":"Stromness, South Georgia, South Georgia and the South Sandwich Islands","address":{"village":"Stromness","state":"South Georgia","country":"South Georgia and the South Sandwich Islands","country_code":"gs"},"osm_type":"node","osm_id":5723089324,"type":"village","location":[-36.7120671,-54.1599171],"bbox":[-36.7320671,-54.1799171,-36.6920671,-54.1399171]}
