{"name":"Andorra la Vella","other_names":{"name:am":"አንዶራ ላ ቬላ","name:an":"Andorra la Biella","name:ar":"أندورا لا فيلا","name:be":"Андора-ла-Велья","name:bg":"Андора ла Веля","name:bn":"আন্দরা লা ভেলিয়া","name:bo":"ཨན་ཌོར་ར་གྲོང་ཁྱེར།","name:br":"Andorra la Vella","name:ca":"Andorra la Vella","name:ce":"Андорра-ла-Велья","name:cv":"Андорра-ла-Вьеха","name:de":"Andorra la Vella","name:el":"Ανδόρρα λα Βέγια","name:en":"Andorra la Vella","name:eo":"Andoro Malnova","name:es":"Andorra la Vieja","name:fa":"آندورا لاولا","name:fr":"Andorre-la-Vieille","name:gl":"Andorra a Vella","name:he":"אנדורה לה ולה","name:ht":"Andò-la-Vyèy","name:hu":"Andorra la Vella","name:hy":"Անդորա լա Վելյա","name:is":"Andorra la Vella","name:it":"Andorra la Vella","name:ja":"アンドラ・ラ・ベリャ","name:ka":"ანდორა-ლა-ველა","name:kk":"Андорра-ла-Велья","name:ko":"안도라라벨랴","name:ks":"انڈورا لا ویخا","name:ku":"Andorra la Vella","name:kv":"Андорра-ла-Велья","name:la":"Andorra Vetus","name:lt":"Andora","name:lv":"Andora la Velja","name:mk":"Андора ла Велја","name:ml":"അൻഡോറ ല വെല്ല","name:mr":"अँडोरा ला व्हेल्या","name:nl":"Andorra","name:oc":"Andòrra la Vièlha","name:os":"Андоррæ-ла-Велья","name:pl":"Andora","name:pt":"Andorra-a-Velha","name:ro":"Andorra la Vella","name:ru":"Андорра-ла-Велья","name:sk":"Andorra","name:sr":"Андора ла Веља","name:sv":"Andorra la Vella","name:ta":"அன்டோரா லா வெல்லா","name:tg":"Андорра-ла-Веля","name:th":"อันดอร์ราลาเบยา","name:tl":"Lungsod ng Andorra la Vella","name:tr":"Andorra la Vella","name:ug":"ئاندوررا كەنتى","name:uk":"Андорра-ла-Велья","name:ur":"انڈورا لا ویلا","name:zh":"安道爾城","name:arz":"أندورا لا فيلا","name:azb":"آندورا لا ویخا","name:ckb":"ئەندۆرا لا ڤێلا","name:frp":"Andorra-la-Vielye","name:hyw":"Անտորրա Լէ Վալէ","name:lij":"A Vella","name:nah":"Andorra in Huehcāuh","name:ota":"آندورا لا ویخا","name:pnb":"انڈورا لا ویلا","name:sah":"Андорра ла Велья","name:tet":"Andorra Tuan","name:udm":"Андорра-ла-Велья","name:vep":"Andorr la Vel'j","alt_name:gl":"Andorra la Vella","name:az-Arab":"آندورا لا ویخا","name:bat-smg":"Anduora","name:kk-Arab":"اندوررا-لا-ۆەليا","name:zh-Hans":"安道尔城","name:zh-Hant":"安道爾城","name:be-tarask":"Андора ля Вэльля"},"display_name":"Andorra la Vella, AD500, Andorra","address":{"town":"Andorra la Vella","municipality":"Andorra la Vella","ISO3166-2-lvl7":"AD-07","postcode":"AD500","country":"Andorra","country_code":"ad"},"population":24678,"osm_type":"node","osm_id":58957648,"type":"town","location":[1.5212467,42.5069391],"bbox":[1.4812467,42.4669391,1.5612467,42.5469391],"border":{"name":"Andorra la Vella","other_names":{"ref":"5","name:be":"Андора-ла-Велья","name:ca":"Andorra la Vella","name:el":"Ανδόρα λα Βέγια","name:ru":"Андорра-ла-Велья","ISO3166-2":"AD-07","name:be-tarask":"Андора ля Вэльля"},"display_name":"Andorra la Vella, AD500, Andorra","address":{"municipality":"Andorra la Vella","ISO3166-2-lvl7":"AD-07","postcode":"AD500","country":"Andorra","country_code":"ad"},"osm_type":"relation","osm_id":2804753,"type":"administrative","location":[1.5032263738029337,42.49791845],"bbox":[1.4603314,42.4735326,1.5483185,42.5228745]}}
{"name":"Canillo","other_names":{"name:be":"Канільё","name:ca":"Canillo","name:el":"Κανίλιο","name:lt":"Kaniljas","name:ru":"Канильо","name:zh":"卡尼略","name:be-tarask":"Канільлё"},"display_name":"Canillo, AD100, Andorra","address":{"town":"Canillo","municipality":"Canillo","ISO3166-2-lvl7":"AD-02","postcode":"AD100","country":"Andorra","country_code":"ad"},"osm_type":"node","osm_id":64954433,"type":"town","location":[1.5977647,42.5668305],"bbox":[1.5577647,42.5268305,1.6377647,42.6068305],"border":{"name":"Canillo","other_names":{"ref":"1","name:be":"Канільё","name:ca":"Canillo","name:el":"Κανίλιο","name:ru":"Канильо","ISO3166-2":"AD-02","name:be-tarask":"Канільлё"},"display_name":"Canillo, AD100, Andorra","address":{"municipality":"Canillo","ISO3166-2-lvl7":"AD-02","postcode":"AD100","country":"Andorra","country_code":"ad"},"osm_type":"relation","osm_id":2804754,"type":"administrative","location":[1.657443091509017,42.586809200000005],"bbox":[1.562015,42.543562,1.7868662,42.630316]}}
{"name":"Encamp","other_names":{"name:be":"Энкамп","name:ca":"Encamp","name:de":"Encamp","name:el":"Ενκάμπ","name:fr":"Encamp","name:lt":"Enkampas","name:ru":"Энкамп","name:sr":"Енкамп","name:ur":"انکامپ","name:zh":"恩坎普","name:be-tarask":"Энкамп"},"display_name":"Encamp, Andorra","address":{"town":"Encamp","ISO3166-2-lvl7":"AD-03","country":"Andorra","country_code":"ad"},"osm_type":"node","osm_id":64954584,"type":"town","location":[1.5836096,42.5360425],"bbox":[1.5436096,42.4960425,1.6236096,42.5760425],"border":{"name":"Encamp","other_names":{"ref":"2","name:be":"Энкамп","name:ca":"Encamp","name:de":"Encamp","name:el":"Ενκάμπ","name:fr":"Encamp","name:ru":"Энкамп","name:sr":"Енкамп","name:ur":"انکامپ","name:zh":"恩坎普","ISO3166-2":"AD-03","name:lt":"Enkampas","name:be-tarask":"Энкамп"},"display_name":"Encamp, AD200, Andorra","address":{"town":"Encamp","ISO3166-2-lvl7":"AD-03","postcode":"AD200","country":"Andorra","country_code":"ad"},"osm_type":"relation","osm_id":2804755,"type":"administrative","location":[1.5836096,42.5360425],"bbox":[1.5460477,42.4895387,1.7390717,42.5608038]}}
{"name":"La Massana","other_names":{"name:be":"Ла-Масана","name:ca":"La Massana","name:el":"Λα Μασάνα","name:lt":"La Masana","name:ru":"Ла-Массана","name:be-tarask":"Ля Масана"},"display_name":"La Massana, Andorra","address":{"town":"La Massana","ISO3166-2-lvl7":"AD-04","country":"Andorra","country_code":"ad"},"osm_type":"node","osm_id":64954563,"type":"town","location":[1.5163754,42.5442014],"bbox":[1.4763754,42.5042014,1.5563754,42.5842014],"border":{"name":"La Massana","other_names":{"ref":"4","name:be":"Ла-Масана","name:ca":"La Massana","name:el":"Λα Μασάνα","name:ru":"Ла-Массана","ISO3166-2":"AD-04","name:lt":"La Masana","name:be-tarask":"Ля Масана"},"display_name":"La Massana, AD400, Andorra","address":{"town":"La Massana","ISO3166-2-lvl7":"AD-04","postcode":"AD400","country":"Andorra","country_code":"ad"},"osm_type":"relation","osm_id":2804757,"type":"administrative","location":[1.5163754,42.5442014],"bbox":[1.4135781,42.509996,1.562015,42.6069182]}}
{"name":"les Escaldes","other_names":{"name:be":"Лэс-Эскальдэс","name:ca":"Escaldes-Engordany","name:el":"Λες Εσκάλντες","name:lt":"Les Eskaldesas","name:ru":"Эскальдес","name:be-tarask":"Лэс Эскальдэс"},"display_name":"les Escaldes, Escaldes-Engordany, AD700, Andorra","address":{"town":"les Escaldes","municipality":"Escaldes-Engordany","ISO3166-2-lvl7":"AD-08","postcode":"AD700","country":"Andorra","country_code":"ad"},"osm_type":"node","osm_id":64954589,"type":"town","location":[1.5404067,42.5090019],"bbox":[1.5004067,42.4690019,1.5804067,42.5490019],"border":{"name":"Escaldes-Engordany","other_names":{"ref":"7","name:be":"Эскальдэс-Энгардань","name:ca":"Escaldes-Engordany","name:el":"Εσκάλντες-Ενγκορντάνι","name:ru":"Эскальдес-Энгордань","ISO3166-2":"AD-08","name:be-tarask":"Эскальдэс-Энгардані"},"display_name":"Escaldes-Engordany, AD700, Andorra","address":{"municipality":"Escaldes-Engordany","ISO3166-2-lvl7":"AD-08","postcode":"AD700","country":"Andorra","country_code":"ad"},"population":14521,"osm_type":"relation","osm_id":2804756,"type":"administrative","location":[1.6037711156556194,42.486196],"bbox":[1.5215643,42.449886,1.6632892,42.5237965]}}
{"name":"Ordino","other_names":{"name:be":"Ардына","name:ca":"Ordino","name:el":"Ορδίνο","name:lt":"Ordinas","name:ru":"Ордино","name:be-tarask":"Ардзіна"},"display_name":"Ordino, AD300, Andorra","address":{"town":"Ordino","municipality":"Ordino","ISO3166-2-lvl7":"AD-05","postcode":"AD300","country":"Andorra","country_code":"ad"},"osm_type":"node","osm_id":58963219,"type":"town","location":[1.5334945,42.55615],"bbox":[1.4934945,42.51615,1.5734945,42.59615],"border":{"name":"Ordino","other_names":{"ref":"3","name:be":"Ардына","name:ca":"Ordino","name:el":"Ορδίνο","name:ru":"Ордино","ISO3166-2":"AD-05","name:be-tarask":"Ардзіна"},"display_name":"Ordino, AD300, Andorra","address":{"municipality":"Ordino","ISO3166-2-lvl7":"AD-05","postcode":"AD300","country":"Andorra","country_code":"ad"},"osm_type":"relation","osm_id":2804758,"type":"administrative","location":[1.5298387862456835,42.600955],"bbox":[1.4680186,42.545847,1.6074521,42.6559357]}}
{"name":"Sant Julià de Lòria","other_names":{"name:be":"Сант-Жулія-дэ-Лорыя","name:ca":"Sant Julià de Lòria","name:el":"Σαντ Ζουλιά ντε Λόρια","name:ja":"サン・ジュリア・デ・ロリア","name:lt":"Sant Chulija de Lorija","name:ru":"Сант-Жулия-де-Лория","name:be-tarask":"Сант Жулія дэ Лёрыя"},"display_name":"Sant Julià de Lòria, AD600, Andorra","address":{"town":"Sant Julià de Lòria","municipality":"Sant Julià de Lòria","ISO3166-2-lvl7":"AD-06","postcode":"AD600","country":"Andorra","country_code":"ad"},"population":9207,"osm_type":"node","osm_id":64954486,"type":"town","location":[1.4923277,42.4668541],"bbox":[1.4523277,42.4268541,1.5323277,42.5068541],"border":{"name":"Sant Julià de Lòria","other_names":{"ref":"6","name:be":"Сант-Жулія-дэ-Лорыя","name:ca":"Sant Julià de Lòria","name:el":"Σαντ Ζουλιά ντε Λόρια","name:en":"Sant Julia de Loria","name:ja":"サン・ジュリア・デ・ロリア教区","name:ru":"Сант-Жулия-де-Лория","ISO3166-2":"AD-06","name:be-tarask":"Сант Жулія дэ Лёрыя"},"display_name":"Sant Julià de Lòria, AD600, Andorra","address":{"municipality":"Sant Julià de Lòria","ISO3166-2-lvl7":"AD-06","postcode":"AD600","country":"Andorra","country_code":"ad"},"osm_type":"relation","osm_id":2804759,"type":"administrative","location":[1.4967329249571204,42.46671695],"bbox":[1.4077997,42.4288238,1.5611409,42.5045191]}}
{"name":"Sornàs","display_name":"Sornàs, Ordino, AD300, Andorra","address":{"town":"Sornàs","municipality":"Ordino","ISO3166-2-lvl7":"AD-05","postcode":"AD300","country":"Andorra","country_code":"ad"},"osm_type":"way","osm_id":1128071366,"type":"town","location":[1.52798868805779,42.564657350000004],"bbox":[1.5266023,42.5636634,1.5292351,42.5657807]}
