{"name":"Aasiaat","other_names":{"name:lt":"Osiotas","name:ru":"Аасиаат","alt_name":"Ausiait","old_name:da":"Egedesminde"},"display_name":"Aasiaat, Qeqertalik, Kalaallit Nunaat","address":{"town":"Aasiaat","municipality":"Qeqertalik","ISO3166-2-lvl4":"GL-QT","country":"Kalaallit Nunaat","country_code":"gl"},"population":2992,"osm_type":"node","osm_id":443848765,"type":"town","location":[-52.8512976,68.709588],"bbox":[-52.8912976,68.669588,-52.8112976,68.749588]}
{"name":"Ittoqqortoormiit","other_names":{"name:da":"Scoresbysund","name:en":"Ittoqqortoormiit","name:kl":"Illoqqortoormiut","name:ru":"Иллоккортоормиут","name:uk":"Іттоккортоорміут","name:zh":"斯科斯比松","old_name":"Scoresbysund"},"display_name":"Ittoqqortoormiit, Sermersooq, 3980, Kalaallit Nunaat","address":{"town":"Ittoqqortoormiit","municipality":"Sermersooq","ISO3166-2-lvl4":"GL-SM","postcode":"3980","country":"Kalaallit Nunaat","country_code":"gl"},"population":345,"osm_type":"node","osm_id":1876686933,"type":"town","location":[-21.961726,70.4856214],"bbox":[-22.001726,70.4456214,-21.921726,70.5256214]}
{"name":"Kangaatsiaq","other_names":{"old_name":"Kangâtsiaq"},"display_name":"Kangaatsiaq, Qeqertalik, Kalaallit Nunaat","address":{"town":"Kangaatsiaq","municipality":"Qeqertalik","ISO3166-2-lvl4":"GL-QT","country":"Kalaallit Nunaat","country_code":"gl"},"osm_type":"node","osm_id":2051280944,"type":"town","location":[-53.4614913,68.3091537],"bbox":[-53.5014913,68.2691537,-53.4214913,68.3491537]}
{"name":"Kangilinnguit","display_name":"Kangilinnguit, Sermersooq, Kalaallit Nunaat","address":{"town":"Kangilinnguit","municipality":"Sermersooq","ISO3166-2-lvl4":"GL-SM","country":"Kalaallit Nunaat","country_code":"gl"},"osm_type":"node","osm_id":12798990884,"type":"town","location":[-48.0992604,61.2318197],"bbox":[-48.1392604,61.1918197,-48.0592604,61.2718197]}
{"name":"Maniitsoq","other_names":{"name:ru":"Маниитсок","old_name":"Sukkertoppen"},"display_name":"Maniitsoq, Qeqqata, 3912, Kalaallit Nunaat","address":{"town":"Maniitsoq","municipality":"Qeqqata","ISO3166-2-lvl4":"GL-QE","postcode":"3912","country":"Kalaallit Nunaat","country_code":"gl"},"population":2784,"osm_type":"node","osm_id":1917462069,"type":"town","location":[-52.8967885,65.4175454],"bbox":[-52.9367885,65.3775454,-52.8567885,65.4575454]}
{"name":"Nanortalik","other_names":{"old_name":"Nennortalik"},"display_name":"Nanortalik, Kujalleq, Kalaallit Nunaat","address":{"town":"Nanortalik","municipality":"Kujalleq","ISO3166-2-lvl4":"GL-KU","country":"Kalaallit Nunaat","country_code":"gl"},"population":1185,"osm_type":"node","osm_id":538257987,"type":"town","location":[-45.2428523,60.1400246],"bbox":[-45.2828523,60.1000246,-45.2028523,60.1800246],"border":{"name":"Nanortalik","other_names":{"old_name":"Nennortalik"},"display_name":"Nanortalik, Kujalleq, Kalaallit Nunaat","address":{"town":"Nanortalik","municipality":"Kujalleq","ISO3166-2-lvl4":"GL-KU","country":"Kalaallit Nunaat","country_code":"gl"},"population":1236,"osm_type":"way","osm_id":277793191,"type":"town","location":[-45.2428523,60.1400246],"bbox":[-45.2543217,60.1352749,-45.2244013,60.15119]}}
{"name":"Narsaq","other_names":{"name:ru":"Нарсак","alt_name":"Narssaq","old_name":"Nordprøven"},"display_name":"Narsaq, Kujalleq, 3921, Kalaallit Nunaat","address":{"town":"Narsaq","municipality":"Kujalleq","ISO3166-2-lvl4":"GL-KU","postcode":"3921","country":"Kalaallit Nunaat","country_code":"gl"},"population":1376,"osm_type":"node","osm_id":1807080867,"type":"town","location":[-46.0452698,60.9127453],"bbox":[-46.0852698,60.8727453,-46.0052698,60.9527453]}
{"name":"Paamiut","other_names":{"name:lt":"Pamiutas","name:ru":"Паамиут","old_name":"Frederikshåb"},"display_name":"Paamiut, Sermersooq, 3940, Kalaallit Nunaat","address":{"town":"Paamiut","municipality":"Sermersooq","ISO3166-2-lvl4":"GL-SM","postcode":"3940","country":"Kalaallit Nunaat","country_code":"gl"},"osm_type":"node","osm_id":2051281081,"type":"town","location":[-49.6659478,61.994618],"bbox":[-49.7059478,61.954618,-49.6259478,62.034618]}
{"name":"Qaanaaq","other_names":{"name:da":"Thule","name:de":"Thule","name:en":"Thule","name:ru":"Каанаак","alt_name":"New Thule","old_name":"Thule;New Thule"},"display_name":"Qaanaaq, Avannaata, 3971, Kalaallit Nunaat","address":{"town":"Qaanaaq","municipality":"Avannaata","ISO3166-2-lvl4":"GL-AV","postcode":"3971","country":"Kalaallit Nunaat","country_code":"gl"},"population":652,"osm_type":"node","osm_id":306516095,"type":"town","location":[-69.2222746,77.4686357],"bbox":[-69.2622746,77.4286357,-69.1822746,77.5086357]}
{"name":"Qasigiannguit","other_names":{"alt_name":"Qasigiánguit","old_name:da":"Christianshåb"},"display_name":"Qasigiannguit, Qeqertalik, 3951, Kalaallit Nunaat","address":{"town":"Qasigiannguit","municipality":"Qeqertalik","ISO3166-2-lvl4":"GL-QT","postcode":"3951","country":"Kalaallit Nunaat","country_code":"gl"},"population":961,"osm_type":"node","osm_id":6173420639,"type":"town","location":[-51.1918512,68.8202586],"bbox":[-51.2318512,68.7802586,-51.1518512,68.8602586]}
{"name":"Qeqertarsuaq","other_names":{"name:en":"Qeqertarsuaq","name:ru":"Кекертарсуак","alt_name":"Godhavn","old_name":"Guthaven;Lievely;Leifly"},"display_name":"Qeqertarsuaq, Qeqertalik, 3953, Kalaallit Nunaat","address":{"town":"Qeqertarsuaq","municipality":"Qeqertalik","ISO3166-2-lvl4":"GL-QT","postcode":"3953","country":"Kalaallit Nunaat","country_code":"gl"},"population":1100,"osm_type":"node","osm_id":996562205,"type":"town","location":[-53.5353658,69.246235],"bbox":[-53.5753658,69.206235,-53.4953658,69.286235]}
{"name":"Tasiilaq","other_names":{"name:ar":"تسيلق","name:da":"Tasiilaq","name:de":"Tasiilaq","name:es":"Tasiilaq","name:fr":"Tasiilaq","name:he":"טאסיאילק","name:ja":"タシーラク","name:ka":"ტასიილაკი","name:kl":"Tasiilaq","name:ko":"타실라크","name:lt":"Tasilakas","name:mk":"Тасилак","name:ru":"Тасиилак","name:sv":"Tasiilaq","name:uk":"Аммассалік (Тасіілак)","old_name":"Angmassalik;Ammassalik","name:bat-smg":"Tasilaks","name:be-tarask":"Тасііляк"},"display_name":"Tasiilaq, Sermersooq, Kalaallit Nunaat","address":{"town":"Tasiilaq","municipality":"Sermersooq","ISO3166-2-lvl4":"GL-SM","country":"Kalaallit Nunaat","country_code":"gl"},"population":1930,"osm_type":"node","osm_id":2051281372,"type":"town","location":[-37.637603,65.6151017],"bbox":[-37.677603,65.5751017,-37.597603,65.6551017]}
{"name":"Upernavik","other_names":{"name:bg":"Упернавик","name:en":"Upernavik","name:fr":"Upernavik","name:kl":"Upernavik","name:lt":"Upernavikas","name:ru":"Упернавик","name:uk":"Упернавік","name:gsw":"Ùpernavik","name:be-tarask":"Упэрнавік"},"display_name":"Upernavik, Avannaata, Kalaallit Nunaat","address":{"town":"Upernavik","municipality":"Avannaata","ISO3166-2-lvl4":"GL-AV","country":"Kalaallit Nunaat","country_code":"gl"},"population":1129,"osm_type":"node","osm_id":338192478,"type":"town","location":[-56.1469625,72.7847392],"bbox":[-56.1869625,72.7447392,-56.1069625,72.8247392]}
{"name":"Uummannaq","other_names":{"name:kl":"Uummannaq","name:uk":"Уумманнак","old_name":"Omenak","name:be-tarask":"Уўманак"},"display_name":"Uummannaq, Avannaata, 3061, Kalaallit Nunaat","address":{"town":"Uummannaq","municipality":"Avannaata","ISO3166-2-lvl4":"GL-AV","postcode":"3061","country":"Kalaallit Nunaat","country_code":"gl"},"population":1299,"osm_type":"node","osm_id":1927339996,"type":"town","location":[-52.1267637,70.6746156],"bbox":[-52.1667637,70.6346156,-52.0867637,70.7146156]}
