{"name":"Ilulissat","other_names":{"name:ar":"إيلوليسات","name:lt":"Ilulisatas","name:ru":"Илулиссат","name:uk":"Ілуліссат","old_name":"Jakobshavn"},"display_name":"Ilulissat, Avannaata, 3952, Kalaallit Nunaat","address":{"city":"Ilulissat","municipality":"Avannaata","ISO3166-2-lvl4":"GL-AV","postcode":"3952","country":"Kalaallit Nunaat","country_code":"gl"},"population":4905,"osm_type":"node","osm_id":381460254,"type":"city","location":[-51.0986385,69.2197127],"bbox":[-51.2586385,69.0597127,-50.9386385,69.3797127]}
{"name":"Nuuk","other_names":{"name:am":"ኑክ","name:ar":"نوك","name:be":"Нук","name:bg":"Нуук","name:bn":"নুক","name:ca":"Nuuk","name:ce":"Нуук","name:cu":"Ноукъ","name:cv":"Нуук","name:da":"Nuuk","name:de":"Nuuk","name:el":"Νουούκ","name:en":"Nuuk","name:eo":"Nuko","name:es":"Nuuk","name:et":"Nuuk","name:fa":"نوک","name:fr":"Nuuk","name:gl":"Nuuk","name:he":"נואוק","name:hr":"Nuuk","name:hu":"Nuuk","name:hy":"Նուուկ","name:iu":"ᓅᒃ","name:ja":"ヌーク","name:ka":"ნუუკი","name:kk":"Нүүк","name:kl":"Nuuk","name:ko":"누크","name:ks":"نوک","name:ku":"Nûk","name:kv":"Нук","name:lt":"Nukas","name:lv":"Nūka","name:mk":"Нук","name:ml":"ന്യൂക്","name:mn":"Нуук","name:mr":"नूक","name:os":"Нуук","name:pa":"ਨੂਕ","name:pl":"Nuuk","name:ro":"Godthåb","name:ru":"Нуук","name:si":"නූක්","name:sr":"Нук","name:sv":"Nuuk","name:ta":"நூக்","name:th":"นุก","name:tt":"Нуук","name:uk":"Нуук","name:ur":"نوک","name:zh":"努克","alt_name":"Godthåb","int_name":"Nuuk","name:ang":"Godhopa","name:azb":"نوک","name:ckb":"نووک","name:gsw":"Nùùk","name:pnb":"نُوک","name:sah":"Нуук","old_name":"Godthåb","old_name:da":"Godthåb","old_name:is":"Góðvon","old_name:sv":"Godthåb","name:az-Arab":"نوک","name:bat-smg":"Nuuks","name:kk-Arab":"نۋۋك","name:be-tarask":"Нук"},"display_name":"Nuuk, Sermersooq, 3900, Kalaallit Nunaat","address":{"city":"Nuuk","municipality":"Sermersooq","ISO3166-2-lvl4":"GL-SM","postcode":"3900","country":"Kalaallit Nunaat","country_code":"gl"},"population":18326,"osm_type":"node","osm_id":992046822,"type":"city","location":[-51.7359356,64.1766835],"bbox":[-51.8959356,64.0166835,-51.5759356,64.3366835],"border":{"name":"Nuuk","display_name":"Nuuk, Sermersooq, Kalaallit Nunaat","address":{"administrative":"Nuuk","municipality":"Sermersooq","ISO3166-2-lvl4":"GL-SM","country":"Kalaallit Nunaat","country_code":"gl"},"osm_type":"relation","osm_id":16207523,"type":"administrative","location":[-51.69022144093789,64.1782338],"bbox":[-51.771319,64.1469122,-51.6088807,64.216973]}}
{"name":"Qaqortoq","other_names":{"name:ar":"قاقورتوق","name:kl":"Qaqortoq","name:lt":"Kakortokas","name:ru":"Какорток","name:uk":"Какорток","old_name":"Julianehåb"},"display_name":"Qaqortoq, Kujalleq, 3920, Kalaallit Nunaat","address":{"city":"Qaqortoq","municipality":"Kujalleq","ISO3166-2-lvl4":"GL-KU","postcode":"3920","country":"Kalaallit Nunaat","country_code":"gl"},"population":3174,"osm_type":"node","osm_id":1894193598,"type":"city","location":[-46.0385214,60.718202],"bbox":[-46.1985214,60.558202,-45.8785214,60.878202]}
{"display_name":"Sermersooq, Kalaallit Nunaat","address":{"municipality":"Sermersooq","ISO3166-2-lvl4":"GL-SM","country":"Kalaallit Nunaat","country_code":"gl"},"osm_type":"node","osm_id":12952590754,"type":"city","location":[-36.4691169,66.8721429],"bbox":[-36.6291169,66.7121429,-36.3091169,67.0321429]}
{"name":"Sisimiut","other_names":{"name:ar":"سيسيميوت","name:en":"Sisimiut","name:fr":"Sisimiut","name:kl":"Sisimiut","name:lt":"Sisimiutas","name:ru":"Сисимиут","name:uk":"Сісіміут","name:gsw":"Sisimiùt","old_name":"Holsteinborg"},"display_name":"Sisimiut, Qeqqata, 3911, Kalaallit Nunaat","address":{"city":"Sisimiut","municipality":"Qeqqata","ISO3166-2-lvl4":"GL-QE","postcode":"3911","country":"Kalaallit Nunaat","country_code":"gl"},"population":5571,"osm_type":"node","osm_id":1913331768,"type":"city","location":[-53.6664816,66.9371906],"bbox":[-53.8264816,66.7771906,-53.5064816,67.0971906]}
