{"name":"Acapulco","other_names":{"name:ar":"أكابولكو","name:es":"Acapulco","name:ru":"Акапулько","name:uk":"Акапулько","alt_name":"Acapulco de Juárez"},"display_name":"Acapulco, Acapulco de Juárez, Guerrero, 39300, México","address":{"city":"Acapulco","county":"Acapulco de Juárez","state":"Guerrero","ISO3166-2-lvl4":"MX-GRO","postcode":"39300","country":"México","country_code":"mx"},"population":658609,"osm_type":"node","osm_id":269913250,"type":"city","location":[-99.8940182,16.8680495],"bbox":[-100.0540182,16.7080495,-99.7340182,17.0280495],"border":{"name":"Acapulco de Juárez","other_names":{"name:es":"Acapulco de Juárez","alt_name":"Municipio de Acapulco","official_name":"Municipio de Acapulco de Juárez"},"display_name":"Acapulco de Juárez, Guerrero, México","address":{"county":"Acapulco de Juárez","state":"Guerrero","ISO3166-2-lvl4":"MX-GRO","country":"México","country_code":"mx"},"population":779566,"osm_type":"relation","osm_id":5605454,"type":"administrative","location":[-99.69553012926642,16.95844785],"bbox":[-100.0021524,16.6834462,-99.473636,17.2336827]}}
{"name":"Agua Prieta","other_names":{"name:en":"Agua Prieta","name:es":"Agua Prieta","name:ru":"Агуа-Приета"},"display_name":"Agua Prieta, Sonora, 84210, México","address":{"city":"Agua Prieta","county":"Agua Prieta","state":"Sonora","ISO3166-2-lvl4":"MX-SON","postcode":"84210","country":"México","country_code":"mx"},"population":91029,"osm_type":"node","osm_id":299491891,"type":"city","location":[-109.5564331,31.3305591],"bbox":[-109.7164331,31.1705591,-109.3964331,31.4905591],"border":{"name":"Agua Prieta","other_names":{"name:es":"Agua Prieta","official_name":"Municipio de Agua Prieta"},"display_name":"Agua Prieta, Sonora, México","address":{"county":"Agua Prieta","state":"Sonora","ISO3166-2-lvl4":"MX-SON","country":"México","country_code":"mx"},"osm_type":"relation","osm_id":5605468,"type":"administrative","location":[-109.04217518475228,31.02545955],"bbox":[-109.7464869,30.7088259,-108.6838075,31.3340397]}}
{"name":"Aguascalientes","other_names":{"name:ar":"أغواسكالينتيس","name:en":"Aguascalientes City","name:es":"Aguascalientes","name:ru":"Агуаскальентес","alt_name":"Ciudad de Aguascalientes","alt_name:ar":"أغواسكاليينتس"},"display_name":"Aguascalientes, Municipio de Aguascalientes, Aguascalientes, 20000, México","address":{"city":"Aguascalientes","county":"Municipio de Aguascalientes","state":"Aguascalientes","ISO3166-2-lvl4":"MX-AGU","postcode":"20000","country":"México","country_code":"mx"},"population":863893,"osm_type":"node","osm_id":4392412822,"type":"city","location":[-102.2967195,21.880487],"bbox":[-102.4567195,21.720487,-102.1367195,22.040487]}
{"name":"Apatzingán","other_names":{"name:es":"Apatzingán","alt_name":"Apatzingán de la Constitución"},"display_name":"Apatzingán, Michoacán, 60600, México","address":{"city":"Apatzingán","county":"Apatzingán","state":"Michoacán","ISO3166-2-lvl4":"MX-MIC","postcode":"60600","country":"México","country_code":"mx"},"population":102362,"osm_type":"node","osm_id":759183129,"type":"city","location":[-102.3537356,19.0913792],"bbox":[-102.5137356,18.9313792,-102.1937356,19.2513792],"border":{"name":"Apatzingán","other_names":{"name:es":"Apatzingán","official_name":"Municipio de Apatzingán"},"display_name":"Apatzingán, Michoacán, México","address":{"county":"Apatzingán","state":"Michoacán","ISO3166-2-lvl4":"MX-MIC","country":"México","country_code":"mx"},"population":126191,"osm_type":"relation","osm_id":5605517,"type":"administrative","location":[-102.46939679581978,18.9681711],"bbox":[-102.647324,18.7093409,-102.1965103,19.2279829]}}
{"name":"Apodaca","other_names":{"name:es":"Apodaca","official_name":"Ciudad Apodaca"},"display_name":"Apodaca, Nuevo León, 66600, México","address":{"city":"Apodaca","county":"Apodaca","state":"Nuevo León","ISO3166-2-lvl4":"MX-NLE","postcode":"66600","country":"México","country_code":"mx"},"population":536436,"osm_type":"node","osm_id":1038490154,"type":"city","location":[-100.1887501,25.7816542],"bbox":[-100.3487501,25.6216542,-100.0287501,25.9416542],"border":{"name":"Apodaca","other_names":{"name:es":"Apodaca","official_name":"Municipio de Apodaca"},"display_name":"Apodaca, Nuevo León, México","address":{"county":"Apodaca","state":"Nuevo León","ISO3166-2-lvl4":"MX-NLE","country":"México","country_code":"mx"},"population":656464,"osm_type":"relation","osm_id":5605520,"type":"administrative","location":[-100.18507694543185,25.7871006],"bbox":[-100.2727612,25.6941262,-100.1010359,25.8792854]}}
{"name":"Atizapán de Zaragoza","display_name":"Atizapán de Zaragoza, Estado de México, 52990, México","address":{"city":"Atizapán de Zaragoza","county":"Atizapán de Zaragoza","state":"Estado de México","ISO3166-2-lvl4":"MX-MEX","postcode":"52990","country":"México","country_code":"mx"},"population":523674,"osm_type":"node","osm_id":10879824878,"type":"city","location":[-99.2353667,19.544332],"bbox":[-99.3953667,19.384332,-99.0753667,19.704332],"border":{"name":"Atizapán de Zaragoza","display_name":"Atizapán de Zaragoza, Estado de México, México","address":{"county":"Atizapán de Zaragoza","state":"Estado de México","ISO3166-2-lvl4":"MX-MEX","country":"México","country_code":"mx"},"osm_type":"relation","osm_id":5605548,"type":"administrative","location":[-99.27953557802653,19.564017049999997],"bbox":[-99.3544114,19.5158706,-99.2115802,19.6122142]}}
{"name":"Buenavista","display_name":"Buenavista, Tultitlán, Estado de México, 54958, México","address":{"city":"Buenavista","county":"Tultitlán","state":"Estado de México","ISO3166-2-lvl4":"MX-MEX","postcode":"54958","country":"México","country_code":"mx"},"population":206081,"osm_type":"node","osm_id":5894788591,"type":"city","location":[-99.1663806,19.602237],"bbox":[-99.3263806,19.442237,-99.0063806,19.762237]}
{"name":"Cabo San Lucas","other_names":{"name:en":"Cabo San Lucas","name:es":"Cabo San Lucas","name:fr":"Cabo San Lucas","name:ru":"Кабо-Сан-Лукас","name:sk":"Mys svätého Lukáša","name:uk":"Кабо-Сан-Лукас"},"display_name":"Cabo San Lucas, Municipio de Los Cabos, Baja California Sur, 23470, México","address":{"city":"Cabo San Lucas","county":"Municipio de Los Cabos","state":"Baja California Sur","ISO3166-2-lvl4":"MX-BCS","postcode":"23470","country":"México","country_code":"mx"},"population":202694,"osm_type":"node","osm_id":303079568,"type":"city","location":[-109.92006,22.8938884],"bbox":[-110.08006,22.7338884,-109.76006,23.0538884]}
{"name":"Cancún","other_names":{"name:ar":"كانكون","name:en":"Cancún","name:es":"Cancún","name:mk":"Канкун","name:no":"Cancún","name:ru":"Канкун","name:zh":"坎昆"},"display_name":"Cancún, Benito Juárez, Quintana Roo, México","address":{"city":"Cancún","municipality":"Benito Juárez","state":"Quintana Roo","ISO3166-2-lvl4":"MX-ROO","country":"México","country_code":"mx"},"population":888797,"osm_type":"node","osm_id":5876942206,"type":"city","location":[-86.8425761,21.1527467],"bbox":[-87.0025761,20.9927467,-86.6825761,21.3127467],"border":{"name":"Cancún","other_names":{"name:es":"Cancún","name:ar":"كانكون","name:en":"Cancún","name:mk":"Канкун","name:no":"Cancún","name:ru":"Канкун","name:zh":"坎昆"},"display_name":"Cancún, Benito Juárez, Quintana Roo, México","address":{"city":"Cancún","municipality":"Benito Juárez","state":"Quintana Roo","ISO3166-2-lvl4":"MX-ROO","country":"México","country_code":"mx"},"population":888797,"osm_type":"relation","osm_id":17611454,"type":"administrative","location":[-86.8425761,21.1527467],"bbox":[-86.9956171,20.9705855,-86.7405259,21.2123751]}}
{"name":"Cárdenas","other_names":{"name:es":"Cárdenas","official_name":"Heroica Cárdenas"},"display_name":"Cárdenas, Tabasco, 86500, México","address":{"city":"Cárdenas","county":"Cárdenas","state":"Tabasco","ISO3166-2-lvl4":"MX-TAB","postcode":"86500","country":"México","country_code":"mx"},"population":80454,"osm_type":"node","osm_id":273586814,"type":"city","location":[-93.3753314,17.990878],"bbox":[-93.5353314,17.830878,-93.2153314,18.150878],"border":{"name":"Cárdenas","other_names":{"name:es":"Cárdenas","official_name":"Municipio de Cárdenas"},"display_name":"Cárdenas, Tabasco, México","address":{"county":"Cárdenas","state":"Tabasco","ISO3166-2-lvl4":"MX-TAB","country":"México","country_code":"mx"},"population":243229,"osm_type":"relation","osm_id":5961476,"type":"administrative","location":[-93.70522924168885,18.169369500000002],"bbox":[-94.1299658,17.9303862,-93.2808898,18.4081206]}}
{"name":"Celaya","display_name":"Celaya, Guanajuato, México","address":{"city":"Celaya","county":"Celaya","state":"Guanajuato","ISO3166-2-lvl4":"MX-GUA","country":"México","country_code":"mx"},"population":378143,"osm_type":"node","osm_id":2378060232,"type":"city","location":[-100.8140458,20.521788],"bbox":[-100.9740458,20.361788,-100.6540458,20.681788],"border":[{"name":"Celaya","other_names":{"name:es":"Celaya","official_name":"Municipio de Celaya"},"display_name":"Celaya, Guanajuato, México","address":{"county":"Celaya","state":"Guanajuato","ISO3166-2-lvl4":"MX-GUA","country":"México","country_code":"mx"},"population":521169,"osm_type":"relation","osm_id":5605629,"type":"administrative","location":[-100.83077392892065,20.522285099999998],"bbox":[-100.9115204,20.3560513,-100.6348829,20.6886364]},{"name":"Celaya","display_name":"Celaya, Guanajuato, México","address":{"city":"Celaya","county":"Celaya","state":"Guanajuato","ISO3166-2-lvl4":"MX-GUA","country":"México","country_code":"mx"},"population":378143,"osm_type":"relation","osm_id":2514266,"type":"administrative","location":[-100.8140458,20.521788],"bbox":[-100.8548759,20.4847882,-100.7757807,20.5542821]}]}
{"name":"Chalco de Díaz Covarrubias","display_name":"Chalco de Díaz Covarrubias, Chalco, Estado de México, 56600, México","address":{"city":"Chalco de Díaz Covarrubias","county":"Chalco","state":"Estado de México","ISO3166-2-lvl4":"MX-MEX","postcode":"56600","country":"México","country_code":"mx"},"population":174704,"osm_type":"node","osm_id":690544622,"type":"city","location":[-98.8958362,19.2612215],"bbox":[-99.0558362,19.1012215,-98.7358362,19.4212215]}
{"name":"Chetumal","other_names":{"name:en":"Chetumal","name:es":"Chetumal","name:pl":"Chetumal","name:ru":"Четумаль","name:uk":"Четумаль"},"display_name":"Chetumal, Othón P. Blanco, Quintana Roo, México","address":{"city":"Chetumal","county":"Othón P. Blanco","state":"Quintana Roo","ISO3166-2-lvl4":"MX-ROO","country":"México","country_code":"mx"},"population":169028,"osm_type":"node","osm_id":269910244,"type":"city","location":[-88.297144,18.5081738],"bbox":[-88.457144,18.3481738,-88.137144,18.6681738],"border":{"name":"Chetumal","other_names":{"name:en":"Chetumal","name:es":"Chetumal","name:pl":"Chetumal","name:ru":"Четумаль","name:uk":"Четумаль"},"display_name":"Chetumal, Othón P. Blanco, Quintana Roo, México","address":{"city":"Chetumal","county":"Othón P. Blanco","state":"Quintana Roo","ISO3166-2-lvl4":"MX-ROO","country":"México","country_code":"mx"},"population":130000,"osm_type":"relation","osm_id":6333059,"type":"administrative","location":[-88.297144,18.5081738],"bbox":[-88.3577228,18.4902097,-88.2611386,18.5635056]}}
{"name":"Chihuahua","other_names":{"name:ar":"شيواوا","name:en":"Chihuahua City","name:es":"Chihuahua","name:ko":"치와와","name:pl":"Chihuahua","name:ru":"Чиуауа","name:uk":"Чіуауа","alt_name":"San Felipe del Real de Minas Chihuahua","alt_name:ar":"تشيهواهوا;شيواو"},"display_name":"Chihuahua, Municipio de Chihuahua, Chihuahua, 31000, México","address":{"city":"Chihuahua","county":"Municipio de Chihuahua","state":"Chihuahua","ISO3166-2-lvl4":"MX-CHH","postcode":"31000","country":"México","country_code":"mx"},"population":925762,"osm_type":"node","osm_id":273587922,"type":"city","location":[-106.076745,28.6368669],"bbox":[-106.236745,28.4768669,-105.916745,28.7968669]}
{"name":"Chilpancingo","other_names":{"name:en":"Chilpancingo","name:es":"Chilpancingo de los Bravo","name:pl":"Chilpancingo","name:ru":"Чильпансинго","name:uk":"Чільпансінґо","official_name":"Chilpancingo de los Bravo","official_name:ru":"Чильпансинго-де-лос-Браво"},"display_name":"Chilpancingo, Chilpancingo de los Bravo, Guerrero, 39000, México","address":{"city":"Chilpancingo","county":"Chilpancingo de los Bravo","state":"Guerrero","ISO3166-2-lvl4":"MX-GRO","postcode":"39000","country":"México","country_code":"mx"},"population":225728,"osm_type":"node","osm_id":269913428,"type":"city","location":[-99.5048416,17.5542149],"bbox":[-99.6648416,17.3942149,-99.3448416,17.7142149],"border":{"name":"Chilpancingo de los Bravo","other_names":{"name:es":"Chilpancingo de los Bravo","alt_name":"Municipio de Chilpancingo","official_name":"Municipio de Chilpancingo de los Bravo"},"display_name":"Chilpancingo de los Bravo, Guerrero, México","address":{"county":"Chilpancingo de los Bravo","state":"Guerrero","ISO3166-2-lvl4":"MX-GRO","country":"México","country_code":"mx"},"population":283354,"osm_type":"relation","osm_id":5605653,"type":"administrative","location":[-99.7428629297313,17.3919748],"bbox":[-100.0609526,17.1735888,-99.38703,17.610093]}}
{"name":"Chimalhuacán","display_name":"Chimalhuacán, Estado de México, 56351, México","address":{"city":"Chimalhuacán","county":"Chimalhuacán","state":"Estado de México","ISO3166-2-lvl4":"MX-MEX","postcode":"56351","country":"México","country_code":"mx"},"population":612383,"osm_type":"node","osm_id":847104759,"type":"city","location":[-98.9580149,19.4339293],"bbox":[-99.1180149,19.2739293,-98.7980149,19.5939293],"border":{"name":"Chimalhuacán","display_name":"Chimalhuacán, Estado de México, México","address":{"county":"Chimalhuacán","state":"Estado de México","ISO3166-2-lvl4":"MX-MEX","country":"México","country_code":"mx"},"osm_type":"relation","osm_id":5605654,"type":"administrative","location":[-98.95751685948807,19.41775105],"bbox":[-98.9933987,19.3728241,-98.894248,19.4635641]}}
{"name":"Ciudad Acuña","other_names":{"name:ar":"سيوداد اكونا","name:es":"Ciudad Acuña","name:fa":"سیوداد اکونیا","name:ru":"Сьюдад-Акунья","alt_name":"Villa Acuña;Acuña","old_name":"Garza Galán"},"display_name":"Ciudad Acuña, Acuña, Coahuila, 26200, México","address":{"city":"Ciudad Acuña","county":"Acuña","state":"Coahuila","ISO3166-2-lvl4":"MX-COA","postcode":"26200","country":"México","country_code":"mx"},"population":160225,"osm_type":"node","osm_id":299207656,"type":"city","location":[-100.9322287,29.3248796],"bbox":[-101.0922287,29.1648796,-100.7722287,29.4848796],"border":{"name":"Acuña","other_names":{"name:ar":"بلدية أكونيا","name:es":"Acuña","name:fa":"شهر آکونیا","name:ur":"آکونیا بلدیہ","official_name":"Municipio de Acuña"},"display_name":"Acuña, Coahuila, México","address":{"county":"Acuña","state":"Coahuila","ISO3166-2-lvl4":"MX-COA","country":"México","country_code":"mx"},"population":163058,"osm_type":"relation","osm_id":5605465,"type":"administrative","location":[-101.9353718128655,29.425095],"bbox":[-102.90635,28.9700706,-100.84886,29.88003]}}
{"name":"Ciudad Constitución","display_name":"Ciudad Constitución, Municipio de Comondú, Baja California Sur, 23600, México","address":{"city":"Ciudad Constitución","county":"Municipio de Comondú","state":"Baja California Sur","ISO3166-2-lvl4":"MX-BCS","postcode":"23600","country":"México","country_code":"mx"},"population":43805,"osm_type":"node","osm_id":278820637,"type":"city","location":[-111.6580455,25.0321149],"bbox":[-111.8180455,24.8721149,-111.4980455,25.1921149]}
{"name":"Ciudad de México","other_names":{"name:af":"Meksikostad","name:am":"ሜክሲኮ ከተማ","name:an":"Ciudat de Mexico","name:ar":"مدينة مكسيكو","name:ay":"Mïxiku marka","name:az":"Mexiko","name:ba":"Мехико","name:be":"Мехіка","name:bg":"Мексико","name:bn":"মেক্সিকো সিটি","name:bo":"མེག་སི་ཀོ་གྲོང་།","name:br":"Kêr-Vec'hiko","name:bs":"Ciudad de México","name:ca":"Ciutat de Mèxic","name:cs":"Ciudad de México","name:cv":"Мехико","name:cy":"Dinas Mexico","name:da":"Mexico City","name:de":"Mexiko-Stadt","name:el":"Πόλη του Μεξικού","name:en":"Mexico City","name:eo":"Meksik-urbo","name:es":"Ciudad de México","name:et":"México","name:eu":"Mexiko Hiria","name:fa":"مکزیکو سیتی","name:fi":"México","name:fo":"Meksikobýur","name:fr":"Mexico","name:fy":"Meksiko-Stêd","name:ga":"Cathair Mheicsiceo","name:gd":"Meagsago","name:gl":"Cidade de México","name:gn":"Méjiko táva","name:he":"מקסיקו סיטי","name:hi":"मेक्सिको नगर","name:hr":"Ciudad de México","name:ht":"Meksiko","name:hu":"Mexikóváros","name:hy":"Մեխիկո","name:ia":"Citate de Mexico","name:id":"Ciudad de México","name:io":"México","name:is":"Mexíkóborg","name:it":"Città del Messico","name:ja":"メキシコシティ","name:jv":"Mexico City","name:ka":"მეხიკო","name:kk":"Мехико","name:kl":"Mexico City","name:km":"ក្រុងម៉ិកស៊ិក","name:kn":"ಮೆಕ್ಸಿಕೋ ನಗರ","name:ko":"멕시코시티","name:ku":"Meksîko","name:kw":"Cita Mexico","name:la":"Mexicopolis","name:ln":"Mbóka ya Mexiko","name:lt":"Meksikas","name:lv":"Mehiko","name:mg":"Mexico","name:mk":"Мексико","name:ml":"മെക്സിക്കോ സിറ്റി","name:mn":"Мехико","name:mr":"मेक्सिको सिटी","name:ms":"Bandar Raya Mexico","name:nl":"Mexico-Stad","name:nn":"Mexico by","name:no":"Mexico by","name:nv":"Méhigoʼ sídii","name:oc":"Ciutat de Mexic","name:os":"Мехико","name:pl":"Meksyk","name:pt":"Cidade do México","name:qu":"Mishiku llaqta","name:rm":"Citad da Mexico","name:ro":"Ciudad de México","name:ru":"Мехико","name:sc":"Tzitade de su Mèssico","name:se":"México","name:sh":"Ciudad de Mexico","name:sk":"Mexiko","name:sl":"Ciudad de México","name:sm":"Mexico Siti","name:sq":"Meksiko","name:sr":"Мексико Сити","name:sv":"Mexico City","name:sw":"Mexico","name:ta":"மெக்சிகோ நகரம்","name:tg":"Мехико","name:th":"เม็กซิโกซิตี","name:tk":"Mehiko","name:tl":"Lungsod ng Mehiko","name:tr":"Meksika","name:tt":"Мехико","name:ug":"مېكسىكا شەھىرى","name:uk":"Мехіко","name:ur":"میکسیکو شہر","name:uz":"Mexiko shahri","name:vi":"Thành phố Mexico","name:vo":"Ciudad de México","name:yi":"מעקסיקא שטאט","name:yo":"Ìlú Mẹ́ksíkò","name:zh":"墨西哥城","alt_name":"D.F.;Cd. Mx.","name:ace":"Banda Meksiko","name:ang":"Mexicoburg","name:arz":"ميكسيكو سيتى","name:ast":"Ciudá de Méxicu","name:bcl":"Mexico","name:ckb":"مەکسیکۆ سیتی","name:diq":"Meksiko City","name:ext":"Ciá de Méjicu","name:haw":"Mēkiko D.F.","name:hif":"Mexico City","name:hsb":"Mexiko-město","name:jbo":"mexygu'e tcadu","name:lad":"Sivdad de Meksiko","name:lij":"Çittæ do Mescico","name:lmo":"Cità del Messich","name:mhr":"Мехико","name:mrj":"Мехико","name:nah":"Āltepētl Mēxihco","name:nan":"México Chhī","name:nov":"Mexiko Urbe","name:pap":"Ciudad di Mexico","name:pms":"Sità dël Méssich","name:pnb":"میکسیکو شہر","name:rue":"Мексіко Сіті","name:sah":"Мехико","name:scn":"Cità dû Mèssicu","name:sco":"Mexico Ceety","name:szl":"Meksyk","name:udm":"Мехико","name:vec":"Sità del Mèsico","name:vro":"México","name:war":"Syudad han Mehiko","name:xmf":"მეხიკო","name:yue":"墨西哥城","short_name":"CDMX","alt_name:es":"D.F.;Cd. Mx.","alt_name:vi":"Thành phố Mê-hi-cô","name:bat-smg":"Meksėks","name:be-tarask":"Мэхіка"},"display_name":"Ciudad de México, Cuauhtémoc, Ciudad de México, México","address":{"city":"Ciudad de México","borough":"Cuauhtémoc","ISO3166-2-lvl4":"MX-CMX","country":"México","country_code":"mx"},"population":9209944,"osm_type":"node","osm_id":62270270,"type":"city","location":[-99.1331785,19.4326296],"bbox":[-99.2931785,19.2726296,-98.9731785,19.5926296],"border":[{"name":"Ciudad de México","other_names":{"ref":"CMX","name:ar":"مدينة مكسيكو","name:de":"Mexiko-Stadt","name:en":"Mexico City","name:es":"Ciudad de México","name:hr":"Ciudad de México","name:hu":"Mexikóváros","name:ja":"メキシコシティ","name:nl":"Mexico-Stad","name:pt":"Cidade do México","name:sk":"Mexiko","name:sv":"Mexico City","name:zh":"墨西哥城","old_ref":"DIF","alt_name":"D.F.;Cd. Mx.","old_name":"Distrito Federal","ISO3166-2":"MX-CMX","short_name":"CDMX","alt_name:it":"Città di Messico","name:af":"Meksikostad","name:am":"ሜክሲኮ ከተማ","name:an":"Ciudat de Mexico","name:ay":"Mïxiku marka","name:az":"Mexiko","name:ba":"Мехико","name:be":"Мехіка","name:bg":"Мексико","name:bn":"মেক্সিকো সিটি","name:bo":"མེག་སི་ཀོ་གྲོང་།","name:br":"Kêr-Vec'hiko","name:bs":"Ciudad de México","name:ca":"Ciutat de Mèxic","name:cs":"Ciudad de México","name:cv":"Мехико","name:cy":"Dinas Mexico","name:da":"Mexico City","name:el":"Πόλη του Μεξικού","name:eo":"Meksik-urbo","name:et":"México","name:eu":"Mexiko Hiria","name:fa":"مکزیکو سیتی","name:fi":"México","name:fo":"Meksikobýur","name:fr":"Mexico","name:fy":"Meksiko-Stêd","name:ga":"Cathair Mheicsiceo","name:gd":"Meagsago","name:gl":"Cidade de México","name:gn":"Méjiko táva","name:he":"מקסיקו סיטי","name:hi":"मेक्सिको नगर","name:ht":"Meksiko","name:hy":"Մեխիկո","name:ia":"Citate de Mexico","name:id":"Ciudad de México","name:io":"México","name:is":"Mexíkóborg","name:it":"Città del Messico","name:jv":"Mexico City","name:ka":"მეხიკო","name:kk":"Мехико","name:kl":"Mexico City","name:km":"ក្រុងម៉ិកស៊ិក","name:kn":"ಮೆಕ್ಸಿಕೋ ನಗರ","name:ko":"멕시코시티","name:ku":"Meksîko","name:kw":"Cita Mexico","name:la":"Mexicopolis","name:ln":"Mbóka ya Mexiko","name:lt":"Meksikas","name:lv":"Mehiko","name:mg":"Mexico","name:mk":"Мексико","name:ml":"മെക്സിക്കോ സിറ്റി","name:mn":"Мехико","name:mr":"मेक्सिको सिटी","name:ms":"Bandar Raya Mexico","name:nn":"Mexico by","name:no":"Mexico by","name:nv":"Méhigoʼ sídii","name:oc":"Ciutat de Mexic","name:os":"Мехико","name:pl":"Meksyk","name:qu":"Mishiku llaqta","name:rm":"Citad da Mexico","name:ro":"Ciudad de México","name:ru":"Мехико","name:sc":"Tzitade de su Mèssico","name:se":"México","name:sh":"Ciudad de Mexico","name:sl":"Ciudad de México","name:sm":"Mexico Siti","name:sq":"Meksiko","name:sr":"Мексико Сити","name:sw":"Mexico","name:ta":"மெக்சிகோ நகரம்","name:tg":"Мехико","name:th":"เม็กซิโกซิตี","name:tk":"Mehiko","name:tl":"Lungsod ng Mehiko","name:tr":"Meksika","name:tt":"Мехико","name:ug":"مېكسىكا شەھىرى","name:uk":"Мехіко","name:ur":"میکسیکو شہر","name:uz":"Mexiko shahri","name:vi":"Thành phố Mexico","name:vo":"Ciudad de México","name:yi":"מעקסיקא שטאט","name:yo":"Ìlú Mẹ́ksíkò","name:ace":"Banda Meksiko","name:ang":"Mexicoburg","name:arz":"ميكسيكو سيتى","name:ast":"Ciudá de Méxicu","name:bcl":"Mexico","name:ckb":"مەکسیکۆ سیتی","name:diq":"Meksiko City","name:ext":"Ciá de Méjicu","name:haw":"Mēkiko D.F.","name:hif":"Mexico City","name:hsb":"Mexiko-město","name:jbo":"mexygu'e tcadu","name:lad":"Sivdad de Meksiko","name:lij":"Çittæ do Mescico","name:lmo":"Cità del Messich","name:mhr":"Мехико","name:mrj":"Мехико","name:nah":"Āltepētl Mēxihco","name:nan":"México Chhī","name:nov":"Mexiko Urbe","name:pap":"Ciudad di Mexico","name:pms":"Sità dël Méssich","name:pnb":"میکسیکو شہر","name:rue":"Мексіко Сіті","name:sah":"Мехико","name:scn":"Cità dû Mèssicu","name:sco":"Mexico Ceety","name:szl":"Meksyk","name:udm":"Мехико","name:vec":"Sità del Mèsico","name:vro":"México","name:war":"Syudad han Mehiko","name:xmf":"მეხიკო","name:yue":"墨西哥城","alt_name:es":"D.F.;Cd. Mx.","alt_name:vi":"Thành phố Mê-hi-cô","name:bat-smg":"Meksėks","name:be-tarask":"Мэхіка"},"display_name":"Ciudad de México, México","address":{"state":"Ciudad de México","ISO3166-2-lvl4":"MX-CMX","country":"México","country_code":"mx"},"population":9209944,"osm_type":"relation","osm_id":1376330,"type":"administrative","location":[-99.1331785,19.4326296],"bbox":[-99.3649242,19.0487187,-98.9403028,19.5927573]},{"name":"Ciudad de México","other_names":{"name:es":"Ciudad de México","name:af":"Meksikostad","name:am":"ሜክሲኮ ከተማ","name:an":"Ciudat de Mexico","name:ar":"مدينة مكسيكو","name:ay":"Mïxiku marka","name:az":"Mexiko","name:ba":"Мехико","name:be":"Мехіка","name:bg":"Мексико","name:bn":"মেক্সিকো সিটি","name:bo":"མེག་སི་ཀོ་གྲོང་།","name:br":"Kêr-Vec'hiko","name:bs":"Ciudad de México","name:ca":"Ciutat de Mèxic","name:cs":"Ciudad de México","name:cv":"Мехико","name:cy":"Dinas Mexico","name:da":"Mexico City","name:de":"Mexiko-Stadt","name:el":"Πόλη του Μεξικού","name:en":"Mexico City","name:eo":"Meksik-urbo","name:et":"México","name:eu":"Mexiko Hiria","name:fa":"مکزیکو سیتی","name:fi":"México","name:fo":"Meksikobýur","name:fr":"Mexico","name:fy":"Meksiko-Stêd","name:ga":"Cathair Mheicsiceo","name:gd":"Meagsago","name:gl":"Cidade de México","name:gn":"Méjiko táva","name:he":"מקסיקו סיטי","name:hi":"मेक्सिको नगर","name:hr":"Ciudad de México","name:ht":"Meksiko","name:hu":"Mexikóváros","name:hy":"Մեխիկո","name:ia":"Citate de Mexico","name:id":"Ciudad de México","name:io":"México","name:is":"Mexíkóborg","name:it":"Città del Messico","name:ja":"メキシコシティ","name:jv":"Mexico City","name:ka":"მეხიკო","name:kk":"Мехико","name:kl":"Mexico City","name:km":"ក្រុងម៉ិកស៊ិក","name:kn":"ಮೆಕ್ಸಿಕೋ ನಗರ","name:ko":"멕시코시티","name:ku":"Meksîko","name:kw":"Cita Mexico","name:la":"Mexicopolis","name:ln":"Mbóka ya Mexiko","name:lt":"Meksikas","name:lv":"Mehiko","name:mg":"Mexico","name:mk":"Мексико","name:ml":"മെക്സിക്കോ സിറ്റി","name:mn":"Мехико","name:mr":"मेक्सिको सिटी","name:ms":"Bandar Raya Mexico","name:nl":"Mexico-Stad","name:nn":"Mexico by","name:no":"Mexico by","name:nv":"Méhigoʼ sídii","name:oc":"Ciutat de Mexic","name:os":"Мехико","name:pl":"Meksyk","name:pt":"Cidade do México","name:qu":"Mishiku llaqta","name:rm":"Citad da Mexico","name:ro":"Ciudad de México","name:ru":"Мехико","name:sc":"Tzitade de su Mèssico","name:se":"México","name:sh":"Ciudad de Mexico","name:sk":"Mexiko","name:sl":"Ciudad de México","name:sm":"Mexico Siti","name:sq":"Meksiko","name:sr":"Мексико Сити","name:sv":"Mexico City","name:sw":"Mexico","name:ta":"மெக்சிகோ நகரம்","name:tg":"Мехико","name:th":"เม็กซิโกซิตี","name:tk":"Mehiko","name:tl":"Lungsod ng Mehiko","name:tr":"Meksika","name:tt":"Мехико","name:ug":"مېكسىكا شەھىرى","name:uk":"Мехіко","name:ur":"میکسیکو شہر","name:uz":"Mexiko shahri","name:vi":"Thành phố Mexico","name:vo":"Ciudad de México","name:yi":"מעקסיקא שטאט","name:yo":"Ìlú Mẹ́ksíkò","name:zh":"墨西哥城","alt_name":"D.F.;Cd. Mx.","name:ace":"Banda Meksiko","name:ang":"Mexicoburg","name:arz":"ميكسيكو سيتى","name:ast":"Ciudá de Méxicu","name:bcl":"Mexico","name:ckb":"مەکسیکۆ سیتی","name:diq":"Meksiko City","name:ext":"Ciá de Méjicu","name:haw":"Mēkiko D.F.","name:hif":"Mexico City","name:hsb":"Mexiko-město","name:jbo":"mexygu'e tcadu","name:lad":"Sivdad de Meksiko","name:lij":"Çittæ do Mescico","name:lmo":"Cità del Messich","name:mhr":"Мехико","name:mrj":"Мехико","name:nah":"Āltepētl Mēxihco","name:nan":"México Chhī","name:nov":"Mexiko Urbe","name:pap":"Ciudad di Mexico","name:pms":"Sità dël Méssich","name:pnb":"میکسیکو شہر","name:rue":"Мексіко Сіті","name:sah":"Мехико","name:scn":"Cità dû Mèssicu","name:sco":"Mexico Ceety","name:szl":"Meksyk","name:udm":"Мехико","name:vec":"Sità del Mèsico","name:vro":"México","name:war":"Syudad han Mehiko","name:xmf":"მეხიკო","name:yue":"墨西哥城","short_name":"CDMX","alt_name:es":"D.F.;Cd. Mx.","alt_name:vi":"Thành phố Mê-hi-cô","name:bat-smg":"Meksėks","name:be-tarask":"Мэхіка"},"display_name":"Ciudad de México, Cuauhtémoc, Ciudad de México, México","address":{"city":"Ciudad de México","borough":"Cuauhtémoc","ISO3166-2-lvl4":"MX-CMX","country":"México","country_code":"mx"},"population":9209944,"osm_type":"relation","osm_id":17483459,"type":"administrative","location":[-99.1331785,19.4326296],"bbox":[-99.304945,19.2419543,-98.9750504,19.5796926]}]}
{"name":"Ciudad del Carmen","display_name":"Ciudad del Carmen, Carmen, Campeche, 24100, México","address":{"city":"Ciudad del Carmen","county":"Carmen","state":"Campeche","ISO3166-2-lvl4":"MX-CAM","postcode":"24100","country":"México","country_code":"mx"},"population":191238,"osm_type":"node","osm_id":3402675838,"type":"city","location":[-91.81492,18.651739],"bbox":[-91.97492,18.491739,-91.65492,18.811739]}
{"name":"Ciudad Guzmán","display_name":"Ciudad Guzmán, Zapotlán el Grande, Región Sur, Jalisco, 49070, México","address":{"city":"Ciudad Guzmán","county":"Zapotlán el Grande","state_district":"Región Sur","state":"Jalisco","ISO3166-2-lvl4":"MX-JAL","postcode":"49070","country":"México","country_code":"mx"},"population":111975,"osm_type":"node","osm_id":294996953,"type":"city","location":[-103.463935,19.7001632],"bbox":[-103.623935,19.5401632,-103.303935,19.8601632]}
{"name":"Ciudad Juárez","other_names":{"name:ar":"سيوداد خواريز","name:el":"Σιουδάδ Χουάρες","name:es":"Ciudad Juárez","name:pt":"Ciudad Juárez","name:zh":"华雷斯城","alt_name":"Juárez","old_name":"Nuestra Señora de Guadalupe de Paso del Norte"},"display_name":"Ciudad Juárez, Juárez, Chihuahua, 32001, México","address":{"city":"Ciudad Juárez","county":"Juárez","state":"Chihuahua","ISO3166-2-lvl4":"MX-CHH","postcode":"32001","country":"México","country_code":"mx"},"population":1501551,"osm_type":"node","osm_id":4145208823,"type":"city","location":[-106.485655,31.7372575],"bbox":[-106.645655,31.5772575,-106.325655,31.8972575],"border":{"name":"Juárez","other_names":{"name:ar":"خواريز","name:es":"Juárez","official_name":"Municipio de Juárez"},"display_name":"Juárez, Chihuahua, México","address":{"county":"Juárez","state":"Chihuahua","ISO3166-2-lvl4":"MX-CHH","country":"México","country_code":"mx"},"population":1512450,"osm_type":"relation","osm_id":5605951,"type":"administrative","location":[-106.44972558551015,31.452227450000002],"bbox":[-106.9516255,31.1199567,-106.1808825,31.7838974]}}
{"name":"Ciudad López Mateos","other_names":{"name:es":"Ciudad López Mateos","alt_name":"Ciudad Adolfo López Mateos"},"display_name":"Ciudad López Mateos, Atizapán de Zaragoza, Estado de México, 52900, México","address":{"city":"Ciudad López Mateos","county":"Atizapán de Zaragoza","state":"Estado de México","ISO3166-2-lvl4":"MX-MEX","postcode":"52900","country":"México","country_code":"mx"},"population":489160,"osm_type":"node","osm_id":4431771365,"type":"city","location":[-99.243949,19.5733975],"bbox":[-99.403949,19.4133975,-99.083949,19.7333975]}
{"name":"Ciudad Madero","display_name":"Ciudad Madero, Tamaulipas, 89490, México","address":{"city":"Ciudad Madero","county":"Ciudad Madero","state":"Tamaulipas","ISO3166-2-lvl4":"MX-TAM","postcode":"89490","country":"México","country_code":"mx"},"population":205933,"osm_type":"node","osm_id":2818858284,"type":"city","location":[-97.8373079,22.2474012],"bbox":[-97.9973079,22.0874012,-97.6773079,22.4074012],"border":{"name":"Ciudad Madero","other_names":{"name:es":"Ciudad Madero","alt_name":"Municipio de Madero","official_name":"Municipio de Ciudad Madero"},"display_name":"Ciudad Madero, Tamaulipas, México","address":{"county":"Ciudad Madero","state":"Tamaulipas","ISO3166-2-lvl4":"MX-TAM","country":"México","country_code":"mx"},"population":205933,"osm_type":"relation","osm_id":5605666,"type":"administrative","location":[-97.82428606900629,22.278368],"bbox":[-97.8594464,22.2301394,-97.7835892,22.3264804]}}
{"name":"Ciudad Mante","other_names":{"ref":"280210001","name:es":"Ciudad Mante","name:ru":"Сьюдад-Манте"},"display_name":"Ciudad Mante, El Mante, Tamaulipas, 89800, México","address":{"city":"Ciudad Mante","county":"El Mante","state":"Tamaulipas","ISO3166-2-lvl4":"MX-TAM","postcode":"89800","country":"México","country_code":"mx"},"population":79515,"osm_type":"node","osm_id":292471189,"type":"city","location":[-98.9714093,22.7411278],"bbox":[-99.1314093,22.5811278,-98.8114093,22.9011278]}
{"name":"Ciudad Nicolás Romero","display_name":"Ciudad Nicolás Romero, Nicolás Romero, Estado de México, 54413, México","address":{"city":"Ciudad Nicolás Romero","county":"Nicolás Romero","state":"Estado de México","ISO3166-2-lvl4":"MX-MEX","postcode":"54413","country":"México","country_code":"mx"},"population":281799,"osm_type":"node","osm_id":6177074841,"type":"city","location":[-99.3035542,19.6184235],"bbox":[-99.4635542,19.4584235,-99.1435542,19.7784235]}
{"name":"Ciudad Obregón","other_names":{"name:en":"Ciudad Obregón","name:es":"Ciudad Obregón"},"display_name":"Ciudad Obregón, Cajeme, Sonora, 85080, México","address":{"city":"Ciudad Obregón","county":"Cajeme","state":"Sonora","ISO3166-2-lvl4":"MX-SON","postcode":"85080","country":"México","country_code":"mx"},"population":329404,"osm_type":"node","osm_id":273589866,"type":"city","location":[-109.9337782,27.4846619],"bbox":[-110.0937782,27.3246619,-109.7737782,27.6446619]}
{"name":"Ciudad Satélite","display_name":"Ciudad Satélite, Naucalpan de Juárez, Estado de México, 53100, México","address":{"city":"Ciudad Satélite","state":"Estado de México","ISO3166-2-lvl4":"MX-MEX","postcode":"53100","country":"México","country_code":"mx"},"osm_type":"node","osm_id":3927451336,"type":"city","location":[-99.2394589,19.5101674],"bbox":[-99.3994589,19.3501674,-99.0794589,19.6701674]}
{"name":"Ciudad Valles","display_name":"Ciudad Valles, San Luis Potosí, 79000, México","address":{"city":"Ciudad Valles","county":"Ciudad Valles","state":"San Luis Potosí","ISO3166-2-lvl4":"MX-SLP","postcode":"79000","country":"México","country_code":"mx"},"population":136351,"osm_type":"node","osm_id":292474264,"type":"city","location":[-99.0102967,21.9916551],"bbox":[-99.1702967,21.8316551,-98.8502967,22.1516551],"border":{"name":"Ciudad Valles","other_names":{"name:es":"Ciudad Valles","alt_name":"Municipio de Valles","official_name":"Municipio de Ciudad Valles"},"display_name":"Ciudad Valles, San Luis Potosí, México","address":{"county":"Ciudad Valles","state":"San Luis Potosí","ISO3166-2-lvl4":"MX-SLP","country":"México","country_code":"mx"},"population":179371,"osm_type":"relation","osm_id":5605667,"type":"administrative","location":[-99.07337577278943,22.075792399999997],"bbox":[-99.337297,21.7417016,-98.8172825,22.4152862]}}
{"name":"Ciudad Victoria","other_names":{"name:en":"Ciudad Victoria","name:es":"Ciudad Victoria","name:pl":"Ciudad Victoria","name:ru":"Сьюдад-Виктория","name:uk":"Сьюдад-Вікторія","alt_name":"Victoria"},"display_name":"Ciudad Victoria, Victoria, Tamaulipas, 87000, México","address":{"city":"Ciudad Victoria","county":"Victoria","state":"Tamaulipas","ISO3166-2-lvl4":"MX-TAM","postcode":"87000","country":"México","country_code":"mx"},"population":332100,"osm_type":"node","osm_id":292479580,"type":"city","location":[-99.1441352,23.7389846],"bbox":[-99.3041352,23.5789846,-98.9841352,23.8989846],"border":{"name":"Victoria","other_names":{"name:es":"Victoria","official_name":"Municipio de Victoria"},"display_name":"Victoria, Tamaulipas, México","address":{"county":"Victoria","state":"Tamaulipas","ISO3166-2-lvl4":"MX-TAM","country":"México","country_code":"mx"},"population":349688,"osm_type":"relation","osm_id":5606595,"type":"administrative","location":[-99.12923909923872,23.68965455],"bbox":[-99.3790094,23.3961404,-98.9408732,23.9832339]}}
{"name":"Coacalco","other_names":{"alt_name":"San Francisco Coacalco"},"display_name":"Coacalco, Coacalco de Berriozábal, Estado de México, México","address":{"city":"Coacalco","state":"Estado de México","ISO3166-2-lvl4":"MX-MEX","country":"México","country_code":"mx"},"population":277959,"osm_type":"node","osm_id":2397898300,"type":"city","location":[-99.0948573,19.6359452],"bbox":[-99.2548573,19.4759452,-98.9348573,19.7959452],"border":{"name":"Coacalco de Berriozábal","other_names":{"name:es":"Coacalco de Berriozábal","alt_name":"San Francisco Coacalco","alt":"Coacalco"},"display_name":"Coacalco de Berriozábal, Estado de México, México","address":{"city":"Coacalco de Berriozábal","state":"Estado de México","ISO3166-2-lvl4":"MX-MEX","country":"México","country_code":"mx"},"population":277959,"osm_type":"relation","osm_id":5605670,"type":"administrative","location":[-99.0948573,19.6359452],"bbox":[-99.1287858,19.5884846,-99.0724699,19.6640496]}}
{"name":"Coatzacoalcos","other_names":{"name:es":"Coatzacoalcos","name:ru":"Коацакоалькос"},"display_name":"Coatzacoalcos, Veracruz, 96576, México","address":{"city":"Coatzacoalcos","county":"Coatzacoalcos","state":"Veracruz","ISO3166-2-lvl4":"MX-VER","postcode":"96576","country":"México","country_code":"mx"},"population":212540,"osm_type":"node","osm_id":1168572324,"type":"city","location":[-94.4344003,18.1405019],"bbox":[-94.5944003,17.9805019,-94.2744003,18.3005019],"border":{"name":"Coatzacoalcos","other_names":{"name:es":"Coatzacoalcos","official_name":"Municipio de Coatzacoalcos"},"display_name":"Coatzacoalcos, Veracruz, México","address":{"county":"Coatzacoalcos","state":"Veracruz","ISO3166-2-lvl4":"MX-VER","country":"México","country_code":"mx"},"population":310698,"osm_type":"relation","osm_id":6037644,"type":"administrative","location":[-94.37775916457844,18.1367924],"bbox":[-94.6390302,18.0609784,-94.2234579,18.2123462]}}
{"name":"Colima","other_names":{"name:en":"Colima City","name:es":"Colima","name:pl":"Colima","name:ru":"Колима","name:uk":"Коліма","alt_name":"Ciudad de Colima","old_name":"Cōlimān"},"display_name":"Colima, Municipio de Colima, Colima, 28000, México","address":{"city":"Colima","county":"Municipio de Colima","state":"Colima","ISO3166-2-lvl4":"MX-COL","postcode":"28000","country":"México","country_code":"mx"},"population":146965,"osm_type":"node","osm_id":273592234,"type":"city","location":[-103.7280738,19.2433991],"bbox":[-103.8880738,19.0833991,-103.5680738,19.4033991]}
{"name":"Comitán","other_names":{"name:es":"Comitán","name:ru":"Комитан","official_name":"Comitán de Domínguez"},"display_name":"Comitán, Comitán de Domínguez, Chiapas, 30020, México","address":{"city":"Comitán","county":"Comitán de Domínguez","state":"Chiapas","ISO3166-2-lvl4":"MX-CHP","postcode":"30020","country":"México","country_code":"mx"},"population":113479,"osm_type":"node","osm_id":1698247348,"type":"city","location":[-92.1348514,16.2441097],"bbox":[-92.2948514,16.0841097,-91.9748514,16.4041097],"border":{"name":"Comitán de Domínguez","other_names":{"name:es":"Comitán de Domínguez","official_name":"Municipio de Comitán de Domínguez"},"display_name":"Comitán de Domínguez, Chiapas, México","address":{"county":"Comitán de Domínguez","state":"Chiapas","ISO3166-2-lvl4":"MX-CHP","country":"México","country_code":"mx"},"population":166178,"osm_type":"relation","osm_id":5999543,"type":"administrative","location":[-92.17532124270645,16.2911698],"bbox":[-92.3531721,16.0136854,-91.9966816,16.5691976]}}
{"name":"Córdoba","other_names":{"name:es":"Córdoba","old_name":"H.Córdoba,Ver."},"display_name":"Córdoba, Veracruz, 94500, México","address":{"city":"Córdoba","county":"Córdoba","state":"Veracruz","ISO3166-2-lvl4":"MX-VER","postcode":"94500","country":"México","country_code":"mx"},"population":139075,"osm_type":"node","osm_id":472255718,"type":"city","location":[-96.9352891,18.8944704],"bbox":[-97.0952891,18.7344704,-96.7752891,19.0544704],"border":{"name":"Córdoba","other_names":{"name:es":"Córdoba","official_name":"Municipio de Córdoba"},"display_name":"Córdoba, Veracruz, México","address":{"county":"Córdoba","state":"Veracruz","ISO3166-2-lvl4":"MX-VER","country":"México","country_code":"mx"},"population":204721,"osm_type":"relation","osm_id":6037664,"type":"administrative","location":[-96.92778896252608,18.9239425],"bbox":[-97.0035941,18.8370894,-96.8733495,19.0108837]}}
{"name":"Corregidora","display_name":"Corregidora, Querétaro, 76900, México","address":{"city":"Corregidora","county":"Corregidora","state":"Querétaro","ISO3166-2-lvl4":"MX-QUE","postcode":"76900","country":"México","country_code":"mx"},"population":220000,"osm_type":"node","osm_id":11802833964,"type":"city","location":[-100.4412866,20.5399541],"bbox":[-100.6012866,20.3799541,-100.2812866,20.6999541],"border":{"name":"Corregidora","display_name":"Corregidora, Querétaro, México","address":{"county":"Corregidora","state":"Querétaro","ISO3166-2-lvl4":"MX-QUE","country":"México","country_code":"mx"},"population":212567,"osm_type":"relation","osm_id":5605702,"type":"administrative","location":[-100.44124724157984,20.47781285],"bbox":[-100.5097556,20.3608226,-100.368018,20.594779]}}
{"name":"Cuauhtémoc","other_names":{"name:es":"Cuauhtémoc","name:ru":"Сьюдад-Куаутемок","old_name":"San Antonio de los Arenales"},"display_name":"Cuauhtémoc, Chihuahua, 31500, México","address":{"city":"Cuauhtémoc","county":"Cuauhtémoc","state":"Chihuahua","ISO3166-2-lvl4":"MX-CHH","postcode":"31500","country":"México","country_code":"mx"},"population":135586,"osm_type":"node","osm_id":297172944,"type":"city","location":[-106.8665305,28.4009579],"bbox":[-107.0265305,28.2409579,-106.7065305,28.5609579],"border":{"name":"Cuauhtémoc","other_names":{"name:es":"Cuauhtémoc","official_name":"Municipio de Cuauhtémoc"},"display_name":"Cuauhtémoc, Chihuahua, México","address":{"county":"Cuauhtémoc","state":"Chihuahua","ISO3166-2-lvl4":"MX-CHH","country":"México","country_code":"mx"},"population":180638,"osm_type":"relation","osm_id":5605719,"type":"administrative","location":[-107.027201384562,28.76582565],"bbox":[-107.2738069,28.3372786,-106.5451479,29.198048]}}
{"name":"Cuautitlán Izcalli","other_names":{"name:es":"Cuautitlán Izcalli","int_name":"Cuautitlan Izcalli"},"display_name":"Cuautitlán Izcalli, Estado de México, 54700, México","address":{"city":"Cuautitlán Izcalli","county":"Cuautitlán Izcalli","state":"Estado de México","ISO3166-2-lvl4":"MX-MEX","postcode":"54700","country":"México","country_code":"mx"},"population":484573,"osm_type":"node","osm_id":3470563337,"type":"city","location":[-99.2145002,19.6531356],"bbox":[-99.3745002,19.4931356,-99.0545002,19.8131356],"border":{"name":"Cuautitlán Izcalli","other_names":{"name:es":"Cuautitlán Izcalli","int_name":"Cuautitlan Izcalli"},"display_name":"Cuautitlán Izcalli, Estado de México, México","address":{"county":"Cuautitlán Izcalli","state":"Estado de México","ISO3166-2-lvl4":"MX-MEX","country":"México","country_code":"mx"},"osm_type":"relation","osm_id":5605724,"type":"administrative","location":[-99.23228295286131,19.6577015],"bbox":[-99.2907631,19.5856759,-99.1750284,19.7297568]}}
{"name":"Cuautla","display_name":"Cuautla, Morelos, 62740, México","address":{"city":"Cuautla","county":"Cuautla","state":"Morelos","ISO3166-2-lvl4":"MX-MOR","postcode":"62740","country":"México","country_code":"mx"},"population":157336,"osm_type":"node","osm_id":4906686556,"type":"city","location":[-98.9432244,18.8290118],"bbox":[-99.1032244,18.6690118,-98.7832244,18.9890118],"border":{"name":"Cuautla","other_names":{"name:es":"Cuautla","official_name":"Municipio de Cuautla"},"display_name":"Cuautla, Morelos, México","address":{"county":"Cuautla","state":"Morelos","ISO3166-2-lvl4":"MX-MOR","country":"México","country_code":"mx"},"population":187118,"osm_type":"relation","osm_id":5605727,"type":"administrative","location":[-98.9736171914989,18.81501575],"bbox":[-99.0489681,18.7393041,-98.8873323,18.8907263]}}
{"name":"Cuernavaca","other_names":{"name:en":"Cuernavaca","name:es":"Cuernavaca","name:km":"ក្រុងក្វេរ៏ណាបាកា","name:pl":"Cuernavaca","name:ru":"Куэрнавака","name:uk":"Куернавака","old_name":"Cuauhnāhuac"},"display_name":"Cuernavaca, Morelos, 62000, México","address":{"city":"Cuernavaca","county":"Cuernavaca","state":"Morelos","ISO3166-2-lvl4":"MX-MOR","postcode":"62000","country":"México","country_code":"mx"},"population":341029,"osm_type":"node","osm_id":59058448,"type":"city","location":[-99.2342282,18.9218274],"bbox":[-99.3942282,18.7618274,-99.0742282,19.0818274],"border":{"name":"Cuernavaca","other_names":{"name:es":"Cuernavaca","official_name":"Municipio de Cuernavaca"},"display_name":"Cuernavaca, Morelos, México","address":{"county":"Cuernavaca","state":"Morelos","ISO3166-2-lvl4":"MX-MOR","country":"México","country_code":"mx"},"population":378476,"osm_type":"relation","osm_id":5605731,"type":"administrative","location":[-99.25995794657074,18.93313205],"bbox":[-99.3420117,18.8419111,-99.1805441,19.02465]}}
{"name":"Culiacán","other_names":{"name:ar":"كولياكان","name:en":"Culiacán","name:es":"Culiacán","name:km":"ក្រុងគុល៉្យាកាន","name:pl":"Culiacán","name:ru":"Кульякан","name:uk":"Кульякан","int_name":"Culiacan","official_name":"Culiacán Rosales"},"display_name":"Culiacán, Culiacán Rosales, Culiacán, Sinaloa, 80220, México","address":{"city":"Culiacán","county":"Culiacán","state":"Sinaloa","ISO3166-2-lvl4":"MX-SIN","postcode":"80220","country":"México","country_code":"mx"},"population":808416,"osm_type":"node","osm_id":273590692,"type":"city","location":[-107.393395,24.7978965],"bbox":[-107.553395,24.6378965,-107.233395,24.9578965],"border":[{"name":"Culiacán","other_names":{"name:es":"Culiacán","official_name":"Municipio de Culiacán"},"display_name":"Culiacán, Sinaloa, México","address":{"county":"Culiacán","state":"Sinaloa","ISO3166-2-lvl4":"MX-SIN","country":"México","country_code":"mx"},"population":1003530,"osm_type":"relation","osm_id":5605735,"type":"administrative","location":[-107.26543171807502,24.664281600000002],"bbox":[-107.8216374,24.0343638,-106.8711566,25.2759805]},{"name":"Culiacán Rosales","display_name":"Culiacán Rosales, Culiacán, Sinaloa, México","address":{"city":"Culiacán Rosales","county":"Culiacán","state":"Sinaloa","ISO3166-2-lvl4":"MX-SIN","country":"México","country_code":"mx"},"osm_type":"relation","osm_id":11107084,"type":"administrative","location":[-107.40004100285714,24.805758],"bbox":[-107.5182178,24.7066966,-107.3266863,24.8853232]}]}
{"name":"Delicias","other_names":{"name:es":"Delicias","name:ru":"Делисьяс","alt_name":"San Antonio de Cristo Rey"},"display_name":"Delicias, Chihuahua, 33038, México","address":{"city":"Delicias","county":"Delicias","state":"Chihuahua","ISO3166-2-lvl4":"MX-CHH","postcode":"33038","country":"México","country_code":"mx"},"population":128548,"osm_type":"node","osm_id":291755065,"type":"city","location":[-105.469426,28.1909814],"bbox":[-105.629426,28.0309814,-105.309426,28.3509814],"border":{"name":"Delicias","other_names":{"name:es":"Delicias","official_name":"Municipio de Delicias"},"display_name":"Delicias, Chihuahua, México","address":{"county":"Delicias","state":"Chihuahua","ISO3166-2-lvl4":"MX-CHH","country":"México","country_code":"mx"},"population":150506,"osm_type":"relation","osm_id":5605743,"type":"administrative","location":[-105.46848950381103,28.1227078],"bbox":[-105.6828366,27.9681807,-105.3516548,28.2773569]}}
{"name":"Durango","other_names":{"name:ar":"دورانغو","name:en":"Durango City","name:es":"Durango","name:pl":"Durango","name:ru":"Виктория-де-Дуранго","name:uk":"Дуранґо","alt_name":"Ciudad de Durango","old_name":"Tepēhuahcān","alt_name:ar":"دورانجو","alt_name:es":"Ciudad de Durango","name:zh-Hans":"杜兰戈","name:zh-Hant":"杜蘭戈","official_name":"Victoria de Durango","official_name:es":"Victoria de Durango"},"display_name":"Durango, Municipio de Durango, Durango, México","address":{"city":"Durango","county":"Municipio de Durango","state":"Durango","ISO3166-2-lvl4":"MX-DUR","country":"México","country_code":"mx"},"population":616068,"osm_type":"node","osm_id":288369855,"type":"city","location":[-104.654741,24.022008],"bbox":[-104.814741,23.862008,-104.494741,24.182008],"border":[{"name":"Municipio de Durango","other_names":{"name:ar":"دورانغو","name:eo":"Durango","name:es":"Municipio de Durango","alt_name:ar":"دورانجو","official_name":"Municipio de Durango"},"display_name":"Municipio de Durango, Durango, México","address":{"county":"Municipio de Durango","state":"Durango","ISO3166-2-lvl4":"MX-DUR","country":"México","country_code":"mx"},"population":688697,"osm_type":"relation","osm_id":5605752,"type":"administrative","location":[-104.9198105617717,23.911272099999998],"bbox":[-105.5724738,23.3975025,-104.1019986,24.4246508]},{"name":"Durango","other_names":{"name:ar":"دورانغو","name:en":"Durango","name:eo":"Durango","name:es":"Victoria de Durango","name:pl":"Durango","name:ru":"Виктория-де-Дуранго","name:uk":"Дуранґо","alt_name":"Ciudad de Durango","int_name":"Durango","old_name":"Tepēhuahcān","alt_name:ar":"دورانجو","official_name":"Victoria de Durango","alt_name:es":"Ciudad de Durango","name:zh-Hans":"杜兰戈","name:zh-Hant":"杜蘭戈","official_name:es":"Victoria de Durango","alt:en":"Durango City","alt:es":"Durango"},"display_name":"Durango, Municipio de Durango, Durango, México","address":{"city":"Durango","county":"Municipio de Durango","state":"Durango","ISO3166-2-lvl4":"MX-DUR","country":"México","country_code":"mx"},"population":518709,"osm_type":"relation","osm_id":3986379,"type":"administrative","location":[-104.654741,24.022008],"bbox":[-104.7307796,23.9456277,-104.5179302,24.0951372]}]}
{"name":"Ecatepec","other_names":{"name:es":"Ecatepec de Morelos","name:zh":"埃卡堤佩","official_name":"Ecatepec de Morelos"},"display_name":"Ecatepec, Ecatepec de Morelos, Estado de México, México","address":{"city":"Ecatepec","state":"Estado de México","ISO3166-2-lvl4":"MX-MEX","country":"México","country_code":"mx"},"population":1645352,"osm_type":"node","osm_id":2750067513,"type":"city","location":[-99.0487281,19.5994083],"bbox":[-99.2087281,19.4394083,-98.8887281,19.7594083],"border":{"name":"Ecatepec de Morelos","other_names":{"name:es":"Ecatepec de Morelos","alt_name":"Municipio de Ecatepec","official_name":"Municipio de Ecatepec de Morelos","name:zh":"埃卡堤佩","_place_official_name":"Ecatepec de Morelos","alt":"Ecatepec"},"display_name":"Ecatepec de Morelos, Estado de México, México","address":{"city":"Ecatepec de Morelos","state":"Estado de México","ISO3166-2-lvl4":"MX-MEX","country":"México","country_code":"mx"},"population":1645352,"osm_type":"relation","osm_id":5605754,"type":"administrative","location":[-99.0487281,19.5994083],"bbox":[-99.118598,19.4845696,-98.9757652,19.6591485]}}
{"name":"Ejido La Estrada (El Poblado)","other_names":{"ref":"Ejido La Estrada (El Poblado)","name:es":"Ejido La Estrada (El Poblado)"},"display_name":"Ejido La Estrada (El Poblado), Guasave, Sinaloa, México","address":{"city":"Ejido La Estrada (El Poblado)","county":"Guasave","state":"Sinaloa","ISO3166-2-lvl4":"MX-SIN","country":"México","country_code":"mx"},"osm_type":"way","osm_id":645242622,"type":"administrative","location":[-108.58062234186838,25.59654315],"bbox":[-108.5854286,25.5932835,-108.5758558,25.5998414],"inferred_type":"city"}
{"name":"Ensenada","other_names":{"name:ar":"إنسناذا","name:en":"Ensenada","name:fa":"انسنادا","name:ru":"Энсенада","name:ur":"اینسینادا","alt_name:ar":"إنسينادا"},"display_name":"Ensenada, Municipio de Ensenada, Baja California, 22850, México","address":{"city":"Ensenada","county":"Municipio de Ensenada","state":"Baja California","ISO3166-2-lvl4":"MX-BCN","postcode":"22850","country":"México","country_code":"mx"},"population":330652,"osm_type":"node","osm_id":122136160,"type":"city","location":[-116.602983,31.8658887],"bbox":[-116.762983,31.7058887,-116.442983,32.0258887],"border":[{"name":"Municipio de Ensenada","other_names":{"name:ar":"إنسناذا","name:es":"Municipio de Ensenada","name:fa":"انسنادا","name:ur":"اینسینادا","alt_name:ar":"إنسينادا","official_name":"Municipio de Ensenada"},"display_name":"Municipio de Ensenada, Baja California, México","address":{"county":"Municipio de Ensenada","state":"Baja California","ISO3166-2-lvl4":"MX-BCN","country":"México","country_code":"mx"},"population":443807,"osm_type":"relation","osm_id":5605781,"type":"administrative","location":[-116.11139858256385,31.5525692],"bbox":[-116.8872919,28.0295719,-115.1565537,32.3862297]},{"name":"Ensenada","other_names":{"name:ar":"إنسناذا","name:es":"Ensenada","name:fa":"انسنادا","name:ur":"اینسینادا","alt_name:ar":"إنسينادا","name:en":"Ensenada","name:ru":"Энсенада"},"display_name":"Ensenada, Municipio de Ensenada, Baja California, México","address":{"city":"Ensenada","county":"Municipio de Ensenada","state":"Baja California","ISO3166-2-lvl4":"MX-BCN","country":"México","country_code":"mx"},"population":330652,"osm_type":"relation","osm_id":4717393,"type":"administrative","location":[-116.602983,31.8658887],"bbox":[-116.7568468,31.6518752,-116.4972675,31.9462343]},{"name":"Ensenada","display_name":"Ensenada, Municipio de Ensenada, Baja California, México","address":{"administrative":"Ensenada","county":"Municipio de Ensenada","state":"Baja California","ISO3166-2-lvl4":"MX-BCN","country":"México","country_code":"mx"},"osm_type":"way","osm_id":1219851451,"type":"administrative","location":[-116.5466447960855,31.888052899999998],"bbox":[-116.6784042,31.8125824,-116.4264869,31.9692577]}]}
{"name":"Fresnillo","other_names":{"name:es":"Fresnillo","name:ru":"Фреснильо"},"display_name":"Fresnillo, Zacatecas, 99000, México","address":{"city":"Fresnillo","county":"Fresnillo","state":"Zacatecas","ISO3166-2-lvl4":"MX-ZAC","postcode":"99000","country":"México","country_code":"mx"},"population":143281,"osm_type":"node","osm_id":290746327,"type":"city","location":[-102.8729073,23.1811278],"bbox":[-103.0329073,23.0211278,-102.7129073,23.3411278],"border":{"name":"Fresnillo","other_names":{"name:es":"Fresnillo","official_name":"Municipio de Fresnillo"},"display_name":"Fresnillo, Zacatecas, México","address":{"county":"Fresnillo","state":"Zacatecas","ISO3166-2-lvl4":"MX-ZAC","country":"México","country_code":"mx"},"population":240532,"osm_type":"relation","osm_id":5605793,"type":"administrative","location":[-103.01628907146873,23.2249237],"bbox":[-103.5235898,22.8529913,-102.4845077,23.596354]}}
{"name":"General Escobedo","other_names":{"name:es":"General Escobedo","official_name":"Ciudad General Escobedo"},"display_name":"General Escobedo, Nuevo León, 66053, México","address":{"city":"General Escobedo","county":"General Escobedo","state":"Nuevo León","ISO3166-2-lvl4":"MX-NLE","postcode":"66053","country":"México","country_code":"mx"},"population":454967,"osm_type":"node","osm_id":1043929307,"type":"city","location":[-100.3224334,25.808517],"bbox":[-100.4824334,25.648517,-100.1624334,25.968517],"border":{"name":"General Escobedo","other_names":{"name:es":"General Escobedo","official_name":"Municipio de General Escobedo"},"display_name":"General Escobedo, Nuevo León, México","address":{"county":"General Escobedo","state":"Nuevo León","ISO3166-2-lvl4":"MX-NLE","country":"México","country_code":"mx"},"population":481213,"osm_type":"relation","osm_id":5605805,"type":"administrative","location":[-100.35179498584696,25.83034855],"bbox":[-100.4684649,25.7624176,-100.2613383,25.8984638]}}
{"name":"Gómez Palacio","display_name":"Gómez Palacio, Durango, 35000, México","address":{"city":"Gómez Palacio","county":"Gómez Palacio","state":"Durango","ISO3166-2-lvl4":"MX-DUR","postcode":"35000","country":"México","country_code":"mx"},"population":301742,"osm_type":"node","osm_id":4143719536,"type":"city","location":[-103.494779,25.5732473],"bbox":[-103.654779,25.4132473,-103.334779,25.7332473],"border":{"name":"Gómez Palacio","other_names":{"name:es":"Gómez Palacio","official_name":"Municipio de Gómez Palacio"},"display_name":"Gómez Palacio, Durango, México","address":{"county":"Gómez Palacio","state":"Durango","ISO3166-2-lvl4":"MX-DUR","country":"México","country_code":"mx"},"population":372750,"osm_type":"relation","osm_id":5605840,"type":"administrative","location":[-103.50694810848594,25.71151325],"bbox":[-103.6904692,25.5355773,-103.3185877,25.8879968]}}
{"name":"Guadalajara","other_names":{"name:ar":"غوادالاخارا","name:en":"Guadalajara","name:es":"Guadalajara","name:ko":"과달라하라","name:pl":"Guadalajara","name:pt":"Guadalajara","name:ru":"Гвадалахара","name:uk":"Ґвадалахара","name:zh-Hans":"瓜达拉哈拉","name:zh-Hant":"瓜達拉哈拉"},"display_name":"Guadalajara, Región Centro, Jalisco, 44450, México","address":{"city":"Guadalajara","county":"Guadalajara","state_district":"Región Centro","state":"Jalisco","ISO3166-2-lvl4":"MX-JAL","postcode":"44450","country":"México","country_code":"mx"},"population":1385629,"osm_type":"node","osm_id":1663173902,"type":"city","location":[-103.338396,20.6720375],"bbox":[-103.498396,20.5120375,-103.178396,20.8320375],"border":{"name":"Guadalajara","other_names":{"name:es":"Guadalajara","official_name":"Municipio de Guadalajara"},"display_name":"Guadalajara, Región Centro, Jalisco, México","address":{"county":"Guadalajara","state_district":"Región Centro","state":"Jalisco","ISO3166-2-lvl4":"MX-JAL","country":"México","country_code":"mx"},"population":1385629,"osm_type":"relation","osm_id":5605820,"type":"administrative","location":[-103.3357646443421,20.67826135],"bbox":[-103.4070646,20.6037373,-103.2637617,20.752699]}}
{"name":"Guadalupe","other_names":{"name:es":"Guadalupe","name:ru":"Гуадалупе"},"display_name":"Guadalupe, Nuevo León, 67180, México","address":{"city":"Guadalupe","county":"Guadalupe","state":"Nuevo León","ISO3166-2-lvl4":"MX-NLE","postcode":"67180","country":"México","country_code":"mx"},"population":635862,"osm_type":"node","osm_id":1038661889,"type":"city","location":[-100.2151753,25.6751114],"bbox":[-100.3751753,25.5151114,-100.0551753,25.8351114],"border":{"name":"Guadalupe","other_names":{"name:es":"Guadalupe","official_name":"Municipio de Guadalupe"},"display_name":"Guadalupe, Nuevo León, México","address":{"county":"Guadalupe","state":"Nuevo León","ISO3166-2-lvl4":"MX-NLE","country":"México","country_code":"mx"},"population":643143,"osm_type":"relation","osm_id":5605824,"type":"administrative","location":[-100.20007207261435,25.676639799999997],"bbox":[-100.2759369,25.621459,-100.1172515,25.731853]}}
{"name":"Guadalupe","display_name":"Guadalupe, Zacatecas, 98600, México","address":{"city":"Guadalupe","county":"Guadalupe","state":"Zacatecas","ISO3166-2-lvl4":"MX-ZAC","postcode":"98600","country":"México","country_code":"mx"},"population":170029,"osm_type":"node","osm_id":2322620350,"type":"city","location":[-102.5161988,22.7470359],"bbox":[-102.6761988,22.5870359,-102.3561988,22.9070359],"border":{"name":"Guadalupe","other_names":{"name:es":"Guadalupe","official_name":"Municipio de Guadalupe"},"display_name":"Guadalupe, Zacatecas, México","address":{"county":"Guadalupe","state":"Zacatecas","ISO3166-2-lvl4":"MX-ZAC","country":"México","country_code":"mx"},"population":211740,"osm_type":"relation","osm_id":5605826,"type":"administrative","location":[-102.45050578563979,22.78238425],"bbox":[-102.6573203,22.5398391,-102.1969824,23.0249367]}}
{"name":"Guamúchil","other_names":{"official_name":"San Pedro de Guamuchil"},"display_name":"Guamúchil, Salvador Alvarado, Sinaloa, México","address":{"city":"Guamúchil","county":"Salvador Alvarado","state":"Sinaloa","ISO3166-2-lvl4":"MX-SIN","country":"México","country_code":"mx"},"population":63743,"osm_type":"node","osm_id":273590460,"type":"city","location":[-108.0755437,25.4575492],"bbox":[-108.2355437,25.2975492,-107.9155437,25.6175492],"border":{"name":"Guamúchil","other_names":{"name:es":"Guamúchil","official_name":"San Pedro de Guamuchil"},"display_name":"Guamúchil, Salvador Alvarado, Sinaloa, México","address":{"city":"Guamúchil","county":"Salvador Alvarado","state":"Sinaloa","ISO3166-2-lvl4":"MX-SIN","country":"México","country_code":"mx"},"population":63743,"osm_type":"way","osm_id":184289305,"type":"administrative","location":[-108.0755437,25.4575492],"bbox":[-108.1065174,25.4283327,-108.0439152,25.4898226]}}
{"name":"Guanajuato","other_names":{"name:en":"Guanajuato City","name:es":"Guanajuato","name:pl":"Guanajuato","name:ru":"Гуанахуато","name:uk":"Ґуанахуато","name:zh":"聯合花園","alt_name":"Ciudad de Guanajuato"},"display_name":"Guanajuato, Municipio de Guanajuato, Guanajuato, 36003, México","address":{"city":"Guanajuato","county":"Municipio de Guanajuato","state":"Guanajuato","ISO3166-2-lvl4":"MX-GUA","postcode":"36003","country":"México","country_code":"mx"},"population":70068,"osm_type":"node","osm_id":269907416,"type":"city","location":[-101.25284,21.0158848],"bbox":[-101.41284,20.8558848,-101.09284,21.1758848]}
{"name":"Guasave","other_names":{"name:es":"Guasave","name:ru":"Гуасаве","official_name":"Guasave"},"display_name":"Guasave, Sinaloa, 81020, México","address":{"city":"Guasave","county":"Guasave","state":"Sinaloa","ISO3166-2-lvl4":"MX-SIN","postcode":"81020","country":"México","country_code":"mx"},"population":71196,"osm_type":"node","osm_id":5050076074,"type":"city","location":[-108.4674697,25.5738],"bbox":[-108.6274697,25.4138,-108.3074697,25.7338],"border":{"name":"Guasave","display_name":"Guasave, Sinaloa, México","address":{"county":"Guasave","state":"Sinaloa","ISO3166-2-lvl4":"MX-SIN","country":"México","country_code":"mx"},"osm_type":"relation","osm_id":5605829,"type":"administrative","location":[-108.539960314508,25.5046381],"bbox":[-109.025932,25.1805193,-108.1786396,25.8308675]}}
{"name":"Guaymas","other_names":{"name:en":"Guaymas","name:es":"Guaymas","name:ru":"Гуаймас","official_name":"Heroica Guaymas"},"display_name":"Guaymas, Sonora, 85400, México","address":{"city":"Guaymas","county":"Guaymas","state":"Sonora","ISO3166-2-lvl4":"MX-SON","postcode":"85400","country":"México","country_code":"mx"},"population":117253,"osm_type":"node","osm_id":273589697,"type":"city","location":[-110.8994059,27.9216441],"bbox":[-111.0594059,27.7616441,-110.7394059,28.0816441],"border":{"name":"Guaymas","other_names":{"name:es":"Guaymas","official_name":"Municipio de Guaymas"},"display_name":"Guaymas, Sonora, México","address":{"county":"Guaymas","state":"Sonora","ISO3166-2-lvl4":"MX-SON","country":"México","country_code":"mx"},"population":156863,"osm_type":"relation","osm_id":5605830,"type":"administrative","location":[-111.01852472776024,28.0738847],"bbox":[-111.3910224,27.5165096,-110.0530339,28.6311993]}}
{"name":"Hacienda Santa Fe","display_name":"Hacienda Santa Fe, Tlajomulco de Zúñiga, Región Centro, Jalisco, México","address":{"town":"Hacienda Santa Fe","county":"Tlajomulco de Zúñiga","state_district":"Región Centro","state":"Jalisco","ISO3166-2-lvl4":"MX-JAL","country":"México","country_code":"mx"},"population":139174,"osm_type":"way","osm_id":1104980710,"type":"city","location":[-103.3786312,20.518137],"bbox":[-103.3908652,20.5058928,-103.3688629,20.5290524]}
{"name":"Hermosillo","other_names":{"name:ar":"إرموسييو","name:en":"Hermosillo","name:es":"Hermosillo","name:pl":"Hermosillo","name:ru":"Эрмосильо","name:uk":"Ермосійо"},"display_name":"Hermosillo, Sonora, 83140, México","address":{"city":"Hermosillo","county":"Hermosillo","state":"Sonora","ISO3166-2-lvl4":"MX-SON","postcode":"83140","country":"México","country_code":"mx"},"population":855563,"osm_type":"node","osm_id":273589239,"type":"city","location":[-110.9692202,29.0948207],"bbox":[-111.1292202,28.9348207,-110.8092202,29.2548207],"border":{"name":"Hermosillo","other_names":{"name:es":"Hermosillo","official_name":"Municipio de Hermosillo"},"display_name":"Hermosillo, Sonora, México","address":{"county":"Hermosillo","state":"Sonora","ISO3166-2-lvl4":"MX-SON","country":"México","country_code":"mx"},"population":936263,"osm_type":"relation","osm_id":5605842,"type":"administrative","location":[-111.44731686054334,28.96893455],"bbox":[-112.6136278,28.2254348,-110.3821326,29.7127613]}}
{"name":"Heroica Caborca","other_names":{"name:es":"Heroica Caborca","name:ru":"Эройка-Каборка","alt_name":"Caborca"},"display_name":"Heroica Caborca, Caborca, Sonora, 83600, México","address":{"city":"Heroica Caborca","county":"Caborca","state":"Sonora","ISO3166-2-lvl4":"MX-SON","postcode":"83600","country":"México","country_code":"mx"},"population":59922,"osm_type":"node","osm_id":333132849,"type":"city","location":[-112.1562598,30.7166014],"bbox":[-112.3162598,30.5566014,-111.9962598,30.8766014],"border":{"name":"Caborca","display_name":"Caborca, Sonora, México","address":{"county":"Caborca","state":"Sonora","ISO3166-2-lvl4":"MX-SON","country":"México","country_code":"mx"},"osm_type":"relation","osm_id":5605602,"type":"administrative","location":[-112.60800114389396,30.8974875],"bbox":[-113.1273611,30.060218,-112.067666,31.7348213]}}
{"name":"Heroica Nogales","other_names":{"name:es":"Heroica Nogales","name:ru":"Эройка-Ногалес","alt_name":"Nogales"},"display_name":"Heroica Nogales, Nogales, Sonora, 84010, México","address":{"city":"Heroica Nogales","county":"Nogales","state":"Sonora","ISO3166-2-lvl4":"MX-SON","postcode":"84010","country":"México","country_code":"mx"},"population":261137,"osm_type":"node","osm_id":316791163,"type":"city","location":[-110.9450472,31.3285057],"bbox":[-111.1050472,31.1685057,-110.7850472,31.4885057],"border":{"name":"Nogales","other_names":{"name:es":"Nogales","official_name":"Municipio de Nogales"},"display_name":"Nogales, Sonora, México","address":{"county":"Nogales","state":"Sonora","ISO3166-2-lvl4":"MX-SON","country":"México","country_code":"mx"},"population":264782,"osm_type":"relation","osm_id":10387153,"type":"administrative","location":[-111.01870940483117,31.19593735],"bbox":[-111.3567664,31.0107756,-110.6512167,31.3765145]}}
{"name":"Hidalgo del Parral","other_names":{"name:es":"Hidalgo del Parral","name:ru":"Идальго-дель-Парраль","alt_name":"Capital del Mundo de la Plata","old_name":"Real de Minas de San José del Parral"},"display_name":"Hidalgo del Parral, Chihuahua, 33834, México","address":{"city":"Hidalgo del Parral","county":"Hidalgo del Parral","state":"Chihuahua","ISO3166-2-lvl4":"MX-CHH","postcode":"33834","country":"México","country_code":"mx"},"population":113843,"osm_type":"node","osm_id":293525857,"type":"city","location":[-105.6674058,26.9287164],"bbox":[-105.8274058,26.7687164,-105.5074058,27.0887164],"border":{"name":"Hidalgo del Parral","other_names":{"name:es":"Hidalgo del Parral","official_name":"Municipio de Hidalgo del Parral"},"display_name":"Hidalgo del Parral, Chihuahua, México","address":{"county":"Hidalgo del Parral","state":"Chihuahua","ISO3166-2-lvl4":"MX-CHH","country":"México","country_code":"mx"},"population":116662,"osm_type":"relation","osm_id":5605843,"type":"administrative","location":[-105.76428799772901,27.11538475],"bbox":[-105.9782353,26.8623592,-105.3973646,27.3681834]}}
{"name":"Huajuapan","other_names":{"name:es":"Huajuapan","official_name":"Heroica Ciudad de Huajuapan de León"},"display_name":"Huajuapan, Huajuapan de León, Oaxaca, 69000, México","address":{"city":"Huajuapan","county":"Huajuapan de León","state":"Oaxaca","ISO3166-2-lvl4":"MX-OAX","postcode":"69000","country":"México","country_code":"mx"},"population":56163,"osm_type":"node","osm_id":458608695,"type":"city","location":[-97.7780564,17.808846],"bbox":[-97.9380564,17.648846,-97.6180564,17.968846]}
{"name":"Huehuetoca","display_name":"Huehuetoca, Estado de México, 54680, México","address":{"city":"Huehuetoca","county":"Huehuetoca","state":"Estado de México","ISO3166-2-lvl4":"MX-MEX","postcode":"54680","country":"México","country_code":"mx"},"population":11760,"osm_type":"node","osm_id":9543286307,"type":"city","location":[-99.2044638,19.833375],"bbox":[-99.3644638,19.673375,-99.0444638,19.993375],"border":{"name":"Huehuetoca","display_name":"Huehuetoca, Estado de México, México","address":{"county":"Huehuetoca","state":"Estado de México","ISO3166-2-lvl4":"MX-MEX","country":"México","country_code":"mx"},"osm_type":"relation","osm_id":5605866,"type":"administrative","location":[-99.27091641832402,19.82220755],"bbox":[-99.3460931,19.7511032,-99.171788,19.8933931]}}
{"name":"Huixquilucan de Degollado","display_name":"Huixquilucan de Degollado, Huixquilucan, Estado de México, 57260, México","address":{"city":"Huixquilucan de Degollado","county":"Huixquilucan","state":"Estado de México","ISO3166-2-lvl4":"MX-MEX","postcode":"57260","country":"México","country_code":"mx"},"population":10735,"osm_type":"node","osm_id":271608791,"type":"city","location":[-99.3514655,19.3598819],"bbox":[-99.5114655,19.1998819,-99.1914655,19.5198819]}
{"name":"Iguala","other_names":{"name:es":"Iguala","official_name":"Iguala de la Independencia"},"display_name":"Iguala, Iguala de la Independencia, Guerrero, 40080, México","address":{"city":"Iguala","county":"Iguala de la Independencia","state":"Guerrero","ISO3166-2-lvl4":"MX-GRO","postcode":"40080","country":"México","country_code":"mx"},"population":132854,"osm_type":"node","osm_id":273607050,"type":"city","location":[-99.5376944,18.3466358],"bbox":[-99.6976944,18.1866358,-99.3776944,18.5066358],"border":{"name":"Iguala de la Independencia","other_names":{"name:es":"Iguala de la Independencia","alt_name":"Municipio de Iguala","official_name":"Municipio de Iguala de la Independencia"},"display_name":"Iguala de la Independencia, Guerrero, México","address":{"county":"Iguala de la Independencia","state":"Guerrero","ISO3166-2-lvl4":"MX-GRO","country":"México","country_code":"mx"},"population":154173,"osm_type":"relation","osm_id":5605882,"type":"administrative","location":[-99.60236695337578,18.1923169],"bbox":[-99.7159379,17.9536775,-99.4302316,18.4311494]}}
{"name":"Interlomas","display_name":"Interlomas, Huixquilucan, Estado de México, 57772, México","address":{"city":"Interlomas","county":"Huixquilucan","state":"Estado de México","ISO3166-2-lvl4":"MX-MEX","postcode":"57772","country":"México","country_code":"mx"},"osm_type":"node","osm_id":10888145458,"type":"city","location":[-99.281256,19.3958561],"bbox":[-99.441256,19.2358561,-99.121256,19.5558561]}
{"name":"Irapuato","display_name":"Irapuato, Guanajuato, 36500, México","address":{"city":"Irapuato","county":"Irapuato","state":"Guanajuato","ISO3166-2-lvl4":"MX-GUA","postcode":"36500","country":"México","country_code":"mx"},"population":452090,"osm_type":"node","osm_id":269907341,"type":"city","location":[-101.3521052,20.6758761],"bbox":[-101.5121052,20.5158761,-101.1921052,20.8358761],"border":{"name":"Irapuato","other_names":{"name:es":"Irapuato","official_name":"Municipio de Irapuato"},"display_name":"Irapuato, Guanajuato, México","address":{"county":"Irapuato","state":"Guanajuato","ISO3166-2-lvl4":"MX-GUA","country":"México","country_code":"mx"},"population":592953,"osm_type":"relation","osm_id":5605889,"type":"administrative","location":[-101.38854226145105,20.6748936],"bbox":[-101.5415263,20.5011254,-101.1414426,20.8483756]}}
{"name":"Ixtapaluca","display_name":"Ixtapaluca, Estado de México, 56535, México","address":{"city":"Ixtapaluca","county":"Ixtapaluca","state":"Estado de México","ISO3166-2-lvl4":"MX-MEX","postcode":"56535","country":"México","country_code":"mx"},"population":322271,"osm_type":"node","osm_id":529125757,"type":"city","location":[-98.8840481,19.3129326],"bbox":[-99.0440481,19.1529326,-98.7240481,19.4729326],"border":{"name":"Ixtapaluca","display_name":"Ixtapaluca, Estado de México, México","address":{"county":"Ixtapaluca","state":"Estado de México","ISO3166-2-lvl4":"MX-MEX","country":"México","country_code":"mx"},"osm_type":"relation","osm_id":5605895,"type":"administrative","location":[-98.80827450406431,19.32929],"bbox":[-98.9539291,19.2468739,-98.6318712,19.4115862]}}
{"name":"Juchitán","other_names":{"name:es":"Juchitán","name:ru":"Хучитан","official_name":"Juchitán de Zaragoza"},"display_name":"Juchitán, Juchitán de Zaragoza, Oaxaca, 70050, México","address":{"city":"Juchitán","county":"Juchitán de Zaragoza","state":"Oaxaca","ISO3166-2-lvl4":"MX-OAX","postcode":"70050","country":"México","country_code":"mx"},"population":88280,"osm_type":"node","osm_id":458608677,"type":"city","location":[-95.019444,16.4333347],"bbox":[-95.179444,16.2733347,-94.859444,16.5933347],"border":{"name":"Juchitán de Zaragoza","display_name":"Juchitán de Zaragoza, Oaxaca, México","address":{"county":"Juchitán de Zaragoza","state":"Oaxaca","ISO3166-2-lvl4":"MX-OAX","country":"México","country_code":"mx"},"osm_type":"relation","osm_id":5999574,"type":"administrative","location":[-94.9118794582709,16.413328999999997],"bbox":[-95.1242864,16.2078571,-94.756584,16.61904]}}
{"name":"Kanasín","display_name":"Kanasín, Yucatán, México","address":{"city":"Kanasín","county":"Kanasín","state":"Yucatán","ISO3166-2-lvl4":"MX-YUC","country":"México","country_code":"mx"},"population":139753,"osm_type":"node","osm_id":2056386985,"type":"city","location":[-89.5577239,20.9350466],"bbox":[-89.7177239,20.7750466,-89.3977239,21.0950466],"border":[{"name":"Kanasín","other_names":{"name:es":"Kanasín","official_name":"Municipio de Kanasín"},"display_name":"Kanasín, Yucatán, 97370, México","address":{"county":"Kanasín","state":"Yucatán","ISO3166-2-lvl4":"MX-YUC","postcode":"97370","country":"México","country_code":"mx"},"population":141939,"osm_type":"relation","osm_id":5961507,"type":"administrative","location":[-89.54257023501233,20.9152278],"bbox":[-89.6056139,20.8485887,-89.469842,20.9819609]},{"name":"Kanasín","display_name":"Kanasín, Yucatán, 97370, México","address":{"city":"Kanasín","county":"Kanasín","state":"Yucatán","ISO3166-2-lvl4":"MX-YUC","postcode":"97370","country":"México","country_code":"mx"},"population":77240,"osm_type":"relation","osm_id":6333674,"type":"administrative","location":[-89.5577239,20.9350466],"bbox":[-89.6033618,20.8961277,-89.5289745,20.9819472]}]}
{"name":"La Paz","other_names":{"name:en":"La Paz","name:es":"La Paz","name:pl":"La Paz","name:ru":"Ла-Пас","name:uk":"Ла-Пас","name:zh":"拉巴斯"},"display_name":"La Paz, Municipio de La Paz, Baja California Sur, 23020, México","address":{"city":"La Paz","county":"Municipio de La Paz","state":"Baja California Sur","ISO3166-2-lvl4":"MX-BCS","postcode":"23020","country":"México","country_code":"mx"},"population":250141,"osm_type":"node","osm_id":266478791,"type":"city","location":[-110.3158532,24.1619948],"bbox":[-110.4758532,24.0019948,-110.1558532,24.3219948]}
{"name":"La Piedad de Cabadas","other_names":{"name:es":"La Piedad de Cabadas","short_name":"La Piedad"},"display_name":"La Piedad de Cabadas, La Piedad, Michoacán, 59300, México","address":{"city":"La Piedad de Cabadas","county":"La Piedad","state":"Michoacán","ISO3166-2-lvl4":"MX-MIC","postcode":"59300","country":"México","country_code":"mx"},"population":106490,"osm_type":"node","osm_id":294110984,"type":"city","location":[-102.031124,20.3429949],"bbox":[-102.191124,20.1829949,-101.871124,20.5029949],"border":{"name":"La Piedad","display_name":"La Piedad, Michoacán, México","address":{"county":"La Piedad","state":"Michoacán","ISO3166-2-lvl4":"MX-MIC","country":"México","country_code":"mx"},"population":101579,"osm_type":"relation","osm_id":5605965,"type":"administrative","location":[-102.04781879716586,20.298689850000002],"bbox":[-102.1802584,20.2027087,-101.9463586,20.3945243]}}
{"name":"Lagos de Moreno","other_names":{"name:es":"Lagos de Moreno","name:ru":"Лагос-де-Морено","alt_name":"Atenas de Jalisco"},"display_name":"Lagos de Moreno, Región Altos Norte, Jalisco, 47400, México","address":{"city":"Lagos de Moreno","county":"Lagos de Moreno","state_district":"Región Altos Norte","state":"Jalisco","ISO3166-2-lvl4":"MX-JAL","postcode":"47400","country":"México","country_code":"mx"},"population":111569,"osm_type":"node","osm_id":296372203,"type":"city","location":[-101.935294,21.3567286],"bbox":[-102.095294,21.1967286,-101.775294,21.5167286],"border":{"name":"Lagos de Moreno","other_names":{"name:es":"Lagos de Moreno","official_name":"Municipio de Lagos de Moreno"},"display_name":"Lagos de Moreno, Región Altos Norte, Jalisco, México","address":{"county":"Lagos de Moreno","state_district":"Región Altos Norte","state":"Jalisco","ISO3166-2-lvl4":"MX-JAL","country":"México","country_code":"mx"},"population":172403,"osm_type":"relation","osm_id":5605968,"type":"administrative","location":[-101.81995710355704,21.533030099999998],"bbox":[-102.1688491,21.1770248,-101.5704156,21.8894864]}}
{"name":"Lázaro Cárdenas","other_names":{"name:es":"Lázaro Cárdenas","official_name":"Ciudad Lázaro Cárdenas"},"display_name":"Lázaro Cárdenas, Michoacán, 60950, México","address":{"city":"Lázaro Cárdenas","county":"Lázaro Cárdenas","state":"Michoacán","ISO3166-2-lvl4":"MX-MIC","postcode":"60950","country":"México","country_code":"mx"},"population":83637,"osm_type":"node","osm_id":293980795,"type":"city","location":[-102.198659,17.9594769],"bbox":[-102.358659,17.7994769,-102.038659,18.1194769],"border":{"name":"Lázaro Cárdenas","other_names":{"name:es":"Lázaro Cárdenas","official_name":"Municipio de Lázaro Cárdenas"},"display_name":"Lázaro Cárdenas, Michoacán, México","address":{"county":"Lázaro Cárdenas","state":"Michoacán","ISO3166-2-lvl4":"MX-MIC","country":"México","country_code":"mx"},"population":196003,"osm_type":"relation","osm_id":5605990,"type":"administrative","location":[-102.48376376312719,18.08271895],"bbox":[-102.8018473,17.9149079,-102.1107382,18.250406]}}
{"name":"León","other_names":{"name:ar":"ليون","name:en":"León","name:es":"León","name:pt":"León","name:ru":"Леон","name:uk":"Леон","official_name":"León de los Aldama"},"display_name":"León, Guanajuato, 37004, México","address":{"city":"León","county":"León","state":"Guanajuato","ISO3166-2-lvl4":"MX-GUA","postcode":"37004","country":"México","country_code":"mx"},"population":1579803,"osm_type":"node","osm_id":273601416,"type":"city","location":[-101.6829766,21.121965],"bbox":[-101.8429766,20.961965,-101.5229766,21.281965],"border":{"name":"León","other_names":{"name:es":"León","official_name":"Municipio de León"},"display_name":"León, Guanajuato, México","address":{"county":"León","state":"Guanajuato","ISO3166-2-lvl4":"MX-GUA","country":"México","country_code":"mx"},"population":1721215,"osm_type":"relation","osm_id":5605977,"type":"administrative","location":[-101.647548874138,21.0976209],"bbox":[-101.833448,20.8645979,-101.3722496,21.3301716]}}
{"name":"Lerma","display_name":"Lerma, Estado de México, 52006, México","address":{"city":"Lerma","county":"Lerma","state":"Estado de México","ISO3166-2-lvl4":"MX-MEX","postcode":"52006","country":"México","country_code":"mx"},"population":170327,"osm_type":"node","osm_id":10879831169,"type":"city","location":[-99.5121076,19.2860311],"bbox":[-99.6721076,19.1260311,-99.3521076,19.4460311],"border":{"name":"Lerma","display_name":"Lerma, Estado de México, México","address":{"county":"Lerma","state":"Estado de México","ISO3166-2-lvl4":"MX-MEX","country":"México","country_code":"mx"},"osm_type":"relation","osm_id":5605976,"type":"administrative","location":[-99.46005201756853,19.326363200000003],"bbox":[-99.5719798,19.2219509,-99.3819935,19.4306691]}}
{"name":"Loma Bonita","display_name":"Loma Bonita, Oaxaca, 68400, México","address":{"city":"Loma Bonita","county":"Loma Bonita","state":"Oaxaca","ISO3166-2-lvl4":"MX-OAX","postcode":"68400","country":"México","country_code":"mx"},"osm_type":"node","osm_id":291716563,"type":"city","location":[-95.8789955,18.1079729],"bbox":[-96.0389955,17.9479729,-95.7189955,18.2679729],"border":{"name":"Loma Bonita","display_name":"Loma Bonita, Oaxaca, 68400, México","address":{"county":"Loma Bonita","state":"Oaxaca","ISO3166-2-lvl4":"MX-OAX","postcode":"68400","country":"México","country_code":"mx"},"osm_type":"relation","osm_id":5999609,"type":"administrative","location":[-95.88826526688493,18.001389500000002],"bbox":[-95.9890863,17.7654132,-95.7999247,18.1598651]}}
{"name":"Los Mochis","other_names":{"name:en":"Los Mochis","name:ru":"Лос-Мочис","official_name":"Los Mochis"},"display_name":"Los Mochis, Ahome, Sinaloa, México","address":{"city":"Los Mochis","county":"Ahome","state":"Sinaloa","ISO3166-2-lvl4":"MX-SIN","country":"México","country_code":"mx"},"population":298009,"osm_type":"node","osm_id":273590361,"type":"city","location":[-108.990188,25.7928058],"bbox":[-109.150188,25.6328058,-108.830188,25.9528058],"border":{"name":"Los Mochis","other_names":{"name:es":"Los Mochis","name:en":"Los Mochis","name:ru":"Лос-Мочис","official_name":"Los Mochis"},"display_name":"Los Mochis, Ahome, Sinaloa, México","address":{"city":"Los Mochis","county":"Ahome","state":"Sinaloa","ISO3166-2-lvl4":"MX-SIN","country":"México","country_code":"mx"},"population":298009,"osm_type":"relation","osm_id":9610861,"type":"administrative","location":[-108.990188,25.7928058],"bbox":[-109.0463376,25.7289293,-108.9382048,25.8395287]}}
{"name":"Manzanillo","other_names":{"name:es":"Manzanillo","name:ru":"Мансанильо"},"display_name":"Manzanillo, Colima, 28200, México","address":{"city":"Manzanillo","county":"Manzanillo","state":"Colima","ISO3166-2-lvl4":"MX-COL","postcode":"28200","country":"México","country_code":"mx"},"population":159853,"osm_type":"node","osm_id":1966018591,"type":"city","location":[-104.3159957,19.0506256],"bbox":[-104.4759957,18.8906256,-104.1559957,19.2106256],"border":{"name":"Manzanillo","other_names":{"name:es":"Manzanillo","official_name":"Municipio de Manzanillo"},"display_name":"Manzanillo, Colima, México","address":{"county":"Manzanillo","state":"Colima","ISO3166-2-lvl4":"MX-COL","country":"México","country_code":"mx"},"population":191031,"osm_type":"relation","osm_id":5606002,"type":"administrative","location":[-104.28412563007706,19.127656950000002],"bbox":[-112.0723305,18.9438067,-104.0230763,19.334994]}}
{"name":"Matamoros","other_names":{"name:en":"Matamoros","name:es":"Matamoros","name:ru":"Матаморос","name:uk":"Матаморос","official_name":"Heroica Matamoros"},"display_name":"Matamoros, Tamaulipas, 87300, México","address":{"city":"Matamoros","county":"Matamoros","state":"Tamaulipas","ISO3166-2-lvl4":"MX-TAM","postcode":"87300","country":"México","country_code":"mx"},"population":510739,"osm_type":"node","osm_id":296889512,"type":"city","location":[-97.5064866,25.8810158],"bbox":[-97.6664866,25.7210158,-97.3464866,26.0410158],"border":{"name":"Matamoros","other_names":{"name:es":"Matamoros","official_name":"Municipio de Matamoros"},"display_name":"Matamoros, Tamaulipas, México","address":{"county":"Matamoros","state":"Tamaulipas","ISO3166-2-lvl4":"MX-TAM","country":"México","country_code":"mx"},"population":541979,"osm_type":"relation","osm_id":5606010,"type":"administrative","location":[-97.49018214032856,25.55576925],"bbox":[-97.9426177,25.0424047,-97.1449703,26.07016]}}
{"name":"Matehuala","other_names":{"name:es":"Matehuala","name:ru":"Матеуала"},"display_name":"Matehuala, San Luis Potosí, 78796, México","address":{"city":"Matehuala","county":"Matehuala","state":"San Luis Potosí","ISO3166-2-lvl4":"MX-SLP","postcode":"78796","country":"México","country_code":"mx"},"population":86686,"osm_type":"node","osm_id":291728489,"type":"city","location":[-100.643544,23.646485],"bbox":[-100.803544,23.486485,-100.483544,23.806485],"border":{"name":"Matehuala","other_names":{"name:es":"Matehuala","official_name":"Municipio de Matehuala"},"display_name":"Matehuala, San Luis Potosí, México","address":{"county":"Matehuala","state":"San Luis Potosí","ISO3166-2-lvl4":"MX-SLP","country":"México","country_code":"mx"},"population":102199,"osm_type":"relation","osm_id":5606013,"type":"administrative","location":[-100.60404600258255,23.522903749999998],"bbox":[-100.7830464,23.2140456,-100.4456963,23.8292614]}}
{"name":"Mazatlán","other_names":{"name:en":"Mazatlán","name:es":"Mazatlán","name:km":"ក្រុងម៉ាសាត្លាន","name:ru":"Масатлан"},"display_name":"Mazatlán, Sinaloa, 82000, México","address":{"city":"Mazatlán","county":"Mazatlán","state":"Sinaloa","ISO3166-2-lvl4":"MX-SIN","postcode":"82000","country":"México","country_code":"mx"},"population":441975,"osm_type":"node","osm_id":2530998038,"type":"city","location":[-106.4208391,23.2035785],"bbox":[-106.5808391,23.0435785,-106.2608391,23.3635785],"border":{"name":"Mazatlán","other_names":{"name:es":"Mazatlán","official_name":"Municipio de Mazatlán"},"display_name":"Mazatlán, Sinaloa, México","address":{"county":"Mazatlán","state":"Sinaloa","ISO3166-2-lvl4":"MX-SIN","country":"México","country_code":"mx"},"population":501441,"osm_type":"relation","osm_id":5606018,"type":"administrative","location":[-106.4116331764515,23.4799045],"bbox":[-106.6185165,23.0683188,-105.9247988,23.8911569]}}
{"name":"Mérida","other_names":{"name:ar":"ماردة","name:en":"Mérida","name:es":"Mérida","name:mk":"Мерида","name:pl":"Mérida","name:ru":"Мерида","name:uk":"Меріда"},"display_name":"Mérida, Yucatán, México","address":{"city":"Mérida","municipality":"Mérida","state":"Yucatán","ISO3166-2-lvl4":"MX-YUC","country":"México","country_code":"mx"},"population":921771,"osm_type":"node","osm_id":269908858,"type":"city","location":[-89.6237402,20.9670759],"bbox":[-89.7837402,20.8070759,-89.4637402,21.1270759],"border":[{"name":"Mérida","other_names":{"name:ar":"ماردة","name:es":"Mérida","name:mk":"Мерида","official_name":"Municipio de Mérida"},"display_name":"Mérida, Yucatán, México","address":{"municipality":"Mérida","state":"Yucatán","ISO3166-2-lvl4":"MX-YUC","country":"México","country_code":"mx"},"population":995129,"osm_type":"relation","osm_id":5961522,"type":"administrative","location":[-89.65113860164118,20.944092050000002],"bbox":[-89.8011991,20.6971062,-89.4513034,21.1911038]},{"name":"Mérida","other_names":{"name:ar":"ماردة","name:en":"Mérida","name:es":"Mérida","name:ja":"メリダ州","name:mk":"Мерида","name:pl":"Mérida","name:ru":"Мерида","name:uk":"Меріда"},"display_name":"Mérida, Yucatán, México","address":{"city":"Mérida","municipality":"Mérida","state":"Yucatán","ISO3166-2-lvl4":"MX-YUC","country":"México","country_code":"mx"},"population":975000,"osm_type":"relation","osm_id":6265959,"type":"administrative","location":[-89.6237402,20.9670759],"bbox":[-89.7303546,20.8708808,-89.5247588,21.0854532]}]}
{"name":"Mexicali","other_names":{"name:ar":"مكسيكالي","name:en":"Mexicali","name:es":"Mexicali","name:fa":"مخیکالی","name:pl":"Mexicali","name:ru":"Мехикали","name:uk":"Мехікалі","name:ur":"میکسیکالی"},"display_name":"Mexicali, Municipio de Mexicali, Baja California, 21000, México","address":{"city":"Mexicali","county":"Municipio de Mexicali","state":"Baja California","ISO3166-2-lvl4":"MX-BCN","postcode":"21000","country":"México","country_code":"mx"},"population":854186,"osm_type":"node","osm_id":213601095,"type":"city","location":[-115.474899,32.6405247],"bbox":[-115.634899,32.4805247,-115.314899,32.8005247],"border":{"name":"Municipio de Mexicali","other_names":{"name:ar":"مكسيكالي","name:es":"Municipio de Mexicali","name:fa":"مخیکالی","name:ur":"میکسیکالی","official_name":"Municipio de Mexicali"},"display_name":"Municipio de Mexicali, Baja California, México","address":{"county":"Municipio de Mexicali","state":"Baja California","ISO3166-2-lvl4":"MX-BCN","country":"México","country_code":"mx"},"population":1049792,"osm_type":"relation","osm_id":5606028,"type":"administrative","location":[-115.40607069389625,32.05004445],"bbox":[-115.8822422,31.3629026,-114.6497759,32.7187133]}}
{"name":"Minatitlán","display_name":"Minatitlán, Veracruz, 96730, México","address":{"city":"Minatitlán","county":"Minatitlán","state":"Veracruz","ISO3166-2-lvl4":"MX-VER","postcode":"96730","country":"México","country_code":"mx"},"population":101336,"osm_type":"node","osm_id":472255720,"type":"city","location":[-94.5567103,17.992773],"bbox":[-94.7167103,17.832773,-94.3967103,18.152773],"border":{"name":"Minatitlán","other_names":{"name:es":"Minatitlán","official_name":"Municipio de Minatitlán"},"display_name":"Minatitlán, Veracruz, México","address":{"county":"Minatitlán","state":"Veracruz","ISO3166-2-lvl4":"MX-VER","country":"México","country_code":"mx"},"population":144776,"osm_type":"relation","osm_id":6037729,"type":"administrative","location":[-94.38617333390417,17.7052686],"bbox":[-94.6577658,17.3168237,-94.1226855,18.0941515]}}
{"name":"Monclova","other_names":{"name:es":"Monclova","name:ru":"Монклова"},"display_name":"Monclova, Coahuila, 25700, México","address":{"city":"Monclova","county":"Monclova","state":"Coahuila","ISO3166-2-lvl4":"MX-COA","postcode":"25700","country":"México","country_code":"mx"},"population":237169,"osm_type":"node","osm_id":747101009,"type":"city","location":[-101.4171173,26.8999988],"bbox":[-101.5771173,26.7399988,-101.2571173,27.0599988],"border":{"name":"Monclova","other_names":{"name:es":"Monclova","official_name":"Municipio de Monclova"},"display_name":"Monclova, Coahuila, México","address":{"county":"Monclova","state":"Coahuila","ISO3166-2-lvl4":"MX-COA","country":"México","country_code":"mx"},"population":237951,"osm_type":"relation","osm_id":5606057,"type":"administrative","location":[-101.19923358589679,26.8792399],"bbox":[-101.5293011,26.697673,-100.9167389,27.0640713]}}
{"name":"Monterrey","other_names":{"name:ar":"مونتيري","name:en":"Monterrey","name:es":"Monterrey","name:lt":"Monterėjus","name:lv":"Monterreja","name:oc":"Monterrey","name:pl":"Monterrey","name:pt":"Monterrei","name:ru":"Монтеррей","name:uk":"Монтеррей","name:zh":"蒙特雷"},"display_name":"Monterrey, Nuevo León, 64010, México","address":{"city":"Monterrey","county":"Monterrey","state":"Nuevo León","ISO3166-2-lvl4":"MX-NLE","postcode":"64010","country":"México","country_code":"mx"},"population":1142994,"osm_type":"node","osm_id":4145210488,"type":"city","location":[-100.315258,25.6802019],"bbox":[-100.475258,25.5202019,-100.155258,25.8402019],"border":{"name":"Monterrey","other_names":{"name:es":"Monterrey","official_name":"Municipio de Monterrey"},"display_name":"Monterrey, Nuevo León, México","address":{"county":"Monterrey","state":"Nuevo León","ISO3166-2-lvl4":"MX-NLE","country":"México","country_code":"mx"},"population":1142994,"osm_type":"relation","osm_id":5606060,"type":"administrative","location":[-100.29310162906569,25.63978365],"bbox":[-100.4416465,25.4821344,-100.1674469,25.7974005]}}
{"display_name":"Monterrey, Nuevo León, 64249, México","address":{"county":"Monterrey","state":"Nuevo León","ISO3166-2-lvl4":"MX-NLE","postcode":"64249","country":"México","country_code":"mx"},"osm_type":"way","osm_id":1356786582,"type":"city","location":[-100.34343414148461,25.7411031],"bbox":[-100.3459823,25.7380788,-100.3408114,25.7447817]}
{"name":"Morelia","other_names":{"name:ar":"موريليا","name:bg":"Морелия","name:en":"Morelia","name:es":"Morelia","name:hu":"Morelia","name:ja":"モレリア","name:ka":"მორელია","name:lt":"Morelija","name:pl":"Morelia","name:ru":"Морелия","name:sr":"Морелија","name:sw":"Morelia, Michoacán","name:uk":"Морелія","name:zh":"莫雷利亚","name:war":"Morelia, Michoacán"},"display_name":"Morelia, Michoacán, 58000, México","address":{"city":"Morelia","county":"Morelia","state":"Michoacán","ISO3166-2-lvl4":"MX-MIC","postcode":"58000","country":"México","country_code":"mx"},"population":743275,"osm_type":"node","osm_id":269914489,"type":"city","location":[-101.1923818,19.7027116],"bbox":[-101.3523818,19.5427116,-101.0323818,19.8627116],"border":{"name":"Morelia","other_names":{"name:es":"Morelia","official_name":"Municipio de Morelia"},"display_name":"Morelia, Michoacán, México","address":{"county":"Morelia","state":"Michoacán","ISO3166-2-lvl4":"MX-MIC","country":"México","country_code":"mx"},"population":849053,"osm_type":"relation","osm_id":5606061,"type":"administrative","location":[-101.26237972291207,19.6546004],"bbox":[-101.5089304,19.4471606,-101.0425838,19.8622702]}}
{"name":"Naucalpan de Juárez","other_names":{"alt_name":"Naucalpan de Juárez"},"display_name":"Naucalpan de Juárez, Estado de México, México","address":{"city":"Naucalpan de Juárez","state":"Estado de México","ISO3166-2-lvl4":"MX-MEX","country":"México","country_code":"mx"},"population":792211,"osm_type":"node","osm_id":1098939254,"type":"city","location":[-99.2327986,19.4788356],"bbox":[-99.3927986,19.3188356,-99.0727986,19.6388356],"border":{"name":"Naucalpan de Juárez","other_names":{"name:es":"Naucalpan de Juárez","alt_name":"Naucalpan de Juárez"},"display_name":"Naucalpan de Juárez, Estado de México, México","address":{"city":"Naucalpan de Juárez","state":"Estado de México","ISO3166-2-lvl4":"MX-MEX","country":"México","country_code":"mx"},"population":792211,"osm_type":"relation","osm_id":5606080,"type":"administrative","location":[-99.2327986,19.4788356],"bbox":[-99.414074,19.4120073,-99.206733,19.5366944]}}
{"name":"Navojoa","other_names":{"name:en":"Navojoa","name:es":"Navojoa","name:ru":"Навохоа"},"display_name":"Navojoa, Sonora, 85870, México","address":{"city":"Navojoa","county":"Navojoa","state":"Sonora","ISO3166-2-lvl4":"MX-SON","postcode":"85870","country":"México","country_code":"mx"},"population":120926,"osm_type":"node","osm_id":1735301651,"type":"city","location":[-109.4438227,27.0721872],"bbox":[-109.6038227,26.9121872,-109.2838227,27.2321872],"border":{"name":"Navojoa","other_names":{"name:es":"Navojoa","official_name":"Municipio de Navojoa"},"display_name":"Navojoa, Sonora, México","address":{"county":"Navojoa","state":"Sonora","ISO3166-2-lvl4":"MX-SON","country":"México","country_code":"mx"},"population":164387,"osm_type":"relation","osm_id":5606082,"type":"administrative","location":[-109.40226682750367,27.02657005],"bbox":[-109.8256298,26.6235248,-109.0642878,27.4307818]}}
{"name":"Nezahualcóyotl","other_names":{"name:es":"Nezahualcóyotl","short_name":"Neza","official_name":"Ciudad Nezahualcóyotl"},"display_name":"Nezahualcóyotl, Estado de México, 57500, México","address":{"city":"Nezahualcóyotl","county":"Nezahualcóyotl","state":"Estado de México","ISO3166-2-lvl4":"MX-MEX","postcode":"57500","country":"México","country_code":"mx"},"population":1077208,"osm_type":"node","osm_id":703509226,"type":"city","location":[-99.0181547,19.4079028],"bbox":[-99.1781547,19.2479028,-98.8581547,19.5679028],"border":{"name":"Nezahualcóyotl","other_names":{"name:es":"Nezahualcóyotl","int_name":"Nezahualcoyotl","official_name":"Municipio de Nezahualcóyotl"},"display_name":"Nezahualcóyotl, Estado de México, México","address":{"county":"Nezahualcóyotl","state":"Estado de México","ISO3166-2-lvl4":"MX-MEX","country":"México","country_code":"mx"},"population":1077208,"osm_type":"relation","osm_id":5606086,"type":"administrative","location":[-99.03521209275921,19.432504700000003],"bbox":[-99.0679913,19.3662133,-98.9658743,19.4987787]}}
{"name":"Nuevo Casas Grandes","display_name":"Nuevo Casas Grandes, Chihuahua, 31700, México","address":{"city":"Nuevo Casas Grandes","county":"Nuevo Casas Grandes","state":"Chihuahua","ISO3166-2-lvl4":"MX-CHH","postcode":"31700","country":"México","country_code":"mx"},"population":55553,"osm_type":"node","osm_id":296376831,"type":"city","location":[-107.9058804,30.4154532],"bbox":[-108.0658804,30.2554532,-107.7458804,30.5754532],"border":{"name":"Nuevo Casas Grandes","display_name":"Nuevo Casas Grandes, Chihuahua, México","address":{"county":"Nuevo Casas Grandes","state":"Chihuahua","ISO3166-2-lvl4":"MX-CHH","country":"México","country_code":"mx"},"osm_type":"relation","osm_id":5606097,"type":"administrative","location":[-107.66542559561371,30.50629595],"bbox":[-107.9985388,30.1536894,-107.4060475,30.8592567]}}
{"name":"Nuevo Laredo","other_names":{"name:ar":"نويفو لاريدو","name:de":"Nuevo Laredo","name:es":"Nuevo Laredo","name:fa":"نوئوو لاردو","name:fr":"Nuevo Laredo","name:ur":"نوئوو لاریدو","name:azb":"نووو لئیردو","name:az-Arab":"نووو لئیردو"},"display_name":"Nuevo Laredo, Tamaulipas, 88040, México","address":{"city":"Nuevo Laredo","county":"Nuevo Laredo","state":"Tamaulipas","ISO3166-2-lvl4":"MX-TAM","postcode":"88040","country":"México","country_code":"mx"},"population":416055,"osm_type":"node","osm_id":5869111795,"type":"city","location":[-99.507425,27.4930246],"bbox":[-99.667425,27.3330246,-99.347425,27.6530246],"border":{"name":"Nuevo Laredo","other_names":{"name:es":"Nuevo Laredo","official_name":"Municipio de Nuevo Laredo"},"display_name":"Nuevo Laredo, Tamaulipas, México","address":{"county":"Nuevo Laredo","state":"Tamaulipas","ISO3166-2-lvl4":"MX-TAM","country":"México","country_code":"mx"},"population":425058,"osm_type":"relation","osm_id":5606099,"type":"administrative","location":[-99.67691717533057,27.475107100000002],"bbox":[-99.9264182,27.2713315,-99.47872,27.6791262]}}
{"name":"Oaxaca","other_names":{"name:en":"Oaxaca City","name:es":"Oaxaca de Juárez","name:pl":"Oaxaca","name:ru":"Оахака-де-Хуарес","name:uk":"Оахака-де-Хуарес","alt_name":"Ciudad de Oaxaca","official_name":"Oaxaca de Juárez"},"display_name":"Oaxaca, Oaxaca de Juárez, Oaxaca, 68000, México","address":{"city":"Oaxaca","county":"Oaxaca de Juárez","state":"Oaxaca","ISO3166-2-lvl4":"MX-OAX","postcode":"68000","country":"México","country_code":"mx"},"population":258913,"osm_type":"node","osm_id":269912387,"type":"city","location":[-96.7253575,17.0604663],"bbox":[-96.8853575,16.9004663,-96.5653575,17.2204663],"border":{"name":"Oaxaca de Juárez","other_names":{"name:es":"Oaxaca de Juárez","alt_name":"Municipio de Oaxaca","official_name":"Municipio de Oaxaca de Juárez"},"display_name":"Oaxaca de Juárez, Oaxaca, México","address":{"county":"Oaxaca de Juárez","state":"Oaxaca","ISO3166-2-lvl4":"MX-OAX","country":"México","country_code":"mx"},"population":270955,"osm_type":"relation","osm_id":5999647,"type":"administrative","location":[-96.72078156904958,17.096586799999997],"bbox":[-96.7804855,17.0293023,-96.6727191,17.1640001]}}
{"name":"Ocotlán","display_name":"Ocotlán, Región Ciénega, Jalisco, México","address":{"city":"Ocotlán","state_district":"Región Ciénega","state":"Jalisco","ISO3166-2-lvl4":"MX-JAL","country":"México","country_code":"mx"},"population":94978,"osm_type":"node","osm_id":273611139,"type":"city","location":[-102.768809,20.3514474],"bbox":[-102.928809,20.1914474,-102.608809,20.5114474],"border":{"name":"Ocotlán","other_names":{"name:es":"Ocotlán","official_name":"Municipio de Ocotlán"},"display_name":"Ocotlán, Región Ciénega, Jalisco, México","address":{"city":"Ocotlán","state_district":"Región Ciénega","state":"Jalisco","ISO3166-2-lvl4":"MX-JAL","country":"México","country_code":"mx"},"population":106050,"osm_type":"relation","osm_id":5606111,"type":"administrative","location":[-102.768809,20.3514474],"bbox":[-102.881404,20.2908692,-102.5951152,20.4835199]}}
{"name":"Ojinaga","other_names":{"name:es":"Ojinaga","name:ru":"Охинага","old_name":"San Francisco de la Junta de los Ríos","official_name":"Manuel Ojinaga","official_name:es":"Manuel Ojinaga","official_name:sr":"Мануел Охинага"},"display_name":"Ojinaga, Chihuahua, 32880, México","address":{"city":"Ojinaga","county":"Ojinaga","state":"Chihuahua","ISO3166-2-lvl4":"MX-CHH","postcode":"32880","country":"México","country_code":"mx"},"population":22066,"osm_type":"node","osm_id":308009997,"type":"city","location":[-104.4128523,29.5654282],"bbox":[-104.5728523,29.4054282,-104.2528523,29.7254282],"border":{"name":"Ojinaga","other_names":{"name:es":"Ojinaga","official_name":"Municipio de Ojinaga"},"display_name":"Ojinaga, Chihuahua, México","address":{"county":"Ojinaga","state":"Chihuahua","ISO3166-2-lvl4":"MX-CHH","country":"México","country_code":"mx"},"population":24534,"osm_type":"relation","osm_id":5606115,"type":"administrative","location":[-104.58711009130474,29.545625],"bbox":[-105.0260101,28.58346,-103.9702589,30.5077951]}}
{"name":"Ojo de Agua","display_name":"Ojo de Agua, Tecámac, Estado de México, 55770, México","address":{"city":"Ojo de Agua","town":"Tecámac","state":"Estado de México","ISO3166-2-lvl4":"MX-MEX","postcode":"55770","country":"México","country_code":"mx"},"population":386290,"osm_type":"node","osm_id":6177070845,"type":"city","location":[-99.0080905,19.6744692],"bbox":[-99.1680905,19.5144692,-98.8480905,19.8344692]}
{"name":"Orizaba","other_names":{"name:en":"Orizaba","name:es":"Orizaba","name:ru":"Орисаба"},"display_name":"Orizaba, Veracruz, 94300, México","address":{"city":"Orizaba","county":"Orizaba","state":"Veracruz","ISO3166-2-lvl4":"MX-VER","postcode":"94300","country":"México","country_code":"mx"},"population":120500,"osm_type":"node","osm_id":472255719,"type":"city","location":[-97.1060062,18.8497366],"bbox":[-97.2660062,18.6897366,-96.9460062,19.0097366],"border":{"name":"Orizaba","other_names":{"name:es":"Orizaba","official_name":"Municipio de Orizaba"},"display_name":"Orizaba, Veracruz, México","address":{"county":"Orizaba","state":"Veracruz","ISO3166-2-lvl4":"MX-VER","country":"México","country_code":"mx"},"population":123182,"osm_type":"relation","osm_id":6037748,"type":"administrative","location":[-97.11065374057469,18.859232849999998],"bbox":[-97.1575985,18.8320157,-97.06798,18.8862409]}}
{"name":"Pachuca","other_names":{"name:es":"Pachuca","name:pl":"Pachuca","name:ru":"Пачука-де-Сото","name:uk":"Пачука-де-Сото","alt_name":"Pachuca de Soto","old_name":"Pachyohcān"},"display_name":"Pachuca, Pachuca de Soto, Hidalgo, 42060, México","address":{"city":"Pachuca","county":"Pachuca de Soto","state":"Hidalgo","ISO3166-2-lvl4":"MX-HID","postcode":"42060","country":"México","country_code":"mx"},"population":297848,"osm_type":"node","osm_id":272109451,"type":"city","location":[-98.7413535,20.1165413],"bbox":[-98.9013535,19.9565413,-98.5813535,20.2765413],"border":{"name":"Pachuca de Soto","other_names":{"name:es":"Pachuca de Soto","alt_name":"Municipio de Pachuca","official_name":"Municipio de Pachuca de Soto"},"display_name":"Pachuca de Soto, Hidalgo, México","address":{"county":"Pachuca de Soto","state":"Hidalgo","ISO3166-2-lvl4":"MX-HID","country":"México","country_code":"mx"},"population":314331,"osm_type":"relation","osm_id":5606130,"type":"administrative","location":[-98.78892237167076,20.10451],"bbox":[-98.8642982,20.0235728,-98.6920456,20.1853626]}}
{"name":"Piedras Negras","other_names":{"name:ru":"Пьедрас-Неграс"},"display_name":"Piedras Negras, Coahuila, México","address":{"city":"Piedras Negras","county":"Piedras Negras","state":"Coahuila","ISO3166-2-lvl4":"MX-COA","country":"México","country_code":"mx"},"population":173959,"osm_type":"node","osm_id":297154255,"type":"city","location":[-100.5167137,28.704596],"bbox":[-100.6767137,28.544596,-100.3567137,28.864596],"border":[{"name":"Piedras Negras","other_names":{"name:es":"Piedras Negras","official_name":"Municipio de Piedras Negras"},"display_name":"Piedras Negras, Coahuila, México","address":{"county":"Piedras Negras","state":"Coahuila","ISO3166-2-lvl4":"MX-COA","country":"México","country_code":"mx"},"population":176327,"osm_type":"relation","osm_id":5606149,"type":"administrative","location":[-100.61243013100702,28.773785],"bbox":[-100.7655993,28.60663,-100.44561,28.940711]},{"name":"Piedras Negras","other_names":{"name:es":"Piedras Negras","alt_name":"Ciudad Piedras Negras","name:ru":"Пьедрас-Неграс"},"display_name":"Piedras Negras, Coahuila, México","address":{"city":"Piedras Negras","county":"Piedras Negras","state":"Coahuila","ISO3166-2-lvl4":"MX-COA","country":"México","country_code":"mx"},"population":173959,"osm_type":"relation","osm_id":4096606,"type":"administrative","location":[-100.5167137,28.704596],"bbox":[-100.5900415,28.6397011,-100.5004128,28.7424114]}]}
{"name":"Playa del Carmen","other_names":{"name:en":"Playa del Carmen","name:ko":"플라야 델 카르멘","name:ru":"Плая-дель-Кармен"},"display_name":"Playa del Carmen, Quintana Roo, México","address":{"city":"Playa del Carmen","municipality":"Playa del Carmen","state":"Quintana Roo","ISO3166-2-lvl4":"MX-ROO","country":"México","country_code":"mx"},"population":304942,"osm_type":"node","osm_id":279948657,"type":"city","location":[-87.0809021,20.6461095],"bbox":[-87.2409021,20.4861095,-86.9209021,20.8061095],"border":[{"name":"Playa del Carmen","other_names":{"name:es":"Playa del Carmen","official_name":"Municipio de Playa del Carmen"},"display_name":"Playa del Carmen, Quintana Roo, México","address":{"municipality":"Playa del Carmen","state":"Quintana Roo","ISO3166-2-lvl4":"MX-ROO","country":"México","country_code":"mx"},"population":333800,"osm_type":"relation","osm_id":5961541,"type":"administrative","location":[-87.50345268296755,20.584374699999998],"bbox":[-87.962742,20.3568648,-86.9206294,20.8120637]},{"name":"Playa del Carmen","other_names":{"name:en":"Playa del Carmen","name:es":"Playa del Carmen","name:ru":"Плая-дель-Кармен","name:ko":"플라야 델 카르멘"},"display_name":"Playa del Carmen, Quintana Roo, México","address":{"city":"Playa del Carmen","municipality":"Playa del Carmen","state":"Quintana Roo","ISO3166-2-lvl4":"MX-ROO","country":"México","country_code":"mx"},"population":149923,"osm_type":"relation","osm_id":6329645,"type":"administrative","location":[-87.0809021,20.6461095],"bbox":[-87.2160909,20.5756935,-86.983706,20.7574257]}]}
{"name":"Poza Rica","other_names":{"name:es":"Poza Rica","name:ru":"Поса-Рика-де-Идальго","official_name":"Poza Rica de Hidalgo"},"display_name":"Poza Rica, Poza Rica de Hidalgo, Veracruz, 93260, México","address":{"city":"Poza Rica","county":"Poza Rica de Hidalgo","state":"Veracruz","ISO3166-2-lvl4":"MX-VER","postcode":"93260","country":"México","country_code":"mx"},"population":180057,"osm_type":"node","osm_id":472255717,"type":"city","location":[-97.4536355,20.5320852],"bbox":[-97.6136355,20.3720852,-97.2936355,20.6920852],"border":{"name":"Poza Rica de Hidalgo","other_names":{"name:es":"Poza Rica de Hidalgo","official_name":"Municipio de Poza Rica de Hidalgo"},"display_name":"Poza Rica de Hidalgo, Veracruz, México","address":{"county":"Poza Rica de Hidalgo","state":"Veracruz","ISO3166-2-lvl4":"MX-VER","country":"México","country_code":"mx"},"population":189457,"osm_type":"relation","osm_id":5331697,"type":"administrative","location":[-97.44512479987276,20.537657449999998],"bbox":[-97.4854075,20.4854465,-97.3956074,20.589876]}}
{"name":"Progreso","other_names":{"name:ru":"Прогресо"},"display_name":"Progreso, Yucatán, México","address":{"city":"Progreso","municipality":"Progreso","state":"Yucatán","ISO3166-2-lvl4":"MX-YUC","country":"México","country_code":"mx"},"population":41965,"osm_type":"node","osm_id":269909227,"type":"city","location":[-89.6636637,21.2822136],"bbox":[-89.8236637,21.1222136,-89.5036637,21.4422136],"border":[{"name":"Progreso","display_name":"Progreso, Yucatán, México","address":{"municipality":"Progreso","state":"Yucatán","ISO3166-2-lvl4":"MX-YUC","country":"México","country_code":"mx"},"osm_type":"relation","osm_id":5961531,"type":"administrative","location":[-89.68103981388046,21.24599755],"bbox":[-91.4000972,21.1421398,-89.4873394,22.528955]},{"name":"Progreso","other_names":{"name:es":"Progreso","official_name":"Progreso de Castro","name:ru":"Прогресо"},"display_name":"Progreso, Yucatán, México","address":{"city":"Progreso","municipality":"Progreso","state":"Yucatán","ISO3166-2-lvl4":"MX-YUC","country":"México","country_code":"mx"},"population":37369,"osm_type":"relation","osm_id":6333853,"type":"administrative","location":[-89.6636637,21.2822136],"bbox":[-91.4000972,21.2640731,-89.6244971,22.528955]}]}
{"name":"Puebla","other_names":{"name:en":"Puebla City","name:es":"Puebla de Zaragoza","name:pl":"Puebla","name:pt":"Puebla","name:ru":"Пуэбла","alt_name":"Ciudad de Puebla","int_name":"Puebla","old_name":"Puebla de los Ángeles","official_name":"Heroica Puebla de Zaragoza"},"display_name":"Puebla, Municipio de Puebla, Puebla, 72000, México","address":{"city":"Puebla","county":"Municipio de Puebla","state":"Puebla","ISO3166-2-lvl4":"MX-PUE","postcode":"72000","country":"México","country_code":"mx"},"population":1542232,"osm_type":"node","osm_id":245792117,"type":"city","location":[-98.1981486,19.0437196],"bbox":[-98.3581486,18.8837196,-98.0381486,19.2037196]}
{"name":"Puerto Escondido","display_name":"Puerto Escondido, San Pedro Mixtepec, Oaxaca, 71800, México","address":{"city":"Puerto Escondido","county":"San Pedro Mixtepec","state":"Oaxaca","ISO3166-2-lvl4":"MX-OAX","postcode":"71800","country":"México","country_code":"mx"},"population":25902,"osm_type":"node","osm_id":458608856,"type":"city","location":[-97.0726428,15.8693331],"bbox":[-97.2326428,15.7093331,-96.9126428,16.0293331]}
{"name":"Puerto Peñasco","other_names":{"name:en":"Rocky Point","name:es":"Puerto Peñasco"},"display_name":"Puerto Peñasco, Sonora, 83550, México","address":{"city":"Puerto Peñasco","county":"Puerto Peñasco","state":"Sonora","ISO3166-2-lvl4":"MX-SON","postcode":"83550","country":"México","country_code":"mx"},"population":56756,"osm_type":"node","osm_id":333154553,"type":"city","location":[-113.531819,31.3170867],"bbox":[-113.691819,31.1570867,-113.371819,31.4770867],"border":{"name":"Puerto Peñasco","other_names":{"name:en":"Rocky Point","name:es":"Puerto Peñasco"},"display_name":"Puerto Peñasco, Sonora, México","address":{"county":"Puerto Peñasco","state":"Sonora","ISO3166-2-lvl4":"MX-SON","country":"México","country_code":"mx"},"osm_type":"relation","osm_id":5606166,"type":"administrative","location":[-113.38971892127962,31.530171799999998],"bbox":[-114.005985,30.94482,-112.437662,32.1151826]}}
{"name":"Puerto Vallarta","other_names":{"name:es":"Puerto Vallarta","name:ru":"Пуэрто-Вальярта"},"display_name":"Puerto Vallarta, Región Costa Norte, Jalisco, 48300, México","address":{"city":"Puerto Vallarta","county":"Puerto Vallarta","state_district":"Región Costa Norte","state":"Jalisco","ISO3166-2-lvl4":"MX-JAL","postcode":"48300","country":"México","country_code":"mx"},"population":224166,"osm_type":"node","osm_id":2052329081,"type":"city","location":[-105.220306,20.6407176],"bbox":[-105.380306,20.4807176,-105.060306,20.8007176],"border":{"name":"Puerto Vallarta","other_names":{"name:es":"Puerto Vallarta","official_name":"Municipio de Puerto Vallarta"},"display_name":"Puerto Vallarta, Región Costa Norte, Jalisco, México","address":{"county":"Puerto Vallarta","state_district":"Región Costa Norte","state":"Jalisco","ISO3166-2-lvl4":"MX-JAL","country":"México","country_code":"mx"},"population":291839,"osm_type":"relation","osm_id":18522440,"type":"administrative","location":[-105.18152416996546,20.69820775],"bbox":[-105.3256935,20.4731498,-104.9723338,20.9231604]}}
{"name":"Reynosa","other_names":{"name:ar":"رينوسا","name:es":"Reynosa","name:ru":"Рейноса"},"display_name":"Reynosa, Tamaulipas, 88500, México","address":{"city":"Reynosa","county":"Reynosa","state":"Tamaulipas","ISO3166-2-lvl4":"MX-TAM","postcode":"88500","country":"México","country_code":"mx"},"population":691557,"osm_type":"node","osm_id":273615025,"type":"city","location":[-98.2788191,26.0907673],"bbox":[-98.4388191,25.9307673,-98.1188191,26.2507673],"border":{"name":"Reynosa","other_names":{"name:ar":"بلدية رينوسا","name:es":"Reynosa","official_name":"Municipio de Reynosa"},"display_name":"Reynosa, Tamaulipas, México","address":{"county":"Reynosa","state":"Tamaulipas","ISO3166-2-lvl4":"MX-TAM","country":"México","country_code":"mx"},"population":704767,"osm_type":"relation","osm_id":5606187,"type":"administrative","location":[-98.37085940431804,25.8366364],"bbox":[-98.5854664,25.4459591,-98.1381111,26.22731]}}
{"name":"Río Bravo","other_names":{"name:es":"Río Bravo","official_name":"Ciudad Río Bravo"},"display_name":"Río Bravo, Tamaulipas, 88900, México","address":{"city":"Río Bravo","county":"Río Bravo","state":"Tamaulipas","ISO3166-2-lvl4":"MX-TAM","postcode":"88900","country":"México","country_code":"mx"},"population":111314,"osm_type":"node","osm_id":1139762556,"type":"city","location":[-98.0945766,25.988981],"bbox":[-98.2545766,25.828981,-97.9345766,26.148981],"border":{"name":"Río Bravo","other_names":{"name:es":"Río Bravo","official_name":"Municipio de Río Bravo"},"display_name":"Río Bravo, Tamaulipas, México","address":{"county":"Río Bravo","state":"Tamaulipas","ISO3166-2-lvl4":"MX-TAM","country":"México","country_code":"mx"},"population":132484,"osm_type":"relation","osm_id":5606199,"type":"administrative","location":[-98.05371532175079,25.727478050000002],"bbox":[-98.1732381,25.3813269,-97.850039,26.07443]}}
{"name":"Rosarito","other_names":{"name:es":"Rosarito","official_name":"Playas de Rosarito"},"display_name":"Rosarito, Municipio de Playas de Rosarito, Baja California, 22703, México","address":{"city":"Rosarito","county":"Municipio de Playas de Rosarito","state":"Baja California","ISO3166-2-lvl4":"MX-BCN","postcode":"22703","country":"México","country_code":"mx"},"population":100660,"osm_type":"node","osm_id":3602376339,"type":"city","location":[-117.0557923,32.365166],"bbox":[-117.2157923,32.205166,-116.8957923,32.525166]}
{"name":"Sabinas","display_name":"Sabinas, Coahuila, 26730, México","address":{"city":"Sabinas","county":"Sabinas","state":"Coahuila","ISO3166-2-lvl4":"MX-COA","postcode":"26730","country":"México","country_code":"mx"},"population":54905,"osm_type":"node","osm_id":298252745,"type":"city","location":[-101.1183777,27.8524011],"bbox":[-101.2783777,27.6924011,-100.9583777,28.0124011],"border":{"name":"Sabinas","display_name":"Sabinas, Coahuila, México","address":{"county":"Sabinas","state":"Coahuila","ISO3166-2-lvl4":"MX-COA","country":"México","country_code":"mx"},"osm_type":"relation","osm_id":5606202,"type":"administrative","location":[-101.07278132672445,27.942464049999998],"bbox":[-101.3666643,27.6366608,-100.9018541,28.2441324]}}
{"name":"Salamanca","display_name":"Salamanca, Guanajuato, 36750, México","address":{"city":"Salamanca","county":"Salamanca","state":"Guanajuato","ISO3166-2-lvl4":"MX-GUA","postcode":"36750","country":"México","country_code":"mx"},"population":160682,"osm_type":"node","osm_id":269907342,"type":"city","location":[-101.192444,20.571358],"bbox":[-101.352444,20.411358,-101.032444,20.731358],"border":{"name":"Salamanca","other_names":{"name:es":"Salamanca","official_name":"Municipio de Salamanca"},"display_name":"Salamanca, Guanajuato, México","address":{"county":"Salamanca","state":"Guanajuato","ISO3166-2-lvl4":"MX-GUA","country":"México","country_code":"mx"},"population":273417,"osm_type":"relation","osm_id":5606207,"type":"administrative","location":[-101.16676697826568,20.6511359],"bbox":[-101.3134206,20.4368646,-101.0330697,20.8668882]}}
{"name":"Salina Cruz","other_names":{"name:es":"Salina Cruz","name:ru":"Салина-Крус"},"display_name":"Salina Cruz, Oaxaca, 70650, México","address":{"city":"Salina Cruz","county":"Salina Cruz","state":"Oaxaca","ISO3166-2-lvl4":"MX-OAX","postcode":"70650","country":"México","country_code":"mx"},"population":76660,"osm_type":"node","osm_id":458608676,"type":"city","location":[-95.195833,16.1825],"bbox":[-95.355833,16.0225,-95.035833,16.3425],"border":{"name":"Salina Cruz","display_name":"Salina Cruz, Oaxaca, México","address":{"county":"Salina Cruz","state":"Oaxaca","ISO3166-2-lvl4":"MX-OAX","country":"México","country_code":"mx"},"osm_type":"relation","osm_id":5999672,"type":"administrative","location":[-95.21319355861957,16.19777885],"bbox":[-95.2889881,16.1156728,-95.136851,16.2643049]}}
{"name":"Saltillo","other_names":{"name:ar":"سالتيو","name:en":"Saltillo","name:es":"Saltillo","name:pl":"Saltillo","name:ru":"Сальтильо","name:uk":"Сальтільйо"},"display_name":"Saltillo, Coahuila, 25000, México","address":{"city":"Saltillo","county":"Saltillo","state":"Coahuila","ISO3166-2-lvl4":"MX-COA","postcode":"25000","country":"México","country_code":"mx"},"population":864431,"osm_type":"node","osm_id":611897092,"type":"city","location":[-100.9927509,25.4230425],"bbox":[-101.1527509,25.2630425,-100.8327509,25.5830425],"border":{"name":"Saltillo","other_names":{"name:ar":"سالتيو","name:es":"Saltillo","official_name":"Municipio de Saltillo"},"display_name":"Saltillo, Coahuila, México","address":{"county":"Saltillo","state":"Coahuila","ISO3166-2-lvl4":"MX-COA","country":"México","country_code":"mx"},"population":879958,"osm_type":"relation","osm_id":5606210,"type":"administrative","location":[-101.10482341552179,25.03596175],"bbox":[-101.6209794,24.5426841,-100.7274955,25.5229178]}}
{"name":"San Cristóbal","other_names":{"name:es":"San Cristóbal","official_name":"San Cristóbal de las Casas"},"display_name":"San Cristóbal, San Cristóbal de las Casas, Chiapas, 29200, México","address":{"city":"San Cristóbal","county":"San Cristóbal de las Casas","state":"Chiapas","ISO3166-2-lvl4":"MX-CHP","postcode":"29200","country":"México","country_code":"mx"},"population":183509,"osm_type":"node","osm_id":269911011,"type":"city","location":[-92.63873,16.735377],"bbox":[-92.79873,16.575377,-92.47873,16.895377],"border":{"name":"San Cristóbal de las Casas","other_names":{"name:es":"San Cristóbal de las Casas","official_name":"Municipio de San Cristóbal de Las Casas"},"display_name":"San Cristóbal de las Casas, Chiapas, México","address":{"county":"San Cristóbal de las Casas","state":"Chiapas","ISO3166-2-lvl4":"MX-CHP","country":"México","country_code":"mx"},"population":215874,"osm_type":"relation","osm_id":5999725,"type":"administrative","location":[-92.61551841991157,16.6835469],"bbox":[-92.7202806,16.5389023,-92.3398105,16.7897723]}}
{"name":"San Francisco de Campeche","other_names":{"name:en":"Campeche City","name:es":"San Francisco de Campeche","name:pl":"Campeche","name:ru":"Кампече","name:uk":"Кампече","alt_name":"Ciudad de Campeche","short_name":"Campeche","official_name":"San Francisco de Campeche","official_name:ru":"Сан-Франсиско-де-Кампече"},"display_name":"San Francisco de Campeche, Municipio de Campeche, Campeche, 24050, México","address":{"city":"San Francisco de Campeche","county":"Municipio de Campeche","state":"Campeche","ISO3166-2-lvl4":"MX-CAM","postcode":"24050","country":"México","country_code":"mx"},"population":249623,"osm_type":"node","osm_id":269908857,"type":"city","location":[-90.5198253,19.8381215],"bbox":[-90.6798253,19.6781215,-90.3598253,19.9981215]}
{"name":"San José del Cabo","other_names":{"name:es":"San José del Cabo","name:ru":"Сан-Хосе-дель-Кабо"},"display_name":"San José del Cabo, Municipio de Los Cabos, Baja California Sur, 23400, México","address":{"city":"San José del Cabo","county":"Municipio de Los Cabos","state":"Baja California Sur","ISO3166-2-lvl4":"MX-BCS","postcode":"23400","country":"México","country_code":"mx"},"population":136285,"osm_type":"node","osm_id":5245034192,"type":"city","location":[-109.7025148,23.0598364],"bbox":[-109.8625148,22.8998364,-109.5425148,23.2198364]}
{"name":"San Juan Bautista Coixtlahuaca","display_name":"San Juan Bautista Coixtlahuaca, Oaxaca, México","address":{"town":"San Juan Bautista Coixtlahuaca","county":"San Juan Bautista Coixtlahuaca","state":"Oaxaca","ISO3166-2-lvl4":"MX-OAX","country":"México","country_code":"mx"},"osm_type":"relation","osm_id":18345735,"type":"city","location":[-97.3234411,17.7239023],"bbox":[-97.3330748,17.7097555,-97.3119309,17.7345478]}
{"name":"San Juan del Río","display_name":"San Juan del Río, Querétaro, 76803, México","address":{"city":"San Juan del Río","county":"San Juan del Río","state":"Querétaro","ISO3166-2-lvl4":"MX-QUE","postcode":"76803","country":"México","country_code":"mx"},"population":177719,"osm_type":"node","osm_id":273597039,"type":"city","location":[-99.9931982,20.3867547],"bbox":[-100.1531982,20.2267547,-99.8331982,20.5467547],"border":{"name":"San Juan del Río","display_name":"San Juan del Río, Querétaro, México","address":{"county":"San Juan del Río","state":"Querétaro","ISO3166-2-lvl4":"MX-QUE","country":"México","country_code":"mx"},"population":297804,"osm_type":"relation","osm_id":5606251,"type":"administrative","location":[-100.01196274827622,20.387046249999997],"bbox":[-100.196026,20.2067147,-99.8354424,20.547388]}}
{"name":"San Luis Coyotzingo","display_name":"San Luis Coyotzingo, Huejotzingo, Puebla, 74165, México","address":{"village":"San Luis Coyotzingo","county":"Huejotzingo","state":"Puebla","ISO3166-2-lvl4":"MX-PUE","postcode":"74165","country":"México","country_code":"mx"},"population":2500,"osm_type":"way","osm_id":336016696,"type":"city","location":[-98.4411626,19.1978669],"bbox":[-98.4675158,19.1780809,-98.4219183,19.2114367]}
{"name":"San Luis Potosí","other_names":{"name:ar":"سان لويس بوتوسي","name:en":"San Luis Potosí City","name:es":"San Luis Potosí","name:ru":"Сан-Луис-Потоси","name:uk":"Сан-Луїс-Потосі","alt_name":"Ciudad de San Luis Potosí"},"display_name":"San Luis Potosí, Municipio de San Luis Potosí, San Luis Potosí, 78000, México","address":{"city":"San Luis Potosí","county":"Municipio de San Luis Potosí","state":"San Luis Potosí","ISO3166-2-lvl4":"MX-SLP","postcode":"78000","country":"México","country_code":"mx"},"population":845941,"osm_type":"node","osm_id":269905839,"type":"city","location":[-100.9763993,22.1516472],"bbox":[-101.1363993,21.9916472,-100.8163993,22.3116472]}
{"name":"San Luis Río Colorado","display_name":"San Luis Río Colorado, Sonora, 83400, México","address":{"city":"San Luis Río Colorado","county":"San Luis Río Colorado","state":"Sonora","ISO3166-2-lvl4":"MX-SON","postcode":"83400","country":"México","country_code":"mx"},"population":176685,"osm_type":"node","osm_id":333132844,"type":"city","location":[-114.7816893,32.4822164],"bbox":[-114.9416893,32.3222164,-114.6216893,32.6422164],"border":{"name":"San Luis Río Colorado","other_names":{"name:es":"San Luis Río Colorado","official_name":"Municipio de San Luis Río Colorado"},"display_name":"San Luis Río Colorado, Sonora, México","address":{"county":"San Luis Río Colorado","state":"Sonora","ISO3166-2-lvl4":"MX-SON","country":"México","country_code":"mx"},"population":199021,"osm_type":"relation","osm_id":5606257,"type":"administrative","location":[-114.29076765838929,31.9939483],"bbox":[-115.0530223,31.491,-113.5434511,32.4940383]}}
{"name":"San Miguel de Allende","display_name":"San Miguel de Allende, Guanajuato, México","address":{"city":"San Miguel de Allende","county":"San Miguel de Allende","state":"Guanajuato","ISO3166-2-lvl4":"MX-GUA","country":"México","country_code":"mx"},"population":72452,"osm_type":"node","osm_id":269907735,"type":"city","location":[-100.743784,20.9142238],"bbox":[-100.903784,20.7542238,-100.583784,21.0742238],"border":[{"name":"San Miguel de Allende","display_name":"San Miguel de Allende, Guanajuato, México","address":{"county":"San Miguel de Allende","state":"Guanajuato","ISO3166-2-lvl4":"MX-GUA","country":"México","country_code":"mx"},"osm_type":"relation","osm_id":5606268,"type":"administrative","location":[-100.73566002666199,20.9130501],"bbox":[-101.0866808,20.7160881,-100.4699582,21.10911]},{"name":"San Miguel de Allende","display_name":"San Miguel de Allende, Guanajuato, México","address":{"city":"San Miguel de Allende","county":"San Miguel de Allende","state":"Guanajuato","ISO3166-2-lvl4":"MX-GUA","country":"México","country_code":"mx"},"population":72452,"osm_type":"relation","osm_id":2372616,"type":"administrative","location":[-100.743784,20.9142238],"bbox":[-100.7770483,20.8883248,-100.7138495,20.9377119]}]}
{"name":"San Miguel de Cozumel","other_names":{"short_name":"Cozumel"},"display_name":"San Miguel de Cozumel, Cozumel, Quintana Roo, México","address":{"city":"San Miguel de Cozumel","county":"Cozumel","state":"Quintana Roo","ISO3166-2-lvl4":"MX-ROO","country":"México","country_code":"mx"},"population":84915,"osm_type":"node","osm_id":253071476,"type":"city","location":[-86.9435851,20.5014305],"bbox":[-87.1035851,20.3414305,-86.7835851,20.6614305],"border":[{"name":"Cozumel","other_names":{"name:es":"Cozumel","official_name":"Municipio de Cozumel"},"display_name":"Cozumel, Quintana Roo, México","address":{"county":"Cozumel","state":"Quintana Roo","ISO3166-2-lvl4":"MX-ROO","country":"México","country_code":"mx"},"population":88626,"osm_type":"relation","osm_id":5961471,"type":"administrative","location":[-86.92069058377268,20.4320599],"bbox":[-87.3634288,20.2720013,-86.7232847,20.5977105]},{"name":"San Miguel de Cozumel","other_names":{"name:es":"San Miguel de Cozumel","short_name":"Cozumel"},"display_name":"San Miguel de Cozumel, Cozumel, Quintana Roo, México","address":{"city":"San Miguel de Cozumel","county":"Cozumel","state":"Quintana Roo","ISO3166-2-lvl4":"MX-ROO","country":"México","country_code":"mx"},"population":79535,"osm_type":"relation","osm_id":6329316,"type":"administrative","location":[-86.9435851,20.5014305],"bbox":[-87.0021654,20.4237657,-86.908325,20.5401098]}]}
{"name":"San Nicolás de los Garza","other_names":{"name:es":"San Nicolás de los Garza","int_name":"San Nicolas de los Garza"},"display_name":"San Nicolás de los Garza, Nuevo León, 66417, México","address":{"city":"San Nicolás de los Garza","county":"San Nicolás de los Garza","state":"Nuevo León","ISO3166-2-lvl4":"MX-NLE","postcode":"66417","country":"México","country_code":"mx"},"population":412199,"osm_type":"node","osm_id":1038661885,"type":"city","location":[-100.289648,25.7558021],"bbox":[-100.449648,25.5958021,-100.129648,25.9158021],"border":{"name":"San Nicolás de los Garza","other_names":{"name:es":"San Nicolás de los Garza","alt_name":"Municipio de San Nicolas","int_name":"San Nicolas de los Garza","official_name":"Municipio de San Nicolas de los Garza"},"display_name":"San Nicolás de los Garza, Nuevo León, México","address":{"county":"San Nicolás de los Garza","state":"Nuevo León","ISO3166-2-lvl4":"MX-NLE","country":"México","country_code":"mx"},"population":412199,"osm_type":"relation","osm_id":5606272,"type":"administrative","location":[-100.2664664043969,25.73582165],"bbox":[-100.3367793,25.7012243,-100.2037798,25.7705495]}}
{"name":"Santa Lucía del Camino","display_name":"Santa Lucía del Camino, Oaxaca, 71228, México","address":{"city":"Santa Lucía del Camino","county":"Santa Lucía del Camino","state":"Oaxaca","ISO3166-2-lvl4":"MX-OAX","postcode":"71228","country":"México","country_code":"mx"},"population":50362,"osm_type":"node","osm_id":458608723,"type":"city","location":[-96.693333,17.0625],"bbox":[-96.853333,16.9025,-96.533333,17.2225],"border":{"name":"Santa Lucía del Camino","display_name":"Santa Lucía del Camino, Oaxaca, México","address":{"county":"Santa Lucía del Camino","state":"Oaxaca","ISO3166-2-lvl4":"MX-OAX","country":"México","country_code":"mx"},"osm_type":"relation","osm_id":6000013,"type":"administrative","location":[-96.67343831493935,17.067724050000002],"bbox":[-96.7106888,17.0433682,-96.6610747,17.0820933]}}
{"name":"Santiago de Querétaro","other_names":{"name:en":"Querétaro City","name:es":"Santiago de Querétaro","name:pl":"Querétaro","name:pt":"Querétaro","name:ru":"Сантьяго-де-Керетаро","alt_name":"Querétaro","short_name":"Querétaro","alt_name:ar":"مدينة كيريتارو;سانتياغو دي كويريتارو","official_name":"Santiago de Querétaro","short_name:ar":"كيريتارو"},"display_name":"Santiago de Querétaro, Municipio de Querétaro, Querétaro, 76000, México","address":{"city":"Santiago de Querétaro","county":"Municipio de Querétaro","state":"Querétaro","ISO3166-2-lvl4":"MX-QUE","postcode":"76000","country":"México","country_code":"mx"},"population":794789,"osm_type":"node","osm_id":269905615,"type":"city","location":[-100.3917424,20.5922997],"bbox":[-100.5517424,20.4322997,-100.2317424,20.7522997],"border":{"name":"Santiago de Querétaro","other_names":{"name:en":"Querétaro","name:es":"Santiago de Querétaro","name:pl":"Querétaro","name:ru":"Сантьяго-де-Керетаро","name:uk":"Сантьяго-де-Керетаро","alt_name":"Querétaro","name:pt":"Querétaro","short_name":"Querétaro","alt_name:ar":"مدينة كيريتارو;سانتياغو دي كويريتارو","official_name":"Santiago de Querétaro","short_name:ar":"كيريتارو","alt:en":"Querétaro City"},"display_name":"Santiago de Querétaro, Municipio de Querétaro, Querétaro, México","address":{"city":"Santiago de Querétaro","county":"Municipio de Querétaro","state":"Querétaro","ISO3166-2-lvl4":"MX-QUE","country":"México","country_code":"mx"},"population":804663,"osm_type":"relation","osm_id":4062443,"type":"city","location":[-100.3917424,20.5922997],"bbox":[-100.4801491,20.5403066,-100.3119636,20.6839674]}}
{"name":"Silao","other_names":{"name:es":"Silao","official_name":"Silao de la Victoria"},"display_name":"Silao, Silao (Ciudad), Silao de la Victoria, Guanajuato, 36140, México","address":{"city":"Silao","county":"Silao de la Victoria","state":"Guanajuato","ISO3166-2-lvl4":"MX-GUA","postcode":"36140","country":"México","country_code":"mx"},"population":83352,"osm_type":"node","osm_id":273602251,"type":"city","location":[-101.427043,20.943727],"bbox":[-101.587043,20.783727,-101.267043,21.103727],"border":[{"name":"Silao de la Victoria","other_names":{"name:es":"Silao de la Victoria","alt_name":"Municipio de Silao","official_name":"Municipio de Silao de la Victoria"},"display_name":"Silao de la Victoria, Guanajuato, México","address":{"county":"Silao de la Victoria","state":"Guanajuato","ISO3166-2-lvl4":"MX-GUA","country":"México","country_code":"mx"},"population":203556,"osm_type":"relation","osm_id":5606389,"type":"administrative","location":[-101.44957458329151,20.97628155],"bbox":[-101.5818248,20.7999787,-101.3178317,21.1525279]},{"name":"Silao (Ciudad)","other_names":{"name:es":"Silao (Ciudad)","official_name":"Silao de la Victoria"},"display_name":"Silao (Ciudad), Silao de la Victoria, Guanajuato, México","address":{"city":"Silao (Ciudad)","county":"Silao de la Victoria","state":"Guanajuato","ISO3166-2-lvl4":"MX-GUA","country":"México","country_code":"mx"},"osm_type":"relation","osm_id":11208370,"type":"administrative","location":[-101.42919512727305,20.9432447],"bbox":[-101.4443224,20.9298573,-101.4143609,20.9560698]}]}
{"name":"Tampico","other_names":{"name:es":"Tampico","name:ru":"Тампико"},"display_name":"Tampico, Tamaulipas, 89080, México","address":{"city":"Tampico","county":"Tampico","state":"Tamaulipas","ISO3166-2-lvl4":"MX-TAM","postcode":"89080","country":"México","country_code":"mx"},"population":297562,"osm_type":"node","osm_id":273584290,"type":"city","location":[-97.8577713,22.2157619],"bbox":[-98.0177713,22.0557619,-97.6977713,22.3757619],"border":{"name":"Tampico","other_names":{"name:es":"Tampico","official_name":"Municipio de Tampico"},"display_name":"Tampico, Tamaulipas, México","address":{"county":"Tampico","state":"Tamaulipas","ISO3166-2-lvl4":"MX-TAM","country":"México","country_code":"mx"},"population":297562,"osm_type":"relation","osm_id":5606424,"type":"administrative","location":[-97.89486735598555,22.27010965],"bbox":[-98.000324,22.2069658,-97.8363806,22.3330507]}}
{"name":"Tapachula","other_names":{"name:en":"Tapachula","name:es":"Tapachula","name:hu":"Tapachula","name:ru":"Тапачула","name:uk":"Тапачула","official_name":"Tapachula de Córdova y Ordóñez"},"display_name":"Tapachula, Chiapas, 30830, México","address":{"city":"Tapachula","county":"Tapachula","state":"Chiapas","ISO3166-2-lvl4":"MX-CHP","postcode":"30830","country":"México","country_code":"mx"},"population":217550,"osm_type":"node","osm_id":324351668,"type":"city","location":[-92.2609265,14.9042905],"bbox":[-92.4209265,14.7442905,-92.1009265,15.0642905],"border":{"name":"Tapachula","other_names":{"name:es":"Tapachula","official_name":"Municipio de Tapachula"},"display_name":"Tapachula, Chiapas, México","address":{"county":"Tapachula","state":"Chiapas","ISO3166-2-lvl4":"MX-CHP","country":"México","country_code":"mx"},"population":353706,"osm_type":"relation","osm_id":6000168,"type":"administrative","location":[-92.32219567868036,14.9258055],"bbox":[-92.4656229,14.618128,-92.1627529,15.2355141]}}
{"name":"Tecate","other_names":{"name:en":"Tecate"},"display_name":"Tecate, Municipio de Tecate, Baja California, México","address":{"city":"Tecate","county":"Municipio de Tecate","state":"Baja California","ISO3166-2-lvl4":"MX-BCN","country":"México","country_code":"mx"},"population":81059,"osm_type":"node","osm_id":3280130361,"type":"city","location":[-116.6298787,32.5653831],"bbox":[-116.7898787,32.4053831,-116.4698787,32.7253831],"border":{"name":"Tecate","other_names":{"name:es":"Tecate","name:en":"Tecate"},"display_name":"Tecate, Municipio de Tecate, Baja California, México","address":{"city":"Tecate","county":"Municipio de Tecate","state":"Baja California","ISO3166-2-lvl4":"MX-BCN","country":"México","country_code":"mx"},"population":81059,"osm_type":"way","osm_id":49431498,"type":"administrative","location":[-116.6298787,32.5653831],"bbox":[-116.6617402,32.5472999,-116.5916173,32.5792081]}}
{"name":"Tecomán","other_names":{"name:en":"Tecoman","name:es":"Tecomán"},"display_name":"Tecomán, Colima, 28734, México","address":{"city":"Tecomán","county":"Tecomán","state":"Colima","ISO3166-2-lvl4":"MX-COL","postcode":"28734","country":"México","country_code":"mx"},"population":88337,"osm_type":"node","osm_id":325692399,"type":"city","location":[-103.873409,18.9109158],"bbox":[-104.033409,18.7509158,-103.713409,19.0709158],"border":{"name":"Tecomán","other_names":{"name:es":"Tecomán","official_name":"Municipio de Tecomán"},"display_name":"Tecomán, Colima, México","address":{"county":"Tecomán","state":"Colima","ISO3166-2-lvl4":"MX-COL","country":"México","country_code":"mx"},"population":116305,"osm_type":"relation","osm_id":5606445,"type":"administrative","location":[-103.84627300735929,18.903117299999998],"bbox":[-114.7600696,18.3389881,-103.6197574,19.1214031]}}
{"name":"Tehuacán","display_name":"Tehuacán, Puebla, 75700, México","address":{"city":"Tehuacán","county":"Tehuacán","state":"Puebla","ISO3166-2-lvl4":"MX-PUE","postcode":"75700","country":"México","country_code":"mx"},"population":293825,"osm_type":"node","osm_id":448088952,"type":"city","location":[-97.3903616,18.4599877],"bbox":[-97.5503616,18.2999877,-97.2303616,18.6199877],"border":{"name":"Tehuacán","other_names":{"name:es":"Tehuacán","official_name":"Municipio de Tehuacán"},"display_name":"Tehuacán, Puebla, México","address":{"county":"Tehuacán","state":"Puebla","ISO3166-2-lvl4":"MX-PUE","country":"México","country_code":"mx"},"population":327312,"osm_type":"relation","osm_id":6037804,"type":"administrative","location":[-97.39783479972402,18.465801149999997],"bbox":[-97.6379845,18.3238829,-97.2077563,18.6076771]}}
{"name":"Tepatitlán","other_names":{"official_name":"Tepatitlán de Morelos"},"display_name":"Tepatitlán, Tepatitlán de Morelos, Región Altos Sur, Jalisco, México","address":{"city":"Tepatitlán","state_district":"Región Altos Sur","state":"Jalisco","ISO3166-2-lvl4":"MX-JAL","country":"México","country_code":"mx"},"population":98842,"osm_type":"node","osm_id":790684840,"type":"city","location":[-102.758809,20.8151477],"bbox":[-102.918809,20.6551477,-102.598809,20.9751477],"border":{"name":"Tepatitlán de Morelos","other_names":{"name:es":"Tepatitlán de Morelos","alt_name":"Municipio de Tepatitlán","official_name":"Municipio de Tepatitlán de Morelos","_place_official_name":"Tepatitlán de Morelos","alt":"Tepatitlán"},"display_name":"Tepatitlán de Morelos, Región Altos Sur, Jalisco, México","address":{"city":"Tepatitlán de Morelos","state_district":"Región Altos Sur","state":"Jalisco","ISO3166-2-lvl4":"MX-JAL","country":"México","country_code":"mx"},"population":150190,"osm_type":"relation","osm_id":5606471,"type":"administrative","location":[-102.758809,20.8151477],"bbox":[-102.9433751,20.5919562,-102.4831999,21.0425342]}}
{"name":"Tepic","other_names":{"name:en":"Tepic","name:es":"Tepic","name:pl":"Tepic","name:ru":"Тепик","name:uk":"Тепік"},"display_name":"Tepic, Nayarit, 63000, México","address":{"city":"Tepic","county":"Tepic","state":"Nayarit","ISO3166-2-lvl4":"MX-NAY","postcode":"63000","country":"México","country_code":"mx"},"population":371387,"osm_type":"node","osm_id":6307339597,"type":"city","location":[-104.8915889,21.5119156],"bbox":[-105.0515889,21.3519156,-104.7315889,21.6719156],"border":{"name":"Tepic","other_names":{"name:es":"Tepic","official_name":"Municipio de Tepic"},"display_name":"Tepic, Nayarit, México","address":{"county":"Tepic","state":"Nayarit","ISO3166-2-lvl4":"MX-NAY","country":"México","country_code":"mx"},"population":425924,"osm_type":"relation","osm_id":5606483,"type":"administrative","location":[-104.84118027667085,21.6240442],"bbox":[-105.1241867,21.3948674,-104.5977174,21.8546065]}}
{"name":"Texcoco de Mora","display_name":"Texcoco de Mora, Texcoco, Estado de México, 56100, México","address":{"city":"Texcoco de Mora","county":"Texcoco","state":"Estado de México","ISO3166-2-lvl4":"MX-MEX","postcode":"56100","country":"México","country_code":"mx"},"population":105165,"osm_type":"node","osm_id":5357623246,"type":"city","location":[-98.8821254,19.5144327],"bbox":[-99.0421254,19.3544327,-98.7221254,19.6744327]}
{"name":"Ticul","other_names":{"name:ru":"Тикуль"},"display_name":"Ticul, Yucatán, México","address":{"city":"Ticul","county":"Ticul","state":"Yucatán","ISO3166-2-lvl4":"MX-YUC","country":"México","country_code":"mx"},"population":35183,"osm_type":"node","osm_id":287032774,"type":"city","location":[-89.5350323,20.3966705],"bbox":[-89.6950323,20.2366705,-89.3750323,20.5566705],"border":[{"name":"Ticul","display_name":"Ticul, Yucatán, México","address":{"county":"Ticul","state":"Yucatán","ISO3166-2-lvl4":"MX-YUC","country":"México","country_code":"mx"},"osm_type":"relation","osm_id":5961566,"type":"administrative","location":[-89.5543068153996,20.36438225],"bbox":[-89.7284036,20.2465061,-89.4275319,20.4833064]},{"name":"Ticul","other_names":{"name:es":"Ticul","name:ru":"Тикуль"},"display_name":"Ticul, Yucatán, 97860, México","address":{"city":"Ticul","county":"Ticul","state":"Yucatán","ISO3166-2-lvl4":"MX-YUC","postcode":"97860","country":"México","country_code":"mx"},"population":32796,"osm_type":"relation","osm_id":6415893,"type":"administrative","location":[-89.5350323,20.3966705],"bbox":[-89.5607863,20.3795539,-89.5159859,20.4159664]}]}
{"name":"Tijuana","other_names":{"name:ar":"تيخوانا","name:el":"Τιχουάνα","name:es":"Tijuana","name:ko":"티후아나","name:no":"Tijuana","name:ru":"Тихуана","name:zh":"蒂华纳"},"display_name":"Tijuana, Municipio de Tijuana, Baja California, 22320, México","address":{"city":"Tijuana","county":"Municipio de Tijuana","state":"Baja California","ISO3166-2-lvl4":"MX-BCN","postcode":"22320","country":"México","country_code":"mx"},"population":1810645,"osm_type":"node","osm_id":4145201092,"type":"city","location":[-117.019529,32.5317397],"bbox":[-117.179529,32.3717397,-116.859529,32.6917397]}
{"name":"Tizimín","display_name":"Tizimín, Tizimin, Tizimín, Yucatán, México","address":{"city":"Tizimín","county":"Tizimín","state":"Yucatán","ISO3166-2-lvl4":"MX-YUC","country":"México","country_code":"mx"},"population":52593,"osm_type":"node","osm_id":289795051,"type":"city","location":[-88.1524717,21.1428919],"bbox":[-88.3124717,20.9828919,-87.9924717,21.3028919],"border":[{"name":"Tizimín","display_name":"Tizimín, Yucatán, México","address":{"county":"Tizimín","state":"Yucatán","ISO3166-2-lvl4":"MX-YUC","country":"México","country_code":"mx"},"osm_type":"relation","osm_id":5961573,"type":"administrative","location":[-87.87283573279944,21.248597150000002],"bbox":[-88.2837729,20.9257367,-87.5331452,21.5716482]},{"name":"Tizimin","other_names":{"name:es":"Tizimin","alt_name":"Ciudad de Reyes","alt":"Tizimín"},"display_name":"Tizimin, Tizimín, Yucatán, 97775, México","address":{"city":"Tizimin","county":"Tizimín","state":"Yucatán","ISO3166-2-lvl4":"MX-YUC","postcode":"97775","country":"México","country_code":"mx"},"population":46971,"osm_type":"relation","osm_id":6267827,"type":"administrative","location":[-88.1524717,21.1428919],"bbox":[-88.1845022,21.1067806,-88.1117926,21.1663632]}]}
{"name":"Tlalnepantla","other_names":{"name:es":"Tlalnepantla","name:ru":"Тлальнепантла"},"display_name":"Tlalnepantla, Tlalnepantla de Baz, Estado de México, 54000, México","address":{"city":"Tlalnepantla","county":"Tlalnepantla de Baz","state":"Estado de México","ISO3166-2-lvl4":"MX-MEX","postcode":"54000","country":"México","country_code":"mx"},"population":653410,"osm_type":"node","osm_id":271524935,"type":"city","location":[-99.1955083,19.5370001],"bbox":[-99.3555083,19.3770001,-99.0355083,19.6970001]}
{"name":"Tlaquepaque","other_names":{"name:es":"Tlaquepaque","name:ru":"Тлакепаке","alt_name":"San Pedro Tlaquepaque"},"display_name":"Tlaquepaque, San Pedro Tlaquepaque, Región Centro, Jalisco, 45500, México","address":{"city":"Tlaquepaque","county":"San Pedro Tlaquepaque","state_district":"Región Centro","state":"Jalisco","ISO3166-2-lvl4":"MX-JAL","postcode":"45500","country":"México","country_code":"mx"},"population":650123,"osm_type":"node","osm_id":1618366658,"type":"city","location":[-103.3120428,20.6397718],"bbox":[-103.4720428,20.4797718,-103.1520428,20.7997718],"border":{"name":"San Pedro Tlaquepaque","other_names":{"name:es":"San Pedro Tlaquepaque","alt_name":"Municipio de Tlaquepaque","official_name":"Municipio de San Pedro Tlaquepaque"},"display_name":"San Pedro Tlaquepaque, Región Centro, Jalisco, México","address":{"county":"San Pedro Tlaquepaque","state_district":"Región Centro","state":"Jalisco","ISO3166-2-lvl4":"MX-JAL","country":"México","country_code":"mx"},"population":687127,"osm_type":"relation","osm_id":5606276,"type":"administrative","location":[-103.3388802826151,20.59257745],"bbox":[-103.4577876,20.5385474,-103.2393612,20.6467176]}}
{"name":"Tlaxcala","other_names":{"name:en":"Tlaxcala City","name:es":"Tlaxcala de Xicohténcatl","name:pl":"Tlaxcala","name:ru":"Тласкала-де-Хикотенкатль","name:uk":"Тлашкала","alt_name":"Ciudad de Tlaxcala","old_name":"Tlaxcallān Xīcohtēncatl","official_name":"Tlaxcala de Xicohténcatl"},"display_name":"Tlaxcala, Tlaxcala de Xicohténcatl, Municipio de Tlaxcala, Tlaxcala, 90000, México","address":{"city":"Tlaxcala","county":"Municipio de Tlaxcala","state":"Tlaxcala","ISO3166-2-lvl4":"MX-TLA","postcode":"90000","country":"México","country_code":"mx"},"population":13555,"osm_type":"node","osm_id":268380974,"type":"city","location":[-98.2386138,19.3167101],"bbox":[-98.3986138,19.1567101,-98.0786138,19.4767101],"border":{"name":"Tlaxcala de Xicohténcatl","display_name":"Tlaxcala de Xicohténcatl, Municipio de Tlaxcala, Tlaxcala, México","address":{"city":"Tlaxcala de Xicohténcatl","county":"Municipio de Tlaxcala","state":"Tlaxcala","ISO3166-2-lvl4":"MX-TLA","country":"México","country_code":"mx"},"osm_type":"relation","osm_id":1391414,"type":"administrative","location":[-98.23942258378776,19.316479100000002],"bbox":[-98.2513027,19.3028427,-98.2233169,19.3302435]}}
{"name":"Toluca","other_names":{"name:en":"Toluca","name:es":"Toluca","name:pl":"Toluca","name:ru":"Толука-де-Лердо","name:uk":"Толука-де-Лердо","old_name":"Tōllohcān","official_name":"Toluca de Lerdo"},"display_name":"Toluca, Estado de México, 50000, México","address":{"city":"Toluca","county":"Toluca","state":"Estado de México","ISO3166-2-lvl4":"MX-MEX","postcode":"50000","country":"México","country_code":"mx"},"population":223876,"osm_type":"node","osm_id":269914302,"type":"city","location":[-99.6569007,19.292545],"bbox":[-99.8169007,19.132545,-99.4969007,19.452545],"border":{"name":"Toluca","other_names":{"name:es":"Toluca","official_name":"Municipio de Toluca"},"display_name":"Toluca, Estado de México, México","address":{"county":"Toluca","state":"Estado de México","ISO3166-2-lvl4":"MX-MEX","country":"México","country_code":"mx"},"population":910608,"osm_type":"relation","osm_id":5606541,"type":"administrative","location":[-99.65263110930509,19.2843731],"bbox":[-99.7823545,19.076405,-99.528655,19.4922171]}}
{"name":"Tonalá","display_name":"Tonalá, Región Centro, Jalisco, 45400, México","address":{"city":"Tonalá","county":"Tonalá","state_district":"Región Centro","state":"Jalisco","ISO3166-2-lvl4":"MX-JAL","postcode":"45400","country":"México","country_code":"mx"},"population":442440,"osm_type":"node","osm_id":3120750874,"type":"city","location":[-103.2421263,20.6241367],"bbox":[-103.4021263,20.4641367,-103.0821263,20.7841367],"border":{"name":"Tonalá","other_names":{"name:es":"Tonalá","official_name":"Municipio de Tonalá"},"display_name":"Tonalá, Región Centro, Jalisco, México","address":{"county":"Tonalá","state_district":"Región Centro","state":"Jalisco","ISO3166-2-lvl4":"MX-JAL","country":"México","country_code":"mx"},"population":569913,"osm_type":"relation","osm_id":5606543,"type":"administrative","location":[-103.22273591034522,20.6185208],"bbox":[-103.2865452,20.5313366,-103.1370102,20.7057009]}}
{"name":"Torreón","other_names":{"name:ar":"توريون","name:el":"Τορρεόν","name:es":"Torreón","name:ru":"Торреон","alt_name:el":"Τορεόν"},"display_name":"Torreón, Coahuila, 27289, México","address":{"city":"Torreón","county":"Torreón","state":"Coahuila","ISO3166-2-lvl4":"MX-COA","postcode":"27289","country":"México","country_code":"mx"},"population":690193,"osm_type":"node","osm_id":4143719537,"type":"city","location":[-103.410512,25.542698],"bbox":[-103.570512,25.382698,-103.250512,25.702698],"border":{"name":"Torreón","other_names":{"name:es":"Torreón","official_name":"Municipio de Torreón"},"display_name":"Torreón, Coahuila, México","address":{"county":"Torreón","state":"Coahuila","ISO3166-2-lvl4":"MX-COA","country":"México","country_code":"mx"},"population":720848,"osm_type":"relation","osm_id":5606549,"type":"administrative","location":[-103.18007316331219,25.0572555],"bbox":[-103.5109366,24.793104,-102.9568068,25.6913869]}}
{"name":"Tulancingo","display_name":"Tulancingo, Tulancingo de Bravo, Hidalgo, México","address":{"city":"Tulancingo","state":"Hidalgo","ISO3166-2-lvl4":"MX-HID","country":"México","country_code":"mx"},"population":106163,"osm_type":"node","osm_id":272109623,"type":"city","location":[-98.3635381,20.0839585],"bbox":[-98.5235381,19.9239585,-98.2035381,20.2439585],"border":{"name":"Tulancingo de Bravo","other_names":{"name:es":"Tulancingo de Bravo","alt_name":"Municipio de Tulancingo","official_name":"Municipio de Tulancingo de Bravo","alt":"Tulancingo"},"display_name":"Tulancingo de Bravo, Hidalgo, México","address":{"city":"Tulancingo de Bravo","state":"Hidalgo","ISO3166-2-lvl4":"MX-HID","country":"México","country_code":"mx"},"population":168369,"osm_type":"relation","osm_id":5606559,"type":"administrative","location":[-98.3635381,20.0839585],"bbox":[-98.5021638,20.0521737,-98.2465569,20.2122984]}}
{"name":"Tuxpan","other_names":{"name:es":"Tuxpan","alt_name":"Túxpam","official_name":"Túxpam de Rodríguez Cano"},"display_name":"Tuxpan, Veracruz, 92800, México","address":{"city":"Tuxpan","municipality":"Tuxpan","county":"Tuxpan","state":"Veracruz","ISO3166-2-lvl4":"MX-VER","postcode":"92800","country":"México","country_code":"mx"},"population":89557,"osm_type":"node","osm_id":472257682,"type":"city","location":[-97.4045371,20.9518378],"bbox":[-97.5645371,20.7918378,-97.2445371,21.1118378],"border":[{"name":"Tuxpan","other_names":{"name:es":"Tuxpan","alt_name":"Municipio de Túxpam","official_name":"Municipio de Tuxpan"},"display_name":"Tuxpan, Veracruz, México","address":{"county":"Tuxpan","state":"Veracruz","ISO3166-2-lvl4":"MX-VER","country":"México","country_code":"mx"},"population":154600,"osm_type":"relation","osm_id":5572040,"type":"administrative","location":[-97.39366174892393,20.9298337],"bbox":[-97.6298297,20.7214613,-97.2180921,21.1380418]},{"name":"Tuxpan","display_name":"Tuxpan, Veracruz, México","address":{"municipality":"Tuxpan","county":"Tuxpan","state":"Veracruz","ISO3166-2-lvl4":"MX-VER","country":"México","country_code":"mx"},"osm_type":"relation","osm_id":5765359,"type":"administrative","location":[-97.40738177120747,20.95647915],"bbox":[-97.4384814,20.9245985,-97.3756943,20.9892373]}]}
{"name":"Tuxtepec","other_names":{"name:es":"Tuxtepec","official_name":"San Juan Bautista Tuxtepec"},"display_name":"Tuxtepec, San Juan Bautista Tuxtepec, Oaxaca, 68320, México","address":{"city":"Tuxtepec","county":"San Juan Bautista Tuxtepec","state":"Oaxaca","ISO3166-2-lvl4":"MX-OAX","postcode":"68320","country":"México","country_code":"mx"},"population":103609,"osm_type":"node","osm_id":458608675,"type":"city","location":[-96.1227767,18.0874632],"bbox":[-96.2827767,17.9274632,-95.9627767,18.2474632],"border":{"name":"San Juan Bautista Tuxtepec","other_names":{"name:es":"San Juan Bautista Tuxtepec","alt_name":"Municipio de Tuxtepec","official_name":"Municipio de San Juan Bautista Tuxtepec"},"display_name":"San Juan Bautista Tuxtepec, Oaxaca, México","address":{"county":"San Juan Bautista Tuxtepec","state":"Oaxaca","ISO3166-2-lvl4":"MX-OAX","country":"México","country_code":"mx"},"population":159452,"osm_type":"relation","osm_id":5999786,"type":"administrative","location":[-96.11441883995342,18.05040725],"bbox":[-96.3130977,17.7830848,-95.8484958,18.3180204]}}
{"name":"Tuxtla Gutiérrez","other_names":{"name:ar":"توكستلا غوتيريز","name:en":"Tuxtla Gutiérrez","name:es":"Tuxtla Gutiérrez","name:pl":"Tuxtla Gutiérrez","name:ru":"Тустла-Гутьеррес","name:uk":"Тустла-Ґутьєррес","int_name":"Tuxtla Gutierrez","alt_name:ar":"توستلا غوتييرز"},"display_name":"Tuxtla Gutiérrez, Chiapas, 29019, México","address":{"city":"Tuxtla Gutiérrez","county":"Tuxtla Gutiérrez","state":"Chiapas","ISO3166-2-lvl4":"MX-CHP","postcode":"29019","country":"México","country_code":"mx"},"population":578830,"osm_type":"node","osm_id":269911529,"type":"city","location":[-93.115959,16.753801],"bbox":[-93.275959,16.593801,-92.955959,16.913801],"border":{"name":"Tuxtla Gutiérrez","other_names":{"name:es":"Tuxtla Gutiérrez","official_name":"Municipio de Tuxtla Gutiérrez"},"display_name":"Tuxtla Gutiérrez, Chiapas, México","address":{"county":"Tuxtla Gutiérrez","state":"Chiapas","ISO3166-2-lvl4":"MX-CHP","country":"México","country_code":"mx"},"population":604147,"osm_type":"relation","osm_id":6000201,"type":"administrative","location":[-93.14180864260268,16.745218450000003],"bbox":[-93.24762,16.6451648,-93.0339082,16.8448529]}}
{"name":"Uriangato","display_name":"Uriangato, Guanajuato, 38980, México","address":{"city":"Uriangato","county":"Uriangato","state":"Guanajuato","ISO3166-2-lvl4":"MX-GUA","postcode":"38980","country":"México","country_code":"mx"},"population":177951,"osm_type":"node","osm_id":6254514011,"type":"city","location":[-101.1785848,20.1379568],"bbox":[-101.3385848,19.9779568,-101.0185848,20.2979568],"border":{"name":"Uriangato","display_name":"Uriangato, Guanajuato, México","address":{"county":"Uriangato","state":"Guanajuato","ISO3166-2-lvl4":"MX-GUA","country":"México","country_code":"mx"},"population":59305,"osm_type":"relation","osm_id":5606576,"type":"administrative","location":[-101.13804770804822,20.117735],"bbox":[-101.2123592,20.0344737,-101.0799284,20.2003337]}}
{"name":"Uruapan","display_name":"Uruapan, Michoacán, 60050, México","address":{"city":"Uruapan","county":"Uruapan","state":"Michoacán","ISO3166-2-lvl4":"MX-MIC","postcode":"60050","country":"México","country_code":"mx"},"population":299523,"osm_type":"node","osm_id":6131847349,"type":"city","location":[-102.0522647,19.4147269],"bbox":[-102.2122647,19.2547269,-101.8922647,19.5747269],"border":{"name":"Uruapan","other_names":{"name:es":"Uruapan","official_name":"Municipio de Uruapan"},"display_name":"Uruapan, Michoacán, México","address":{"county":"Uruapan","state":"Michoacán","ISO3166-2-lvl4":"MX-MIC","country":"México","country_code":"mx"},"population":356786,"osm_type":"relation","osm_id":5606579,"type":"administrative","location":[-102.03430719292024,19.4060961],"bbox":[-102.393633,19.1849645,-101.936159,19.6274856]}}
{"name":"Valladolid","other_names":{"alt_name":"Zací"},"display_name":"Valladolid, Yucatán, México","address":{"city":"Valladolid","county":"Valladolid","state":"Yucatán","ISO3166-2-lvl4":"MX-YUC","country":"México","country_code":"mx"},"population":56494,"osm_type":"node","osm_id":1668100219,"type":"city","location":[-88.2016999,20.6902505],"bbox":[-88.3616999,20.5302505,-88.0416999,20.8502505],"border":[{"name":"Valladolid","display_name":"Valladolid, Yucatán, México","address":{"county":"Valladolid","state":"Yucatán","ISO3166-2-lvl4":"MX-YUC","country":"México","country_code":"mx"},"population":74217,"osm_type":"relation","osm_id":5961580,"type":"administrative","location":[-88.09251780107554,20.61427875],"bbox":[-88.3249305,20.349537,-87.9380065,20.879773]},{"name":"Valladolid","other_names":{"name:es":"Valladolid","alt_name":"Zací;\"La Sultana del Oriente\"","_place_alt_name":"Zací"},"display_name":"Valladolid, Yucatán, México","address":{"city":"Valladolid","county":"Valladolid","state":"Yucatán","ISO3166-2-lvl4":"MX-YUC","country":"México","country_code":"mx"},"population":48973,"osm_type":"relation","osm_id":5621776,"type":"administrative","location":[-88.2016999,20.6902505],"bbox":[-88.2322171,20.6546575,-88.1736523,20.7140974]}]}
{"name":"Valle Hermoso","display_name":"Valle Hermoso, Tamaulipas, 87500, México","address":{"city":"Valle Hermoso","county":"Valle Hermoso","state":"Tamaulipas","ISO3166-2-lvl4":"MX-TAM","postcode":"87500","country":"México","country_code":"mx"},"population":48172,"osm_type":"node","osm_id":1139626165,"type":"city","location":[-97.813557,25.6696972],"bbox":[-97.973557,25.5096972,-97.653557,25.8296972],"border":{"name":"Valle Hermoso","other_names":{"name:es":"Valle Hermoso","official_name":"Municipio de Valle Hermoso"},"display_name":"Valle Hermoso, Tamaulipas, México","address":{"county":"Valle Hermoso","state":"Tamaulipas","ISO3166-2-lvl4":"MX-TAM","country":"México","country_code":"mx"},"population":60055,"osm_type":"relation","osm_id":5606580,"type":"administrative","location":[-97.83498479240592,25.782379249999998],"bbox":[-97.9793156,25.5037964,-97.7357723,26.0610319]}}
{"name":"Veracruz","other_names":{"name:en":"Veracruz City","name:es":"Veracruz","name:ru":"Веракрус","name:uk":"Веракрус","name:zh":"真十字架","alt_name":"Ciudad de Veracruz","name:zh-Hans":"真十字架","name:zh-Hant":"真十字架"},"display_name":"Veracruz, Municipio de Veracruz, Veracruz, 91701, México","address":{"city":"Veracruz","county":"Municipio de Veracruz","state":"Veracruz","ISO3166-2-lvl4":"MX-VER","postcode":"91701","country":"México","country_code":"mx"},"population":405952,"osm_type":"node","osm_id":472255714,"type":"city","location":[-96.1383572,19.2003429],"bbox":[-96.2983572,19.0403429,-95.9783572,19.3603429]}
{"name":"Villa de Álvarez","display_name":"Villa de Álvarez, Colima, 28987, México","address":{"city":"Villa de Álvarez","county":"Villa de Álvarez","state":"Colima","ISO3166-2-lvl4":"MX-COL","postcode":"28987","country":"México","country_code":"mx"},"population":147496,"osm_type":"node","osm_id":2829948098,"type":"city","location":[-103.736013,19.2651417],"bbox":[-103.896013,19.1051417,-103.576013,19.4251417],"border":{"name":"Villa de Álvarez","other_names":{"name:es":"Villa de Álvarez","official_name":"Municipio de Villa de Álvarez"},"display_name":"Villa de Álvarez, Colima, México","address":{"county":"Villa de Álvarez","state":"Colima","ISO3166-2-lvl4":"MX-COL","country":"México","country_code":"mx"},"population":149762,"osm_type":"relation","osm_id":5606623,"type":"administrative","location":[-103.92566140155904,19.32658855],"bbox":[-104.0292572,19.2201674,-103.6468107,19.4330223]}}
{"name":"Villahermosa","other_names":{"name:ar":"فيلا إرموسا","name:en":"Villahermosa","name:es":"Villahermosa","name:pl":"Villahermosa","name:ru":"Вильяэрмоса","name:uk":"Віяермоса","alt_name:ar":"فيلاهيرموسا"},"display_name":"Villahermosa, Centro, Tabasco, 86100, México","address":{"city":"Villahermosa","county":"Centro","state":"Tabasco","ISO3166-2-lvl4":"MX-TAB","postcode":"86100","country":"México","country_code":"mx"},"population":340060,"osm_type":"node","osm_id":269908777,"type":"city","location":[-92.9366326,17.9884657],"bbox":[-93.0966326,17.8284657,-92.7766326,18.1484657],"border":{"name":"Villahermosa","other_names":{"name:es":"Villahermosa","name:ar":"فيلا إرموسا","name:en":"Villahermosa","name:pl":"Villahermosa","name:ru":"Вильяэрмоса","name:uk":"Віяермоса","alt_name:ar":"فيلاهيرموسا"},"display_name":"Villahermosa, Centro, Tabasco, México","address":{"city":"Villahermosa","county":"Centro","state":"Tabasco","ISO3166-2-lvl4":"MX-TAB","country":"México","country_code":"mx"},"population":340060,"osm_type":"way","osm_id":772998847,"type":"city","location":[-92.9366326,17.9884657],"bbox":[-92.9875088,17.9571789,-92.885027,18.0463178]}}
{"name":"Xalapa","other_names":{"name:en":"Xalapa","name:es":"Xalapa-Enríquez","name:pl":"Xalapa-Enríquez","name:ru":"Халапа-Энрикес","name:uk":"Халапа","old_name":"Xālāpan","official_name":"Xalapa de Enríquez"},"display_name":"Xalapa, Veracruz, 91170, México","address":{"city":"Xalapa","county":"Xalapa","state":"Veracruz","ISO3166-2-lvl4":"MX-VER","postcode":"91170","country":"México","country_code":"mx"},"population":443063,"osm_type":"node","osm_id":959618169,"type":"city","location":[-96.9146374,19.5408338],"bbox":[-97.0746374,19.3808338,-96.7546374,19.7008338],"border":{"name":"Xalapa","other_names":{"name:es":"Xalapa","official_name":"Municipio de Xalapa"},"display_name":"Xalapa, Veracruz, México","address":{"county":"Xalapa","state":"Veracruz","ISO3166-2-lvl4":"MX-VER","country":"México","country_code":"mx"},"population":488531,"osm_type":"relation","osm_id":6037863,"type":"administrative","location":[-96.89982687205952,19.54203315],"bbox":[-96.9708428,19.4845915,-96.7989731,19.5995077]}}
{"name":"Xico","other_names":{"alt_name":"Valle de Chalco Solidaridad"},"display_name":"Xico, Valle de Chalco Solidaridad, Estado de México, México","address":{"city":"Xico","state":"Estado de México","ISO3166-2-lvl4":"MX-MEX","country":"México","country_code":"mx"},"population":356352,"osm_type":"node","osm_id":2777743655,"type":"city","location":[-98.9416122,19.282153],"bbox":[-99.1016122,19.122153,-98.7816122,19.442153],"border":{"name":"Valle de Chalco Solidaridad","other_names":{"name:es":"Valle de Chalco Solidaridad","alt_name":"Valle de Chalco Solidaridad","alt":"Xico"},"display_name":"Valle de Chalco Solidaridad, Estado de México, México","address":{"city":"Valle de Chalco Solidaridad","state":"Estado de México","ISO3166-2-lvl4":"MX-MEX","country":"México","country_code":"mx"},"population":356352,"osm_type":"relation","osm_id":5606582,"type":"administrative","location":[-98.9416122,19.282153],"bbox":[-98.9765306,19.2249543,-98.9111869,19.3401813]}}
{"name":"Zacatecas","other_names":{"name:en":"Zacatecas City","name:es":"Zacatecas","name:pl":"Zacatecas","name:ru":"Сакатекас","name:uk":"Сакатекас","alt_name":"Ciudad de Zacatecas"},"display_name":"Zacatecas, Municipio de Zacatecas, Zacatecas, 98000, México","address":{"city":"Zacatecas","county":"Municipio de Zacatecas","state":"Zacatecas","ISO3166-2-lvl4":"MX-ZAC","postcode":"98000","country":"México","country_code":"mx"},"population":138444,"osm_type":"node","osm_id":269906564,"type":"city","location":[-102.5722706,22.7753891],"bbox":[-102.7322706,22.6153891,-102.4122706,22.9353891]}
{"name":"Zamora","display_name":"Zamora, Michoacán, 59670, México","address":{"city":"Zamora","county":"Zamora","state":"Michoacán","ISO3166-2-lvl4":"MX-MIC","postcode":"59670","country":"México","country_code":"mx"},"population":154546,"osm_type":"node","osm_id":273611686,"type":"city","location":[-102.28363,19.9828948],"bbox":[-102.44363,19.8228948,-102.12363,20.1428948],"border":{"name":"Zamora","other_names":{"name:es":"Zamora","official_name":"Municipio de Zamora"},"display_name":"Zamora, Michoacán, México","address":{"county":"Zamora","state":"Michoacán","ISO3166-2-lvl4":"MX-MIC","country":"México","country_code":"mx"},"population":204860,"osm_type":"relation","osm_id":5606659,"type":"administrative","location":[-102.27126866876873,20.0290033],"bbox":[-102.4072034,19.938094,-102.1223637,20.1095095]}}
{"name":"Zapopan","other_names":{"name:es":"Zapopan","name:pt":"Zapopan","name:ru":"Сапопан"},"display_name":"Zapopan, Región Centro, Jalisco, 45101, México","address":{"city":"Zapopan","county":"Zapopan","state_district":"Región Centro","state":"Jalisco","ISO3166-2-lvl4":"MX-JAL","postcode":"45101","country":"México","country_code":"mx"},"population":1257547,"osm_type":"node","osm_id":1688949658,"type":"city","location":[-103.3913671,20.7211203],"bbox":[-103.5513671,20.5611203,-103.2313671,20.8811203],"border":{"name":"Zapopan","other_names":{"name:es":"Zapopan","official_name":"Municipio de Zapopan"},"display_name":"Zapopan, Región Centro, Jalisco, México","address":{"county":"Zapopan","state_district":"Región Centro","state":"Jalisco","ISO3166-2-lvl4":"MX-JAL","country":"México","country_code":"mx"},"population":1476491,"osm_type":"relation","osm_id":5606660,"type":"administrative","location":[-103.49110360410037,20.7916423],"bbox":[-103.6650327,20.5847883,-103.3059749,20.9982375]}}
{"name":"Zitácuaro","other_names":{"name:es":"Zitácuaro","official_name":"Heróica Zitácuaro"},"display_name":"Zitácuaro, Michoacán, 61506, México","address":{"city":"Zitácuaro","county":"Zitácuaro","state":"Michoacán","ISO3166-2-lvl4":"MX-MIC","postcode":"61506","country":"México","country_code":"mx"},"population":86901,"osm_type":"node","osm_id":273608650,"type":"city","location":[-100.355314,19.4344012],"bbox":[-100.515314,19.2744012,-100.195314,19.5944012],"border":{"name":"Zitácuaro","other_names":{"name:es":"Zitácuaro","official_name":"Municipio de Zitácuaro"},"display_name":"Zitácuaro, Michoacán, México","address":{"county":"Zitácuaro","state":"Michoacán","ISO3166-2-lvl4":"MX-MIC","country":"México","country_code":"mx"},"population":157056,"osm_type":"relation","osm_id":5606679,"type":"administrative","location":[-100.31786640456306,19.4363828],"bbox":[-100.4841242,19.3146735,-100.176715,19.5579309]}}
