{"name":"Ascensión de Guarayos","other_names":{"alt_name":"Ascension de Guarayos","alt_name:en":"Guarayos"},"display_name":"Ascensión de Guarayos, Municipio Ascencion de Guarayos, Provincia Guarayos, Santa Cruz, Bolivia","address":{"city":"Ascensión de Guarayos","county":"Provincia Guarayos","state":"Santa Cruz","ISO3166-2-lvl4":"BO-S","country":"Bolivia","country_code":"bo"},"population":19974,"osm_type":"node","osm_id":495027200,"type":"city","location":[-63.1876907,-15.8966537],"bbox":[-63.3476907,-16.0566537,-63.0276907,-15.7366537]}
{"name":"Bermejo","other_names":{"old_name":"Pozo del Bermejo"},"display_name":"Bermejo, Provincia Arce, Tarija, Bolivia","address":{"city":"Bermejo","county":"Provincia Arce","state":"Tarija","ISO3166-2-lvl4":"BO-T","country":"Bolivia","country_code":"bo"},"population":29564,"osm_type":"node","osm_id":198437954,"type":"city","location":[-64.3427757,-22.7327163],"bbox":[-64.5027757,-22.8927163,-64.1827757,-22.5727163],"border":{"name":"Bermejo","other_names":{"official_name":"Municipio Bermejo","old_name":"Pozo del Bermejo"},"display_name":"Bermejo, Provincia Arce, Tarija, Bolivia","address":{"city":"Bermejo","county":"Provincia Arce","state":"Tarija","ISO3166-2-lvl4":"BO-T","country":"Bolivia","country_code":"bo"},"population":27372,"osm_type":"relation","osm_id":4509723,"type":"administrative","location":[-64.3427757,-22.7327163],"bbox":[-64.4413517,-22.8742972,-64.2373788,-22.5639394]}}
{"name":"Camiri","other_names":{"name:ru":"Камири"},"display_name":"Camiri, Provincia Cordillera, Santa Cruz, Bolivia","address":{"city":"Camiri","county":"Provincia Cordillera","state":"Santa Cruz","ISO3166-2-lvl4":"BO-S","country":"Bolivia","country_code":"bo"},"population":33838,"osm_type":"node","osm_id":415166559,"type":"city","location":[-63.5203507,-20.0390682],"bbox":[-63.6803507,-20.1990682,-63.3603507,-19.8790682],"border":{"name":"Camiri","other_names":{"official_name":"Municipio Camiri","name:ru":"Камири"},"display_name":"Camiri, Provincia Cordillera, Santa Cruz, Bolivia","address":{"city":"Camiri","county":"Provincia Cordillera","state":"Santa Cruz","ISO3166-2-lvl4":"BO-S","country":"Bolivia","country_code":"bo"},"population":32092,"osm_type":"relation","osm_id":4511358,"type":"administrative","location":[-63.5203507,-20.0390682],"bbox":[-63.7007812,-20.266259,-63.2952858,-19.8601001]}}
{"name":"Caranavi","display_name":"Caranavi, La Paz, Bolivia","address":{"city":"Caranavi","county":"Caranavi","state":"La Paz","ISO3166-2-lvl4":"BO-L","country":"Bolivia","country_code":"bo"},"population":13569,"osm_type":"node","osm_id":417109570,"type":"city","location":[-67.5659334,-15.8339756],"bbox":[-67.7259334,-15.9939756,-67.4059334,-15.6739756],"border":[{"name":"Caranavi","other_names":{"official_name":"Provincia Caranavi"},"display_name":"Caranavi, La Paz, Bolivia","address":{"county":"Caranavi","state":"La Paz","ISO3166-2-lvl4":"BO-L","country":"Bolivia","country_code":"bo"},"population":51153,"osm_type":"relation","osm_id":4499470,"type":"administrative","location":[-67.39206985250422,-15.6946194],"bbox":[-67.6824639,-16.0584211,-67.1344711,-15.3310581]},{"name":"Caranavi","other_names":{"official_name":"Municipio Caranavi"},"display_name":"Caranavi, La Paz, Bolivia","address":{"city":"Caranavi","county":"Caranavi","state":"La Paz","ISO3166-2-lvl4":"BO-L","country":"Bolivia","country_code":"bo"},"population":13569,"osm_type":"relation","osm_id":4499792,"type":"administrative","location":[-67.5659334,-15.8339756],"bbox":[-67.6824639,-16.0584211,-67.2465425,-15.5609892]}]}
{"name":"Challapata","display_name":"Challapata, Eduardo Abaroa, Oruro, Bolivia","address":{"city":"Challapata","county":"Eduardo Abaroa","state":"Oruro","ISO3166-2-lvl4":"BO-O","country":"Bolivia","country_code":"bo"},"population":12684,"osm_type":"node","osm_id":795493512,"type":"city","location":[-66.7750462,-18.9021565],"bbox":[-66.9350462,-19.0621565,-66.6150462,-18.7421565],"border":{"name":"Challapata","other_names":{"official_name":"Municipio Challapata"},"display_name":"Challapata, Eduardo Abaroa, Oruro, Bolivia","address":{"city":"Challapata","county":"Eduardo Abaroa","state":"Oruro","ISO3166-2-lvl4":"BO-O","country":"Bolivia","country_code":"bo"},"population":26692,"osm_type":"relation","osm_id":4495088,"type":"administrative","location":[-66.7750462,-18.9021565],"bbox":[-66.9418483,-19.2469558,-66.0775757,-18.5901486]}}
{"name":"Cobija","other_names":{"name:ay":"Kuwixa","name:ja":"コビハ","name:ka":"კობიხა","name:lt":"Kobicha","name:qu":"Kuwiha","name:ru":"Кобиха","name:uk":"Кобіха","name:ur":"کوبیخا","name:zh":"科維哈","old_name:1906":"Puerto Bahía"},"display_name":"Cobija, Nicolás Suárez, Pando, Bolivia","address":{"city":"Cobija","county":"Nicolás Suárez","state":"Pando","ISO3166-2-lvl4":"BO-N","country":"Bolivia","country_code":"bo"},"population":44120,"osm_type":"node","osm_id":415166392,"type":"city","location":[-68.7538149,-11.0184614],"bbox":[-68.9138149,-11.1784614,-68.5938149,-10.8584614],"border":{"name":"Cobija","other_names":{"official_name":"Municipio Cobija","name:ay":"Kuwixa","name:ja":"コビハ","name:ka":"კობიხა","name:lt":"Kobicha","name:qu":"Kuwiha","name:ru":"Кобиха","name:uk":"Кобіха","name:ur":"کوبیخا","name:zh":"科維哈","old_name:1906":"Puerto Bahía"},"display_name":"Cobija, Nicolás Suárez, Pando, 69932-000, Bolivia","address":{"city":"Cobija","county":"Nicolás Suárez","state":"Pando","ISO3166-2-lvl4":"BO-N","postcode":"69932-000","country":"Bolivia","country_code":"bo"},"population":22324,"osm_type":"relation","osm_id":4050223,"type":"administrative","location":[-68.7538149,-11.0184614],"bbox":[-69.0002445,-11.1447621,-68.711544,-10.9873842]}}
{"name":"Cochabamba","other_names":{"name:ay":"Quchapampa","name:de":"Cochabamba","name:en":"Cochabamba","name:fr":"Cochabamba","name:it":"Cochabamba","name:pt":"Cochabamba","name:qu":"Quchapampa","name:ru":"Кочабамба","loc_name":"Cocha","short_name":"Cbba","old_name:qu":"Khocha Pampa","old_name:1786":"Villa de Oropesa"},"display_name":"Cochabamba, Cercado, Cochabamba, Bolivia","address":{"city":"Cochabamba","county":"Cercado","state":"Cochabamba","ISO3166-2-lvl4":"BO-C","country":"Bolivia","country_code":"bo"},"population":632013,"osm_type":"node","osm_id":313811401,"type":"city","location":[-66.1568983,-17.3936114],"bbox":[-66.3168983,-17.5536114,-65.9968983,-17.2336114],"border":{"name":"Cochabamba","other_names":{"official_name":"Municipio Cochabamba","name:ay":"Quchapampa","name:de":"Cochabamba","name:en":"Cochabamba","name:fr":"Cochabamba","name:it":"Cochabamba","name:pt":"Cochabamba","name:qu":"Quchapampa","name:ru":"Кочабамба","loc_name":"Cocha","short_name":"Cbba","old_name:qu":"Khocha Pampa","old_name:1786":"Villa de Oropesa"},"display_name":"Cochabamba, Cercado, Cochabamba, Bolivia","address":{"city":"Cochabamba","county":"Cercado","state":"Cochabamba","ISO3166-2-lvl4":"BO-C","country":"Bolivia","country_code":"bo"},"population":856198,"osm_type":"relation","osm_id":4503297,"type":"administrative","location":[-66.1568983,-17.3936114],"bbox":[-66.2783356,-17.5257851,-66.0701785,-17.2781245]}}
{"name":"Colcapirhua","other_names":{"name:qu":"Qullqapirwa"},"display_name":"Colcapirhua, Quillacollo, Cochabamba, Bolivia","address":{"city":"Colcapirhua","county":"Quillacollo","state":"Cochabamba","ISO3166-2-lvl4":"BO-C","country":"Bolivia","country_code":"bo"},"population":51990,"osm_type":"node","osm_id":792641816,"type":"city","location":[-66.2407833,-17.3885131],"bbox":[-66.4007833,-17.5485131,-66.0807833,-17.2285131],"border":{"name":"Colcapirhua","other_names":{"official_name":"Municipio Colcapirhua","old_name:1985":"Cantón Santa Rosa","name:qu":"Qullqapirwa"},"display_name":"Colcapirhua, Quillacollo, Cochabamba, Bolivia","address":{"city":"Colcapirhua","county":"Quillacollo","state":"Cochabamba","ISO3166-2-lvl4":"BO-C","country":"Bolivia","country_code":"bo"},"population":48631,"osm_type":"relation","osm_id":4505696,"type":"administrative","location":[-66.2407833,-17.3885131],"bbox":[-66.2550179,-17.425631,-66.2070358,-17.3503527]}}
{"name":"Cotoca","display_name":"Cotoca, Municipio Cotoca, Provincia Andrés Ibáñez, Santa Cruz, Bolivia","address":{"city":"Cotoca","county":"Provincia Andrés Ibáñez","state":"Santa Cruz","ISO3166-2-lvl4":"BO-S","country":"Bolivia","country_code":"bo"},"population":19482,"osm_type":"node","osm_id":695661633,"type":"city","location":[-62.9962235,-17.7545038],"bbox":[-63.1562235,-17.9145038,-62.8362235,-17.5945038]}
{"name":"El Alto","other_names":{"name:ru":"Эль-Альто","old_name:1957-07-03--1970-04-23":"El Alto de La Paz","old_name:1970-04-23--1985-03-06":"El Alto de La Paz"},"display_name":"El Alto, Pedro Domingo Murillo, La Paz, Bolivia","address":{"city":"El Alto","county":"Pedro Domingo Murillo","state":"La Paz","ISO3166-2-lvl4":"BO-L","country":"Bolivia","country_code":"bo"},"population":846880,"osm_type":"node","osm_id":568203308,"type":"city","location":[-68.1624337,-16.5048228],"bbox":[-68.3224337,-16.6648228,-68.0024337,-16.3448228],"border":{"name":"El Alto","other_names":{"official_name":"Municipio El Alto","name:ru":"Эль-Альто","old_name:1957-07-03--1970-04-23":"El Alto de La Paz","old_name:1970-04-23--1985-03-06":"El Alto de La Paz"},"display_name":"El Alto, Pedro Domingo Murillo, La Paz, Bolivia","address":{"city":"El Alto","county":"Pedro Domingo Murillo","state":"La Paz","ISO3166-2-lvl4":"BO-L","country":"Bolivia","country_code":"bo"},"population":405492,"osm_type":"relation","osm_id":4499832,"type":"administrative","location":[-68.1624337,-16.5048228],"bbox":[-68.32013,-16.6669839,-68.108265,-16.2626621]}}
{"name":"El Torno","display_name":"El Torno, Municipio El Torno, Provincia Andrés Ibáñez, Santa Cruz, Bolivia","address":{"city":"El Torno","county":"Provincia Andrés Ibáñez","state":"Santa Cruz","ISO3166-2-lvl4":"BO-S","country":"Bolivia","country_code":"bo"},"population":16717,"osm_type":"node","osm_id":794364281,"type":"city","location":[-63.3826134,-17.9918059],"bbox":[-63.5426134,-18.1518059,-63.2226134,-17.8318059],"border":{"name":"Municipio El Torno","other_names":{"alt":"El Torno"},"display_name":"Municipio El Torno, Provincia Andrés Ibáñez, Santa Cruz, Bolivia","address":{"city":"Municipio El Torno","county":"Provincia Andrés Ibáñez","state":"Santa Cruz","ISO3166-2-lvl4":"BO-S","country":"Bolivia","country_code":"bo"},"population":23582,"osm_type":"relation","osm_id":4511524,"type":"administrative","location":[-63.3826134,-17.9918059],"bbox":[-63.6467582,-18.2587164,-63.2706205,-17.809713]}}
{"name":"Guayaramerín","other_names":{"name:en":"Guayaramerín","old_name:1892-1905":"Puerto Palmira","old_name:1905-1915":"Puerto Sucre"},"display_name":"Guayaramerín, Antonio Vaca Díez, Beni, Bolivia","address":{"city":"Guayaramerín","county":"Antonio Vaca Díez","state":"Beni","ISO3166-2-lvl4":"BO-B","country":"Bolivia","country_code":"bo"},"population":35803,"osm_type":"node","osm_id":415166396,"type":"city","location":[-65.3550455,-10.818915],"bbox":[-65.5150455,-10.978915,-65.1950455,-10.658915],"border":{"name":"Guayaramerín","other_names":{"official_name":"Municipio Guayaramerín","name:en":"Guayaramerín","old_name:1892-1905":"Puerto Palmira","old_name:1905-1915":"Puerto Sucre"},"display_name":"Guayaramerín, Antonio Vaca Díez, Beni, Bolivia","address":{"city":"Guayaramerín","county":"Antonio Vaca Díez","state":"Beni","ISO3166-2-lvl4":"BO-B","country":"Bolivia","country_code":"bo"},"population":40444,"osm_type":"relation","osm_id":4054846,"type":"administrative","location":[-65.3550455,-10.818915],"bbox":[-65.741567,-11.9987623,-65.0204228,-10.3805488]}}
{"name":"Huanuni","other_names":{"alt_name":"Villa de Huanuni"},"display_name":"Huanuni, Pantaleón Dalence, Oruro, Bolivia","address":{"city":"Huanuni","county":"Pantaleón Dalence","state":"Oruro","ISO3166-2-lvl4":"BO-O","country":"Bolivia","country_code":"bo"},"population":20336,"osm_type":"node","osm_id":794383256,"type":"city","location":[-66.8346828,-18.2857835],"bbox":[-66.9946828,-18.4457835,-66.6746828,-18.1257835],"border":{"name":"Huanuni","other_names":{"official_name":"Municipio Huanuni","alt_name":"Villa de Huanuni"},"display_name":"Huanuni, Pantaleón Dalence, Oruro, Bolivia","address":{"city":"Huanuni","county":"Pantaleón Dalence","state":"Oruro","ISO3166-2-lvl4":"BO-O","country":"Bolivia","country_code":"bo"},"population":24667,"osm_type":"relation","osm_id":4495052,"type":"administrative","location":[-66.8346828,-18.2857835],"bbox":[-66.9116665,-18.4332827,-66.528338,-18.0374884]}}
{"name":"La Guardia","display_name":"La Guardia, Municipio La Guardia, Provincia Andrés Ibáñez, Santa Cruz, Bolivia","address":{"city":"La Guardia","county":"Provincia Andrés Ibáñez","state":"Santa Cruz","ISO3166-2-lvl4":"BO-S","country":"Bolivia","country_code":"bo"},"population":74546,"osm_type":"node","osm_id":794507239,"type":"city","location":[-63.3310809,-17.8919353],"bbox":[-63.4910809,-18.0519353,-63.1710809,-17.7319353],"border":{"name":"Municipio La Guardia","other_names":{"alt":"La Guardia"},"display_name":"Municipio La Guardia, Provincia Andrés Ibáñez, Santa Cruz, Bolivia","address":{"city":"Municipio La Guardia","county":"Provincia Andrés Ibáñez","state":"Santa Cruz","ISO3166-2-lvl4":"BO-S","country":"Bolivia","country_code":"bo"},"population":21988,"osm_type":"relation","osm_id":4511525,"type":"administrative","location":[-63.3310809,-17.8919353],"bbox":[-63.4868815,-18.2714498,-62.9810799,-17.8329871]}}
{"name":"La Paz","other_names":{"name:am":"ላፓዝ","name:ar":"لاباز","name:ay":"Chuquiago Marka","name:az":"La Pas","name:be":"Ла-Пас","name:bg":"Ла Пас","name:ca":"La Paz","name:de":"La Paz","name:el":"Λα Παζ","name:en":"La Paz","name:eo":"La-Pazo","name:fa":"لاپاز","name:fr":"La Paz","name:gl":"La Paz","name:he":"לה פאס","name:hi":"ला पास","name:hy":"Լա Պաս","name:id":"La Paz","name:is":"La Paz","name:it":"La Paz","name:ja":"ラパス","name:ka":"ლა-პასი","name:ko":"라파스","name:ku":"Lapaz","name:la":"Paxia","name:lt":"La Pasas","name:lv":"Lapasa","name:mi":"La Paz","name:mk":"Ла Паз","name:mr":"ला पाझ","name:nl":"La Paz","name:no":"La Paz","name:oc":"La Paz","name:os":"Ла-Пас","name:pl":"La Paz","name:pt":"La Paz","name:qu":"Chuqiyapu","name:ru":"Ла-Пас","name:sr":"Ла Паз","name:sv":"La Paz","name:ta":"லா பாஸ்","name:th":"ลาปาซ","name:tr":"La Paz","name:uk":"Ла-Пас","name:ur":"لا پاز","name:yi":"לא פאז","name:zh":"拉巴斯","name:ckb":"لاپاز","official_name":"Nuestra Señora de La Paz"},"display_name":"La Paz, Pedro Domingo Murillo, La Paz, Bolivia","address":{"city":"La Paz","county":"Pedro Domingo Murillo","state":"La Paz","ISO3166-2-lvl4":"BO-L","country":"Bolivia","country_code":"bo"},"population":758845,"osm_type":"node","osm_id":1975648720,"type":"city","location":[-68.1336229,-16.4955455],"bbox":[-68.2936229,-16.6555455,-67.9736229,-16.3355455],"border":{"name":"La Paz","other_names":{"official_name":"Municipio Nuestra Señora de La Paz","name:am":"ላፓዝ","name:ar":"لاباز","name:ay":"Chuquiago Marka","name:az":"La Pas","name:be":"Ла-Пас","name:bg":"Ла Пас","name:ca":"La Paz","name:de":"La Paz","name:el":"Λα Παζ","name:en":"La Paz","name:eo":"La-Pazo","name:fa":"لاپاز","name:fr":"La Paz","name:gl":"La Paz","name:he":"לה פאס","name:hi":"ला पास","name:hy":"Լա Պաս","name:id":"La Paz","name:is":"La Paz","name:it":"La Paz","name:ja":"ラパス","name:ka":"ლა-პასი","name:ko":"라파스","name:ku":"Lapaz","name:la":"Paxia","name:lt":"La Pasas","name:lv":"Lapasa","name:mi":"La Paz","name:mk":"Ла Паз","name:mr":"ला पाझ","name:nl":"La Paz","name:no":"La Paz","name:oc":"La Paz","name:os":"Ла-Пас","name:pl":"La Paz","name:pt":"La Paz","name:qu":"Chuqiyapu","name:ru":"Ла-Пас","name:sr":"Ла Паз","name:sv":"La Paz","name:ta":"லா பாஸ்","name:th":"ลาปาซ","name:tr":"La Paz","name:uk":"Ла-Пас","name:ur":"لا پاز","name:yi":"לא פאז","name:zh":"拉巴斯","name:ckb":"لاپاز","_place_official_name":"Nuestra Señora de La Paz"},"display_name":"La Paz, Pedro Domingo Murillo, La Paz, Bolivia","address":{"city":"La Paz","county":"Pedro Domingo Murillo","state":"La Paz","ISO3166-2-lvl4":"BO-L","country":"Bolivia","country_code":"bo"},"population":715900,"osm_type":"relation","osm_id":4499870,"type":"administrative","location":[-68.1336229,-16.4955455],"bbox":[-68.2458469,-16.5923149,-67.6237089,-15.7586421]}}
{"name":"Llallagua","other_names":{"name:qu":"Llallawa"},"display_name":"Llallagua, Provincia Rafael Bustillo, Potosí, Bolivia","address":{"city":"Llallagua","county":"Provincia Rafael Bustillo","state":"Potosí","ISO3166-2-lvl4":"BO-P","country":"Bolivia","country_code":"bo"},"population":25375,"osm_type":"node","osm_id":794377784,"type":"city","location":[-66.5851833,-18.4227385],"bbox":[-66.7451833,-18.5827385,-66.4251833,-18.2627385],"border":{"name":"Llallagua","other_names":{"official_name":"Municipio Llallagua","name:qu":"Llallawa"},"display_name":"Llallagua, Provincia Rafael Bustillo, Potosí, Bolivia","address":{"city":"Llallagua","county":"Provincia Rafael Bustillo","state":"Potosí","ISO3166-2-lvl4":"BO-P","country":"Bolivia","country_code":"bo"},"population":25375,"osm_type":"relation","osm_id":4126928,"type":"administrative","location":[-66.5851833,-18.4227385],"bbox":[-66.7407496,-18.4712927,-66.3962435,-18.2552959]}}
{"name":"Minero","other_names":{"alt_name":"Mineros"},"display_name":"Minero, Municipio Mineros, Provincia Obispo Santistevan, Santa Cruz, Bolivia","address":{"city":"Minero","county":"Provincia Obispo Santistevan","state":"Santa Cruz","ISO3166-2-lvl4":"BO-S","country":"Bolivia","country_code":"bo"},"population":18340,"osm_type":"node","osm_id":494327421,"type":"city","location":[-63.2332727,-17.1175579],"bbox":[-63.3932727,-17.2775579,-63.0732727,-16.9575579],"border":{"name":"Municipio Mineros","other_names":{"alt_name":"Mineros","alt":"Minero"},"display_name":"Municipio Mineros, Provincia Obispo Santistevan, Santa Cruz, Bolivia","address":{"city":"Municipio Mineros","county":"Provincia Obispo Santistevan","state":"Santa Cruz","ISO3166-2-lvl4":"BO-S","country":"Bolivia","country_code":"bo"},"population":34452,"osm_type":"relation","osm_id":4511510,"type":"administrative","location":[-63.2332727,-17.1175579],"bbox":[-63.4486142,-17.1661969,-63.0439062,-16.9456548]}}
{"name":"Montero","other_names":{"name:en":"Montero","name:ru":"Монтеро"},"display_name":"Montero, Municipio Montero, Provincia Obispo Santistevan, Santa Cruz, Bolivia","address":{"city":"Montero","county":"Provincia Obispo Santistevan","state":"Santa Cruz","ISO3166-2-lvl4":"BO-S","country":"Bolivia","country_code":"bo"},"population":107298,"osm_type":"node","osm_id":415165546,"type":"city","location":[-63.2557687,-17.3420202],"bbox":[-63.4157687,-17.5020202,-63.0957687,-17.1820202],"border":{"name":"Municipio Montero","other_names":{"name:en":"Montero","name:ru":"Монтеро","alt":"Montero"},"display_name":"Municipio Montero, Provincia Obispo Santistevan, Santa Cruz, Bolivia","address":{"city":"Municipio Montero","county":"Provincia Obispo Santistevan","state":"Santa Cruz","ISO3166-2-lvl4":"BO-S","country":"Bolivia","country_code":"bo"},"population":58569,"osm_type":"relation","osm_id":4511511,"type":"administrative","location":[-63.2557687,-17.3420202],"bbox":[-63.3471713,-17.4189881,-63.0910391,-17.2106873]}}
{"name":"Municipio Aiquile","display_name":"Municipio Aiquile, Campero, Cochabamba, Bolivia","address":{"city":"Municipio Aiquile","county":"Campero","state":"Cochabamba","ISO3166-2-lvl4":"BO-C","country":"Bolivia","country_code":"bo"},"population":20795,"osm_type":"relation","osm_id":4506120,"type":"administrative","location":[-65.07960248260648,-18.2968206],"bbox":[-65.3548406,-18.6817367,-64.8143506,-17.9119816],"inferred_type":"city"}
{"name":"Municipio Alalay","display_name":"Municipio Alalay, Mizque, Cochabamba, Bolivia","address":{"city":"Municipio Alalay","county":"Mizque","state":"Cochabamba","ISO3166-2-lvl4":"BO-C","country":"Bolivia","country_code":"bo"},"population":3613,"osm_type":"relation","osm_id":4506107,"type":"administrative","location":[-65.63589581950203,-17.78814865],"bbox":[-65.7482006,-17.9054083,-65.4995896,-17.6713018],"inferred_type":"city"}
{"name":"Municipio Ancoraimes","display_name":"Municipio Ancoraimes, Provincia Omasuyos, La Paz, Bolivia","address":{"city":"Municipio Ancoraimes","county":"Provincia Omasuyos","state":"La Paz","ISO3166-2-lvl4":"BO-L","country":"Bolivia","country_code":"bo"},"population":13653,"osm_type":"relation","osm_id":4500357,"type":"administrative","location":[-68.87889545970452,-15.85413715],"bbox":[-68.9965599,-15.9540317,-68.7653535,-15.7545213],"inferred_type":"city"}
{"name":"Municipio Antequera (Bolivar)","display_name":"Municipio Antequera (Bolivar), Provincia Poopó, Oruro, Bolivia","address":{"city":"Municipio Antequera (Bolivar)","county":"Provincia Poopó","state":"Oruro","ISO3166-2-lvl4":"BO-O","country":"Bolivia","country_code":"bo"},"population":3233,"osm_type":"relation","osm_id":4495077,"type":"administrative","location":[-66.75946790726621,-18.536005600000003],"bbox":[-66.9315404,-18.6609382,-66.694382,-18.4100234],"inferred_type":"city"}
{"name":"Municipio Anzaldo","display_name":"Municipio Anzaldo, Esteban Arze, Cochabamba, Bolivia","address":{"city":"Municipio Anzaldo","county":"Esteban Arze","state":"Cochabamba","ISO3166-2-lvl4":"BO-C","country":"Bolivia","country_code":"bo"},"population":9807,"osm_type":"relation","osm_id":4505759,"type":"administrative","location":[-65.93835313480402,-17.819237049999998],"bbox":[-66.0730351,-17.9944058,-65.7859042,-17.6449465],"inferred_type":"city"}
{"name":"Municipio Arani","display_name":"Municipio Arani, Arani, Cochabamba, Bolivia","address":{"city":"Municipio Arani","county":"Arani","state":"Cochabamba","ISO3166-2-lvl4":"BO-C","country":"Bolivia","country_code":"bo"},"population":9504,"osm_type":"relation","osm_id":4505812,"type":"administrative","location":[-65.73858830200237,-17.59694975],"bbox":[-65.8114678,-17.6823789,-65.6483768,-17.5117547],"inferred_type":"city"}
{"name":"Municipio Arque","display_name":"Municipio Arque, Arque, Cochabamba, Bolivia","address":{"city":"Municipio Arque","county":"Arque","state":"Cochabamba","ISO3166-2-lvl4":"BO-C","country":"Bolivia","country_code":"bo"},"population":8978,"osm_type":"relation","osm_id":4505715,"type":"administrative","location":[-66.42911285138663,-17.823218],"bbox":[-66.5869427,-17.9760715,-66.2514442,-17.6719111],"inferred_type":"city"}
{"name":"Municipio Ascencion de Guarayos","display_name":"Municipio Ascencion de Guarayos, Provincia Guarayos, Santa Cruz, Bolivia","address":{"city":"Municipio Ascencion de Guarayos","county":"Provincia Guarayos","state":"Santa Cruz","ISO3166-2-lvl4":"BO-S","country":"Bolivia","country_code":"bo"},"population":11137,"osm_type":"relation","osm_id":4511239,"type":"administrative","location":[-63.614708193943066,-15.20795985],"bbox":[-63.9786048,-16.1239396,-62.7684367,-14.2918821],"inferred_type":"city"}
{"name":"Municipio Aucapata","display_name":"Municipio Aucapata, Provincia Muñecas, La Paz, Bolivia","address":{"city":"Municipio Aucapata","county":"Provincia Muñecas","state":"La Paz","ISO3166-2-lvl4":"BO-L","country":"Bolivia","country_code":"bo"},"population":4075,"osm_type":"relation","osm_id":4499718,"type":"administrative","location":[-68.69116275814253,-15.4403215],"bbox":[-68.806546,-15.532801,-68.5948293,-15.347105],"inferred_type":"city"}
{"name":"Municipio Aullagas","display_name":"Municipio Aullagas, Ladislao Cabrera, Oruro, Bolivia","address":{"city":"Municipio Aullagas","county":"Ladislao Cabrera","state":"Oruro","ISO3166-2-lvl4":"BO-O","country":"Bolivia","country_code":"bo"},"population":1602,"osm_type":"relation","osm_id":4495038,"type":"administrative","location":[-67.1442663765572,-19.25682155],"bbox":[-67.3777231,-19.4493533,-66.9874376,-19.0641927],"inferred_type":"city"}
{"name":"Municipio Ayata","display_name":"Municipio Ayata, Provincia Muñecas, La Paz, Bolivia","address":{"city":"Municipio Ayata","county":"Provincia Muñecas","state":"La Paz","ISO3166-2-lvl4":"BO-L","country":"Bolivia","country_code":"bo"},"population":5140,"osm_type":"relation","osm_id":4499719,"type":"administrative","location":[-68.75486756325415,-15.3534315],"bbox":[-68.8851917,-15.5555667,-68.437258,-15.1513653],"inferred_type":"city"}
{"name":"Municipio Ayo Ayo","display_name":"Municipio Ayo Ayo, Provincia Aroma, La Paz, Bolivia","address":{"city":"Municipio Ayo Ayo","county":"Provincia Aroma","state":"La Paz","ISO3166-2-lvl4":"BO-L","country":"Bolivia","country_code":"bo"},"population":6407,"osm_type":"relation","osm_id":4500834,"type":"administrative","location":[-68.02211800431328,-17.06144835],"bbox":[-68.1759329,-17.1966766,-67.8627654,-16.9257077],"inferred_type":"city"}
{"name":"Municipio Baures","display_name":"Municipio Baures, Provincia de Iténez, Beni, Bolivia","address":{"city":"Municipio Baures","county":"Provincia de Iténez","state":"Beni","ISO3166-2-lvl4":"BO-B","country":"Bolivia","country_code":"bo"},"population":5264,"osm_type":"relation","osm_id":4056838,"type":"administrative","location":[-62.68277391870372,-13.56684995],"bbox":[-63.8151284,-14.2972906,-61.5281234,-12.8364668],"inferred_type":"city"}
{"name":"Municipio Belén de Andamarca","display_name":"Municipio Belén de Andamarca, Provincia Sud Carangas, Oruro, Bolivia","address":{"city":"Municipio Belén de Andamarca","county":"Provincia Sud Carangas","state":"Oruro","ISO3166-2-lvl4":"BO-O","country":"Bolivia","country_code":"bo"},"population":1023,"osm_type":"relation","osm_id":4495026,"type":"administrative","location":[-67.76314977278975,-18.881718],"bbox":[-67.9654092,-19.0991377,-67.5703716,-18.6641988],"inferred_type":"city"}
{"name":"Municipio Bella Flor","display_name":"Municipio Bella Flor, Nicolás Suárez, Pando, Bolivia","address":{"city":"Municipio Bella Flor","county":"Nicolás Suárez","state":"Pando","ISO3166-2-lvl4":"BO-N","country":"Bolivia","country_code":"bo"},"population":2305,"osm_type":"relation","osm_id":4050084,"type":"administrative","location":[-67.90612285529672,-10.807381],"bbox":[-68.5001743,-11.2994084,-67.1875025,-10.315046],"inferred_type":"city"}
{"name":"Municipio Bolivar","display_name":"Municipio Bolivar, Bolívar, Cochabamba, Bolivia","address":{"city":"Municipio Bolivar","county":"Bolívar","state":"Cochabamba","ISO3166-2-lvl4":"BO-C","country":"Bolivia","country_code":"bo"},"population":7081,"osm_type":"relation","osm_id":4505716,"type":"administrative","location":[-66.63559007390992,-18.0133407],"bbox":[-66.8219278,-18.1356031,-66.3953302,-17.8885079],"inferred_type":"city"}
{"name":"Municipio Bolpebra","display_name":"Municipio Bolpebra, Nicolás Suárez, Pando, Bolivia","address":{"city":"Municipio Bolpebra","county":"Nicolás Suárez","state":"Pando","ISO3166-2-lvl4":"BO-N","country":"Bolivia","country_code":"bo"},"population":1194,"osm_type":"relation","osm_id":4050264,"type":"administrative","location":[-69.21696167409351,-11.172145650000001],"bbox":[-69.5718107,-11.4682678,-69.0001325,-10.9254109],"inferred_type":"city"}
{"name":"Municipio Boyuibe","display_name":"Municipio Boyuibe, Provincia Cordillera, Santa Cruz, Bolivia","address":{"city":"Municipio Boyuibe","county":"Provincia Cordillera","state":"Santa Cruz","ISO3166-2-lvl4":"BO-S","country":"Bolivia","country_code":"bo"},"population":3741,"osm_type":"relation","osm_id":4511356,"type":"administrative","location":[-63.02221952421702,-20.310799199999998],"bbox":[-63.4321069,-20.4620618,-62.6968344,-20.1581768],"inferred_type":"city"}
{"name":"Municipio Buena Vista","display_name":"Municipio Buena Vista, Provincia Ichilo, Santa Cruz, Bolivia","address":{"city":"Municipio Buena Vista","county":"Provincia Ichilo","state":"Santa Cruz","ISO3166-2-lvl4":"BO-S","country":"Bolivia","country_code":"bo"},"population":10784,"osm_type":"relation","osm_id":3381198,"type":"administrative","location":[-63.73316591340648,-17.6780392],"bbox":[-64.0170716,-18.0254377,-63.4570539,-17.3307495],"inferred_type":"city"}
{"name":"Municipio Cabezas","display_name":"Municipio Cabezas, Provincia Cordillera, Santa Cruz, Bolivia","address":{"city":"Municipio Cabezas","county":"Provincia Cordillera","state":"Santa Cruz","ISO3166-2-lvl4":"BO-S","country":"Bolivia","country_code":"bo"},"population":16808,"osm_type":"relation","osm_id":4511357,"type":"administrative","location":[-63.32830219407576,-18.47735255],"bbox":[-63.7076774,-18.9365652,-62.8048144,-18.0165585],"inferred_type":"city"}
{"name":"Municipio Cairoma","display_name":"Municipio Cairoma, Provincia Loayza, La Paz, Bolivia","address":{"city":"Municipio Cairoma","county":"Provincia Loayza","state":"La Paz","ISO3166-2-lvl4":"BO-L","country":"Bolivia","country_code":"bo"},"population":9653,"osm_type":"relation","osm_id":4502103,"type":"administrative","location":[-67.59719634652592,-16.83728695],"bbox":[-67.7088374,-17.0112038,-67.4416932,-16.6637707],"inferred_type":"city"}
{"name":"Municipio Cajuata","display_name":"Municipio Cajuata, Provincia Inquisivi, La Paz, Bolivia","address":{"city":"Municipio Cajuata","county":"Provincia Inquisivi","state":"La Paz","ISO3166-2-lvl4":"BO-L","country":"Bolivia","country_code":"bo"},"population":8681,"osm_type":"relation","osm_id":4502179,"type":"administrative","location":[-67.30128451926693,-16.609054],"bbox":[-67.5411849,-16.7994102,-67.0636408,-16.4187717],"inferred_type":"city"}
{"name":"Municipio Calacoto","display_name":"Municipio Calacoto, Provincia Pacajes, La Paz, Bolivia","address":{"city":"Municipio Calacoto","county":"Provincia Pacajes","state":"La Paz","ISO3166-2-lvl4":"BO-L","country":"Bolivia","country_code":"bo"},"population":7330,"osm_type":"relation","osm_id":4500783,"type":"administrative","location":[-68.60492692860242,-17.59534725],"bbox":[-69.1735881,-18.0442164,-68.3938674,-17.14676],"inferred_type":"city"}
{"name":"Municipio Calamarca","display_name":"Municipio Calamarca, Provincia Aroma, La Paz, Bolivia","address":{"city":"Municipio Calamarca","county":"Provincia Aroma","state":"La Paz","ISO3166-2-lvl4":"BO-L","country":"Bolivia","country_code":"bo"},"population":9716,"osm_type":"relation","osm_id":4500831,"type":"administrative","location":[-68.11228543564224,-16.8911399],"bbox":[-68.218655,-17.0306165,-68.0037664,-16.751997],"inferred_type":"city"}
{"name":"Municipio Capinota","display_name":"Municipio Capinota, Capinota, Cochabamba, Bolivia","address":{"city":"Municipio Capinota","county":"Capinota","state":"Cochabamba","ISO3166-2-lvl4":"BO-C","country":"Bolivia","country_code":"bo"},"population":15721,"osm_type":"relation","osm_id":4505765,"type":"administrative","location":[-66.21468395647597,-17.7739245],"bbox":[-66.3520065,-17.9517162,-66.1073734,-17.5964082],"inferred_type":"city"}
{"name":"Municipio Caquiaviri","display_name":"Municipio Caquiaviri, Provincia Pacajes, La Paz, Bolivia","address":{"city":"Municipio Caquiaviri","county":"Provincia Pacajes","state":"La Paz","ISO3166-2-lvl4":"BO-L","country":"Bolivia","country_code":"bo"},"population":10207,"osm_type":"relation","osm_id":4500784,"type":"administrative","location":[-68.76066886775718,-17.0575177],"bbox":[-69.1924401,-17.3089449,-68.4686522,-16.8078491],"inferred_type":"city"}
{"name":"Municipio Carangas","display_name":"Municipio Carangas, Provincia Mejillones, Oruro, Bolivia","address":{"city":"Municipio Carangas","county":"Provincia Mejillones","state":"Oruro","ISO3166-2-lvl4":"BO-O","country":"Bolivia","country_code":"bo"},"population":164,"osm_type":"relation","osm_id":4494972,"type":"administrative","location":[-68.67831532725967,-18.906320049999998],"bbox":[-68.8332995,-18.9926397,-68.5572049,-18.8209635],"inferred_type":"city"}
{"name":"Municipio Caraparí","display_name":"Municipio Caraparí, Gran Chaco, Tarija, Bolivia","address":{"city":"Municipio Caraparí","county":"Gran Chaco","state":"Tarija","ISO3166-2-lvl4":"BO-T","country":"Bolivia","country_code":"bo"},"population":7816,"osm_type":"relation","osm_id":4509724,"type":"administrative","location":[-63.846821227185856,-21.82869395],"bbox":[-64.319157,-22.3459835,-63.5829275,-21.3106358],"inferred_type":"city"}
{"name":"Municipio Catacora","display_name":"Municipio Catacora, Provincia General José Manuel Pando, La Paz, Bolivia","address":{"city":"Municipio Catacora","county":"Provincia General José Manuel Pando","state":"La Paz","ISO3166-2-lvl4":"BO-L","country":"Bolivia","country_code":"bo"},"population":842,"osm_type":"relation","osm_id":4500609,"type":"administrative","location":[-69.52180206139045,-17.26323555],"bbox":[-69.6450073,-17.4261843,-69.3461693,-17.0977507],"inferred_type":"city"}
{"name":"Municipio Chacarilla","display_name":"Municipio Chacarilla, Provincia Gualberto Villaroel, La Paz, Bolivia","address":{"city":"Municipio Chacarilla","county":"Provincia Gualberto Villaroel","state":"La Paz","ISO3166-2-lvl4":"BO-L","country":"Bolivia","country_code":"bo"},"population":1199,"osm_type":"relation","osm_id":4502215,"type":"administrative","location":[-68.1627418532573,-17.5432949],"bbox":[-68.2907926,-17.6679553,-68.0150817,-17.4193953],"inferred_type":"city"}
{"name":"Municipio Charagua","display_name":"Municipio Charagua, Provincia Cordillera, Santa Cruz, Bolivia","address":{"city":"Municipio Charagua","county":"Provincia Cordillera","state":"Santa Cruz","ISO3166-2-lvl4":"BO-S","country":"Bolivia","country_code":"bo"},"population":18769,"osm_type":"relation","osm_id":4511359,"type":"administrative","location":[-61.22704001035367,-19.2361932],"bbox":[-63.4818706,-20.4629767,-58.8703676,-18.0172606],"inferred_type":"city"}
{"name":"Municipio Charaña","display_name":"Municipio Charaña, Provincia Pacajes, La Paz, Bolivia","address":{"city":"Municipio Charaña","county":"Provincia Pacajes","state":"La Paz","ISO3166-2-lvl4":"BO-L","country":"Bolivia","country_code":"bo"},"population":2473,"osm_type":"relation","osm_id":4500785,"type":"administrative","location":[-69.08925646212256,-17.66364865],"bbox":[-69.4684702,-18.0213388,-68.767641,-17.3032898],"inferred_type":"city"}
{"name":"Municipio Charazani","display_name":"Municipio Charazani, Provincia Bautista Saavedra, La Paz, Bolivia","address":{"city":"Municipio Charazani","county":"Provincia Bautista Saavedra","state":"La Paz","ISO3166-2-lvl4":"BO-L","country":"Bolivia","country_code":"bo"},"population":8406,"osm_type":"relation","osm_id":4499610,"type":"administrative","location":[-68.68098436821472,-15.08374225],"bbox":[-69.2120964,-15.3852406,-68.3349132,-14.782776],"inferred_type":"city"}
{"name":"Municipio Chipaya","display_name":"Municipio Chipaya, Provincia Sabaya, Oruro, Bolivia","address":{"city":"Municipio Chipaya","county":"Provincia Sabaya","state":"Oruro","ISO3166-2-lvl4":"BO-O","country":"Bolivia","country_code":"bo"},"population":1087,"osm_type":"relation","osm_id":4494864,"type":"administrative","location":[-68.11594268436356,-19.071165],"bbox":[-68.1855537,-19.1439879,-67.8935261,-18.9980902],"inferred_type":"city"}
{"name":"Municipio Chulumani","display_name":"Municipio Chulumani, Provincia Sud Yungas, La Paz, Bolivia","address":{"city":"Municipio Chulumani","county":"Provincia Sud Yungas","state":"La Paz","ISO3166-2-lvl4":"BO-L","country":"Bolivia","country_code":"bo"},"population":11101,"osm_type":"relation","osm_id":4499811,"type":"administrative","location":[-67.53431342233765,-16.3859253],"bbox":[-67.6189298,-16.5073973,-67.43027,-16.2647875],"inferred_type":"city"}
{"name":"Municipio Chuma","display_name":"Municipio Chuma, Provincia Muñecas, La Paz, Bolivia","address":{"city":"Municipio Chuma","county":"Provincia Muñecas","state":"La Paz","ISO3166-2-lvl4":"BO-L","country":"Bolivia","country_code":"bo"},"population":8605,"osm_type":"relation","osm_id":4499720,"type":"administrative","location":[-68.85558029474976,-15.583259949999999],"bbox":[-68.9685761,-15.8030814,-68.743894,-15.3635077],"inferred_type":"city"}
{"name":"Municipio Colcha K","display_name":"Municipio Colcha K, Provincia Nor Lípez, Potosí, Bolivia","address":{"city":"Municipio Colcha K","county":"Provincia Nor Lípez","state":"Potosí","ISO3166-2-lvl4":"BO-P","country":"Bolivia","country_code":"bo"},"population":9645,"osm_type":"relation","osm_id":4137592,"type":"administrative","location":[-67.41570599440217,-20.7857208],"bbox":[-68.137942,-22.02808,-66.2873383,-19.5467432],"inferred_type":"city"}
{"name":"Municipio Collana","display_name":"Municipio Collana, Provincia Aroma, La Paz, Bolivia","address":{"city":"Municipio Collana","county":"Provincia Aroma","state":"La Paz","ISO3166-2-lvl4":"BO-L","country":"Bolivia","country_code":"bo"},"population":2024,"osm_type":"relation","osm_id":4500832,"type":"administrative","location":[-68.33304559015801,-16.92117295],"bbox":[-68.380254,-17.0242249,-68.1912842,-16.8182359],"inferred_type":"city"}
{"name":"Municipio Colquencha","display_name":"Municipio Colquencha, Provincia Aroma, La Paz, Bolivia","address":{"city":"Municipio Colquencha","county":"Provincia Aroma","state":"La Paz","ISO3166-2-lvl4":"BO-L","country":"Bolivia","country_code":"bo"},"population":5850,"osm_type":"relation","osm_id":4500833,"type":"administrative","location":[-68.26145440298353,-16.9725192],"bbox":[-68.3537417,-17.0965554,-68.1286703,-16.8476355],"inferred_type":"city"}
{"name":"Municipio Colquiri","display_name":"Municipio Colquiri, Provincia Inquisivi, La Paz, Bolivia","address":{"city":"Municipio Colquiri","county":"Provincia Inquisivi","state":"La Paz","ISO3166-2-lvl4":"BO-L","country":"Bolivia","country_code":"bo"},"population":19748,"osm_type":"relation","osm_id":4502180,"type":"administrative","location":[-67.01531452892618,-17.437454199999998],"bbox":[-67.1990434,-17.638755,-66.8161377,-17.236257],"inferred_type":"city"}
{"name":"Municipio Comanche","display_name":"Municipio Comanche, Provincia Pacajes, La Paz, Bolivia","address":{"city":"Municipio Comanche","county":"Provincia Pacajes","state":"La Paz","ISO3166-2-lvl4":"BO-L","country":"Bolivia","country_code":"bo"},"population":4196,"osm_type":"relation","osm_id":4500786,"type":"administrative","location":[-68.47611743182867,-16.94156305],"bbox":[-68.5774737,-17.1013343,-68.3453867,-16.7811162],"inferred_type":"city"}
{"name":"Municipio Comarapa","display_name":"Municipio Comarapa, Provincia Manuel M. Caballero, Santa Cruz, Bolivia","address":{"city":"Municipio Comarapa","county":"Provincia Manuel M. Caballero","state":"Santa Cruz","ISO3166-2-lvl4":"BO-S","country":"Bolivia","country_code":"bo"},"population":11846,"osm_type":"relation","osm_id":4511408,"type":"administrative","location":[-64.5317327622963,-17.82718525],"bbox":[-64.8066848,-18.2357837,-64.2070537,-17.4187734],"inferred_type":"city"}
{"name":"Municipio Combaya","display_name":"Municipio Combaya, Provincia Larecaja, La Paz, Bolivia","address":{"city":"Municipio Combaya","county":"Provincia Larecaja","state":"La Paz","ISO3166-2-lvl4":"BO-L","country":"Bolivia","country_code":"bo"},"population":3731,"osm_type":"relation","osm_id":4499780,"type":"administrative","location":[-68.7526986891819,-15.81412285],"bbox":[-68.809009,-15.8676164,-68.6979307,-15.7632958],"inferred_type":"city"}
{"name":"Municipio Concepción","display_name":"Municipio Concepción, Provincia Ñuflo de Chávez, Santa Cruz, Bolivia","address":{"city":"Municipio Concepción","county":"Provincia Ñuflo de Chávez","state":"Santa Cruz","ISO3166-2-lvl4":"BO-S","country":"Bolivia","country_code":"bo"},"population":5034,"osm_type":"relation","osm_id":4511254,"type":"administrative","location":[-62.15754752960397,-15.402349050000002],"bbox":[-63.1047917,-17.041177,-61.3691493,-13.7622555],"inferred_type":"city"}
{"name":"Municipio Coripata","display_name":"Municipio Coripata, Provincia Nor Yungas, La Paz, Bolivia","address":{"city":"Municipio Coripata","county":"Provincia Nor Yungas","state":"La Paz","ISO3166-2-lvl4":"BO-L","country":"Bolivia","country_code":"bo"},"population":10276,"osm_type":"relation","osm_id":4499823,"type":"administrative","location":[-67.56825038246232,-16.205086350000002],"bbox":[-67.8012609,-16.4024635,-67.3393049,-16.0076821],"inferred_type":"city"}
{"name":"Municipio Coro Coro","display_name":"Municipio Coro Coro, Provincia Pacajes, La Paz, Bolivia","address":{"city":"Municipio Coro Coro","county":"Provincia Pacajes","state":"La Paz","ISO3166-2-lvl4":"BO-L","country":"Bolivia","country_code":"bo"},"population":10490,"osm_type":"relation","osm_id":4500787,"type":"administrative","location":[-68.42163050012138,-17.1840893],"bbox":[-68.7461144,-17.355939,-68.0895697,-17.0125739],"inferred_type":"city"}
{"name":"Municipio Coroico","display_name":"Municipio Coroico, Provincia Nor Yungas, La Paz, Bolivia","address":{"city":"Municipio Coroico","county":"Provincia Nor Yungas","state":"La Paz","ISO3166-2-lvl4":"BO-L","country":"Bolivia","country_code":"bo"},"population":10157,"osm_type":"relation","osm_id":4499824,"type":"administrative","location":[-67.78490972718872,-16.1822547],"bbox":[-67.9671541,-16.3629871,-67.5490368,-16.0011904],"inferred_type":"city"}
{"name":"Municipio Cotagaita","display_name":"Municipio Cotagaita, Provincia Nor Chichas, Potosí, Bolivia","address":{"city":"Municipio Cotagaita","county":"Provincia Nor Chichas","state":"Potosí","ISO3166-2-lvl4":"BO-P","country":"Bolivia","country_code":"bo"},"population":24025,"osm_type":"relation","osm_id":4137628,"type":"administrative","location":[-65.78074320466862,-20.60807675],"bbox":[-66.2873764,-21.1497211,-65.3494745,-20.0654801],"inferred_type":"city"}
{"name":"Municipio Cotoca","other_names":{"name:el":"Δήμος Κοτοκά"},"display_name":"Municipio Cotoca, Provincia Andrés Ibáñez, Santa Cruz, Bolivia","address":{"city":"Municipio Cotoca","county":"Provincia Andrés Ibáñez","state":"Santa Cruz","ISO3166-2-lvl4":"BO-S","country":"Bolivia","country_code":"bo"},"population":21252,"osm_type":"relation","osm_id":4511523,"type":"administrative","location":[-62.90184398391975,-17.754803250000002],"bbox":[-63.0547641,-17.85531,-62.7486357,-17.6642045],"inferred_type":"city"}
{"name":"Municipio Cruz de Machacamarca","display_name":"Municipio Cruz de Machacamarca, Provincia Litoral, Oruro, Bolivia","address":{"city":"Municipio Cruz de Machacamarca","county":"Provincia Litoral","state":"Oruro","ISO3166-2-lvl4":"BO-O","country":"Bolivia","country_code":"bo"},"population":190,"osm_type":"relation","osm_id":4494820,"type":"administrative","location":[-68.35598061817106,-18.71015825],"bbox":[-68.4960931,-18.8350002,-68.2021231,-18.5858584],"inferred_type":"city"}
{"name":"Municipio Culpina","display_name":"Municipio Culpina, Sud Cinti, Chuquisaca, Bolivia","address":{"city":"Municipio Culpina","county":"Sud Cinti","state":"Chuquisaca","ISO3166-2-lvl4":"BO-H","country":"Bolivia","country_code":"bo"},"population":14868,"osm_type":"relation","osm_id":4509404,"type":"administrative","location":[-64.66875395200469,-20.833562200000003],"bbox":[-65.1888933,-21.1531442,-64.1602832,-20.5142581],"inferred_type":"city"}
{"name":"Municipio Curva","display_name":"Municipio Curva, Provincia Bautista Saavedra, La Paz, Bolivia","address":{"city":"Municipio Curva","county":"Provincia Bautista Saavedra","state":"La Paz","ISO3166-2-lvl4":"BO-L","country":"Bolivia","country_code":"bo"},"population":1589,"osm_type":"relation","osm_id":4499611,"type":"administrative","location":[-68.91846858837228,-14.95352605],"bbox":[-69.21241,-15.1503177,-68.7749971,-14.7633243],"inferred_type":"city"}
{"name":"Municipio de Las Carreras","display_name":"Municipio de Las Carreras, Sud Cinti, Chuquisaca, Bolivia","address":{"city":"Municipio de Las Carreras","county":"Sud Cinti","state":"Chuquisaca","ISO3166-2-lvl4":"BO-H","country":"Bolivia","country_code":"bo"},"population":3336,"osm_type":"relation","osm_id":4509406,"type":"administrative","location":[-65.3260414384903,-21.285132500000003],"bbox":[-65.4674623,-21.5084019,-65.1887448,-21.0629584],"inferred_type":"city"}
{"name":"Municipio El Choro","display_name":"Municipio El Choro, Provincia Cercado, Oruro, Bolivia","address":{"city":"Municipio El Choro","county":"Provincia Cercado","state":"Oruro","ISO3166-2-lvl4":"BO-O","country":"Bolivia","country_code":"bo"},"population":2881,"osm_type":"relation","osm_id":4494716,"type":"administrative","location":[-67.1467179767406,-18.21998835],"bbox":[-67.3700876,-18.5060748,-67.0398686,-17.9336093],"inferred_type":"city"}
{"name":"Municipio El Puente","display_name":"Municipio El Puente, Provincia Guarayos, Santa Cruz, Bolivia","address":{"city":"Municipio El Puente","county":"Provincia Guarayos","state":"Santa Cruz","ISO3166-2-lvl4":"BO-S","country":"Bolivia","country_code":"bo"},"population":5034,"osm_type":"relation","osm_id":4511240,"type":"administrative","location":[-63.48627014929253,-16.11272865],"bbox":[-64.7300803,-16.4236498,-62.7806967,-15.8019407],"inferred_type":"city"}
{"name":"Municipio El Villar","display_name":"Municipio El Villar, Provincia Tomina, Chuquisaca, Bolivia","address":{"city":"Municipio El Villar","county":"Provincia Tomina","state":"Chuquisaca","ISO3166-2-lvl4":"BO-H","country":"Bolivia","country_code":"bo"},"population":5025,"osm_type":"relation","osm_id":4507932,"type":"administrative","location":[-64.2859243133876,-19.69291245],"bbox":[-64.4454263,-19.8897991,-64.1481255,-19.5035647],"inferred_type":"city"}
{"name":"Municipio Entre Rios","display_name":"Municipio Entre Rios, O'Connor, Tarija, Bolivia","address":{"city":"Municipio Entre Rios","county":"O'Connor","state":"Tarija","ISO3166-2-lvl4":"BO-T","country":"Bolivia","country_code":"bo"},"population":17763,"osm_type":"relation","osm_id":4509725,"type":"administrative","location":[-64.09160991469028,-21.4213516],"bbox":[-64.4407338,-21.9559063,-63.6475939,-20.8866664],"inferred_type":"city"}
{"name":"Municipio Escara","display_name":"Municipio Escara, Provincia Litoral, Oruro, Bolivia","address":{"city":"Municipio Escara","county":"Provincia Litoral","state":"Oruro","ISO3166-2-lvl4":"BO-O","country":"Bolivia","country_code":"bo"},"population":446,"osm_type":"relation","osm_id":4494821,"type":"administrative","location":[-68.13758134175384,-18.71371475],"bbox":[-68.4462404,-18.9388889,-67.9506367,-18.4899712],"inferred_type":"city"}
{"name":"Municipio Esmeralda","display_name":"Municipio Esmeralda, Provincia Litoral, Oruro, Bolivia","address":{"city":"Municipio Esmeralda","county":"Provincia Litoral","state":"Oruro","ISO3166-2-lvl4":"BO-O","country":"Bolivia","country_code":"bo"},"population":376,"osm_type":"relation","osm_id":4494822,"type":"administrative","location":[-68.16404471729129,-18.92123995],"bbox":[-68.3011024,-19.0375068,-67.8377311,-18.8049983],"inferred_type":"city"}
{"name":"Municipio Exaltación","display_name":"Municipio Exaltación, Yacuma, Beni, Bolivia","address":{"city":"Municipio Exaltación","county":"Yacuma","state":"Beni","ISO3166-2-lvl4":"BO-B","country":"Bolivia","country_code":"bo"},"population":6618,"osm_type":"relation","osm_id":3365948,"type":"administrative","location":[-65.77848223295217,-12.89551955],"bbox":[-66.5265356,-13.8273522,-64.9978065,-11.96663],"inferred_type":"city"}
{"name":"Municipio Filadelfia","other_names":{"alt_name":"Arroyo Grande"},"display_name":"Municipio Filadelfia, Provincia de Manuripi, Pando, Bolivia","address":{"city":"Municipio Filadelfia","county":"Provincia de Manuripi","state":"Pando","ISO3166-2-lvl4":"BO-N","country":"Bolivia","country_code":"bo"},"population":3145,"osm_type":"relation","osm_id":4050224,"type":"administrative","location":[-68.49519473270422,-11.867274],"bbox":[-69.2551216,-12.4979691,-67.9744565,-11.2283641],"inferred_type":"city"}
{"name":"Municipio General Saavedra","display_name":"Municipio General Saavedra, Provincia Obispo Santistevan, Santa Cruz, Bolivia","address":{"city":"Municipio General Saavedra","county":"Provincia Obispo Santistevan","state":"Santa Cruz","ISO3166-2-lvl4":"BO-S","country":"Bolivia","country_code":"bo"},"population":11639,"osm_type":"relation","osm_id":4511509,"type":"administrative","location":[-63.14914946265612,-17.1366588],"bbox":[-63.3418821,-17.2908856,-63.0235512,-16.9824033],"inferred_type":"city"}
{"name":"Municipio Guanay","display_name":"Municipio Guanay, Provincia Larecaja, La Paz, Bolivia","address":{"city":"Municipio Guanay","county":"Provincia Larecaja","state":"La Paz","ISO3166-2-lvl4":"BO-L","country":"Bolivia","country_code":"bo"},"population":14788,"osm_type":"relation","osm_id":4499781,"type":"administrative","location":[-67.88997593672671,-15.62968925],"bbox":[-68.5195218,-16.1060227,-67.6723163,-15.1529479],"inferred_type":"city"}
{"name":"Municipio Guaqui","display_name":"Municipio Guaqui, Ingavi, La Paz, Bolivia","address":{"city":"Municipio Guaqui","county":"Ingavi","state":"La Paz","ISO3166-2-lvl4":"BO-L","country":"Bolivia","country_code":"bo"},"population":5810,"osm_type":"relation","osm_id":4500575,"type":"administrative","location":[-68.83049274291093,-16.59912465],"bbox":[-68.9315286,-16.6734744,-68.7286493,-16.5247189],"inferred_type":"city"}
{"name":"Municipio Gutiérrez","display_name":"Municipio Gutiérrez, Provincia Cordillera, Santa Cruz, Bolivia","address":{"city":"Municipio Gutiérrez","county":"Provincia Cordillera","state":"Santa Cruz","ISO3166-2-lvl4":"BO-S","country":"Bolivia","country_code":"bo"},"population":9833,"osm_type":"relation","osm_id":4511361,"type":"administrative","location":[-63.51453019107801,-19.39907695],"bbox":[-63.7584018,-19.8875785,-63.3123494,-18.9105725],"inferred_type":"city"}
{"name":"Municipio Huacaraje","display_name":"Municipio Huacaraje, Provincia de Iténez, Beni, Bolivia","address":{"city":"Municipio Huacaraje","county":"Provincia de Iténez","state":"Beni","ISO3166-2-lvl4":"BO-B","country":"Bolivia","country_code":"bo"},"population":3706,"osm_type":"relation","osm_id":4056859,"type":"administrative","location":[-64.09109448717673,-13.856724700000001],"bbox":[-64.3990133,-14.2644597,-63.7110599,-13.4488925],"inferred_type":"city"}
{"name":"Municipio Huacaya","display_name":"Municipio Huacaya, Provincia Luis Calvo, Chuquisaca, Bolivia","address":{"city":"Municipio Huacaya","county":"Provincia Luis Calvo","state":"Chuquisaca","ISO3166-2-lvl4":"BO-H","country":"Bolivia","country_code":"bo"},"population":1986,"osm_type":"relation","osm_id":4509405,"type":"administrative","location":[-63.62251561428994,-20.72371225],"bbox":[-63.730695,-21.003886,-63.4057886,-20.4432847],"inferred_type":"city"}
{"name":"Municipio Huachacalla","display_name":"Municipio Huachacalla, Provincia Litoral, Oruro, Bolivia","address":{"city":"Municipio Huachacalla","county":"Provincia Litoral","state":"Oruro","ISO3166-2-lvl4":"BO-O","country":"Bolivia","country_code":"bo"},"population":983,"osm_type":"relation","osm_id":4494823,"type":"administrative","location":[-68.27161737022539,-18.79442915],"bbox":[-68.3109575,-18.8192589,-68.2410212,-18.7692082],"inferred_type":"city"}
{"name":"Municipio Ichoca","display_name":"Municipio Ichoca, Provincia Inquisivi, La Paz, Bolivia","address":{"city":"Municipio Ichoca","county":"Provincia Inquisivi","state":"La Paz","ISO3166-2-lvl4":"BO-L","country":"Bolivia","country_code":"bo"},"population":6685,"osm_type":"relation","osm_id":4502181,"type":"administrative","location":[-67.19782304817403,-17.2001968],"bbox":[-67.3620099,-17.373039,-67.0359377,-17.0273027],"inferred_type":"city"}
{"name":"Municipio Icla","display_name":"Municipio Icla, Provincia Jaime Zudáñez, Chuquisaca, Bolivia","address":{"city":"Municipio Icla","county":"Provincia Jaime Zudáñez","state":"Chuquisaca","ISO3166-2-lvl4":"BO-H","country":"Bolivia","country_code":"bo"},"population":8068,"osm_type":"relation","osm_id":4507906,"type":"administrative","location":[-64.7358365508772,-19.47066075],"bbox":[-64.9114451,-19.6693848,-64.619789,-19.2721217],"inferred_type":"city"}
{"name":"Municipio Ingavi","other_names":{"alt_name":"Humaita"},"display_name":"Municipio Ingavi, Provincia de Abuná, Pando, Bolivia","address":{"city":"Municipio Ingavi","county":"Provincia de Abuná","state":"Pando","ISO3166-2-lvl4":"BO-N","country":"Bolivia","country_code":"bo"},"population":899,"osm_type":"relation","osm_id":3369824,"type":"administrative","location":[-66.76587785634626,-10.404809100000001],"bbox":[-67.0055957,-11.0032237,-66.4491095,-9.8935348],"inferred_type":"city"}
{"name":"Municipio Inquisivi","display_name":"Municipio Inquisivi, Provincia Inquisivi, La Paz, Bolivia","address":{"city":"Municipio Inquisivi","county":"Provincia Inquisivi","state":"La Paz","ISO3166-2-lvl4":"BO-L","country":"Bolivia","country_code":"bo"},"population":15195,"osm_type":"relation","osm_id":4502182,"type":"administrative","location":[-66.93442171079508,-16.76340425],"bbox":[-67.2562059,-17.2800652,-66.7323533,-16.2465277],"inferred_type":"city"}
{"name":"Municipio Irupana","display_name":"Municipio Irupana, Provincia Sud Yungas, La Paz, Bolivia","address":{"city":"Municipio Irupana","county":"Provincia Sud Yungas","state":"La Paz","ISO3166-2-lvl4":"BO-L","country":"Bolivia","country_code":"bo"},"population":11929,"osm_type":"relation","osm_id":4499812,"type":"administrative","location":[-67.47898828605022,-16.514326150000002],"bbox":[-67.859676,-16.7422686,-67.1583514,-16.2863088],"inferred_type":"city"}
{"name":"Municipio Ixiamas","display_name":"Municipio Ixiamas, Provincia Abel Iturralde, La Paz, Bolivia","address":{"city":"Municipio Ixiamas","county":"Provincia Abel Iturralde","state":"La Paz","ISO3166-2-lvl4":"BO-L","country":"Bolivia","country_code":"bo"},"population":3618,"osm_type":"relation","osm_id":4499583,"type":"administrative","location":[-67.95796480426463,-13.0333209],"bbox":[-69.0672422,-14.2188159,-66.9179547,-11.8477782],"inferred_type":"city"}
{"name":"Municipio La Asunta","display_name":"Municipio La Asunta, Provincia Sud Yungas, La Paz, Bolivia","address":{"city":"Municipio La Asunta","county":"Provincia Sud Yungas","state":"La Paz","ISO3166-2-lvl4":"BO-L","country":"Bolivia","country_code":"bo"},"population":12198,"osm_type":"relation","osm_id":4499813,"type":"administrative","location":[-67.14201065094042,-16.06759165],"bbox":[-67.5501898,-16.3810326,-66.8443921,-15.7542415],"inferred_type":"city"}
{"name":"Municipio La Rivera","display_name":"Municipio La Rivera, Provincia Mejillones, Oruro, Bolivia","address":{"city":"Municipio La Rivera","county":"Provincia Mejillones","state":"Oruro","ISO3166-2-lvl4":"BO-O","country":"Bolivia","country_code":"bo"},"population":221,"osm_type":"relation","osm_id":4494973,"type":"administrative","location":[-68.6568689187166,-19.05703715],"bbox":[-68.7510099,-19.1703381,-68.5875847,-18.9426767],"inferred_type":"city"}
{"name":"Municipio Lagunillas","display_name":"Municipio Lagunillas, Provincia Cordillera, Santa Cruz, Bolivia","address":{"city":"Municipio Lagunillas","county":"Provincia Cordillera","state":"Santa Cruz","ISO3166-2-lvl4":"BO-S","country":"Bolivia","country_code":"bo"},"population":4250,"osm_type":"relation","osm_id":4511362,"type":"administrative","location":[-63.626210285878216,-19.7696705],"bbox":[-63.7321991,-20.1488221,-63.5092877,-19.3889323],"inferred_type":"city"}
{"name":"Municipio Licoma","display_name":"Municipio Licoma, Provincia Inquisivi, La Paz, Bolivia","address":{"city":"Municipio Licoma","county":"Provincia Inquisivi","state":"La Paz","ISO3166-2-lvl4":"BO-L","country":"Bolivia","country_code":"bo"},"population":2337,"osm_type":"relation","osm_id":4502183,"type":"administrative","location":[-67.21455799776905,-16.81746355],"bbox":[-67.294567,-16.8799269,-67.072601,-16.7548986],"inferred_type":"city"}
{"name":"Municipio Loreto","display_name":"Municipio Loreto, Provincia de Marbán, Beni, Bolivia","address":{"city":"Municipio Loreto","county":"Provincia de Marbán","state":"Beni","ISO3166-2-lvl4":"BO-B","country":"Bolivia","country_code":"bo"},"population":3859,"osm_type":"relation","osm_id":4059665,"type":"administrative","location":[-64.89720087309797,-15.3921523],"bbox":[-65.2380238,-15.824416,-64.4801513,-14.9568669],"inferred_type":"city"}
{"name":"Municipio Luribay","display_name":"Municipio Luribay, Provincia Loayza, La Paz, Bolivia","address":{"city":"Municipio Luribay","county":"Provincia Loayza","state":"La Paz","ISO3166-2-lvl4":"BO-L","country":"Bolivia","country_code":"bo"},"population":9144,"osm_type":"relation","osm_id":4502104,"type":"administrative","location":[-67.6419420609729,-17.03600685],"bbox":[-67.7811029,-17.1985769,-67.5013408,-16.8732752],"inferred_type":"city"}
{"name":"Municipio Machacamarca","display_name":"Municipio Machacamarca, Pantaleón Dalence, Oruro, Bolivia","address":{"city":"Municipio Machacamarca","county":"Pantaleón Dalence","state":"Oruro","ISO3166-2-lvl4":"BO-O","country":"Bolivia","country_code":"bo"},"population":4812,"osm_type":"relation","osm_id":4495051,"type":"administrative","location":[-66.96884965165279,-18.1546923],"bbox":[-67.0910055,-18.2353657,-66.8446076,-18.073936],"inferred_type":"city"}
{"name":"Municipio Magdalena","display_name":"Municipio Magdalena, Provincia de Iténez, Beni, Bolivia","address":{"city":"Municipio Magdalena","county":"Provincia de Iténez","state":"Beni","ISO3166-2-lvl4":"BO-B","country":"Bolivia","country_code":"bo"},"population":9908,"osm_type":"relation","osm_id":4056828,"type":"administrative","location":[-63.65753028126374,-12.933529],"bbox":[-64.3968216,-13.4507057,-63.0000114,-12.4277622],"inferred_type":"city"}
{"name":"Municipio Mairana","display_name":"Municipio Mairana, Provincia Florida, Santa Cruz, Bolivia","address":{"city":"Municipio Mairana","county":"Provincia Florida","state":"Santa Cruz","ISO3166-2-lvl4":"BO-S","country":"Bolivia","country_code":"bo"},"population":6441,"osm_type":"relation","osm_id":4511437,"type":"administrative","location":[-64.03835736267116,-17.89881405],"bbox":[-64.1549766,-18.244917,-63.8714089,-17.5528373],"inferred_type":"city"}
{"name":"Municipio Malla","display_name":"Municipio Malla, Provincia Loayza, La Paz, Bolivia","address":{"city":"Municipio Malla","county":"Provincia Loayza","state":"La Paz","ISO3166-2-lvl4":"BO-L","country":"Bolivia","country_code":"bo"},"population":2274,"osm_type":"relation","osm_id":4502105,"type":"administrative","location":[-67.45242454278227,-17.00874185],"bbox":[-67.5491754,-17.1364846,-67.3028695,-16.88017],"inferred_type":"city"}
{"name":"Municipio Mizque","display_name":"Municipio Mizque, Mizque, Cochabamba, Bolivia","address":{"city":"Municipio Mizque","county":"Mizque","state":"Cochabamba","ISO3166-2-lvl4":"BO-C","country":"Bolivia","country_code":"bo"},"population":20176,"osm_type":"relation","osm_id":4506108,"type":"administrative","location":[-65.4224226233841,-18.08066195],"bbox":[-65.6713118,-18.4051307,-65.2332958,-17.7562344],"inferred_type":"city"}
{"name":"Municipio Mocomoco","display_name":"Municipio Mocomoco, Provincia de Eliodoro Camacho, La Paz, Bolivia","address":{"city":"Municipio Mocomoco","county":"Provincia de Eliodoro Camacho","state":"La Paz","ISO3166-2-lvl4":"BO-L","country":"Bolivia","country_code":"bo"},"population":13694,"osm_type":"relation","osm_id":4499653,"type":"administrative","location":[-69.00227876839818,-15.460454],"bbox":[-69.1779699,-15.665339,-68.9192253,-15.2551524],"inferred_type":"city"}
{"name":"Municipio Mojinete","display_name":"Municipio Mojinete, Provincia Sur Lípez, Potosí, Bolivia","address":{"city":"Municipio Mojinete","county":"Provincia Sur Lípez","state":"Potosí","ISO3166-2-lvl4":"BO-P","country":"Bolivia","country_code":"bo"},"population":716,"osm_type":"relation","osm_id":4137593,"type":"administrative","location":[-66.35818489288451,-21.80007425],"bbox":[-66.4820023,-21.9322293,-66.2209834,-21.6684799],"inferred_type":"city"}
{"name":"Municipio Monteagudo","display_name":"Municipio Monteagudo, Provincia Hernando Siles, Chuquisaca, Bolivia","address":{"city":"Municipio Monteagudo","county":"Provincia Hernando Siles","state":"Chuquisaca","ISO3166-2-lvl4":"BO-H","country":"Bolivia","country_code":"bo"},"population":25240,"osm_type":"relation","osm_id":4509408,"type":"administrative","location":[-64.08909541853487,-20.00271135],"bbox":[-64.3379528,-20.5351391,-63.8164794,-19.4674673],"inferred_type":"city"}
{"name":"Municipio Moro Moro","display_name":"Municipio Moro Moro, Vallegrande, Santa Cruz, Bolivia","address":{"city":"Municipio Moro Moro","county":"Vallegrande","state":"Santa Cruz","ISO3166-2-lvl4":"BO-S","country":"Bolivia","country_code":"bo"},"population":3863,"osm_type":"relation","osm_id":4511477,"type":"administrative","location":[-64.3443435517391,-18.3493516],"bbox":[-64.4954357,-18.5447216,-64.2208414,-18.1536327],"inferred_type":"city"}
{"name":"Municipio Nueva Esperanza","other_names":{"alt_name":"Nueva Manoa"},"display_name":"Municipio Nueva Esperanza, Provincia del General Federico Román, Pando, Bolivia","address":{"city":"Municipio Nueva Esperanza","county":"Provincia del General Federico Román","state":"Pando","ISO3166-2-lvl4":"BO-N","country":"Bolivia","country_code":"bo"},"population":740,"osm_type":"relation","osm_id":3368691,"type":"administrative","location":[-65.53717906580158,-10.0869298],"bbox":[-65.7784075,-10.504425,-65.28471,-9.6689438],"inferred_type":"city"}
{"name":"Municipio Omereque","display_name":"Municipio Omereque, Campero, Cochabamba, Bolivia","address":{"city":"Municipio Omereque","county":"Campero","state":"Cochabamba","ISO3166-2-lvl4":"BO-C","country":"Bolivia","country_code":"bo"},"population":4951,"osm_type":"relation","osm_id":4506121,"type":"administrative","location":[-64.87893450672186,-18.06826385],"bbox":[-65.0508988,-18.2704066,-64.7074597,-17.8667137],"inferred_type":"city"}
{"name":"Municipio Oruro","display_name":"Municipio Oruro, Provincia Cercado, Oruro, Bolivia","address":{"city":"Municipio Oruro","county":"Provincia Cercado","state":"Oruro","ISO3166-2-lvl4":"BO-O","country":"Bolivia","country_code":"bo"},"population":196025,"osm_type":"relation","osm_id":4494717,"type":"administrative","location":[-67.09694589681618,-17.978725],"bbox":[-67.1964082,-18.0764194,-67.0040667,-17.8713319],"inferred_type":"city"}
{"name":"Municipio Padcaya","display_name":"Municipio Padcaya, Provincia Arce, Tarija, Bolivia","address":{"city":"Municipio Padcaya","county":"Provincia Arce","state":"Tarija","ISO3166-2-lvl4":"BO-T","country":"Bolivia","country_code":"bo"},"population":17341,"osm_type":"relation","osm_id":4509726,"type":"administrative","location":[-64.45054910693223,-22.18045755],"bbox":[-65.0562359,-22.5654568,-64.0994192,-21.7954106],"inferred_type":"city"}
{"name":"Municipio Padilla","display_name":"Municipio Padilla, Provincia Tomina, Chuquisaca, Bolivia","address":{"city":"Municipio Padilla","county":"Provincia Tomina","state":"Chuquisaca","ISO3166-2-lvl4":"BO-H","country":"Bolivia","country_code":"bo"},"population":13086,"osm_type":"relation","osm_id":4507933,"type":"administrative","location":[-64.15768621696132,-19.4115489],"bbox":[-64.4155734,-19.6736003,-63.9547483,-19.1494326],"inferred_type":"city"}
{"name":"Municipio Pailón","display_name":"Municipio Pailón, Chiquitos, Santa Cruz, Bolivia","address":{"city":"Municipio Pailón","county":"Chiquitos","state":"Santa Cruz","ISO3166-2-lvl4":"BO-S","country":"Bolivia","country_code":"bo"},"population":12955,"osm_type":"relation","osm_id":4511315,"type":"administrative","location":[-61.982549034141556,-17.75230455],"bbox":[-62.8160521,-18.2465529,-61.1292767,-17.2574517],"inferred_type":"city"}
{"name":"Municipio Pampa Grande","display_name":"Municipio Pampa Grande, Provincia Florida, Santa Cruz, Bolivia","address":{"city":"Municipio Pampa Grande","county":"Provincia Florida","state":"Santa Cruz","ISO3166-2-lvl4":"BO-S","country":"Bolivia","country_code":"bo"},"population":5660,"osm_type":"relation","osm_id":4511438,"type":"administrative","location":[-64.17647824820834,-17.93396955],"bbox":[-64.3266667,-18.3474823,-63.9536278,-17.5207328],"inferred_type":"city"}
{"name":"Municipio Papel Pampa","display_name":"Municipio Papel Pampa, Provincia Gualberto Villaroel, La Paz, Bolivia","address":{"city":"Municipio Papel Pampa","county":"Provincia Gualberto Villaroel","state":"La Paz","ISO3166-2-lvl4":"BO-L","country":"Bolivia","country_code":"bo"},"population":5039,"osm_type":"relation","osm_id":4502216,"type":"administrative","location":[-67.69158086347429,-17.712506849999997],"bbox":[-67.9415657,-17.8773909,-67.5075297,-17.546376],"inferred_type":"city"}
{"name":"Municipio Pazña","display_name":"Municipio Pazña, Provincia Poopó, Oruro, Bolivia","address":{"city":"Municipio Pazña","county":"Provincia Poopó","state":"Oruro","ISO3166-2-lvl4":"BO-O","country":"Bolivia","country_code":"bo"},"population":5955,"osm_type":"relation","osm_id":4495078,"type":"administrative","location":[-66.89389566454642,-18.636015200000003],"bbox":[-67.0595099,-18.7909715,-66.7130294,-18.4822663],"inferred_type":"city"}
{"name":"Municipio Pelechuco","display_name":"Municipio Pelechuco, Provincia Franz Tamayo, La Paz, Bolivia","address":{"city":"Municipio Pelechuco","county":"Provincia Franz Tamayo","state":"La Paz","ISO3166-2-lvl4":"BO-L","country":"Bolivia","country_code":"bo"},"population":4742,"osm_type":"relation","osm_id":4499595,"type":"administrative","location":[-69.12389561462646,-14.824109799999999],"bbox":[-69.3645879,-15.1441663,-68.6811572,-14.5021118],"inferred_type":"city"}
{"name":"Municipio Pocona","display_name":"Municipio Pocona, Carrasco, Cochabamba, Bolivia","address":{"city":"Municipio Pocona","county":"Carrasco","state":"Cochabamba","ISO3166-2-lvl4":"BO-C","country":"Bolivia","country_code":"bo"},"population":12799,"osm_type":"relation","osm_id":4505886,"type":"administrative","location":[-65.39447160004892,-17.709305899999997],"bbox":[-65.5521024,-17.9366275,-65.1809245,-17.4817111],"inferred_type":"city"}
{"name":"Municipio Pojo","display_name":"Municipio Pojo, Carrasco, Cochabamba, Bolivia","address":{"city":"Municipio Pojo","county":"Carrasco","state":"Cochabamba","ISO3166-2-lvl4":"BO-C","country":"Bolivia","country_code":"bo"},"population":17828,"osm_type":"relation","osm_id":4505887,"type":"administrative","location":[-64.80212663056096,-17.599750200000003],"bbox":[-65.0719078,-17.9870215,-64.5887632,-17.2129908],"inferred_type":"city"}
{"name":"Municipio Porco","display_name":"Municipio Porco, Antonio Quijarro, Potosí, Bolivia","address":{"city":"Municipio Porco","county":"Antonio Quijarro","state":"Potosí","ISO3166-2-lvl4":"BO-P","country":"Bolivia","country_code":"bo"},"population":5959,"osm_type":"relation","osm_id":4137629,"type":"administrative","location":[-65.99412700629341,-19.80865445],"bbox":[-66.2273483,-19.9648609,-65.7604412,-19.6602808],"inferred_type":"city"}
{"name":"Municipio Poroma","display_name":"Municipio Poroma, Provincia Oropeza, Chuquisaca, Bolivia","address":{"city":"Municipio Poroma","county":"Provincia Oropeza","state":"Chuquisaca","ISO3166-2-lvl4":"BO-H","country":"Bolivia","country_code":"bo"},"population":13659,"osm_type":"relation","osm_id":4507877,"type":"administrative","location":[-65.3444216475383,-18.66708825],"bbox":[-65.6956759,-18.9855938,-65.2222437,-18.348798],"inferred_type":"city"}
{"name":"Municipio Porongo (Ayacucho)","display_name":"Municipio Porongo (Ayacucho), Provincia Andrés Ibáñez, Santa Cruz, Bolivia","address":{"city":"Municipio Porongo (Ayacucho)","county":"Provincia Andrés Ibáñez","state":"Santa Cruz","ISO3166-2-lvl4":"BO-S","country":"Bolivia","country_code":"bo"},"population":8272,"osm_type":"relation","osm_id":4511526,"type":"administrative","location":[-63.35899873042493,-17.75430145],"bbox":[-63.5271518,-17.9476925,-63.195796,-17.5603787],"inferred_type":"city"}
{"name":"Municipio Porvenir","display_name":"Municipio Porvenir, Nicolás Suárez, Pando, Bolivia","address":{"city":"Municipio Porvenir","county":"Nicolás Suárez","state":"Pando","ISO3166-2-lvl4":"BO-N","country":"Bolivia","country_code":"bo"},"population":3713,"osm_type":"relation","osm_id":4050225,"type":"administrative","location":[-68.86164014041272,-11.26445735],"bbox":[-69.0004096,-11.4444799,-68.4998599,-11.0856198],"inferred_type":"city"}
{"name":"Municipio Postrer Valle","display_name":"Municipio Postrer Valle, Vallegrande, Santa Cruz, Bolivia","address":{"city":"Municipio Postrer Valle","county":"Vallegrande","state":"Santa Cruz","ISO3166-2-lvl4":"BO-S","country":"Bolivia","country_code":"bo"},"population":1846,"osm_type":"relation","osm_id":4511478,"type":"administrative","location":[-63.78756401603482,-18.6230193],"bbox":[-63.9914893,-18.8385995,-63.5265264,-18.4073026],"inferred_type":"city"}
{"name":"Municipio Presto","display_name":"Municipio Presto, Provincia Jaime Zudáñez, Chuquisaca, Bolivia","address":{"city":"Municipio Presto","county":"Provincia Jaime Zudáñez","state":"Chuquisaca","ISO3166-2-lvl4":"BO-H","country":"Bolivia","country_code":"bo"},"population":7874,"osm_type":"relation","osm_id":4507907,"type":"administrative","location":[-64.9023383983454,-18.75378515],"bbox":[-65.0650408,-19.0238415,-64.7235003,-18.4835236],"inferred_type":"city"}
{"name":"Municipio Pucará","display_name":"Municipio Pucará, Vallegrande, Santa Cruz, Bolivia","address":{"city":"Municipio Pucará","county":"Vallegrande","state":"Santa Cruz","ISO3166-2-lvl4":"BO-S","country":"Bolivia","country_code":"bo"},"population":2571,"osm_type":"relation","osm_id":4511479,"type":"administrative","location":[-64.19350592324454,-18.791405949999998],"bbox":[-64.3288541,-18.9726979,-64.0602598,-18.6099805],"inferred_type":"city"}
{"name":"Municipio Puerto Carabuco","display_name":"Municipio Puerto Carabuco, Provincia de Eliodoro Camacho, La Paz, Bolivia","address":{"city":"Municipio Puerto Carabuco","county":"Provincia de Eliodoro Camacho","state":"La Paz","ISO3166-2-lvl4":"BO-L","country":"Bolivia","country_code":"bo"},"population":12828,"osm_type":"relation","osm_id":4499655,"type":"administrative","location":[-69.03448869659456,-15.7156322],"bbox":[-69.1476503,-15.8963405,-68.9071654,-15.5349017],"inferred_type":"city"}
{"name":"Municipio Puerto Pérez","display_name":"Municipio Puerto Pérez, Provincia Los Andes, La Paz, Bolivia","address":{"city":"Municipio Puerto Pérez","county":"Provincia Los Andes","state":"La Paz","ISO3166-2-lvl4":"BO-L","country":"Bolivia","country_code":"bo"},"population":7586,"osm_type":"relation","osm_id":4500402,"type":"administrative","location":[-68.59815962506855,-16.354257850000003],"bbox":[-68.7807072,-16.4412583,-68.5444278,-16.2675357],"inferred_type":"city"}
{"name":"Municipio Puerto Siles","display_name":"Municipio Puerto Siles, Provincia de Mamoré, Beni, Bolivia","address":{"city":"Municipio Puerto Siles","county":"Provincia de Mamoré","state":"Beni","ISO3166-2-lvl4":"BO-B","country":"Bolivia","country_code":"bo"},"population":1018,"osm_type":"relation","osm_id":4055848,"type":"administrative","location":[-65.01442715224542,-12.38658365],"bbox":[-65.1876542,-12.8477245,-64.8075529,-11.9254038],"inferred_type":"city"}
{"name":"Municipio Quiabaya","display_name":"Municipio Quiabaya, Provincia Larecaja, La Paz, Bolivia","address":{"city":"Municipio Quiabaya","county":"Provincia Larecaja","state":"La Paz","ISO3166-2-lvl4":"BO-L","country":"Bolivia","country_code":"bo"},"population":2684,"osm_type":"relation","osm_id":4499782,"type":"administrative","location":[-68.72181748915892,-15.61283905],"bbox":[-68.7791877,-15.6834954,-68.6189706,-15.5415926],"inferred_type":"city"}
{"name":"Municipio Quillacas","display_name":"Municipio Quillacas, Eduardo Abaroa, Oruro, Bolivia","address":{"city":"Municipio Quillacas","county":"Eduardo Abaroa","state":"Oruro","ISO3166-2-lvl4":"BO-O","country":"Bolivia","country_code":"bo"},"population":3225,"osm_type":"relation","osm_id":4495089,"type":"administrative","location":[-66.86225269322429,-19.2975265],"bbox":[-67.025359,-19.454774,-66.521084,-19.140178],"inferred_type":"city"}
{"name":"Municipio Quime","display_name":"Municipio Quime, Provincia Inquisivi, La Paz, Bolivia","address":{"city":"Municipio Quime","county":"Provincia Inquisivi","state":"La Paz","ISO3166-2-lvl4":"BO-L","country":"Bolivia","country_code":"bo"},"population":7395,"osm_type":"relation","osm_id":4502184,"type":"administrative","location":[-67.29980416953606,-16.89630375],"bbox":[-67.5411849,-17.085343,-67.134001,-16.7069828],"inferred_type":"city"}
{"name":"Municipio Quirusillas","display_name":"Municipio Quirusillas, Provincia Florida, Santa Cruz, Bolivia","address":{"city":"Municipio Quirusillas","county":"Provincia Florida","state":"Santa Cruz","ISO3166-2-lvl4":"BO-S","country":"Bolivia","country_code":"bo"},"population":1507,"osm_type":"relation","osm_id":4511439,"type":"administrative","location":[-63.94613036593553,-18.344296149999998],"bbox":[-64.0490462,-18.4340345,-63.8192591,-18.2542478],"inferred_type":"city"}
{"name":"Municipio Sabaya","display_name":"Municipio Sabaya, Provincia Sabaya, Oruro, Bolivia","address":{"city":"Municipio Sabaya","county":"Provincia Sabaya","state":"Oruro","ISO3166-2-lvl4":"BO-O","country":"Bolivia","country_code":"bo"},"population":2074,"osm_type":"relation","osm_id":4494866,"type":"administrative","location":[-68.81759013578193,-18.93631005],"bbox":[-69.0371096,-19.3507895,-68.1584288,-18.5219961],"inferred_type":"city"}
{"name":"Municipio Sacabamba","display_name":"Municipio Sacabamba, Esteban Arze, Cochabamba, Bolivia","address":{"city":"Municipio Sacabamba","county":"Esteban Arze","state":"Cochabamba","ISO3166-2-lvl4":"BO-C","country":"Bolivia","country_code":"bo"},"population":3688,"osm_type":"relation","osm_id":4505813,"type":"administrative","location":[-65.79703418972241,-17.76887],"bbox":[-65.8680179,-17.8612515,-65.7172061,-17.6780557],"inferred_type":"city"}
{"name":"Municipio Saipina","display_name":"Municipio Saipina, Provincia Manuel M. Caballero, Santa Cruz, Bolivia","address":{"city":"Municipio Saipina","county":"Provincia Manuel M. Caballero","state":"Santa Cruz","ISO3166-2-lvl4":"BO-S","country":"Bolivia","country_code":"bo"},"population":4228,"osm_type":"relation","osm_id":4511409,"type":"administrative","location":[-64.62756805414546,-18.05118085],"bbox":[-64.8269443,-18.2090181,-64.4958626,-17.8931755],"inferred_type":"city"}
{"name":"Municipio Samaipata","display_name":"Municipio Samaipata, Provincia Florida, Santa Cruz, Bolivia","address":{"city":"Municipio Samaipata","county":"Provincia Florida","state":"Santa Cruz","ISO3166-2-lvl4":"BO-S","country":"Bolivia","country_code":"bo"},"population":9142,"osm_type":"relation","osm_id":4511440,"type":"administrative","location":[-63.82320699955545,-18.014441],"bbox":[-64.0537196,-18.4188083,-63.4851286,-17.6100568],"inferred_type":"city"}
{"name":"Municipio San Agustin","display_name":"Municipio San Agustin, Provincia Enrique Baldivieso, Potosí, Bolivia","address":{"city":"Municipio San Agustin","county":"Provincia Enrique Baldivieso","state":"Potosí","ISO3166-2-lvl4":"BO-P","country":"Bolivia","country_code":"bo"},"population":1640,"osm_type":"relation","osm_id":4137630,"type":"administrative","location":[-67.45248655654149,-21.45269395],"bbox":[-67.7965012,-21.8465405,-67.1321793,-21.0680809],"inferred_type":"city"}
{"name":"Municipio San Andres","display_name":"Municipio San Andres, Provincia de Marbán, Beni, Bolivia","address":{"city":"Municipio San Andres","county":"Provincia de Marbán","state":"Beni","ISO3166-2-lvl4":"BO-B","country":"Bolivia","country_code":"bo"},"population":10595,"osm_type":"relation","osm_id":4059613,"type":"administrative","location":[-64.21534106015154,-15.30520845],"bbox":[-64.7665433,-15.8839922,-63.3810122,-14.7264593],"inferred_type":"city"}
{"name":"Municipio San Antonio de Esmoruco","display_name":"Municipio San Antonio de Esmoruco, Provincia Sur Lípez, Potosí, Bolivia","address":{"city":"Municipio San Antonio de Esmoruco","county":"Provincia Sur Lípez","state":"Potosí","ISO3166-2-lvl4":"BO-P","country":"Bolivia","country_code":"bo"},"population":1666,"osm_type":"relation","osm_id":4137594,"type":"administrative","location":[-66.60435803738392,-22.105020449999998],"bbox":[-66.9910202,-22.4671622,-66.2616868,-21.7414608],"inferred_type":"city"}
{"name":"Municipio San Carlos","display_name":"Municipio San Carlos, Provincia Ichilo, Santa Cruz, Bolivia","address":{"city":"Municipio San Carlos","county":"Provincia Ichilo","state":"Santa Cruz","ISO3166-2-lvl4":"BO-S","country":"Bolivia","country_code":"bo"},"population":18347,"osm_type":"relation","osm_id":4511393,"type":"administrative","location":[-63.701123504891,-17.30755555],"bbox":[-63.9186201,-17.629564,-63.5929724,-16.9854171],"inferred_type":"city"}
{"name":"Municipio San Javier","display_name":"Municipio San Javier, Provincia de Cercado, Beni, Bolivia","address":{"city":"Municipio San Javier","county":"Provincia de Cercado","state":"Beni","ISO3166-2-lvl4":"BO-B","country":"Bolivia","country_code":"bo"},"population":2690,"osm_type":"relation","osm_id":4057054,"type":"administrative","location":[-64.30090852608603,-14.38277565],"bbox":[-65.1091074,-14.7501489,-63.5721684,-14.015161],"inferred_type":"city"}
{"name":"Municipio San Javier","display_name":"Municipio San Javier, Provincia Ñuflo de Chávez, Santa Cruz, Bolivia","address":{"city":"Municipio San Javier","county":"Provincia Ñuflo de Chávez","state":"Santa Cruz","ISO3166-2-lvl4":"BO-S","country":"Bolivia","country_code":"bo"},"population":10434,"osm_type":"relation","osm_id":4511274,"type":"administrative","location":[-62.54201888817421,-16.2068868],"bbox":[-62.7973963,-16.5727579,-62.2717781,-15.8409161],"inferred_type":"city"}
{"name":"Municipio San Joaquin","display_name":"Municipio San Joaquin, Provincia de Mamoré, Beni, Bolivia","address":{"city":"Municipio San Joaquin","county":"Provincia de Mamoré","state":"Beni","ISO3166-2-lvl4":"BO-B","country":"Bolivia","country_code":"bo"},"population":5452,"osm_type":"relation","osm_id":4055849,"type":"administrative","location":[-64.8318407590499,-12.984577999999999],"bbox":[-65.3422582,-14.0052911,-64.3437106,-11.9657089],"inferred_type":"city"}
{"name":"Municipio San Lorenzo","other_names":{"alt_name":"Exaltacion"},"display_name":"Municipio San Lorenzo, Provincia de Madre de Dios, Pando, Bolivia","address":{"city":"Municipio San Lorenzo","county":"Provincia de Madre de Dios","state":"Pando","ISO3166-2-lvl4":"BO-N","country":"Bolivia","country_code":"bo"},"population":3471,"osm_type":"relation","osm_id":4051385,"type":"administrative","location":[-66.93679735751448,-11.7890104],"bbox":[-67.0012158,-12.4880476,-66.4997496,-11.092073],"inferred_type":"city"}
{"name":"Municipio San Matías","display_name":"Municipio San Matías, Provincia Ángel Sandóval, Santa Cruz, Bolivia","address":{"city":"Municipio San Matías","county":"Provincia Ángel Sandóval","state":"Santa Cruz","ISO3166-2-lvl4":"BO-S","country":"Bolivia","country_code":"bo"},"population":5370,"osm_type":"relation","osm_id":4511329,"type":"administrative","location":[-58.95891728156835,-17.17332965],"bbox":[-59.5278784,-18.0797825,-57.6357059,-16.2618487],"inferred_type":"city"}
{"name":"Municipio San Pablo de Huacareta","display_name":"Municipio San Pablo de Huacareta, Provincia Hernando Siles, Chuquisaca, Bolivia","address":{"city":"Municipio San Pablo de Huacareta","county":"Provincia Hernando Siles","state":"Chuquisaca","ISO3166-2-lvl4":"BO-H","country":"Bolivia","country_code":"bo"},"population":10015,"osm_type":"relation","osm_id":4509409,"type":"administrative","location":[-64.02353640923988,-20.53125105],"bbox":[-64.2443709,-21.007338,-63.8041541,-20.0552153],"inferred_type":"city"}
{"name":"Municipio San Pablo de Lipez","display_name":"Municipio San Pablo de Lipez, Provincia Sur Lípez, Potosí, Bolivia","address":{"city":"Municipio San Pablo de Lipez","county":"Provincia Sur Lípez","state":"Potosí","ISO3166-2-lvl4":"BO-P","country":"Bolivia","country_code":"bo"},"population":2523,"osm_type":"relation","osm_id":4137595,"type":"administrative","location":[-67.40453633471795,-22.093118349999997],"bbox":[-68.0333559,-22.8982742,-66.2077408,-21.2883701],"inferred_type":"city"}
{"name":"Municipio San Pedro de Curahuara","display_name":"Municipio San Pedro de Curahuara, Provincia Gualberto Villaroel, La Paz, Bolivia","address":{"city":"Municipio San Pedro de Curahuara","county":"Provincia Gualberto Villaroel","state":"La Paz","ISO3166-2-lvl4":"BO-L","country":"Bolivia","country_code":"bo"},"population":5447,"osm_type":"relation","osm_id":4502217,"type":"administrative","location":[-67.98677395790418,-17.6322495],"bbox":[-68.1899335,-17.7913346,-67.7993321,-17.4731976],"inferred_type":"city"}
{"name":"Municipio San Pedro de Quemes","display_name":"Municipio San Pedro de Quemes, Provincia Nor Lípez, Potosí, Bolivia","address":{"city":"Municipio San Pedro de Quemes","county":"Provincia Nor Lípez","state":"Potosí","ISO3166-2-lvl4":"BO-P","country":"Bolivia","country_code":"bo"},"population":815,"osm_type":"relation","osm_id":4136111,"type":"administrative","location":[-68.11846308559366,-21.12645915],"bbox":[-68.5556799,-21.6570194,-67.8545303,-20.58848],"inferred_type":"city"}
{"name":"Municipio San Rafael","display_name":"Municipio San Rafael, Velasco, Santa Cruz, Bolivia","address":{"city":"Municipio San Rafael","county":"Velasco","state":"Santa Cruz","ISO3166-2-lvl4":"BO-S","country":"Bolivia","country_code":"bo"},"population":2906,"osm_type":"relation","osm_id":4511305,"type":"administrative","location":[-60.19930873205193,-16.827005800000002],"bbox":[-60.8883727,-17.2678719,-59.5010453,-16.3777908],"inferred_type":"city"}
{"name":"Municipio San Ramón","display_name":"Municipio San Ramón, Provincia de Mamoré, Beni, Bolivia","address":{"city":"Municipio San Ramón","county":"Provincia de Mamoré","state":"Beni","ISO3166-2-lvl4":"BO-B","country":"Bolivia","country_code":"bo"},"population":5927,"osm_type":"relation","osm_id":4055850,"type":"administrative","location":[-64.56920287189484,-13.34531445],"bbox":[-65.1092116,-14.1517534,-64.243111,-12.538771],"inferred_type":"city"}
{"name":"Municipio San Ramón","display_name":"Municipio San Ramón, Provincia Ñuflo de Chávez, Santa Cruz, Bolivia","address":{"city":"Municipio San Ramón","county":"Provincia Ñuflo de Chávez","state":"Santa Cruz","ISO3166-2-lvl4":"BO-S","country":"Bolivia","country_code":"bo"},"population":36297,"osm_type":"relation","osm_id":4511276,"type":"administrative","location":[-62.41451226896797,-16.59046305],"bbox":[-62.6114898,-16.7080606,-62.2674524,-16.4727578],"inferred_type":"city"}
{"name":"Municipio Santa Rosa del Sara","display_name":"Municipio Santa Rosa del Sara, Sara, Santa Cruz, Bolivia","address":{"city":"Municipio Santa Rosa del Sara","county":"Sara","state":"Santa Cruz","ISO3166-2-lvl4":"BO-S","country":"Bolivia","country_code":"bo"},"population":9248,"osm_type":"relation","osm_id":4511498,"type":"administrative","location":[-63.84724446806214,-16.599322],"bbox":[-64.3353828,-17.1980991,-63.3525971,-16.0004817],"inferred_type":"city"}
{"name":"Municipio Santiago de Andamarca","display_name":"Municipio Santiago de Andamarca, Provincia Sud Carangas, Oruro, Bolivia","address":{"city":"Municipio Santiago de Andamarca","county":"Provincia Sud Carangas","state":"Oruro","ISO3166-2-lvl4":"BO-O","country":"Bolivia","country_code":"bo"},"population":3005,"osm_type":"relation","osm_id":4495027,"type":"administrative","location":[-67.40472809703326,-18.84023195],"bbox":[-67.6947327,-19.0920334,-67.058158,-18.587858],"inferred_type":"city"}
{"name":"Municipio Santiago de Callapa","display_name":"Municipio Santiago de Callapa, Provincia Pacajes, La Paz, Bolivia","address":{"city":"Municipio Santiago de Callapa","county":"Provincia Pacajes","state":"La Paz","ISO3166-2-lvl4":"BO-L","country":"Bolivia","country_code":"bo"},"population":7184,"osm_type":"relation","osm_id":4500788,"type":"administrative","location":[-68.35757688456448,-17.40736615],"bbox":[-68.5598215,-17.6171993,-68.1541754,-17.1974856],"inferred_type":"city"}
{"name":"Municipio Santiago de Machaca","display_name":"Municipio Santiago de Machaca, Provincia General José Manuel Pando, La Paz, Bolivia","address":{"city":"Municipio Santiago de Machaca","county":"Provincia General José Manuel Pando","state":"La Paz","ISO3166-2-lvl4":"BO-L","country":"Bolivia","country_code":"bo"},"population":3735,"osm_type":"relation","osm_id":4500610,"type":"administrative","location":[-69.28212632699966,-17.22585005],"bbox":[-69.4684642,-17.4914193,-69.0219557,-16.9607532],"inferred_type":"city"}
{"name":"Municipio Santos Mercado","other_names":{"alt_name":"Eureka"},"display_name":"Municipio Santos Mercado, Provincia del General Federico Román, Pando, Bolivia","address":{"city":"Municipio Santos Mercado","county":"Provincia del General Federico Román","state":"Pando","ISO3166-2-lvl4":"BO-N","country":"Bolivia","country_code":"bo"},"population":509,"osm_type":"relation","osm_id":3369463,"type":"administrative","location":[-66.1718743127496,-10.10738235],"bbox":[-66.6199445,-10.5014494,-65.7464457,-9.7344169],"inferred_type":"city"}
{"name":"Municipio Sapahaqui","display_name":"Municipio Sapahaqui, Provincia Loayza, La Paz, Bolivia","address":{"city":"Municipio Sapahaqui","county":"Provincia Loayza","state":"La Paz","ISO3166-2-lvl4":"BO-L","country":"Bolivia","country_code":"bo"},"population":8318,"osm_type":"relation","osm_id":4502106,"type":"administrative","location":[-67.81797339690763,-16.98279515],"bbox":[-68.0375178,-17.1594272,-67.6797889,-16.8064638],"inferred_type":"city"}
{"name":"Municipio Sena","other_names":{"alt_name":"Bolivar"},"display_name":"Municipio Sena, Provincia de Madre de Dios, Pando, Bolivia","address":{"city":"Municipio Sena","county":"Provincia de Madre de Dios","state":"Pando","ISO3166-2-lvl4":"BO-N","country":"Bolivia","country_code":"bo"},"population":2240,"osm_type":"relation","osm_id":4051386,"type":"administrative","location":[-67.40129066385114,-11.9545532],"bbox":[-67.9742713,-12.4667586,-67.0005955,-11.3265292],"inferred_type":"city"}
{"name":"Municipio Sicaya","display_name":"Municipio Sicaya, Capinota, Cochabamba, Bolivia","address":{"city":"Municipio Sicaya","county":"Capinota","state":"Cochabamba","ISO3166-2-lvl4":"BO-C","country":"Bolivia","country_code":"bo"},"population":2391,"osm_type":"relation","osm_id":4505767,"type":"administrative","location":[-66.3460791209337,-17.777047449999998],"bbox":[-66.3938348,-17.870424,-66.2748585,-17.683855],"inferred_type":"city"}
{"name":"Municipio Sopachuy","display_name":"Municipio Sopachuy, Provincia Tomina, Chuquisaca, Bolivia","address":{"city":"Municipio Sopachuy","county":"Provincia Tomina","state":"Chuquisaca","ISO3166-2-lvl4":"BO-H","country":"Bolivia","country_code":"bo"},"population":6121,"osm_type":"relation","osm_id":4507934,"type":"administrative","location":[-64.54447173546089,-19.4487275],"bbox":[-64.6621437,-19.6089564,-64.3652588,-19.2876623],"inferred_type":"city"}
{"name":"Municipio Soracachi","display_name":"Municipio Soracachi, Provincia Cercado, Oruro, Bolivia","address":{"city":"Municipio Soracachi","county":"Provincia Cercado","state":"Oruro","ISO3166-2-lvl4":"BO-O","country":"Bolivia","country_code":"bo"},"population":13948,"osm_type":"relation","osm_id":4494711,"type":"administrative","location":[-66.95572199411907,-17.8670682],"bbox":[-67.2055762,-18.116174,-66.7124236,-17.6180024],"inferred_type":"city"}
{"name":"Municipio Sorata","display_name":"Municipio Sorata, Provincia Larecaja, La Paz, Bolivia","address":{"city":"Municipio Sorata","county":"Provincia Larecaja","state":"La Paz","ISO3166-2-lvl4":"BO-L","country":"Bolivia","country_code":"bo"},"population":23512,"osm_type":"relation","osm_id":4499783,"type":"administrative","location":[-68.4037111995105,-15.680619199999999],"bbox":[-68.8548942,-15.9467895,-68.1488603,-15.4131557],"inferred_type":"city"}
{"name":"Municipio Sucre","display_name":"Municipio Sucre, Provincia Oropeza, Chuquisaca, Bolivia","address":{"city":"Municipio Sucre","county":"Provincia Oropeza","state":"Chuquisaca","ISO3166-2-lvl4":"BO-H","country":"Bolivia","country_code":"bo"},"population":153153,"osm_type":"relation","osm_id":4507878,"type":"administrative","location":[-65.17384262259377,-18.887976799999997],"bbox":[-65.5806536,-19.1727137,-65.0070628,-18.6060614],"inferred_type":"city"}
{"name":"Municipio Tacacoma","display_name":"Municipio Tacacoma, Provincia Larecaja, La Paz, Bolivia","address":{"city":"Municipio Tacacoma","county":"Provincia Larecaja","state":"La Paz","ISO3166-2-lvl4":"BO-L","country":"Bolivia","country_code":"bo"},"population":8182,"osm_type":"relation","osm_id":4499721,"type":"administrative","location":[-68.54325162827072,-15.4422545],"bbox":[-68.7095007,-15.6869489,-68.2698942,-15.196345],"inferred_type":"city"}
{"name":"Municipio Tacopaya","display_name":"Municipio Tacopaya, Arque, Cochabamba, Bolivia","address":{"city":"Municipio Tacopaya","county":"Arque","state":"Cochabamba","ISO3166-2-lvl4":"BO-C","country":"Bolivia","country_code":"bo"},"population":9271,"osm_type":"relation","osm_id":4505717,"type":"administrative","location":[-66.63932012055076,-17.810786450000002],"bbox":[-66.7756537,-17.9453355,-66.4475784,-17.6796808],"inferred_type":"city"}
{"name":"Municipio Tapacarí","display_name":"Municipio Tapacarí, Tapacarí, Cochabamba, Bolivia","address":{"city":"Municipio Tapacarí","county":"Tapacarí","state":"Cochabamba","ISO3166-2-lvl4":"BO-C","country":"Bolivia","country_code":"bo"},"population":19202,"osm_type":"relation","osm_id":4505706,"type":"administrative","location":[-66.6634004866508,-17.580030899999997],"bbox":[-66.9329764,-17.7941136,-66.3882899,-17.3666452],"inferred_type":"city"}
{"name":"Municipio Tarabuco","display_name":"Municipio Tarabuco, Provincia Yamparaez, Chuquisaca, Bolivia","address":{"city":"Municipio Tarabuco","county":"Provincia Yamparaez","state":"Chuquisaca","ISO3166-2-lvl4":"BO-H","country":"Bolivia","country_code":"bo"},"population":16944,"osm_type":"relation","osm_id":4507914,"type":"administrative","location":[-64.90253348572222,-19.109769149999998],"bbox":[-65.1068777,-19.3623808,-64.7231434,-18.8576987],"inferred_type":"city"}
{"name":"Municipio Taraco","display_name":"Municipio Taraco, Ingavi, La Paz, Bolivia","address":{"city":"Municipio Taraco","county":"Ingavi","state":"La Paz","ISO3166-2-lvl4":"BO-L","country":"Bolivia","country_code":"bo"},"population":13151,"osm_type":"relation","osm_id":4500578,"type":"administrative","location":[-68.81763644099684,-16.478945449999998],"bbox":[-68.9575752,-16.5387821,-68.7852271,-16.419116],"inferred_type":"city"}
{"name":"Municipio Tipuani","display_name":"Municipio Tipuani, Provincia Larecaja, La Paz, Bolivia","address":{"city":"Municipio Tipuani","county":"Provincia Larecaja","state":"La Paz","ISO3166-2-lvl4":"BO-L","country":"Bolivia","country_code":"bo"},"population":9985,"osm_type":"relation","osm_id":4499785,"type":"administrative","location":[-68.05693482590983,-15.584464650000001],"bbox":[-68.2062044,-15.666742,-67.9269879,-15.5034508],"inferred_type":"city"}
{"name":"Municipio Todos Santos","display_name":"Municipio Todos Santos, Provincia Mejillones, Oruro, Bolivia","address":{"city":"Municipio Todos Santos","county":"Provincia Mejillones","state":"Oruro","ISO3166-2-lvl4":"BO-O","country":"Bolivia","country_code":"bo"},"population":366,"osm_type":"relation","osm_id":4494971,"type":"administrative","location":[-68.76662457176506,-19.0378192],"bbox":[-68.8412003,-19.1329415,-68.6721215,-18.9426235],"inferred_type":"city"}
{"name":"Municipio Toledo","display_name":"Municipio Toledo, Provincia Saucarí, Oruro, Bolivia","address":{"city":"Municipio Toledo","county":"Provincia Saucarí","state":"Oruro","ISO3166-2-lvl4":"BO-O","country":"Bolivia","country_code":"bo"},"population":7763,"osm_type":"relation","osm_id":4494747,"type":"administrative","location":[-67.41542319723376,-18.26399495],"bbox":[-67.6615783,-18.7374282,-67.2233099,-17.7905324],"inferred_type":"city"}
{"name":"Municipio Tomave","display_name":"Municipio Tomave, Antonio Quijarro, Potosí, Bolivia","address":{"city":"Municipio Tomave","county":"Antonio Quijarro","state":"Potosí","ISO3166-2-lvl4":"BO-P","country":"Bolivia","country_code":"bo"},"population":12764,"osm_type":"relation","osm_id":4137631,"type":"administrative","location":[-66.28364568819703,-20.1071091],"bbox":[-66.9304428,-20.6127892,-65.8753399,-19.6048393],"inferred_type":"city"}
{"name":"Municipio Tomina","display_name":"Municipio Tomina, Provincia Tomina, Chuquisaca, Bolivia","address":{"city":"Municipio Tomina","county":"Provincia Tomina","state":"Chuquisaca","ISO3166-2-lvl4":"BO-H","country":"Bolivia","country_code":"bo"},"population":7551,"osm_type":"relation","osm_id":4507935,"type":"administrative","location":[-64.48485707092254,-19.143327],"bbox":[-64.6195952,-19.3958123,-64.3629877,-18.8806307],"inferred_type":"city"}
{"name":"Municipio Trigal","display_name":"Municipio Trigal, Vallegrande, Santa Cruz, Bolivia","address":{"city":"Municipio Trigal","county":"Vallegrande","state":"Santa Cruz","ISO3166-2-lvl4":"BO-S","country":"Bolivia","country_code":"bo"},"population":1843,"osm_type":"relation","osm_id":4511480,"type":"administrative","location":[-64.13637835099996,-18.302828849999997],"bbox":[-64.246334,-18.4403429,-64.0418086,-18.1657588],"inferred_type":"city"}
{"name":"Municipio Umala","display_name":"Municipio Umala, Provincia Aroma, La Paz, Bolivia","address":{"city":"Municipio Umala","county":"Provincia Aroma","state":"La Paz","ISO3166-2-lvl4":"BO-L","country":"Bolivia","country_code":"bo"},"population":6605,"osm_type":"relation","osm_id":4500837,"type":"administrative","location":[-68.0114243790392,-17.404834649999998],"bbox":[-68.1830762,-17.5562755,-67.7672271,-17.2535779],"inferred_type":"city"}
{"name":"Municipio Uriondo","display_name":"Municipio Uriondo, Provincia de José María Avilés, Tarija, Bolivia","address":{"city":"Municipio Uriondo","county":"Provincia de José María Avilés","state":"Tarija","ISO3166-2-lvl4":"BO-T","country":"Bolivia","country_code":"bo"},"population":11174,"osm_type":"relation","osm_id":4509729,"type":"administrative","location":[-64.65476390435302,-21.729871199999998],"bbox":[-65.0113145,-21.85003,-64.4825488,-21.6096803],"inferred_type":"city"}
{"name":"Municipio Urubichá","display_name":"Municipio Urubichá, Provincia Guarayos, Santa Cruz, Bolivia","address":{"city":"Municipio Urubichá","county":"Provincia Guarayos","state":"Santa Cruz","ISO3166-2-lvl4":"BO-S","country":"Bolivia","country_code":"bo"},"population":4731,"osm_type":"relation","osm_id":4511241,"type":"administrative","location":[-63.205226621092145,-14.98415995],"bbox":[-63.641396,-15.8505785,-62.7687203,-14.1178097],"inferred_type":"city"}
{"name":"Municipio Vacas","display_name":"Municipio Vacas, Arani, Cochabamba, Bolivia","address":{"city":"Municipio Vacas","county":"Arani","state":"Cochabamba","ISO3166-2-lvl4":"BO-C","country":"Bolivia","country_code":"bo"},"population":8940,"osm_type":"relation","osm_id":4505814,"type":"administrative","location":[-65.59838561214791,-17.60008565],"bbox":[-65.682294,-17.7083776,-65.4356164,-17.4912036],"inferred_type":"city"}
{"name":"Municipio Villa Alcala","display_name":"Municipio Villa Alcala, Provincia Tomina, Chuquisaca, Bolivia","address":{"city":"Municipio Villa Alcala","county":"Provincia Tomina","state":"Chuquisaca","ISO3166-2-lvl4":"BO-H","country":"Bolivia","country_code":"bo"},"population":3660,"osm_type":"relation","osm_id":4507936,"type":"administrative","location":[-64.37825001613527,-19.4264258],"bbox":[-64.4508642,-19.5557763,-64.256768,-19.2969914],"inferred_type":"city"}
{"name":"Municipio Villa Azurduy","display_name":"Municipio Villa Azurduy, Provincia Azurduy, Chuquisaca, Bolivia","address":{"city":"Municipio Villa Azurduy","county":"Provincia Azurduy","state":"Chuquisaca","ISO3166-2-lvl4":"BO-H","country":"Bolivia","country_code":"bo"},"population":10818,"osm_type":"relation","osm_id":4509412,"type":"administrative","location":[-64.44666643053117,-20.1574237],"bbox":[-64.6075714,-20.4858209,-64.2806174,-19.8297009],"inferred_type":"city"}
{"name":"Municipio Villa Mojocoya","display_name":"Municipio Villa Mojocoya, Provincia Jaime Zudáñez, Chuquisaca, Bolivia","address":{"city":"Municipio Villa Mojocoya","county":"Provincia Jaime Zudáñez","state":"Chuquisaca","ISO3166-2-lvl4":"BO-H","country":"Bolivia","country_code":"bo"},"population":7890,"osm_type":"relation","osm_id":4507908,"type":"administrative","location":[-64.63265800875021,-18.79163605],"bbox":[-64.832236,-19.0564002,-64.4787152,-18.5268115],"inferred_type":"city"}
{"name":"Municipio Villa San Lorenzo","display_name":"Municipio Villa San Lorenzo, Eustaquio Méndez, Tarija, Bolivia","address":{"city":"Municipio Villa San Lorenzo","county":"Eustaquio Méndez","state":"Tarija","ISO3166-2-lvl4":"BO-T","country":"Bolivia","country_code":"bo"},"population":18568,"osm_type":"relation","osm_id":4509730,"type":"administrative","location":[-64.76979182286013,-21.259082900000003],"bbox":[-64.9433131,-21.5857333,-64.3905572,-20.9323392],"inferred_type":"city"}
{"name":"Municipio Villa Serrano","display_name":"Municipio Villa Serrano, Provincia Belisario Boeto, Chuquisaca, Bolivia","address":{"city":"Municipio Villa Serrano","county":"Provincia Belisario Boeto","state":"Chuquisaca","ISO3166-2-lvl4":"BO-H","country":"Bolivia","country_code":"bo"},"population":12617,"osm_type":"relation","osm_id":4507937,"type":"administrative","location":[-64.32442229751697,-18.91990905],"bbox":[-64.5089665,-19.2240834,-64.0220629,-18.6149397],"inferred_type":"city"}
{"name":"Municipio Vitichi","display_name":"Municipio Vitichi, Provincia Nor Chichas, Potosí, Bolivia","address":{"city":"Municipio Vitichi","county":"Provincia Nor Chichas","state":"Potosí","ISO3166-2-lvl4":"BO-P","country":"Bolivia","country_code":"bo"},"population":11298,"osm_type":"relation","osm_id":4137634,"type":"administrative","location":[-65.41344237176185,-20.3176853],"bbox":[-65.6500168,-20.6053905,-65.2167441,-20.0213081],"inferred_type":"city"}
{"name":"Municipio Waldo Ballivián","display_name":"Municipio Waldo Ballivián, Provincia Pacajes, La Paz, Bolivia","address":{"city":"Municipio Waldo Ballivián","county":"Provincia Pacajes","state":"La Paz","ISO3166-2-lvl4":"BO-L","country":"Bolivia","country_code":"bo"},"population":1336,"osm_type":"relation","osm_id":4500789,"type":"administrative","location":[-68.22411725421513,-17.113209150000003],"bbox":[-68.3093596,-17.1678843,-68.1580493,-17.0583478],"inferred_type":"city"}
{"name":"Municipio Yaco","display_name":"Municipio Yaco, Provincia Loayza, La Paz, Bolivia","address":{"city":"Municipio Yaco","county":"Provincia Loayza","state":"La Paz","ISO3166-2-lvl4":"BO-L","country":"Bolivia","country_code":"bo"},"population":6420,"osm_type":"relation","osm_id":4502107,"type":"administrative","location":[-67.38451171305488,-17.2474683],"bbox":[-67.5296566,-17.4453847,-67.2937308,-17.0496661],"inferred_type":"city"}
{"name":"Municipio Yamparaez","display_name":"Municipio Yamparaez, Provincia Yamparaez, Chuquisaca, Bolivia","address":{"city":"Municipio Yamparaez","county":"Provincia Yamparaez","state":"Chuquisaca","ISO3166-2-lvl4":"BO-H","country":"Bolivia","country_code":"bo"},"population":10111,"osm_type":"relation","osm_id":4507915,"type":"administrative","location":[-65.08192191238231,-19.2188852],"bbox":[-65.2062809,-19.3850529,-64.9198644,-19.0591782],"inferred_type":"city"}
{"name":"Municipio Yanacachi","display_name":"Municipio Yanacachi, Provincia Sud Yungas, La Paz, Bolivia","address":{"city":"Municipio Yanacachi","county":"Provincia Sud Yungas","state":"La Paz","ISO3166-2-lvl4":"BO-L","country":"Bolivia","country_code":"bo"},"population":4059,"osm_type":"relation","osm_id":4500325,"type":"administrative","location":[-67.77113869270308,-16.409143],"bbox":[-67.9547569,-16.5198865,-67.5913391,-16.2988103],"inferred_type":"city","border":{"name":"Municipio Yanacachi","display_name":"Municipio Yanacachi, Provincia Sud Yungas, La Paz, Bolivia","address":{"administrative":"Municipio Yanacachi","county":"Provincia Sud Yungas","state":"La Paz","ISO3166-2-lvl4":"BO-L","country":"Bolivia","country_code":"bo"},"population":4059,"osm_type":"relation","osm_id":4499810,"type":"administrative","location":[-67.77113869270308,-16.409143],"bbox":[-67.9547569,-16.5198865,-67.5913391,-16.2988103]}}
{"name":"Municipio Yapacaní","display_name":"Municipio Yapacaní, Provincia Ichilo, Santa Cruz, Bolivia","address":{"city":"Municipio Yapacaní","county":"Provincia Ichilo","state":"Santa Cruz","ISO3166-2-lvl4":"BO-S","country":"Bolivia","country_code":"bo"},"population":20353,"osm_type":"relation","osm_id":4511395,"type":"administrative","location":[-64.4677656156172,-16.69934005],"bbox":[-64.8473893,-17.5963,-63.8395198,-15.8020566],"inferred_type":"city"}
{"name":"Municipio Yotala","display_name":"Municipio Yotala, Provincia Oropeza, Chuquisaca, Bolivia","address":{"city":"Municipio Yotala","county":"Provincia Oropeza","state":"Chuquisaca","ISO3166-2-lvl4":"BO-H","country":"Bolivia","country_code":"bo"},"population":9486,"osm_type":"relation","osm_id":4507879,"type":"administrative","location":[-65.27349652915396,-19.237044400000002],"bbox":[-65.3929128,-19.3750619,-65.1290185,-19.0985746],"inferred_type":"city"}
{"name":"Municipio Yunchará","display_name":"Municipio Yunchará, Provincia de José María Avilés, Tarija, Bolivia","address":{"city":"Municipio Yunchará","county":"Provincia de José María Avilés","state":"Tarija","ISO3166-2-lvl4":"BO-T","country":"Bolivia","country_code":"bo"},"population":5036,"osm_type":"relation","osm_id":4509733,"type":"administrative","location":[-65.16117420134421,-21.78247145],"bbox":[-65.4196755,-22.0854558,-64.9538023,-21.479175],"inferred_type":"city"}
{"name":"Municipio Yunguyo del Litoral","display_name":"Municipio Yunguyo del Litoral, Provincia Litoral, Oruro, Bolivia","address":{"city":"Municipio Yunguyo del Litoral","county":"Provincia Litoral","state":"Oruro","ISO3166-2-lvl4":"BO-O","country":"Bolivia","country_code":"bo"},"population":92,"osm_type":"relation","osm_id":4494824,"type":"administrative","location":[-68.34366397985696,-18.88905795],"bbox":[-68.4720723,-18.9679188,-68.2465044,-18.809597],"inferred_type":"city"}
{"name":"Municipio Zudañez","display_name":"Municipio Zudañez, Provincia Jaime Zudáñez, Chuquisaca, Bolivia","address":{"city":"Municipio Zudañez","county":"Provincia Jaime Zudáñez","state":"Chuquisaca","ISO3166-2-lvl4":"BO-H","country":"Bolivia","country_code":"bo"},"population":7150,"osm_type":"relation","osm_id":4507909,"type":"administrative","location":[-64.67873184278221,-19.1216127],"bbox":[-64.8500521,-19.3282876,-64.5731756,-18.9159876],"inferred_type":"city"}
{"name":"Oruro","other_names":{"name:ru":"Оруро","name:zh":"奥鲁罗","name:zh-Hans":"奥鲁罗","old_name:1606":"Villa de San Felipe de Austria"},"display_name":"Oruro, Municipio Oruro, Provincia Cercado, Oruro, Bolivia","address":{"city":"Oruro","county":"Provincia Cercado","state":"Oruro","ISO3166-2-lvl4":"BO-O","country":"Bolivia","country_code":"bo"},"population":264943,"osm_type":"node","osm_id":319780564,"type":"city","location":[-67.1148341,-17.9698363],"bbox":[-67.2748341,-18.1298363,-66.9548341,-17.8098363]}
{"name":"Patacamaya","display_name":"Patacamaya, Provincia Aroma, La Paz, Bolivia","address":{"city":"Patacamaya","county":"Provincia Aroma","state":"La Paz","ISO3166-2-lvl4":"BO-L","country":"Bolivia","country_code":"bo"},"population":11249,"osm_type":"node","osm_id":795493682,"type":"city","location":[-67.9202528,-17.2326745],"bbox":[-68.0802528,-17.3926745,-67.7602528,-17.0726745],"border":{"name":"Patacamaya","other_names":{"official_name":"Municipio Patacamaya"},"display_name":"Patacamaya, Provincia Aroma, La Paz, Bolivia","address":{"city":"Patacamaya","county":"Provincia Aroma","state":"La Paz","ISO3166-2-lvl4":"BO-L","country":"Bolivia","country_code":"bo"},"population":15546,"osm_type":"relation","osm_id":4500835,"type":"administrative","location":[-67.9202528,-17.2326745],"bbox":[-68.1084992,-17.3255189,-67.7657556,-17.0856762]}}
{"name":"Portachuelo","other_names":{"old_name:1770-1826":"La Inmaculada Concepción de la Virgen María de Portachuelo"},"display_name":"Portachuelo, Sara, Santa Cruz, Bolivia","address":{"city":"Portachuelo","county":"Sara","state":"Santa Cruz","ISO3166-2-lvl4":"BO-S","country":"Bolivia","country_code":"bo"},"population":14091,"osm_type":"node","osm_id":495946027,"type":"city","location":[-63.3946477,-17.3545949],"bbox":[-63.5546477,-17.5145949,-63.2346477,-17.1945949],"border":{"name":"Portachuelo","other_names":{"official_name":"Municipio Portachuelo","old_name:1770-1826":"La Inmaculada Concepción de la Virgen María de Portachuelo"},"display_name":"Portachuelo, Sara, Santa Cruz, Bolivia","address":{"city":"Portachuelo","county":"Sara","state":"Santa Cruz","ISO3166-2-lvl4":"BO-S","country":"Bolivia","country_code":"bo"},"population":20359,"osm_type":"relation","osm_id":4511497,"type":"administrative","location":[-63.3946477,-17.3545949],"bbox":[-63.6142826,-17.6177215,-63.2552994,-17.1517726]}}
{"name":"Potosí","other_names":{"name:ru":"Потоси","name:zh":"波托西","old_name:1561":"Villa Imperial de Potosí"},"display_name":"Potosí, Provincia Tomás Frías, Potosí, Bolivia","address":{"city":"Potosí","county":"Provincia Tomás Frías","state":"Potosí","ISO3166-2-lvl4":"BO-P","country":"Bolivia","country_code":"bo"},"population":176022,"osm_type":"node","osm_id":277381654,"type":"city","location":[-65.7534713,-19.5892896],"bbox":[-65.9134713,-19.7492896,-65.5934713,-19.4292896],"border":{"name":"Potosí","other_names":{"official_name":"Municipio Potosí","name:ru":"Потоси","name:zh":"波托西","old_name:1561":"Villa Imperial de Potosí"},"display_name":"Potosí, Provincia Tomás Frías, Potosí, Bolivia","address":{"city":"Potosí","county":"Provincia Tomás Frías","state":"Potosí","ISO3166-2-lvl4":"BO-P","country":"Bolivia","country_code":"bo"},"population":176022,"osm_type":"relation","osm_id":4127118,"type":"administrative","location":[-65.7534713,-19.5892896],"bbox":[-65.9635081,-19.8052453,-65.5474049,-19.2626351]}}
{"name":"Puerto Quijarro","other_names":{"old_name:1940":"Estación Quijarro"},"display_name":"Puerto Quijarro, Germán Busch, Santa Cruz, Bolivia","address":{"city":"Puerto Quijarro","county":"Germán Busch","state":"Santa Cruz","ISO3166-2-lvl4":"BO-S","country":"Bolivia","country_code":"bo"},"population":11071,"osm_type":"node","osm_id":313799826,"type":"city","location":[-57.7157091,-19.0044088],"bbox":[-57.8757091,-19.1644088,-57.5557091,-18.8444088],"border":{"name":"Puerto Quijarro","other_names":{"official_name":"Municipio Puerto Quijarro","old_name:1940":"Estación Quijarro"},"display_name":"Puerto Quijarro, Germán Busch, Santa Cruz, Bolivia","address":{"city":"Puerto Quijarro","county":"Germán Busch","state":"Santa Cruz","ISO3166-2-lvl4":"BO-S","country":"Bolivia","country_code":"bo"},"population":11071,"osm_type":"relation","osm_id":4511327,"type":"administrative","location":[-57.7157091,-19.0044088],"bbox":[-57.8589433,-19.1238409,-57.453,-17.9815104]}}
{"name":"Puerto Suárez","display_name":"Puerto Suárez, Germán Busch, Santa Cruz, Bolivia","address":{"city":"Puerto Suárez","county":"Germán Busch","state":"Santa Cruz","ISO3166-2-lvl4":"BO-S","country":"Bolivia","country_code":"bo"},"population":16343,"osm_type":"node","osm_id":313795146,"type":"city","location":[-57.7974552,-18.9631791],"bbox":[-57.9574552,-19.1231791,-57.6374552,-18.8031791],"border":{"name":"Puerto Suárez","other_names":{"official_name":"Municipio Puerto Suárez"},"display_name":"Puerto Suárez, Germán Busch, Santa Cruz, Bolivia","address":{"city":"Puerto Suárez","county":"Germán Busch","state":"Santa Cruz","ISO3166-2-lvl4":"BO-S","country":"Bolivia","country_code":"bo"},"population":17494,"osm_type":"relation","osm_id":4511328,"type":"administrative","location":[-57.7974552,-18.9631791],"bbox":[-59.0689278,-20.1671238,-57.7142011,-17.9791329]}}
{"name":"Punata","other_names":{"name:ru":"Пуната","loc_name":"La Perla del Valle","old_name:1781":"Curado de Punata","old_name:1838":"Villa de Punata"},"display_name":"Punata, Municipio Punata, Punata, Cochabamba, Bolivia","address":{"city":"Punata","county":"Punata","state":"Cochabamba","ISO3166-2-lvl4":"BO-C","country":"Bolivia","country_code":"bo"},"population":19601,"osm_type":"node","osm_id":794381207,"type":"city","location":[-65.8364548,-17.5452092],"bbox":[-65.9964548,-17.7052092,-65.6764548,-17.3852092],"border":[{"name":"Punata","other_names":{"official_name":"Provincia Punata"},"display_name":"Punata, Cochabamba, Bolivia","address":{"county":"Punata","state":"Cochabamba","ISO3166-2-lvl4":"BO-C","country":"Bolivia","country_code":"bo"},"population":54655,"osm_type":"relation","osm_id":4503309,"type":"administrative","location":[-65.84966050426976,-17.5926818],"bbox":[-65.9526547,-17.7464183,-65.7149148,-17.4382631]},{"name":"Municipio Punata","other_names":{"name:ru":"Пуната","loc_name":"La Perla del Valle","old_name:1781":"Curado de Punata","old_name:1838":"Villa de Punata","alt":"Punata"},"display_name":"Municipio Punata, Punata, Cochabamba, Bolivia","address":{"city":"Municipio Punata","county":"Punata","state":"Cochabamba","ISO3166-2-lvl4":"BO-C","country":"Bolivia","country_code":"bo"},"population":27154,"osm_type":"relation","osm_id":4505800,"type":"administrative","location":[-65.8364548,-17.5452092],"bbox":[-65.9003186,-17.5982649,-65.768067,-17.4682718]}]}
{"name":"Quillacollo","other_names":{"name:ay":"Qella-kollu","name:qu":"Quilla Collu","name:ru":"Кильякольо"},"display_name":"Quillacollo, Cochabamba, Bolivia","address":{"city":"Quillacollo","county":"Quillacollo","state":"Cochabamba","ISO3166-2-lvl4":"BO-C","country":"Bolivia","country_code":"bo"},"population":117859,"osm_type":"node","osm_id":319761585,"type":"city","location":[-66.2814763,-17.3976617],"bbox":[-66.4414763,-17.5576617,-66.1214763,-17.2376617],"border":[{"name":"Quillacollo","other_names":{"official_name":"Provincia Quillacollo"},"display_name":"Quillacollo, Cochabamba, Bolivia","address":{"county":"Quillacollo","state":"Cochabamba","ISO3166-2-lvl4":"BO-C","country":"Bolivia","country_code":"bo"},"population":336615,"osm_type":"relation","osm_id":4503261,"type":"administrative","location":[-66.36693728032891,-17.3754214],"bbox":[-66.5389132,-17.7073383,-66.0939968,-17.0450015]},{"name":"Quillacollo","other_names":{"official_name":"Municipio Quillacollo","name:ay":"Qella-kollu","name:qu":"Quilla Collu","name:ru":"Кильякольо"},"display_name":"Quillacollo, Cochabamba, Bolivia","address":{"city":"Quillacollo","county":"Quillacollo","state":"Cochabamba","ISO3166-2-lvl4":"BO-C","country":"Bolivia","country_code":"bo"},"population":117859,"osm_type":"relation","osm_id":4505697,"type":"administrative","location":[-66.2814763,-17.3976617],"bbox":[-66.4607199,-17.4633835,-66.2229166,-17.0450015]}]}
{"name":"Riberalta","other_names":{"name:en":"Riberalta","name:ru":"Риберальта","old_name:1880":"Barranca Colorada","old_name:1884":"La Cruz","old_name:1885":"Ribera Alta","old_name:1894":"Villa Riberalta"},"display_name":"Riberalta, Antonio Vaca Díez, Beni, Bolivia","address":{"city":"Riberalta","county":"Antonio Vaca Díez","state":"Beni","ISO3166-2-lvl4":"BO-B","country":"Bolivia","country_code":"bo"},"population":78773,"osm_type":"node","osm_id":413185906,"type":"city","location":[-66.0751504,-10.997342],"bbox":[-66.2351504,-11.157342,-65.9151504,-10.837342],"border":{"name":"Riberalta","other_names":{"official_name":"Municipio Riberalta","name:en":"Riberalta","name:ru":"Риберальта","old_name:1880":"Barranca Colorada","old_name:1884":"La Cruz","old_name:1885":"Ribera Alta","old_name:1894":"Villa Riberalta"},"display_name":"Riberalta, Antonio Vaca Díez, Beni, Bolivia","address":{"city":"Riberalta","county":"Antonio Vaca Díez","state":"Beni","ISO3166-2-lvl4":"BO-B","country":"Bolivia","country_code":"bo"},"population":75977,"osm_type":"relation","osm_id":4054847,"type":"administrative","location":[-66.0751504,-10.997342],"bbox":[-66.4915855,-12.0037815,-65.4651136,-10.6883143]}}
{"name":"Roboré","other_names":{"alt_name":"Robore","old_name:1916":"Villa Castelnau"},"display_name":"Roboré, Chiquitos, Santa Cruz, Bolivia","address":{"city":"Roboré","county":"Chiquitos","state":"Santa Cruz","ISO3166-2-lvl4":"BO-S","country":"Bolivia","country_code":"bo"},"population":10594,"osm_type":"node","osm_id":795493530,"type":"city","location":[-59.7561842,-18.3306352],"bbox":[-59.9161842,-18.4906352,-59.5961842,-18.1706352],"border":{"name":"Roboré","other_names":{"official_name":"Municipio Roboré","alt_name":"Robore","old_name:1916":"Villa Castelnau"},"display_name":"Roboré, Chiquitos, Santa Cruz, Bolivia","address":{"city":"Roboré","county":"Chiquitos","state":"Santa Cruz","ISO3166-2-lvl4":"BO-S","country":"Bolivia","country_code":"bo"},"population":15246,"osm_type":"relation","osm_id":4511316,"type":"administrative","location":[-59.7561842,-18.3306352],"bbox":[-60.1175126,-18.6696803,-58.9609424,-17.6402412]}}
{"name":"Rurrenabaque","other_names":{"name:ko":"루레나바께"},"display_name":"Rurrenabaque, General José Ballivián Segurola, Beni, Bolivia","address":{"city":"Rurrenabaque","county":"General José Ballivián Segurola","state":"Beni","ISO3166-2-lvl4":"BO-B","country":"Bolivia","country_code":"bo"},"population":13446,"osm_type":"node","osm_id":413169623,"type":"city","location":[-67.5311806,-14.4437498],"bbox":[-67.6911806,-14.6037498,-67.3711806,-14.2837498],"border":{"name":"Rurrenabaque","other_names":{"official_name":"Municipio Rurrenabaque","name:ko":"루레나바께"},"display_name":"Rurrenabaque, General José Ballivián Segurola, Beni, Bolivia","address":{"city":"Rurrenabaque","county":"General José Ballivián Segurola","state":"Beni","ISO3166-2-lvl4":"BO-B","country":"Bolivia","country_code":"bo"},"population":13446,"osm_type":"relation","osm_id":4055186,"type":"administrative","location":[-67.5311806,-14.4437498],"bbox":[-67.5613505,-15.1943774,-67.0599483,-14.3689785]}}
{"name":"Sacaba","other_names":{"old_name:1761":"Villa de San Pedro de Sacaba"},"display_name":"Sacaba, Chapare, Cochabamba, Bolivia","address":{"city":"Sacaba","county":"Chapare","state":"Cochabamba","ISO3166-2-lvl4":"BO-C","country":"Bolivia","country_code":"bo"},"population":150110,"osm_type":"node","osm_id":415162589,"type":"city","location":[-66.0402928,-17.403834],"bbox":[-66.2002928,-17.563834,-65.8802928,-17.243834],"border":{"name":"Sacaba","other_names":{"official_name":"Municipio Sacaba","old_name:1761":"Villa de San Pedro de Sacaba"},"display_name":"Sacaba, Chapare, Cochabamba, Bolivia","address":{"city":"Sacaba","county":"Chapare","state":"Cochabamba","ISO3166-2-lvl4":"BO-C","country":"Bolivia","country_code":"bo"},"population":150110,"osm_type":"relation","osm_id":4505643,"type":"administrative","location":[-66.0402928,-17.403834],"bbox":[-66.1897115,-17.5080102,-65.792969,-17.1329421]}}
{"name":"Salinas de Garcí Mendoza","other_names":{"official_name":"Municipio Salinas de Garcí Mendoza"},"display_name":"Salinas de Garcí Mendoza, Ladislao Cabrera, Oruro, Bolivia","address":{"city":"Salinas de Garcí Mendoza","county":"Ladislao Cabrera","state":"Oruro","ISO3166-2-lvl4":"BO-O","country":"Bolivia","country_code":"bo"},"population":5761,"osm_type":"relation","osm_id":4495039,"type":"administrative","location":[-67.4843027437667,-19.45967195],"bbox":[-68.0936076,-19.8824642,-67.169536,-19.0367839],"inferred_type":"city"}
{"name":"San Borja","other_names":{"official_name":"San Francisco de Borja"},"display_name":"San Borja, General José Ballivián Segurola, Beni, Bolivia","address":{"city":"San Borja","county":"General José Ballivián Segurola","state":"Beni","ISO3166-2-lvl4":"BO-B","country":"Bolivia","country_code":"bo"},"population":17520,"osm_type":"node","osm_id":415167227,"type":"city","location":[-66.7474736,-14.8582125],"bbox":[-66.9074736,-15.0182125,-66.5874736,-14.6982125],"border":{"name":"San Borja","other_names":{"official_name":"Municipio San Borja","_place_official_name":"San Francisco de Borja"},"display_name":"San Borja, General José Ballivián Segurola, Beni, Bolivia","address":{"city":"San Borja","county":"General José Ballivián Segurola","state":"Beni","ISO3166-2-lvl4":"BO-B","country":"Bolivia","country_code":"bo"},"population":17520,"osm_type":"relation","osm_id":10868035,"type":"administrative","location":[-66.7474736,-14.8582125],"bbox":[-67.1600062,-15.7716133,-66.5118284,-14.3012527]}}
{"name":"San Ignacio de Moxos","other_names":{"alt_name":"Moxos;Mojos","old_name:1689":"La Misión de San Ignacio;San Ignacio de Pampas;San Ignacio de Mojos"},"display_name":"San Ignacio de Moxos, Moxos, Beni, Bolivia","address":{"city":"San Ignacio de Moxos","county":"Moxos","state":"Beni","ISO3166-2-lvl4":"BO-B","country":"Bolivia","country_code":"bo"},"population":10054,"osm_type":"node","osm_id":415167492,"type":"city","location":[-65.641067,-14.9961581],"bbox":[-65.801067,-15.1561581,-65.481067,-14.8361581],"border":[{"name":"San Ignacio de Moxos","display_name":"San Ignacio de Moxos, Canton San Ignacio, San Ignacio de Moxos, Moxos, Beni, Bolivia","address":{"city":"San Ignacio de Moxos","city_district":"Canton San Ignacio","county":"Moxos","state":"Beni","ISO3166-2-lvl4":"BO-B","country":"Bolivia","country_code":"bo"},"osm_type":"way","osm_id":232206245,"type":"city","location":[-65.64099120106684,-14.992000449999999],"bbox":[-65.6575372,-15.0072936,-65.626491,-14.9757099]},{"name":"Moxos","other_names":{"official_name":"Provincia de Moxos"},"display_name":"Moxos, Beni, Bolivia","address":{"county":"Moxos","state":"Beni","ISO3166-2-lvl4":"BO-B","country":"Bolivia","country_code":"bo"},"osm_type":"relation","osm_id":3366116,"type":"administrative","location":[-65.61426114395618,-15.28290925],"bbox":[-66.7136698,-16.4195645,-64.9267387,-14.1369062]},{"name":"San Ignacio de Moxos","other_names":{"official_name":"Municipio San Ignacio de Moxos","alt_name":"Moxos;Mojos","old_name:1689":"La Misión de San Ignacio;San Ignacio de Pampas;San Ignacio de Mojos"},"display_name":"San Ignacio de Moxos, Moxos, Beni, Bolivia","address":{"city":"San Ignacio de Moxos","county":"Moxos","state":"Beni","ISO3166-2-lvl4":"BO-B","country":"Bolivia","country_code":"bo"},"population":20496,"osm_type":"relation","osm_id":4058468,"type":"administrative","location":[-65.641067,-14.9961581],"bbox":[-66.7136698,-16.4195645,-64.9267387,-14.1369062]}]}
{"name":"San Ignacio de Velasco","other_names":{"old_name:1749":"San Ignacio de Loyola"},"display_name":"San Ignacio de Velasco, Velasco, Santa Cruz, Bolivia","address":{"city":"San Ignacio de Velasco","county":"Velasco","state":"Santa Cruz","ISO3166-2-lvl4":"BO-S","country":"Bolivia","country_code":"bo"},"population":23126,"osm_type":"node","osm_id":1725168144,"type":"city","location":[-60.9598466,-16.3738881],"bbox":[-61.1198466,-16.5338881,-60.7998466,-16.2138881],"border":{"name":"San Ignacio de Velasco","other_names":{"official_name":"Municipio San Ignacio de Velasco","old_name:1749":"San Ignacio de Loyola"},"display_name":"San Ignacio de Velasco, Velasco, Santa Cruz, Bolivia","address":{"city":"San Ignacio de Velasco","county":"Velasco","state":"Santa Cruz","ISO3166-2-lvl4":"BO-S","country":"Bolivia","country_code":"bo"},"population":31594,"osm_type":"relation","osm_id":4511303,"type":"administrative","location":[-60.9598466,-16.3738881],"bbox":[-62.1446688,-16.7352119,-59.4954287,-13.4778849]}}
{"name":"San José de Chiquitos","other_names":{"name:ru":"Сан-Хосе-де-Чикитос","name:uk":"Сан-Хосе-де-Чікітос","loc_name":"San José"},"display_name":"San José de Chiquitos, Chiquitos, Santa Cruz, Bolivia","address":{"city":"San José de Chiquitos","county":"Chiquitos","state":"Santa Cruz","ISO3166-2-lvl4":"BO-S","country":"Bolivia","country_code":"bo"},"population":12486,"osm_type":"node","osm_id":795493542,"type":"city","location":[-60.7421903,-17.8454338],"bbox":[-60.9021903,-18.0054338,-60.5821903,-17.6854338],"border":[{"name":"San José de Chiquitos","display_name":"San José de Chiquitos, Chiquitos, Santa Cruz, Bolivia","address":{"city":"San José de Chiquitos","county":"Chiquitos","state":"Santa Cruz","ISO3166-2-lvl4":"BO-S","country":"Bolivia","country_code":"bo"},"osm_type":"way","osm_id":410592596,"type":"city","location":[-60.73573924843785,-17.8449102],"bbox":[-60.7523285,-17.8588435,-60.7202967,-17.8316976]},{"name":"San José de Chiquitos","other_names":{"official_name":"Municipio San José de Chiquitos","name:ru":"Сан-Хосе-де-Чикитос","name:uk":"Сан-Хосе-де-Чікітос","loc_name":"San José"},"display_name":"San José de Chiquitos, Chiquitos, Santa Cruz, Bolivia","address":{"city":"San José de Chiquitos","county":"Chiquitos","state":"Santa Cruz","ISO3166-2-lvl4":"BO-S","country":"Bolivia","country_code":"bo"},"population":14318,"osm_type":"relation","osm_id":4511317,"type":"administrative","location":[-60.7421903,-17.8454338],"bbox":[-61.2636633,-18.4166097,-59.520197,-17.0090507]}]}
{"name":"San Julián","display_name":"San Julián, Municipio San Julián, Provincia Ñuflo de Chávez, Santa Cruz, Bolivia","address":{"city":"San Julián","county":"Provincia Ñuflo de Chávez","state":"Santa Cruz","ISO3166-2-lvl4":"BO-S","country":"Bolivia","country_code":"bo"},"population":19374,"osm_type":"node","osm_id":795493560,"type":"city","location":[-62.6153727,-16.910497],"bbox":[-62.7753727,-17.070497,-62.4553727,-16.750497]}
{"name":"Santa Ana del Yacuma","other_names":{"old_name:1708-1826":"San Lorenzo"},"display_name":"Santa Ana del Yacuma, Yacuma, Beni, Bolivia","address":{"city":"Santa Ana del Yacuma","county":"Yacuma","state":"Beni","ISO3166-2-lvl4":"BO-B","country":"Bolivia","country_code":"bo"},"population":12191,"osm_type":"node","osm_id":794504245,"type":"city","location":[-65.4279305,-13.7454829],"bbox":[-65.5879305,-13.9054829,-65.2679305,-13.5854829],"border":[{"name":"Santa Ana del Yacuma","display_name":"Santa Ana del Yacuma, Canton Santa Ana, Santa Ana del Yacuma, Yacuma, Beni, Bolivia","address":{"city":"Santa Ana del Yacuma","city_district":"Canton Santa Ana","county":"Yacuma","state":"Beni","ISO3166-2-lvl4":"BO-B","country":"Bolivia","country_code":"bo"},"osm_type":"way","osm_id":69355710,"type":"city","location":[-65.4268400164017,-13.745975099999999],"bbox":[-65.4354788,-13.7592431,-65.4153059,-13.7328035]},{"name":"Santa Ana del Yacuma","other_names":{"official_name":"Municipio Santa Ana del Yacuma","old_name:1708-1826":"San Lorenzo"},"display_name":"Santa Ana del Yacuma, Yacuma, Beni, Bolivia","address":{"city":"Santa Ana del Yacuma","county":"Yacuma","state":"Beni","ISO3166-2-lvl4":"BO-B","country":"Bolivia","country_code":"bo"},"population":22430,"osm_type":"relation","osm_id":3365921,"type":"administrative","location":[-65.4279305,-13.7454829],"bbox":[-66.5196217,-15.5998493,-65.023899,-13.2798051]}]}
{"name":"Santa Cruz de la Sierra","other_names":{"name:ar":"سانتا كروز دي لا سييرا","name:ay":"Santa Krus","name:de":"Santa Cruz de la Sierra","name:en":"Santa Cruz de la Sierra","name:fa":"سانتا کروس د لا سیرا","name:fr":"Santa Cruz de la Sierra","name:gn":"Santa Cruz de la Sierra","name:it":"Santa Cruz de la Sierra","name:nl":"Santa Cruz de la Sierra","name:pt":"Santa Cruz de la Sierra","name:qu":"Santa Krus","name:ru":"Санта-Крус-де-ла-Сьерра","name:ur":"سانتا کروز دے لا سیئرا","old_name":"Las Llanuras del Grigotá"},"display_name":"Santa Cruz de la Sierra, Municipio Santa Cruz de la Sierra, Provincia Andrés Ibáñez, Santa Cruz, Bolivia","address":{"city":"Santa Cruz de la Sierra","county":"Provincia Andrés Ibáñez","state":"Santa Cruz","ISO3166-2-lvl4":"BO-S","country":"Bolivia","country_code":"bo"},"population":2000000,"osm_type":"node","osm_id":415163462,"type":"city","location":[-63.1820853,-17.7834217],"bbox":[-63.3420853,-17.9434217,-63.0220853,-17.6234217],"border":{"name":"Municipio Santa Cruz de la Sierra","other_names":{"name:el":"Σάντα Κρουζ ντε λα Σιέρρα","name:ar":"سانتا كروز دي لا سييرا","name:ay":"Santa Krus","name:de":"Santa Cruz de la Sierra","name:en":"Santa Cruz de la Sierra","name:fa":"سانتا کروس د لا سیرا","name:fr":"Santa Cruz de la Sierra","name:gn":"Santa Cruz de la Sierra","name:it":"Santa Cruz de la Sierra","name:nl":"Santa Cruz de la Sierra","name:pt":"Santa Cruz de la Sierra","name:qu":"Santa Krus","name:ru":"Санта-Крус-де-ла-Сьерра","name:ur":"سانتا کروز دے لا سیئرا","old_name":"Las Llanuras del Grigotá","alt":"Santa Cruz de la Sierra"},"display_name":"Municipio Santa Cruz de la Sierra, Provincia Andrés Ibáñez, Santa Cruz, Bolivia","address":{"city":"Municipio Santa Cruz de la Sierra","county":"Provincia Andrés Ibáñez","state":"Santa Cruz","ISO3166-2-lvl4":"BO-S","country":"Bolivia","country_code":"bo"},"population":709584,"osm_type":"relation","osm_id":4511527,"type":"administrative","location":[-63.1820853,-17.7834217],"bbox":[-63.2840834,-18.0179123,-62.7626556,-17.508098]}}
{"name":"Santiváñez","other_names":{"official_name":"Municipio Santiváñez"},"display_name":"Santiváñez, Capinota, Cochabamba, Bolivia","address":{"city":"Santiváñez","county":"Capinota","state":"Cochabamba","ISO3166-2-lvl4":"BO-C","country":"Bolivia","country_code":"bo"},"population":6332,"osm_type":"relation","osm_id":4505766,"type":"administrative","location":[-66.21237186181921,-17.56972725],"bbox":[-66.3255336,-17.6836564,-66.116754,-17.4725905],"inferred_type":"city"}
{"name":"Sucre","other_names":{"name:ar":"سوكري","name:ay":"Sukri","name:az":"Sukre","name:be":"Сукрэ","name:bg":"Сукре","name:bo":"སུ་ཁུ་རེ།","name:ca":"Sucre","name:de":"Sucre","name:el":"Σούκρε","name:en":"Sucre","name:eo":"Sukro","name:fa":"سوکره","name:fr":"Sucre","name:gn":"Sucre","name:he":"סוקרה","name:ht":"Sik","name:hu":"Sucre történelmi óvárosa","name:hy":"Սուկրե","name:id":"Sucre","name:is":"Súkre","name:ja":"スクレ","name:ka":"სუკრე","name:kn":"ಸುಕ್ರೆ","name:ko":"수크레","name:lt":"Sukrė","name:lv":"Sukre","name:mk":"Сукре","name:mr":"सुक्रे","name:oc":"Sucre","name:os":"Сукре","name:pl":"Sucre","name:qu":"Chuqichaka","name:ru":"Сукре","name:sr":"Сукре","name:sv":"Sucre","name:ta":"சூக்ரே","name:tg":"Иёлоти Сукре","name:th":"ซูเกร","name:ug":"سۇكرې","name:uk":"Сукре","name:ur":"سکرے","name:zh":"蘇克雷","old_name:1538":"Chuquisaca","name:be-tarask":"Сукрэ","old_name:1538-1825":"La Plata"},"display_name":"Sucre, Municipio Sucre, Provincia Oropeza, Chuquisaca, Bolivia","address":{"city":"Sucre","county":"Provincia Oropeza","state":"Chuquisaca","ISO3166-2-lvl4":"BO-H","country":"Bolivia","country_code":"bo"},"population":238798,"osm_type":"node","osm_id":313764484,"type":"city","location":[-65.2594306,-19.0477251],"bbox":[-65.4194306,-19.2077251,-65.0994306,-18.8877251]}
{"name":"Tarija","other_names":{"name:ru":"Тариха","old_name:1574":"Villa de San Bernardo de la Frontera de Tarixa"},"display_name":"Tarija, Municipio Tarija, Provincia Cercado, Tarija, Bolivia","address":{"city":"Tarija","county":"Provincia Cercado","state":"Tarija","ISO3166-2-lvl4":"BO-T","country":"Bolivia","country_code":"bo"},"population":179561,"osm_type":"node","osm_id":4098894827,"type":"city","location":[-64.7343559,-21.5338794],"bbox":[-64.8943559,-21.6938794,-64.5743559,-21.3738794],"border":{"name":"Municipio Tarija","other_names":{"name:ru":"Тариха","old_name:1574":"Villa de San Bernardo de la Frontera de Tarixa","alt":"Tarija"},"display_name":"Municipio Tarija, Provincia Cercado, Tarija, Bolivia","address":{"city":"Municipio Tarija","county":"Provincia Cercado","state":"Tarija","ISO3166-2-lvl4":"BO-T","country":"Bolivia","country_code":"bo"},"population":108241,"osm_type":"relation","osm_id":4509727,"type":"administrative","location":[-64.7343559,-21.5338794],"bbox":[-65.0116371,-21.8690208,-64.3317169,-21.2375569]}}
{"name":"Tiquipaya","other_names":{"name:qu":"Tikipaya","loc_name":"La Ciudad de las Flores","official_name":"San Miguel de Tiquipaya"},"display_name":"Tiquipaya, Quillacollo, Cochabamba, Bolivia","address":{"city":"Tiquipaya","county":"Quillacollo","state":"Cochabamba","ISO3166-2-lvl4":"BO-C","country":"Bolivia","country_code":"bo"},"population":49473,"osm_type":"node","osm_id":3139139192,"type":"city","location":[-66.2188861,-17.3381676],"bbox":[-66.3788861,-17.4981676,-66.0588861,-17.1781676],"border":{"name":"Tiquipaya","other_names":{"official_name":"Municipio de Tiquipaya","name:qu":"Tikipaya","loc_name":"La Ciudad de las Flores","_place_official_name":"San Miguel de Tiquipaya"},"display_name":"Tiquipaya, Quillacollo, Cochabamba, Bolivia","address":{"city":"Tiquipaya","county":"Quillacollo","state":"Cochabamba","ISO3166-2-lvl4":"BO-C","country":"Bolivia","country_code":"bo"},"population":53904,"osm_type":"relation","osm_id":4505699,"type":"administrative","location":[-66.2188861,-17.3381676],"bbox":[-66.2988432,-17.374524,-66.0939968,-17.0711848]}}
{"name":"Trinidad","other_names":{"name:ay":"Kimsantin","name:de":"Trinidad","name:en":"Trinidad","name:fr":"Trinidad","name:it":"Trinidad","name:nl":"Trinidad","name:pt":"Trinidad","name:qu":"Kimsantin","name:ru":"Тринидад","official_name":"Santísima Trinidad","old_name:1686":"La Santísima Trinidad"},"display_name":"Trinidad, Provincia de Cercado, Beni, Bolivia","address":{"city":"Trinidad","county":"Provincia de Cercado","state":"Beni","ISO3166-2-lvl4":"BO-B","country":"Bolivia","country_code":"bo"},"population":101628,"osm_type":"node","osm_id":415165872,"type":"city","location":[-64.9044936,-14.8349438],"bbox":[-65.0644936,-14.9949438,-64.7444936,-14.6749438],"border":{"name":"Trinidad","other_names":{"alt_name":"Santísima Trinidad","official_name":"Municipio de la Santísima Trinidad","name:ay":"Kimsantin","name:de":"Trinidad","name:en":"Trinidad","name:fr":"Trinidad","name:it":"Trinidad","name:nl":"Trinidad","name:pt":"Trinidad","name:qu":"Kimsantin","name:ru":"Тринидад","_place_official_name":"Santísima Trinidad","old_name:1686":"La Santísima Trinidad"},"display_name":"Trinidad, Provincia de Cercado, Beni, Bolivia","address":{"city":"Trinidad","county":"Provincia de Cercado","state":"Beni","ISO3166-2-lvl4":"BO-B","country":"Bolivia","country_code":"bo"},"population":79963,"osm_type":"relation","osm_id":4057055,"type":"administrative","location":[-64.9044936,-14.8349438],"bbox":[-65.0623916,-15.0216025,-63.9736021,-14.7264593]}}
{"name":"Tupiza","other_names":{"name:ru":"Туписа","alt_name":"Ciudad Chicheña de Tupiza"},"display_name":"Tupiza, Sur Chichas, Potosí, Bolivia","address":{"city":"Tupiza","county":"Sur Chichas","state":"Potosí","ISO3166-2-lvl4":"BO-P","country":"Bolivia","country_code":"bo"},"population":27463,"osm_type":"node","osm_id":319550086,"type":"city","location":[-65.7208365,-21.4437717],"bbox":[-65.8808365,-21.6037717,-65.5608365,-21.2837717],"border":{"name":"Tupiza","other_names":{"official_name":"Municipio Tupiza","name:ru":"Туписа","alt_name":"Ciudad Chicheña de Tupiza"},"display_name":"Tupiza, Sur Chichas, Potosí, Bolivia","address":{"city":"Tupiza","county":"Sur Chichas","state":"Potosí","ISO3166-2-lvl4":"BO-P","country":"Bolivia","country_code":"bo"},"population":38337,"osm_type":"relation","osm_id":4137632,"type":"administrative","location":[-65.7208365,-21.4437717],"bbox":[-66.3367462,-21.8599102,-65.244573,-21.0684109]}}
{"name":"Uyuni","display_name":"Uyuni, Antonio Quijarro, Potosí, Bolivia","address":{"city":"Uyuni","county":"Antonio Quijarro","state":"Potosí","ISO3166-2-lvl4":"BO-P","country":"Bolivia","country_code":"bo"},"population":18134,"osm_type":"node","osm_id":795493613,"type":"city","location":[-66.8239072,-20.4628406],"bbox":[-66.9839072,-20.6228406,-66.6639072,-20.3028406],"border":{"name":"Uyuni","other_names":{"official_name":"Municipio Uyuni"},"display_name":"Uyuni, Antonio Quijarro, Potosí, Bolivia","address":{"city":"Uyuni","county":"Antonio Quijarro","state":"Potosí","ISO3166-2-lvl4":"BO-P","country":"Bolivia","country_code":"bo"},"population":18705,"osm_type":"relation","osm_id":4137633,"type":"administrative","location":[-66.8239072,-20.4628406],"bbox":[-67.2703643,-20.9907398,-66.1873169,-19.3554981]}}
{"name":"Vallegrande","other_names":{"official_name":"Jesús y Montes Claros de los Caballeros del Vallegrande"},"display_name":"Vallegrande, Santa Cruz, Bolivia","address":{"city":"Vallegrande","county":"Vallegrande","state":"Santa Cruz","ISO3166-2-lvl4":"BO-S","country":"Bolivia","country_code":"bo"},"population":10158,"osm_type":"node","osm_id":795493695,"type":"city","location":[-64.1081091,-18.4894001],"bbox":[-64.2681091,-18.6494001,-63.9481091,-18.3294001],"border":[{"name":"Vallegrande","display_name":"Vallegrande, Santa Cruz, Bolivia","address":{"city":"Vallegrande","county":"Vallegrande","state":"Santa Cruz","ISO3166-2-lvl4":"BO-S","country":"Bolivia","country_code":"bo"},"osm_type":"way","osm_id":251210285,"type":"city","location":[-64.10454936458869,-18.48818365],"bbox":[-64.1165615,-18.5032069,-64.095531,-18.4738081]},{"name":"Vallegrande","other_names":{"official_name":"Provincia Vallegrande"},"display_name":"Vallegrande, Santa Cruz, Bolivia","address":{"county":"Vallegrande","state":"Santa Cruz","ISO3166-2-lvl4":"BO-S","country":"Bolivia","country_code":"bo"},"osm_type":"relation","osm_id":3371971,"type":"administrative","location":[-63.978306861325464,-18.66908235],"bbox":[-64.4954357,-19.1845059,-63.5265264,-18.1536327]},{"name":"Vallegrande","other_names":{"official_name":"Municipio Vallegrande","_place_official_name":"Jesús y Montes Claros de los Caballeros del Vallegrande"},"display_name":"Vallegrande, Santa Cruz, Bolivia","address":{"city":"Vallegrande","county":"Vallegrande","state":"Santa Cruz","ISO3166-2-lvl4":"BO-S","country":"Bolivia","country_code":"bo"},"population":16621,"osm_type":"relation","osm_id":4511481,"type":"administrative","location":[-64.1081091,-18.4894001],"bbox":[-64.3031771,-19.1845059,-63.5313103,-18.2925376]}]}
{"name":"Viacha","other_names":{"name:ay":"Wiyacha","old_name:1551":"Tambo de Viacha"},"display_name":"Viacha, Ingavi, La Paz, Bolivia","address":{"city":"Viacha","county":"Ingavi","state":"La Paz","ISO3166-2-lvl4":"BO-L","country":"Bolivia","country_code":"bo"},"population":62979,"osm_type":"node","osm_id":412332419,"type":"city","location":[-68.3021891,-16.6534864],"bbox":[-68.4621891,-16.8134864,-68.1421891,-16.4934864],"border":{"name":"Viacha","other_names":{"official_name":"Municipio Viacha","name:ay":"Wiyacha","old_name:1551":"Tambo de Viacha"},"display_name":"Viacha, Ingavi, La Paz, Bolivia","address":{"city":"Viacha","county":"Ingavi","state":"La Paz","ISO3166-2-lvl4":"BO-L","country":"Bolivia","country_code":"bo"},"population":54761,"osm_type":"relation","osm_id":4500580,"type":"administrative","location":[-68.3021891,-16.6534864],"bbox":[-68.4836536,-16.9172211,-68.14693,-16.5466396]}}
{"name":"Villa Montes","other_names":{"alt_name":"Villamontes"},"display_name":"Villa Montes, Gran Chaco, Tarija, Bolivia","address":{"city":"Villa Montes","county":"Gran Chaco","state":"Tarija","ISO3166-2-lvl4":"BO-T","country":"Bolivia","country_code":"bo"},"population":30228,"osm_type":"node","osm_id":319509344,"type":"city","location":[-63.4722606,-21.2589001],"bbox":[-63.6322606,-21.4189001,-63.3122606,-21.0989001],"border":{"name":"Villa Montes","other_names":{"official_name":"Municipio Villa Montes","alt_name":"Villamontes"},"display_name":"Villa Montes, Gran Chaco, Tarija, Bolivia","address":{"city":"Villa Montes","county":"Gran Chaco","state":"Tarija","ISO3166-2-lvl4":"BO-T","country":"Bolivia","country_code":"bo"},"population":19568,"osm_type":"relation","osm_id":4509731,"type":"administrative","location":[-63.4722606,-21.2589001],"bbox":[-63.989806,-22.2514041,-62.2579431,-20.9895132]}}
{"name":"Villazón","other_names":{"name:lt":"Viljasonas","name:ru":"Вильясон","old_name":"La Quiaca Boliviana"},"display_name":"Villazón, Provincia Modesto Omiste, Potosí, Bolivia","address":{"city":"Villazón","county":"Provincia Modesto Omiste","state":"Potosí","ISO3166-2-lvl4":"BO-P","country":"Bolivia","country_code":"bo"},"population":35337,"osm_type":"node","osm_id":276957417,"type":"city","location":[-65.5956943,-22.090727],"bbox":[-65.7556943,-22.250727,-65.4356943,-21.930727],"border":{"name":"Villazón","other_names":{"official_name":"Municipio Villazón","name:lt":"Viljasonas","name:ru":"Вильясон","old_name":"La Quiaca Boliviana"},"display_name":"Villazón, Provincia Modesto Omiste, Potosí, Bolivia","address":{"city":"Villazón","county":"Provincia Modesto Omiste","state":"Potosí","ISO3166-2-lvl4":"BO-P","country":"Bolivia","country_code":"bo"},"population":36266,"osm_type":"relation","osm_id":4137626,"type":"administrative","location":[-65.5956943,-22.090727],"bbox":[-66.1234653,-22.1116031,-65.1806464,-21.6572399]}}
{"name":"Vinto","other_names":{"name:qu":"Wintu"},"display_name":"Vinto, Quillacollo, Cochabamba, Bolivia","address":{"city":"Vinto","county":"Quillacollo","state":"Cochabamba","ISO3166-2-lvl4":"BO-C","country":"Bolivia","country_code":"bo"},"population":41047,"osm_type":"node","osm_id":794376713,"type":"city","location":[-66.3135814,-17.3967933],"bbox":[-66.4735814,-17.5567933,-66.1535814,-17.2367933],"border":{"name":"Vinto","other_names":{"official_name":"Municipio Vinto","name:qu":"Wintu"},"display_name":"Vinto, Quillacollo, Cochabamba, Bolivia","address":{"city":"Vinto","county":"Quillacollo","state":"Cochabamba","ISO3166-2-lvl4":"BO-C","country":"Bolivia","country_code":"bo"},"population":51968,"osm_type":"relation","osm_id":4505700,"type":"administrative","location":[-66.3135814,-17.3967933],"bbox":[-66.4592969,-17.4259535,-66.2869807,-17.2572127]}}
{"name":"Warnes","other_names":{"old_name:1790-1891":"Enconada"},"display_name":"Warnes, Municipio Warnes, Provincia Warnes, Santa Cruz, Bolivia","address":{"city":"Warnes","county":"Provincia Warnes","state":"Santa Cruz","ISO3166-2-lvl4":"BO-S","country":"Bolivia","country_code":"bo"},"population":77918,"osm_type":"node","osm_id":494856597,"type":"city","location":[-63.1647184,-17.5100818],"bbox":[-63.3247184,-17.6700818,-63.0047184,-17.3500818],"border":{"name":"Municipio Warnes","other_names":{"old_name:1790-1891":"Enconada","alt":"Warnes"},"display_name":"Municipio Warnes, Provincia Warnes, Santa Cruz, Bolivia","address":{"city":"Municipio Warnes","county":"Provincia Warnes","state":"Santa Cruz","ISO3166-2-lvl4":"BO-S","country":"Bolivia","country_code":"bo"},"population":38285,"osm_type":"relation","osm_id":4511521,"type":"administrative","location":[-63.1647184,-17.5100818],"bbox":[-63.2680579,-17.6848074,-62.9213656,-17.0356063]}}
{"name":"Yacuíba","other_names":{"official_name":"Municipio Yacuíba"},"display_name":"Yacuíba, Gran Chaco, Tarija, Bolivia","address":{"city":"Yacuíba","county":"Gran Chaco","state":"Tarija","ISO3166-2-lvl4":"BO-T","country":"Bolivia","country_code":"bo"},"population":47228,"osm_type":"relation","osm_id":4509732,"type":"administrative","location":[-63.28265918148699,-21.786600149999998],"bbox":[-63.7212437,-22.0547684,-62.8111757,-21.5190178],"inferred_type":"city"}
{"name":"Yacuiba","other_names":{"old_name:1859":"Yacundo"},"display_name":"Yacuiba, Yacuíba, Gran Chaco, Tarija, Bolivia","address":{"city":"Yacuiba","county":"Gran Chaco","state":"Tarija","ISO3166-2-lvl4":"BO-T","country":"Bolivia","country_code":"bo"},"population":61917,"osm_type":"node","osm_id":5059605309,"type":"city","location":[-63.6781103,-22.0136831],"bbox":[-63.8381103,-22.1736831,-63.5181103,-21.8536831]}
{"name":"Yapacaní","other_names":{"official_name":"Villa Yapacaní"},"display_name":"Yapacaní, Yapacani, Provincia Ichilo, Santa Cruz, Bolivia","address":{"city":"Yapacaní","county":"Provincia Ichilo","state":"Santa Cruz","ISO3166-2-lvl4":"BO-S","country":"Bolivia","country_code":"bo"},"population":30939,"osm_type":"node","osm_id":494908239,"type":"city","location":[-63.8813514,-17.4020623],"bbox":[-64.0413514,-17.5620623,-63.7213514,-17.2420623]}
