{"name":"Айтос","other_names":{"name:bg":"Айтос","name:de":"Ajtos","name:el":"Άιτος","name:en":"Aytos","name:es":"Aytos","name:fr":"Aïtos","name:hr":"Ajtos","name:it":"Ajtos","name:mk":"Ајтос","name:pl":"Ajtos","name:ro":"Aitos","name:sr":"Ајтос","name:tr":"Aydos","int_name":"Aytos"},"display_name":"Айтос, Бургас, 8500, България","address":{"town":"Айтос","state_district":"Айтос","state":"Бургас","ISO3166-2-lvl4":"BG-02","postcode":"8500","country":"България","country_code":"bg"},"population":19615,"osm_type":"node","osm_id":7507640326,"type":"town","location":[27.2520386,42.7018865],"bbox":[27.2120386,42.6618865,27.2920386,42.7418865]}
{"name":"Аксаково","other_names":{"name:de":"Aksakowo","name:en":"Aksakovo","int_name":"Aksakovo"},"display_name":"Аксаково, Варна, България","address":{"town":"Аксаково","state_district":"Аксаково","state":"Варна","ISO3166-2-lvl4":"BG-03","country":"България","country_code":"bg"},"population":8042,"osm_type":"node","osm_id":273488680,"type":"town","location":[27.8173611,43.2586259],"bbox":[27.7773611,43.2186259,27.8573611,43.2986259],"border":{"name":"Аксаково","other_names":{"name:bg":"Аксаково","name:en":"Aksakovo","name:de":"Aksakowo","int_name":"Aksakovo"},"display_name":"Аксаково, Варна, 9154, България","address":{"town":"Аксаково","state_district":"Аксаково","state":"Варна","ISO3166-2-lvl4":"BG-03","postcode":"9154","country":"България","country_code":"bg"},"population":8042,"osm_type":"relation","osm_id":13477356,"type":"administrative","location":[27.8173611,43.2586259],"bbox":[27.7884821,43.228703,27.836826,43.3032427]}}
{"name":"Алфатар","other_names":{"name:en":"Alfatar","name:lt":"Alfataras","name:ru":"Алфатар","int_name":"Alfatar"},"display_name":"Алфатар, Силистра, България","address":{"town":"Алфатар","state_district":"Алфатар","state":"Силистра","ISO3166-2-lvl4":"BG-19","country":"България","country_code":"bg"},"osm_type":"node","osm_id":273488708,"type":"town","location":[27.2869625,43.9440454],"bbox":[27.2469625,43.9040454,27.3269625,43.9840454],"border":{"name":"Алфатар","other_names":{"name:bg":"Алфатар","name:en":"Alfatar","name:lt":"Alfataras","name:ru":"Алфатар","int_name":"Alfatar"},"display_name":"Алфатар, Силистра, България","address":{"town":"Алфатар","state_district":"Алфатар","state":"Силистра","ISO3166-2-lvl4":"BG-19","country":"България","country_code":"bg"},"osm_type":"relation","osm_id":12996400,"type":"administrative","location":[27.2869625,43.9440454],"bbox":[27.1909368,43.872628,27.3533834,44.0010427]}}
{"name":"Антоново","other_names":{"name:en":"Antonovo","int_name":"Antonovo"},"display_name":"Антоново, Търговище, България","address":{"town":"Антоново","state_district":"Антоново","state":"Търговище","ISO3166-2-lvl4":"BG-25","country":"България","country_code":"bg"},"osm_type":"node","osm_id":273488999,"type":"town","location":[26.1616683,43.1497923],"bbox":[26.1216683,43.1097923,26.2016683,43.1897923],"border":{"name":"Антоново","other_names":{"name:bg":"Антоново","name:en":"Antonovo","int_name":"Antonovo"},"display_name":"Антоново, Търговище, България","address":{"town":"Антоново","state_district":"Антоново","state":"Търговище","ISO3166-2-lvl4":"BG-25","country":"България","country_code":"bg"},"osm_type":"relation","osm_id":13265755,"type":"administrative","location":[26.1616683,43.1497923],"bbox":[26.1366714,43.1197749,26.256495,43.1699715]}}
{"name":"Априлци","other_names":{"name:bg":"Априлци","name:en":"Apriltsi","int_name":"Apriltsi"},"display_name":"Априлци, Ловеч, България","address":{"town":"Априлци","state_district":"Априлци","state":"Ловеч","ISO3166-2-lvl4":"BG-11","country":"България","country_code":"bg"},"osm_type":"node","osm_id":273488989,"type":"town","location":[24.9134025,42.8407855],"bbox":[24.8734025,42.8007855,24.9534025,42.8807855],"border":{"name":"Априлци","other_names":{"name:bg":"Априлци","name:en":"Apriltsi","int_name":"Apriltsi"},"display_name":"Априлци, Ловеч, България","address":{"town":"Априлци","state_district":"Априлци","state":"Ловеч","ISO3166-2-lvl4":"BG-11","country":"България","country_code":"bg"},"osm_type":"relation","osm_id":17402810,"type":"administrative","location":[24.9134025,42.8407855],"bbox":[24.817724,42.7162736,25.02058,42.884681]}}
{"name":"Ардино","other_names":{"name:bg":"Ардино","name:en":"Ardino","name:fr":"Ardino","name:tr":"Eğridere","int_name":"Ardino","alt_name:tr":"Eğri Dere","old_name:tr":"Hacı Köy"},"display_name":"Ардино, Кърджали, 6750, България","address":{"town":"Ардино","state_district":"Ардино","state":"Кърджали","ISO3166-2-lvl4":"BG-09","postcode":"6750","country":"България","country_code":"bg"},"population":3989,"osm_type":"node","osm_id":273488993,"type":"town","location":[25.1338545,41.5809659],"bbox":[25.0938545,41.5409659,25.1738545,41.6209659]}
{"name":"Асеновград","other_names":{"name:bg":"Асеновград","name:de":"Assenowgrad","name:el":"Ασένοβγκραντ","name:en":"Asenovgrad","name:et":"Asenovgrad","name:fr":"Assénovgrad","name:pl":"Asenowgrad","int_name":"Asenovgrad","alt_name:el":"Στενήμαχος"},"display_name":"Асеновград, Пловдив, 4230, България","address":{"town":"Асеновград","state_district":"Асеновград","state":"Пловдив","ISO3166-2-lvl4":"BG-16","postcode":"4230","country":"България","country_code":"bg"},"population":54778,"osm_type":"node","osm_id":273488997,"type":"town","location":[24.8762702,42.0073633],"bbox":[24.8362702,41.9673633,24.9162702,42.0473633]}
{"name":"Ахелой","other_names":{"name:bg":"Ахелой","name:en":"Aheloy","name:fr":"Akheloï","name:ru":"Ахелой","name:sr":"Ахелој","int_name":"Aheloy"},"display_name":"Ахелой, Поморие, Бургас, 8217, България","address":{"town":"Ахелой","state_district":"Поморие","state":"Бургас","ISO3166-2-lvl4":"BG-02","postcode":"8217","country":"България","country_code":"bg"},"population":2087,"osm_type":"node","osm_id":273874774,"type":"town","location":[27.6477519,42.6486312],"bbox":[27.6077519,42.6086312,27.6877519,42.6886312],"border":{"name":"Ахелой","other_names":{"name:bg":"Ахелой","name:en":"Aheloy","name:fr":"Akheloï","name:ru":"Ахелой","name:sr":"Ахелој","int_name":"Aheloy"},"display_name":"Ахелой, Поморие, Бургас, България","address":{"town":"Ахелой","state_district":"Поморие","state":"Бургас","ISO3166-2-lvl4":"BG-02","country":"България","country_code":"bg"},"population":2087,"osm_type":"relation","osm_id":18529881,"type":"administrative","location":[27.6477519,42.6486312],"bbox":[27.6152585,42.6238647,27.66758,42.682816]}}
{"name":"Ахтопол","other_names":{"name:bg":"Ахтопол","name:de":"Achtopol","name:el":"Αγαθούπολη","name:en":"Ahtopol","name:fr":"Аkhtopol","int_name":"Ahtopol"},"display_name":"Ахтопол, Царево, Бургас, 8280, България","address":{"town":"Ахтопол","state_district":"Царево","state":"Бургас","ISO3166-2-lvl4":"BG-02","postcode":"8280","country":"България","country_code":"bg"},"population":1419,"osm_type":"node","osm_id":455943256,"type":"town","location":[27.9434142,42.0995866],"bbox":[27.9034142,42.0595866,27.9834142,42.1395866]}
{"name":"Балчик","other_names":{"name:bg":"Балчик","name:cs":"Balčik","name:de":"Baltschik","name:en":"Balchik","name:es":"Balchik","name:fr":"Baltchik","name:hu":"Balcsik","name:nl":"Baltsjik","name:pl":"Bałczik","name:ro":"Balcic","name:sv":"Baltjik","int_name":"Balchik"},"display_name":"Балчик, Добрич, България","address":{"town":"Балчик","state_district":"Балчик","state":"Добрич","ISO3166-2-lvl4":"BG-08","country":"България","country_code":"bg"},"population":12690,"osm_type":"node","osm_id":273488705,"type":"town","location":[28.1681094,43.4049361],"bbox":[28.1281094,43.3649361,28.2081094,43.4449361],"border":{"name":"Балчик","other_names":{"name:bg":"Балчик","name:en":"Balchik","name:cs":"Balčik","name:de":"Baltschik","name:es":"Balchik","name:fr":"Baltchik","name:hu":"Balcsik","name:nl":"Baltsjik","name:pl":"Bałczik","name:ro":"Balcic","name:sv":"Baltjik","int_name":"Balchik"},"display_name":"Балчик, Добрич, България","address":{"town":"Балчик","state_district":"Балчик","state":"Добрич","ISO3166-2-lvl4":"BG-08","country":"България","country_code":"bg"},"population":12690,"osm_type":"relation","osm_id":12644011,"type":"administrative","location":[28.1681094,43.4049361],"bbox":[28.090643,43.3805782,28.2517476,43.503989]}}
{"name":"Банкя","other_names":{"name:de":"Bankja","name:el":"Μπάνκια","name:en":"Bankya","name:fr":"Bankya","name:pl":"Bankja","name:ru":"Банкя","name:sr":"Банкја","int_name":"Bankya"},"display_name":"Банкя, Столична, София-град, България","address":{"town":"Банкя","county":"Банкя","state_district":"Столична","state":"София-град","ISO3166-2-lvl4":"BG-22","country":"България","country_code":"bg"},"population":11667,"osm_type":"node","osm_id":273488684,"type":"town","location":[23.1464966,42.7101251],"bbox":[23.1064966,42.6701251,23.1864966,42.7501251],"border":[{"name":"Банкя","other_names":{"name:bg":"Банкя","name:de":"Rajon Bankja","name:en":"Bankia","name:ru":"Банкя"},"display_name":"Банкя, Столична, София-град, 1393, България","address":{"county":"Банкя","state_district":"Столична","state":"София-град","ISO3166-2-lvl4":"BG-22","postcode":"1393","country":"България","country_code":"bg"},"osm_type":"relation","osm_id":3759425,"type":"administrative","location":[23.124108633093073,42.70308375],"bbox":[23.051083,42.666398,23.206603,42.740032]},{"name":"Банкя","other_names":{"name:bg":"Банкя","name:en":"Bankya","name:de":"Bankja","name:el":"Μπάνκια","name:fr":"Bankya","name:pl":"Bankja","name:ru":"Банкя","name:sr":"Банкја","int_name":"Bankya"},"display_name":"Банкя, Столична, София-град, България","address":{"town":"Банкя","county":"Банкя","state_district":"Столична","state":"София-град","ISO3166-2-lvl4":"BG-22","country":"България","country_code":"bg"},"population":11667,"osm_type":"relation","osm_id":17759044,"type":"administrative","location":[23.1464966,42.7101251],"bbox":[23.0917374,42.666398,23.1701594,42.740032]}]}
{"name":"Банско","other_names":{"name:bg":"Банско","name:de":"Bansko","name:el":"Μπάνσκο","name:en":"Bansko","name:fr":"Bansko","name:mk":"Банско","int_name":"Bansko"},"display_name":"Банско, Благоевград, 2770, България","address":{"town":"Банско","state_district":"Банско","state":"Благоевград","ISO3166-2-lvl4":"BG-01","postcode":"2770","country":"България","country_code":"bg"},"population":8207,"osm_type":"node","osm_id":273488750,"type":"town","location":[23.4841698,41.8344086],"bbox":[23.4441698,41.7944086,23.5241698,41.8744086]}
{"name":"Батак","other_names":{"name:bg":"Батак","name:en":"Batak","int_name":"Batak"},"display_name":"Батак, Пазарджик, 4580, България","address":{"town":"Батак","state_district":"Батак","state":"Пазарджик","ISO3166-2-lvl4":"BG-13","postcode":"4580","country":"България","country_code":"bg"},"population":3552,"osm_type":"node","osm_id":270706235,"type":"town","location":[24.218337,41.9429717],"bbox":[24.178337,41.9029717,24.258337,41.9829717]}
{"name":"Белене","other_names":{"name:en":"Belene","int_name":"Belene"},"display_name":"Белене, Плевен, България","address":{"town":"Белене","state_district":"Белене","state":"Плевен","ISO3166-2-lvl4":"BG-15","country":"България","country_code":"bg"},"osm_type":"node","osm_id":273488807,"type":"town","location":[25.1258325,43.6477654],"bbox":[25.0858325,43.6077654,25.1658325,43.6877654],"border":{"name":"Белене","other_names":{"name:bg":"Белене","name:en":"Belene","int_name":"Belene"},"display_name":"Белене, Плевен, 5930, България","address":{"town":"Белене","state_district":"Белене","state":"Плевен","ISO3166-2-lvl4":"BG-15","postcode":"5930","country":"България","country_code":"bg"},"osm_type":"relation","osm_id":18541213,"type":"administrative","location":[25.1258325,43.6477654],"bbox":[25.01233,43.6009156,25.2919855,43.7006372]}}
{"name":"Белица","other_names":{"name:bg":"Белица","name:en":"Belitsa","name:fr":"Belitsa","name:mk":"Белица","int_name":"Belitsa"},"display_name":"Белица, Благоевград, 2780, България","address":{"town":"Белица","state_district":"Белица","state":"Благоевград","ISO3166-2-lvl4":"BG-01","postcode":"2780","country":"България","country_code":"bg"},"population":3163,"osm_type":"node","osm_id":273488691,"type":"town","location":[23.5592025,41.9510591],"bbox":[23.5192025,41.9110591,23.5992025,41.9910591]}
{"name":"Белово","other_names":{"name:bg":"Белово","name:en":"Belovo","name:ru":"Белово","name:tr":"Belova","int_name":"Belovo"},"display_name":"Белово, Пазарджик, България","address":{"town":"Белово","state_district":"Белово","state":"Пазарджик","ISO3166-2-lvl4":"BG-13","country":"България","country_code":"bg"},"osm_type":"node","osm_id":273488790,"type":"town","location":[24.0186657,42.2125836],"bbox":[23.9786657,42.1725836,24.0586657,42.2525836]}
{"name":"Белоградчик","other_names":{"name:bg":"Белоградчик","name:de":"Belogradtschik","name:en":"Belogradchik","name:ro":"Belogradcik","int_name":"Belogradchik"},"display_name":"Белоградчик, Видин, 3900, България","address":{"town":"Белоградчик","state_district":"Белоградчик","state":"Видин","ISO3166-2-lvl4":"BG-05","postcode":"3900","country":"България","country_code":"bg"},"population":5334,"osm_type":"node","osm_id":273488804,"type":"town","location":[22.6861167,43.6266828],"bbox":[22.6461167,43.5866828,22.7261167,43.6666828]}
{"name":"Белослав","other_names":{"name:en":"Beloslav","name:ru":"Белослав","name:tr":"Gebece","int_name":"Beloslav"},"display_name":"Белослав, Варна, 9178, България","address":{"town":"Белослав","state_district":"Белослав","state":"Варна","ISO3166-2-lvl4":"BG-03","postcode":"9178","country":"България","country_code":"bg"},"population":8382,"osm_type":"node","osm_id":273488801,"type":"town","location":[27.7048397,43.1905492],"bbox":[27.6648397,43.1505492,27.7448397,43.2305492],"border":{"name":"Белослав","other_names":{"name:bg":"Белослав","name:en":"Beloslav","name:ru":"Белослав","name:tr":"Gebece","int_name":"Beloslav"},"display_name":"Белослав, Варна, 9178, България","address":{"town":"Белослав","state_district":"Белослав","state":"Варна","ISO3166-2-lvl4":"BG-03","postcode":"9178","country":"България","country_code":"bg"},"population":8382,"osm_type":"relation","osm_id":13477502,"type":"administrative","location":[27.7048397,43.1905492],"bbox":[27.627199,43.14367,27.747686,43.216345]}}
{"name":"Берковица","other_names":{"name:en":"Berkovitsa","name:ro":"Berkovița","int_name":"Berkovitsa"},"display_name":"Берковица, Монтана, България","address":{"town":"Берковица","state_district":"Берковица","state":"Монтана","ISO3166-2-lvl4":"BG-12","country":"България","country_code":"bg"},"population":13532,"osm_type":"node","osm_id":273488808,"type":"town","location":[23.1288525,43.2373155],"bbox":[23.0888525,43.1973155,23.1688525,43.2773155],"border":{"name":"Берковица","other_names":{"name:bg":"Берковица","name:en":"Berkovitsa","name:ro":"Berkovița","int_name":"Berkovitsa"},"display_name":"Берковица, Монтана, 3500, България","address":{"town":"Берковица","state_district":"Берковица","state":"Монтана","ISO3166-2-lvl4":"BG-12","postcode":"3500","country":"България","country_code":"bg"},"population":13532,"osm_type":"relation","osm_id":18773224,"type":"administrative","location":[23.1288525,43.2373155],"bbox":[23.012561,43.1591586,23.1725614,43.265511]}}
{"name":"Бобов дол","other_names":{"name:bg":"Бобов дол","name:de":"Bobow Dol","name:el":"Μπόμποβ Ντολ","name:en":"Bobov Dol","int_name":"Bobov dol"},"display_name":"Бобов дол, Кюстендил, 2670, България","address":{"town":"Бобов дол","state_district":"Бобов дол","state":"Кюстендил","ISO3166-2-lvl4":"BG-10","postcode":"2670","country":"България","country_code":"bg"},"population":5956,"osm_type":"node","osm_id":273488996,"type":"town","location":[23.0073636,42.3662276],"bbox":[22.9673636,42.3262276,23.0473636,42.4062276]}
{"name":"Бобошево","other_names":{"name:bg":"Бобошево","name:de":"Boboschewo","name:el":"Μπομπόσεβο","name:en":"Boboshevo","name:ru":"Бобошево","int_name":"Boboshevo"},"display_name":"Бобошево, Кюстендил, България","address":{"town":"Бобошево","state_district":"Бобошево","state":"Кюстендил","ISO3166-2-lvl4":"BG-10","country":"България","country_code":"bg"},"osm_type":"node","osm_id":273488733,"type":"town","location":[23.0000878,42.1527179],"bbox":[22.9600878,42.1127179,23.0400878,42.1927179]}
{"name":"Божурище","other_names":{"name:bg":"Божурище","name:de":"Boschurischte","name:el":"Μποζούριστε","name:en":"Bozhurishte","name:it":"Božurište","name:pt":"Božurište","int_name":"Bozhurishte"},"display_name":"Божурище, Софийска, 2227, България","address":{"town":"Божурище","village":"Божурище","state_district":"Божурище","state":"Софийска","ISO3166-2-lvl4":"BG-23","postcode":"2227","country":"България","country_code":"bg"},"population":5616,"osm_type":"node","osm_id":273488943,"type":"town","location":[23.1967627,42.7637383],"bbox":[23.1567627,42.7237383,23.2367627,42.8037383]}
{"name":"Бойчиновци","other_names":{"name:bg":"Бойчиновци","name:de":"Boitchinovtzi","name:en":"Boychinovtsi","name:ro":"Boicinovți","name:sr":"Бојчиновци","int_name":"Boitchinovtzi"},"display_name":"Бойчиновци, Монтана, 3430, България","address":{"town":"Бойчиновци","state_district":"Бойчиновци","state":"Монтана","ISO3166-2-lvl4":"BG-12","postcode":"3430","country":"България","country_code":"bg"},"osm_type":"node","osm_id":273489001,"type":"town","location":[23.3324399,43.4711262],"bbox":[23.2924399,43.4311262,23.3724399,43.5111262]}
{"name":"Болярово","other_names":{"name:bg":"Болярово","name:en":"Bolyarovo","name:sr":"Бољарово","int_name":"Bolyarovo"},"display_name":"Болярово, Ямбол, 8720, България","address":{"town":"Болярово","state_district":"Болярово","state":"Ямбол","ISO3166-2-lvl4":"BG-28","postcode":"8720","country":"България","country_code":"bg"},"osm_type":"node","osm_id":273488841,"type":"town","location":[26.811463,42.1490851],"bbox":[26.771463,42.1090851,26.851463,42.1890851]}
{"name":"Борово","other_names":{"name:de":"Borowo","name:en":"Borovo","name:ml":"ബോറോവോ"},"display_name":"Борово, Русе, България","address":{"town":"Борово","state_district":"Борово","state":"Русе","ISO3166-2-lvl4":"BG-18","country":"България","country_code":"bg"},"osm_type":"node","osm_id":3537261271,"type":"town","location":[25.8089088,43.4883438],"bbox":[25.7689088,43.4483438,25.8489088,43.5283438],"border":{"name":"Борово","other_names":{"name:bg":"Борово","name:de":"Borowo","name:en":"Borovo","name:ml":"ബോറോവോ"},"display_name":"Борово, Русе, България","address":{"town":"Борово","state_district":"Борово","state":"Русе","ISO3166-2-lvl4":"BG-18","country":"България","country_code":"bg"},"osm_type":"relation","osm_id":12629611,"type":"administrative","location":[25.8089088,43.4883438],"bbox":[25.763784,43.4463783,25.8730716,43.5194013]}}
{"name":"Ботевград","other_names":{"name:de":"Botewgrad","name:en":"Botevgrad","name:pl":"Botewgrad","name:ro":"Botevgrad","name:tr":"Orhaniye","int_name":"Botevgrad"},"display_name":"Ботевград, Софийска, България","address":{"town":"Ботевград","state_district":"Ботевград","state":"Софийска","ISO3166-2-lvl4":"BG-23","country":"България","country_code":"bg"},"population":21241,"osm_type":"node","osm_id":273488848,"type":"town","location":[23.7929451,42.9078544],"bbox":[23.7529451,42.8678544,23.8329451,42.9478544],"border":{"name":"Ботевград","other_names":{"name:bg":"Ботевград","name:en":"Botevgrad","name:de":"Botewgrad","name:pl":"Botewgrad","name:ro":"Botevgrad","name:tr":"Orhaniye","int_name":"Botevgrad"},"display_name":"Ботевград, Софийска, 2140, България","address":{"town":"Ботевград","state_district":"Ботевград","state":"Софийска","ISO3166-2-lvl4":"BG-23","postcode":"2140","country":"България","country_code":"bg"},"population":21241,"osm_type":"relation","osm_id":17813811,"type":"administrative","location":[23.7929451,42.9078544],"bbox":[23.7206255,42.8281939,23.8586359,42.9460235]}}
{"name":"Брацигово","other_names":{"name:bg":"Брацигово","name:en":"Bratsigovo","int_name":"Bratsigovo"},"display_name":"Брацигово, Пазарджик, 4579, България","address":{"town":"Брацигово","state_district":"Брацигово","state":"Пазарджик","ISO3166-2-lvl4":"BG-13","postcode":"4579","country":"България","country_code":"bg"},"osm_type":"node","osm_id":273488856,"type":"town","location":[24.368903,42.027104],"bbox":[24.328903,41.987104,24.408903,42.067104]}
{"name":"Брегово","other_names":{"name:bg":"Брегово","name:en":"Bregovo","name:ro":"Bregovo","name:sr":"Брегово","int_name":"Bregovo"},"display_name":"Брегово, Видин, 3790, България","address":{"town":"Брегово","state_district":"Брегово","state":"Видин","ISO3166-2-lvl4":"BG-05","postcode":"3790","country":"България","country_code":"bg"},"osm_type":"node","osm_id":273488870,"type":"town","location":[22.6386293,44.1518851],"bbox":[22.5986293,44.1118851,22.6786293,44.1918851]}
{"name":"Брезник","other_names":{"name:bg":"Брезник","name:de":"Bresnik","name:en":"Breznik","int_name":"Breznik"},"display_name":"Брезник, Перник, България","address":{"town":"Брезник","state_district":"Брезник","state":"Перник","ISO3166-2-lvl4":"BG-14","country":"България","country_code":"bg"},"osm_type":"node","osm_id":273488868,"type":"town","location":[22.9103497,42.7397669],"bbox":[22.8703497,42.6997669,22.9503497,42.7797669]}
{"name":"Брезово","other_names":{"name:en":"Brezovo","int_name":"Brezovo"},"display_name":"Брезово, Пловдив, България","address":{"town":"Брезово","state_district":"Брезово","state":"Пловдив","ISO3166-2-lvl4":"BG-16","country":"България","country_code":"bg"},"osm_type":"node","osm_id":273488852,"type":"town","location":[25.0790305,42.3480115],"bbox":[25.0390305,42.3080115,25.1190305,42.3880115],"border":{"name":"Брезово","other_names":{"name:bg":"Брезово","name:en":"Brezovo","int_name":"Brezovo"},"display_name":"Брезово, Пловдив, 4160, България","address":{"town":"Брезово","state_district":"Брезово","state":"Пловдив","ISO3166-2-lvl4":"BG-16","postcode":"4160","country":"България","country_code":"bg"},"osm_type":"relation","osm_id":1362253,"type":"administrative","location":[25.0790305,42.3480115],"bbox":[25.0177578,42.2994376,25.123965,42.389289]}}
{"name":"Брусарци","other_names":{"name:bg":"Брусарци","name:en":"Brusartsi","name:ro":"Brusarți","int_name":"Brusartsi"},"display_name":"Брусарци, Монтана, България","address":{"town":"Брусарци","state_district":"Брусарци","state":"Монтана","ISO3166-2-lvl4":"BG-12","country":"България","country_code":"bg"},"osm_type":"node","osm_id":273488831,"type":"town","location":[23.0669229,43.6630878],"bbox":[23.0269229,43.6230878,23.1069229,43.7030878]}
{"name":"Бухово","other_names":{"name:de":"Buchowo","name:el":"Μπούχοβο","name:en":"Buhovo","name:fr":"Bouhovo","int_name":"Buhovo"},"display_name":"Бухово, Кремиковци, Столична, София-град, България","address":{"town":"Бухово","county":"Кремиковци","state_district":"Столична","state":"София-град","ISO3166-2-lvl4":"BG-22","country":"България","country_code":"bg"},"population":2580,"osm_type":"node","osm_id":458871623,"type":"town","location":[23.5665131,42.7647891],"bbox":[23.5265131,42.7247891,23.6065131,42.8047891],"border":{"name":"Бухово","other_names":{"name:bg":"Бухово","name:en":"Buhovo","name:de":"Buchowo","name:el":"Μπούχοβο","name:fr":"Bouhovo","int_name":"Buhovo"},"display_name":"Бухово, Кремиковци, Столична, София-град, 1830, България","address":{"town":"Бухово","county":"Кремиковци","state_district":"Столична","state":"София-град","ISO3166-2-lvl4":"BG-22","postcode":"1830","country":"България","country_code":"bg"},"population":2580,"osm_type":"relation","osm_id":17758980,"type":"administrative","location":[23.5665131,42.7647891],"bbox":[23.5248959,42.7304512,23.6422257,42.856585]}}
{"name":"Българово","other_names":{"name:bg":"Българово","name:en":"Balgarovo","name:fr":"Balgarovo"},"display_name":"Българово, Бургас, 8110, България","address":{"town":"Българово","state_district":"Бургас","state":"Бургас","ISO3166-2-lvl4":"BG-02","postcode":"8110","country":"България","country_code":"bg"},"population":1990,"osm_type":"node","osm_id":2009615258,"type":"town","location":[27.3058388,42.620922],"bbox":[27.2658388,42.580922,27.3458388,42.660922],"border":{"name":"Българово","other_names":{"name:bg":"Българово","name:en":"Bulgarovo","name:fr":"Balgarovo","alt:en":"Balgarovo"},"display_name":"Българово, Бургас, 8110, България","address":{"town":"Българово","state_district":"Бургас","state":"Бургас","ISO3166-2-lvl4":"BG-02","postcode":"8110","country":"България","country_code":"bg"},"population":1990,"osm_type":"relation","osm_id":18963593,"type":"administrative","location":[27.3058388,42.620922],"bbox":[27.234219,42.564817,27.379291,42.656285]}}
{"name":"Бяла Слатина","other_names":{"name:bg":"Бяла Слатина","name:en":"Byala Slatina","name:sr":"Бјала Слатина","int_name":"Byala Slatina"},"display_name":"Бяла Слатина, Враца, 3200, България","address":{"town":"Бяла Слатина","state_district":"Бяла Слатина","state":"Враца","ISO3166-2-lvl4":"BG-06","postcode":"3200","country":"България","country_code":"bg"},"population":12519,"osm_type":"node","osm_id":1219668757,"type":"town","location":[23.9450995,43.4697446],"bbox":[23.9050995,43.4297446,23.9850995,43.5097446]}
{"name":"Бяла черква","other_names":{"name:en":"Byala Cherkva","name:sr":"Бјала черква","int_name":"Byala Cherkva"},"display_name":"Бяла черква, Бяла Черква, Павликени, Велико Търново, България","address":{"town":"Бяла черква","state_district":"Павликени","state":"Велико Търново","ISO3166-2-lvl4":"BG-04","country":"България","country_code":"bg"},"osm_type":"node","osm_id":2425363314,"type":"town","location":[25.311033,43.2052709],"bbox":[25.271033,43.1652709,25.351033,43.2452709],"border":{"name":"Бяла Черква","other_names":{"name:bg":"Бяла Черква","name:en":"Byala Cherkva","name:sr":"Бјала черква","int_name":"Byala Cherkva","alt":"Бяла черква"},"display_name":"Бяла Черква, Павликени, Велико Търново, 5220, България","address":{"town":"Бяла Черква","state_district":"Павликени","state":"Велико Търново","ISO3166-2-lvl4":"BG-04","postcode":"5220","country":"България","country_code":"bg"},"osm_type":"relation","osm_id":17619519,"type":"administrative","location":[25.311033,43.2052709],"bbox":[25.2427835,43.1662763,25.352268,43.2416556]}}
{"name":"Бяла","other_names":{"name:bg":"Бяла","name:en":"Byala","name:pl":"Bjała","name:ru":"Бяла","name:sr":"Бјала","int_name":"Byala"},"display_name":"Бяла, Варна, България","address":{"town":"Бяла","state_district":"Бяла","state":"Варна","ISO3166-2-lvl4":"BG-03","country":"България","country_code":"bg"},"osm_type":"node","osm_id":273488879,"type":"town","location":[27.8845354,42.8766305],"bbox":[27.8445354,42.8366305,27.9245354,42.9166305],"border":{"name":"Бяла","other_names":{"name:bg":"Бяла","name:en":"Byala","name:pl":"Bjała","name:ru":"Бяла","name:sr":"Бјала","int_name":"Byala"},"display_name":"Бяла, Варна, 9101, България","address":{"town":"Бяла","state_district":"Бяла","state":"Варна","ISO3166-2-lvl4":"BG-03","postcode":"9101","country":"България","country_code":"bg"},"osm_type":"relation","osm_id":13477577,"type":"administrative","location":[27.8845354,42.8766305],"bbox":[27.809002,42.836245,27.9028059,42.920173]}}
{"name":"Бяла","other_names":{"name:en":"Byala","name:fr":"Byala","name:ml":"ബ്യാല","name:ro":"Beala","name:ru":"Бяла","name:sr":"Бјала","int_name":"Byala"},"display_name":"Бяла, Русе, 7100, България","address":{"town":"Бяла","state_district":"Бяла","state":"Русе","ISO3166-2-lvl4":"BG-18","postcode":"7100","country":"България","country_code":"bg"},"population":8831,"osm_type":"node","osm_id":273488951,"type":"town","location":[25.7365619,43.4593631],"bbox":[25.6965619,43.4193631,25.7765619,43.4993631],"border":{"name":"Бяла","other_names":{"name:bg":"Бяла","name:en":"Byala","name:fr":"Byala","name:ml":"ബ്യാല","name:ro":"Beala","name:ru":"Бяла","name:sr":"Бјала","int_name":"Byala"},"display_name":"Бяла, Русе, 7100, България","address":{"town":"Бяла","state_district":"Бяла","state":"Русе","ISO3166-2-lvl4":"BG-18","postcode":"7100","country":"България","country_code":"bg"},"population":8831,"osm_type":"relation","osm_id":12629596,"type":"administrative","location":[25.7365619,43.4593631],"bbox":[25.6209358,43.3818087,25.7969715,43.4939964]}}
{"name":"Велики Преслав","other_names":{"name:en":"Veliki Preslav","int_name":"Veliki Preslav"},"display_name":"Велики Преслав, Шумен, България","address":{"town":"Велики Преслав","state_district":"Велики Преслав","state":"Шумен","ISO3166-2-lvl4":"BG-27","country":"България","country_code":"bg"},"population":8843,"osm_type":"node","osm_id":273488678,"type":"town","location":[26.81207,43.16084],"bbox":[26.77207,43.12084,26.85207,43.20084],"border":{"name":"Велики Преслав","other_names":{"name:bg":"Велики Преслав","name:en":"Veliki Preslav","int_name":"Veliki Preslav"},"display_name":"Велики Преслав, Шумен, България","address":{"town":"Велики Преслав","state_district":"Велики Преслав","state":"Шумен","ISO3166-2-lvl4":"BG-27","country":"България","country_code":"bg"},"population":8843,"osm_type":"relation","osm_id":13477058,"type":"administrative","location":[26.81207,43.16084],"bbox":[26.7363616,43.11,26.8918164,43.2075443]}}
{"name":"Велинград","other_names":{"name:bg":"Велинград","name:de":"Welingrad","name:en":"Velingrad","name:pl":"Welingrad","int_name":"Velingrad"},"display_name":"Велинград, Пазарджик, 4600, България","address":{"town":"Велинград","state_district":"Велинград","state":"Пазарджик","ISO3166-2-lvl4":"BG-13","postcode":"4600","country":"България","country_code":"bg"},"population":25308,"osm_type":"node","osm_id":266013327,"type":"town","location":[23.9944408,42.0283589],"bbox":[23.9544408,41.9883589,24.0344408,42.0683589]}
{"name":"Ветово","other_names":{"name:en":"Vetovo","name:ro":"Vetovo","int_name":"Vetovo"},"display_name":"Ветово, Русе, България","address":{"town":"Ветово","state_district":"Ветово","state":"Русе","ISO3166-2-lvl4":"BG-18","country":"България","country_code":"bg"},"osm_type":"node","osm_id":273488860,"type":"town","location":[26.2636455,43.7042823],"bbox":[26.2236455,43.6642823,26.3036455,43.7442823],"border":{"name":"Ветово","other_names":{"name:bg":"Ветово","name:en":"Vetovo","name:ro":"Vetovo","int_name":"Vetovo"},"display_name":"Ветово, Русе, България","address":{"town":"Ветово","state_district":"Ветово","state":"Русе","ISO3166-2-lvl4":"BG-18","country":"България","country_code":"bg"},"osm_type":"relation","osm_id":12629590,"type":"administrative","location":[26.2636455,43.7042823],"bbox":[26.1909297,43.6531366,26.3553988,43.7561455]}}
{"name":"Ветрен","other_names":{"name:bg":"Ветрен","name:en":"Vetren","int_name":"Vetren"},"display_name":"Ветрен, Септември, Пазарджик, България","address":{"town":"Ветрен","state_district":"Септември","state":"Пазарджик","ISO3166-2-lvl4":"BG-13","country":"България","country_code":"bg"},"osm_type":"node","osm_id":273815275,"type":"town","location":[24.0481267,42.2797101],"bbox":[24.0081267,42.2397101,24.0881267,42.3197101]}
{"name":"Вълчедръм","other_names":{"name:bg":"Вълчедръм","name:en":"Valchedram","name:ro":"Vălcedrăm","int_name":"Valchedram"},"display_name":"Вълчедръм, Монтана, 3650, България","address":{"town":"Вълчедръм","state_district":"Вълчедръм","state":"Монтана","ISO3166-2-lvl4":"BG-12","postcode":"3650","country":"България","country_code":"bg"},"population":3578,"osm_type":"node","osm_id":273488824,"type":"town","location":[23.4426025,43.6900754],"bbox":[23.4026025,43.6500754,23.4826025,43.7300754]}
{"name":"Вълчи дол","other_names":{"name:en":"Valchi Dol","name:fr":"Valtchi Dol","int_name":"Valchi dol","old_name":"Курт дере"},"display_name":"Вълчи дол, Варна, 9280, България","address":{"town":"Вълчи дол","state_district":"Вълчи дол","state":"Варна","ISO3166-2-lvl4":"BG-03","postcode":"9280","country":"България","country_code":"bg"},"population":3378,"osm_type":"node","osm_id":273488827,"type":"town","location":[27.5549924,43.4071616],"bbox":[27.5149924,43.3671616,27.5949924,43.4471616],"border":{"name":"Вълчи дол","other_names":{"name:bg":"Вълчи дол","name:en":"Valchi Dol","name:fr":"Valtchi Dol","int_name":"Valchi dol","old_name":"Курт дере"},"display_name":"Вълчи дол, Варна, 9280, България","address":{"town":"Вълчи дол","state_district":"Вълчи дол","state":"Варна","ISO3166-2-lvl4":"BG-03","postcode":"9280","country":"България","country_code":"bg"},"population":3378,"osm_type":"relation","osm_id":13431039,"type":"administrative","location":[27.5549924,43.4071616],"bbox":[27.5086644,43.3837888,27.5949644,43.4373805]}}
{"name":"Върбица","other_names":{"name:en":"Varbitsa","int_name":"Varbitsa"},"display_name":"Върбица, Шумен, България","address":{"town":"Върбица","state_district":"Върбица","state":"Шумен","ISO3166-2-lvl4":"BG-27","country":"България","country_code":"bg"},"osm_type":"node","osm_id":273488815,"type":"town","location":[26.6698426,42.9937354],"bbox":[26.6298426,42.9537354,26.7098426,43.0337354],"border":{"name":"Върбица","other_names":{"name:bg":"Върбица","name:en":"Varbitsa","int_name":"Varbitsa"},"display_name":"Върбица, Шумен, България","address":{"town":"Върбица","state_district":"Върбица","state":"Шумен","ISO3166-2-lvl4":"BG-27","country":"България","country_code":"bg"},"osm_type":"relation","osm_id":13477125,"type":"administrative","location":[26.6698426,42.9937354],"bbox":[26.553945,42.896747,26.7124073,43.0297389]}}
{"name":"Вършец","other_names":{"name:en":"Varshets","name:ro":"Vărșeț","int_name":"Varshets"},"display_name":"Вършец, Монтана, България","address":{"town":"Вършец","state_district":"Вършец","state":"Монтана","ISO3166-2-lvl4":"BG-12","country":"България","country_code":"bg"},"population":6220,"osm_type":"node","osm_id":273488805,"type":"town","location":[23.2893966,43.199245],"bbox":[23.2493966,43.159245,23.3293966,43.239245],"border":{"name":"Вършец","other_names":{"name:bg":"Вършец","name:en":"Varshets","name:ro":"Vărșeț","int_name":"Varshets"},"display_name":"Вършец, Монтана, България","address":{"town":"Вършец","state_district":"Вършец","state":"Монтана","ISO3166-2-lvl4":"BG-12","country":"България","country_code":"bg"},"population":6220,"osm_type":"relation","osm_id":18776141,"type":"administrative","location":[23.2893966,43.199245],"bbox":[23.191626,43.111283,23.3272835,43.2328643]}}
{"name":"Генерал Тошево","other_names":{"name:de":"General Toschewo","name:en":"General Toshevo","name:eo":"General Toŝevo","name:es":"General Toshevo","name:pl":"Generał Toszewo","name:ro":"General Toșevo","int_name":"General Toshevo","old_name:de":"Tschobankuius"},"display_name":"Генерал Тошево, Добрич, България","address":{"town":"Генерал Тошево","state_district":"Генерал Тошево","state":"Добрич","ISO3166-2-lvl4":"BG-08","country":"България","country_code":"bg"},"population":6835,"osm_type":"node","osm_id":273488676,"type":"town","location":[28.0362083,43.7001477],"bbox":[27.9962083,43.6601477,28.0762083,43.7401477],"border":{"name":"Генерал Тошево","other_names":{"name:bg":"Генерал Тошево","name:en":"General Toshevo","name:de":"General Toschewo","name:eo":"General Toŝevo","name:es":"General Toshevo","name:pl":"Generał Toszewo","name:ro":"General Toșevo","int_name":"General Toshevo","old_name:de":"Tschobankuius"},"display_name":"Генерал Тошево, Добрич, 9500, България","address":{"town":"Генерал Тошево","state_district":"Генерал Тошево","state":"Добрич","ISO3166-2-lvl4":"BG-08","postcode":"9500","country":"България","country_code":"bg"},"population":6835,"osm_type":"relation","osm_id":12643818,"type":"administrative","location":[28.0362083,43.7001477],"bbox":[27.9723162,43.6716513,28.0967702,43.788297]}}
{"name":"Главиница","other_names":{"name:en":"Glavinitsa","name:lt":"Glavinica","name:ru":"Главиница","int_name":"Glavinitsa"},"display_name":"Главиница, Силистра, България","address":{"town":"Главиница","state_district":"Главиница","state":"Силистра","ISO3166-2-lvl4":"BG-19","country":"България","country_code":"bg"},"osm_type":"node","osm_id":273488719,"type":"town","location":[26.8351925,43.9125954],"bbox":[26.7951925,43.8725954,26.8751925,43.9525954],"border":{"name":"Главиница","other_names":{"name:bg":"Главиница","name:en":"Glavinitsa","name:lt":"Glavinica","name:ru":"Главиница","int_name":"Glavinitsa"},"display_name":"Главиница, Силистра, България","address":{"town":"Главиница","state_district":"Главиница","state":"Силистра","ISO3166-2-lvl4":"BG-19","country":"България","country_code":"bg"},"osm_type":"relation","osm_id":12999757,"type":"administrative","location":[26.8351925,43.9125954],"bbox":[26.7798028,43.8732493,26.8772971,43.9484245]}}
{"name":"Годеч","other_names":{"name:de":"Godetsch","name:en":"Godech","name:ro":"Godeci","int_name":"Godech"},"display_name":"Годеч, Софийска, България","address":{"town":"Годеч","state_district":"Годеч","state":"Софийска","ISO3166-2-lvl4":"BG-23","country":"България","country_code":"bg"},"osm_type":"node","osm_id":273488683,"type":"town","location":[23.0470159,43.0157976],"bbox":[23.0070159,42.9757976,23.0870159,43.0557976],"border":{"name":"Годеч","other_names":{"name:bg":"Годеч","name:en":"Godech","name:de":"Godetsch","name:ro":"Godeci","int_name":"Godech"},"display_name":"Годеч, Софийска, 2240, България","address":{"town":"Годеч","state_district":"Годеч","state":"Софийска","ISO3166-2-lvl4":"BG-23","postcode":"2240","country":"България","country_code":"bg"},"osm_type":"relation","osm_id":17847258,"type":"administrative","location":[23.0470159,43.0157976],"bbox":[23.0091277,42.9846672,23.124246,43.0836629]}}
{"name":"Горна Оряховица","other_names":{"name:de":"Gorna Orjachowiza","name:el":"Γκόρνα Οριαχόβιτσα","name:en":"Gorna Oryahovitsa","name:fr":"Gorna Orjahovica","name:it":"Gorna Orjahovica","name:lt":"Gorna Oriachovica","name:nl":"Gorna Orjachovitsa","name:pl":"Gorna Orjachowica","name:ro":"Gorna Oreahovița","name:sr":"Горња Орјаховица","name:tr":"Yukarı Rahova","int_name":"Gorna Oryahovitsa"},"display_name":"Горна Оряховица, Велико Търново, 5100, България","address":{"town":"Горна Оряховица","state_district":"Горна Оряховица","state":"Велико Търново","ISO3166-2-lvl4":"BG-04","postcode":"5100","country":"България","country_code":"bg"},"population":40000,"osm_type":"node","osm_id":273488727,"type":"town","location":[25.6887918,43.1222791],"bbox":[25.6487918,43.0822791,25.7287918,43.1622791],"border":{"name":"Горна Оряховица","other_names":{"name:bg":"Горна Оряховица","name:en":"Gorna Oryahovitsa","name:de":"Gorna Orjachowiza","name:el":"Γκόρνα Οριαχόβιτσα","name:fr":"Gorna Orjahovica","name:it":"Gorna Orjahovica","name:lt":"Gorna Oriachovica","name:nl":"Gorna Orjachovitsa","name:pl":"Gorna Orjachowica","name:ro":"Gorna Oreahovița","name:sr":"Горња Орјаховица","name:tr":"Yukarı Rahova","int_name":"Gorna Oryahovitsa"},"display_name":"Горна Оряховица, Велико Търново, България","address":{"town":"Горна Оряховица","state_district":"Горна Оряховица","state":"Велико Търново","ISO3166-2-lvl4":"BG-04","country":"България","country_code":"bg"},"population":40000,"osm_type":"relation","osm_id":13489779,"type":"administrative","location":[25.6887918,43.1222791],"bbox":[25.660617,43.106932,25.7321667,43.1616823]}}
{"name":"Гоце Делчев","other_names":{"name:bg":"Гоце Делчев","name:de":"Goze Deltschew","name:el":"Άνω Νευροκόπι","name:en":"Goce Delcev","name:fr":"Gotsé Deltchev","name:mk":"Неврокоп (Гоце Делчев)","int_name":"Gotse Delchev","old_name:bg:-1951":"Неврокоп"},"display_name":"Гоце Делчев, Благоевград, 2900, България","address":{"town":"Гоце Делчев","state_district":"Гоце Делчев","state":"Благоевград","ISO3166-2-lvl4":"BG-01","postcode":"2900","country":"България","country_code":"bg"},"population":20306,"osm_type":"node","osm_id":273488803,"type":"town","location":[23.7281082,41.5733011],"bbox":[23.6881082,41.5333011,23.7681082,41.6133011]}
{"name":"Грамада","other_names":{"name:bg":"Грамада","name:en":"Gramada","name:ro":"Gramada","int_name":"Gramada"},"display_name":"Грамада, Видин, 3830, България","address":{"town":"Грамада","state_district":"Грамада","state":"Видин","ISO3166-2-lvl4":"BG-05","postcode":"3830","country":"България","country_code":"bg"},"osm_type":"node","osm_id":273488703,"type":"town","location":[22.6520974,43.8345091],"bbox":[22.6120974,43.7945091,22.6920974,43.8745091]}
{"name":"Гулянци","other_names":{"name:en":"Gulyantsi","name:sr":"Гуљанци","int_name":"Gulyantsi"},"display_name":"Гулянци, Плевен, България","address":{"town":"Гулянци","state_district":"Гулянци","state":"Плевен","ISO3166-2-lvl4":"BG-15","country":"България","country_code":"bg"},"osm_type":"node","osm_id":273488826,"type":"town","location":[24.6944025,43.6408554],"bbox":[24.6544025,43.6008554,24.7344025,43.6808554],"border":{"name":"Гулянци","other_names":{"name:bg":"Гулянци","name:en":"Gulyantsi","name:sr":"Гуљанци","int_name":"Gulyantsi"},"display_name":"Гулянци, Плевен, България","address":{"town":"Гулянци","state_district":"Гулянци","state":"Плевен","ISO3166-2-lvl4":"BG-15","country":"България","country_code":"bg"},"osm_type":"relation","osm_id":18608912,"type":"administrative","location":[24.6944025,43.6408554],"bbox":[24.6094479,43.607968,24.7299588,43.7121481]}}
{"name":"Гурково","other_names":{"name:bg":"Гурково","name:en":"Gurkovo","name:ro":"Gurkovo","name:ru":"Гурково","int_name":"Gurkovo"},"display_name":"Гурково, Стара Загора, България","address":{"town":"Гурково","state_district":"Гурково","state":"Стара Загора","ISO3166-2-lvl4":"BG-24","country":"България","country_code":"bg"},"population":3017,"osm_type":"node","osm_id":273488806,"type":"town","location":[25.7932924,42.6577054],"bbox":[25.7532924,42.6177054,25.8332924,42.6977054],"border":{"name":"Гурково","other_names":{"name:bg":"Гурково","name:en":"Gurkovo","name:ro":"Gurkovo","name:ru":"Гурково","int_name":"Gurkovo"},"display_name":"Гурково, Стара Загора, 6199, България","address":{"town":"Гурково","state_district":"Гурково","state":"Стара Загора","ISO3166-2-lvl4":"BG-24","postcode":"6199","country":"България","country_code":"bg"},"population":3017,"osm_type":"relation","osm_id":13489854,"type":"administrative","location":[25.7932924,42.6577054],"bbox":[25.7518379,42.633686,25.846162,42.784325]}}
{"name":"Гълъбово","other_names":{"name:bg":"Гълъбово","name:de":"Galabowo","name:el":"Γκαλάμποβο","name:en":"Galabovo"},"display_name":"Гълъбово, Стара Загора, 6280, България","address":{"town":"Гълъбово","state_district":"Гълъбово","state":"Стара Загора","ISO3166-2-lvl4":"BG-24","postcode":"6280","country":"България","country_code":"bg"},"population":8612,"osm_type":"node","osm_id":273488689,"type":"town","location":[25.867346,42.1390164],"bbox":[25.827346,42.0990164,25.907346,42.1790164]}
{"name":"Две могили","other_names":{"name:en":"Dve Mogili","int_name":"Dve mogili"},"display_name":"Две могили, Русе, България","address":{"town":"Две могили","state_district":"Две могили","state":"Русе","ISO3166-2-lvl4":"BG-18","country":"България","country_code":"bg"},"population":4497,"osm_type":"node","osm_id":273488724,"type":"town","location":[25.86909,43.59094],"bbox":[25.82909,43.55094,25.90909,43.63094],"border":{"name":"Две могили","other_names":{"name:bg":"Две могили","name:en":"Dve Mogili","int_name":"Dve mogili"},"display_name":"Две могили, Русе, България","address":{"town":"Две могили","state_district":"Две могили","state":"Русе","ISO3166-2-lvl4":"BG-18","country":"България","country_code":"bg"},"population":4497,"osm_type":"relation","osm_id":12629629,"type":"administrative","location":[25.86909,43.59094],"bbox":[25.8316355,43.5554522,25.9362166,43.6308545]}}
{"name":"Дебелец","other_names":{"name:en":"Debelets","name:ro":"Debeleț","int_name":"Debelets"},"display_name":"Дебелец, Велико Търново, България","address":{"town":"Дебелец","state_district":"Велико Търново","state":"Велико Търново","ISO3166-2-lvl4":"BG-04","country":"България","country_code":"bg"},"osm_type":"node","osm_id":269994784,"type":"town","location":[25.6238483,43.0431077],"bbox":[25.5838483,43.0031077,25.6638483,43.0831077],"border":{"name":"Дебелец","other_names":{"name:bg":"Дебелец","name:en":"Debelets","name:ro":"Debeleț","int_name":"Debelets"},"display_name":"Дебелец, Велико Търново, 5030, България","address":{"town":"Дебелец","state_district":"Велико Търново","state":"Велико Търново","ISO3166-2-lvl4":"BG-04","postcode":"5030","country":"България","country_code":"bg"},"osm_type":"relation","osm_id":17394441,"type":"administrative","location":[25.6238483,43.0431077],"bbox":[25.535236,43.0185645,25.6379466,43.0579779]}}
{"name":"Девин","other_names":{"name:bg":"Девин","name:el":"Ντέβιν","name:en":"Devin","int_name":"Devin"},"display_name":"Девин, Смолян, 4800, България","address":{"town":"Девин","state_district":"Девин","state":"Смолян","ISO3166-2-lvl4":"BG-21","postcode":"4800","country":"България","country_code":"bg"},"population":6527,"osm_type":"node","osm_id":273489003,"type":"town","location":[24.3984625,41.7433556],"bbox":[24.3584625,41.7033556,24.4384625,41.7833556]}
{"name":"Девня","other_names":{"name:en":"Devnya","name:sr":"Девња","int_name":"Devnya"},"display_name":"Девня, Варна, България","address":{"town":"Девня","state_district":"Девня","state":"Варна","ISO3166-2-lvl4":"BG-03","country":"България","country_code":"bg"},"population":9322,"osm_type":"node","osm_id":273488991,"type":"town","location":[27.5564948,43.2184213],"bbox":[27.5164948,43.1784213,27.5964948,43.2584213],"border":{"name":"Девня","other_names":{"name:bg":"Девня","name:en":"Devnya","name:sr":"Девња","int_name":"Devnya"},"display_name":"Девня, Варна, 9160, България","address":{"town":"Девня","state_district":"Девня","state":"Варна","ISO3166-2-lvl4":"BG-03","postcode":"9160","country":"България","country_code":"bg"},"population":9322,"osm_type":"relation","osm_id":13477497,"type":"administrative","location":[27.5564948,43.2184213],"bbox":[27.500039,43.1762284,27.694335,43.2668674]}}
{"name":"Джебел","other_names":{"name:bg":"Джебел","name:cs":"Džebel","name:en":"Dzhebel","name:tr":"Cebel","int_name":"Dzhebel","old_name:tr":"Şeyhcuma"},"display_name":"Джебел, Кърджали, България","address":{"town":"Джебел","state_district":"Джебел","state":"Кърджали","ISO3166-2-lvl4":"BG-09","country":"България","country_code":"bg"},"osm_type":"node","osm_id":273488952,"type":"town","location":[25.3021325,41.4974456],"bbox":[25.2621325,41.4574456,25.3421325,41.5374456]}
{"name":"Димитровград","other_names":{"name:bg":"Димитровград","name:de":"Dimitrowgrad","name:el":"Ντιμίτροβγκραντ","name:en":"Dimitrovgrad","name:pl":"Dimitrowgrad","name:ro":"Dimitrovgrad","name:tr":"Kayacık","int_name":"Dimitrovgrad"},"display_name":"Димитровград, Хасково, 6400, България","address":{"town":"Димитровград","state_district":"Димитровград","state":"Хасково","ISO3166-2-lvl4":"BG-26","postcode":"6400","country":"България","country_code":"bg"},"population":49061,"osm_type":"node","osm_id":273488963,"type":"town","location":[25.5916466,42.0582493],"bbox":[25.5516466,42.0182493,25.6316466,42.0982493]}
{"name":"Димово","other_names":{"name:bg":"Димово","name:en":"Dimovo","name:ro":"Dimovo","int_name":"Dimovo"},"display_name":"Димово, Видин, България","address":{"town":"Димово","state_district":"Димово","state":"Видин","ISO3166-2-lvl4":"BG-05","country":"България","country_code":"bg"},"osm_type":"node","osm_id":273488964,"type":"town","location":[22.7263193,43.7399243],"bbox":[22.6863193,43.6999243,22.7663193,43.7799243]}
{"name":"Добринище","other_names":{"name:bg":"Добринище","name:de":"Dobrinischte","name:el":"Ντομπρίνιστε","name:en":"Dobrinishte","name:fr":"Dobrinichte","name:mk":"Добриништа","int_name":"Dobrinishte","alt_name:mk":"Добриниште"},"display_name":"Добринище, Банско, Благоевград, 2777, България","address":{"town":"Добринище","state_district":"Банско","state":"Благоевград","ISO3166-2-lvl4":"BG-01","postcode":"2777","country":"България","country_code":"bg"},"population":2661,"osm_type":"node","osm_id":273874316,"type":"town","location":[23.5629827,41.8210798],"bbox":[23.5229827,41.7810798,23.6029827,41.8610798]}
{"name":"Долна баня","other_names":{"name:en":"Dolna Bania","name:ro":"Dolna Banea","name:sr":"Доња бања","int_name":"Dolna banya"},"display_name":"Долна баня, Софийска, България","address":{"town":"Долна баня","state_district":"Долна баня","state":"Софийска","ISO3166-2-lvl4":"BG-23","country":"България","country_code":"bg"},"osm_type":"node","osm_id":273488940,"type":"town","location":[23.7645019,42.3108246],"bbox":[23.7245019,42.2708246,23.8045019,42.3508246],"border":{"name":"Долна баня","other_names":{"name:bg":"Долна баня","name:en":"Dolna banya","name:ro":"Dolna Banea","name:sr":"Доња бања","int_name":"Dolna banya","alt:en":"Dolna Bania"},"display_name":"Долна баня, Софийска, България","address":{"town":"Долна баня","state_district":"Долна баня","state":"Софийска","ISO3166-2-lvl4":"BG-23","country":"България","country_code":"bg"},"osm_type":"relation","osm_id":17796894,"type":"administrative","location":[23.7645019,42.3108246],"bbox":[23.709948,42.216195,23.8309171,42.3447603]}}
{"name":"Долна Митрополия","other_names":{"name:bg":"Долна Митрополия","name:en":"Dolna Mitropolia","name:sr":"Доња Митрополија","int_name":"Dolna Mitropolia"},"display_name":"Долна Митрополия, Плевен, България","address":{"town":"Долна Митрополия","state_district":"Долна Митрополия","state":"Плевен","ISO3166-2-lvl4":"BG-15","country":"България","country_code":"bg"},"osm_type":"node","osm_id":273488744,"type":"town","location":[24.526065,43.4672884],"bbox":[24.486065,43.4272884,24.566065,43.5072884]}
{"name":"Долна Оряховица","other_names":{"name:en":"Dolna Oryahovitsa","name:sr":"Доња Ораховица","int_name":"Dolna Oryahovitsa"},"display_name":"Долна Оряховица, Горна Оряховица, Велико Търново, България","address":{"town":"Долна Оряховица","state_district":"Горна Оряховица","state":"Велико Търново","ISO3166-2-lvl4":"BG-04","country":"България","country_code":"bg"},"osm_type":"node","osm_id":1762402834,"type":"town","location":[25.7407514,43.1598318],"bbox":[25.7007514,43.1198318,25.7807514,43.1998318],"border":{"name":"Долна Оряховица","other_names":{"name:bg":"Долна Оряховица","name:en":"Dolna Oryahovitsa","name:sr":"Доња Ораховица","int_name":"Dolna Oryahovitsa"},"display_name":"Долна Оряховица, Горна Оряховица, Велико Търново, 5130, България","address":{"town":"Долна Оряховица","state_district":"Горна Оряховица","state":"Велико Търново","ISO3166-2-lvl4":"BG-04","postcode":"5130","country":"България","country_code":"bg"},"osm_type":"relation","osm_id":13489781,"type":"administrative","location":[25.7407514,43.1598318],"bbox":[25.6990652,43.139686,25.8021291,43.2226876]}}
{"name":"Долни Дъбник","other_names":{"name:bg":"Долни Дъбник","name:en":"Dolni Dabnik","int_name":"Dolni Dabnik"},"display_name":"Долни Дъбник, Плевен, България","address":{"town":"Долни Дъбник","state_district":"Долни Дъбник","state":"Плевен","ISO3166-2-lvl4":"BG-15","country":"България","country_code":"bg"},"osm_type":"node","osm_id":273488788,"type":"town","location":[24.4415622,43.4080277],"bbox":[24.4015622,43.3680277,24.4815622,43.4480277]}
{"name":"Долни чифлик","other_names":{"name:en":"Dolni Chiflik","name:tr":"Aşağı Çiftlik","int_name":"Dolni chiflik"},"display_name":"Долни чифлик, Варна, България","address":{"town":"Долни чифлик","state_district":"Долни чифлик","state":"Варна","ISO3166-2-lvl4":"BG-03","country":"България","country_code":"bg"},"population":7052,"osm_type":"node","osm_id":273488795,"type":"town","location":[27.7187564,42.9925676],"bbox":[27.6787564,42.9525676,27.7587564,43.0325676],"border":{"name":"Долни чифлик","other_names":{"name:bg":"Долни чифлик","name:en":"Dolni Chiflik","name:tr":"Aşağı Çiftlik","int_name":"Dolni chiflik"},"display_name":"Долни чифлик, Варна, България","address":{"town":"Долни чифлик","state_district":"Долни чифлик","state":"Варна","ISO3166-2-lvl4":"BG-03","country":"България","country_code":"bg"},"population":7052,"osm_type":"relation","osm_id":13477546,"type":"administrative","location":[27.7187564,42.9925676],"bbox":[27.6475273,42.9186979,27.7556184,43.0308153]}}
{"name":"Доспат","other_names":{"name:bg":"Доспат","name:de":"Dospat","name:en":"Dospat","int_name":"Dospat"},"display_name":"Доспат, Смолян, 4831, България","address":{"town":"Доспат","state_district":"Доспат","state":"Смолян","ISO3166-2-lvl4":"BG-21","postcode":"4831","country":"България","country_code":"bg"},"osm_type":"node","osm_id":273488820,"type":"town","location":[24.1593256,41.6483558],"bbox":[24.1193256,41.6083558,24.1993256,41.6883558]}
{"name":"Драгоман","other_names":{"name:bg":"Драгоман","name:de":"Dragoman","name:el":"Ντράγκομαν","name:en":"Dragoman","name:nl":"Dragoman","name:ro":"Dragoman","int_name":"Dragoman"},"display_name":"Драгоман, Софийска, България","address":{"town":"Драгоман","state_district":"Драгоман","state":"Софийска","ISO3166-2-lvl4":"BG-23","country":"България","country_code":"bg"},"osm_type":"node","osm_id":1695086208,"type":"town","location":[22.93018,42.9218621],"bbox":[22.89018,42.8818621,22.97018,42.9618621],"border":{"name":"Драгоман","other_names":{"name:bg":"Драгоман","name:en":"Dragoman","name:de":"Dragoman","name:el":"Ντράγκομαν","name:nl":"Dragoman","name:ro":"Dragoman","int_name":"Dragoman"},"display_name":"Драгоман, Софийска, 2210, България","address":{"town":"Драгоман","state_district":"Драгоман","state":"Софийска","ISO3166-2-lvl4":"BG-23","postcode":"2210","country":"България","country_code":"bg"},"osm_type":"relation","osm_id":17781994,"type":"administrative","location":[22.93018,42.9218621],"bbox":[22.8635317,42.885402,22.9682881,42.9698234]}}
{"name":"Дряново","other_names":{"name:en":"Dryanovo","name:sr":"Дрјаново","int_name":"Dryanovo"},"display_name":"Дряново, Габрово, България","address":{"town":"Дряново","state_district":"Дряново","state":"Габрово","ISO3166-2-lvl4":"BG-07","country":"България","country_code":"bg"},"osm_type":"node","osm_id":273488813,"type":"town","location":[25.4723616,42.9735494],"bbox":[25.4323616,42.9335494,25.5123616,43.0135494],"border":{"name":"Дряново","other_names":{"name:bg":"Дряново","name:en":"Dryanovo","name:sr":"Дрјаново","int_name":"Dryanovo"},"display_name":"Дряново, Габрово, 5370, България","address":{"town":"Дряново","state_district":"Дряново","state":"Габрово","ISO3166-2-lvl4":"BG-07","postcode":"5370","country":"България","country_code":"bg"},"osm_type":"relation","osm_id":17369520,"type":"administrative","location":[25.4723616,42.9735494],"bbox":[25.4294549,42.9474613,25.5253813,43.009123]}}
{"name":"Дулово","other_names":{"name:en":"Dulovo","name:lt":"Dulovas","name:ml":"ഡുബോവോ","name:ro":"Derna","name:tr":"Akkadınlar","int_name":"Dulovo"},"display_name":"Дулово, Силистра, България","address":{"town":"Дулово","state_district":"Дулово","state":"Силистра","ISO3166-2-lvl4":"BG-19","country":"България","country_code":"bg"},"population":9511,"osm_type":"node","osm_id":273488811,"type":"town","location":[27.1399325,43.8213154],"bbox":[27.0999325,43.7813154,27.1799325,43.8613154],"border":{"name":"Дулово","other_names":{"name:bg":"Дулово","name:en":"Dulovo","name:lt":"Dulovas","name:ml":"ഡുബോവോ","name:ro":"Derna","name:tr":"Akkadınlar","int_name":"Dulovo"},"display_name":"Дулово, Силистра, 7650, България","address":{"town":"Дулово","state_district":"Дулово","state":"Силистра","ISO3166-2-lvl4":"BG-19","postcode":"7650","country":"България","country_code":"bg"},"population":9511,"osm_type":"relation","osm_id":13000053,"type":"administrative","location":[27.1399325,43.8213154],"bbox":[27.1230669,43.7845707,27.180083,43.8498338]}}
{"name":"Дунавци","other_names":{"name:bg":"Дунавци","name:en":"Dunavtsi","name:ro":"Dunavți","int_name":"Dunavtsi"},"display_name":"Дунавци, Видин, 3740, България","address":{"town":"Дунавци","state_district":"Видин","state":"Видин","ISO3166-2-lvl4":"BG-05","postcode":"3740","country":"България","country_code":"bg"},"osm_type":"node","osm_id":297992208,"type":"town","location":[22.8153639,43.9139817],"bbox":[22.7753639,43.8739817,22.8553639,43.9539817]}
{"name":"Дупница","other_names":{"name:bg":"Дупница","name:de":"Dupniza","name:el":"Ντούπνιτσα","name:en":"Dupnitsa","name:es":"Dupnitsa","name:et":"Dupnica","name:fr":"Doupnitsa","name:hr":"Dupnica","name:nl":"Doepnitsa","name:pl":"Dupnica","name:pt":"Dupnitsa","name:ro":"Dupnița","name:tr":"Dupniçe","int_name":"Dupnitsa","alt_name:de":"Dupnitsa","alt_name:en":"Dupnica","old_name:bg:-1948":"Дупнеца","old_name:bg:1948-1949":"Марек","old_name:bg:1949-1990":"Станке Димитров"},"display_name":"Дупница, Кюстендил, 2604, България","address":{"town":"Дупница","state_district":"Дупница","state":"Кюстендил","ISO3166-2-lvl4":"BG-10","postcode":"2604","country":"България","country_code":"bg"},"population":37081,"osm_type":"node","osm_id":273488707,"type":"town","location":[23.1143551,42.2628362],"bbox":[23.0743551,42.2228362,23.1543551,42.3028362]}
{"name":"Дългопол","other_names":{"name:en":"Dalgopol","name:tr":"Yeniköy","int_name":"Dalgopol","alt_name:tr":"Dılgopol"},"display_name":"Дългопол, Варна, България","address":{"town":"Дългопол","state_district":"Дългопол","state":"Варна","ISO3166-2-lvl4":"BG-03","country":"България","country_code":"bg"},"osm_type":"node","osm_id":273488982,"type":"town","location":[27.3460079,43.0526157],"bbox":[27.3060079,43.0126157,27.3860079,43.0926157],"border":{"name":"Дългопол","other_names":{"name:bg":"Дългопол","name:en":"Dalgopol","name:tr":"Yeniköy","int_name":"Dalgopol","alt_name:tr":"Dılgopol"},"display_name":"Дългопол, Варна, България","address":{"town":"Дългопол","state_district":"Дългопол","state":"Варна","ISO3166-2-lvl4":"BG-03","country":"България","country_code":"bg"},"osm_type":"relation","osm_id":13477510,"type":"administrative","location":[27.3460079,43.0526157],"bbox":[27.2983275,43.00194,27.4232937,43.0899104]}}
{"name":"Елена","other_names":{"name:de":"Elena","name:en":"Elena","name:pl":"Elena","name:ro":"Elena","name:ru":"Елена","int_name":"Elena"},"display_name":"Елена, Велико Търново, България","address":{"town":"Елена","state_district":"Елена","state":"Велико Търново","ISO3166-2-lvl4":"BG-04","country":"България","country_code":"bg"},"population":5596,"osm_type":"node","osm_id":273488737,"type":"town","location":[25.8773778,42.9298896],"bbox":[25.8373778,42.8898896,25.9173778,42.9698896],"border":{"name":"Елена","other_names":{"name:bg":"Елена","name:de":"Elena","name:en":"Elena","name:pl":"Elena","name:ro":"Elena","name:ru":"Елена","int_name":"Elena"},"display_name":"Елена, Велико Търново, България","address":{"town":"Елена","state_district":"Елена","state":"Велико Търново","ISO3166-2-lvl4":"BG-04","country":"България","country_code":"bg"},"population":5596,"osm_type":"relation","osm_id":17744765,"type":"administrative","location":[25.8773778,42.9298896],"bbox":[25.8199468,42.883885,25.9438698,42.996943]}}
{"name":"Елин Пелин","other_names":{"name:de":"Elin Pelin","name:en":"Elin Pelin","name:ro":"Elin Pelin","int_name":"Elin Pelin"},"display_name":"Елин Пелин, Софийска, България","address":{"town":"Елин Пелин","state_district":"Елин Пелин","state":"Софийска","ISO3166-2-lvl4":"BG-23","country":"България","country_code":"bg"},"population":6835,"osm_type":"node","osm_id":273488699,"type":"town","location":[23.6021426,42.6691132],"bbox":[23.5621426,42.6291132,23.6421426,42.7091132],"border":{"name":"Елин Пелин","other_names":{"name:bg":"Елин Пелин","name:en":"Elin Pelin","name:de":"Elin Pelin","name:ro":"Elin Pelin","int_name":"Elin Pelin"},"display_name":"Елин Пелин, Софийска, България","address":{"town":"Елин Пелин","state_district":"Елин Пелин","state":"Софийска","ISO3166-2-lvl4":"BG-23","country":"България","country_code":"bg"},"population":6835,"osm_type":"relation","osm_id":17746006,"type":"administrative","location":[23.6021426,42.6691132],"bbox":[23.5540716,42.6234882,23.6315317,42.6935939]}}
{"name":"Елхово","other_names":{"name:bg":"Елхово","name:de":"Elchowo","name:en":"Elhovo","int_name":"Elhovo"},"display_name":"Елхово, Ямбол, 8700, България","address":{"town":"Елхово","state_district":"Елхово","state":"Ямбол","ISO3166-2-lvl4":"BG-28","postcode":"8700","country":"България","country_code":"bg"},"population":10384,"osm_type":"node","osm_id":273488728,"type":"town","location":[26.567632,42.17235],"bbox":[26.527632,42.13235,26.607632,42.21235]}
{"name":"Етрополе","other_names":{"name:bg":"Етрополе","name:en":"Etropole","name:ro":"Etropole","int_name":"Etropole"},"display_name":"Етрополе, Софийска, България","address":{"town":"Етрополе","state_district":"Етрополе","state":"Софийска","ISO3166-2-lvl4":"BG-23","country":"България","country_code":"bg"},"population":10936,"osm_type":"node","osm_id":273488702,"type":"town","location":[23.9964396,42.8326835],"bbox":[23.9564396,42.7926835,24.0364396,42.8726835],"border":{"name":"Етрополе","other_names":{"name:bg":"Етрополе","name:en":"Etropole","name:ro":"Etropole","int_name":"Etropole"},"display_name":"Етрополе, Софийска, 2180, България","address":{"town":"Етрополе","state_district":"Етрополе","state":"Софийска","ISO3166-2-lvl4":"BG-23","postcode":"2180","country":"България","country_code":"bg"},"population":10936,"osm_type":"relation","osm_id":18772497,"type":"administrative","location":[23.9964396,42.8326835],"bbox":[23.8956717,42.736002,24.0941812,42.880582]}}
{"name":"Завет","other_names":{"name:en":"Zavet","int_name":"Zavet"},"display_name":"Завет, Разград, България","address":{"town":"Завет","state_district":"Завет","state":"Разград","ISO3166-2-lvl4":"BG-17","country":"България","country_code":"bg"},"osm_type":"node","osm_id":273488966,"type":"town","location":[26.6781225,43.7591754],"bbox":[26.6381225,43.7191754,26.7181225,43.7991754],"border":{"name":"Завет","other_names":{"name:bg":"Завет","name:en":"Zavet","int_name":"Zavet"},"display_name":"Завет, Разград, България","address":{"town":"Завет","state_district":"Завет","state":"Разград","ISO3166-2-lvl4":"BG-17","country":"България","country_code":"bg"},"osm_type":"relation","osm_id":12999506,"type":"administrative","location":[26.6781225,43.7591754],"bbox":[26.6279922,43.7214536,26.7478337,43.8052421]}}
{"name":"Земен","other_names":{"name:bg":"Земен","name:el":"Ζέμεν","name:en":"Zemen","int_name":"Zemen","old_name":"Белово"},"display_name":"Земен, Перник, 2440, България","address":{"town":"Земен","state_district":"Земен","state":"Перник","ISO3166-2-lvl4":"BG-14","postcode":"2440","country":"България","country_code":"bg"},"osm_type":"node","osm_id":273488965,"type":"town","location":[22.7503014,42.4798619],"bbox":[22.7103014,42.4398619,22.7903014,42.5198619]}
{"name":"Златарица","other_names":{"name:en":"Zlataritsa","int_name":"Zlataritsa"},"display_name":"Златарица, Велико Търново, България","address":{"town":"Златарица","state_district":"Златарица","state":"Велико Търново","ISO3166-2-lvl4":"BG-04","country":"България","country_code":"bg"},"osm_type":"node","osm_id":273488944,"type":"town","location":[25.8908187,43.0455003],"bbox":[25.8508187,43.0055003,25.9308187,43.0855003],"border":{"name":"Златарица","other_names":{"name:bg":"Златарица","name:en":"Zlataritsa","int_name":"Zlataritsa"},"display_name":"Златарица, Велико Търново, 5090, България","address":{"town":"Златарица","state_district":"Златарица","state":"Велико Търново","ISO3166-2-lvl4":"BG-04","postcode":"5090","country":"България","country_code":"bg"},"osm_type":"relation","osm_id":17715162,"type":"administrative","location":[25.8908187,43.0455003],"bbox":[25.821836,42.980455,25.9239698,43.0826803]}}
{"name":"Златица","other_names":{"name:de":"Slatitsa","name:en":"Zlatitsa","int_name":"Zlatitsa"},"display_name":"Златица, Софийска, България","address":{"town":"Златица","state_district":"Златица","state":"Софийска","ISO3166-2-lvl4":"BG-23","country":"България","country_code":"bg"},"osm_type":"node","osm_id":273488958,"type":"town","location":[24.1389525,42.7116955],"bbox":[24.0989525,42.6716955,24.1789525,42.7516955],"border":{"name":"Златица","other_names":{"name:bg":"Златица","name:en":"Zlatitsa","name:de":"Slatitsa","int_name":"Zlatitsa"},"display_name":"Златица, Софийска, 2080, България","address":{"town":"Златица","state_district":"Златица","state":"Софийска","ISO3166-2-lvl4":"BG-23","postcode":"2080","country":"България","country_code":"bg"},"osm_type":"relation","osm_id":17802184,"type":"administrative","location":[24.1389525,42.7116955],"bbox":[24.0907349,42.6153523,24.20771,42.776204]}}
{"name":"Златоград","other_names":{"name:bg":"Златоград","name:cs":"Zlatograd","name:de":"Slatograd","name:el":"Ζλάτογκραντ","name:en":"Zlatograd","name:tr":"Darıdere","int_name":"Zlatograd","alt_name:tr":"Karadere;Kara Dere"},"display_name":"Златоград, Смолян, 4980, България","address":{"town":"Златоград","state_district":"Златоград","state":"Смолян","ISO3166-2-lvl4":"BG-21","postcode":"4980","country":"България","country_code":"bg"},"population":7169,"osm_type":"node","osm_id":273488704,"type":"town","location":[25.0950002,41.3809141],"bbox":[25.0550002,41.3409141,25.1350002,41.4209141]}
{"name":"Ивайловград","other_names":{"name:bg":"Ивайловград","name:de":"Iwajlowgrad","name:el":"Ιβαΐβολβγκραντ","name:en":"Ivaylovgrad","name:ml":"ഇവായ്ലോവ്ഗ്രാഡ്","name:sr":"Ивајловград","name:tr":"Ortaköy"},"display_name":"Ивайловград, Хасково, 6570, България","address":{"town":"Ивайловград","state_district":"Ивайловград","state":"Хасково","ISO3166-2-lvl4":"BG-26","postcode":"6570","country":"България","country_code":"bg"},"osm_type":"node","osm_id":273488987,"type":"town","location":[26.1234902,41.5258135],"bbox":[26.0834902,41.4858135,26.1634902,41.5658135]}
{"name":"Игнатиево","other_names":{"name:en":"Ignatievo","int_name":"Ignatievo"},"display_name":"Игнатиево, Аксаково, Варна, България","address":{"town":"Игнатиево","state_district":"Аксаково","state":"Варна","ISO3166-2-lvl4":"BG-03","country":"България","country_code":"bg"},"population":4282,"osm_type":"node","osm_id":273880448,"type":"town","location":[27.7747311,43.2495548],"bbox":[27.7347311,43.2095548,27.8147311,43.2895548],"border":{"name":"Игнатиево","other_names":{"name:bg":"Игнатиево","name:en":"Ignatievo","int_name":"Ignatievo"},"display_name":"Игнатиево, Аксаково, Варна, България","address":{"town":"Игнатиево","state_district":"Аксаково","state":"Варна","ISO3166-2-lvl4":"BG-03","country":"България","country_code":"bg"},"population":4282,"osm_type":"relation","osm_id":13477366,"type":"administrative","location":[27.7747311,43.2495548],"bbox":[27.726698,43.209107,27.8082294,43.2811436]}}
{"name":"Искър","other_names":{"name:bg":"Искър","name:en":"Iskar","int_name":"Iskar"},"display_name":"Искър, Плевен, България","address":{"town":"Искър","state_district":"Искър","state":"Плевен","ISO3166-2-lvl4":"BG-15","country":"България","country_code":"bg"},"osm_type":"node","osm_id":273488992,"type":"town","location":[24.2557605,43.4597596],"bbox":[24.2157605,43.4197596,24.2957605,43.4997596]}
{"name":"Исперих","other_names":{"name:en":"Isperih","int_name":"Isperih"},"display_name":"Исперих, Разград, България","address":{"town":"Исперих","state_district":"Исперих","state":"Разград","ISO3166-2-lvl4":"BG-17","country":"България","country_code":"bg"},"population":9006,"osm_type":"node","osm_id":273488974,"type":"town","location":[26.8301419,43.7168724],"bbox":[26.7901419,43.6768724,26.8701419,43.7568724],"border":{"name":"Исперих","other_names":{"name:bg":"Исперих","name:en":"Isperih","int_name":"Isperih"},"display_name":"Исперих, Разград, България","address":{"town":"Исперих","state_district":"Исперих","state":"Разград","ISO3166-2-lvl4":"BG-17","country":"България","country_code":"bg"},"population":9006,"osm_type":"relation","osm_id":12999563,"type":"administrative","location":[26.8301419,43.7168724],"bbox":[26.7926501,43.6783782,26.8739681,43.7671937]}}
{"name":"Ихтиман","other_names":{"name:en":"Ihtiman","name:nl":"Ihtiman","name:ro":"Ihtiman","name:tr":"İhtiman","int_name":"Ihtiman"},"display_name":"Ихтиман, Софийска, България","address":{"town":"Ихтиман","state_district":"Ихтиман","state":"Софийска","ISO3166-2-lvl4":"BG-23","country":"България","country_code":"bg"},"population":13568,"osm_type":"node","osm_id":273488980,"type":"town","location":[23.8143825,42.4384955],"bbox":[23.7743825,42.3984955,23.8543825,42.4784955],"border":{"name":"Ихтиман","other_names":{"name:bg":"Ихтиман","name:en":"Ihtiman","name:nl":"Ihtiman","name:ro":"Ihtiman","name:tr":"İhtiman","int_name":"Ihtiman"},"display_name":"Ихтиман, Софийска, 2050, България","address":{"town":"Ихтиман","state_district":"Ихтиман","state":"Софийска","ISO3166-2-lvl4":"BG-23","postcode":"2050","country":"България","country_code":"bg"},"population":13568,"osm_type":"relation","osm_id":17792855,"type":"administrative","location":[23.8143825,42.4384955],"bbox":[23.7757868,42.379993,23.931113,42.5083012]}}
{"name":"Каблешково","other_names":{"name:en":"Kableshkovo","name:fr":"Kablechkovo","int_name":"Kableshkovo"},"display_name":"Каблешково, Поморие, Бургас, 8210, България","address":{"town":"Каблешково","state_district":"Поморие","state":"Бургас","ISO3166-2-lvl4":"BG-02","postcode":"8210","country":"България","country_code":"bg"},"population":2906,"osm_type":"node","osm_id":344323854,"type":"town","location":[27.5648758,42.6598371],"bbox":[27.5248758,42.6198371,27.6048758,42.6998371],"border":{"name":"Каблешково","other_names":{"name:bg":"Каблешково","name:en":"Kableshkovo","name:fr":"Kablechkovo","int_name":"Kableshkovo"},"display_name":"Каблешково, Поморие, Бургас, 8210, България","address":{"town":"Каблешково","state_district":"Поморие","state":"Бургас","ISO3166-2-lvl4":"BG-02","postcode":"8210","country":"България","country_code":"bg"},"population":2906,"osm_type":"relation","osm_id":18529880,"type":"administrative","location":[27.5648758,42.6598371],"bbox":[27.515279,42.6118589,27.6331029,42.6949686]}}
{"name":"Каварна","other_names":{"name:bg":"Каварна","name:de":"Kawarna","name:en":"Kavarna","name:ro":"Kavarna","int_name":"Kavarna","old_name":"Karnava"},"display_name":"Каварна, Добрич, България","address":{"town":"Каварна","state_district":"Каварна","state":"Добрич","ISO3166-2-lvl4":"BG-08","country":"България","country_code":"bg"},"population":11788,"osm_type":"node","osm_id":273488849,"type":"town","location":[28.3390066,43.4332836],"bbox":[28.2990066,43.3932836,28.3790066,43.4732836],"border":{"name":"Каварна","other_names":{"name:bg":"Каварна","name:en":"Kavarna","name:de":"Kawarna","name:ro":"Kavarna","int_name":"Kavarna","old_name":"Karnava"},"display_name":"Каварна, Добрич, 9650, България","address":{"town":"Каварна","state_district":"Каварна","state":"Добрич","ISO3166-2-lvl4":"BG-08","postcode":"9650","country":"България","country_code":"bg"},"population":11788,"osm_type":"relation","osm_id":12644012,"type":"administrative","location":[28.3390066,43.4332836],"bbox":[28.2902698,43.4064377,28.3991057,43.4836025]}}
{"name":"Казанлък","other_names":{"name:bg":"Казанлък","name:de":"Kasanlak","name:el":"Καζανλούκ","name:en":"Kazanlak","name:eo":"Kazanlako","name:et":"Kazanlǎk","name:fi":"Kazanlăk","name:hr":"Kazanlk","name:nl":"Kazanlik","name:pl":"Kazanłyk","name:pt":"Kazanluk","name:ro":"Kazanlâc","name:ru":"Казанлык","name:sk":"Kazanlăk","name:sv":"Kazanlăk","name:tr":"Kazanlık","int_name":"Kazanlak","alt_name:tr":"Kızanlık"},"display_name":"Казанлък, Стара Загора, България","address":{"town":"Казанлък","state_district":"Казанлък","state":"Стара Загора","ISO3166-2-lvl4":"BG-24","country":"България","country_code":"bg"},"population":49032,"osm_type":"node","osm_id":273488837,"type":"town","location":[25.3933333,42.6191296],"bbox":[25.3533333,42.5791296,25.4333333,42.6591296],"border":{"name":"Казанлък","other_names":{"name:bg":"Казанлък","name:en":"Kazanlak","name:de":"Kasanlak","name:el":"Καζανλούκ","name:eo":"Kazanlako","name:et":"Kazanlǎk","name:fi":"Kazanlăk","name:hr":"Kazanlk","name:nl":"Kazanlik","name:pl":"Kazanłyk","name:pt":"Kazanluk","name:ro":"Kazanlâc","name:ru":"Казанлык","name:sk":"Kazanlăk","name:sv":"Kazanlăk","name:tr":"Kazanlık","int_name":"Kazanlak","alt_name:tr":"Kızanlık"},"display_name":"Казанлък, Стара Загора, България","address":{"town":"Казанлък","state_district":"Казанлък","state":"Стара Загора","ISO3166-2-lvl4":"BG-24","country":"България","country_code":"bg"},"population":49032,"osm_type":"relation","osm_id":13489942,"type":"administrative","location":[25.3933333,42.6191296],"bbox":[25.3441847,42.5745915,25.444287,42.6440154]}}
{"name":"Кайнарджа","other_names":{"name:en":"Kaynardzha","name:ro":"Kainardja","name:sr":"Кајнарџа","int_name":"Kaynardzha"},"display_name":"Кайнарджа, Силистра, България","address":{"town":"Кайнарджа","state_district":"Кайнарджа","state":"Силистра","ISO3166-2-lvl4":"BG-19","country":"България","country_code":"bg"},"osm_type":"node","osm_id":273488877,"type":"town","location":[27.5076325,43.9922854],"bbox":[27.4676325,43.9522854,27.5476325,44.0322854],"border":{"name":"Кайнарджа","other_names":{"name:bg":"Кайнарджа","name:en":"Kaynardzha","name:ro":"Kainardja","name:sr":"Кајнарџа","int_name":"Kaynardzha"},"display_name":"Кайнарджа, Силистра, България","address":{"town":"Кайнарджа","state_district":"Кайнарджа","state":"Силистра","ISO3166-2-lvl4":"BG-19","country":"България","country_code":"bg"},"osm_type":"relation","osm_id":12999857,"type":"administrative","location":[27.5076325,43.9922854],"bbox":[27.4496162,43.9556473,27.5863039,44.02252]}}
{"name":"Калофер","other_names":{"name:bg":"Калофер","name:en":"Kalofer","name:ru":"Калофер","int_name":"Kalofer"},"display_name":"Калофер, Карлово, Пловдив, България","address":{"town":"Калофер","state_district":"Карлово","state":"Пловдив","ISO3166-2-lvl4":"BG-16","country":"България","country_code":"bg"},"population":2639,"osm_type":"node","osm_id":331131269,"type":"town","location":[24.9737862,42.6122664],"bbox":[24.9337862,42.5722664,25.0137862,42.6522664]}
{"name":"Камено","other_names":{"name:bg":"Камено","name:en":"Kameno","name:fr":"Kameno","int_name":"Kameno"},"display_name":"Камено, Бургас, 8120, България","address":{"town":"Камено","state_district":"Камено","state":"Бургас","ISO3166-2-lvl4":"BG-02","postcode":"8120","country":"България","country_code":"bg"},"population":5329,"osm_type":"node","osm_id":273488896,"type":"town","location":[27.2910461,42.5711572],"bbox":[27.2510461,42.5311572,27.3310461,42.6111572],"border":{"name":"Камено","other_names":{"name:bg":"Камено","name:en":"Kameno","name:fr":"Kameno","int_name":"Kameno"},"display_name":"Камено, Бургас, България","address":{"town":"Камено","state_district":"Камено","state":"Бургас","ISO3166-2-lvl4":"BG-02","country":"България","country_code":"bg"},"population":5329,"osm_type":"relation","osm_id":18992938,"type":"administrative","location":[27.2910461,42.5711572],"bbox":[27.2461862,42.518796,27.368466,42.599795]}}
{"name":"Каолиново","other_names":{"name:en":"Kaolinovo","int_name":"Kaolinovo"},"display_name":"Каолиново, Шумен, България","address":{"town":"Каолиново","state_district":"Каолиново","state":"Шумен","ISO3166-2-lvl4":"BG-27","country":"България","country_code":"bg"},"osm_type":"node","osm_id":273488869,"type":"town","location":[27.1070625,43.6205554],"bbox":[27.0670625,43.5805554,27.1470625,43.6605554],"border":{"name":"Каолиново","other_names":{"name:bg":"Каолиново","name:en":"Kaolinovo","int_name":"Kaolinovo"},"display_name":"Каолиново, Шумен, България","address":{"town":"Каолиново","state_district":"Каолиново","state":"Шумен","ISO3166-2-lvl4":"BG-27","country":"България","country_code":"bg"},"osm_type":"relation","osm_id":12999604,"type":"administrative","location":[27.1070625,43.6205554],"bbox":[27.0604082,43.571552,27.1462778,43.6392537]}}
{"name":"Карлово","other_names":{"name:bg":"Карлово","name:de":"Karlowo","name:en":"Karlovo","name:pl":"Karłowo","name:tr":"Karlova","int_name":"Karlovo","alt_name:tr":"Karlıova","old_name:bg:1953-1962":"Левскиград"},"display_name":"Карлово, Пловдив, 4300, България","address":{"town":"Карлово","state_district":"Карлово","state":"Пловдив","ISO3166-2-lvl4":"BG-16","postcode":"4300","country":"България","country_code":"bg"},"population":23919,"osm_type":"node","osm_id":273488854,"type":"town","location":[24.8048226,42.6358156],"bbox":[24.7648226,42.5958156,24.8448226,42.6758156]}
{"name":"Карнобат","other_names":{"name:bg":"Карнобат","name:de":"Karnobat","name:en":"Karnobat","name:fr":"Karnobat","name:tr":"Karinabat","int_name":"Karnobat"},"display_name":"Карнобат, Бургас, 8400, България","address":{"town":"Карнобат","state_district":"Карнобат","state":"Бургас","ISO3166-2-lvl4":"BG-02","postcode":"8400","country":"България","country_code":"bg"},"population":18156,"osm_type":"node","osm_id":273488842,"type":"town","location":[26.9823125,42.6498554],"bbox":[26.9423125,42.6098554,27.0223125,42.6898554]}
{"name":"Каспичан","other_names":{"name:bg":"Каспичан","name:de":"Kaspitschan","name:en":"Kaspichan","name:fr":"Kaspitchan","name:ro":"Kaspicean","int_name":"Kaspichan"},"display_name":"Каспичан, Шумен, 9930, България","address":{"town":"Каспичан","village":"Каспичан","state_district":"Каспичан","state":"Шумен","ISO3166-2-lvl4":"BG-27","postcode":"9930","country":"България","country_code":"bg"},"osm_type":"node","osm_id":273488847,"type":"town","location":[27.1612625,43.3141455],"bbox":[27.1212625,43.2741455,27.2012625,43.3541455],"border":{"name":"Каспичан","other_names":{"name:bg":"Каспичан","name:en":"Kaspichan","int_name":"Kaspichan"},"display_name":"Каспичан, Шумен, 9930, България","address":{"village":"Каспичан","state_district":"Каспичан","state":"Шумен","ISO3166-2-lvl4":"BG-27","postcode":"9930","country":"България","country_code":"bg"},"osm_type":"relation","osm_id":13477033,"type":"administrative","location":[27.17814,43.29834],"bbox":[27.0904972,43.2653611,27.2027361,43.3361966]}}
{"name":"Кермен","other_names":{"name:bg":"Кермен","name:el":"Κέρμεν","name:en":"Kermen","name:tr":"Germiyanlı","int_name":"Kermen"},"display_name":"Кермен, Сливен, България","address":{"town":"Кермен","state_district":"Сливен","state":"Сливен","ISO3166-2-lvl4":"BG-20","country":"България","country_code":"bg"},"osm_type":"node","osm_id":530587061,"type":"town","location":[26.2560569,42.5056243],"bbox":[26.2160569,42.4656243,26.2960569,42.5456243]}
{"name":"Килифарево","other_names":{"name:en":"Kilifarevo","name:ml":"കിലിഫാറെവോ","int_name":"Kilifarevo"},"display_name":"Килифарево, Велико Търново, България","address":{"town":"Килифарево","state_district":"Велико Търново","state":"Велико Търново","ISO3166-2-lvl4":"BG-04","country":"България","country_code":"bg"},"osm_type":"node","osm_id":269989279,"type":"town","location":[25.6211255,42.9932207],"bbox":[25.5811255,42.9532207,25.6611255,43.0332207],"border":{"name":"Килифарево","other_names":{"name:bg":"Килифарево","name:en":"Kilifarevo","name:ml":"കിലിഫാറെവോ","int_name":"Kilifarevo"},"display_name":"Килифарево, Велико Търново, 5050, България","address":{"town":"Килифарево","state_district":"Велико Търново","state":"Велико Търново","ISO3166-2-lvl4":"BG-04","postcode":"5050","country":"България","country_code":"bg"},"osm_type":"relation","osm_id":17402813,"type":"administrative","location":[25.6211255,42.9932207],"bbox":[25.576792,42.974769,25.6718155,43.0228343]}}
{"name":"Китанчево","display_name":"Китанчево, Исперих, Разград, България","address":{"town":"Китанчево","village":"Китанчево","state_district":"Исперих","state":"Разград","ISO3166-2-lvl4":"BG-17","country":"България","country_code":"bg"},"osm_type":"way","osm_id":123701557,"type":"town","location":[26.89672169403736,43.73178355],"bbox":[26.882112,43.72526,26.9110166,43.738478]}
{"name":"Китен","other_names":{"name:bg":"Китен","name:en":"Kiten","name:fr":"Kiten","int_name":"Kiten"},"display_name":"Китен, Приморско, Бургас, 8183, България","address":{"town":"Китен","state_district":"Приморско","state":"Бургас","ISO3166-2-lvl4":"BG-02","postcode":"8183","country":"България","country_code":"bg"},"population":1113,"osm_type":"node","osm_id":273873916,"type":"town","location":[27.77419,42.23584],"bbox":[27.73419,42.19584,27.81419,42.27584]}
{"name":"Клисура","other_names":{"name:bg":"Клисура","name:en":"Klisura","name:uk":"Клісура","int_name":"Klisura"},"display_name":"Клисура, Карлово, Пловдив, 4341, България","address":{"town":"Клисура","state_district":"Карлово","state":"Пловдив","ISO3166-2-lvl4":"BG-16","postcode":"4341","country":"България","country_code":"bg"},"osm_type":"node","osm_id":1077973943,"type":"town","location":[24.4494186,42.6937241],"bbox":[24.4094186,42.6537241,24.4894186,42.7337241]}
{"name":"Кнежа","other_names":{"name:bg":"Кнежа","name:en":"Knezha","int_name":"Knezha"},"display_name":"Кнежа, Плевен, 5835, България","address":{"town":"Кнежа","state_district":"Кнежа","state":"Плевен","ISO3166-2-lvl4":"BG-15","postcode":"5835","country":"България","country_code":"bg"},"population":10925,"osm_type":"node","osm_id":273488865,"type":"town","location":[24.0745138,43.4990084],"bbox":[24.0345138,43.4590084,24.1145138,43.5390084]}
{"name":"Козлодуй","other_names":{"name:bg":"Козлодуй","name:en":"Kozloduy","name:ro":"Kozlodui","name:ru":"Козлодуй","name:sr":"Козлодуј","int_name":"Kozloduy"},"display_name":"Козлодуй, Враца, 3320, България","address":{"town":"Козлодуй","state_district":"Козлодуй","state":"Враца","ISO3166-2-lvl4":"BG-06","postcode":"3320","country":"България","country_code":"bg"},"population":13593,"osm_type":"node","osm_id":273488979,"type":"town","location":[23.7293313,43.7750934],"bbox":[23.6893313,43.7350934,23.7693313,43.8150934]}
{"name":"Копривщица","other_names":{"name:bg":"Копривщица","name:cs":"Koprivštica","name:de":"Kopriwschtiza","name:en":"Koprivshtitsa","name:eo":"Koprivŝtico","name:fr":"Koprivchtitsa","name:it":"Koprivštica","name:pl":"Kopriwsztica","name:ro":"Koprivștița","int_name":"Koprivshtitsa"},"display_name":"Копривщица, Софийска, България","address":{"town":"Копривщица","state_district":"Копривщица","state":"Софийска","ISO3166-2-lvl4":"BG-23","country":"България","country_code":"bg"},"osm_type":"node","osm_id":273488962,"type":"town","location":[24.3577991,42.6375324],"bbox":[24.3177991,42.5975324,24.3977991,42.6775324],"border":{"name":"Копривщица","other_names":{"name:bg":"Копривщица","name:en":"Koprivshtitsa","name:cs":"Koprivštica","name:de":"Kopriwschtiza","name:eo":"Koprivŝtico","name:fr":"Koprivchtitsa","name:it":"Koprivštica","name:pl":"Kopriwsztica","name:ro":"Koprivștița","int_name":"Koprivshtitsa"},"display_name":"Копривщица, Софийска, 2077, България","address":{"town":"Копривщица","state_district":"Копривщица","state":"Софийска","ISO3166-2-lvl4":"BG-23","postcode":"2077","country":"България","country_code":"bg"},"osm_type":"relation","osm_id":17801512,"type":"administrative","location":[24.3577991,42.6375324],"bbox":[24.281751,42.550214,24.48337,42.696262]}}
{"name":"Костандово","other_names":{"name:bg":"Костандово","name:en":"Kostandovo","int_name":"Kostandovo"},"display_name":"Костандово, Ракитово, Пазарджик, 4644, България","address":{"town":"Костандово","state_district":"Ракитово","state":"Пазарджик","ISO3166-2-lvl4":"BG-13","postcode":"4644","country":"България","country_code":"bg"},"population":4350,"osm_type":"node","osm_id":273874457,"type":"town","location":[24.1074225,42.0262455],"bbox":[24.0674225,41.9862455,24.1474225,42.0662455]}
{"name":"Костенец","other_names":{"name:bg":"Костенец","name:en":"Kostenets","name:ro":"Kosteneț","int_name":"Kostenets"},"display_name":"Костенец, Долна Василица, Костенец, Софийска, 2030, България","address":{"town":"Костенец","village":"Долна Василица","state_district":"Костенец","state":"Софийска","ISO3166-2-lvl4":"BG-23","postcode":"2030","country":"България","country_code":"bg"},"population":6556,"osm_type":"node","osm_id":273488889,"type":"town","location":[23.8588278,42.3076287],"bbox":[23.8188278,42.2676287,23.8988278,42.3476287]}
{"name":"Костинброд","other_names":{"name:de":"Kostinbrod","name:el":"Κόστινμπροντ","name:en":"Kostinbrod","name:ro":"Kostinbrod","int_name":"Kostinbrod"},"display_name":"Костинброд, Софийска, България","address":{"town":"Костинброд","state_district":"Костинброд","state":"Софийска","ISO3166-2-lvl4":"BG-23","country":"България","country_code":"bg"},"population":11423,"osm_type":"node","osm_id":273488853,"type":"town","location":[23.2156511,42.8131989],"bbox":[23.1756511,42.7731989,23.2556511,42.8531989],"border":{"name":"Костинброд","other_names":{"name:bg":"Костинброд","name:en":"Kostinbrod","name:de":"Kostinbrod","name:el":"Κόστινμπροντ","name:ro":"Kostinbrod","int_name":"Kostinbrod"},"display_name":"Костинброд, Софийска, България","address":{"town":"Костинброд","state_district":"Костинброд","state":"Софийска","ISO3166-2-lvl4":"BG-23","country":"България","country_code":"bg"},"population":11423,"osm_type":"relation","osm_id":17768193,"type":"administrative","location":[23.2156511,42.8131989],"bbox":[23.1423399,42.78384,23.251083,42.8649955]}}
{"name":"Котел","other_names":{"name:de":"Kotel","name:en":"Kotel","name:ru":"Котел","name:tr":"Kazan","int_name":"Kotel"},"display_name":"Котел, Сливен, България","address":{"town":"Котел","state_district":"Котел","state":"Сливен","ISO3166-2-lvl4":"BG-20","country":"България","country_code":"bg"},"population":5370,"osm_type":"node","osm_id":273489004,"type":"town","location":[26.4491598,42.8873776],"bbox":[26.4091598,42.8473776,26.4891598,42.9273776],"border":{"name":"Котел","other_names":{"name:bg":"Котел","name:en":"Kotel","name:de":"Kotel","name:ru":"Котел","name:tr":"Kazan","int_name":"Kotel"},"display_name":"Котел, Сливен, 8970, България","address":{"town":"Котел","state_district":"Котел","state":"Сливен","ISO3166-2-lvl4":"BG-20","postcode":"8970","country":"България","country_code":"bg"},"population":5370,"osm_type":"relation","osm_id":18909236,"type":"administrative","location":[26.4491598,42.8873776],"bbox":[26.3075157,42.8469308,26.5273166,42.9470632]}}
{"name":"Кочериново","other_names":{"name:bg":"Кочериново","name:de":"Kotscherinowo","name:el":"Κοτσερίνοβο","name:en":"Kocherinovo","name:mk":"Кочериново","int_name":"Kocherinovo"},"display_name":"Кочериново, Кюстендил, 2640, България","address":{"town":"Кочериново","state_district":"Кочериново","state":"Кюстендил","ISO3166-2-lvl4":"BG-10","postcode":"2640","country":"България","country_code":"bg"},"population":2400,"osm_type":"node","osm_id":273488881,"type":"town","location":[23.0581308,42.0859637],"bbox":[23.0181308,42.0459637,23.0981308,42.1259637]}
{"name":"Кресна","other_names":{"name:bg":"Кресна","name:de":"Kresna","name:el":"Κρέσνα","name:en":"Kresna","name:fr":"Kresna","name:mk":"Станица Пирин","int_name":"Kresna","alt_name:mk":"Кресна"},"display_name":"Кресна, Благоевград, 2840, България","address":{"town":"Кресна","state_district":"Кресна","state":"Благоевград","ISO3166-2-lvl4":"BG-01","postcode":"2840","country":"България","country_code":"bg"},"population":3628,"osm_type":"node","osm_id":273488977,"type":"town","location":[23.1633544,41.7225603],"bbox":[23.1233544,41.6825603,23.2033544,41.7625603]}
{"name":"Криводол","other_names":{"name:bg":"Криводол","name:en":"Krivodol","int_name":"Krivodol"},"display_name":"Криводол, Враца, България","address":{"town":"Криводол","state_district":"Криводол","state":"Враца","ISO3166-2-lvl4":"BG-06","country":"България","country_code":"bg"},"osm_type":"node","osm_id":273488735,"type":"town","location":[23.4751394,43.3675147],"bbox":[23.4351394,43.3275147,23.5151394,43.4075147]}
{"name":"Кричим","other_names":{"name:bg":"Кричим","name:en":"Krichim","int_name":"Krichim"},"display_name":"Кричим, Пловдив, 4220, България","address":{"town":"Кричим","state_district":"Кричим","state":"Пловдив","ISO3166-2-lvl4":"BG-16","postcode":"4220","country":"България","country_code":"bg"},"population":8571,"osm_type":"node","osm_id":273488947,"type":"town","location":[24.4702714,42.0422788],"bbox":[24.4302714,42.0022788,24.5102714,42.0822788]}
{"name":"Крумовград","other_names":{"name:bg":"Крумовград","name:cs":"Krumovgrad","name:el":"Κούμοβγκραντ","name:en":"Krumovgrad","name:ru":"Крумовград","name:tr":"Koşukavak","int_name":"Krumovgrad"},"display_name":"Крумовград, Кърджали, 6900, България","address":{"town":"Крумовград","state_district":"Крумовград","state":"Кърджали","ISO3166-2-lvl4":"BG-09","postcode":"6900","country":"България","country_code":"bg"},"population":16937,"osm_type":"node","osm_id":273488956,"type":"town","location":[25.6546299,41.4731094],"bbox":[25.6146299,41.4331094,25.6946299,41.5131094]}
{"name":"Крушари","other_names":{"name:en":"Krushari","int_name":"Krushari"},"display_name":"Крушари, Добрич, България","address":{"town":"Крушари","state_district":"Крушари","state":"Добрич","ISO3166-2-lvl4":"BG-08","country":"България","country_code":"bg"},"osm_type":"node","osm_id":273488891,"type":"town","location":[27.7564125,43.8188654],"bbox":[27.7164125,43.7788654,27.7964125,43.8588654],"border":{"name":"Крушари","other_names":{"name:bg":"Крушари","name:en":"Krushari","int_name":"Krushari"},"display_name":"Крушари, Добрич, България","address":{"town":"Крушари","state_district":"Крушари","state":"Добрич","ISO3166-2-lvl4":"BG-08","country":"България","country_code":"bg"},"osm_type":"relation","osm_id":12996398,"type":"administrative","location":[27.7564125,43.8188654],"bbox":[27.717533,43.7917628,27.8103593,43.8430792]}}
{"name":"Крън","other_names":{"name:en":"Kran","name:ro":"Krăn","int_name":"Kran"},"display_name":"Крън, Казанлък, Стара Загора, България","address":{"town":"Крън","state_district":"Казанлък","state":"Стара Загора","ISO3166-2-lvl4":"BG-24","country":"България","country_code":"bg"},"population":3095,"osm_type":"node","osm_id":273881009,"type":"town","location":[25.3806846,42.6677735],"bbox":[25.3406846,42.6277735,25.4206846,42.7077735],"border":{"name":"Крън","other_names":{"name:bg":"Крън","name:en":"Kran","name:ro":"Krăn","int_name":"Kran"},"display_name":"Крън, Казанлък, Стара Загора, България","address":{"town":"Крън","state_district":"Казанлък","state":"Стара Загора","ISO3166-2-lvl4":"BG-24","country":"България","country_code":"bg"},"population":3095,"osm_type":"relation","osm_id":13489936,"type":"administrative","location":[25.3806846,42.6677735],"bbox":[25.3466771,42.6338365,25.4156584,42.7360615]}}
{"name":"Кубрат","other_names":{"name:en":"Kubrat","name:ro":"Kubrat","name:tr":"Kurtbunar","int_name":"Kubrat"},"display_name":"Кубрат, Разград, България","address":{"town":"Кубрат","state_district":"Кубрат","state":"Разград","ISO3166-2-lvl4":"BG-17","country":"България","country_code":"bg"},"population":7624,"osm_type":"node","osm_id":273488797,"type":"town","location":[26.5006777,43.7967009],"bbox":[26.4606777,43.7567009,26.5406777,43.8367009],"border":{"name":"Кубрат","other_names":{"name:bg":"Кубрат","name:en":"Kubrat","name:ro":"Kubrat","name:tr":"Kurtbunar","int_name":"Kubrat"},"display_name":"Кубрат, Разград, 7300, България","address":{"town":"Кубрат","state_district":"Кубрат","state":"Разград","ISO3166-2-lvl4":"BG-17","postcode":"7300","country":"България","country_code":"bg"},"population":7624,"osm_type":"relation","osm_id":12629784,"type":"administrative","location":[26.5006777,43.7967009],"bbox":[26.42453,43.7549966,26.5629775,43.8362014]}}
{"name":"Куклен","other_names":{"name:bg":"Куклен","name:en":"Kuklen","name:nl":"Kuklen","int_name":"Kuklen"},"display_name":"Куклен, Пловдив, 4101, България","address":{"town":"Куклен","state_district":"Куклен","state":"Пловдив","ISO3166-2-lvl4":"BG-16","postcode":"4101","country":"България","country_code":"bg"},"osm_type":"node","osm_id":273877354,"type":"town","location":[24.7878207,42.0337809],"bbox":[24.7478207,41.9937809,24.8278207,42.0737809]}
{"name":"Кула","other_names":{"name:bg":"Кула","name:en":"Kula","name:ro":"Kula","name:sr":"Кула","int_name":"Kula"},"display_name":"Кула, Видин, 3800, България","address":{"town":"Кула","state_district":"Кула","state":"Видин","ISO3166-2-lvl4":"BG-05","postcode":"3800","country":"България","country_code":"bg"},"osm_type":"node","osm_id":273488817,"type":"town","location":[22.5203916,43.8874059],"bbox":[22.4803916,43.8474059,22.5603916,43.9274059]}
{"name":"Левски","other_names":{"name:bg":"Левски","name:en":"Levski","name:ml":"ലെവ്സ്കി","name:ru":"Левски","int_name":"Levski"},"display_name":"Левски, Плевен, България","address":{"town":"Левски","state_district":"Левски","state":"Плевен","ISO3166-2-lvl4":"BG-15","country":"България","country_code":"bg"},"osm_type":"node","osm_id":273488693,"type":"town","location":[25.1422144,43.3597306],"bbox":[25.1022144,43.3197306,25.1822144,43.3997306],"border":{"name":"Левски","other_names":{"name:bg":"Левски","name:en":"Levski","name:ml":"ലെവ്സ്കി","name:ru":"Левски","int_name":"Levski"},"display_name":"Левски, Плевен, 5900, България","address":{"town":"Левски","state_district":"Левски","state":"Плевен","ISO3166-2-lvl4":"BG-15","postcode":"5900","country":"България","country_code":"bg"},"osm_type":"relation","osm_id":18535703,"type":"administrative","location":[25.1422144,43.3597306],"bbox":[25.0804995,43.3355069,25.2021391,43.3911845]}}
{"name":"Летница","other_names":{"name:bg":"Летница","name:en":"Letnitsa","int_name":"Letnitsa"},"display_name":"Летница, Ловеч, България","address":{"town":"Летница","state_district":"Летница","state":"Ловеч","ISO3166-2-lvl4":"BG-11","country":"България","country_code":"bg"},"osm_type":"node","osm_id":273488698,"type":"town","location":[25.0540972,43.3058111],"bbox":[25.0140972,43.2658111,25.0940972,43.3458111],"border":{"name":"Летница","other_names":{"name:bg":"Летница","name:en":"Letnitsa","int_name":"Letnitsa"},"display_name":"Летница, Ловеч, България","address":{"town":"Летница","state_district":"Летница","state":"Ловеч","ISO3166-2-lvl4":"BG-11","country":"България","country_code":"bg"},"osm_type":"relation","osm_id":18531653,"type":"administrative","location":[25.0540972,43.3058111],"bbox":[24.977169,43.2521368,25.118369,43.380091]}}
{"name":"Лозница","other_names":{"name:de":"Losniza","name:en":"Loznitsa","int_name":"Loznitsa"},"display_name":"Лозница, Разград, България","address":{"town":"Лозница","state":"Разград","ISO3166-2-lvl4":"BG-17","country":"България","country_code":"bg"},"osm_type":"node","osm_id":273488840,"type":"town","location":[26.6020825,43.3706555],"bbox":[26.5620825,43.3306555,26.6420825,43.4106555],"border":[{"name":"Лозница","other_names":{"name:bg":"Лозница","name:de":"Losniza","name:en":"Loznitsa","name:zh":"洛兹尼察","int_name":"Loznitsa"},"display_name":"Лозница, Разград, 7247, България","address":{"town":"Лозница","state":"Разград","ISO3166-2-lvl4":"BG-17","postcode":"7247","country":"България","country_code":"bg"},"osm_type":"relation","osm_id":1931095,"type":"administrative","location":[26.6020825,43.3706555],"bbox":[26.4690259,43.3264068,26.7454166,43.4957254]},{"name":"Лозница","other_names":{"name:bg":"Лозница","name:en":"Loznitsa"},"display_name":"Лозница, Разград, България","address":{"city_district":"Лозница","town":"Лозница","state":"Разград","ISO3166-2-lvl4":"BG-17","country":"България","country_code":"bg"},"osm_type":"relation","osm_id":13431242,"type":"administrative","location":[26.602412556755702,43.364511300000004],"bbox":[26.5618644,43.3355473,26.6491751,43.392774]}]}
{"name":"Лом","other_names":{"name:bg":"Лом","name:de":"Lom","name:en":"Lom","name:la":"Almus","name:ro":"Lom","int_name":"Lom"},"display_name":"Лом, Монтана, 3600, България","address":{"town":"Лом","state_district":"Лом","state":"Монтана","ISO3166-2-lvl4":"BG-12","postcode":"3600","country":"България","country_code":"bg"},"population":24181,"osm_type":"node","osm_id":273488802,"type":"town","location":[23.2386638,43.8201697],"bbox":[23.1986638,43.7801697,23.2786638,43.8601697]}
{"display_name":"Лом, Монтана, България","address":{"state_district":"Лом","state":"Монтана","ISO3166-2-lvl4":"BG-12","country":"България","country_code":"bg"},"osm_type":"way","osm_id":123463011,"type":"town","location":[23.16417907275074,43.737677500000004],"bbox":[23.1519505,43.7230204,23.183526,43.752028]}
{"name":"Луковит","other_names":{"name:bg":"Луковит","name:en":"Lukovit","int_name":"Lukovit"},"display_name":"Луковит, Ловеч, 5770, България","address":{"town":"Луковит","state_district":"Луковит","state":"Ловеч","ISO3166-2-lvl4":"BG-11","postcode":"5770","country":"България","country_code":"bg"},"population":9546,"osm_type":"node","osm_id":273488884,"type":"town","location":[24.1619125,43.2064255],"bbox":[24.1219125,43.1664255,24.2019125,43.2464255]}
{"name":"Лъки","other_names":{"name:bg":"Лъки","name:en":"Laki","name:tr":"Eskipaslı","int_name":"Laki"},"display_name":"Лъки, Пловдив, 4243, България","address":{"town":"Лъки","state_district":"Лъки","state":"Пловдив","ISO3166-2-lvl4":"BG-16","postcode":"4243","country":"България","country_code":"bg"},"osm_type":"node","osm_id":273488740,"type":"town","location":[24.829587,41.8332197],"bbox":[24.789587,41.7932197,24.869587,41.8732197]}
{"name":"Любимец","other_names":{"name:de":"Ljubimez","name:el":"Λιούμπιμετς","name:en":"Lyubimets","name:ru":"Любимец","name:sr":"Љубимец","name:tr":"Habibçeova","int_name":"Lyubimets"},"display_name":"Любимец, Хасково, България","address":{"town":"Любимец","state_district":"Любимец","state":"Хасково","ISO3166-2-lvl4":"BG-26","country":"България","country_code":"bg"},"population":7634,"osm_type":"node","osm_id":273488845,"type":"town","location":[26.0820928,41.8441605],"bbox":[26.0420928,41.8041605,26.1220928,41.8841605],"border":{"name":"Любимец","other_names":{"name:bg":"Любимец","name:en":"Lyubimets","name:de":"Ljubimez","name:el":"Λιούμπιμετς","name:ru":"Любимец","name:sr":"Љубимец","name:tr":"Habibçeova","int_name":"Lyubimets"},"display_name":"Любимец, Хасково, България","address":{"town":"Любимец","state_district":"Любимец","state":"Хасково","ISO3166-2-lvl4":"BG-26","country":"България","country_code":"bg"},"population":7634,"osm_type":"relation","osm_id":13431145,"type":"administrative","location":[26.0820928,41.8441605],"bbox":[26.023273,41.783759,26.155514,41.887922]}}
{"name":"Лясковец","other_names":{"name:en":"Lyaskovets","name:sr":"Љасковец","int_name":"Lyaskovets"},"display_name":"Лясковец, Велико Търново, България","address":{"town":"Лясковец","state_district":"Лясковец","state":"Велико Търново","ISO3166-2-lvl4":"BG-04","country":"България","country_code":"bg"},"population":8557,"osm_type":"node","osm_id":273488753,"type":"town","location":[25.7143725,43.1078855],"bbox":[25.6743725,43.0678855,25.7543725,43.1478855],"border":{"name":"Лясковец","other_names":{"name:bg":"Лясковец","name:en":"Lyaskovets","name:sr":"Љасковец","int_name":"Lyaskovets"},"display_name":"Лясковец, Велико Търново, 5140, България","address":{"town":"Лясковец","state_district":"Лясковец","state":"Велико Търново","ISO3166-2-lvl4":"BG-04","postcode":"5140","country":"България","country_code":"bg"},"population":8557,"osm_type":"relation","osm_id":17641762,"type":"administrative","location":[25.7143725,43.1078855],"bbox":[25.68511,43.072603,25.8066823,43.153428]}}
{"name":"Мадан","other_names":{"name:bg":"Мадан","name:en":"Madan","int_name":"Madan"},"display_name":"Мадан, Смолян, 4900, България","address":{"town":"Мадан","state_district":"Мадан","state":"Смолян","ISO3166-2-lvl4":"BG-21","postcode":"4900","country":"България","country_code":"bg"},"population":6526,"osm_type":"node","osm_id":273488873,"type":"town","location":[24.9393625,41.4985656],"bbox":[24.8993625,41.4585656,24.9793625,41.5385656]}
{"name":"Маджарово","other_names":{"name:bg":"Маджарово","name:de":"Madscharowo","name:el":"Ματζάροβο","name:en":"Madzharovo","name:fr":"Madzharovo"},"display_name":"Маджарово, Хасково, 6482, България","address":{"town":"Маджарово","state_district":"Маджарово","state":"Хасково","ISO3166-2-lvl4":"BG-26","postcode":"6482","country":"България","country_code":"bg"},"osm_type":"node","osm_id":273488890,"type":"town","location":[25.860336,41.6336488],"bbox":[25.820336,41.5936488,25.900336,41.6736488]}
{"name":"Малко Търново","other_names":{"name:bg":"Малко Търново","name:de":"Malko Tarnowo","name:en":"Malko Tarnovo","name:fr":"Malko Tarnovo","name:tr":"Küçük Tırnova","int_name":"Malko Tarnovo"},"display_name":"Малко Търново, Бургас, 8162, България","address":{"town":"Малко Търново","state_district":"Малко Търново","state":"Бургас","ISO3166-2-lvl4":"BG-02","postcode":"8162","country":"България","country_code":"bg"},"population":2344,"osm_type":"node","osm_id":273488961,"type":"town","location":[27.5244404,41.9803021],"bbox":[27.4844404,41.9403021,27.5644404,42.0203021]}
{"name":"Мартен","other_names":{"name:en":"Marten","int_name":"Marten"},"display_name":"Мартен, Русе, България","address":{"town":"Мартен","state_district":"Русе","state":"Русе","ISO3166-2-lvl4":"BG-18","country":"България","country_code":"bg"},"osm_type":"node","osm_id":273814430,"type":"town","location":[26.08118,43.91718],"bbox":[26.04118,43.87718,26.12118,43.95718],"border":{"name":"Мартен","other_names":{"name:bg":"Мартен","name:en":"Marten","int_name":"Marten"},"display_name":"Мартен, Русе, 7058, България","address":{"town":"Мартен","state_district":"Русе","state":"Русе","ISO3166-2-lvl4":"BG-18","postcode":"7058","country":"България","country_code":"bg"},"osm_type":"relation","osm_id":12629289,"type":"administrative","location":[26.08118,43.91718],"bbox":[26.0379907,43.8804807,26.1485398,43.9679089]}}
{"name":"Мездра","other_names":{"name:bg":"Мездра","name:en":"Mezdra","int_name":"Mezdra"},"display_name":"Мездра, Враца, 3110, България","address":{"town":"Мездра","state_district":"Мездра","state":"Враца","ISO3166-2-lvl4":"BG-06","postcode":"3110","country":"България","country_code":"bg"},"population":10670,"osm_type":"node","osm_id":273488721,"type":"town","location":[23.7152641,43.1432643],"bbox":[23.6752641,43.1032643,23.7552641,43.1832643]}
{"name":"Мелник","other_names":{"name:bg":"Мелник","name:de":"Melnik","name:el":"Μελένικο","name:en":"Melnik","name:fr":"Melnik","name:pl":"Melnik","int_name":"Melnik","alt_name:el":"Μελένικο"},"display_name":"Мелник, Сандански, Благоевград, 2820, България","address":{"town":"Мелник","state_district":"Сандански","state":"Благоевград","ISO3166-2-lvl4":"BG-01","postcode":"2820","country":"България","country_code":"bg"},"population":325,"osm_type":"node","osm_id":331855323,"type":"town","location":[23.393246,41.5229421],"bbox":[23.353246,41.4829421,23.433246,41.5629421]}
{"name":"Меричлери","other_names":{"name:bg":"Меричлери","name:en":"Merichleri","int_name":"Merichleri"},"display_name":"Меричлери, Димитровград, Хасково, България","address":{"town":"Меричлери","state_district":"Димитровград","state":"Хасково","ISO3166-2-lvl4":"BG-26","country":"България","country_code":"bg"},"osm_type":"node","osm_id":1833683636,"type":"town","location":[25.4979996,42.1344055],"bbox":[25.4579996,42.0944055,25.5379996,42.1744055]}
{"name":"Мизия","other_names":{"name:bg":"Мизия","name:en":"Mizia","name:ro":"Mizia","name:sr":"Мизија","int_name":"Mizia"},"display_name":"Мизия, Враца, България","address":{"town":"Мизия","state_district":"Мизия","state":"Враца","ISO3166-2-lvl4":"BG-06","country":"България","country_code":"bg"},"osm_type":"node","osm_id":273488978,"type":"town","location":[23.8536171,43.689742],"bbox":[23.8136171,43.649742,23.8936171,43.729742]}
{"name":"Момин проход","other_names":{"name:bg":"Момин проход","name:en":"Momin Prohod","name:ro":"Momin Prohod","int_name":"Momin Prohod"},"display_name":"Момин проход, Горна Василица, Костенец, Софийска, 2035, България","address":{"town":"Момин проход","village":"Горна Василица","state_district":"Костенец","state":"Софийска","ISO3166-2-lvl4":"BG-23","postcode":"2035","country":"България","country_code":"bg"},"osm_type":"node","osm_id":2425648643,"type":"town","location":[23.8721549,42.3327555],"bbox":[23.8321549,42.2927555,23.9121549,42.3727555]}
{"name":"Момчилград","other_names":{"name:bg":"Момчилград","name:de":"Momtschilgrad","name:el":"Μομτσίλγκραντ","name:en":"Momchilgrad","name:tr":"Mestanlı","int_name":"Momchilgrad","alt_name:tr":"Mastanlı"},"display_name":"Момчилград, Кърджали, 6800, България","address":{"town":"Момчилград","state_district":"Момчилград","state":"Кърджали","ISO3166-2-lvl4":"BG-09","postcode":"6800","country":"България","country_code":"bg"},"population":8509,"osm_type":"node","osm_id":7484642574,"type":"town","location":[25.410891,41.5262935],"bbox":[25.370891,41.4862935,25.450891,41.5662935]}
{"name":"Мъглиж","other_names":{"name:bg":"Мъглиж","name:en":"Maglizh","name:ro":"Măglij","name:ru":"Мыглиж","int_name":"Maglizh"},"display_name":"Мъглиж, Стара Загора, България","address":{"town":"Мъглиж","state_district":"Мъглиж","state":"Стара Загора","ISO3166-2-lvl4":"BG-24","country":"България","country_code":"bg"},"population":3295,"osm_type":"node","osm_id":273488893,"type":"town","location":[25.5460156,42.6057776],"bbox":[25.5060156,42.5657776,25.5860156,42.6457776],"border":{"name":"Мъглиж","other_names":{"name:bg":"Мъглиж","name:en":"Maglizh","name:ro":"Măglij","name:ru":"Мыглиж","int_name":"Maglizh"},"display_name":"Мъглиж, Стара Загора, 6180, България","address":{"town":"Мъглиж","state_district":"Мъглиж","state":"Стара Загора","ISO3166-2-lvl4":"BG-24","postcode":"6180","country":"България","country_code":"bg"},"population":3295,"osm_type":"relation","osm_id":13489862,"type":"administrative","location":[25.5460156,42.6057776],"bbox":[25.482648,42.552679,25.5992328,42.6670481]}}
{"name":"Неделино","other_names":{"name:bg":"Неделино","name:cs":"Nedelino","name:el":"Νεντέλινο","name:en":"Nedelino","name:ru":"Неделино","int_name":"Nedelino"},"display_name":"Неделино, Смолян, 4990, България","address":{"town":"Неделино","state_district":"Неделино","state":"Смолян","ISO3166-2-lvl4":"BG-21","postcode":"4990","country":"България","country_code":"bg"},"osm_type":"node","osm_id":273488814,"type":"town","location":[25.0785825,41.4563356],"bbox":[25.0385825,41.4163356,25.1185825,41.4963356]}
{"name":"Несебър","other_names":{"name:bg":"Несебър","name:de":"Nessebar","name:el":"Μεσήμβρια","name:en":"Nesebar","name:fr":"Nessebar","name:he":"נסבר","name:hu":"Neszebar","name:lt":"Neseberas","name:pl":"Nesebyr","name:ru":"Несебр","name:sk":"Nesebar","name:uk":"Несебр","alt_name":"Nesebur","int_name":"Nesebar","alt_name:de":"Nesebar"},"display_name":"Несебър, Бургас, 8230, България","address":{"town":"Несебър","state_district":"Несебър","state":"Бургас","ISO3166-2-lvl4":"BG-02","postcode":"8230","country":"България","country_code":"bg"},"population":13866,"osm_type":"node","osm_id":273488836,"type":"town","location":[27.7167464,42.6607865],"bbox":[27.6767464,42.6207865,27.7567464,42.7007865],"border":{"name":"Несебър","other_names":{"name:bg":"Несебър","name:en":"Nesebar","name:de":"Nessebar","name:el":"Μεσήμβρια","name:fr":"Nessebar","name:he":"נסבר","name:hu":"Neszebar","name:lt":"Neseberas","name:pl":"Nesebyr","name:ru":"Несебр","name:sk":"Nesebar","name:uk":"Несебр","alt_name":"Nesebur","int_name":"Nesebar","alt_name:de":"Nesebar"},"display_name":"Несебър, Бургас, България","address":{"town":"Несебър","state_district":"Несебър","state":"Бургас","ISO3166-2-lvl4":"BG-02","country":"България","country_code":"bg"},"population":13866,"osm_type":"relation","osm_id":18375293,"type":"administrative","location":[27.7167464,42.6607865],"bbox":[27.6745223,42.6454967,27.7459786,42.7459609]}}
{"name":"Николаево","other_names":{"name:bg":"Николаево","name:de":"Nikolaewo","name:en":"Nikolaevo","name:ro":"Nikolaevo","name:ru":"Николаево","int_name":"Nikolaevo"},"display_name":"Николаево, Стара Загора, България","address":{"town":"Николаево","state_district":"Николаево","state":"Стара Загора","ISO3166-2-lvl4":"BG-24","country":"България","country_code":"bg"},"population":3119,"osm_type":"node","osm_id":273488798,"type":"town","location":[25.7914125,42.6289156],"bbox":[25.7514125,42.5889156,25.8314125,42.6689156],"border":{"name":"Николаево","other_names":{"name:bg":"Николаево","name:en":"Nikolaevo","name:de":"Nikolaewo","name:ro":"Nikolaevo","name:ru":"Николаево","int_name":"Nikolaevo"},"display_name":"Николаево, Стара Загора, 6190, България","address":{"town":"Николаево","state_district":"Николаево","state":"Стара Загора","ISO3166-2-lvl4":"BG-24","postcode":"6190","country":"България","country_code":"bg"},"population":3119,"osm_type":"relation","osm_id":13489841,"type":"administrative","location":[25.7914125,42.6289156],"bbox":[25.753151,42.6040957,25.834165,42.658334]}}
{"name":"Никопол","other_names":{"name:en":"Nikopol","name:ro":"Nicopole","int_name":"Nikopol"},"display_name":"Никопол, Плевен, България","address":{"town":"Никопол","state_district":"Никопол","state":"Плевен","ISO3166-2-lvl4":"BG-15","country":"България","country_code":"bg"},"population":4000,"osm_type":"node","osm_id":597134611,"type":"town","location":[24.8996563,43.7070803],"bbox":[24.8596563,43.6670803,24.9396563,43.7470803],"border":{"name":"Никопол","other_names":{"name:bg":"Никопол","name:en":"Nikopol","name:ro":"Nicopole","int_name":"Nikopol"},"display_name":"Никопол, Плевен, 5940, България","address":{"town":"Никопол","state_district":"Никопол","state":"Плевен","ISO3166-2-lvl4":"BG-15","postcode":"5940","country":"България","country_code":"bg"},"population":4000,"osm_type":"relation","osm_id":18547706,"type":"administrative","location":[24.8996563,43.7070803],"bbox":[24.8448897,43.6634026,24.9899211,43.7211807]}}
{"name":"Нова Загора","other_names":{"name:bg":"Нова Загора","name:de":"Nowa Sagora","name:el":"Νόβα Ζαγόρα","name:en":"Nova Zagora","name:pl":"Nowa Zagora","name:ro":"Nova Zagora","name:tr":"Yeni Zağra","int_name":"Nova Zagora"},"display_name":"Нова Загора, Сливен, 8900, България","address":{"town":"Нова Загора","state_district":"Нова Загора","state":"Сливен","ISO3166-2-lvl4":"BG-20","postcode":"8900","country":"България","country_code":"bg"},"population":22507,"osm_type":"node","osm_id":273488743,"type":"town","location":[26.0090132,42.4934682],"bbox":[25.9690132,42.4534682,26.0490132,42.5334682]}
{"name":"Нови Искър","other_names":{"name:bg":"Нови Искър","name:de":"Nowi Iskar","name:el":"Νόβι Ίσκαρ","name:en":"Novi Iskar","name:fr":"Novi Iskar","int_name":"Novi Iskar"},"display_name":"Нови Искър, Столична, София-град, България","address":{"town":"Нови Искър","county":"Нови Искър","state_district":"Столична","state":"София-град","ISO3166-2-lvl4":"BG-22","country":"България","country_code":"bg"},"population":13964,"osm_type":"node","osm_id":273351340,"type":"town","location":[23.3582609,42.8143844],"bbox":[23.3182609,42.7743844,23.3982609,42.8543844],"border":[{"name":"Нови Искър","other_names":{"name:bg":"Нови Искър","name:de":"Rajon Nowi Iskar","name:en":"Novi Iskar","name:fr":"Raion de Novi Iskar"},"display_name":"Нови Искър, Столична, София-град, България","address":{"county":"Нови Искър","state_district":"Столична","state":"София-град","ISO3166-2-lvl4":"BG-22","country":"България","country_code":"bg"},"osm_type":"relation","osm_id":3759436,"type":"administrative","location":[23.361848469431486,42.80628615],"bbox":[23.2423481,42.7157938,23.497548,42.896559]},{"name":"Нови Искър","other_names":{"name:bg":"Нови Искър","name:en":"Novi Iskar","name:de":"Nowi Iskar","name:el":"Νόβι Ίσκαρ","name:fr":"Novi Iskar","int_name":"Novi Iskar"},"display_name":"Нови Искър, Столична, София-град, България","address":{"town":"Нови Искър","county":"Нови Искър","state_district":"Столична","state":"София-град","ISO3166-2-lvl4":"BG-22","country":"България","country_code":"bg"},"population":13964,"osm_type":"relation","osm_id":17758558,"type":"administrative","location":[23.3582609,42.8143844],"bbox":[23.3038615,42.7777566,23.4209256,42.8654085]}]}
{"name":"Нови пазар","other_names":{"name:en":"Novi Pazar","int_name":"Novi pazar"},"display_name":"Нови пазар, Шумен, България","address":{"town":"Нови пазар","state_district":"Нови пазар","state":"Шумен","ISO3166-2-lvl4":"BG-27","country":"България","country_code":"bg"},"population":13554,"osm_type":"node","osm_id":273488748,"type":"town","location":[27.1956421,43.3472116],"bbox":[27.1556421,43.3072116,27.2356421,43.3872116],"border":{"name":"Нови пазар","other_names":{"name:bg":"Нови пазар","name:en":"Novi Pazar","int_name":"Novi pazar"},"display_name":"Нови пазар, Шумен, България","address":{"town":"Нови пазар","state_district":"Нови пазар","state":"Шумен","ISO3166-2-lvl4":"BG-27","country":"България","country_code":"bg"},"population":13554,"osm_type":"relation","osm_id":13431177,"type":"administrative","location":[27.1956421,43.3472116],"bbox":[27.1531721,43.3134023,27.2538501,43.3829991]}}
{"name":"Обзор","other_names":{"name:bg":"Обзор","name:de":"Obsor","name:en":"Obzor","name:fr":"Obzor","name:pl":"Obzor","name:ru":"Обзор","int_name":"Obzor"},"display_name":"Обзор, Несебър, Бургас, 8250, България","address":{"town":"Обзор","state_district":"Несебър","state":"Бургас","ISO3166-2-lvl4":"BG-02","postcode":"8250","country":"България","country_code":"bg"},"population":2650,"osm_type":"node","osm_id":291465866,"type":"town","location":[27.8794434,42.8205748],"bbox":[27.8394434,42.7805748,27.9194434,42.8605748],"border":{"name":"Обзор","other_names":{"name:bg":"Обзор","name:en":"Obzor","name:de":"Obsor","name:fr":"Obzor","name:pl":"Obzor","name:ru":"Обзор","int_name":"Obzor"},"display_name":"Обзор, Несебър, Бургас, 8250, България","address":{"town":"Обзор","state_district":"Несебър","state":"Бургас","ISO3166-2-lvl4":"BG-02","postcode":"8250","country":"България","country_code":"bg"},"population":2650,"osm_type":"relation","osm_id":18310503,"type":"administrative","location":[27.8794434,42.8205748],"bbox":[27.8213268,42.7551345,27.9007832,42.841532]}}
{"name":"Омуртаг","other_names":{"name:en":"Omurtag","name:ru":"Омуртаг","name:tr":"Osmanpazar","int_name":"Omurtag","alt_name:tr":"Osmanpazarı"},"display_name":"Омуртаг, Търговище, България","address":{"town":"Омуртаг","state_district":"Омуртаг","state":"Търговище","ISO3166-2-lvl4":"BG-25","country":"България","country_code":"bg"},"population":9114,"osm_type":"node","osm_id":273488692,"type":"town","location":[26.4174525,43.1085755],"bbox":[26.3774525,43.0685755,26.4574525,43.1485755],"border":{"name":"Омуртаг","other_names":{"name:bg":"Омуртаг","name:en":"Omurtag","name:ru":"Омуртаг","name:tr":"Osmanpazar","int_name":"Omurtag","alt_name:tr":"Osmanpazarı"},"display_name":"Омуртаг, Търговище, 7900, България","address":{"town":"Омуртаг","state_district":"Омуртаг","state":"Търговище","ISO3166-2-lvl4":"BG-25","postcode":"7900","country":"България","country_code":"bg"},"population":9114,"osm_type":"relation","osm_id":13265754,"type":"administrative","location":[26.4174525,43.1085755],"bbox":[26.3703389,43.0776323,26.467097,43.1293854]}}
{"name":"Опака","other_names":{"name:en":"Opaka","int_name":"Opaka"},"display_name":"Опака, Търговище, България","address":{"town":"Опака","state_district":"Опака","state":"Търговище","ISO3166-2-lvl4":"BG-25","country":"България","country_code":"bg"},"osm_type":"node","osm_id":273488983,"type":"town","location":[26.1739537,43.4471325],"bbox":[26.1339537,43.4071325,26.2139537,43.4871325],"border":{"name":"Опака","other_names":{"name:bg":"Опака","name:en":"Opaka","int_name":"Opaka"},"display_name":"Опака, Търговище, България","address":{"town":"Опака","state_district":"Опака","state":"Търговище","ISO3166-2-lvl4":"BG-25","country":"България","country_code":"bg"},"osm_type":"relation","osm_id":12629741,"type":"administrative","location":[26.1739537,43.4471325],"bbox":[26.0911893,43.4137517,26.2288944,43.4854042]}}
{"name":"Оряхово","other_names":{"name:bg":"Оряхово","name:en":"Oryahovo","name:ro":"Rahova","name:sr":"Орјахово","int_name":"Oryahovo"},"display_name":"Оряхово, Враца, 3300, България","address":{"town":"Оряхово","state_district":"Оряхово","state":"Враца","ISO3166-2-lvl4":"BG-06","postcode":"3300","country":"България","country_code":"bg"},"population":5501,"osm_type":"node","osm_id":273488717,"type":"town","location":[23.9591325,43.7346254],"bbox":[23.9191325,43.6946254,23.9991325,43.7746254]}
{"name":"Павел баня","other_names":{"name:bg":"Павел баня","name:en":"Pavel Banya","name:ru":"Павел-Баня","name:sr":"Павел бања","int_name":"Pavel banya"},"display_name":"Павел баня, Стара Загора, България","address":{"town":"Павел баня","state_district":"Павел баня","state":"Стара Загора","ISO3166-2-lvl4":"BG-24","country":"България","country_code":"bg"},"population":2643,"osm_type":"node","osm_id":273488738,"type":"town","location":[25.2059267,42.5941448],"bbox":[25.1659267,42.5541448,25.2459267,42.6341448],"border":{"name":"Павел баня","other_names":{"name:bg":"Павел баня","name:en":"Pavel Banya","name:ru":"Павел-Баня","name:sr":"Павел бања","int_name":"Pavel banya"},"display_name":"Павел баня, Стара Загора, 6155, България","address":{"town":"Павел баня","state_district":"Павел баня","state":"Стара Загора","ISO3166-2-lvl4":"BG-24","postcode":"6155","country":"България","country_code":"bg"},"population":2643,"osm_type":"relation","osm_id":13489971,"type":"administrative","location":[25.2059267,42.5941448],"bbox":[25.1022879,42.532322,25.2353933,42.7209851]}}
{"name":"Павликени","other_names":{"name:en":"Pavlikeni","int_name":"Pavlikeni"},"display_name":"Павликени, Велико Търново, България","address":{"town":"Павликени","state_district":"Павликени","state":"Велико Търново","ISO3166-2-lvl4":"BG-04","country":"България","country_code":"bg"},"population":10784,"osm_type":"node","osm_id":273488731,"type":"town","location":[25.3069689,43.2379033],"bbox":[25.2669689,43.1979033,25.3469689,43.2779033],"border":{"name":"Павликени","other_names":{"name:bg":"Павликени","name:en":"Pavlikeni","int_name":"Pavlikeni"},"display_name":"Павликени, Велико Търново, 5200, България","address":{"town":"Павликени","state_district":"Павликени","state":"Велико Търново","ISO3166-2-lvl4":"BG-04","postcode":"5200","country":"България","country_code":"bg"},"population":10784,"osm_type":"relation","osm_id":17619520,"type":"administrative","location":[25.3069689,43.2379033],"bbox":[25.2365401,43.218682,25.3472208,43.2904968]}}
{"name":"Панагюрище","other_names":{"name:bg":"Панагюрище","name:de":"Panagjurischte","name:en":"Panagyurishte","name:sr":"Панађуриште","name:tr":"Panagürişte","int_name":"Panagyurishte","old_name:tr":"Otlukköy"},"display_name":"Панагюрище, Пазарджик, 4500, България","address":{"town":"Панагюрище","state_district":"Панагюрище","state":"Пазарджик","ISO3166-2-lvl4":"BG-13","postcode":"4500","country":"България","country_code":"bg"},"population":17755,"osm_type":"node","osm_id":273488711,"type":"town","location":[24.1888411,42.5043065],"bbox":[24.1488411,42.4643065,24.2288411,42.5443065]}
{"name":"Перущица","other_names":{"name:bg":"Перущица","name:en":"Perushtitsa","name:ru":"Перуштица","int_name":"Perushtitsa"},"display_name":"Перущица, Пловдив, 4225, България","address":{"town":"Перущица","state_district":"Перущица","state":"Пловдив","ISO3166-2-lvl4":"BG-16","postcode":"4225","country":"България","country_code":"bg"},"osm_type":"node","osm_id":273488791,"type":"town","location":[24.5451798,42.055641],"bbox":[24.5051798,42.015641,24.5851798,42.095641]}
{"name":"Петрич","other_names":{"name:bg":"Петрич","name:cy":"Petrich","name:de":"Petritsch","name:el":"Πετρίτσι","name:en":"Petrich","name:fa":"پتریچ","name:fr":"Pétritch","name:ja":"ペトリチ","name:mk":"Петрич","name:nl":"Petritsj","name:pl":"Petricz","name:ro":"Petrici","name:ru":"Петрич","name:sk":"Petrič","name:tr":"Petriç","int_name":"Petrich"},"display_name":"Петрич, Благоевград, 2850, България","address":{"town":"Петрич","state_district":"Петрич","state":"Благоевград","ISO3166-2-lvl4":"BG-01","postcode":"2850","country":"България","country_code":"bg"},"population":30772,"osm_type":"node","osm_id":457720110,"type":"town","location":[23.2067832,41.3952948],"bbox":[23.1667832,41.3552948,23.2467832,41.4352948]}
{"name":"Пещера","other_names":{"name:bg":"Пещера","name:de":"Peschtera","name:en":"Peshtera","int_name":"Peshtera"},"display_name":"Пещера, Пазарджик, 4550, България","address":{"town":"Пещера","state_district":"Пещера","state":"Пазарджик","ISO3166-2-lvl4":"BG-13","postcode":"4550","country":"България","country_code":"bg"},"population":20753,"osm_type":"node","osm_id":270706123,"type":"town","location":[24.305207,42.0336471],"bbox":[24.265207,41.9936471,24.345207,42.0736471]}
{"name":"Пирдоп","other_names":{"name:de":"Pirdop","name:en":"Pirdop","name:ro":"Pirdop","int_name":"Pirdop"},"display_name":"Пирдоп, Софийска, България","address":{"town":"Пирдоп","state_district":"Пирдоп","state":"Софийска","ISO3166-2-lvl4":"BG-23","country":"България","country_code":"bg"},"population":7439,"osm_type":"node","osm_id":273488675,"type":"town","location":[24.1803328,42.7006838],"bbox":[24.1403328,42.6606838,24.2203328,42.7406838],"border":{"name":"Пирдоп","other_names":{"name:bg":"Пирдоп","name:en":"Pirdop","name:de":"Pirdop","name:ro":"Pirdop","int_name":"Pirdop"},"display_name":"Пирдоп, Софийска, 2070, България","address":{"town":"Пирдоп","state_district":"Пирдоп","state":"Софийска","ISO3166-2-lvl4":"BG-23","postcode":"2070","country":"България","country_code":"bg"},"population":7439,"osm_type":"relation","osm_id":17802186,"type":"administrative","location":[24.1803328,42.7006838],"bbox":[24.14353,42.618753,24.2613914,42.766917]}}
{"name":"Плачковци","other_names":{"name:en":"Plachkovtsi","int_name":"Plachkovtsi"},"display_name":"Плачковци, Трявна, Габрово, България","address":{"town":"Плачковци","state_district":"Трявна","state":"Габрово","ISO3166-2-lvl4":"BG-07","country":"България","country_code":"bg"},"osm_type":"node","osm_id":364512417,"type":"town","location":[25.4832748,42.8240207],"bbox":[25.4432748,42.7840207,25.5232748,42.8640207],"border":{"name":"Плачковци","other_names":{"name:bg":"Плачковци","name:en":"Plachkovtsi","int_name":"Plachkovtsi"},"display_name":"Плачковци, Трявна, Габрово, 5360, България","address":{"town":"Плачковци","state_district":"Трявна","state":"Габрово","ISO3166-2-lvl4":"BG-07","postcode":"5360","country":"България","country_code":"bg"},"osm_type":"relation","osm_id":17372351,"type":"administrative","location":[25.4832748,42.8240207],"bbox":[25.4243053,42.754855,25.5011467,42.8427374]}}
{"name":"Плиска","other_names":{"name:en":"Pliska","int_name":"Pliska"},"display_name":"Плиска, Каспичан, Шумен, България","address":{"town":"Плиска","state_district":"Каспичан","state":"Шумен","ISO3166-2-lvl4":"BG-27","country":"България","country_code":"bg"},"osm_type":"node","osm_id":501845742,"type":"town","location":[27.1248256,43.3620649],"bbox":[27.0848256,43.3220649,27.1648256,43.4020649],"border":{"name":"Плиска","other_names":{"name:bg":"Плиска","name:en":"Pliska","int_name":"Pliska"},"display_name":"Плиска, Каспичан, Шумен, България","address":{"town":"Плиска","state_district":"Каспичан","state":"Шумен","ISO3166-2-lvl4":"BG-27","country":"България","country_code":"bg"},"osm_type":"relation","osm_id":13477034,"type":"administrative","location":[27.1248256,43.3620649],"bbox":[27.0731493,43.3218909,27.1606974,43.3912672]}}
{"display_name":"Поликраище, Горна Оряховица, Велико Търново, България","address":{"village":"Поликраище","state_district":"Горна Оряховица","state":"Велико Търново","ISO3166-2-lvl4":"BG-04","country":"България","country_code":"bg"},"osm_type":"way","osm_id":123697964,"type":"town","location":[25.621397792082416,43.181093],"bbox":[25.613525,43.167928,25.6333475,43.194178]}
{"name":"Полски Тръмбеш","other_names":{"name:en":"Polski Trambesh","name:ml":"പോൾസ്കി ട്രാംബെഷ്","int_name":"Polski Trambesh"},"display_name":"Полски Тръмбеш, Велико Търново, България","address":{"town":"Полски Тръмбеш","state_district":"Полски Тръмбеш","state":"Велико Търново","ISO3166-2-lvl4":"BG-04","country":"България","country_code":"bg"},"osm_type":"node","osm_id":273488681,"type":"town","location":[25.6358862,43.3698211],"bbox":[25.5958862,43.3298211,25.6758862,43.4098211],"border":{"name":"Полски Тръмбеш","other_names":{"name:bg":"Полски Тръмбеш","name:en":"Polski Trambesh","name:ml":"പോൾസ്കി ട്രാംബെഷ്","int_name":"Polski Trambesh"},"display_name":"Полски Тръмбеш, Велико Търново, 5180, България","address":{"town":"Полски Тръмбеш","state_district":"Полски Тръмбеш","state":"Велико Търново","ISO3166-2-lvl4":"BG-04","postcode":"5180","country":"България","country_code":"bg"},"osm_type":"relation","osm_id":13489755,"type":"administrative","location":[25.6358862,43.3698211],"bbox":[25.596698,43.3575646,25.6700348,43.4009613]}}
{"name":"Поморие","other_names":{"name:bg":"Поморие","name:de":"Pomorie","name:el":"Πομόριε","name:en":"Pomorie","name:fr":"Pomorié","name:lt":"Pomorijė","alt_name":"Pomorje","int_name":"Pomorie"},"display_name":"Поморие, Бургас, 8200, България","address":{"town":"Поморие","state_district":"Поморие","state":"Бургас","ISO3166-2-lvl4":"BG-02","postcode":"8200","country":"България","country_code":"bg"},"population":13919,"osm_type":"node","osm_id":273488686,"type":"town","location":[27.6167754,42.5684133],"bbox":[27.5767754,42.5284133,27.6567754,42.6084133],"border":{"name":"Поморие","other_names":{"name:bg":"Поморие","name:en":"Pomorie","name:de":"Pomorie","name:el":"Πομόριε","name:fr":"Pomorié","name:lt":"Pomorijė","alt_name":"Pomorje","int_name":"Pomorie"},"display_name":"Поморие, Бургас, България","address":{"town":"Поморие","state_district":"Поморие","state":"Бургас","ISO3166-2-lvl4":"BG-02","country":"България","country_code":"bg"},"population":13919,"osm_type":"relation","osm_id":18530948,"type":"administrative","location":[27.6167754,42.5684133],"bbox":[27.505198,42.5504942,27.6525856,42.632316]}}
{"name":"Попово","other_names":{"name:en":"Popovo","name:tr":"Pop Köy","int_name":"Popovo"},"display_name":"Попово, Търговище, България","address":{"town":"Попово","state_district":"Попово","state":"Търговище","ISO3166-2-lvl4":"BG-25","country":"България","country_code":"bg"},"population":15878,"osm_type":"node","osm_id":273488878,"type":"town","location":[26.2271967,43.3481473],"bbox":[26.1871967,43.3081473,26.2671967,43.3881473],"border":{"name":"Попово","other_names":{"name:bg":"Попово","name:en":"Popovo","name:tr":"Pop Köy","int_name":"Popovo"},"display_name":"Попово, Търговище, 7800, България","address":{"town":"Попово","state_district":"Попово","state":"Търговище","ISO3166-2-lvl4":"BG-25","postcode":"7800","country":"България","country_code":"bg"},"population":15878,"osm_type":"relation","osm_id":13265753,"type":"administrative","location":[26.2271967,43.3481473],"bbox":[26.188746,43.2899501,26.3166233,43.3929981]}}
{"name":"Пордим","other_names":{"name:en":"Pordim","int_name":"Pordim"},"display_name":"Пордим, Плевен, България","address":{"town":"Пордим","state_district":"Пордим","state":"Плевен","ISO3166-2-lvl4":"BG-15","country":"България","country_code":"bg"},"osm_type":"node","osm_id":273488789,"type":"town","location":[24.8469941,43.3770806],"bbox":[24.8069941,43.3370806,24.8869941,43.4170806],"border":{"name":"Пордим","other_names":{"name:bg":"Пордим","name:en":"Pordim","int_name":"Pordim"},"display_name":"Пордим, Плевен, България","address":{"town":"Пордим","state_district":"Пордим","state":"Плевен","ISO3166-2-lvl4":"BG-15","country":"България","country_code":"bg"},"osm_type":"relation","osm_id":18893324,"type":"administrative","location":[24.8469941,43.3770806],"bbox":[24.8015967,43.3672581,24.9352185,43.43599]}}
{"name":"Правец","other_names":{"name:en":"Pravets","name:ro":"Praveț","name:ru":"Правец","int_name":"Pravets"},"display_name":"Правец, Софийска, България","address":{"town":"Правец","state_district":"Правец","state":"Софийска","ISO3166-2-lvl4":"BG-23","country":"България","country_code":"bg"},"osm_type":"node","osm_id":273488872,"type":"town","location":[23.9148925,42.8956755],"bbox":[23.8748925,42.8556755,23.9548925,42.9356755],"border":{"name":"Правец","other_names":{"name:bg":"Правец","name:en":"Pravets","name:ro":"Praveț","name:ru":"Правец","int_name":"Pravets"},"display_name":"Правец, Софийска, 2161, България","address":{"town":"Правец","state_district":"Правец","state":"Софийска","ISO3166-2-lvl4":"BG-23","postcode":"2161","country":"България","country_code":"bg"},"osm_type":"relation","osm_id":18772633,"type":"administrative","location":[23.9148925,42.8956755],"bbox":[23.881984,42.857773,23.9921235,42.9381485]}}
{"name":"Приморско","other_names":{"name:bg":"Приморско","name:de":"Primorsko","name:en":"Primorsko","name:fr":"Primorsko","int_name":"Primorsko"},"display_name":"Приморско, Бургас, 8180, България","address":{"town":"Приморско","state_district":"Приморско","state":"Бургас","ISO3166-2-lvl4":"BG-02","postcode":"8180","country":"България","country_code":"bg"},"population":3531,"osm_type":"node","osm_id":273488895,"type":"town","location":[27.7506179,42.2698672],"bbox":[27.7106179,42.2298672,27.7906179,42.3098672]}
{"name":"Провадия","other_names":{"name:bg":"Провадия","name:en":"Provadia","name:ia":"Provadia","name:sr":"Провадија","name:tr":"Pravadi"},"display_name":"Провадия, Варна, България","address":{"town":"Провадия","state_district":"Провадия","state":"Варна","ISO3166-2-lvl4":"BG-03","country":"България","country_code":"bg"},"population":15095,"osm_type":"node","osm_id":273488800,"type":"town","location":[27.4438702,43.1786369],"bbox":[27.4038702,43.1386369,27.4838702,43.2186369],"border":[{"name":"Провадия","display_name":"Провадия, Варна, България","address":{"town":"Провадия","state_district":"Провадия","state":"Варна","ISO3166-2-lvl4":"BG-03","country":"България","country_code":"bg"},"population":15000,"osm_type":"way","osm_id":123701575,"type":"town","location":[27.441197598683974,43.1771789],"bbox":[27.4310679,43.160595,27.4498666,43.1937219]},{"name":"Провадия","other_names":{"name:bg":"Провадия","name:en":"Provadia","name:ia":"Provadia","name:sr":"Провадија","name:tr":"Pravadi"},"display_name":"Провадия, Варна, България","address":{"town":"Провадия","state_district":"Провадия","state":"Варна","ISO3166-2-lvl4":"BG-03","country":"България","country_code":"bg"},"population":15095,"osm_type":"relation","osm_id":13477460,"type":"administrative","location":[27.4438702,43.1786369],"bbox":[27.4114888,43.1246631,27.4859485,43.2215072]}]}
{"name":"Първомай","other_names":{"name:de":"Parwomaj","name:el":"Παρβομάι","name:en":"Parvomay","name:sr":"Првомај"},"display_name":"Първомай, Пловдив, 4270, България","address":{"town":"Първомай","state_district":"Първомай","state":"Пловдив","ISO3166-2-lvl4":"BG-16","postcode":"4270","country":"България","country_code":"bg"},"population":13984,"osm_type":"node","osm_id":273488986,"type":"town","location":[25.2247171,42.09946],"bbox":[25.1847171,42.05946,25.2647171,42.13946],"border":{"name":"Първомай","other_names":{"name:bg":"Първомай","name:de":"Parwomaj","name:el":"Παρβομάι","name:en":"Parvomay","name:sr":"Првомај"},"display_name":"Първомай, Пловдив, 4270, България","address":{"town":"Първомай","state_district":"Първомай","state":"Пловдив","ISO3166-2-lvl4":"BG-16","postcode":"4270","country":"България","country_code":"bg"},"population":13984,"osm_type":"relation","osm_id":1300665,"type":"administrative","location":[25.2247171,42.09946],"bbox":[25.1411305,42.0329021,25.3070315,42.1375037]}}
{"name":"Раднево","other_names":{"name:bg":"Раднево","name:en":"Radnevo","int_name":"Radnevo"},"display_name":"Раднево, Стара Загора, 6260, България","address":{"town":"Раднево","state_district":"Раднево","state":"Стара Загора","ISO3166-2-lvl4":"BG-24","postcode":"6260","country":"България","country_code":"bg"},"population":13160,"osm_type":"node","osm_id":273488700,"type":"town","location":[25.9338724,42.2890477],"bbox":[25.8938724,42.2490477,25.9738724,42.3290477]}
{"name":"Радомир","other_names":{"name:bg":"Радомир","name:de":"Radomir","name:el":"Ράντομιρ","name:en":"Radomir","int_name":"Radomir"},"display_name":"Радомир, Перник, 2400, България","address":{"town":"Радомир","state_district":"Радомир","state":"Перник","ISO3166-2-lvl4":"BG-14","postcode":"2400","country":"България","country_code":"bg"},"population":14232,"osm_type":"node","osm_id":273488732,"type":"town","location":[22.96291,42.54616],"bbox":[22.92291,42.50616,23.00291,42.58616]}
{"name":"Разлог","other_names":{"name:bg":"Разлог","name:de":"Raslog","name:el":"Ράζλογκ","name:en":"Razlog","name:fr":"Razlog","name:mk":"Мехомија (Разлог)","int_name":"Razlog","alt_name:mk":"Разлог"},"display_name":"Разлог, Благоевград, 2760, България","address":{"town":"Разлог","state_district":"Разлог","state":"Благоевград","ISO3166-2-lvl4":"BG-01","postcode":"2760","country":"България","country_code":"bg"},"population":12789,"osm_type":"node","osm_id":273488988,"type":"town","location":[23.4661521,41.8861079],"bbox":[23.4261521,41.8461079,23.5061521,41.9261079]}
{"name":"Ракитово","other_names":{"name:bg":"Ракитово","name:en":"Rakitovo","name:ru":"Ракитово","int_name":"Rakitovo"},"display_name":"Ракитово, Пазарджик, 4640, България","address":{"town":"Ракитово","state_district":"Ракитово","state":"Пазарджик","ISO3166-2-lvl4":"BG-13","postcode":"4640","country":"България","country_code":"bg"},"population":8589,"osm_type":"node","osm_id":270687419,"type":"town","location":[24.0876515,41.9911914],"bbox":[24.0476515,41.9511914,24.1276515,42.0311914]}
{"name":"Раковски","other_names":{"name:en":"Rakovski","int_name":"Rakovski"},"display_name":"Раковски, Пловдив, България","address":{"town":"Раковски","state_district":"Раковски","state":"Пловдив","ISO3166-2-lvl4":"BG-16","country":"България","country_code":"bg"},"population":15571,"osm_type":"node","osm_id":273488846,"type":"town","location":[24.9659552,42.2873179],"bbox":[24.9259552,42.2473179,25.0059552,42.3273179],"border":{"name":"Раковски","other_names":{"name:bg":"Раковски","name:en":"Rakovski","int_name":"Rakovski"},"display_name":"Раковски, Пловдив, 4150, България","address":{"town":"Раковски","state_district":"Раковски","state":"Пловдив","ISO3166-2-lvl4":"BG-16","postcode":"4150","country":"България","country_code":"bg"},"population":15571,"osm_type":"relation","osm_id":1300643,"type":"administrative","location":[24.9659552,42.2873179],"bbox":[24.880237,42.2318572,25.054987,42.3406793]}}
{"name":"Рила","other_names":{"name:bg":"Рила","name:de":"Rila","name:el":"Ρίλα","name:en":"Rila","name:ro":"Rila","int_name":"Rila"},"display_name":"Рила, Кюстендил, 2630, България","address":{"town":"Рила","state_district":"Рила","state":"Кюстендил","ISO3166-2-lvl4":"BG-10","postcode":"2630","country":"България","country_code":"bg"},"population":3044,"osm_type":"node","osm_id":273488839,"type":"town","location":[23.1323997,42.1278563],"bbox":[23.0923997,42.0878563,23.1723997,42.1678563]}
{"name":"Роман","other_names":{"name:bg":"Роман","name:en":"Roman","int_name":"Roman"},"display_name":"Роман, Враца, 3130, България","address":{"town":"Роман","state_district":"Роман","state":"Враца","ISO3166-2-lvl4":"BG-06","postcode":"3130","country":"България","country_code":"bg"},"osm_type":"node","osm_id":273488862,"type":"town","location":[23.9254908,43.1463767],"bbox":[23.8854908,43.1063767,23.9654908,43.1863767]}
{"name":"Рудозем","other_names":{"name:bg":"Рудозем","name:en":"Rudozem","name:ru":"Рудозем","name:tr":"Palas","int_name":"Rudozem"},"display_name":"Рудозем, Смолян, 4960, България","address":{"town":"Рудозем","state_district":"Рудозем","state":"Смолян","ISO3166-2-lvl4":"BG-21","postcode":"4960","country":"България","country_code":"bg"},"osm_type":"node","osm_id":273488995,"type":"town","location":[24.8466756,41.4860848],"bbox":[24.8066756,41.4460848,24.8866756,41.5260848]}
{"name":"Садово","other_names":{"name:de":"Sadowo","name:el":"Σάντοβο","name:en":"Sadovo","name:ru":"Садово"},"display_name":"Садово, Пловдив, България","address":{"town":"Садово","state_district":"Садово","state":"Пловдив","ISO3166-2-lvl4":"BG-16","country":"България","country_code":"bg"},"osm_type":"node","osm_id":273488946,"type":"town","location":[24.9374825,42.1342256],"bbox":[24.8974825,42.0942256,24.9774825,42.1742256],"border":{"name":"Садово","other_names":{"name:bg":"Садово","name:en":"Sadovo","name:de":"Sadowo","name:el":"Σάντοβο","name:ru":"Садово"},"display_name":"Садово, Пловдив, България","address":{"town":"Садово","state_district":"Садово","state":"Пловдив","ISO3166-2-lvl4":"BG-16","country":"България","country_code":"bg"},"osm_type":"relation","osm_id":13490808,"type":"administrative","location":[24.9374825,42.1342256],"bbox":[24.8920731,42.1034257,24.9555714,42.1522733]}}
{"name":"Самоков","other_names":{"name:de":"Samokow","name:en":"Samokov","name:lt":"Samokovas","name:pl":"Samokow","name:ro":"Samokov","name:tr":"Samakov","int_name":"Samokov"},"display_name":"Самоков, Софийска, България","address":{"town":"Самоков","state_district":"Самоков","state":"Софийска","ISO3166-2-lvl4":"BG-23","country":"България","country_code":"bg"},"population":25138,"osm_type":"node","osm_id":273488819,"type":"town","location":[23.5592676,42.3377931],"bbox":[23.5192676,42.2977931,23.5992676,42.3777931],"border":{"name":"Самоков","other_names":{"name:bg":"Самоков","name:en":"Samokov","name:de":"Samokow","name:lt":"Samokovas","name:pl":"Samokow","name:ro":"Samokov","name:tr":"Samakov","int_name":"Samokov"},"display_name":"Самоков, Софийска, България","address":{"town":"Самоков","state_district":"Самоков","state":"Софийска","ISO3166-2-lvl4":"BG-23","country":"България","country_code":"bg"},"population":25138,"osm_type":"relation","osm_id":17801361,"type":"administrative","location":[23.5592676,42.3377931],"bbox":[23.5374684,42.1513072,23.670297,42.370555]}}
{"name":"Самуил","other_names":{"name:en":"Samuil","int_name":"Samuil"},"display_name":"Самуил, Разград, България","address":{"town":"Самуил","state_district":"Самуил","state":"Разград","ISO3166-2-lvl4":"BG-17","country":"България","country_code":"bg"},"osm_type":"node","osm_id":273488816,"type":"town","location":[26.7408625,43.5137854],"bbox":[26.7008625,43.4737854,26.7808625,43.5537854],"border":{"name":"Самуил","other_names":{"name:bg":"Самуил","name:en":"Samuil","int_name":"Samuil"},"display_name":"Самуил, Разград, България","address":{"town":"Самуил","state_district":"Самуил","state":"Разград","ISO3166-2-lvl4":"BG-17","country":"България","country_code":"bg"},"osm_type":"relation","osm_id":13000027,"type":"administrative","location":[26.7408625,43.5137854],"bbox":[26.7210807,43.4981352,26.7825545,43.5399825]}}
{"name":"Сандански","other_names":{"name:bg":"Сандански","name:de":"Sandanski","name:el":"Σαντάνσκι","name:en":"Sandanski","name:fr":"Sandanski","name:mk":"Свети Врач (Сандански)","int_name":"Sandanski","old_name:bg":"Медиус","old_name:bg_1":"Дезудава","old_name:bg:-1947":"Свети Врач (Сандански)"},"display_name":"Сандански, Благоевград, 2800, България","address":{"town":"Сандански","state_district":"Сандански","state":"Благоевград","ISO3166-2-lvl4":"BG-01","postcode":"2800","country":"България","country_code":"bg"},"population":28058,"osm_type":"node","osm_id":273488812,"type":"town","location":[23.2786429,41.5654156],"bbox":[23.2386429,41.5254156,23.3186429,41.6054156]}
{"name":"Сапарева баня","other_names":{"name:bg":"Сапарева баня","name:de":"Saparewa Banja","name:en":"Sapareva Banya","name:sr":"Сапарева бања","int_name":"Sapareva banya"},"display_name":"Сапарева баня, Кюстендил, 2650, България","address":{"town":"Сапарева баня","state_district":"Сапарева баня","state":"Кюстендил","ISO3166-2-lvl4":"BG-10","postcode":"2650","country":"България","country_code":"bg"},"osm_type":"node","osm_id":273488863,"type":"town","location":[23.2634537,42.2889464],"bbox":[23.2234537,42.2489464,23.3034537,42.3289464]}
{"name":"Свети Влас","other_names":{"name:bg":"Свети Влас","name:de":"Sweti Wlas","name:en":"Sveti Vlas","name:fr":"Sveti Vlas","name:hu":"Szent Vlasz","name:pl":"Sweti Włas","name:ru":"Святой Влас","int_name":"Sveti Vlas"},"display_name":"Свети Влас, Несебър, Бургас, 8256, България","address":{"town":"Свети Влас","state_district":"Несебър","state":"Бургас","ISO3166-2-lvl4":"BG-02","postcode":"8256","country":"България","country_code":"bg"},"population":4141,"osm_type":"node","osm_id":273879428,"type":"town","location":[27.7588044,42.7138408],"bbox":[27.7188044,42.6738408,27.7988044,42.7538408],"border":{"name":"Свети Влас","other_names":{"name:bg":"Свети Влас","name:en":"Sveti Vlas","name:de":"Sweti Wlas","name:fr":"Sveti Vlas","name:hu":"Szent Vlasz","name:pl":"Sweti Włas","name:ru":"Святой Влас","int_name":"Sveti Vlas"},"display_name":"Свети Влас, Несебър, Бургас, 8256, България","address":{"town":"Свети Влас","state_district":"Несебър","state":"Бургас","ISO3166-2-lvl4":"BG-02","postcode":"8256","country":"България","country_code":"bg"},"population":4141,"osm_type":"relation","osm_id":18328255,"type":"administrative","location":[27.7588044,42.7138408],"bbox":[27.7262085,42.7009278,27.8217387,42.7695893]}}
{"name":"Свиленград","other_names":{"name:de":"Swilengrad","name:el":"Σβίλενγκραντ","name:en":"Svilengrad","name:fr":"Svilengrad","name:ml":"സ്വിലെൻഗ്രാഡ്","name:ru":"Свиленград","name:tr":"Cisri Mustafapaşa","int_name":"Svilengrad","alt_name:tr":"Cisr-i Mustafapaşa"},"display_name":"Свиленград, Хасково, България","address":{"town":"Свиленград","state_district":"Свиленград","state":"Хасково","ISO3166-2-lvl4":"BG-26","country":"България","country_code":"bg"},"population":18842,"osm_type":"node","osm_id":457344427,"type":"town","location":[26.1978704,41.7681668],"bbox":[26.1578704,41.7281668,26.2378704,41.8081668],"border":{"name":"Свиленград","other_names":{"name:bg":"Свиленград","name:en":"Svilengrad","name:de":"Swilengrad","name:el":"Σβίλενγκραντ","name:fr":"Svilengrad","name:ml":"സ്വിലെൻഗ്രാഡ്","name:ru":"Свиленград","name:tr":"Cisri Mustafapaşa","int_name":"Svilengrad","alt_name:tr":"Cisr-i Mustafapaşa"},"display_name":"Свиленград, Хасково, България","address":{"town":"Свиленград","state_district":"Свиленград","state":"Хасково","ISO3166-2-lvl4":"BG-26","country":"България","country_code":"bg"},"population":18842,"osm_type":"relation","osm_id":13431010,"type":"administrative","location":[26.1978704,41.7681668],"bbox":[26.1130682,41.7241322,26.2682339,41.8392792]}}
{"name":"Свищов","other_names":{"name:bg":"Свищов","name:de":"Swischtow","name:en":"Svishtov","name:et":"Svištov","name:fi":"Svištov","name:fr":"Svichtov","name:hr":"Svištov","name:hu":"Szvistov","name:mk":"Свиштов","name:pl":"Swisztow","name:ro":"Sviștov","name:ru":"Свиштов","name:sk":"Svištov","name:sl":"Svištov","name:sv":"Svisjtov","name:tr":"Ziştova","int_name":"Svishtov","alt_name:de":"Svischtov","alt_name:tr":"Ziştovi"},"display_name":"Свищов, Велико Търново, България","address":{"town":"Свищов","state_district":"Свищов","state":"Велико Търново","ISO3166-2-lvl4":"BG-04","country":"България","country_code":"bg"},"population":33000,"osm_type":"node","osm_id":1751567591,"type":"town","location":[25.3509536,43.6158817],"bbox":[25.3109536,43.5758817,25.3909536,43.6558817],"border":{"name":"Свищов","other_names":{"name:bg":"Свищов","name:de":"Swischtow","name:en":"Svishtov","name:et":"Svištov","name:fi":"Svištov","name:fr":"Svichtov","name:hr":"Svištov","name:hu":"Szvistov","name:mk":"Свиштов","name:pl":"Swisztow","name:ro":"Sviștov","name:ru":"Свиштов","name:sk":"Svištov","name:sl":"Svištov","name:sv":"Svisjtov","name:tr":"Ziştova","int_name":"Svishtov","alt_name:de":"Svischtov","alt_name:tr":"Ziştovi"},"display_name":"Свищов, Велико Търново, 5250, България","address":{"town":"Свищов","state_district":"Свищов","state":"Велико Търново","ISO3166-2-lvl4":"BG-04","postcode":"5250","country":"България","country_code":"bg"},"population":33000,"osm_type":"relation","osm_id":17649515,"type":"administrative","location":[25.3509536,43.6158817],"bbox":[25.2042061,43.5450131,25.4758621,43.6531961]}}
{"name":"Своге","other_names":{"name:bg":"Своге","name:en":"Svoge","name:ro":"Svoghe","int_name":"Svoge"},"display_name":"Своге, Софийска, България","address":{"town":"Своге","state_district":"Своге","state":"Софийска","ISO3166-2-lvl4":"BG-23","country":"България","country_code":"bg"},"population":8258,"osm_type":"node","osm_id":273488796,"type":"town","location":[23.3456154,42.9605002],"bbox":[23.3056154,42.9205002,23.3856154,43.0005002],"border":{"name":"Своге","other_names":{"name:bg":"Своге","name:en":"Svoge","name:ro":"Svoghe","int_name":"Svoge"},"display_name":"Своге, Софийска, България","address":{"town":"Своге","state_district":"Своге","state":"Софийска","ISO3166-2-lvl4":"BG-23","country":"България","country_code":"bg"},"population":8258,"osm_type":"relation","osm_id":17824269,"type":"administrative","location":[23.3456154,42.9605002],"bbox":[23.3040002,42.9265845,23.380675,42.9815555]}}
{"name":"Севлиево","other_names":{"name:de":"Sewliewo","name:en":"Sevlievo","name:lt":"Sevlijevas","name:pl":"Sewliewo","name:ro":"Sevlievo","name:tr":"Selvi","int_name":"Sevlievo"},"display_name":"Севлиево, Габрово, 5400, България","address":{"town":"Севлиево","state_district":"Севлиево","state":"Габрово","ISO3166-2-lvl4":"BG-07","postcode":"5400","country":"България","country_code":"bg"},"population":22676,"osm_type":"node","osm_id":273488829,"type":"town","location":[25.1040867,43.0263036],"bbox":[25.0640867,42.9863036,25.1440867,43.0663036],"border":{"name":"Севлиево","other_names":{"name:bg":"Севлиево","name:de":"Sewliewo","name:en":"Sevlievo","name:lt":"Sevlijevas","name:pl":"Sewliewo","name:ro":"Sevlievo","name:tr":"Selvi","int_name":"Sevlievo"},"display_name":"Севлиево, Габрово, България","address":{"town":"Севлиево","state_district":"Севлиево","state":"Габрово","ISO3166-2-lvl4":"BG-07","country":"България","country_code":"bg"},"population":22676,"osm_type":"relation","osm_id":18561944,"type":"administrative","location":[25.1040867,43.0263036],"bbox":[25.0673221,42.9542483,25.1527675,43.0563879]}}
{"name":"Сеново","other_names":{"name:en":"Senovo","int_name":"Senovo"},"display_name":"Сеново, Ветово, Русе, 7038, България","address":{"town":"Сеново","state_district":"Ветово","state":"Русе","ISO3166-2-lvl4":"BG-18","postcode":"7038","country":"България","country_code":"bg"},"population":1518,"osm_type":"node","osm_id":1889743694,"type":"town","location":[26.3679089,43.6521868],"bbox":[26.3279089,43.6121868,26.4079089,43.6921868],"border":{"name":"Сеново","other_names":{"name:bg":"Сеново","name:en":"Senovo","int_name":"Senovo"},"display_name":"Сеново, Ветово, Русе, 7038, България","address":{"town":"Сеново","state_district":"Ветово","state":"Русе","ISO3166-2-lvl4":"BG-18","postcode":"7038","country":"България","country_code":"bg"},"population":1518,"osm_type":"relation","osm_id":12629592,"type":"administrative","location":[26.3679089,43.6521868],"bbox":[26.3450659,43.6273893,26.4484637,43.6991863]}}
{"name":"Септември","other_names":{"name:bg":"Септември","name:en":"Septemvri","name:nl":"Septemvri","name:tr":"Saranbey","int_name":"Septemvri","alt_name:tr":"Sarımbay;Sarıhanbey;Saruhanbey"},"display_name":"Септември, Пазарджик, 4490, България","address":{"town":"Септември","state_district":"Септември","state":"Пазарджик","ISO3166-2-lvl4":"BG-13","postcode":"4490","country":"България","country_code":"bg"},"population":8590,"osm_type":"node","osm_id":270707188,"type":"town","location":[24.1228361,42.219533],"bbox":[24.0828361,42.179533,24.1628361,42.259533]}
{"name":"Симеоновград","other_names":{"name:bg":"Симеоновград","name:de":"Simeonowgrad","name:el":"Σιμεόνοβγκραντ","name:en":"Simeonovgrad","name:tr":"Seymen"},"display_name":"Симеоновград, Хасково, 6490, България","address":{"town":"Симеоновград","state_district":"Симеоновград","state":"Хасково","ISO3166-2-lvl4":"BG-26","postcode":"6490","country":"България","country_code":"bg"},"population":6853,"osm_type":"node","osm_id":1699229585,"type":"town","location":[25.8316217,42.0337777],"bbox":[25.7916217,41.9937777,25.8716217,42.0737777]}
{"name":"Симитли","other_names":{"name:bg":"Симитли","name:de":"Simitli","name:el":"Σιμιτλί","name:en":"Simitli","name:fr":"Simitli","name:mk":"Симитли","name:ro":"Simitli","int_name":"Simitli"},"display_name":"Симитли, Благоевград, 2730, България","address":{"town":"Симитли","state_district":"Симитли","state":"Благоевград","ISO3166-2-lvl4":"BG-01","postcode":"2730","country":"България","country_code":"bg"},"population":7243,"osm_type":"node","osm_id":273488945,"type":"town","location":[23.108109,41.8933839],"bbox":[23.068109,41.8533839,23.148109,41.9333839]}
{"name":"Ситово","other_names":{"name:en":"Sitovo","int_name":"Sitovo"},"display_name":"Ситово, Силистра, България","address":{"town":"Ситово","state_district":"Ситово","state":"Силистра","ISO3166-2-lvl4":"BG-19","country":"България","country_code":"bg"},"osm_type":"node","osm_id":273488949,"type":"town","location":[27.0181825,44.0256754],"bbox":[26.9781825,43.9856754,27.0581825,44.0656754],"border":{"name":"Ситово","other_names":{"name:bg":"Ситово","name:en":"Sitovo","int_name":"Sitovo"},"display_name":"Ситово, Силистра, 7583, България","address":{"town":"Ситово","state_district":"Ситово","state":"Силистра","ISO3166-2-lvl4":"BG-19","postcode":"7583","country":"България","country_code":"bg"},"osm_type":"relation","osm_id":12999798,"type":"administrative","location":[27.0181825,44.0256754],"bbox":[26.9818378,43.9887646,27.0722391,44.0571128]}}
{"name":"Славяново","other_names":{"name:bg":"Славяново","name:en":"Slavyanovo","name:sr":"Славјаново","int_name":"Slavyanovo"},"display_name":"Славяново, Плевен, България","address":{"town":"Славяново","state_district":"Плевен","state":"Плевен","ISO3166-2-lvl4":"BG-15","country":"България","country_code":"bg"},"population":4600,"osm_type":"node","osm_id":1972340571,"type":"town","location":[24.8710214,43.4647245],"bbox":[24.8310214,43.4247245,24.9110214,43.5047245]}
{"name":"Сливница","other_names":{"name:de":"Sliwniza","name:en":"Slivnitsa","name:ro":"Slivnița","int_name":"Slivnitsa"},"display_name":"Сливница, Софийска, България","address":{"town":"Сливница","state_district":"Сливница","state":"Софийска","ISO3166-2-lvl4":"BG-23","country":"България","country_code":"bg"},"population":7032,"osm_type":"node","osm_id":273488851,"type":"town","location":[23.0380281,42.8517828],"bbox":[22.9980281,42.8117828,23.0780281,42.8917828],"border":{"name":"Сливница","other_names":{"name:bg":"Сливница","name:en":"Slivnitsa","name:de":"Sliwniza","name:ro":"Slivnița","int_name":"Slivnitsa"},"display_name":"Сливница, Софийска, 2200, България","address":{"town":"Сливница","state_district":"Сливница","state":"Софийска","ISO3166-2-lvl4":"BG-23","postcode":"2200","country":"България","country_code":"bg"},"population":7032,"osm_type":"relation","osm_id":17780581,"type":"administrative","location":[23.0380281,42.8517828],"bbox":[23.0081927,42.8143352,23.090182,42.911559]}}
{"name":"Сливо поле","other_names":{"name:en":"Slivo pole","name:tr":"Kaşıklar","int_name":"Slivo pole","alt_name:tr":"İslepol"},"display_name":"Сливо поле, Русе, България","address":{"town":"Сливо поле","state_district":"Сливо поле","state":"Русе","ISO3166-2-lvl4":"BG-18","country":"България","country_code":"bg"},"osm_type":"node","osm_id":273488838,"type":"town","location":[26.2060525,43.9438354],"bbox":[26.1660525,43.9038354,26.2460525,43.9838354],"border":{"name":"Сливо поле","other_names":{"name:bg":"Сливо поле","name:en":"Slivo Pole","name:tr":"Kaşıklar","int_name":"Slivo pole","alt_name:tr":"İslepol","alt:en":"Slivo pole"},"display_name":"Сливо поле, Русе, 7060, България","address":{"town":"Сливо поле","state_district":"Сливо поле","state":"Русе","ISO3166-2-lvl4":"BG-18","postcode":"7060","country":"България","country_code":"bg"},"osm_type":"relation","osm_id":12629405,"type":"administrative","location":[26.2060525,43.9438354],"bbox":[26.1465836,43.8986355,26.2312485,43.9889705]}}
{"name":"Смядово","other_names":{"name:en":"Smyadovo","name:sr":"Смјадово","int_name":"Smyadovo"},"display_name":"Смядово, Шумен, България","address":{"town":"Смядово","state_district":"Смядово","state":"Шумен","ISO3166-2-lvl4":"BG-27","country":"България","country_code":"bg"},"osm_type":"node","osm_id":273488864,"type":"town","location":[27.0204063,43.0662446],"bbox":[26.9804063,43.0262446,27.0604063,43.1062446],"border":{"name":"Смядово","other_names":{"name:bg":"Смядово","name:en":"Smyadovo","name:sr":"Смјадово","int_name":"Smyadovo"},"display_name":"Смядово, Шумен, България","address":{"town":"Смядово","state_district":"Смядово","state":"Шумен","ISO3166-2-lvl4":"BG-27","country":"България","country_code":"bg"},"osm_type":"relation","osm_id":13477104,"type":"administrative","location":[27.0204063,43.0662446],"bbox":[26.887085,43.0105981,27.0853981,43.1003796]}}
{"name":"Созопол","other_names":{"name:bg":"Созопол","name:de":"Sosopol","name:el":"Σωζόπολη","name:en":"Sozopol","name:fr":"Sozopol","name:ru":"Созопол","name:sv":"Sozopol","name:tr":"Süzebolu","int_name":"Sozopol"},"display_name":"Созопол, Бургас, 8130, България","address":{"town":"Созопол","state_district":"Созопол","state":"Бургас","ISO3166-2-lvl4":"BG-02","postcode":"8130","country":"България","country_code":"bg"},"population":5195,"osm_type":"node","osm_id":273488867,"type":"town","location":[27.6943124,42.4181556],"bbox":[27.6543124,42.3781556,27.7343124,42.4581556]}
{"name":"Сопот","other_names":{"name:bg":"Сопот","name:en":"Sopot","name:fr":"Sopot","int_name":"Sopot","old_name:bg:1950-1965":"Вазовград"},"display_name":"Сопот, Пловдив, 4330, България","address":{"town":"Сопот","state_district":"Сопот","state":"Пловдив","ISO3166-2-lvl4":"BG-16","postcode":"4330","country":"България","country_code":"bg"},"population":8754,"osm_type":"node","osm_id":357444883,"type":"town","location":[24.7554866,42.6543846],"bbox":[24.7154866,42.6143846,24.7954866,42.6943846]}
{"name":"Средец","other_names":{"name:bg":"Средец","name:en":"Sredets","name:fr":"Sredets","name:tr":"Karapınar","int_name":"Sredets","old_name:bg:-1934":"Кара Бунар","old_name:bg:1934-1950":"Средец","old_name:bg:1950-1993":"Грудово"},"display_name":"Средец, Бургас, 8300, България","address":{"town":"Средец","state_district":"Средец","state":"Бургас","ISO3166-2-lvl4":"BG-02","postcode":"8300","country":"България","country_code":"bg"},"population":9134,"osm_type":"node","osm_id":273488718,"type":"town","location":[27.1808724,42.3458456],"bbox":[27.1408724,42.3058456,27.2208724,42.3858456]}
{"name":"Стамболийски","other_names":{"name:bg":"Стамболийски","name:en":"Stamboliyski","name:nl":"Stamboliyski","name:sr":"Стамболијски","int_name":"Stamboliyski"},"display_name":"Стамболийски, Пловдив, 4210, България","address":{"town":"Стамболийски","state_district":"Стамболийски","state":"Пловдив","ISO3166-2-lvl4":"BG-16","postcode":"4210","country":"България","country_code":"bg"},"population":11610,"osm_type":"node","osm_id":273488695,"type":"town","location":[24.5376825,42.1363756],"bbox":[24.4976825,42.0963756,24.5776825,42.1763756]}
{"name":"Стражица","other_names":{"name:en":"Strazhitsa","int_name":"Strazhitsa"},"display_name":"Стражица, Велико Търново, България","address":{"town":"Стражица","state_district":"Стражица","state":"Велико Търново","ISO3166-2-lvl4":"BG-04","country":"България","country_code":"bg"},"osm_type":"node","osm_id":273488723,"type":"town","location":[25.9605434,43.2277591],"bbox":[25.9205434,43.1877591,26.0005434,43.2677591],"border":{"name":"Стражица","other_names":{"name:bg":"Стражица","name:en":"Strazhitsa","int_name":"Strazhitsa"},"display_name":"Стражица, Велико Търново, 5150, България","address":{"town":"Стражица","state_district":"Стражица","state":"Велико Търново","ISO3166-2-lvl4":"BG-04","postcode":"5150","country":"България","country_code":"bg"},"osm_type":"relation","osm_id":17710722,"type":"administrative","location":[25.9605434,43.2277591],"bbox":[25.9064522,43.2057058,26.0338466,43.2794059]}}
{"name":"Стралджа","other_names":{"name:bg":"Стралджа","name:de":"Straldscha","name:en":"Straldzha","name:it":"Straldža","name:pt":"Straldža","name:ro":"Stralgea","int_name":"Straldzha"},"display_name":"Стралджа, Ямбол, 8680, България","address":{"town":"Стралджа","state_district":"Стралджа","state":"Ямбол","ISO3166-2-lvl4":"BG-28","postcode":"8680","country":"България","country_code":"bg"},"population":6372,"osm_type":"node","osm_id":273488894,"type":"town","location":[26.6916416,42.6002084],"bbox":[26.6516416,42.5602084,26.7316416,42.6402084]}
{"name":"Стрелча","other_names":{"name:bg":"Стрелча","name:de":"Streltscha","name:en":"Strelcha","name:fr":"Streltcha","name:tr":"İstirelçe","int_name":"Strelcha"},"display_name":"Стрелча, Пазарджик, 4530, България","address":{"town":"Стрелча","state_district":"Стрелча","state":"Пазарджик","ISO3166-2-lvl4":"BG-13","postcode":"4530","country":"България","country_code":"bg"},"population":4230,"osm_type":"node","osm_id":273488746,"type":"town","location":[24.3191525,42.5067255],"bbox":[24.2791525,42.4667255,24.3591525,42.5467255]}
{"name":"Суворово","other_names":{"name:en":"Suvorovo","int_name":"Suvorovo"},"display_name":"Суворово, Варна, България","address":{"town":"Суворово","state_district":"Суворово","state":"Варна","ISO3166-2-lvl4":"BG-03","country":"България","country_code":"bg"},"osm_type":"node","osm_id":273488739,"type":"town","location":[27.5907042,43.3290499],"bbox":[27.5507042,43.2890499,27.6307042,43.3690499],"border":{"name":"Суворово","other_names":{"name:bg":"Суворово","name:en":"Suvorovo","int_name":"Suvorovo"},"display_name":"Суворово, Варна, България","address":{"town":"Суворово","state_district":"Суворово","state":"Варна","ISO3166-2-lvl4":"BG-03","country":"България","country_code":"bg"},"osm_type":"relation","osm_id":13477284,"type":"administrative","location":[27.5907042,43.3290499],"bbox":[27.5107811,43.3049408,27.6382704,43.3970983]}}
{"name":"Сунгурларе","other_names":{"name:bg":"Сунгурларе","name:en":"Sungurlare","name:fr":"Soungourlare","name:ru":"Сунгурларе","name:tr":"Sungurlar","int_name":"Sungurlare"},"display_name":"Сунгурларе, Бургас, 8470, България","address":{"town":"Сунгурларе","state_district":"Сунгурларе","state":"Бургас","ISO3166-2-lvl4":"BG-02","postcode":"8470","country":"България","country_code":"bg"},"population":3262,"osm_type":"node","osm_id":273488687,"type":"town","location":[26.7772625,42.7631059],"bbox":[26.7372625,42.7231059,26.8172625,42.8031059]}
{"name":"Сухиндол","other_names":{"name:en":"Suhindol","int_name":"Suhindol"},"display_name":"Сухиндол, Велико Търново, България","address":{"town":"Сухиндол","state_district":"Сухиндол","state":"Велико Търново","ISO3166-2-lvl4":"BG-04","country":"България","country_code":"bg"},"osm_type":"node","osm_id":273488871,"type":"town","location":[25.1663916,43.1863318],"bbox":[25.1263916,43.1463318,25.2063916,43.2263318],"border":{"name":"Сухиндол","other_names":{"name:bg":"Сухиндол","name:en":"Suhindol","int_name":"Suhindol"},"display_name":"Сухиндол, Велико Търново, България","address":{"town":"Сухиндол","state_district":"Сухиндол","state":"Велико Търново","ISO3166-2-lvl4":"BG-04","country":"България","country_code":"bg"},"osm_type":"relation","osm_id":17619245,"type":"administrative","location":[25.1663916,43.1863318],"bbox":[25.10898,43.141487,25.258417,43.266832]}}
{"name":"Съединение","other_names":{"name:bg":"Съединение","name:en":"Saedinenie","int_name":"Saedinenie"},"display_name":"Съединение, Пловдив, България","address":{"town":"Съединение","state_district":"Съединение","state":"Пловдив","ISO3166-2-lvl4":"BG-16","country":"България","country_code":"bg"},"population":5804,"osm_type":"node","osm_id":273488809,"type":"town","location":[24.5426125,42.2692356],"bbox":[24.5026125,42.2292356,24.5826125,42.3092356]}
{"name":"Сърница","other_names":{"name:bg":"Сърница","name:de":"Sarniza","name:en":"Sarnitsa","name:mk":"Срница","int_name":"Sarnitsa"},"display_name":"Сърница, Пазарджик, 4633, България","address":{"town":"Сърница","state_district":"Сърница","state":"Пазарджик","ISO3166-2-lvl4":"BG-13","postcode":"4633","country":"България","country_code":"bg"},"osm_type":"node","osm_id":273873622,"type":"town","location":[24.024161,41.7384034],"bbox":[23.984161,41.6984034,24.064161,41.7784034]}
{"name":"Твърдица","other_names":{"name:bg":"Твърдица","name:en":"Tvarditsa","alt_name":"Tvurditsa","int_name":"Tvarditsa"},"display_name":"Твърдица, Сливен, 8890, България","address":{"town":"Твърдица","state_district":"Твърдица","state":"Сливен","ISO3166-2-lvl4":"BG-20","postcode":"8890","country":"България","country_code":"bg"},"population":6091,"osm_type":"node","osm_id":273488830,"type":"town","location":[25.8979171,42.7014434],"bbox":[25.8579171,42.6614434,25.9379171,42.7414434]}
{"name":"Тервел","other_names":{"name:en":"Tervel","int_name":"Tervel"},"display_name":"Тервел, Добрич, България","address":{"town":"Тервел","state_district":"Тервел","state":"Добрич","ISO3166-2-lvl4":"BG-08","country":"България","country_code":"bg"},"osm_type":"node","osm_id":273488720,"type":"town","location":[27.4058887,43.7480676],"bbox":[27.3658887,43.7080676,27.4458887,43.7880676],"border":{"name":"Тервел","other_names":{"name:bg":"Тервел","name:en":"Tervel","int_name":"Tervel"},"display_name":"Тервел, Добрич, 9450, България","address":{"town":"Тервел","state_district":"Тервел","state":"Добрич","ISO3166-2-lvl4":"BG-08","postcode":"9450","country":"България","country_code":"bg"},"osm_type":"relation","osm_id":12996397,"type":"administrative","location":[27.4058887,43.7480676],"bbox":[27.3415136,43.7061943,27.4748742,43.7819077]}}
{"name":"Тетевен","other_names":{"name:bg":"Тетевен","name:en":"Teteven","name:fr":"Teteven","int_name":"Teteven"},"display_name":"Тетевен, Ловеч, България","address":{"town":"Тетевен","state_district":"Тетевен","state":"Ловеч","ISO3166-2-lvl4":"BG-11","country":"България","country_code":"bg"},"population":10077,"osm_type":"node","osm_id":273488741,"type":"town","location":[24.2651138,42.9178262],"bbox":[24.2251138,42.8778262,24.3051138,42.9578262]}
{"name":"Тополовград","other_names":{"name:bg":"Тополовград","name:de":"Topolowgrad","name:en":"Topolovgrad"},"display_name":"Тополовград, Хасково, 6560, България","address":{"town":"Тополовград","state_district":"Тополовград","state":"Хасково","ISO3166-2-lvl4":"BG-26","postcode":"6560","country":"България","country_code":"bg"},"osm_type":"node","osm_id":273488747,"type":"town","location":[26.3320703,42.0847397],"bbox":[26.2920703,42.0447397,26.3720703,42.1247397]}
{"name":"Троян","other_names":{"name:bg":"Троян","name:de":"Trojan","name:en":"Troyan","name:it":"Trojan","name:ro":"Troian","name:sr":"Тројан","int_name":"Troyan"},"display_name":"Троян, Ловеч, България","address":{"town":"Троян","state_district":"Троян","state":"Ловеч","ISO3166-2-lvl4":"BG-11","country":"България","country_code":"bg"},"population":23422,"osm_type":"node","osm_id":267050507,"type":"town","location":[24.7123534,42.8910697],"bbox":[24.6723534,42.8510697,24.7523534,42.9310697],"border":{"name":"Троян","other_names":{"name:bg":"Троян","name:en":"Troyan","name:de":"Trojan","name:it":"Trojan","name:ro":"Troian","name:sr":"Тројан","int_name":"Troyan"},"display_name":"Троян, Ловеч, България","address":{"town":"Троян","state_district":"Троян","state":"Ловеч","ISO3166-2-lvl4":"BG-11","country":"България","country_code":"bg"},"population":23422,"osm_type":"relation","osm_id":18710994,"type":"administrative","location":[24.7123534,42.8910697],"bbox":[24.6665052,42.8063674,24.7626522,42.9237607]}}
{"name":"Трън","other_names":{"name:bg":"Трън","name:en":"Tran","name:hr":"Tran","name:ru":"Трын","name:sr":"Трн","int_name":"Tran","name:sr-Latn":"Trn"},"display_name":"Трън, Перник, 2460, България","address":{"town":"Трън","state_district":"Трън","state":"Перник","ISO3166-2-lvl4":"BG-14","postcode":"2460","country":"България","country_code":"bg"},"population":2443,"osm_type":"node","osm_id":30361231,"type":"town","location":[22.6517667,42.8354054],"bbox":[22.6117667,42.7954054,22.6917667,42.8754054]}
{"name":"Тръстеник","other_names":{"name:bg":"Тръстеник","name:en":"Trastenik","int_name":"Trastenik"},"display_name":"Тръстеник, Долна Митрополия, Плевен, България","address":{"town":"Тръстеник","state_district":"Долна Митрополия","state":"Плевен","ISO3166-2-lvl4":"BG-15","country":"България","country_code":"bg"},"osm_type":"node","osm_id":529652159,"type":"town","location":[24.4723197,43.5209413],"bbox":[24.4323197,43.4809413,24.5123197,43.5609413]}
{"name":"Трявна","other_names":{"name:de":"Trjawna","name:en":"Tryavna","name:fr":"Tryavna","name:sr":"Трјавна","int_name":"Tryavna"},"display_name":"Трявна, Габрово, 5350, България","address":{"town":"Трявна","state_district":"Трявна","state":"Габрово","ISO3166-2-lvl4":"BG-07","postcode":"5350","country":"България","country_code":"bg"},"population":9478,"osm_type":"node","osm_id":273488985,"type":"town","location":[25.4924992,42.8674135],"bbox":[25.4524992,42.8274135,25.5324992,42.9074135],"border":{"name":"Трявна","other_names":{"name:bg":"Трявна","name:de":"Trjawna","name:en":"Tryavna","name:fr":"Tryavna","name:sr":"Трјавна","int_name":"Tryavna"},"display_name":"Трявна, Габрово, 5350, България","address":{"town":"Трявна","state_district":"Трявна","state":"Габрово","ISO3166-2-lvl4":"BG-07","postcode":"5350","country":"България","country_code":"bg"},"population":9478,"osm_type":"relation","osm_id":17372074,"type":"administrative","location":[25.4924992,42.8674135],"bbox":[25.4555207,42.8388522,25.5440441,42.8845502]}}
{"name":"Тутракан","other_names":{"name:bg":"Тутракан","name:en":"Tutrakan","name:lt":"Tutrakanas","name:ro":"Turtucaia","int_name":"Tutrakan"},"display_name":"Тутракан, Силистра, България","address":{"town":"Тутракан","state_district":"Тутракан","state":"Силистра","ISO3166-2-lvl4":"BG-19","country":"България","country_code":"bg"},"population":9503,"osm_type":"node","osm_id":1734063409,"type":"town","location":[26.6162765,44.04596],"bbox":[26.5762765,44.00596,26.6562765,44.08596],"border":{"name":"Тутракан","other_names":{"name:bg":"Тутракан","name:en":"Tutrakan","name:lt":"Tutrakanas","name:ro":"Turtucaia","int_name":"Tutrakan"},"display_name":"Тутракан, Силистра, 7600, България","address":{"town":"Тутракан","state_district":"Тутракан","state":"Силистра","ISO3166-2-lvl4":"BG-19","postcode":"7600","country":"България","country_code":"bg"},"population":9503,"osm_type":"relation","osm_id":12999732,"type":"administrative","location":[26.6162765,44.04596],"bbox":[26.5485952,43.9884623,26.6908225,44.0667294]}}
{"name":"Угърчин","other_names":{"name:bg":"Угърчин","name:en":"Ugarchin","int_name":"Ugarchin"},"display_name":"Угърчин, Ловеч, България","address":{"town":"Угърчин","state_district":"Угърчин","state":"Ловеч","ISO3166-2-lvl4":"BG-11","country":"България","country_code":"bg"},"osm_type":"node","osm_id":273488823,"type":"town","location":[24.4209919,43.0960171],"bbox":[24.3809919,43.0560171,24.4609919,43.1360171]}
{"name":"Хаджидимово","other_names":{"name:bg":"Хаджидимово","name:de":"Chadschidimowo","name:el":"Χατζιντίμοβο","name:en":"Hadzhidimovo","name:fr":"Khadjidimovo","name:mk":"Хаџидимово","int_name":"Hadzhidimovo"},"display_name":"Хаджидимово, Благоевград, 2933, България","address":{"town":"Хаджидимово","state_district":"Хаджидимово","state":"Благоевград","ISO3166-2-lvl4":"BG-01","postcode":"2933","country":"България","country_code":"bg"},"population":2689,"osm_type":"node","osm_id":273488749,"type":"town","location":[23.8536925,41.5167556],"bbox":[23.8136925,41.4767556,23.8936925,41.5567556]}
{"name":"Харманли","other_names":{"name:bg":"Харманли","name:de":"Charmanli","name:en":"Harmanli","name:ml":"ഹർമാൻലി","name:nl":"Charmanli","name:pl":"Charmanli","name:pt":"Harmanli","name:tr":"Harmanlı","int_name":"Harmanli"},"display_name":"Харманли, Хасково, 6450, България","address":{"town":"Харманли","state_district":"Харманли","state":"Хасково","ISO3166-2-lvl4":"BG-26","postcode":"6450","country":"България","country_code":"bg"},"population":20719,"osm_type":"node","osm_id":273488742,"type":"town","location":[25.9015211,41.9302645],"bbox":[25.8615211,41.8902645,25.9415211,41.9702645]}
{"name":"Хисаря","other_names":{"name:bg":"Хисаря","name:en":"Hisarya","name:pl":"Chisaria","name:sr":"Хисарја","int_name":"Hisarya"},"display_name":"Хисаря, Пловдив, 4180, България","address":{"town":"Хисаря","state_district":"Хисаря","state":"Пловдив","ISO3166-2-lvl4":"BG-16","postcode":"4180","country":"България","country_code":"bg"},"population":7660,"osm_type":"node","osm_id":262893507,"type":"town","location":[24.6948452,42.5132789],"bbox":[24.6548452,42.4732789,24.7348452,42.5532789]}
{"name":"Цар Калоян","other_names":{"name:bg":"Цар Калоян","name:en":"Tsar Kaloyan","name:sr":"Цар Калојан","int_name":"Tsar Kaloyan"},"display_name":"Цар Калоян, Разград, България","address":{"town":"Цар Калоян","state_district":"Цар Калоян","state":"Разград","ISO3166-2-lvl4":"BG-17","country":"България","country_code":"bg"},"osm_type":"node","osm_id":273488679,"type":"town","location":[26.2412415,43.6065651],"bbox":[26.2012415,43.5665651,26.2812415,43.6465651],"border":{"name":"Цар Калоян","other_names":{"name:bg":"Цар Калоян","name:en":"Tsar Kaloyan","name:sr":"Цар Калојан","int_name":"Tsar Kaloyan"},"display_name":"Цар Калоян, Разград, България","address":{"town":"Цар Калоян","state_district":"Цар Калоян","state":"Разград","ISO3166-2-lvl4":"BG-17","country":"България","country_code":"bg"},"osm_type":"relation","osm_id":12629745,"type":"administrative","location":[26.2412415,43.6065651],"bbox":[26.1624497,43.558547,26.3176693,43.6720887]}}
{"name":"Царево","other_names":{"name:bg":"Царево","name:cs":"Carevo","name:de":"Zarewo","name:el":"Βασιλικόν Πύργου","name:en":"Tsarevo","name:fr":"Tsarévo","name:pl":"Carewo","name:pt":"Carevo","name:ro":"Țarevo","int_name":"Tsarevo","old_name:bg:-1934":"Василико","old_name:bg:1934-1950":"Царево","old_name:bg:1950-1991":"Мичурин"},"display_name":"Царево, Бургас, 8260, България","address":{"town":"Царево","state_district":"Царево","state":"Бургас","ISO3166-2-lvl4":"BG-02","postcode":"8260","country":"България","country_code":"bg"},"population":6236,"osm_type":"node","osm_id":273488674,"type":"town","location":[27.8482856,42.1702827],"bbox":[27.8082856,42.1302827,27.8882856,42.2102827]}
{"name":"Чепеларе","other_names":{"name:bg":"Чепеларе","name:de":"Tschepelare","name:en":"Chepelare","name:es":"Chepelare","name:fr":"Tchepelare","name:pt":"Čepelare","name:ro":"Cepelare","int_name":"Chepelare"},"display_name":"Чепеларе, Смолян, 4850, България","address":{"town":"Чепеларе","state_district":"Чепеларе","state":"Смолян","ISO3166-2-lvl4":"BG-21","postcode":"4850","country":"България","country_code":"bg"},"osm_type":"node","osm_id":273488861,"type":"town","location":[24.6853052,41.7256563],"bbox":[24.6453052,41.6856563,24.7253052,41.7656563]}
{"name":"Червен бряг","other_names":{"name:bg":"Червен бряг","name:en":"Cherven Bryag","name:sr":"Червен брјаг","int_name":"Cherven bryag"},"display_name":"Червен бряг, Плевен, 5980, България","address":{"town":"Червен бряг","state_district":"Червен бряг","state":"Плевен","ISO3166-2-lvl4":"BG-15","postcode":"5980","country":"България","country_code":"bg"},"population":13818,"osm_type":"node","osm_id":273488939,"type":"town","location":[24.0824325,43.2789455],"bbox":[24.0424325,43.2389455,24.1224325,43.3189455]}
{"name":"Черноморец","other_names":{"name:bg":"Черноморец","name:en":"Chernomorets","name:fr":"Tchernomorets","int_name":"Chernomorets"},"display_name":"Черноморец, Созопол, Бургас, 8142, България","address":{"town":"Черноморец","state_district":"Созопол","state":"Бургас","ISO3166-2-lvl4":"BG-02","postcode":"8142","country":"България","country_code":"bg"},"population":2221,"osm_type":"node","osm_id":273879356,"type":"town","location":[27.63823,42.4438501],"bbox":[27.59823,42.4038501,27.67823,42.4838501],"border":{"name":"Черноморец","other_names":{"name:bg":"Черноморец","name:en":"Chernomorets","name:fr":"Tchernomorets","int_name":"Chernomorets"},"display_name":"Черноморец, Созопол, Бургас, 8142, България","address":{"town":"Черноморец","state_district":"Созопол","state":"Бургас","ISO3166-2-lvl4":"BG-02","postcode":"8142","country":"България","country_code":"bg"},"population":2221,"osm_type":"relation","osm_id":4777998,"type":"administrative","location":[27.63823,42.4438501],"bbox":[27.629174,42.4292588,27.6533326,42.4508061]}}
{"name":"Чипровци","other_names":{"name:bg":"Чипровци","name:en":"Chiprovtsi","int_name":"Chiprovtsi"},"display_name":"Чипровци, Монтана, България","address":{"town":"Чипровци","state_district":"Чипровци","state":"Монтана","ISO3166-2-lvl4":"BG-12","country":"България","country_code":"bg"},"osm_type":"node","osm_id":273488882,"type":"town","location":[22.8807639,43.3843795],"bbox":[22.8407639,43.3443795,22.9207639,43.4243795]}
{"name":"Чирпан","other_names":{"name:bg":"Чирпан","name:de":"Tschirpan","name:en":"Chirpan","int_name":"Chirpan"},"display_name":"Чирпан, Стара Загора, България","address":{"town":"Чирпан","state_district":"Чирпан","state":"Стара Загора","ISO3166-2-lvl4":"BG-24","country":"България","country_code":"bg"},"population":16315,"osm_type":"node","osm_id":1214023838,"type":"town","location":[25.3256972,42.199981],"bbox":[25.2856972,42.159981,25.3656972,42.239981],"border":{"name":"Чирпан","other_names":{"name:bg":"Чирпан","name:de":"Tschirpan","name:en":"Chirpan","int_name":"Chirpan"},"display_name":"Чирпан, Стара Загора, България","address":{"town":"Чирпан","state_district":"Чирпан","state":"Стара Загора","ISO3166-2-lvl4":"BG-24","country":"България","country_code":"bg"},"population":16315,"osm_type":"relation","osm_id":1300645,"type":"administrative","location":[25.3256972,42.199981],"bbox":[25.255173,42.1461986,25.389774,42.228402]}}
{"name":"Шабла","other_names":{"name:bg":"Шабла","name:de":"Schabla","name:en":"Shabla","int_name":"Shabla"},"display_name":"Шабла, Добрич, България","address":{"town":"Шабла","state_district":"Шабла","state":"Добрич","ISO3166-2-lvl4":"BG-08","country":"България","country_code":"bg"},"osm_type":"node","osm_id":273488967,"type":"town","location":[28.5339137,43.5406619],"bbox":[28.4939137,43.5006619,28.5739137,43.5806619],"border":{"name":"Шабла","other_names":{"name:bg":"Шабла","name:en":"Shabla","name:de":"Schabla","int_name":"Shabla"},"display_name":"Шабла, Добрич, 9680, България","address":{"town":"Шабла","state_district":"Шабла","state":"Добрич","ISO3166-2-lvl4":"BG-08","postcode":"9680","country":"България","country_code":"bg"},"osm_type":"relation","osm_id":12643892,"type":"administrative","location":[28.5339137,43.5406619],"bbox":[28.4712812,43.4982506,28.6092563,43.5921953]}}
{"name":"Шивачево","other_names":{"name:bg":"Шивачево","name:en":"Shivachevo","int_name":"Shivachevo"},"display_name":"Шивачево, Твърдица, Сливен, България","address":{"town":"Шивачево","state_district":"Твърдица","state":"Сливен","ISO3166-2-lvl4":"BG-20","country":"България","country_code":"bg"},"osm_type":"node","osm_id":1766890789,"type":"town","location":[26.0284812,42.6861958],"bbox":[25.9884812,42.6461958,26.0684812,42.7261958]}
{"name":"Шипка","other_names":{"name:de":"Schipka","name:en":"Shipka","name:ro":"Șipka","int_name":"Shipka"},"display_name":"Шипка, Казанлък, Стара Загора, България","address":{"town":"Шипка","state_district":"Казанлък","state":"Стара Загора","ISO3166-2-lvl4":"BG-24","country":"България","country_code":"bg"},"population":1267,"osm_type":"node","osm_id":323351236,"type":"town","location":[25.3325198,42.7123752],"bbox":[25.2925198,42.6723752,25.3725198,42.7523752],"border":{"name":"Шипка","other_names":{"name:bg":"Шипка","name:en":"Shipka","name:de":"Schipka","name:ro":"Șipka","int_name":"Shipka"},"display_name":"Шипка, Казанлък, Стара Загора, България","address":{"town":"Шипка","state_district":"Казанлък","state":"Стара Загора","ISO3166-2-lvl4":"BG-24","country":"България","country_code":"bg"},"population":1267,"osm_type":"relation","osm_id":13489930,"type":"administrative","location":[25.3325198,42.7123752],"bbox":[25.2967023,42.6839058,25.4109376,42.757171]}}
{"name":"Ябланица","other_names":{"name:bg":"Ябланица","name:en":"Yablanitsa","name:ro":"Iablanița","name:sr":"Јабланица","int_name":"Yablanitsa"},"display_name":"Ябланица, Ловеч, 5750, България","address":{"town":"Ябланица","state_district":"Ябланица","state":"Ловеч","ISO3166-2-lvl4":"BG-11","postcode":"5750","country":"България","country_code":"bg"},"osm_type":"node","osm_id":273488736,"type":"town","location":[24.1005871,43.0250359],"bbox":[24.0605871,42.9850359,24.1405871,43.0650359]}
{"name":"Якоруда","other_names":{"name:bg":"Якоруда","name:el":"Γιακόρουντα","name:en":"Yakoruda","name:fr":"Yakorouda","name:mk":"Јакоруда","name:sr":"Јакоруда","int_name":"Yakoruda"},"display_name":"Якоруда, Благоевград, 2790, България","address":{"town":"Якоруда","state_district":"Якоруда","state":"Благоевград","ISO3166-2-lvl4":"BG-01","postcode":"2790","country":"България","country_code":"bg"},"population":5480,"osm_type":"node","osm_id":273488942,"type":"town","location":[23.6677825,42.0172856],"bbox":[23.6277825,41.9772856,23.7077825,42.0572856]}
