{"name":"Благоевград","other_names":{"name:bg":"Благоевград","name:ca":"Blagòevgrad","name:de":"Blagoewgrad","name:el":"Μπλαγκόεβγκραντ","name:en":"Blagoevgrad","name:et":"Blagoevgrad","name:fr":"Blagoevgrad","name:hr":"Blagoevgrad","name:hu":"Blagoevgrad","name:mk":"Горна Џумаја (Благоевград)","name:ml":"ബ്ലാഗോയേവ്ഗ്രാഡ്","name:nl":"Blagoëvgrad","name:pl":"Błagojewgrad","name:ro":"Blagoevgrad","name:ru":"Благоевград","name:sr":"Благоевград","name:tr":"Yukarı Cuma","int_name":"Blagoevgrad","alt_name:mk":"Благоевград","alt_name:tr":"Blagoevgrad","old_name:tr":"Cuma-i Bâlâ"},"display_name":"Благоевград, 2700, България","address":{"city":"Благоевград","state_district":"Благоевград","state":"Благоевград","ISO3166-2-lvl4":"BG-01","postcode":"2700","country":"България","country_code":"bg"},"population":75079,"osm_type":"node","osm_id":31058171,"type":"city","location":[23.0906457,42.0111077],"bbox":[22.9306457,41.8511077,23.2506457,42.1711077]}
{"name":"Бургас","other_names":{"name:ar":"بورغاس","name:bg":"Бургас","name:ca":"Burgàs","name:cs":"Burgas","name:de":"Burgas","name:el":"Πύργος","name:en":"Burgas","name:et":"Burgas","name:eu":"Burgas","name:fa":"بورگاس","name:fr":"Bourgas","name:hr":"Burgas","name:hu":"Burgasz","name:lt":"Burgasas","name:lv":"Burgasa","name:ml":"ബൂർഗാസ്","name:nl":"Boergas","name:pl":"Burgas","name:ro":"Burgas","name:ru":"Бургас","name:sk":"Burgas","name:sr":"Бургас","name:tr":"Burgaz","name:uk":"Бургас","name:zh":"布爾加斯","int_name":"Burgas","name:zh-Hans":"布尔加斯","name:zh-Hant":"布爾加斯"},"display_name":"Бургас, България","address":{"city":"Бургас","state_district":"Бургас","state":"Бургас","ISO3166-2-lvl4":"BG-02","country":"България","country_code":"bg"},"population":189741,"osm_type":"node","osm_id":31058172,"type":"city","location":[27.4721276,42.4936616],"bbox":[27.3121276,42.3336616,27.6321276,42.6536616],"border":{"name":"Бургас","other_names":{"name:bg":"Бургас","name:en":"Burgas","name:ar":"بورغاس","name:ca":"Burgàs","name:cs":"Burgas","name:de":"Burgas","name:el":"Πύργος","name:et":"Burgas","name:eu":"Burgas","name:fa":"بورگاس","name:fr":"Bourgas","name:hr":"Burgas","name:hu":"Burgasz","name:lt":"Burgasas","name:lv":"Burgasa","name:ml":"ബൂർഗാസ്","name:nl":"Boergas","name:pl":"Burgas","name:ro":"Burgas","name:ru":"Бургас","name:sk":"Burgas","name:sr":"Бургас","name:tr":"Burgaz","name:uk":"Бургас","name:zh":"布爾加斯","int_name":"Burgas","name:zh-Hans":"布尔加斯","name:zh-Hant":"布爾加斯"},"display_name":"Бургас, България","address":{"city":"Бургас","state_district":"Бургас","state":"Бургас","ISO3166-2-lvl4":"BG-02","country":"България","country_code":"bg"},"population":189741,"osm_type":"relation","osm_id":18971477,"type":"administrative","location":[27.4721276,42.4936616],"bbox":[27.318265,42.412214,27.570475,42.650358]}}
{"name":"Варна","other_names":{"name:af":"Warna","name:an":"Varna","name:ar":"فارنا","name:az":"Varna","name:bg":"Варна","name:bn":"ভার্না","name:br":"Varna","name:ca":"Varna","name:cs":"Varna","name:cy":"Varna","name:da":"Varna","name:de":"Warna","name:el":"Βάρνα","name:en":"Varna","name:eo":"Varna","name:es":"Varna","name:et":"Varna","name:eu":"Varna","name:fa":"وارنا","name:fi":"Varna","name:fr":"Varna","name:ga":"Varna","name:gl":"Varna","name:he":"וארנה","name:hr":"Varna","name:hu":"Várna","name:hy":"Վառնա","name:id":"Varna","name:ie":"Varna","name:io":"Varna","name:is":"Varna","name:it":"Varna","name:ja":"ヴァルナ","name:ka":"ვარნა","name:ko":"바르나","name:ku":"Varna","name:ky":"Варна","name:la":"Odessus","name:lb":"Varna","name:li":"Varna","name:lt":"Varna","name:lv":"Varna","name:ml":"വാർണ","name:mr":"व्हर्ना","name:nb":"Varna","name:nl":"Varna","name:nn":"Varna","name:oc":"Varna","name:os":"Варнæ","name:pl":"Warna","name:pt":"Varna","name:ro":"Varna","name:ru":"Варна","name:sc":"Varna","name:sk":"Varna","name:sl":"Varna","name:sq":"Varna","name:sr":"Варна","name:sv":"Varna","name:th":"วาร์นา","name:tk":"Warna","name:tr":"Varna","name:uk":"Варна","name:ur":"وارنا","name:uz":"Varna","name:vi":"Varna","name:vo":"Varna","name:zh":"瓦爾納","int_name":"Varna","name:zh-Hans":"瓦尔纳","name:zh-Hant":"瓦爾納","old_name:bg:1949-1956":"Сталин"},"display_name":"Варна, Одесос, Варна, 9000, България","address":{"city":"Варна","county":"Одесос","state_district":"Варна","state":"Варна","ISO3166-2-lvl4":"BG-03","postcode":"9000","country":"България","country_code":"bg"},"population":348058,"osm_type":"node","osm_id":31058194,"type":"city","location":[27.9166653,43.2073873],"bbox":[27.7566653,43.0473873,28.0766653,43.3673873],"border":{"name":"Варна","other_names":{"name:bg":"Варна","name:en":"Varna","name:af":"Warna","name:an":"Varna","name:ar":"فارنا","name:az":"Varna","name:bn":"ভার্না","name:br":"Varna","name:ca":"Varna","name:cs":"Varna","name:cy":"Varna","name:da":"Varna","name:de":"Warna","name:el":"Βάρνα","name:eo":"Varna","name:es":"Varna","name:et":"Varna","name:eu":"Varna","name:fa":"وارنا","name:fi":"Varna","name:fr":"Varna","name:ga":"Varna","name:gl":"Varna","name:he":"וארנה","name:hr":"Varna","name:hu":"Várna","name:hy":"Վառնա","name:id":"Varna","name:ie":"Varna","name:io":"Varna","name:is":"Varna","name:it":"Varna","name:ja":"ヴァルナ","name:ka":"ვარნა","name:ko":"바르나","name:ku":"Varna","name:ky":"Варна","name:la":"Odessus","name:lb":"Varna","name:li":"Varna","name:lt":"Varna","name:lv":"Varna","name:ml":"വാർണ","name:mr":"व्हर्ना","name:nb":"Varna","name:nl":"Varna","name:nn":"Varna","name:oc":"Varna","name:os":"Варнæ","name:pl":"Warna","name:pt":"Varna","name:ro":"Varna","name:ru":"Варна","name:sc":"Varna","name:sk":"Varna","name:sl":"Varna","name:sq":"Varna","name:sr":"Варна","name:sv":"Varna","name:th":"วาร์นา","name:tk":"Warna","name:tr":"Varna","name:uk":"Варна","name:ur":"وارنا","name:uz":"Varna","name:vi":"Varna","name:vo":"Varna","name:zh":"瓦爾納","int_name":"Varna","name:zh-Hans":"瓦尔纳","name:zh-Hant":"瓦爾納","old_name:bg:1949-1956":"Сталин"},"display_name":"Варна, Одесос, Варна, България","address":{"city":"Варна","county":"Одесос","state_district":"Варна","state":"Варна","ISO3166-2-lvl4":"BG-03","country":"България","country_code":"bg"},"population":348058,"osm_type":"relation","osm_id":13477567,"type":"administrative","location":[27.9166653,43.2073873],"bbox":[27.829908,43.100229,28.0562129,43.310216]}}
{"name":"Велико Търново","other_names":{"name:bg":"Велико Търново","name:de":"Weliko Tarnowo","name:el":"Βελίκο Τίρνοβο","name:en":"Veliko Tarnovo","name:es":"Veliko Tarnovo","name:et":"Veliko Tǎrnovo","name:fr":"Veliko Tarnovo","name:hr":"Veliko Tarnovo","name:mk":"Велико Трново","name:ml":"വെലിക്കോ ടർനോവോ","name:nl":"Veliko Tarnovo","name:pl":"Wielkie Tyrnowo","name:pt":"Veliko Turnovo","name:ro":"Veliko Tărnovo","name:ru":"Велико-Тырново","name:sr":"Велико Трново","name:tr":"Tırnova","int_name":"Veliko Tarnovo","short_name":"Търново","name:sr-Latn":"Veliko Trnovo","short_name:de":"Tarnowo","short_name:en":"Tarnovo","short_name:es":"Tarnovo","short_name:fr":"Tarnovo","short_name:hr":"Tarnovo","short_name:nl":"Tarnovo","short_name:pl":"Tyrnowo","short_name:pt":"Turnovo","short_name:ro":"Tărnovo","short_name:ru":"Тырново","short_name:sr":"Трново"},"display_name":"Велико Търново, България","address":{"city":"Велико Търново","state_district":"Велико Търново","state":"Велико Търново","ISO3166-2-lvl4":"BG-04","country":"България","country_code":"bg"},"population":71150,"osm_type":"node","osm_id":31058195,"type":"city","location":[25.6321312,43.0820584],"bbox":[25.4721312,42.9220584,25.7921312,43.2420584],"border":{"name":"Велико Търново","other_names":{"name:bg":"Велико Търново","name:de":"Weliko Tarnowo","name:el":"Βελίκο Τίρνοβο","name:en":"Veliko Tarnovo","name:es":"Veliko Tarnovo","name:et":"Veliko Tǎrnovo","name:fr":"Veliko Tarnovo","name:hr":"Veliko Tarnovo","name:mk":"Велико Трново","name:ml":"വെലിക്കോ ടർനോവോ","name:nl":"Veliko Tarnovo","name:pl":"Wielkie Tyrnowo","name:pt":"Veliko Turnovo","name:ro":"Veliko Tărnovo","name:ru":"Велико-Тырново","name:sr":"Велико Трново","name:tr":"Tırnova","int_name":"Veliko Tarnovo","short_name":"Търново","name:sr-Latn":"Veliko Trnovo","short_name:de":"Tarnowo","short_name:en":"Tarnovo","short_name:es":"Tarnovo","short_name:fr":"Tarnovo","short_name:hr":"Tarnovo","short_name:nl":"Tarnovo","short_name:pl":"Tyrnowo","short_name:pt":"Turnovo","short_name:ro":"Tărnovo","short_name:ru":"Тырново","short_name:sr":"Трново"},"display_name":"Велико Търново, България","address":{"city":"Велико Търново","state_district":"Велико Търново","state":"Велико Търново","ISO3166-2-lvl4":"BG-04","country":"България","country_code":"bg"},"population":71150,"osm_type":"relation","osm_id":17402816,"type":"administrative","location":[25.6321312,43.0820584],"bbox":[25.5672069,43.0549369,25.6759633,43.12069]}}
{"name":"Видин","other_names":{"name:ar":"فيدين","name:be":"Відзін","name:bg":"Видин","name:ca":"Vidin","name:cs":"Vidin","name:cu":"Видинъ","name:da":"Vidin","name:de":"Widin","name:el":"Βιδίνιο","name:en":"Vidin","name:eo":"Vidin","name:es":"Vidin","name:et":"Vidin","name:eu":"Vidin","name:fa":"ویدین","name:fi":"Vidin","name:fr":"Vidin","name:gl":"Vidin","name:he":"וידין","name:hr":"Vidin","name:hu":"Vidin","name:hy":"Վիդին","name:id":"Vidin","name:it":"Vidin","name:ja":"ヴィディン","name:ko":"비딘","name:lt":"Vidinas","name:lv":"Vidina","name:ml":"വിഡിൻ","name:nb":"Vidin","name:nl":"Vidin","name:pl":"Widyń","name:pt":"Vidin","name:ro":"Vidin","name:ru":"Видин","name:sk":"Vidin","name:sl":"Vidin","name:sr":"Видин","name:sv":"Vidin","name:th":"วีดิน","name:tr":"Vidin","name:ur":"ویدین","name:vi":"Vidin","name:zh":"維丁","int_name":"Vidin","reg_name":"Diiu","old_name:ro":"Diiu"},"display_name":"Видин, 3700, България","address":{"city":"Видин","state_district":"Видин","state":"Видин","ISO3166-2-lvl4":"BG-05","postcode":"3700","country":"България","country_code":"bg"},"population":50977,"osm_type":"node","osm_id":31058196,"type":"city","location":[22.8772194,43.9857242],"bbox":[22.7172194,43.8257242,23.0372194,44.1457242]}
{"name":"Враца","other_names":{"name:bg":"Враца","name:de":"Wraza","name:el":"Βράτσα","name:en":"Vratsa","name:eo":"Vraca","name:es":"Vratsa","name:et":"Vraca","name:fi":"Vratsa","name:fr":"Vratsa","name:hr":"Vraca","name:it":"Vraca","name:ml":"വ്രാറ്റ്സ","name:nl":"Vratsa","name:pl":"Wraca","name:pt":"Vratsa","name:ro":"Vrața","name:ru":"Враца","name:sk":"Vraca","name:sr":"Враца","name:sv":"Vratsa","name:tr":"İvraca","int_name":"Vratsa"},"display_name":"Враца, 3002, България","address":{"city":"Враца","state_district":"Враца","state":"Враца","ISO3166-2-lvl4":"BG-06","postcode":"3002","country":"България","country_code":"bg"},"population":60877,"osm_type":"node","osm_id":31058197,"type":"city","location":[23.548027,43.2028209],"bbox":[23.388027,43.0428209,23.708027,43.3628209]}
{"name":"Габерево","other_names":{"name:bg":"Габерево","name:en":"Gaberevo"},"display_name":"Габерево, Поморие, Бургас, 8212, България","address":{"city":"Габерево","state_district":"Поморие","state":"Бургас","ISO3166-2-lvl4":"BG-02","postcode":"8212","country":"България","country_code":"bg"},"osm_type":"relation","osm_id":18523162,"type":"administrative","location":[27.531836507805245,42.69105975],"bbox":[27.5050363,42.6715701,27.5542654,42.7105899],"inferred_type":"city"}
{"name":"Габрово","other_names":{"name:de":"Gabrowo","name:el":"Γκάμπροβο","name:en":"Gabrovo","name:et":"Gabrovo","name:eu":"Gabrovo","name:fr":"Gabrovo","name:hr":"Gabrovo","name:it":"Gabrovas","name:ml":"ഗാബ്രോവോ","name:pl":"Gabrowo","name:ro":"Gabrovo","name:ru":"Габрово","name:sr":"Габрово","name:tr":"Gabrova","int_name":"Gabrovo","old_name":"Gabrova"},"display_name":"Габрово, България","address":{"city":"Габрово","state_district":"Габрово","state":"Габрово","ISO3166-2-lvl4":"BG-07","country":"България","country_code":"bg"},"population":59611,"osm_type":"node","osm_id":31058174,"type":"city","location":[25.315798,42.8710344],"bbox":[25.155798,42.7110344,25.475798,43.0310344],"border":{"name":"Габрово","other_names":{"name:bg":"Габрово","name:de":"Gabrowo","name:el":"Γκάμπροβο","name:en":"Gabrovo","name:et":"Gabrovo","name:eu":"Gabrovo","name:fr":"Gabrovo","name:hr":"Gabrovo","name:it":"Gabrovas","name:ml":"ഗാബ്രോവോ","name:pl":"Gabrowo","name:ro":"Gabrovo","name:ru":"Габрово","name:sr":"Габрово","name:tr":"Gabrova","int_name":"Gabrovo","old_name":"Gabrova"},"display_name":"Габрово, България","address":{"city":"Габрово","state_district":"Габрово","state":"Габрово","ISO3166-2-lvl4":"BG-07","country":"България","country_code":"bg"},"population":59611,"osm_type":"relation","osm_id":17363266,"type":"administrative","location":[25.315798,42.8710344],"bbox":[25.160806,42.733672,25.438775,42.9199302]}}
{"name":"Добрич","other_names":{"name:ar":"دوبريتش","name:be":"Добрыч","name:bg":"Добрич","name:ca":"Dòbritx","name:ce":"Добрич","name:cs":"Dobrič","name:cu":"Добричь","name:da":"Dobritj","name:de":"Dobritsch","name:el":"Ντόμπριτς","name:en":"Dobrich","name:eo":"Dobriĉ","name:es":"Dobrich","name:et":"Dobrič","name:eu":"Dovritx","name:fa":"دوبریچ","name:fi":"Dobritš","name:fr":"Dobritch","name:he":"דובריץ'","name:hr":"Dobrič","name:hu":"Dobrics","name:hy":"Դոբրիչ","name:id":"Dobrich","name:it":"Dobrič","name:ja":"ドブリチ","name:ko":"도브리치","name:lt":"Dobričius","name:lv":"Dobriča","name:ml":"ഡോബ്രിച്ച്","name:ms":"Dobrich","name:nb":"Dobritsj","name:nl":"Dobritsj","name:nn":"Dobritsj","name:pl":"Dobricz","name:pt":"Dobrich","name:ro":"Bazargic","name:ru":"Добрич","name:sk":"Dobrič","name:sl":"Dobrič","name:sq":"Dobriç","name:sr":"Добрич","name:sv":"Dobritj","name:th":"ดอบริช","name:tk":"Dobriç","name:tr":"Hacıoğlu Pazarcık","name:ur":"دوبریچ","name:uz":"Dobrich","name:vi":"Dobrich","name:vo":"Dobric","name:zh":"多布里奇","int_name":"Dobrich","alt_name:tr":"Dobriç;Pazarcık","old_name:de":"Basardschik","old_name:en":"Tolbuhin","old_name:bg:-1888":"Хаджиоглу Пазарджик","old_name:bg:1945-1990":"Толбухин"},"display_name":"Добрич, България","address":{"city":"Добрич","state_district":"Добрич","state":"Добрич","ISO3166-2-lvl4":"BG-08","country":"България","country_code":"bg"},"population":89627,"osm_type":"node","osm_id":31058173,"type":"city","location":[27.8297415,43.5688397],"bbox":[27.6697415,43.4088397,27.9897415,43.7288397],"border":{"name":"Добрич","other_names":{"name:bg":"Добрич","name:en":"Dobrich","name:pl":"Dobricz","name:ar":"دوبريتش","name:be":"Добрыч","name:ca":"Dòbritx","name:ce":"Добрич","name:cs":"Dobrič","name:cu":"Добричь","name:da":"Dobritj","name:de":"Dobritsch","name:el":"Ντόμπριτς","name:eo":"Dobriĉ","name:es":"Dobrich","name:et":"Dobrič","name:eu":"Dovritx","name:fa":"دوبریچ","name:fi":"Dobritš","name:fr":"Dobritch","name:he":"דובריץ'","name:hr":"Dobrič","name:hu":"Dobrics","name:hy":"Դոբրիչ","name:id":"Dobrich","name:it":"Dobrič","name:ja":"ドブリチ","name:ko":"도브리치","name:lt":"Dobričius","name:lv":"Dobriča","name:ml":"ഡോബ്രിച്ച്","name:ms":"Dobrich","name:nb":"Dobritsj","name:nl":"Dobritsj","name:nn":"Dobritsj","name:pt":"Dobrich","name:ro":"Bazargic","name:ru":"Добрич","name:sk":"Dobrič","name:sl":"Dobrič","name:sq":"Dobriç","name:sr":"Добрич","name:sv":"Dobritj","name:th":"ดอบริช","name:tk":"Dobriç","name:tr":"Hacıoğlu Pazarcık","name:ur":"دوبریچ","name:uz":"Dobrich","name:vi":"Dobrich","name:vo":"Dobric","name:zh":"多布里奇","int_name":"Dobrich","alt_name:tr":"Dobriç;Pazarcık","old_name:de":"Basardschik","old_name:en":"Tolbuhin","old_name:bg:-1888":"Хаджиоглу Пазарджик","old_name:bg:1945-1990":"Толбухин"},"display_name":"Добрич, България","address":{"city":"Добрич","state_district":"Добрич","state":"Добрич","ISO3166-2-lvl4":"BG-08","country":"България","country_code":"bg"},"population":89627,"osm_type":"relation","osm_id":12996399,"type":"administrative","location":[27.8297415,43.5688397],"bbox":[27.7134261,43.5171795,27.8916112,43.6296131]}}
{"name":"Кърджали","other_names":{"name:bg":"Кърджали","name:de":"Kardschali","name:el":"Κάρτζαλι","name:en":"Kardzhali","name:et":"Kǎrdžali","name:fr":"Kardjali","name:hr":"Kardžali","name:mk":"Крџали","name:ml":"കിർജാലി","name:nl":"Kardzjali","name:pl":"Kyrdżali","name:pt":"Kurdzhali","name:ro":"Kârgeali","name:ru":"Кырджали","name:sr":"Крџали","name:sv":"Kardzjali","name:tr":"Kırcaali","int_name":"Kardzhali","old_name":"Kırcaali","alt_name:tr":"Kırcali","name:sr-Latn":"Krdžali"},"display_name":"Кърджали, България","address":{"city":"Кърджали","state_district":"Кърджали","state":"Кърджали","ISO3166-2-lvl4":"BG-09","country":"България","country_code":"bg"},"population":49421,"osm_type":"node","osm_id":31058177,"type":"city","location":[25.3722156,41.643746],"bbox":[25.2122156,41.483746,25.5322156,41.803746],"border":{"name":"Кърджали","other_names":{"name:bg":"Кърджали","name:en":"Kardzhali","name:tr":"Kırcaali","name:de":"Kardschali","name:el":"Κάρτζαλι","name:et":"Kǎrdžali","name:fr":"Kardjali","name:hr":"Kardžali","name:mk":"Крџали","name:ml":"കിർജാലി","name:nl":"Kardzjali","name:pl":"Kyrdżali","name:pt":"Kurdzhali","name:ro":"Kârgeali","name:ru":"Кырджали","name:sr":"Крџали","name:sv":"Kardzjali","int_name":"Kardzhali","old_name":"Kırcaali","alt_name:tr":"Kırcali","name:sr-Latn":"Krdžali"},"display_name":"Кърджали, България","address":{"city":"Кърджали","state_district":"Кърджали","state":"Кърджали","ISO3166-2-lvl4":"BG-09","country":"България","country_code":"bg"},"population":49421,"osm_type":"way","osm_id":547594701,"type":"administrative","location":[25.3722156,41.643746],"bbox":[25.3434358,41.6049412,25.3987307,41.6555905]}}
{"name":"Кюстендил","other_names":{"name:bg":"Кюстендил","name:de":"Kjustendil","name:el":"Κιουστεντίλ","name:en":"Kyustendil","name:es":"Kyustendil","name:et":"Kjustendil","name:fr":"Kyoustendil","name:hr":"Kjustendil","name:hu":"Kjusztendil","name:mk":"Ќустендил","name:ml":"ക്യൂസ്റ്റെൻഡിൽ","name:nl":"Kjoestendil","name:pl":"Kiustendił","name:pt":"Kyustendil","name:ro":"Kiustendil","name:ru":"Кюстендил","name:sr":"Ћустендил","name:tr":"Köstendil","int_name":"Kyustendil","name:sr-Latn":"Ćustendil"},"display_name":"Кюстендил, България","address":{"city":"Кюстендил","state_district":"Кюстендил","state":"Кюстендил","ISO3166-2-lvl4":"BG-10","country":"България","country_code":"bg"},"population":47640,"osm_type":"node","osm_id":31058178,"type":"city","location":[22.6890196,42.2809956],"bbox":[22.5290196,42.1209956,22.8490196,42.4409956],"border":{"name":"Кюстендил","other_names":{"name:bg":"Кюстендил","name:de":"Kjustendil","name:el":"Κιουστεντίλ","name:en":"Kyustendil","name:es":"Kyustendil","name:et":"Kjustendil","name:fr":"Kyoustendil","name:hr":"Kjustendil","name:hu":"Kjusztendil","name:mk":"Ќустендил","name:ml":"ക്യൂസ്റ്റെൻഡിൽ","name:nl":"Kjoestendil","name:pl":"Kiustendił","name:pt":"Kyustendil","name:ro":"Kiustendil","name:ru":"Кюстендил","name:sr":"Ћустендил","name:tr":"Köstendil","int_name":"Kyustendil","name:sr-Latn":"Ćustendil"},"display_name":"Кюстендил, България","address":{"city":"Кюстендил","state_district":"Кюстендил","state":"Кюстендил","ISO3166-2-lvl4":"BG-10","country":"България","country_code":"bg"},"population":47640,"osm_type":"relation","osm_id":17788693,"type":"administrative","location":[22.6890196,42.2809956],"bbox":[22.6469627,42.2537127,22.7337449,42.3135679]}}
{"name":"Ловеч","other_names":{"name:bg":"Ловеч","name:de":"Lowetsch","name:el":"Λόβετς","name:en":"Lovech","name:et":"Loveč","name:eu":"Lovetx","name:fi":"Lovetš","name:fr":"Lovetch","name:hr":"Loveč","name:la":"Melta","name:ml":"ലോവെച്ച്","name:nl":"Lovetsj","name:pl":"Łowecz","name:pt":"Lovech","name:ru":"Ловеч","name:sr":"Ловеч","name:sv":"Lovetj","name:tr":"Lofça","int_name":"Lovech","old_name:tr":"Altın Lofça"},"display_name":"Ловеч, 5503, България","address":{"city":"Ловеч","state_district":"Ловеч","state":"Ловеч","ISO3166-2-lvl4":"BG-11","postcode":"5503","country":"България","country_code":"bg"},"population":37297,"osm_type":"node","osm_id":31058179,"type":"city","location":[24.715431,43.1349971],"bbox":[24.555431,42.9749971,24.875431,43.2949971]}
{"name":"Лозница","other_names":{"name:bg":"Лозница","name:en":"Loznitsa"},"display_name":"Лозница, Никопол, Плевен, 5954, България","address":{"city":"Лозница","state_district":"Никопол","state":"Плевен","ISO3166-2-lvl4":"BG-15","postcode":"5954","country":"България","country_code":"bg"},"osm_type":"relation","osm_id":18542329,"type":"administrative","location":[25.000227820669295,43.605436],"bbox":[24.949048,43.570515,25.073137,43.640481],"inferred_type":"city"}
{"name":"Монтана","other_names":{"name:ar":"مونتانا","name:be":"Мантана","name:bg":"Монтана","name:ce":"Монтана","name:cs":"Montana","name:cu":"Монтана","name:da":"Montana","name:de":"Montana","name:el":"Μοντάνα","name:en":"Montana","name:eo":"Montana","name:es":"Montana","name:et":"Montana","name:eu":"Montana","name:fa":"مونتانا","name:fi":"Montana","name:fr":"Montana","name:he":"מונטנה","name:hr":"Montana","name:id":"Montana","name:it":"Montana","name:ja":"モンタナ","name:ko":"몬타나","name:lt":"Montana","name:mk":"Монтана","name:ml":"മൊണ്ടാന","name:ms":"Montana","name:nl":"Montana","name:os":"Монтанæ","name:pl":"Montana","name:pt":"Montana","name:ro":"Montana","name:ru":"Монтана","name:sk":"Montana","name:sl":"Montana","name:sr":"Монтана","name:sv":"Montana","name:tr":"Kutlu Viçe","name:uk":"Монтана","name:ur":"مونتانا","name:vi":"Montana","name:zh":"蒙塔納","int_name":"Montana","old_name:bg:-1891":"Кутловица","old_name:uk:-1891":"Кутловиця","old_name:bg:1891-1945":"Фердинанд","old_name:bg:1945-1993":"Михайловград","old_name:uk:1891-1945":"Фердинанд","old_name:uk:1945-1993":"Михайловград"},"display_name":"Монтана, 3400, България","address":{"city":"Монтана","state_district":"Монтана","state":"Монтана","ISO3166-2-lvl4":"BG-12","postcode":"3400","country":"България","country_code":"bg"},"population":44502,"osm_type":"node","osm_id":31058180,"type":"city","location":[23.2203193,43.4088984],"bbox":[23.0603193,43.2488984,23.3803193,43.5688984]}
{"name":"Пазарджик","other_names":{"name:bg":"Пазарджик","name:de":"Pasardschik","name:el":"Πάζαρτζικ","name:en":"Pazardzhik","name:es":"Pazardzhik","name:et":"Pazardžik","name:fr":"Pazardjik","name:hr":"Pazardžik","name:hu":"Pazardzsik","name:mk":"Пазарџик","name:ml":"പാസർജിക്ക്","name:nl":"Pazardzjik","name:pl":"Pazardżik","name:pt":"Pazardzhik","name:ro":"Pazargik","name:ru":"Пазарджик","name:sr":"Пазарџик","name:sv":"Pazardzjik","name:tr":"Pazarcık","int_name":"Pazardzhik","old_name:tr":"Tatarpazarcığı"},"display_name":"Пазарджик, 4400, България","address":{"city":"Пазарджик","state_district":"Пазарджик","state":"Пазарджик","ISO3166-2-lvl4":"BG-13","postcode":"4400","country":"България","country_code":"bg"},"population":76739,"osm_type":"node","osm_id":31058181,"type":"city","location":[24.3318993,42.1884549],"bbox":[24.1718993,42.0284549,24.4918993,42.3484549]}
{"name":"Перник","other_names":{"name:bg":"Перник","name:de":"Pernik","name:el":"Πέρνικ","name:en":"Pernik","name:fr":"Pernik","name:hr":"Pernik","name:lt":"Pernikas","name:ml":"പെർണിക്ക്","name:nl":"Pernik","name:pl":"Pernik","name:ru":"Перник","name:sr":"Перник","int_name":"Pernik"},"display_name":"Перник, 2300, България","address":{"city":"Перник","state_district":"Перник","state":"Перник","ISO3166-2-lvl4":"BG-14","postcode":"2300","country":"България","country_code":"bg"},"population":78342,"osm_type":"node","osm_id":31058182,"type":"city","location":[23.0309457,42.6092185],"bbox":[22.8709457,42.4492185,23.1909457,42.7692185]}
{"name":"Плевен","other_names":{"name:bg":"Плевен","name:de":"Plewen","name:el":"Πλέβεν","name:en":"Pleven","name:et":"Pleven","name:eu":"Pleven","name:fr":"Pleven","name:hr":"Pleven","name:hu":"Pleven","name:lt":"Plevenas","name:ml":"പ്ലെവെൻ","name:nl":"Pleven","name:pl":"Plewen","name:ro":"Plevna","name:ru":"Плевен","name:sk":"Pleven","name:sr":"Плевен","name:tr":"Plevne","name:uk":"Плевен","int_name":"Pleven"},"display_name":"Плевен, 5801, България","address":{"city":"Плевен","state_district":"Плевен","state":"Плевен","ISO3166-2-lvl4":"BG-15","postcode":"5801","country":"България","country_code":"bg"},"population":111567,"osm_type":"node","osm_id":31058183,"type":"city","location":[24.6180123,43.409022],"bbox":[24.4580123,43.249022,24.7780123,43.569022]}
{"name":"Пловдив","other_names":{"name:an":"Plovdiv","name:ar":"بلوفديف","name:az":"Plovdiv","name:be":"Плоўдзіў","name:bg":"Пловдив","name:bn":"প্লোভদিভ","name:br":"Plovdiv","name:ca":"Plóvdiv","name:cs":"Plovdiv","name:cu":"Фїлїппополь","name:cy":"Plovdiv","name:da":"Plovdiv","name:de":"Plowdiw","name:el":"Φιλιππούπολη","name:en":"Plovdiv","name:eo":"Plovdiv","name:es":"Plovdiv","name:et":"Plovdiv","name:eu":"Plovdiv","name:fa":"پلوودیو","name:fi":"Plovdiv","name:fr":"Plovdiv","name:ga":"Plovdiv","name:gl":"Plovdiv","name:he":"פלובדיב","name:hr":"Plovdiv","name:hu":"Plovdiv","name:hy":"Պլովդիվ","name:id":"Plovdiv","name:ie":"Plovdiv","name:io":"Plovdiv","name:is":"Plovdiv","name:it":"Plovdiv","name:ja":"プロヴディフ","name:jv":"Plovdiv","name:ka":"პლოვდივი","name:ko":"플로브디프","name:ku":"Plovdîv","name:la":"Philippopolis","name:lb":"Plovdiv","name:li":"Plovdiv","name:lt":"Plovdivas","name:lv":"Plovdiva","name:mg":"Plôvdiv","name:ml":"പ്ലോവ്ഡിവ്","name:mr":"प्लॉव्हडिव्ह","name:ms":"Plovdiv","name:mt":"Plovdiv","name:nb":"Plovdiv","name:nl":"Plovdiv","name:nn":"Plovdiv","name:no":"Plovdiv","name:pl":"Płowdiw","name:pt":"Plovdiv","name:ro":"Plovdiv","name:ru":"Пловдив","name:sk":"Plovdiv","name:sl":"Plovdiv","name:sr":"Пловдив","name:sv":"Plovdiv","name:th":"พลอฟดิฟ","name:tk":"Plowdiw","name:tl":"Plovdiv","name:tr":"Filibe","name:uk":"Пловдив","name:ur":"پلوودیف","name:uz":"Plovdiv","name:vi":"Plovdiv","name:vo":"Plovdiv","name:yi":"פלאוודיוו","name:zh":"普羅夫迪夫","int_name":"Plovdiv","name:ast":"Plovdiv","alt_name:el":"Πλόβντιβ","name:zh-Hans":"普罗夫迪夫","name:zh-Hant":"普羅夫迪夫"},"display_name":"Пловдив, 4000, България","address":{"city":"Пловдив","state_district":"Пловдив","state":"Пловдив","ISO3166-2-lvl4":"BG-16","postcode":"4000","country":"България","country_code":"bg"},"population":368983,"osm_type":"node","osm_id":1698668366,"type":"city","location":[24.7499297,42.1418541],"bbox":[24.5899297,41.9818541,24.9099297,42.3018541]}
{"name":"Разград","other_names":{"name:de":"Rasgrad","name:el":"Ράζγκραντ","name:en":"Razgrad","name:et":"Razgrad","name:eu":"Razgrad","name:fr":"Razgrad","name:hr":"Razgrad","name:ml":"റാസ്ഗ്രാഡ്","name:nl":"Razgrad","name:pl":"Razgrad","name:ro":"Razgrad","name:ru":"Разград","name:sr":"Разград","name:tr":"Razgrad","int_name":"Razgrad"},"display_name":"Разград, България","address":{"city":"Разград","state_district":"Разград","state":"Разград","ISO3166-2-lvl4":"BG-17","country":"България","country_code":"bg"},"population":35049,"osm_type":"node","osm_id":31058185,"type":"city","location":[26.5230603,43.5258211],"bbox":[26.3630603,43.3658211,26.6830603,43.6858211],"border":{"name":"Разград","other_names":{"name:bg":"Разград","name:en":"Razgrad","name:de":"Rasgrad","name:el":"Ράζγκραντ","name:et":"Razgrad","name:eu":"Razgrad","name:fr":"Razgrad","name:hr":"Razgrad","name:ml":"റാസ്ഗ്രാഡ്","name:nl":"Razgrad","name:pl":"Razgrad","name:ro":"Razgrad","name:ru":"Разград","name:sr":"Разград","name:tr":"Razgrad","int_name":"Razgrad"},"display_name":"Разград, България","address":{"city":"Разград","state_district":"Разград","state":"Разград","ISO3166-2-lvl4":"BG-17","country":"България","country_code":"bg"},"population":35049,"osm_type":"relation","osm_id":12999667,"type":"administrative","location":[26.5230603,43.5258211],"bbox":[26.4499083,43.4452796,26.5903022,43.6078508]}}
{"name":"Русе","other_names":{"name:bg":"Русе","name:de":"Russe","name:el":"Ρούσε","name:en":"Ruse","name:et":"Ruse","name:fr":"Roussé","name:hr":"Ruse","name:hu":"Rusze","name:la":"Sexantaprista","name:lt":"Rusė","name:ml":"റൂസെ","name:nl":"Roese","name:pl":"Ruse","name:pt":"Ruse","name:ro":"Ruse","name:ru":"Русе","name:sr":"Русе","name:tr":"Rusçuk","name:uk":"Русе","name:zh":"鲁塞","int_name":"Ruse","old_name":"Русчук","alt_name:en":"Rousse","alt_name:la":"Prista","old_name:ro":"Rusciuc"},"display_name":"Русе, България","address":{"city":"Русе","state_district":"Русе","state":"Русе","ISO3166-2-lvl4":"BG-18","country":"България","country_code":"bg"},"population":159798,"osm_type":"node","osm_id":174639032,"type":"city","location":[25.9542057,43.8480413],"bbox":[25.7942057,43.6880413,26.1142057,44.0080413],"border":[{"name":"Русе","other_names":{"name:bg":"Русе","name:el":"Ρούσε","name:en":"Ruse","name:fr":"Roussé","name:hu":"Rusze","name:ro":"Ruse","name:zh":"鲁塞"},"display_name":"Русе, България","address":{"city":"Русе","state_district":"Русе","state":"Русе","ISO3166-2-lvl4":"BG-18","country":"България","country_code":"bg"},"population":159798,"osm_type":"relation","osm_id":11240822,"type":"city","location":[25.95799152318159,43.8350657],"bbox":[25.9052856,43.7798886,26.0672878,43.8902435]},{"name":"Русе","other_names":{"name:bg":"Русе","name:en":"Ruse","name:de":"Russe","name:el":"Ρούσε","name:et":"Ruse","name:fr":"Roussé","name:hr":"Ruse","name:hu":"Rusze","name:la":"Sexantaprista","name:lt":"Rusė","name:ml":"റൂസെ","name:nl":"Roese","name:pl":"Ruse","name:pt":"Ruse","name:ro":"Ruse","name:ru":"Русе","name:sr":"Русе","name:tr":"Rusçuk","name:uk":"Русе","name:zh":"鲁塞","int_name":"Ruse","old_name":"Русчук","alt_name:en":"Rousse","alt_name:la":"Prista","old_name:ro":"Rusciuc"},"display_name":"Русе, България","address":{"city":"Русе","state_district":"Русе","state":"Русе","ISO3166-2-lvl4":"BG-18","country":"България","country_code":"bg"},"population":159798,"osm_type":"relation","osm_id":12629299,"type":"administrative","location":[25.9542057,43.8480413],"bbox":[25.8619812,43.7419965,26.0824089,43.9010193]}]}
{"name":"Силистра","other_names":{"name:be":"Сілістра","name:de":"Silistra","name:el":"Σιλίστρα","name:en":"Silistra","name:es":"Silistra","name:et":"Silistra","name:fr":"Silistra","name:la":"Silistria","name:lt":"Silistra","name:ml":"സിലിസ്ട്ര","name:nl":"Silistra","name:pl":"Silistra","name:ro":"Silistra","name:ru":"Силистра","name:sr":"Силистра","name:tr":"Silistire","name:uk":"Сілістра","int_name":"Silistra","old_name":"Дръстър","old_name:bg":"Дръстър","old_name:el":"Δορύστολον","old_name:la":"Durostorum","old_name:uk":"Доростол"},"display_name":"Силистра, България","address":{"city":"Силистра","state_district":"Силистра","state":"Силистра","ISO3166-2-lvl4":"BG-19","country":"България","country_code":"bg"},"population":37923,"osm_type":"node","osm_id":31058188,"type":"city","location":[27.2600031,44.118308],"bbox":[27.1000031,43.958308,27.4200031,44.278308],"border":{"name":"Силистра","other_names":{"name:bg":"Силистра","name:en":"Silistra","name:be":"Сілістра","name:de":"Silistra","name:el":"Σιλίστρα","name:es":"Silistra","name:et":"Silistra","name:fr":"Silistra","name:la":"Silistria","name:lt":"Silistra","name:ml":"സിലിസ്ട്ര","name:nl":"Silistra","name:pl":"Silistra","name:ro":"Silistra","name:ru":"Силистра","name:sr":"Силистра","name:tr":"Silistire","name:uk":"Сілістра","int_name":"Silistra","old_name":"Дръстър","old_name:bg":"Дръстър","old_name:el":"Δορύστολον","old_name:la":"Durostorum","old_name:uk":"Доростол"},"display_name":"Силистра, България","address":{"city":"Силистра","state_district":"Силистра","state":"Силистра","ISO3166-2-lvl4":"BG-19","country":"България","country_code":"bg"},"population":37923,"osm_type":"relation","osm_id":13431110,"type":"administrative","location":[27.2600031,44.118308],"bbox":[27.1977001,44.0538238,27.3333455,44.1281524]}}
{"name":"Сливен","other_names":{"name:bg":"Сливен","name:de":"Sliwen","name:el":"Σλίβεν","name:en":"Sliven","name:et":"Sliven","name:eu":"Sliven","name:fr":"Sliven","name:hr":"Svilen","name:hu":"Szliven","name:lb":"Sliwen","name:ml":"സ്ലിവെൻ","name:nl":"Sliven","name:pl":"Sliwen","name:ro":"Sliven","name:ru":"Сливен","name:sr":"Сливен","name:tr":"İslimiye","int_name":"Sliven","name:sr-Latn":"Sliven"},"display_name":"Сливен, 8801, България","address":{"city":"Сливен","state_district":"Сливен","state":"Сливен","ISO3166-2-lvl4":"BG-20","postcode":"8801","country":"България","country_code":"bg"},"population":95806,"osm_type":"node","osm_id":31058189,"type":"city","location":[26.3153528,42.6817633],"bbox":[26.1553528,42.5217633,26.4753528,42.8417633]}
{"name":"Смолян","other_names":{"name:bg":"Смолян","name:de":"Smoljan","name:el":"Σμόλιαν","name:en":"Smolyan","name:et":"Smoljan","name:fr":"Smolyan","name:hr":"Smoljan","name:hu":"Szmoljan","name:lt":"Smolianas","name:mk":"Смољан","name:ml":"സ്മോല്യാൻ","name:nl":"Smoljan","name:pl":"Smolan","name:pt":"Smolyan","name:ro":"Smolian","name:ru":"Смолян","name:sr":"Смољан","name:tr":"Paşmaklı","int_name":"Smolyan","old_name":"Paşmaklı"},"display_name":"Смолян, 4700, България","address":{"city":"Смолян","state_district":"Смолян","state":"Смолян","ISO3166-2-lvl4":"BG-21","postcode":"4700","country":"България","country_code":"bg"},"population":30507,"osm_type":"node","osm_id":31058190,"type":"city","location":[24.7010351,41.5768238],"bbox":[24.5410351,41.4168238,24.8610351,41.7368238]}
{"name":"София","other_names":{"name:af":"Sofia","name:am":"ሶፊያ","name:an":"Sofiya","name:ar":"صوفيا","name:av":"Супия","name:az":"Sofiya","name:be":"Сафія","name:bg":"София","name:bn":"সফিয়া","name:bo":"སོ་ཧྥི་ཡ།","name:br":"Sofia","name:bs":"Sofija","name:ca":"Sofia","name:ce":"Софи","name:co":"Sofia","name:cs":"Sofie","name:cu":"Софїꙗ","name:cv":"Софи","name:cy":"Sofia","name:da":"Sofia","name:de":"Sofia","name:el":"Σόφια","name:en":"Sofia","name:eo":"Sofio","name:es":"Sofía","name:et":"Sofia","name:eu":"Sofia","name:fa":"صوفیه","name:ff":"Sofia","name:fi":"Sofia","name:fo":"Sofia","name:fr":"Sofia","name:fy":"Sofia","name:ga":"Sóifia","name:gd":"Sofia","name:gl":"Sofía","name:gv":"Sofia","name:ha":"Sofiya","name:he":"סופיה","name:hi":"सोफिया","name:hr":"Sofija","name:ht":"Sofia","name:hu":"Szófia","name:hy":"Սոֆիա","name:ia":"Sofia","name:id":"Sofia","name:ie":"Sofia","name:io":"Sofiya","name:is":"Sófía","name:it":"Sofia","name:ja":"ソフィア","name:jv":"Sofia","name:ka":"სოფია","name:kk":"София","name:kn":"ಸೋಫಿಯಾ","name:ko":"소피아","name:ku":"Sofya","name:kv":"София","name:kw":"Sofia","name:ky":"София","name:la":"Serdica","name:lb":"Sofia","name:li":"Sofia","name:ln":"Sofia","name:lt":"Sofija","name:lv":"Sofija","name:mg":"Sofia","name:mi":"Sofia","name:mk":"Софија","name:ml":"സോഫിയ","name:mn":"Софи","name:mr":"सोफिया","name:ms":"Sofia","name:mt":"Sofija","name:nb":"Sofia","name:nl":"Sofia","name:nn":"Sofia","name:no":"Sofia","name:oc":"Sòfia","name:os":"София","name:pa":"ਸੋਫ਼ੀਆ","name:pl":"Sofia","name:pt":"Sófia","name:qu":"Sofiya","name:rm":"Sofia","name:ro":"Sofia","name:ru":"София","name:rw":"Sofiya","name:sc":"Sofia","name:sd":"سوفيا","name:se":"Sofia","name:sh":"Sofija","name:sk":"Sofia","name:sl":"Sofija","name:sm":"Sofia","name:sn":"Sofia","name:so":"Sofiya","name:sq":"Sofja","name:sr":"Софија","name:sv":"Sofia","name:sw":"Sofia","name:ta":"சோஃவியா","name:tg":"София","name:th":"โซเฟีย","name:tk":"Sofiýa","name:tl":"Sofia","name:tr":"Sofya","name:tt":"Sofiä","name:tw":"Sofia","name:ug":"سوفىيە","name:uk":"Софія","name:ur":"صوفیہ","name:uz":"Sofiya","name:vi":"Sofia","name:vo":"Sofiya","name:wo":"Sofiya","name:yi":"סאפיע","name:yo":"Sofia","name:zh":"索菲亞","int_name":"Sofia","name:arz":"صوفيا","name:ast":"Sofía","name:ckb":"سۆفیا","name:crh":"Sofiya","name:diq":"Sofya","name:dsb":"Sofija","name:gag":"Sofiya","name:hsb":"Sofija","name:kaa":"Sofiya","name:kab":"Sofia","name:lez":"София","name:lij":"Sòfia","name:mhr":"Софий","name:myv":"София","name:nah":"Sofiya","name:pms":"Sòfia","name:pnb":"صوفیہ","name:rmy":"Sofiya","name:sah":"София","name:udm":"София","name:vep":"Sofii","old_name":"Сердика","ISO3166-2":"BG-23","alt_name:gl":"София","name:bat-smg":"Suofėjė","name:zh-Hans":"索非亚","name:zh-Hant":"索非亞","name:be-tarask":"Сафія"},"display_name":"София, Средец, Столична, София-град, 1000, България","address":{"city":"София","ISO3166-2-lvl2":"BG-23","county":"Средец","state_district":"Столична","state":"София-град","ISO3166-2-lvl4":"BG-22","postcode":"1000","country":"България","country_code":"bg"},"population":1286383,"osm_type":"node","osm_id":1700083447,"type":"city","location":[23.3217359,42.6977028],"bbox":[23.1617359,42.5377028,23.4817359,42.8577028],"border":{"name":"София","other_names":{"name:bg":"София","name:ca":"Sofia","int_name":"Sofia","name:af":"Sofia","name:am":"ሶፊያ","name:an":"Sofiya","name:ar":"صوفيا","name:av":"Супия","name:az":"Sofiya","name:be":"Сафія","name:bn":"সফিয়া","name:bo":"སོ་ཧྥི་ཡ།","name:br":"Sofia","name:bs":"Sofija","name:ce":"Софи","name:co":"Sofia","name:cs":"Sofie","name:cu":"Софїꙗ","name:cv":"Софи","name:cy":"Sofia","name:da":"Sofia","name:de":"Sofia","name:el":"Σόφια","name:en":"Sofia","name:eo":"Sofio","name:es":"Sofía","name:et":"Sofia","name:eu":"Sofia","name:fa":"صوفیه","name:ff":"Sofia","name:fi":"Sofia","name:fo":"Sofia","name:fr":"Sofia","name:fy":"Sofia","name:ga":"Sóifia","name:gd":"Sofia","name:gl":"Sofía","name:gv":"Sofia","name:ha":"Sofiya","name:he":"סופיה","name:hi":"सोफिया","name:hr":"Sofija","name:ht":"Sofia","name:hu":"Szófia","name:hy":"Սոֆիա","name:ia":"Sofia","name:id":"Sofia","name:ie":"Sofia","name:io":"Sofiya","name:is":"Sófía","name:it":"Sofia","name:ja":"ソフィア","name:jv":"Sofia","name:ka":"სოფია","name:kk":"София","name:kn":"ಸೋಫಿಯಾ","name:ko":"소피아","name:ku":"Sofya","name:kv":"София","name:kw":"Sofia","name:ky":"София","name:la":"Serdica","name:lb":"Sofia","name:li":"Sofia","name:ln":"Sofia","name:lt":"Sofija","name:lv":"Sofija","name:mg":"Sofia","name:mi":"Sofia","name:mk":"Софија","name:ml":"സോഫിയ","name:mn":"Софи","name:mr":"सोफिया","name:ms":"Sofia","name:mt":"Sofija","name:nb":"Sofia","name:nl":"Sofia","name:nn":"Sofia","name:no":"Sofia","name:oc":"Sòfia","name:os":"София","name:pa":"ਸੋਫ਼ੀਆ","name:pl":"Sofia","name:pt":"Sófia","name:qu":"Sofiya","name:rm":"Sofia","name:ro":"Sofia","name:ru":"София","name:rw":"Sofiya","name:sc":"Sofia","name:sd":"سوفيا","name:se":"Sofia","name:sh":"Sofija","name:sk":"Sofia","name:sl":"Sofija","name:sm":"Sofia","name:sn":"Sofia","name:so":"Sofiya","name:sq":"Sofja","name:sr":"Софија","name:sv":"Sofia","name:sw":"Sofia","name:ta":"சோஃவியா","name:tg":"София","name:th":"โซเฟีย","name:tk":"Sofiýa","name:tl":"Sofia","name:tr":"Sofya","name:tt":"Sofiä","name:tw":"Sofia","name:ug":"سوفىيە","name:uk":"Софія","name:ur":"صوفیہ","name:uz":"Sofiya","name:vi":"Sofia","name:vo":"Sofiya","name:wo":"Sofiya","name:yi":"סאפיע","name:yo":"Sofia","name:zh":"索菲亞","name:arz":"صوفيا","name:ast":"Sofía","name:ckb":"سۆفیا","name:crh":"Sofiya","name:diq":"Sofya","name:dsb":"Sofija","name:gag":"Sofiya","name:hsb":"Sofija","name:kaa":"Sofiya","name:kab":"Sofia","name:lez":"София","name:lij":"Sòfia","name:mhr":"Софий","name:myv":"София","name:nah":"Sofiya","name:pms":"Sòfia","name:pnb":"صوفیہ","name:rmy":"Sofiya","name:sah":"София","name:udm":"София","name:vep":"Sofii","old_name":"Сердика","ISO3166-2":"BG-23","alt_name:gl":"София","name:bat-smg":"Suofėjė","name:zh-Hans":"索非亚","name:zh-Hant":"索非亞","name:be-tarask":"Сафія"},"display_name":"София, Средец, Столична, София-град, България","address":{"city":"София","ISO3166-2-lvl8":"BG-23","county":"Средец","state_district":"Столична","state":"София-град","ISO3166-2-lvl4":"BG-22","country":"България","country_code":"bg"},"population":1286383,"osm_type":"relation","osm_id":4283101,"type":"administrative","location":[23.3217359,42.6977028],"bbox":[23.167997,42.5579851,23.6215817,42.864302]}}
{"name":"Стара Загора","other_names":{"name:bg":"Стара Загора","name:de":"Stara Sagora","name:el":"Στάρα Ζαγόρα","name:en":"Stara Zagora","name:et":"Stara Zagora","name:fr":"Stara Zagora","name:hr":"Stara Zagora","name:ml":"സ്റ്റാറ സഗോറ","name:nl":"Stara Zagora","name:ro":"Stara Zagora","name:ru":"Стара-Загора","name:sk":"Stará Zagora","name:sr":"Стара Загора","name:tr":"Eski Zağra","int_name":"Stara Zagora","name:grc":"Βερόη"},"display_name":"Стара Загора, 6000, България","address":{"city":"Стара Загора","state_district":"Стара Загора","state":"Стара Загора","ISO3166-2-lvl4":"BG-24","postcode":"6000","country":"България","country_code":"bg"},"population":149266,"osm_type":"node","osm_id":836529193,"type":"city","location":[25.6257479,42.4248111],"bbox":[25.4657479,42.2648111,25.7857479,42.5848111]}
{"name":"Стрежерово","other_names":{"name:bg":"Стрежерово","name:en":"Strezherovo"},"display_name":"Стрежерово, Левски, Плевен, България","address":{"city":"Стрежерово","state_district":"Левски","state":"Плевен","ISO3166-2-lvl4":"BG-15","country":"България","country_code":"bg"},"osm_type":"relation","osm_id":18536594,"type":"administrative","location":[25.14589826034044,43.490736150000004],"bbox":[25.0983025,43.452002,25.2097991,43.5297218],"inferred_type":"city"}
{"name":"Търговище","other_names":{"name:bs":"Trgovište","name:de":"Targowischte","name:el":"Ταργκόβιστε","name:en":"Targovishte","name:et":"Tǎrgovište","name:eu":"Targovixte","name:fr":"Targovichte","name:hr":"Trgovište","name:mk":"Трговиште","name:nl":"Targovisjte","name:pl":"Tyrgowiszte","name:pt":"Turgovishte","name:ro":"Târgoviște","name:ru":"Тырговиште","name:sr":"Трговиште","name:tr":"Eski Cuma","int_name":"Targovishte","old_name":"Eski Cuma"},"display_name":"Търговище, България","address":{"city":"Търговище","state_district":"Търговище","state":"Търговище","ISO3166-2-lvl4":"BG-25","country":"България","country_code":"bg"},"population":39578,"osm_type":"node","osm_id":31058192,"type":"city","location":[26.5727944,43.251196],"bbox":[26.4127944,43.091196,26.7327944,43.411196],"border":{"name":"Търговище","other_names":{"name:bg":"Търговище","name:en":"Targovishte","name:bs":"Trgovište","name:de":"Targowischte","name:el":"Ταργκόβιστε","name:et":"Tǎrgovište","name:eu":"Targovixte","name:fr":"Targovichte","name:hr":"Trgovište","name:mk":"Трговиште","name:nl":"Targovisjte","name:pl":"Tyrgowiszte","name:pt":"Turgovishte","name:ro":"Târgoviște","name:ru":"Тырговиште","name:sr":"Трговиште","name:tr":"Eski Cuma","int_name":"Targovishte","old_name":"Eski Cuma"},"display_name":"Търговище, България","address":{"city":"Търговище","state_district":"Търговище","state":"Търговище","ISO3166-2-lvl4":"BG-25","country":"България","country_code":"bg"},"population":39578,"osm_type":"relation","osm_id":13265756,"type":"administrative","location":[26.5727944,43.251196],"bbox":[26.4816567,43.1845676,26.6497037,43.3053623]}}
{"name":"Хасково","other_names":{"name:bg":"Хасково","name:ca":"Khàskovo","name:cs":"Chaskovo","name:de":"Chaskowo","name:el":"Χάσκοβο","name:en":"Haskovo","name:eo":"Ĥaskovo","name:et":"Haskovo","name:fr":"Khaskovo","name:hr":"Haskovo","name:lt":"Chaskovas","name:ml":"ഹസ്കോവോ","name:nl":"Chaskovo","name:pl":"Chaskowo","name:pt":"Haskovo","name:ro":"Haskovo","name:ru":"Хасково","name:sk":"Chaskovo","name:sr":"Хасково","name:sv":"Chaskovo","name:tr":"Hasköy","int_name":"Haskovo","name:sr-Latn":"Haskovo"},"display_name":"Хасково, 6300, България","address":{"city":"Хасково","state_district":"Хасково","state":"Хасково","ISO3166-2-lvl4":"BG-26","postcode":"6300","country":"България","country_code":"bg"},"population":76587,"osm_type":"node","osm_id":31058175,"type":"city","location":[25.5556639,41.9345727],"bbox":[25.3956639,41.7745727,25.7156639,42.0945727],"border":{"name":"Хасково","other_names":{"name:bg":"Хасково","name:ca":"Khàskovo","name:cs":"Chaskovo","name:de":"Chaskowo","name:el":"Χάσκοβο","name:en":"Haskovo","name:eo":"Ĥaskovo","name:et":"Haskovo","name:fr":"Khaskovo","name:hr":"Haskovo","name:lt":"Chaskovas","name:ml":"ഹസ്കോവോ","name:nl":"Chaskovo","name:pl":"Chaskowo","name:pt":"Haskovo","name:ro":"Haskovo","name:ru":"Хасково","name:sk":"Chaskovo","name:sr":"Хасково","name:sv":"Chaskovo","name:tr":"Hasköy","int_name":"Haskovo","name:sr-Latn":"Haskovo"},"display_name":"Хасково, България","address":{"city":"Хасково","state_district":"Хасково","state":"Хасково","ISO3166-2-lvl4":"BG-26","country":"България","country_code":"bg"},"population":76587,"osm_type":"relation","osm_id":11002776,"type":"city","location":[25.5556639,41.9345727],"bbox":[25.4942584,41.9160924,25.6063349,41.950748]}}
{"name":"Шумен","other_names":{"name:bg":"Шумен","name:da":"Sjumen","name:de":"Schumen","name:el":"Σούμεν","name:en":"Shumen","name:eo":"Ŝumen","name:et":"Šumen","name:eu":"Xumen","name:fr":"Choumen","name:lt":"Šumenas","name:ml":"ഷുമെൻ","name:nl":"Sjoemen","name:pl":"Szumen","name:ro":"Șumen","name:ru":"Шумен","name:sr":"Шумен","name:sv":"Sjumen","name:tr":"Şumnu","int_name":"Shumen","old_name:de":"Schumla","name:sr-Latn":"Šumen","old_name:bg:1950-1965":"Коларовград"},"display_name":"Шумен, България","address":{"city":"Шумен","state_district":"Шумен","state":"Шумен","ISO3166-2-lvl4":"BG-27","country":"България","country_code":"bg"},"population":85504,"osm_type":"node","osm_id":276708567,"type":"city","location":[26.9247362,43.2703797],"bbox":[26.7647362,43.1103797,27.0847362,43.4303797],"border":{"name":"Шумен","other_names":{"name:bg":"Шумен","name:en":"Shumen","name:da":"Sjumen","name:de":"Schumen","name:el":"Σούμεν","name:eo":"Ŝumen","name:et":"Šumen","name:eu":"Xumen","name:fr":"Choumen","name:lt":"Šumenas","name:ml":"ഷുമെൻ","name:nl":"Sjoemen","name:pl":"Szumen","name:ro":"Șumen","name:ru":"Шумен","name:sr":"Шумен","name:sv":"Sjumen","name:tr":"Şumnu","int_name":"Shumen","old_name:de":"Schumla","name:sr-Latn":"Šumen","old_name:bg:1950-1965":"Коларовград"},"display_name":"Шумен, България","address":{"city":"Шумен","state_district":"Шумен","state":"Шумен","ISO3166-2-lvl4":"BG-27","country":"България","country_code":"bg"},"population":85504,"osm_type":"relation","osm_id":13476884,"type":"administrative","location":[26.9247362,43.2703797],"bbox":[26.8377804,43.1646611,27.0656048,43.3397835]}}
{"name":"Ямбол","other_names":{"name:bg":"Ямбол","name:de":"Jambol","name:el":"Γιάμπολ","name:en":"Yambol","name:et":"Jambol","name:fr":"Yambol","name:hr":"Jambol","name:hu":"Bolu","name:lt":"Jambolas","name:mk":"Јамбол","name:ml":"യാംബോൾ","name:nl":"Jambol","name:pl":"Jamboł","name:pt":"Yambol","name:ru":"Ямбол","name:sr":"Јамбол","name:tr":"Yanbolu","int_name":"Yambol"},"display_name":"Ямбол, 8600, България","address":{"city":"Ямбол","state_district":"Ямбол","state":"Ямбол","ISO3166-2-lvl4":"BG-28","postcode":"8600","country":"България","country_code":"bg"},"population":76599,"osm_type":"node","osm_id":31058176,"type":"city","location":[26.5105553,42.483935],"bbox":[26.3505553,42.323935,26.6705553,42.643935]}
