{"name":"Adaïlou أدائلو","other_names":{"name:ar":"أدائلو","name:de":"Adaïlou","name:en":"Adailou","name:fa":"ادایلو","name:fr":"Adaylou","name:ru":"Адэйлу","name:ur":"ادایلو"},"display_name":"Adaïlou أدائلو, Randa راندا, Tadjourah تجرة, Djibouti جيبوتي","address":{"village":"Adaïlou أدائلو","county":"Randa راندا","state":"Tadjourah تجرة","ISO3166-2-lvl4":"DJ-TA","country":"Djibouti جيبوتي","country_code":"dj"},"osm_type":"node","osm_id":2525083560,"type":"village","location":[42.7436814,11.9600353],"bbox":[42.7236814,11.9400353,42.7636814,11.9800353]}
{"name":"Adali أدالي","other_names":{"name:ar":"أدالي","name:fr":"Adali"},"display_name":"Adali أدالي, Tadjoura تجرة, Tadjourah تجرة, Djibouti جيبوتي","address":{"village":"Adali أدالي","county":"Tadjoura تجرة","state":"Tadjourah تجرة","ISO3166-2-lvl4":"DJ-TA","country":"Djibouti جيبوتي","country_code":"dj"},"osm_type":"node","osm_id":7658968015,"type":"village","location":[42.6755233,11.6380211],"bbox":[42.6555233,11.6180211,42.6955233,11.6580211]}
{"name":"Adgueno","other_names":{"name:fr":"Adgueno"},"display_name":"Adgueno, Dorra, Tadjourah تجرة, Djibouti جيبوتي","address":{"village":"Adgueno","town":"Dorra","state":"Tadjourah تجرة","ISO3166-2-lvl4":"DJ-TA","country":"Djibouti جيبوتي","country_code":"dj"},"osm_type":"node","osm_id":2540898684,"type":"village","location":[42.4685839,12.5150693],"bbox":[42.4485839,12.4950693,42.4885839,12.5350693]}
{"name":"Adoïla أدئلا","other_names":{"name:ar":"أدئلا","name:en":"Adoyla","name:fr":"Adoïla"},"display_name":"Adoïla أدئلا, Randa راندا, Tadjourah تجرة, Djibouti جيبوتي","address":{"village":"Adoïla أدئلا","county":"Randa راندا","state":"Tadjourah تجرة","ISO3166-2-lvl4":"DJ-TA","country":"Djibouti جيبوتي","country_code":"dj"},"osm_type":"node","osm_id":2525084674,"type":"village","location":[42.6685431,11.9448043],"bbox":[42.6485431,11.9248043,42.6885431,11.9648043]}
{"name":"Afalloïn'af","other_names":{"name:ar":"أفالوئنا","name:fr":"Afalloïna"},"display_name":"Afalloïn'af, Tadjoura تجرة, Tadjourah تجرة, Djibouti جيبوتي","address":{"village":"Afalloïn'af","county":"Tadjoura تجرة","state":"Tadjourah تجرة","ISO3166-2-lvl4":"DJ-TA","country":"Djibouti جيبوتي","country_code":"dj"},"osm_type":"node","osm_id":2541726111,"type":"village","location":[42.749667,11.8298271],"bbox":[42.729667,11.8098271,42.769667,11.8498271]}
{"name":"Akaré","display_name":"Akaré, Dorra, Tadjourah تجرة, Djibouti جيبوتي","address":{"village":"Akaré","town":"Dorra","state":"Tadjourah تجرة","ISO3166-2-lvl4":"DJ-TA","country":"Djibouti جيبوتي","country_code":"dj"},"osm_type":"node","osm_id":4143974989,"type":"village","location":[42.4400087,12.2724588],"bbox":[42.4200087,12.2524588,42.4600087,12.2924588]}
{"name":"Alaili Dadda علايلي دادا","other_names":{"name:ar":"علايلي دادا","name:de":"Alaili Dadda","name:en":"Alaili Dadda`","name:fa":"علایلی دادا","name:fr":"Alaili Dadda","name:hy":"Ալաիլի Դադա","name:it":"Alaili Dadda","name:pl":"Alaili Dadda","name:sv":"Alaili Dadda","name:tr":"Alaili Dadda","name:ur":"علایلی دادا","alt_name":"Alaili Dadda`;Alayli Ḏaḏḏa‘;Alayli Dadda`;Alaïli Ḏaḏḏa‘"},"display_name":"Alaili Dadda علايلي دادا, Obock أبخ, Djibouti جيبوتي","address":{"village":"Alaili Dadda علايلي دادا","county":"Alaili Dadda علايلي دادا","state":"Obock أبخ","ISO3166-2-lvl4":"DJ-OB","country":"Djibouti جيبوتي","country_code":"dj"},"osm_type":"node","osm_id":2527792569,"type":"village","location":[42.900997,12.407854],"bbox":[42.880997,12.387854,42.920997,12.427854],"border":{"name":"Alaili Dadda علايلي دادا","other_names":{"name:ar":"علايلي دادا","name:en":"Alaili Dadda District","name:fr":"Sous-préfecture d'Alaili Dadda"},"display_name":"Alaili Dadda علايلي دادا, Obock أبخ, Djibouti جيبوتي","address":{"county":"Alaili Dadda علايلي دادا","state":"Obock أبخ","ISO3166-2-lvl4":"DJ-OB","country":"Djibouti جيبوتي","country_code":"dj"},"osm_type":"relation","osm_id":3905165,"type":"administrative","location":[42.99394999238551,12.4563241],"bbox":[42.70948,12.19926,43.2566721,12.7135911]}}
{"display_name":"Alaili Dadda علايلي دادا, Obock أبخ, Djibouti جيبوتي","address":{"county":"Alaili Dadda علايلي دادا","state":"Obock أبخ","ISO3166-2-lvl4":"DJ-OB","country":"Djibouti جيبوتي","country_code":"dj"},"osm_type":"way","osm_id":479626779,"type":"village","location":[43.15099203944435,12.649731599999999],"bbox":[43.1499348,12.6483977,43.152382,12.6510538]}
{"name":"Ali Addeh قرية علي أدي","other_names":{"name:ar":"قرية علي أدي","name:en":"Ali Addeh village","name:fr":"Ali Addeh","alt_name":"قرية علي عدي","alt_name:ar":"قرية علي عدي"},"display_name":"Ali Addeh قرية علي أدي, علي عدي, Ali Sabieh علي صبيح, Djibouti جيبوتي","address":{"village":"Ali Addeh قرية علي أدي","town":"علي عدي","state":"Ali Sabieh علي صبيح","ISO3166-2-lvl4":"DJ-AS","country":"Djibouti جيبوتي","country_code":"dj"},"osm_type":"way","osm_id":399994375,"type":"village","location":[42.891143787537644,11.1332115],"bbox":[42.8890987,11.1310647,42.8922229,11.135174],"border":{"name":"علي عدي","other_names":{"name:ar":"علي عدي","name:en":"Ali Adde","name:fr":"Ali Addé","alt_name":"علي أدي","alt_name:ar":"علي أدي","name:de":"Ali Addé","name:fa":"علی ادی","name:ru":"Али-Аддэ","name:ur":"ادی علی","_place_alt_name":"`Ali `Adde;Aliadh;Ali Adda Courant;Ali Adda;Adi Adda;Ali Ada;‘Ali ‘Addé;Ali Addeh","name:azb":"علی ادی","_place_alt_name:ar":"علي أدي;أل أدّ;أد أدّ;أل أد;ألأذ","alt":"Ali Addé"},"display_name":"علي عدي, Ali Sabieh علي صبيح, Djibouti جيبوتي","address":{"town":"علي عدي","state":"Ali Sabieh علي صبيح","ISO3166-2-lvl4":"DJ-AS","country":"Djibouti جيبوتي","country_code":"dj"},"osm_type":"relation","osm_id":10012472,"type":"administrative","location":[42.8896625,11.1299505],"bbox":[42.8774768,11.1202621,42.9012969,11.1385605]}}
{"display_name":"Ali Sabieh علي صبيح, Djibouti جيبوتي","address":{"state":"Ali Sabieh علي صبيح","ISO3166-2-lvl4":"DJ-AS","country":"Djibouti جيبوتي","country_code":"dj"},"osm_type":"node","osm_id":3750680648,"type":"village","location":[42.8457313,11.0527642],"bbox":[42.8257313,11.0327642,42.8657313,11.0727642]}
{"display_name":"Ali Sabieh علي صبيح, Djibouti جيبوتي","address":{"state":"Ali Sabieh علي صبيح","ISO3166-2-lvl4":"DJ-AS","country":"Djibouti جيبوتي","country_code":"dj"},"osm_type":"node","osm_id":3196591594,"type":"village","location":[42.9882512,11.2268459],"bbox":[42.9682512,11.2068459,43.0082512,11.2468459]}
{"name":"Am'issoh af أم إيسو","other_names":{"name:ar":"أم إيسو","name:fr":"Am'issoh af"},"display_name":"Am'issoh af أم إيسو, Randa راندا, Tadjourah تجرة, Djibouti جيبوتي","address":{"village":"Am'issoh af أم إيسو","county":"Randa راندا","state":"Tadjourah تجرة","ISO3166-2-lvl4":"DJ-TA","country":"Djibouti جيبوتي","country_code":"dj"},"osm_type":"node","osm_id":5719346380,"type":"village","location":[42.7072556,11.836743],"bbox":[42.6872556,11.816743,42.7272556,11.856743]}
{"name":"Ambabo أمبابو","other_names":{"name:ar":"أمبابو","name:de":"Ambabo","name:en":"Ambabbo","name:es":"Ambabo","name:fr":"Imbabo","alt_name":"Ambabbo","alt_name:ar":"أمببّو","alt_name:de":"Imbabo","alt_name:es":"Imbabo"},"display_name":"Ambabo أمبابو, Tadjoura تجرة, Tadjourah تجرة, Djibouti جيبوتي","address":{"village":"Ambabo أمبابو","county":"Tadjoura تجرة","state":"Tadjourah تجرة","ISO3166-2-lvl4":"DJ-TA","country":"Djibouti جيبوتي","country_code":"dj"},"osm_type":"node","osm_id":4911691510,"type":"village","location":[42.8248682,11.7667805],"bbox":[42.8048682,11.7467805,42.8448682,11.7867805]}
{"name":"Andaba","other_names":{"name:de":"Andaba","name:es":"Andaba"},"display_name":"Andaba, Dorra, Tadjourah تجرة, Djibouti جيبوتي","address":{"village":"Andaba","town":"Dorra","state":"Tadjourah تجرة","ISO3166-2-lvl4":"DJ-TA","country":"Djibouti جيبوتي","country_code":"dj"},"osm_type":"node","osm_id":2525008104,"type":"village","location":[42.4213492,12.264801],"bbox":[42.4013492,12.244801,42.4413492,12.284801]}
{"name":"Ardo أردو","other_names":{"name:ar":"أردو","name:fr":"Ardo"},"display_name":"Ardo أردو, Randa راندا, Tadjourah تجرة, Djibouti جيبوتي","address":{"village":"Ardo أردو","county":"Randa راندا","state":"Tadjourah تجرة","ISO3166-2-lvl4":"DJ-TA","country":"Djibouti جيبوتي","country_code":"dj"},"osm_type":"node","osm_id":2541711969,"type":"village","location":[42.6854372,11.822613],"bbox":[42.6654372,11.802613,42.7054372,11.842613]}
{"display_name":"Arta عرتا, Djibouti جيبوتي","address":{"state":"Arta عرتا","ISO3166-2-lvl4":"DJ-AR","country":"Djibouti جيبوتي","country_code":"dj"},"osm_type":"node","osm_id":2210951388,"type":"village","location":[42.7620004,11.4217984],"bbox":[42.7420004,11.4017984,42.7820004,11.4417984]}
{"name":"As Dora أس درة","other_names":{"name:ar":"أس درة","name:de":"As Dora","name:en":"As Dora","name:fr":"As Dora"},"display_name":"As Dora أس درة, Randa راندا, Tadjourah تجرة, Djibouti جيبوتي","address":{"village":"As Dora أس درة","county":"Randa راندا","state":"Tadjourah تجرة","ISO3166-2-lvl4":"DJ-TA","country":"Djibouti جيبوتي","country_code":"dj"},"osm_type":"node","osm_id":2527552029,"type":"village","location":[42.5858952,11.9477491],"bbox":[42.5658952,11.9277491,42.6058952,11.9677491]}
{"name":"As Êla ايلى","other_names":{"name:ar":"ايلى","name:de":"As Eyla","name:en":"As Eyla","name:fa":"آس ایلا","name:fr":"As Eyla","name:ru":"Ас-Эла","name:ur":"ايلى","name:zu":"As Eyla","alt_name":"`As `Ela;Ass’èyla;Ass'eyla;Airoli;Assa-ela;‘As ‘Êla","alt_name:ar":"أرول"},"display_name":"As Êla ايلى, As-Eyla ايلى, Dikhil دخيل, Djibouti جيبوتي","address":{"village":"As Êla ايلى","county":"As-Eyla ايلى","state":"Dikhil دخيل","ISO3166-2-lvl4":"DJ-DI","country":"Djibouti جيبوتي","country_code":"dj"},"osm_type":"node","osm_id":2199539115,"type":"village","location":[42.1039683,11.0065367],"bbox":[42.0839683,10.9865367,42.1239683,11.0265367],"border":{"name":"As-Eyla ايلى","other_names":{"name:ar":"ايلى","name:fr":"Sous-préfecture d'As-Eyla"},"display_name":"As-Eyla ايلى, Dikhil دخيل, Djibouti جيبوتي","address":{"county":"As-Eyla ايلى","state":"Dikhil دخيل","ISO3166-2-lvl4":"DJ-DI","country":"Djibouti جيبوتي","country_code":"dj"},"osm_type":"relation","osm_id":3905166,"type":"administrative","location":[42.06375877224039,11.084453400000001],"bbox":[41.7938823,10.9149547,42.3327787,11.27918]}}
{"name":"As-Eyla","display_name":"As-Eyla, As-Eyla ايلى, Dikhil دخيل, Djibouti جيبوتي","address":{"village":"As-Eyla","county":"As-Eyla ايلى","state":"Dikhil دخيل","ISO3166-2-lvl4":"DJ-DI","country":"Djibouti جيبوتي","country_code":"dj"},"osm_type":"way","osm_id":664685224,"type":"village","location":[42.105067906246354,11.006903650000002],"bbox":[42.098279,11.0013285,42.1140772,11.0127657]}
{"name":"Assa-Gueyla أسا غايلا","other_names":{"name:ar":"أسا غايلا","name:fr":"Assa-Gueyla"},"display_name":"Assa-Gueyla أسا غايلا, Randa راندا, Tadjourah تجرة, Djibouti جيبوتي","address":{"village":"Assa-Gueyla أسا غايلا","county":"Randa راندا","state":"Tadjourah تجرة","ISO3166-2-lvl4":"DJ-TA","country":"Djibouti جيبوتي","country_code":"dj"},"osm_type":"node","osm_id":2527560590,"type":"village","location":[42.6385604,12.1940532],"bbox":[42.6185604,12.1740532,42.6585604,12.2140532]}
{"name":"Assamo أسامو","other_names":{"name:ar":"أسامو","name:fr":"Assamo","alt_name":"`Asamo;Vasama;Ina ‘Assamo;Ina `Assamo;‘Asâmo","alt_name:ar":"إن عسّمو"},"display_name":"Assamo أسامو, Ali Sabieh علي صبيح, Djibouti جيبوتي","address":{"village":"Assamo أسامو","state":"Ali Sabieh علي صبيح","ISO3166-2-lvl4":"DJ-AS","country":"Djibouti جيبوتي","country_code":"dj"},"osm_type":"node","osm_id":2541047577,"type":"village","location":[42.834799,10.983323],"bbox":[42.814799,10.963323,42.854799,11.003323]}
{"name":"Assassan","other_names":{"name:fr":"Assassan"},"display_name":"Assassan, Région d'Obock إقليم أبخ, Obock أبخ, Djibouti جيبوتي","address":{"village":"Assassan","county":"Région d'Obock إقليم أبخ","state":"Obock أبخ","ISO3166-2-lvl4":"DJ-OB","country":"Djibouti جيبوتي","country_code":"dj"},"osm_type":"node","osm_id":11270510060,"type":"village","location":[43.1578151,12.1123797],"bbox":[43.1378151,12.0923797,43.1778151,12.1323797]}
{"name":"Bankoualé بانكوالي","other_names":{"name:ar":"بانكوالي","name:en":"Bankouale","name:fr":"Bankoualé","alt_name":"Bankouale;Bankouwâle;Bankouwale;Bankoualé"},"display_name":"Bankoualé بانكوالي, Randa راندا, Tadjourah تجرة, Djibouti جيبوتي","address":{"village":"Bankoualé بانكوالي","county":"Randa راندا","state":"Tadjourah تجرة","ISO3166-2-lvl4":"DJ-TA","country":"Djibouti جيبوتي","country_code":"dj"},"osm_type":"node","osm_id":2541708266,"type":"village","location":[42.6743525,11.8230963],"bbox":[42.6543525,11.8030963,42.6943525,11.8430963]}
{"name":"Bissidito بسيديتو","other_names":{"name:ar":"بسيديتو","name:fr":"Bissidito"},"display_name":"Bissidito بسيديتو, Alaili Dadda علايلي دادا, Obock أبخ, Djibouti جيبوتي","address":{"village":"Bissidito بسيديتو","county":"Alaili Dadda علايلي دادا","state":"Obock أبخ","ISO3166-2-lvl4":"DJ-OB","country":"Djibouti جيبوتي","country_code":"dj"},"osm_type":"node","osm_id":2534716941,"type":"village","location":[42.998745,12.6418517],"bbox":[42.978745,12.6218517,43.018745,12.6618517]}
{"name":"Bondara بندارة","other_names":{"name:ar":"بندارة","name:fr":"Bondara"},"display_name":"Bondara بندارة, Dikhil دخيل, Djibouti جيبوتي","address":{"village":"Bondara بندارة","county":"Dikhil دخيل","state":"Dikhil دخيل","ISO3166-2-lvl4":"DJ-DI","country":"Djibouti جيبوتي","country_code":"dj"},"osm_type":"node","osm_id":7508482237,"type":"village","location":[42.3369628,11.018893],"bbox":[42.3169628,10.998893,42.3569628,11.038893]}
{"name":"Boubâ","display_name":"Boubâ, Tadjourah تجرة, Djibouti جيبوتي","address":{"village":"Boubâ","state":"Tadjourah تجرة","ISO3166-2-lvl4":"DJ-TA","country":"Djibouti جيبوتي","country_code":"dj"},"osm_type":"way","osm_id":821644295,"type":"village","location":[42.40890126617739,12.3009629],"bbox":[42.4078651,12.3000103,42.4100135,12.3021723]}
{"name":"Boudouni","display_name":"Boudouni, Randa راندا, Tadjourah تجرة, Djibouti جيبوتي","address":{"village":"Boudouni","county":"Randa راندا","state":"Tadjourah تجرة","ISO3166-2-lvl4":"DJ-TA","country":"Djibouti جيبوتي","country_code":"dj"},"osm_type":"node","osm_id":2537725520,"type":"village","location":[42.7897721,12.1525349],"bbox":[42.7697721,12.1325349,42.8097721,12.1725349]}
{"name":"Chebele شابلي","other_names":{"name:ar":"شابلي","name:en":"Shabili","name:fr":"Chebele"},"display_name":"Chebele شابلي, Arta عرتا, Djibouti جيبوتي","address":{"village":"Chebele شابلي","state":"Arta عرتا","ISO3166-2-lvl4":"DJ-AR","country":"Djibouti جيبوتي","country_code":"dj"},"osm_type":"node","osm_id":831076771,"type":"village","location":[43.0750889,11.4902983],"bbox":[43.0550889,11.4702983,43.0950889,11.5102983]}
{"name":"Daasbiyo دعسبيو","other_names":{"name:ar":"دعسبيو","name:fr":"Daasbiyo"},"display_name":"Daasbiyo دعسبيو, Ali Sabieh علي صبيح, Djibouti جيبوتي","address":{"village":"Daasbiyo دعسبيو","state":"Ali Sabieh علي صبيح","ISO3166-2-lvl4":"DJ-AS","country":"Djibouti جيبوتي","country_code":"dj"},"osm_type":"node","osm_id":832062797,"type":"village","location":[42.7999121,11.2531667],"bbox":[42.7799121,11.2331667,42.8199121,11.2731667]}
{"name":"Dabadoba","display_name":"Dabadoba, Dorra, Tadjourah تجرة, Djibouti جيبوتي","address":{"village":"Dabadoba","town":"Dorra","state":"Tadjourah تجرة","ISO3166-2-lvl4":"DJ-TA","country":"Djibouti جيبوتي","country_code":"dj"},"population":100,"osm_type":"node","osm_id":4143973666,"type":"village","location":[42.4417429,12.2759966],"bbox":[42.4217429,12.2559966,42.4617429,12.2959966]}
{"name":"Daddato دادتو","other_names":{"name:ar":"دادتو","name:en":"Deda'-etu","name:fr":"Dadatto","alt_name":"Deda'-etu;Dadda’to;Dadda'to;Deda’-etu","alt_name:ar":"ددّأتو"},"display_name":"Daddato دادتو, Alaili Dadda علايلي دادا, Obock أبخ, Djibouti جيبوتي","address":{"village":"Daddato دادتو","county":"Alaili Dadda علايلي دادا","state":"Obock أبخ","ISO3166-2-lvl4":"DJ-OB","country":"Djibouti جيبوتي","country_code":"dj"},"osm_type":"node","osm_id":2527788697,"type":"village","location":[42.7110943,12.375239],"bbox":[42.6910943,12.355239,42.7310943,12.395239]}
{"name":"Dafféinaitou","display_name":"Dafféinaitou, Randa راندا, Tadjourah تجرة, Djibouti جيبوتي","address":{"village":"Dafféinaitou","county":"Randa راندا","state":"Tadjourah تجرة","ISO3166-2-lvl4":"DJ-TA","country":"Djibouti جيبوتي","country_code":"dj"},"osm_type":"node","osm_id":2528906900,"type":"village","location":[42.7687865,12.0353292],"bbox":[42.7487865,12.0153292,42.7887865,12.0553292]}
{"name":"Dagguîrou داغويرو","other_names":{"name:ar":"داغويرو","name:fr":"Dagguîrou"},"display_name":"Dagguîrou داغويرو, Yoboki يوبوكي, Dikhil دخيل, Djibouti جيبوتي","address":{"village":"Dagguîrou داغويرو","state":"Yoboki يوبوكي","ISO3166-2-lvl4":"DJ-DI","country":"Djibouti جيبوتي","country_code":"dj"},"osm_type":"node","osm_id":4911691509,"type":"village","location":[41.9662761,11.61262],"bbox":[41.9462761,11.59262,41.9862761,11.63262]}
{"name":"Daïmoli","other_names":{"name:fr":"Daïmoli"},"display_name":"Daïmoli, Dorra, Tadjourah تجرة, Djibouti جيبوتي","address":{"village":"Daïmoli","town":"Dorra","state":"Tadjourah تجرة","ISO3166-2-lvl4":"DJ-TA","country":"Djibouti جيبوتي","country_code":"dj"},"osm_type":"node","osm_id":2531783852,"type":"village","location":[42.2444799,12.2376182],"bbox":[42.2244799,12.2176182,42.2644799,12.2576182]}
{"name":"Dallayi دلايي","other_names":{"name:ar":"دلايي","name:en":"Dallayi","name:fr":"Dallayi"},"display_name":"Dallayi دلايي, Région d'Obock إقليم أبخ, Obock أبخ, Djibouti جيبوتي","address":{"village":"Dallayi دلايي","county":"Région d'Obock إقليم أبخ","state":"Obock أبخ","ISO3166-2-lvl4":"DJ-OB","country":"Djibouti جيبوتي","country_code":"dj"},"osm_type":"node","osm_id":2525089481,"type":"village","location":[43.1362871,11.9080526],"bbox":[43.1162871,11.8880526,43.1562871,11.9280526]}
{"name":"Damêrdjôg","other_names":{"name:ar":"داميرجوك","name:fr":"Damêrdjôg"},"display_name":"Damêrdjôg, Arta عرتا, Djibouti جيبوتي","address":{"village":"Damêrdjôg","state":"Arta عرتا","ISO3166-2-lvl4":"DJ-AR","country":"Djibouti جيبوتي","country_code":"dj"},"osm_type":"node","osm_id":2197367692,"type":"village","location":[43.187748,11.486269],"bbox":[43.167748,11.466269,43.207748,11.506269]}
{"name":"Dânan دہان","other_names":{"name:fr":"Dânan","name:ur":"دہان","alt_name":"Ḏânan"},"display_name":"Dânan دہان, Ali Sabieh علي صبيح, Djibouti جيبوتي","address":{"village":"Dânan دہان","state":"Ali Sabieh علي صبيح","ISO3166-2-lvl4":"DJ-AS","country":"Djibouti جيبوتي","country_code":"dj"},"osm_type":"node","osm_id":7733100964,"type":"village","location":[42.933333,11.183333],"bbox":[42.913333,11.163333,42.953333,11.203333]}
{"name":"Day دي","other_names":{"name:ar":"دي","name:fr":"Day"},"display_name":"Day دي, Randa راندا, Tadjourah تجرة, Djibouti جيبوتي","address":{"village":"Day دي","county":"Randa راندا","state":"Tadjourah تجرة","ISO3166-2-lvl4":"DJ-TA","country":"Djibouti جيبوتي","country_code":"dj"},"osm_type":"node","osm_id":2164655563,"type":"village","location":[42.6395773,11.7843104],"bbox":[42.6195773,11.7643104,42.6595773,11.8043104]}
{"name":"Daymoli ديملي","other_names":{"name:ar":"ديملي","name:fr":"Daymoli"},"display_name":"Daymoli ديملي, Tadjoura تجرة, Tadjourah تجرة, Djibouti جيبوتي","address":{"village":"Daymoli ديملي","county":"Tadjoura تجرة","state":"Tadjourah تجرة","ISO3166-2-lvl4":"DJ-TA","country":"Djibouti جيبوتي","country_code":"dj"},"osm_type":"node","osm_id":2527994674,"type":"village","location":[42.8987452,11.8662492],"bbox":[42.8787452,11.8462492,42.9187452,11.8862492]}
{"name":"Diyara ديارا","other_names":{"name:ar":"ديارا","name:fr":"Diyara"},"display_name":"Diyara ديارا, Tadjoura تجرة, Tadjourah تجرة, Djibouti جيبوتي","address":{"village":"Diyara ديارا","county":"Tadjoura تجرة","state":"Tadjourah تجرة","ISO3166-2-lvl4":"DJ-TA","country":"Djibouti جيبوتي","country_code":"dj"},"osm_type":"node","osm_id":2542695732,"type":"village","location":[42.6679757,11.7560065],"bbox":[42.6479757,11.7360065,42.6879757,11.7760065]}
{"name":"Dorra","other_names":{"name:ar":"درة","name:de":"Dorra","name:fa":"دره","name:fr":"Dorra","name:kk":"Дорра","name:ru":"Дорра","name:sv":"Dorra","name:ur":"درہ","name:azb":"دره","alt_name:ar":"دورّ"},"display_name":"Dorra, Tadjourah تجرة, Djibouti جيبوتي","address":{"village":"Dorra","state":"Tadjourah تجرة","ISO3166-2-lvl4":"DJ-TA","country":"Djibouti جيبوتي","country_code":"dj"},"osm_type":"way","osm_id":336956227,"type":"village","location":[42.47607977120584,12.150615],"bbox":[42.4746584,12.1472929,42.4779713,12.1533592]}
{"name":"Doudoub Bolole - بلول دودوب","other_names":{"name:ar":"بلول دودوب","name:fr":"Doudoub Bolole"},"display_name":"Doudoub Bolole - بلول دودوب, Ali Sabieh علي صبيح, Djibouti جيبوتي","address":{"village":"Doudoub Bolole - بلول دودوب","state":"Ali Sabieh علي صبيح","ISO3166-2-lvl4":"DJ-AS","country":"Djibouti جيبوتي","country_code":"dj"},"osm_type":"node","osm_id":4911691506,"type":"village","location":[42.6443319,11.2153974],"bbox":[42.6243319,11.1953974,42.6643319,11.2353974]}
{"name":"Dougoum دوغوم","other_names":{"name:ar":"دوغوم","name:fr":"Dougoum"},"display_name":"Dougoum دوغوم, Tadjoura تجرة, Tadjourah تجرة, Djibouti جيبوتي","address":{"village":"Dougoum دوغوم","county":"Tadjoura تجرة","state":"Tadjourah تجرة","ISO3166-2-lvl4":"DJ-TA","country":"Djibouti جيبوتي","country_code":"dj"},"osm_type":"node","osm_id":2527586943,"type":"village","location":[42.7436869,11.7971345],"bbox":[42.7236869,11.7771345,42.7636869,11.8171345]}
{"name":"Egahlou إغالو","other_names":{"name:ar":"إغالو","name:en":"Egahlou","name:fr":"Egahlou"},"display_name":"Egahlou إغالو, Région d'Obock إقليم أبخ, Obock أبخ, Djibouti جيبوتي","address":{"village":"Egahlou إغالو","county":"Région d'Obock إقليم أبخ","state":"Obock أبخ","ISO3166-2-lvl4":"DJ-OB","country":"Djibouti جيبوتي","country_code":"dj"},"osm_type":"node","osm_id":4911691505,"type":"village","location":[42.9375689,12.1232126],"bbox":[42.9175689,12.1032126,42.9575689,12.1432126]}
{"name":"Essalou إسالو","other_names":{"name:ar":"إسالو","name:de":"Essalou","name:en":"Essalou","name:fr":"Essalou"},"display_name":"Essalou إسالو, Randa راندا, Tadjourah تجرة, Djibouti جيبوتي","address":{"village":"Essalou إسالو","county":"Randa راندا","state":"Tadjourah تجرة","ISO3166-2-lvl4":"DJ-TA","country":"Djibouti جيبوتي","country_code":"dj"},"osm_type":"node","osm_id":2527554282,"type":"village","location":[42.6484984,11.9567956],"bbox":[42.6284984,11.9367956,42.6684984,11.9767956]}
{"name":"Fagal فغال","other_names":{"name:ar":"فغال","name:en":"Fagal","name:fr":"Fagal"},"display_name":"Fagal فغال, Région d'Obock إقليم أبخ, Obock أبخ, Djibouti جيبوتي","address":{"village":"Fagal فغال","county":"Région d'Obock إقليم أبخ","state":"Obock أبخ","ISO3166-2-lvl4":"DJ-OB","country":"Djibouti جيبوتي","country_code":"dj"},"osm_type":"node","osm_id":4911691504,"type":"village","location":[43.297632,12.4567819],"bbox":[43.277632,12.4367819,43.317632,12.4767819]}
{"name":"Galafi غالافي","other_names":{"name:ar":"غالافي","name:de":"Galafi","name:en":"Galafi","name:fa":"غالافی","name:fr":"Galafi","name:sv":"Galafi","name:ur":"غالافی","alt_name":"Galafi;Gâlâfi","name:azb":"غالافی"},"display_name":"Galafi غالافي, Yoboki يوبوكي, Dikhil دخيل, Djibouti جيبوتي","address":{"village":"Galafi غالافي","state":"Yoboki يوبوكي","ISO3166-2-lvl4":"DJ-DI","country":"Djibouti جيبوتي","country_code":"dj"},"population":1849,"osm_type":"node","osm_id":2207998523,"type":"village","location":[41.8374144,11.7170364],"bbox":[41.8174144,11.6970364,41.8574144,11.7370364]}
{"name":"Galina","display_name":"Galina, Balho بالها, Tadjourah تجرة, Djibouti جيبوتي","address":{"village":"Galina","county":"Balho بالها","state":"Tadjourah تجرة","ISO3166-2-lvl4":"DJ-TA","country":"Djibouti جيبوتي","country_code":"dj"},"osm_type":"node","osm_id":6842694497,"type":"village","location":[42.5846779,11.6993805],"bbox":[42.5646779,11.6793805,42.6046779,11.7193805]}
{"name":"Garabtisan","other_names":{"name:ar":"غارابتيسان","name:fr":"Garabtisan"},"display_name":"Garabtisan, Balho بالها, Tadjourah تجرة, Djibouti جيبوتي","address":{"village":"Garabtisan","county":"Balho بالها","state":"Tadjourah تجرة","ISO3166-2-lvl4":"DJ-TA","country":"Djibouti جيبوتي","country_code":"dj"},"osm_type":"node","osm_id":4327915070,"type":"village","location":[42.2800642,11.9094284],"bbox":[42.2600642,11.8894284,42.3000642,11.9294284]}
{"name":"Garba Naba غاربا نبا","other_names":{"name:ar":"غاربا نبا","name:fr":"Garba Naba"},"display_name":"Garba Naba غاربا نبا, Tadjoura تجرة, Tadjourah تجرة, Djibouti جيبوتي","address":{"village":"Garba Naba غاربا نبا","county":"Tadjoura تجرة","state":"Tadjourah تجرة","ISO3166-2-lvl4":"DJ-TA","country":"Djibouti جيبوتي","country_code":"dj"},"osm_type":"node","osm_id":2556667882,"type":"village","location":[42.953302,11.9807324],"bbox":[42.933302,11.9607324,42.973302,12.0007324]}
{"name":"Garenlhé غارنلهي","other_names":{"name:ar":"غارنلهي","name:fr":"Garenlhé"},"display_name":"Garenlhé غارنلهي, Randa راندا, Tadjourah تجرة, Djibouti جيبوتي","address":{"village":"Garenlhé غارنلهي","county":"Randa راندا","state":"Tadjourah تجرة","ISO3166-2-lvl4":"DJ-TA","country":"Djibouti جيبوتي","country_code":"dj"},"osm_type":"node","osm_id":2164654516,"type":"village","location":[42.6017417,11.7153173],"bbox":[42.5817417,11.6953173,42.6217417,11.7353173]}
{"name":"Garobâ غاروبا","other_names":{"name:ar":"غاروبا","name:fr":"Garobâ"},"display_name":"Garobâ غاروبا, Dorra, Tadjourah تجرة, Djibouti جيبوتي","address":{"village":"Garobâ غاروبا","town":"Dorra","state":"Tadjourah تجرة","ISO3166-2-lvl4":"DJ-TA","country":"Djibouti جيبوتي","country_code":"dj"},"population":50,"osm_type":"node","osm_id":4143917162,"type":"village","location":[42.4303581,12.3396355],"bbox":[42.4103581,12.3196355,42.4503581,12.3596355]}
{"name":"Godorya قدريا","other_names":{"name:ar":"قدريا","name:fr":"Godorya"},"display_name":"Godorya قدريا, Région d'Obock إقليم أبخ, Obock أبخ, Djibouti جيبوتي","address":{"village":"Godorya قدريا","county":"Région d'Obock إقليم أبخ","state":"Obock أبخ","ISO3166-2-lvl4":"DJ-OB","country":"Djibouti جيبوتي","country_code":"dj"},"osm_type":"node","osm_id":2527702958,"type":"village","location":[43.4116737,12.1534053],"bbox":[43.3916737,12.1334053,43.4316737,12.1734053]}
{"name":"Gour A'Bbous غور آبوس","other_names":{"name:ar":"غور آبوس","name:en":"Gour A'Bbous","name:fr":"Gour A'Bbous","alt_name":"غورابو","alt_name:ar":"غورابو"},"display_name":"Gour A'Bbous غور آبوس, Yoboki يوبوكي, Dikhil دخيل, Djibouti جيبوتي","address":{"village":"Gour A'Bbous غور آبوس","state":"Yoboki يوبوكي","ISO3166-2-lvl4":"DJ-DI","country":"Djibouti جيبوتي","country_code":"dj"},"osm_type":"node","osm_id":1150669030,"type":"village","location":[42.2220402,11.2891803],"bbox":[42.2020402,11.2691803,42.2420402,11.3091803]}
{"name":"Gourgour","display_name":"Gourgour, Randa راندا, Tadjourah تجرة, Djibouti جيبوتي","address":{"village":"Gourgour","county":"Randa راندا","state":"Tadjourah تجرة","ISO3166-2-lvl4":"DJ-TA","country":"Djibouti جيبوتي","country_code":"dj"},"osm_type":"node","osm_id":2537727732,"type":"village","location":[42.7961713,12.0926729],"bbox":[42.7761713,12.0726729,42.8161713,12.1126729]}
{"name":"Guelile","other_names":{"name:ar":"غليل","name:de":"Guelile","name:es":"Guelile","name:fa":"جلیل","name:fr":"Guelile","name:ur":"جلیل","name:arz":"غليل","name:azb":"جلیل"},"display_name":"Guelile, Ali Sabieh علي صبيح, Djibouti جيبوتي","address":{"village":"Guelile","state":"Ali Sabieh علي صبيح","ISO3166-2-lvl4":"DJ-AS","country":"Djibouti جيبوتي","country_code":"dj"},"osm_type":"node","osm_id":2721309173,"type":"village","location":[42.647546,11.092754],"bbox":[42.627546,11.072754,42.667546,11.112754],"border":{"name":"Guelile","other_names":{"name:ar":"غليل","name:de":"Guelile","name:es":"Guelile","name:fa":"جلیل","name:fr":"Guelile","name:ur":"جلیل","name:arz":"غليل","name:azb":"جلیل"},"display_name":"Guelile, Ali Sabieh علي صبيح, Djibouti جيبوتي","address":{"village":"Guelile","state":"Ali Sabieh علي صبيح","ISO3166-2-lvl4":"DJ-AS","country":"Djibouti جيبوتي","country_code":"dj"},"osm_type":"way","osm_id":266599888,"type":"village","location":[42.647546,11.092754],"bbox":[42.6469408,11.0918141,42.6505217,11.0965029]}}
{"name":"Guirrôri","display_name":"Guirrôri, Randa راندا, Tadjourah تجرة, Djibouti جيبوتي","address":{"village":"Guirrôri","county":"Randa راندا","state":"Tadjourah تجرة","ISO3166-2-lvl4":"DJ-TA","country":"Djibouti جيبوتي","country_code":"dj"},"osm_type":"node","osm_id":2537680746,"type":"village","location":[42.7932873,12.0644131],"bbox":[42.7732873,12.0444131,42.8132873,12.0844131]}
{"name":"Haka Tidbido","display_name":"Haka Tidbido, Randa راندا, Tadjourah تجرة, Djibouti جيبوتي","address":{"village":"Haka Tidbido","county":"Randa راندا","state":"Tadjourah تجرة","ISO3166-2-lvl4":"DJ-TA","country":"Djibouti جيبوتي","country_code":"dj"},"osm_type":"node","osm_id":2199192362,"type":"village","location":[42.6497356,12.1222165],"bbox":[42.6297356,12.1022165,42.6697356,12.1422165]}
{"name":"Itki إتكي","other_names":{"name:ar":"إتكي","name:fr":"Itki"},"display_name":"Itki إتكي, Randa راندا, Tadjourah تجرة, Djibouti جيبوتي","address":{"village":"Itki إتكي","county":"Randa راندا","state":"Tadjourah تجرة","ISO3166-2-lvl4":"DJ-TA","country":"Djibouti جيبوتي","country_code":"dj"},"osm_type":"node","osm_id":2538056721,"type":"village","location":[42.6107309,11.7451286],"bbox":[42.5907309,11.7251286,42.6307309,11.7651286]}
{"name":"Kalaf كلف","other_names":{"name:ar":"كلف","name:de":"Kalaf","name:en":"Kalaf","name:es":"Kalaf","name:fr":"Kalaf","alt_name":"كالاف","alt_name:ar":"كالاف"},"display_name":"Kalaf كلف, Tadjoura تجرة, Tadjourah تجرة, Djibouti جيبوتي","address":{"village":"Kalaf كلف","county":"Tadjoura تجرة","state":"Tadjourah تجرة","ISO3166-2-lvl4":"DJ-TA","country":"Djibouti جيبوتي","country_code":"dj"},"osm_type":"node","osm_id":2537547510,"type":"village","location":[42.7909091,11.7588683],"bbox":[42.7709091,11.7388683,42.8109091,11.7788683]}
{"name":"Karta كارتا","other_names":{"name:ar":"كارتا","name:de":"Karta","name:en":"Karta","name:fr":"Karta"},"display_name":"Karta كارتا, Arta عرتا, Djibouti جيبوتي","address":{"village":"Karta كارتا","state":"Arta عرتا","ISO3166-2-lvl4":"DJ-AR","country":"Djibouti جيبوتي","country_code":"dj"},"osm_type":"way","osm_id":209501849,"type":"village","location":[42.55890853889467,11.44994965],"bbox":[42.5558479,11.4487034,42.5602253,11.4513456]}
{"name":"Koulayyou","other_names":{"name:ar":"كولايو","name:fr":"Koulayyou"},"display_name":"Koulayyou, Balho بالها, Tadjourah تجرة, Djibouti جيبوتي","address":{"village":"Koulayyou","county":"Balho بالها","state":"Tadjourah تجرة","ISO3166-2-lvl4":"DJ-TA","country":"Djibouti جيبوتي","country_code":"dj"},"osm_type":"node","osm_id":5015600117,"type":"village","location":[42.4029816,11.9164546],"bbox":[42.3829816,11.8964546,42.4229816,11.9364546]}
{"name":"Koussour كوسور","other_names":{"name:ar":"كوسور","name:en":"Koussour","name:fr":"Koussour"},"display_name":"Koussour كوسور, Arta عرتا, Djibouti جيبوتي","address":{"village":"Koussour كوسور","state":"Arta عرتا","ISO3166-2-lvl4":"DJ-AR","country":"Djibouti جيبوتي","country_code":"dj"},"osm_type":"node","osm_id":4911691503,"type":"village","location":[42.4087133,11.5193028],"bbox":[42.3887133,11.4993028,42.4287133,11.5393028]}
{"name":"Kouta Bouyya کؤتا بؤیا","other_names":{"name:ar":"کؤتا بؤیا","name:en":"Kouta Bouyya","name:fr":"Kouta Bouyya"},"display_name":"Kouta Bouyya کؤتا بؤیا, As-Eyla ايلى, Dikhil دخيل, Djibouti جيبوتي","address":{"village":"Kouta Bouyya کؤتا بؤیا","county":"As-Eyla ايلى","state":"Dikhil دخيل","ISO3166-2-lvl4":"DJ-DI","country":"Djibouti جيبوتي","country_code":"dj"},"osm_type":"way","osm_id":420561508,"type":"village","location":[41.96017645208791,11.021658949999999],"bbox":[41.954231,11.0179267,41.9707287,11.0253292]}
{"name":"Koûta Boûyya کؤتا بؤیا","other_names":{"name:ar":"كوتا بويا","name:en":"Kouta Bouyya","name:fr":"Kouta Bouyya","alt_name":"Kouta Bouyya;Koûta Boûyya"},"display_name":"Koûta Boûyya کؤتا بؤیا, As-Eyla ايلى, Dikhil دخيل, Djibouti جيبوتي","address":{"village":"Koûta Boûyya کؤتا بؤیا","county":"As-Eyla ايلى","state":"Dikhil دخيل","ISO3166-2-lvl4":"DJ-DI","country":"Djibouti جيبوتي","country_code":"dj"},"osm_type":"node","osm_id":4911691502,"type":"village","location":[41.974485,11.017738],"bbox":[41.954485,10.997738,41.994485,11.037738]}
{"name":"Loyada لويعدا","other_names":{"name:ar":"لويعدا","name:de":"Loyada","name:en":"Loyada","name:fa":"لویادا","name:fr":"Loyada","name:it":"Loyada","name:ks":"لویعدا","name:pl":"Loyada","name:sv":"Loyada","name:ur":"لویادا","alt_name":"Loyi Ada;Loya Ada;La-waada;Loyada","name:azb":"لویادا","alt_name:ar":"لويادا;لاوياعادو;لوي أد;لويد"},"display_name":"Loyada لويعدا, Arta عرتا, Djibouti جيبوتي","address":{"village":"Loyada لويعدا","state":"Arta عرتا","ISO3166-2-lvl4":"DJ-AR","country":"Djibouti جيبوتي","country_code":"dj"},"osm_type":"node","osm_id":2211237137,"type":"village","location":[43.250489,11.461486],"bbox":[43.230489,11.441486,43.270489,11.481486]}
{"name":"Madgoul مدغول","other_names":{"name:ar":"مدغول","name:fr":"Madgoul"},"display_name":"Madgoul مدغول, Dorra, Tadjourah تجرة, Djibouti جيبوتي","address":{"village":"Madgoul مدغول","town":"Dorra","state":"Tadjourah تجرة","ISO3166-2-lvl4":"DJ-TA","country":"Djibouti جيبوتي","country_code":"dj"},"osm_type":"node","osm_id":4906992481,"type":"village","location":[42.481068,12.354686],"bbox":[42.461068,12.334686,42.501068,12.374686]}
{"name":"Margoïta مارغويتا","other_names":{"name:ar":"مارغويتا","name:en":"Margoyta","name:fr":"Margoïta"},"display_name":"Margoïta مارغويتا, Dorra, Tadjourah تجرة, Djibouti جيبوتي","address":{"village":"Margoïta مارغويتا","town":"Dorra","state":"Tadjourah تجرة","ISO3166-2-lvl4":"DJ-TA","country":"Djibouti جيبوتي","country_code":"dj"},"osm_type":"node","osm_id":2535226949,"type":"village","location":[42.4582477,12.410657],"bbox":[42.4382477,12.390657,42.4782477,12.430657]}
{"name":"Mêdého مديهو","other_names":{"name:ar":"مديهو","name:en":"Medeho","name:fr":"Mêdého","alt_name":"Medeho;Méé Dôho;Mee Doho;Médého"},"display_name":"Mêdého مديهو, Région d'Obock إقليم أبخ, Obock أبخ, Djibouti جيبوتي","address":{"village":"Mêdého مديهو","county":"Région d'Obock إقليم أبخ","state":"Obock أبخ","ISO3166-2-lvl4":"DJ-OB","country":"Djibouti جيبوتي","country_code":"dj"},"osm_type":"node","osm_id":2527623264,"type":"village","location":[43.025475,11.9733486],"bbox":[43.005475,11.9533486,43.045475,11.9933486]}
{"name":"Moulhoulé مول هولة","other_names":{"name:ar":"مول هولة","name:en":"Moulhoule","name:fr":"Moulhoulé","alt_name":"Moulhoule;Moulhoulé"},"display_name":"Moulhoulé مول هولة, Alaili Dadda علايلي دادا, Obock أبخ, Djibouti جيبوتي","address":{"village":"Moulhoulé مول هولة","county":"Alaili Dadda علايلي دادا","state":"Obock أبخ","ISO3166-2-lvl4":"DJ-OB","country":"Djibouti جيبوتي","country_code":"dj"},"osm_type":"node","osm_id":2164655845,"type":"village","location":[43.1948949,12.5901432],"bbox":[43.1748949,12.5701432,43.2148949,12.6101432]}
{"name":"Mouloud - مولود","other_names":{"name:ar":"مولود","name:en":"Moulud Village","name:fr":"Mouloud"},"display_name":"Mouloud - مولود, Dikhil دخيل, Djibouti جيبوتي","address":{"village":"Mouloud - مولود","county":"Dikhil دخيل","state":"Dikhil دخيل","ISO3166-2-lvl4":"DJ-DI","country":"Djibouti جيبوتي","country_code":"dj"},"osm_type":"node","osm_id":1150669027,"type":"village","location":[42.5044449,11.1632078],"bbox":[42.4844449,11.1432078,42.5244449,11.1832078],"border":{"name":"Mouloud","other_names":{"name:ar":"مولود","name:fr":"Mouloud"},"display_name":"Mouloud, Mouloud - مولود, Dikhil دخيل, Djibouti جيبوتي","address":{"village":"Mouloud","county":"Dikhil دخيل","state":"Dikhil دخيل","ISO3166-2-lvl4":"DJ-DI","country":"Djibouti جيبوتي","country_code":"dj"},"osm_type":"way","osm_id":619856754,"type":"village","location":[42.50330303609709,11.16300215],"bbox":[42.4969993,11.1588037,42.5106083,11.1672948]}}
{"name":"Nagâd","other_names":{"name:ar":"نقاذ","name:de":"Nagad","name:en":"Nagad","name:fr":"Nagâd","alt_name":"Nagâḏ","alt_name:ar":"ناقاد"},"display_name":"Nagâd, Arta عرتا, Djibouti جيبوتي","address":{"village":"Nagâd","state":"Arta عرتا","ISO3166-2-lvl4":"DJ-AR","country":"Djibouti جيبوتي","country_code":"dj"},"osm_type":"node","osm_id":2197367689,"type":"village","location":[43.133683,11.5158811],"bbox":[43.113683,11.4958811,43.153683,11.5358811]}
{"name":"Ouéa","other_names":{"name:ar":"وع","name:fr":"Ouéa","alt_name":"Gué'a;Wê'a;We'a;Ouê'a;Ouéah","alt_name:fr":"Gué'a;Wê'a;We'a;Ouê'a;Ouéah"},"display_name":"Ouéa, Arta عرتا, Djibouti جيبوتي","address":{"village":"Ouéa","state":"Arta عرتا","ISO3166-2-lvl4":"DJ-AR","country":"Djibouti جيبوتي","country_code":"dj"},"population":5000,"osm_type":"node","osm_id":1150669033,"type":"village","location":[42.8612734,11.5021556],"bbox":[42.8412734,11.4821556,42.8812734,11.5221556]}
{"name":"Randa رندة","other_names":{"name:aa":"Sūrí Randá","name:ar":"رندة","name:de":"Randa","name:en":"Randa","name:fr":"Randa","name:ru":"Ранда","alt_name":"راندا;Randa","alt_name:ar":"راندا;رند"},"display_name":"Randa رندة, Randa راندا, Tadjourah تجرة, Djibouti جيبوتي","address":{"village":"Randa رندة","county":"Randa راندا","state":"Tadjourah تجرة","ISO3166-2-lvl4":"DJ-TA","country":"Djibouti جيبوتي","country_code":"dj"},"osm_type":"node","osm_id":316808512,"type":"village","location":[42.657682,11.848328],"bbox":[42.637682,11.828328,42.677682,11.868328],"border":{"name":"Randa راندا","other_names":{"name:ar":"راندا","name:fr":"Sous-préfecture de Randa"},"display_name":"Randa راندا, Tadjourah تجرة, Djibouti جيبوتي","address":{"county":"Randa راندا","state":"Tadjourah تجرة","ISO3166-2-lvl4":"DJ-TA","country":"Djibouti جيبوتي","country_code":"dj"},"osm_type":"relation","osm_id":3905173,"type":"administrative","location":[42.73579380999409,12.03689],"bbox":[42.45401,11.69934,42.946781,12.345831]}}
{"name":"Ripta ربتا","other_names":{"name:ar":"ربتا","name:fr":"Ripta"},"display_name":"Ripta ربتا, Tadjoura تجرة, Tadjourah تجرة, Djibouti جيبوتي","address":{"village":"Ripta ربتا","county":"Tadjoura تجرة","state":"Tadjourah تجرة","ISO3166-2-lvl4":"DJ-TA","country":"Djibouti جيبوتي","country_code":"dj"},"osm_type":"node","osm_id":2527990666,"type":"village","location":[42.9179346,11.8640934],"bbox":[42.8979346,11.8440934,42.9379346,11.8840934]}
{"name":"Sagallou ساغلو","other_names":{"name:ar":"ساغلو‎","name:en":"Sagallo","name:fr":"Sagallou","name:ru":"Сагалло","alt_name":"سكالو","alt_name:ar":"سكالو"},"display_name":"Sagallou ساغلو, Tadjoura تجرة, Tadjourah تجرة, Djibouti جيبوتي","address":{"village":"Sagallou ساغلو","county":"Tadjoura تجرة","state":"Tadjourah تجرة","ISO3166-2-lvl4":"DJ-TA","country":"Djibouti جيبوتي","country_code":"dj"},"osm_type":"node","osm_id":2533969705,"type":"village","location":[42.7341999,11.6715637],"bbox":[42.7141999,11.6515637,42.7541999,11.6915637]}
{"name":"Sankal","display_name":"Sankal, As-Eyla ايلى, Dikhil دخيل, Djibouti جيبوتي","address":{"village":"Sankal","county":"As-Eyla ايلى","state":"Dikhil دخيل","ISO3166-2-lvl4":"DJ-DI","country":"Djibouti جيبوتي","country_code":"dj"},"osm_type":"node","osm_id":7508093502,"type":"village","location":[42.201368,10.9739286],"bbox":[42.181368,10.9539286,42.221368,10.9939286]}
{"name":"Sidiha Menguêla سيديها مانغيلا","other_names":{"name:ar":"سيديها مانغيلا","name:fr":"Sidiha Menguêla"},"display_name":"Sidiha Menguêla سيديها مانغيلا, Alaili Dadda علايلي دادا, Obock أبخ, Djibouti جيبوتي","address":{"village":"Sidiha Menguêla سيديها مانغيلا","county":"Alaili Dadda علايلي دادا","state":"Obock أبخ","ISO3166-2-lvl4":"DJ-OB","country":"Djibouti جيبوتي","country_code":"dj"},"osm_type":"node","osm_id":2533651224,"type":"village","location":[42.8571827,12.5446581],"bbox":[42.8371827,12.5246581,42.8771827,12.5646581]}
{"display_name":"Tadjourah تجرة, Djibouti جيبوتي","address":{"state":"Tadjourah تجرة","ISO3166-2-lvl4":"DJ-TA","country":"Djibouti جيبوتي","country_code":"dj"},"osm_type":"relation","osm_id":11259870,"type":"village","location":[42.45814325230371,12.410860150000001],"bbox":[42.4576971,12.410331,42.4586922,12.4115124]}
{"name":"Tewao تيو","other_names":{"name:ar":"تيو","name:en":"Tew`o","name:fr":"Tewao","alt_name":"Tew`o;Teoao;Tewao;Tew‘o"},"display_name":"Tewao تيو, Yoboki يوبوكي, Dikhil دخيل, Djibouti جيبوتي","address":{"village":"Tewao تيو","state":"Yoboki يوبوكي","ISO3166-2-lvl4":"DJ-DI","country":"Djibouti جيبوتي","country_code":"dj"},"osm_type":"node","osm_id":4906966606,"type":"village","location":[42.0656605,11.4283682],"bbox":[42.0456605,11.4083682,42.0856605,11.4483682]}
{"name":"أسا هوغود Assa Hougoub","other_names":{"name:ar":"أسا هوغود","name:en":"Assa Hougoub","name:fr":"Assa Hougoub"},"display_name":"أسا هوغود Assa Hougoub, Tadjoura تجرة, Tadjourah تجرة, Djibouti جيبوتي","address":{"village":"أسا هوغود Assa Hougoub","county":"Tadjoura تجرة","state":"Tadjourah تجرة","ISO3166-2-lvl4":"DJ-TA","country":"Djibouti جيبوتي","country_code":"dj"},"osm_type":"node","osm_id":2533978929,"type":"village","location":[42.8039871,11.7870305],"bbox":[42.7839871,11.7670305,42.8239871,11.8070305]}
{"name":"أندالي Andoli","other_names":{"name:ar":"أندالي","name:en":"Andali","name:fr":"Andali"},"display_name":"أندالي Andoli, Alaili Dadda علايلي دادا, Obock أبخ, Djibouti جيبوتي","address":{"village":"أندالي Andoli","county":"Alaili Dadda علايلي دادا","state":"Obock أبخ","ISO3166-2-lvl4":"DJ-OB","country":"Djibouti جيبوتي","country_code":"dj"},"osm_type":"node","osm_id":2555235361,"type":"village","location":[42.9852198,12.495517],"bbox":[42.9652198,12.475517,43.0052198,12.515517]}
{"name":"بويا Bouyya","other_names":{"name:ar":"بويا","name:en":"Bouyya","name:fr":"Bouyya"},"display_name":"بويا Bouyya, Dorra, Tadjourah تجرة, Djibouti جيبوتي","address":{"village":"بويا Bouyya","town":"Dorra","state":"Tadjourah تجرة","ISO3166-2-lvl4":"DJ-TA","country":"Djibouti جيبوتي","country_code":"dj"},"osm_type":"node","osm_id":2528125516,"type":"village","location":[42.358291,12.380962],"bbox":[42.338291,12.360962,42.378291,12.400962]}
{"name":"خور أنغار Khôr ‘Angar","other_names":{"name:ar":"خور أنغار","name:en":"Khor Angar","name:fr":"khor Angar village","alt_name":"Khor Angar;Angârou;Angarou;Khor-Anghar;Poste d’Anghor;Poste d'Anghor;Anghar;Khôr Angar","alt_name:ar":"أنغر"},"display_name":"خور أنغار Khôr ‘Angar, Région d'Obock إقليم أبخ, Obock أبخ, Djibouti جيبوتي","address":{"village":"خور أنغار Khôr ‘Angar","county":"Région d'Obock إقليم أبخ","state":"Obock أبخ","ISO3166-2-lvl4":"DJ-OB","country":"Djibouti جيبوتي","country_code":"dj"},"osm_type":"node","osm_id":2164655828,"type":"village","location":[43.3344999,12.3868588],"bbox":[43.3144999,12.3668588,43.3544999,12.4068588]}
{"name":"سانكال","other_names":{"name:ar":"سانكال","name:fr":"Sancal"},"display_name":"سانكال, As-Eyla ايلى, Dikhil دخيل, Djibouti جيبوتي","address":{"village":"سانكال","county":"As-Eyla ايلى","state":"Dikhil دخيل","ISO3166-2-lvl4":"DJ-DI","country":"Djibouti جيبوتي","country_code":"dj"},"osm_type":"node","osm_id":4906992480,"type":"village","location":[42.1490434,11.007034],"bbox":[42.1290434,10.987034,42.1690434,11.027034]}
{"name":"غوبتو Goubetto","other_names":{"name:ar":"غوبتو","name:en":"Goubetto","name:fr":"Goubetto","alt_name":"Goubetto;Goubatto;Goubétto","alt_name:ar":"غوبتّو"},"display_name":"غوبتو Goubetto, Ali Sabieh علي صبيح, Djibouti جيبوتي","address":{"village":"غوبتو Goubetto","state":"Ali Sabieh علي صبيح","ISO3166-2-lvl4":"DJ-AS","country":"Djibouti جيبوتي","country_code":"dj"},"osm_type":"node","osm_id":266678123,"type":"village","location":[42.999281,11.421515],"bbox":[42.979281,11.401515,43.019281,11.441515]}
{"name":"غيراري Gaoura","other_names":{"name:ar":"غيراري","name:en":"Gaoura","name:fr":"Gaoura"},"display_name":"غيراري Gaoura, Randa راندا, Tadjourah تجرة, Djibouti جيبوتي","address":{"village":"غيراري Gaoura","county":"Randa راندا","state":"Tadjourah تجرة","ISO3166-2-lvl4":"DJ-TA","country":"Djibouti جيبوتي","country_code":"dj"},"osm_type":"node","osm_id":2537680593,"type":"village","location":[42.7558727,12.010361],"bbox":[42.7358727,11.990361,42.7758727,12.030361]}
{"name":"كيستر Guistir","other_names":{"name:ar":"كيستر","name:en":"Guistir","name:fr":"Guistir","name:ar1":"جويستي"},"display_name":"كيستر Guistir, Ali Sabieh علي صبيح, Djibouti جيبوتي","address":{"village":"كيستر Guistir","state":"Ali Sabieh علي صبيح","ISO3166-2-lvl4":"DJ-AS","country":"Djibouti جيبوتي","country_code":"dj"},"osm_type":"node","osm_id":2541044186,"type":"village","location":[42.9612162,11.014034],"bbox":[42.9412162,10.994034,42.9812162,11.034034]}
{"name":"لأسا Lahassa","other_names":{"name:ar":"لأسا","name:en":"Lahassa","name:fr":"Lahassa"},"display_name":"لأسا Lahassa, Région d'Obock إقليم أبخ, Obock أبخ, Djibouti جيبوتي","address":{"village":"لأسا Lahassa","county":"Région d'Obock إقليم أبخ","state":"Obock أبخ","ISO3166-2-lvl4":"DJ-OB","country":"Djibouti جيبوتي","country_code":"dj"},"osm_type":"node","osm_id":2932597462,"type":"village","location":[43.1884474,12.3618173],"bbox":[43.1684474,12.3418173,43.2084474,12.3818173]}
{"name":"مودو Mouddo","other_names":{"name:ar":"مودو","name:en":"Mouddo","name:fr":"Mouddo","alt_name":"Mouddo;Moudo","alt_name:ar":"مودّو"},"display_name":"مودو Mouddo, Dorra, Tadjourah تجرة, Djibouti جيبوتي","address":{"village":"مودو Mouddo","town":"Dorra","state":"Tadjourah تجرة","ISO3166-2-lvl4":"DJ-TA","country":"Djibouti جيبوتي","country_code":"dj"},"osm_type":"node","osm_id":2527549571,"type":"village","location":[42.4395868,12.3009817],"bbox":[42.4195868,12.2809817,42.4595868,12.3209817]}
{"name":"وادي Ouadi","other_names":{"name:ar":"وادي","name:en":"Waddi","name:fr":"Waddi"},"display_name":"وادي Ouadi, Région d'Obock إقليم أبخ, Obock أبخ, Djibouti جيبوتي","address":{"village":"وادي Ouadi","county":"Région d'Obock إقليم أبخ","state":"Obock أبخ","ISO3166-2-lvl4":"DJ-OB","country":"Djibouti جيبوتي","country_code":"dj"},"osm_type":"node","osm_id":2527625381,"type":"village","location":[43.0085222,12.136888],"bbox":[42.9885222,12.116888,43.0285222,12.156888]}
{"name":"وع Ouêa","other_names":{"name:ar":"وع","name:de":"Oueah","name:en":"Oue`a","name:fa":"وع","name:fr":"Oueah","name:it":"We`a","name:ru":"Вея","name:sv":"Ouê‘a","alt_name":"Oue`a;Wê‘a;We`a;Ouê‘a"},"display_name":"وع Ouêa, Tadjoura تجرة, Tadjourah تجرة, Djibouti جيبوتي","address":{"village":"وع Ouêa","county":"Tadjoura تجرة","state":"Tadjourah تجرة","ISO3166-2-lvl4":"DJ-TA","country":"Djibouti جيبوتي","country_code":"dj"},"osm_type":"node","osm_id":2538066803,"type":"village","location":[42.6893886,11.6809364],"bbox":[42.6693886,11.6609364,42.7093886,11.7009364]}
