{"name":"Djibouti جيبوتي","other_names":{"name:af":"Djiboeti","name:am":"ጅቡቲ","name:an":"Chibuti","name:ar":"جيبوتي","name:az":"Cibuti","name:ba":"Джибути","name:be":"Джыбуці","name:bg":"Джибути","name:bn":"জিবুতি","name:bo":"ཇི་བའོ་ཊི།","name:br":"Djibouti","name:bs":"Djibouti","name:ca":"Djibouti","name:ce":"Джибути","name:cs":"Džíbutí","name:cv":"Джибути","name:cy":"Djibouti","name:da":"Djibouti","name:de":"Dschibuti","name:dv":"ޖިބުތީ","name:ee":"Djibouti","name:el":"Τζιμπουτί","name:en":"Djibouti","name:eo":"Ĝibutio","name:es":"Yibuti","name:et":"Djibouti","name:eu":"Djibuti","name:fa":"جیبوتی","name:fi":"Djibouti","name:fr":"Djibouti","name:fy":"Dzjibûty","name:ga":"Diobúití","name:gd":"Djibouti","name:gl":"Xibutí","name:gn":"Jimbúti","name:gv":"Djibouti","name:ha":"Jibuti","name:he":"ג'יבוטי","name:hi":"जीबूती","name:hr":"Djibouti","name:ht":"Djibouti","name:hu":"Dzsibuti","name:hy":"Ջիբութի","name:ia":"Djibouti","name:id":"Djibouti","name:ie":"Djibouti","name:io":"Djibuti","name:is":"Djíbútí","name:it":"Gibuti","name:ja":"ジブチ市","name:jv":"Djibouti","name:ka":"ჯიბუტი","name:kg":"Djibuti","name:ki":"Djibouti","name:kk":"Джибути","name:kn":"ಜಿಬೂತೀ","name:ko":"지부티","name:ks":"جیبوتی","name:ku":"Cîbûtî","name:kw":"Sita Jibouti","name:ky":"Жибути шаары","name:la":"Urbs Dzibutum","name:lb":"Dschibuti","name:li":"Djibouti","name:ln":"Djibuti","name:lt":"Džibutis","name:lv":"Džibuti","name:mg":"Jibotia","name:mk":"Џибути","name:ml":"ജിബൂട്ടി","name:mr":"जिबूती","name:ms":"Djibouti","name:mt":"Ġibuti","name:my":"ဂျီဘူတီနိုင်ငံ","name:na":"Djibuti","name:nb":"Djibouti","name:ne":"जिबुटी","name:nl":"Djibouti","name:nn":"Djibouti","name:no":"Djibouti","name:nv":"Jibótii","name:oc":"Jiboti","name:om":"Jibuutii","name:or":"ଡିଜିବୋଇଟି","name:os":"Джибути","name:pa":"ਜਿਬੂਤੀ","name:pl":"Dżibuti","name:ps":"جېبوتي","name:pt":"Djibouti","name:qu":"Yiwuti","name:ro":"Djibouti","name:ru":"Джибути","name:rw":"Jibuti","name:sa":"जिबूटी","name:sc":"Gibuti","name:sd":"جبوتي","name:se":"Djibouti","name:sg":"Dibutùii","name:sh":"Djibouti","name:sk":"Džibuti","name:sl":"Džibuti","name:sn":"Djibouti","name:so":"Jabuuti","name:sq":"Xhibuti","name:sr":"Џибути","name:ss":"IJibhuthi","name:su":"Djibouti","name:sv":"Djibouti","name:sw":"Jibuti","name:ta":"சீபூத்தீ","name:te":"జిబౌటి","name:tg":"Ҷибути","name:th":"จิบูตี","name:ti":"ጂቡቲ","name:tk":"Jibuti","name:tl":"Djibouti","name:tr":"Cibuti","name:ts":"Djibouti","name:tt":"Җибути","name:ug":"جىبۇتى","name:uk":"Джибуті","name:ur":"جبوتی","name:uz":"Jibuti","name:vi":"Djibouti","name:vo":"Cibutän","name:wo":"Jibuti","name:yi":"דזשיבוטי","name:yo":"Djibouti","name:zh":"吉布地市","name:zu":"IJibuthi","name:ace":"Djibouti","name:arz":"جيبوتي","name:ast":"Xibuti","name:azb":"جیبوتی","name:bcl":"Dibouti","name:bjn":"Djibouti","name:bpy":"ডিজিবোটি","name:bxr":"Джибути","name:ceb":"Yibuti","name:ckb":"جیبووتی","name:crh":"Cibuti","name:diq":"Cibuti","name:ext":"Yibuti","name:frp":"Dj·iboti","name:gag":"Cibuti","name:hif":"Djibouti","name:hsb":"Dźibuti","name:ilo":"Djibouti","name:kab":"Jibuti","name:kmr":"جیبووتی","name:lij":"Gibuti","name:lmo":"Djibouti","name:lrc":"جیبۊتی","name:lzh":"吉布地","name:min":"Djibouti","name:mrj":"Джибути","name:mzn":"جیبوتی","name:nah":"Yibuti","name:nan":"Djibouti","name:nds":"Dschibuti","name:nov":"Djibuti","name:nso":"Djibouti","name:pam":"Djibouti","name:pdc":"Tschibuti","name:pih":"Jibuuti","name:pms":"Djibouti","name:pnb":"جبوتی","name:rue":"Джібутьско","name:sah":"Дьибути","name:scn":"Gibbuti","name:sco":"Djibouti","name:stq":"Dschibuti","name:udm":"Джибути","name:vec":"Gibuti","name:vro":"Djibouti","name:war":"Djibouti","name:xal":"Җибудин","name:yue":"吉布提","alt_name:ar":"دجبت;غإبت;جبت;جبوت;جيبوتي;جيبوتى;دجيبوتي;مدينة جيبوتي","name:simple":"Djibouti","name:bat-smg":"Džėbotis","name:kk-Arab":"دجىيبۋتىي","name:ku-Arab":"جیبووتی","name:kab-Arab":"جيبوتي"},"display_name":"Djibouti جيبوتي","address":{"city":"Djibouti جيبوتي","ISO3166-2-lvl4":"DJ-DJ","country":"Djibouti جيبوتي","country_code":"dj"},"population":475332,"osm_type":"node","osm_id":27565085,"type":"city","location":[43.1472724,11.5936903],"bbox":[42.9872724,11.4336903,43.3072724,11.7536903],"border":{"name":"Djibouti جيبوتي","other_names":{"ref":"DJ","name:ar":"جيبوتي","name:bs":"Djibouti","name:de":"Dschibuti","name:en":"Djibouti","name:es":"Yibuti","name:eu":"Djibuti","name:fa":"منطقه جیبوتی","name:fr":"Djibouti","name:fy":"Dzjibûty","name:id":"Jibouti","name:nl":"Djibouti","name:ru":"Джибути","name:sv":"Djiboutiregionen","name:ur":"جبوتی علاقہ","name:zh":"吉布提","name:zu":"Djibouti","name:ceb":"Djibouti","name:tzl":"Xhibuti","ISO3166-2":"DJ-DJ","name:af":"Djiboeti","name:am":"ጅቡቲ","name:an":"Chibuti","name:az":"Cibuti","name:ba":"Джибути","name:be":"Джыбуці","name:bg":"Джибути","name:bn":"জিবুতি","name:bo":"ཇི་བའོ་ཊི།","name:br":"Djibouti","name:ca":"Djibouti","name:ce":"Джибути","name:cs":"Džíbutí","name:cv":"Джибути","name:cy":"Djibouti","name:da":"Djibouti","name:dv":"ޖިބުތީ","name:ee":"Djibouti","name:el":"Τζιμπουτί","name:eo":"Ĝibutio","name:et":"Djibouti","name:fi":"Djibouti","name:ga":"Diobúití","name:gd":"Djibouti","name:gl":"Xibutí","name:gn":"Jimbúti","name:gv":"Djibouti","name:ha":"Jibuti","name:he":"ג'יבוטי","name:hi":"जीबूती","name:hr":"Djibouti","name:ht":"Djibouti","name:hu":"Dzsibuti","name:hy":"Ջիբութի","name:ia":"Djibouti","name:ie":"Djibouti","name:io":"Djibuti","name:is":"Djíbútí","name:it":"Gibuti","name:ja":"ジブチ市","name:jv":"Djibouti","name:ka":"ჯიბუტი","name:kg":"Djibuti","name:ki":"Djibouti","name:kk":"Джибути","name:kn":"ಜಿಬೂತೀ","name:ko":"지부티","name:ks":"جیبوتی","name:ku":"Cîbûtî","name:kw":"Sita Jibouti","name:ky":"Жибути шаары","name:la":"Urbs Dzibutum","name:lb":"Dschibuti","name:li":"Djibouti","name:ln":"Djibuti","name:lt":"Džibutis","name:lv":"Džibuti","name:mg":"Jibotia","name:mk":"Џибути","name:ml":"ജിബൂട്ടി","name:mr":"जिबूती","name:ms":"Djibouti","name:mt":"Ġibuti","name:my":"ဂျီဘူတီနိုင်ငံ","name:na":"Djibuti","name:nb":"Djibouti","name:ne":"जिबुटी","name:nn":"Djibouti","name:no":"Djibouti","name:nv":"Jibótii","name:oc":"Jiboti","name:om":"Jibuutii","name:or":"ଡିଜିବୋଇଟି","name:os":"Джибути","name:pa":"ਜਿਬੂਤੀ","name:pl":"Dżibuti","name:ps":"جېبوتي","name:pt":"Djibouti","name:qu":"Yiwuti","name:ro":"Djibouti","name:rw":"Jibuti","name:sa":"जिबूटी","name:sc":"Gibuti","name:sd":"جبوتي","name:se":"Djibouti","name:sg":"Dibutùii","name:sh":"Djibouti","name:sk":"Džibuti","name:sl":"Džibuti","name:sn":"Djibouti","name:so":"Jabuuti","name:sq":"Xhibuti","name:sr":"Џибути","name:ss":"IJibhuthi","name:su":"Djibouti","name:sw":"Jibuti","name:ta":"சீபூத்தீ","name:te":"జిబౌటి","name:tg":"Ҷибути","name:th":"จิบูตี","name:ti":"ጂቡቲ","name:tk":"Jibuti","name:tl":"Djibouti","name:tr":"Cibuti","name:ts":"Djibouti","name:tt":"Җибути","name:ug":"جىبۇتى","name:uk":"Джибуті","name:uz":"Jibuti","name:vi":"Djibouti","name:vo":"Cibutän","name:wo":"Jibuti","name:yi":"דזשיבוטי","name:yo":"Djibouti","name:ace":"Djibouti","name:arz":"جيبوتي","name:ast":"Xibuti","name:azb":"جیبوتی","name:bcl":"Dibouti","name:bjn":"Djibouti","name:bpy":"ডিজিবোটি","name:bxr":"Джибути","name:ckb":"جیبووتی","name:crh":"Cibuti","name:diq":"Cibuti","name:ext":"Yibuti","name:frp":"Dj·iboti","name:gag":"Cibuti","name:hif":"Djibouti","name:hsb":"Dźibuti","name:ilo":"Djibouti","name:kab":"Jibuti","name:kmr":"جیبووتی","name:lij":"Gibuti","name:lmo":"Djibouti","name:lrc":"جیبۊتی","name:lzh":"吉布地","name:min":"Djibouti","name:mrj":"Джибути","name:mzn":"جیبوتی","name:nah":"Yibuti","name:nan":"Djibouti","name:nds":"Dschibuti","name:nov":"Djibuti","name:nso":"Djibouti","name:pam":"Djibouti","name:pdc":"Tschibuti","name:pih":"Jibuuti","name:pms":"Djibouti","name:pnb":"جبوتی","name:rue":"Джібутьско","name:sah":"Дьибути","name:scn":"Gibbuti","name:sco":"Djibouti","name:stq":"Dschibuti","name:udm":"Джибути","name:vec":"Gibuti","name:vro":"Djibouti","name:war":"Djibouti","name:xal":"Җибудин","name:yue":"吉布提","alt_name:ar":"دجبت;غإبت;جبت;جبوت;جيبوتي;جيبوتى;دجيبوتي;مدينة جيبوتي","name:simple":"Djibouti","name:bat-smg":"Džėbotis","name:kk-Arab":"دجىيبۋتىي","name:ku-Arab":"جیبووتی","name:kab-Arab":"جيبوتي","alt:fa":"جیبوتی","alt:id":"Djibouti","alt:sv":"Djibouti","alt:ur":"جبوتی","alt:zh":"吉布地市","alt:zu":"IJibuthi","alt:ceb":"Yibuti"},"display_name":"Djibouti جيبوتي","address":{"city":"Djibouti جيبوتي","ISO3166-2-lvl4":"DJ-DJ","country":"Djibouti جيبوتي","country_code":"dj"},"population":475332,"osm_type":"relation","osm_id":3725245,"type":"administrative","location":[43.1472724,11.5936903],"bbox":[42.9242482,11.5291006,43.214037,11.7314481]}}
