{"name":"Ali Addé","other_names":{"name:ar":"علي عدي","name:de":"Ali Addé","name:fa":"علی ادی","name:fr":"Ali Addé","name:ru":"Али-Аддэ","name:ur":"ادی علی","alt_name":"`Ali `Adde;Aliadh;Ali Adda Courant;Ali Adda;Adi Adda;Ali Ada;‘Ali ‘Addé;Ali Addeh","name:azb":"علی ادی","alt_name:ar":"علي أدي;أل أدّ;أد أدّ;أل أد;ألأذ"},"display_name":"Ali Addé, علي عدي, Ali Sabieh علي صبيح, Djibouti جيبوتي","address":{"town":"Ali Addé","state":"Ali Sabieh علي صبيح","ISO3166-2-lvl4":"DJ-AS","country":"Djibouti جيبوتي","country_code":"dj"},"osm_type":"node","osm_id":7577142263,"type":"town","location":[42.8896625,11.1299505],"bbox":[42.8496625,11.0899505,42.9296625,11.1699505]}
{"name":"Ali Sabieh علي صبيح","other_names":{"name:ar":"علي صبيح","name:cs":"Ali Zabí","name:en":"Ali Sabieh","name:fr":"Ali Sabieh","name:ml":"അലി സബീഹ്","name:ru":"Али-Сабих","name:so":"Cali Sabiix","alt_name":"`Ali Sabieh;Ali Sabiè;Ali Sabie;Ali Sabiet;‘Ali Sabîẖ;`Ali Sabih;‘Ali Sabieh;‘Ali Sabieh علي صبيح","alt_name:ar":"علي سبح","alt_name:en":"`Ali Sabih"},"display_name":"Ali Sabieh علي صبيح, Djibouti جيبوتي","address":{"town":"Ali Sabieh علي صبيح","state":"Ali Sabieh علي صبيح","ISO3166-2-lvl4":"DJ-AS","country":"Djibouti جيبوتي","country_code":"dj"},"population":71230,"osm_type":"node","osm_id":316805035,"type":"town","location":[42.7045067,11.1560462],"bbox":[42.6645067,11.1160462,42.7445067,11.1960462],"border":{"name":"Ali Sabieh علي صبيح","other_names":{"name:ar":"علي صبيح","name:cs":"Ali Zabí","name:en":"Ali Sabieh","name:fr":"Ali Sabieh","name:ml":"അലി സബീഹ്","name:ru":"Али-Сабих","name:so":"Cali Sabiix","alt_name":"`Ali Sabieh;Ali Sabiè;Ali Sabie;Ali Sabiet;‘Ali Sabîẖ;`Ali Sabih;‘Ali Sabieh;‘Ali Sabieh علي صبيح","alt_name:ar":"علي سبح","alt_name:en":"`Ali Sabih"},"display_name":"Ali Sabieh علي صبيح, Djibouti جيبوتي","address":{"town":"Ali Sabieh علي صبيح","state":"Ali Sabieh علي صبيح","ISO3166-2-lvl4":"DJ-AS","country":"Djibouti جيبوتي","country_code":"dj"},"population":71230,"osm_type":"way","osm_id":669411619,"type":"town","location":[42.7045067,11.1560462],"bbox":[42.6873187,11.1259283,42.7307887,11.1661685]}}
{"name":"Artà عرتا","other_names":{"name:ar":"عرتا","name:en":"Artà","name:fa":"عرتا","name:fr":"Artà","name:ml":"അർത്ത","name:ur":"عرتا","alt_name":"أرتا;ارتا;`Arta;‘Arta;‘Arta أرتا","alt_name:ar":"أرتا;ارتا;عرتا;عرت"},"display_name":"Artà عرتا, Arta عرتا, Djibouti جيبوتي","address":{"town":"Artà عرتا","state":"Arta عرتا","ISO3166-2-lvl4":"DJ-AR","country":"Djibouti جيبوتي","country_code":"dj"},"population":10275,"osm_type":"node","osm_id":838704777,"type":"town","location":[42.8393629,11.5219459],"bbox":[42.7993629,11.4819459,42.8793629,11.5619459]}
{"name":"Balbala بلبالا","other_names":{"name:ar":"بلبالا","name:fr":"Balbala","name:ml":"ബൽബാല"},"display_name":"Balbala بلبالا, Djibouti جيبوتي","address":{"town":"Balbala بلبالا","city":"Djibouti جيبوتي","ISO3166-2-lvl4":"DJ-DJ","country":"Djibouti جيبوتي","country_code":"dj"},"osm_type":"node","osm_id":3605170673,"type":"town","location":[43.112817,11.556014],"bbox":[43.072817,11.516014,43.152817,11.596014]}
{"name":"Balho","other_names":{"name:ar":"بالهو","name:fr":"Balho","name:ml":"ബാൽഹോ"},"display_name":"Balho, Balho بالها, Tadjourah تجرة, Djibouti جيبوتي","address":{"town":"Balho","county":"Balho بالها","state":"Tadjourah تجرة","ISO3166-2-lvl4":"DJ-TA","country":"Djibouti جيبوتي","country_code":"dj"},"osm_type":"node","osm_id":316837942,"type":"town","location":[42.193992,12.059821],"bbox":[42.153992,12.019821,42.233992,12.099821],"border":{"name":"Balho بالها","other_names":{"name:ar":"بالها","name:de":"Balha","name:en":"Balho","name:es":"Balho","name:fr":"Sous-préfecture de Balho","official_name":"Sous-préfecture de Balho منطقة بالها","official_name:ar":"منطقة بالها"},"display_name":"Balho بالها, Tadjourah تجرة, Djibouti جيبوتي","address":{"county":"Balho بالها","state":"Tadjourah تجرة","ISO3166-2-lvl4":"DJ-TA","country":"Djibouti جيبوتي","country_code":"dj"},"osm_type":"relation","osm_id":3905170,"type":"administrative","location":[42.258402795812025,11.898420000000002],"bbox":[42.039867,11.59351,42.589809,12.202486]}}
{"name":"Dikhil دخيل","other_names":{"name:ar":"دخيل","name:be":"Дыхіл","name:da":"Dikhil","name:de":"Dikhil","name:el":"Ντικίλ","name:en":"Dikhil","name:et":"Dikhil","name:fa":"دخیل","name:fr":"Dikhil","name:id":"Dikhil","name:it":"Dikhil","name:ja":"ディキル","name:ka":"დიკილი","name:ko":"디킬","name:ks":"دخیل","name:lt":"Dikilis","name:ml":"ദിഖീൽ","name:nl":"Dikhil (stad)","name:pl":"Dikhil","name:ro":"Dikhil","name:ru":"Дикиль","name:sv":"Dikhil","name:tr":"Dikhil","name:ur":"دخیل","name:zh":"迪基勒","name:zu":"Dikhil","alt_name":"Dikil;Dikkil;Dicchil;Dicchil دخيل","name:azb":"دخیل","alt_name:ar":"دكل;دكّل"},"display_name":"Dikhil دخيل, دخيل, Dikhil دخيل, Djibouti جيبوتي","address":{"town":"Dikhil دخيل","county":"Dikhil دخيل","state":"Dikhil دخيل","ISO3166-2-lvl4":"DJ-DI","country":"Djibouti جيبوتي","country_code":"dj"},"population":35000,"osm_type":"node","osm_id":316809239,"type":"town","location":[42.3687433,11.1071149],"bbox":[42.3287433,11.0671149,42.4087433,11.1471149],"border":{"name":"Dikhil دخيل","other_names":{"name:ar":"دخيل","name:en":"Dikhil","name:fr":"Région Dikhil","alt_name:en":"Dikhil District","official_name":"Région Dikhil إقليم دخيل","official_name:ar":"إقليم دخيل"},"display_name":"Dikhil دخيل, Djibouti جيبوتي","address":{"county":"Dikhil دخيل","state":"Dikhil دخيل","ISO3166-2-lvl4":"DJ-DI","country":"Djibouti جيبوتي","country_code":"dj"},"osm_type":"relation","osm_id":3956454,"type":"administrative","location":[42.4594626117704,11.1505775],"bbox":[42.3044419,10.9818705,42.6661009,11.3392635]}}
{"name":"Dorra","other_names":{"name:ar":"درة","name:de":"Dorra","name:fa":"دره","name:fr":"Dorra","name:kk":"Дорра","name:ml":"ദോർറ","name:ru":"Дорра","name:sv":"Dorra","name:ur":"درہ","name:azb":"دره","alt_name:ar":"دورّ"},"display_name":"Dorra, Tadjourah تجرة, Djibouti جيبوتي","address":{"town":"Dorra","state":"Tadjourah تجرة","ISO3166-2-lvl4":"DJ-TA","country":"Djibouti جيبوتي","country_code":"dj"},"osm_type":"node","osm_id":316835311,"type":"town","location":[42.476494,12.149049],"bbox":[42.436494,12.109049,42.516494,12.189049],"border":{"name":"Dorra","other_names":{"name:ar":"درة","name:de":"Dorra","name:fa":"دره","name:fr":"Sous-préfecture de Dorra","name:kk":"Дорра","name:ru":"Дорра","name:sv":"Dorra","name:ur":"درہ","name:azb":"دره","alt_name:ar":"دورّ","official_name":"Sous-préfecture de Dorra","name:ml":"ദോർറ","official_name:fr":"Sous-préfecture de Dorra","alt:fr":"Dorra"},"display_name":"Dorra, Tadjourah تجرة, Djibouti جيبوتي","address":{"town":"Dorra","state":"Tadjourah تجرة","ISO3166-2-lvl4":"DJ-TA","country":"Djibouti جيبوتي","country_code":"dj"},"osm_type":"relation","osm_id":3905172,"type":"administrative","location":[42.476494,12.149049],"bbox":[42.219761,11.87855,42.7098988,12.52487]}}
{"name":"Holl-Holl هلهول","other_names":{"name:ar":"هلهول","name:en":"Holl-Holl","name:fr":"Holl-Holl","name:ml":"ഹോൽ-ഹോൽ","alt_name":"Hol Holl;Holl-Holl;Holhol","alt_name:ar":"هول هولّ;هولهول","alt_name:en":"Holhol"},"display_name":"Holl-Holl هلهول, Ali Sabieh علي صبيح, Djibouti جيبوتي","address":{"town":"Holl-Holl هلهول","state":"Ali Sabieh علي صبيح","ISO3166-2-lvl4":"DJ-AS","country":"Djibouti جيبوتي","country_code":"dj"},"osm_type":"node","osm_id":832062911,"type":"town","location":[42.927777,11.3095718],"bbox":[42.887777,11.2695718,42.967777,11.3495718],"border":{"name":"Holl-Holl هلهول","other_names":{"name:ar":"هلهول","name:en":"Holl-Holl","name:fr":"Holl-Holl","name:ml":"ഹോൽ-ഹോൽ","alt_name":"Hol Holl;Holl-Holl;Holhol","alt_name:ar":"هول هولّ;هولهول","alt_name:en":"Holhol"},"display_name":"Holl-Holl هلهول, Ali Sabieh علي صبيح, Djibouti جيبوتي","address":{"town":"Holl-Holl هلهول","state":"Ali Sabieh علي صبيح","ISO3166-2-lvl4":"DJ-AS","country":"Djibouti جيبوتي","country_code":"dj"},"osm_type":"relation","osm_id":10015689,"type":"administrative","location":[42.927777,11.3095718],"bbox":[42.8976141,11.2890777,42.9427687,11.3250161]}}
{"name":"Obock أبخ","other_names":{"name:ar":"أبخ","name:en":"Obock","name:fr":"Obock","name:ml":"ഒബൊക്ക്","alt_name":"Obok;Ubuk;Hayyou;Obok أوبوك","alt_name:ar":"أوبوك;أبخ;وبوك;هيّو","alt_name:en":"أوبوك"},"display_name":"Obock أبخ, Obock, Région d'Obock إقليم أبخ, Obock أبخ, Djibouti جيبوتي","address":{"town":"Obock أبخ","county":"Région d'Obock إقليم أبخ","state":"Obock أبخ","ISO3166-2-lvl4":"DJ-OB","country":"Djibouti جيبوتي","country_code":"dj"},"population":8500,"osm_type":"node","osm_id":316841441,"type":"town","location":[43.292228,11.9640149],"bbox":[43.252228,11.9240149,43.332228,12.0040149]}
{"name":"Tadjoura تجرة","other_names":{"name:aa":"Tagórri","name:ar":"تجرة","name:de":"Tadschura","name:en":"Tadjoura","name:es":"Tadyura","name:fa":"تاجوره","name:fr":"Tadjourah","name:ml":"താജൂറ","name:ru":"Таджура","name:so":"Tajuura","name:ur":"تاجورہ","alt_name":"Tagiura;Tajura;Tadjura;Tadjoura;Tadjoura تاجورة","alt_name:ar":"تاجورة;تدجور;تغإأر;تجر;تدجر"},"display_name":"Tadjoura تجرة, Tadjourah تجرة, Djibouti جيبوتي","address":{"town":"Tadjoura تجرة","county":"Tadjoura تجرة","state":"Tadjourah تجرة","ISO3166-2-lvl4":"DJ-TA","country":"Djibouti جيبوتي","country_code":"dj"},"population":25000,"osm_type":"node","osm_id":316808022,"type":"town","location":[42.8846543,11.7857101],"bbox":[42.8446543,11.7457101,42.9246543,11.8257101],"border":{"name":"Tadjoura تجرة","other_names":{"name:ar":"تجرة","name:de":"Tadschura","name:en":"Tadjoura","name:es":"Tadyura","name:fr":"Préfecture de Tadjoura","name:ur":"تاجورہ","alt_name:ar":"تاجورة;منطقة تاجورة","official_name":"Préfecture de Tadjoura منطقة تجرة","official_name:ar":"منطقة تجرة","official_name:en":"Tadjoura District"},"display_name":"Tadjoura تجرة, Tadjourah تجرة, Djibouti جيبوتي","address":{"county":"Tadjoura تجرة","state":"Tadjourah تجرة","ISO3166-2-lvl4":"DJ-TA","country":"Djibouti جيبوتي","country_code":"dj"},"osm_type":"relation","osm_id":3905174,"type":"administrative","location":[42.77901895400541,11.7806538],"bbox":[42.4627,11.555354,43.0688725,12.00596]}}
{"name":"Yoboki يوبوكي","other_names":{"name:ar":"يوبوكي","name:de":"Yoboki","name:en":"Yoboki","name:fa":"یوبوکی","name:fr":"Yoboki","name:ml":"യോബോക്കി","name:sv":"Yoboki","name:ur":"یوبوکی","alt_name":"Yoboki","name:azb":"یوبوکی","alt_name:ar":"يوبوك"},"display_name":"Yoboki يوبوكي, Dikhil دخيل, Djibouti جيبوتي","address":{"town":"Yoboki يوبوكي","state":"Yoboki يوبوكي","ISO3166-2-lvl4":"DJ-DI","country":"Djibouti جيبوتي","country_code":"dj"},"population":20644,"osm_type":"node","osm_id":316829724,"type":"town","location":[42.1037241,11.5081383],"bbox":[42.0637241,11.4681383,42.1437241,11.5481383],"border":{"name":"Yoboki يوبوكي","other_names":{"name:ar":"يوبوكي","name:de":"Yoboki","name:en":"Yoboki","name:es":"Yoboki","name:fa":"یوبوکی","name:fr":"Sous-préfecture de Yoboki","name:sv":"Yoboki","name:ur":"یوبوکی","name:azb":"یوبوکی","official_name":"Sous-préfecture de Yoboki منطقة يوبوكي","official_name:ar":"منطقة يوبوكي","_place_official_name":"منطقة يوبوكي","official_name:en":"Yoboki District","alt:ar":"يوبوكي‎‎","alt:fr":"Yoboki"},"display_name":"Yoboki يوبوكي, Dikhil دخيل, Djibouti جيبوتي","address":{"state":"Yoboki يوبوكي","ISO3166-2-lvl4":"DJ-DI","country":"Djibouti جيبوتي","country_code":"dj"},"osm_type":"relation","osm_id":3905169,"type":"administrative","location":[42.0889125,11.5901326],"bbox":[41.7713139,11.23582,42.402871,11.932071]}}
